SPZO Dic2008-010000Z 02011KT 350V070 9999 FEW050 SCT230 16/03 Q1027 RMK PP000=
SPZO Dic2008-010100Z 02010KT 330V060 9999 FEW050 BKN100 15/04 Q1029 RMK PP000=
SPZO Dic2008-010200Z 00000KT 9999 SCT040 BKN100 15/04 Q1030 RMK PP000=
SPZO Dic2008-010300Z 36007KT 300V060 9999 SCT040 BKN050 14/05 Q1032 RMK PP000=
SPZO Dic2008-010400Z 01004KT 320V060 9999 SCT040 BKN050 11/05 Q1033 RMK PP000=
SPZO Dic2008-010500Z 06006KT 020V080 9999 -RA SCT040 BKN050 08/06 Q1033 RMK PP012=
SPZO Dic2008-010600Z 06006KT 9999 RA SCT040 BKN050 08/06 Q1033 RMK PP040=
SPZO Dic2008-010700Z 05002KT 9000 -RA SCT036 BKN046 07/04 Q1032 RMK PP030=
SPZO Dic2008-010800Z 00000KT 9000 -RA SCT036 BKN046 07/04 Q1032 RMK PP010=
SPZO Dic2008-010900Z 00000KT 8000 -RA SCT036 BKN046 07/04 Q1032 RMK PP020=
SPZO Dic2008-011000Z 00000KT 9000 -DZ FEW020 SCT036 BKN046 07/05 Q1032 RMK PP008=
SPZO Dic2008-011100Z 06004KT 9000 SCT030 SCT046 07/05 Q1033 NOSIG RMK=
SPZO Dic2008-011200Z 05004KT 350V060 9999 SCT020 SCT050 09/05 Q1033 NOSIG RMK PP000=
SPZO Dic2008-011300Z 05005KT 360V060 9999 SCT025 BKN046 10/05 Q1034 NOSIG RMK PP000=
SPZO Dic2008-011400Z VRB02KT 9999 FEW036 SCT100 13/05 Q1034 NOSIG RMK PP000=
SPZO Dic2008-011500Z 05004KT 360V060 9999 FEW036 SCT043 BKN046 13/05 Q1033 NOSIG RMK PP000=
SPZO Dic2008-011600Z VRB02KT 9999 FEW036 SCT043 BKN050 14/05 Q1032 NOSIG RMK PP000=
SPZO Dic2008-011700Z VRB02KT 9999 SCT040 BKN050 16/05 Q1032 NOSIG RMK=
SPZO Dic2008-011800Z 35005KT 260V070 9999 BKN050 SCT100 18/04 Q1030 NOSIG RMK WIND RWY 10 01014KT 290V060 PP000=
SPZO Dic2008-011900Z 35011KT 300V030 9999 BKN050 SCT100 18/05 Q1028 TEMPO=
SPZO Dic2008-012000Z 35007KT 300V040 9999 BKN050 SCT100 18/05 Q1027 NOSIG RMK WIND RWY 10 32015KT 250V030 PP000=
SPZO Dic2008-012100Z 34009KT 300V030 9999 BKN050 SCT100 18/04 Q1027 NOSIG RMK WIND RWY 10 VRB10G20KT PP000=
SPZO Dic2008-012200Z 36010KT 300V050 9999 SCT050 SCT100 17/03 Q1027 NOSIG RMK WIND RWY 10 36009G21KT 290V090 TMAX 19.2 PP000=
SPZO Dic2008-012300Z 34006KT 280V040 9999 SCT050 SCT100 16/04 Q1028 NOSIG RMK PP000=
SPZO Dic2008-020000Z VRB02KT 9999 SCT046 BKN100 14/05 Q1029 RMK PP000=
SPZO Dic2008-020100Z 06004KT 9999 SCT046 BKN100 12/06 Q1031 RMK PP000=
SPZO Dic2008-020200Z 00000KT 9999 SCT046 BKN100 13/05 Q1032 RMK PP000=
SPZO Dic2008-020300Z 00000KT 9999 SCT046 BKN100 13/07 Q1032 RMK PP000=
SPZO Dic2008-020400Z 00000KT 9999 SCT046 BKN100 12/07 Q1032 RMK PP000=
SPZO Dic2008-020500Z 35006KT 300V020 9999 SCT040 BKN046 12/05 Q1032 RMK PP000=
SPZO Dic2008-020600Z 28006KT 240V020 9999 SCT040 BKN 046 12/05 Q1032 RMK PP000=
SPZO Dic2008-020700Z 31005KT 260V360 9999 SCT036 BKN046 11/04 Q1032 RMK PP000=
SPZO Dic2008-020800Z 33004KT 260V010 9999 SCT036 BKN046 10/05 Q1032 RMK PP000=
SPZO Dic2008-020900Z 35002KT 9999 SCT036 BKN046 10/06 Q1031 REDZ RMK PP002=
SPZO Dic2008-021000Z 05002KT 9999 SCT036 BKN046 09/06 Q1031 RMK PP000=
SPZO Dic2008-021100Z 00000KT 9999 FEW020 SCT060 10/06 Q1032 NOSIG RMK PP000=
SPZO Dic2008-021200Z VRB03KT 9999 SCT030 SCT150 12/05 Q1033 NOSIG RMK=
SPZO Dic2008-021300Z VRB03KT 9999 SCT033 SCT150 13/05 Q1033 NOSIG RMK=
SPZO Dic2008-021400Z VRB02KT 9999 SCT036 SCT150 15/04 Q1033 NOSIG RMK=
SPZO Dic2008-021500Z VRB03KT 9999 SCT040 SCT150 17/03 Q1032 NOSIG RMK=
SPZO Dic2008-021600Z VRB02KT 9999 SCT043 SCT150 18/06 Q1031 NOSIG RMK=
SPZO Dic2008-021700Z 27005KT 250V340 9999 SCT050 SCT060 18/03 Q1030 NOSIG RMK WIND RWY 10 VRB07G17KT PP000=
SPZO Dic2008-021800Z 27008KT 250V330 9999 FEW043 SCT050 19/04 Q1028 NOSIG RMK PP000=
SPZO Dic2008-021900Z 29007KT 9999 FEW040 SCT050 19/02 Q1027 NOSIG RMK RWY10 VRB15KT PP000=
SPZO Dic2008-022000Z 27006KT 250V320 9999 RA SCT040TCU SCT050 19/04 Q1026 NOSIG RWY10 28017KT RMK PP004=
SPZO Dic2008-022100Z 31010KT 280V340 9999 RA SCT040TCU BKN046 17/06 Q1025 NOSIG RMK RWY10 31020G33KT 240V360 PP004=
SPZO Dic2008-022200Z 33011KT 280V020 9999 VCSH FEW040TCU BKN046 17/021026 NOSIG RMK T.MAX 21.2 PP000=
SPZO Dic2008-022300Z 04010KT 360V070 8000 -RA VCSH FEW036TCU BKN046 12/07 Q1027 NOSIG RMK PP006=
SPZO Dic2008-030000Z 06005KT 8000 -RA SCT030TCU BKN040 11/08 Q1029 RMK PP004=
SPZO Dic2008-030100Z 05014KT 5000 -RA SCT030TCU BKN040 10/07 Q1031 RMK PP004=
SPZO Dic2008-030200Z 05007KT 9000 SCT030 BKN040 09/07 Q1031 RERA RMK PP022=
SPZO Dic2008-030300Z 03006KT 350V070 5000 -RA SCT030 BKN040 09/07 Q1032 RMK PP012=
SPZO Dic2008-030400Z VRB03KT 8000 -RA FEW030 BKN040 09/06 Q1032 RMK PP002=
SPZO Dic2008-030500Z 06003KT 9000 FEW030 BKN040 09/05 Q1032 RERA RMK PPTRZ=
SPZO Dic2008-030600Z 00000KT 7000 -RA FEW030 BKN040 09/05 Q1031 RMK PP002=
SPZO Dic2008-030700Z 26003KT 8000 -RA FEW030 BKN040 09/05 Q1030 RMK PPTRZ=
SPZO Dic2008-030800Z 00000KT 9000 FEW030 SCT040 BKN050 09/05 Q1030 RERA RMK PPTRZ=
SPZO Dic2008-030900Z 03004KT 350V060 9999 FEW040 SCT050 BKN060 09/06 Q1030 RMK PP000=
SPZO Dic2008-031000Z 00000KT 9999 FEW040 SCT050 BKN070 09/06 Q1030 RMK PP000=
SPZO Dic2008-031100Z 05003KT 9999 FEW040 SCT050 BKN080 09/06 Q1031 NOSIG RMK WIND RWY 10 12005KT PP000=
SPZO Dic2008-031200Z VRB02KT 9999 FEW040 SCT046 BKN100 09/06 Q1032 NOSIG RMK PP000=
SPZO Dic2008-031300Z 00000KT 9999 FEW040 OVC100 11/06 Q1032 NOSIG RMK PP000=
SPZO Dic2008-031400Z 00000KT 9999 SCT040 BKN100 12/06 Q1032 NOSIG RMK PP000=
SPZO Dic2008-031500Z 04004KT 350V070 9999 SCT050 OVC230 14/05 Q1031 NOSIG RMK PP000=
SPZO Dic2008-031600Z 04004KT 330V070 9999 SCT050 OVC230 15/05 Q1030 NOSIG RMK PP00=
SPZO Dic2008-031700Z 30005KT 240V030 9999 SCT050 OVC230 17/06 Q1029 NOSIG RMK PP00=
SPZO Dic2008-031800Z 29004KT 250V040 9999 SCT050 OVC230 18/02 Q1027 NOSIG RMK WIND=
SPZO Dic2008-031900Z 28003KT 250V340 9999 FEW050 OVC230 19/00 Q1026 NOSIG RMK WIND=
SPZO Dic2008-032000Z 27007KT 250V310 9999 FEW050 OVC100 19/M01 Q1024 NOSIG RMK WIND=
SPZO Dic2008-032100Z 26010KT 240V330 9999 FEW050 OVC100 19/00 Q1023 NOSIG RMK WIND=
SPZO Dic2008-032200Z 26010KT 9999 FEW050 OVC100 18/02 Q1023 NOSIG RMK WIND=
SPZO Dic2008-032300Z 26002KT 9999 OVC100 17/01 Q1024 NOSIG RMK WIND RWY10 VRB08KT PP000=
SPZO Dic2008-040000Z 26006KT 9999 FEW050 BKN100 14/04 Q1024 RMK PP000=
SPZO Dic2008-040100Z 26008KT 9999 FEW050 SCT230 14/05 Q1026 RMK PP000=
SPZO Dic2008-040200Z 28007KT 9999 FEW050 SCT100 13/05 Q1027 RMK PP000=
SPZO Dic2008-040300Z 00000KT 9999 FEW040 SCT080 12/05 Q1028 RMK PP000=
SPZO Dic2008-040400Z 05004KT 9999 FEW040 SCT080 10/06 Q1028 RMK PP000=
SPZO Dic2008-040500Z 00000KT 9999 SCT040 SCT100 11/06 Q1028 RMK PP000=
SPZO Dic2008-040600Z 00000KT 9999 SCT036 SCT046 12/06 Q1027 RMK PP000=
SPZO Dic2008-040700Z 00000KT 9999 FEW036 SCT100 09/06 Q1027 RMK PP000=
SPZO Dic2008-040800Z 00000KT 9999 FEW036 SCT100 09/06 Q1027 RMK PP000=
SPZO Dic2008-040900Z 00000KT 9999 FEW040 08/05 Q1027 RMK PP000=
SPZO Dic2008-041000Z VRB01KT 9999 FEW040 BKN200 08/05 Q1028 RMK PP000=
SPZO Dic2008-041100Z 26001KT 9999 FEW040 BKN230 07/04 Q1029 NOSIG RMK PP000=
SPZO Dic2008-041200Z 06002KT 9999 FEW050 SCT230 11/06 Q1029 NOSIG RMK=
SPZO Dic2008-041300Z 01001KT 9999 FEW050 SCT230 15/04 Q1029 NOSIG RMK PP000=
SPZO Dic2008-041400Z 26004KT 240V040 9999 FEW050 16/04 Q1029 NOSIG RMK PP000=
SPZO Dic2008-041500Z 00000KT 9999 FEW050 18/00 Q1028 NOSIG RMK WIND RWY10 VRB06KT PP000=
SPZO Dic2008-041600Z 32007KT 250V050 9999 FEW050 19/02 Q1026 NOSIG RMK=
SPZO Dic2008-041700Z 05005KT 9999 FEW050 20/00 Q1025 NOSIG RMK WIND RWY10 VRB12KT PP000=
SPZO Dic2008-041800Z 27009KT 250V350 9999 FEW050 21/M01 Q1024 NOSIG RMK=
SPZO Dic2008-041900Z 27009KT 9999 FEW050 SCT100 21/M02 Q1023 NOSIG RMK=
SPZO Dic2008-042000Z 28011KT 250V330 9999 FEW050 SCT100 21/M05 Q1022 NOSIG RMK WIND RWY 10 31019G32KT 240V360 PP000=
SPZO Dic2008-042100Z 27006KT 9999 FEW050 SCT100 22/M04 Q1021 NOSIG RMK=
SPZO Dic2008-042200Z 32007KT 250V020 9999 FEW050 SCT100 20/01 Q1021 NOSIG RMK WIND RWY 10 32014G24KT 260V030 TMAX 22.1 PP000=
SPZO Dic2008-042300Z 04008KT 360V070 9999 FEW050 SCT100 16/05 Q1023 NOSIG RMK PP000=
SPZO Dic2008-050000Z 05012KT 9999 SCT230 14/05 Q1024 RMK PP000=
SPZO Dic2008-050100Z 04008KT 350V070 9999 SKC 12/05 Q1025 RMK PP000=
SPZO Dic2008-050200Z 05006KT 9999 SKC 11/05 Q1027 RMK PP000=
SPZO Dic2008-050300Z 00000KT 9999 SKC 11/05 Q1028 RMK PP000=
SPZO Dic2008-050400Z 01004KT 9999 FEW040 SCT046 11/05 Q1028 RMK PP000=
SPZO Dic2008-050500Z 05005KT 9999 FEW040 SCT046 11/05 Q1028 RMK PP000=
SPZO Dic2008-050600Z 03004KT 360V080 9999 SCT040 BKN046 11/05 Q1028 RMK PP000=
SPZO Dic2008-050700Z 06002KT 9999 SCT040 BKN046 11/05 Q1027 RMK PP000=
SPZO Dic2008-050800Z 06005KT 9999 SCT040 BKN046 11/05 Q1027 RMK PP000=
SPZO Dic2008-050900Z 00000KT 9999 SCT040 BKN046 11/05 Q1028 RMK PP000=
SPZO Dic2008-051000Z 00000KT 9999 SCT040 BKN046 11/04 Q1029 RMK PP000=
SPZO Dic2008-051100Z 28006KT 9999 SCT036 BKN046 11/05 Q1029 NOSIG RMK=
SPZO Dic2008-051200Z 27003KT 260V330 9999 SCT036 BKN046 12/05 Q1030 NOSIG RMK PP000=
SPZO Dic2008-051300Z 00000KT 9999 SCT040 BKN060 14/05 Q1031 NOSIG RMK PP000=
SPZO Dic2008-051400Z VRB02KT 9999 SCT043 BKN060 15/03 Q1031 NOSIG RMK PP000=
SPZO Dic2008-051500Z 00000KT 9999 SCT043 SCT060 16/03 Q1031 NOSIG RMK PP000=
SPZO Dic2008-051600Z VRB03KT 9999 FEW043 SCT060 18/04 Q1029 NOSIG RMK PP000=
SPZO Dic2008-051700Z 28005KT 250V050 9999 SCT050 19/03 Q1028 NOSIG RMK PP000=
SPZO Dic2008-051800Z 27005KT 250V070 9999 SCT050 20/01 Q1026 NOSIG RMK=
SPZO Dic2008-051900Z 28005KT 250V070 9999 SCT050 22/M01 Q1025 NOSIG RMK=
SPZO Dic2008-052000Z 27006KT 250V040 9999 FEW043TCU SCT230 23/M01 Q1023 NOSIG RMK PP000=
SPZO Dic2008-052100Z 33010KT 290V020 9999 FEW040TCU SCT100 17/05 Q1024 RESHRA NOSIG RMK WIND RWY 10 02017G28KT 290V120 PPTRZ=
SPZO Dic2008-052200Z 05012KT 280V070 9999 FEW040 SCT100 18/06 Q1024 NOSIG RMK TMAX 23.0 PP000=
SPZO Dic2008-052300Z 03010KT 350V070 9999 FEW040 15/05 Q1026 NOSIG RMK PP000=
SPZO Dic2008-060000Z 04002KT 9999 FEW040 14/05 Q1027 RMK PP000=
SPZO Dic2008-060100Z 05005KT 9999 FEW050 12/05 Q1028 RMK PP000=
SPZO Dic2008-060200Z 03003KT 350V070 9999 BKN046 12/05 Q1030 RMK PP000=
SPZO Dic2008-060300Z 35003KT 310V060 9999 SCT040 BKN050 13/05 Q1031 RMK PP000=
SPZO Dic2008-060400Z 03002KT 9999 BKN050 12/05 Q1031 RMK PP000=
SPZO Dic2008-060500Z 00000KT 9999 BKN050 12/05 Q1030 RMK PP000=
SPZO Dic2008-060600Z 28008KT 9999 BKN050 11/06 Q1030 RMK PP000=
SPZO Dic2008-060700Z 28006KT 250V320 9999 SCT040 11/06 Q1029 RMK PP000=
SPZO Dic2008-060800Z 27008KT 9999 SCT04010/05 Q1029 RMK PP000=
SPZO Dic2008-060900Z 26002KT 9999 SCT040 09/05 Q1030 RMK PP000=
SPZO Dic2008-061000Z 26003KT 9999 FEW030 SCT043 10/05 Q1030 RMK PP000=
SPZO Dic2008-061100Z 00000KT 9999 BKN046 10/06 Q1030 NOSIG RMK PP000=
SPZO Dic2008-061200Z 00000KT 9999 FEW020 SCT040 BKN050 11/05 Q1031 TEMPO SCT040 BKN060 RMK WIND RWY 10 00000KT HZ PP000=
SPZO Dic2008-061300Z 00000KT 9999 FEW030 SCT040 BKN050 12/05 Q1032 TEMPO SCT040 BKN060 RMK WIND RWY 10 00000KT HZ PP000=
SPZO Dic2008-061400Z 00000KT 9999 FEW033 SCT040 BKN050 13/06 Q1032 TEMPO SCT040 BKN060 RMK WIND RWY 10 00000KT PP000=
SPZO Dic2008-061500Z VRB03KT 9999 FEW030 SCT043 BKN080 15/05 Q1032 NOSIG RMK PP000=
SPZO Dic2008-061600Z VRB02KT 9999 FEW040 SCT046 16/05 Q1031 NOSIG RMK PP000=
SPZO Dic2008-061700Z 02004KT 250V070 9999 SCT040 SCT046 18/03 Q1029 NOSIG RMK WIND RWY 10 VRB07KT PP000=
SPZO Dic2008-061800Z VRB04KT 9999 SCT050 SCT230 20/04 Q1028 NOSIG RMK PP000=
SPZO Dic2008-061900Z 34007KT 280V030 9999 FEW050 SCT230 20/M03 Q1027 NOSIG RMK PP000=
SPZO Dic2008-062000Z 36010KT 320V040 9999 FEW043 SCT230 20/02 Q1026 NOSIG RMK PP000=
SPZO Dic2008-062100Z 02009KT 320V070 9999 FEW050 SCT230 18/02 Q1026 NOSIG RMK WIND RWY 10 VRB17G32KT PP000=
SPZO Dic2008-062200Z 02012KT 330V070 9999 FEW050 SCT230 18/01 Q1026 NOSIG RMK WIND RWY 10 05015G26KT 330V110 TMAX 21.1 PP000=
SPZO Dic2008-062300Z 02011KT 340V270 9999 FEW050 SCT230 15/00 Q1027 NOSIG RMK PP000=
SPZO Dic2008-070000Z 04010KT 350V070 9999 SCT050 14/02 Q1029 RMK PP000=
SPZO Dic2008-070100Z 21005KT 250V050 9999 SCT050 13/02 Q1031 RMK PP000=
SPZO Dic2008-070200Z 01004KT 320V030 9999 SCT050 12/03 Q1032 RMK PP000=
SPZO Dic2008-070300Z 03004KT 360V070 9999 SCT050 12/03 Q1033 RMK PP000=
SPZO Dic2008-070400Z 05002KT 9999 SCT050 11/03 Q1033 RMK PP000=
SPZO Dic2008-070500Z 00000KT 9999 SCT050 10/03 Q1032 RMK PP000=
SPZO Dic2008-070600Z VRB02KT 9999 SCT050 10/04 Q1031 RMK PP000=
SPZO Dic2008-070700Z 00000KT 9999 BKN050 10/03 Q1031 RMK PP000=
SPZO Dic2008-070800Z 06003KT 9999 BKN050 09/04 Q1031 RMK PP000=
SPZO Dic2008-070900Z 00000KT 9999 FEW050 SCT100 09/04 Q1031 RMK PP000=
SPZO Dic2008-071000Z 00000KT 9999 FEW050 SCT100 09/04 Q1032 RMK PP000=
SPZO Dic2008-071100Z 27002KT 9999 SCT050 SCT100 08/04 Q1032 NOSIG RMK=
SPZO Dic2008-071200Z 00000KT 9999 SCT050 SCT100 11/03 Q1033 NOSIG RMK PP000=
SPZO Dic2008-071300Z 00000KT 9999 SCT050 SCT100 13/04 Q1033 NOSIG RMK PP000=
SPZO Dic2008-071400Z 00000KT 9999 SCT050 SCT230 14/03 Q1033 NOSIG RMK PP000=
SPZO Dic2008-071500Z VRB03KT 9999 SCT046 SCT230 16/01 Q1032 NOSIG RMK PP000=
SPZO Dic2008-071600Z 35008KT 300V060 9999 SCT043 SCT050 18/01 Q1032 RMK PP000=
SPZO Dic2008-071700Z 03011KT 330V060 9999 SCT040 SCT050 17/00 Q1031 NOSIG RMK PP000=
SPZO Dic2008-071800Z 36012KT 290V070 9999 FEW046TCU SCT050 17/01 Q1031 NOSIG RMK WIND RWY10 VRB21G35KT PP000=
SPZO Dic2008-071900Z 35012KT 290V050 9999 FEW046TCU SCT050 18/01 Q1030 NOSIG RMK WIND RWY10 VRB16KT PP000=
SPZO Dic2008-072000Z 34008KT 300V020 9999 SCT046 BKN100 18/00 Q1028 NOSIG RMK WIND RWY10 01016KT 310V060 PP000=
SPZO Dic2008-072100Z 32006KT 270V060 9999 FEW046 SCT100 18/M01 Q1027 NOSIG WIND RWY10 VRB03KT RMK PP000=
SPZO Dic2008-072200Z 33010KT 280V010 9999 SCT050 18/01 Q1026 NOSIG RMK=
SPZO Dic2008-072300Z 33008KT 290V010 9999 SCT050 15/03 Q1027 NOSIG RMK=
SPZO Dic2008-080000Z 03006KT 340V060 9999 FEW050 14/03 Q1029 RMK PP000=
SPZO Dic2008-080100Z 05003KT 9999 FEW060 12/03 Q1030 RMK PP000=
SPZO Dic2008-080200Z VRB02KT 9999 FEW040 SCT050 11/03 Q1031 RMK PP000=
SPZO Dic2008-080300Z 00000KT 9999 FEW060 11/04 Q1032 RMK PP000=
SPZO Dic2008-080400Z 00000KT 9999 FEW050 11/04 Q1032 RMK PP000=
SPZO Dic2008-080500Z 06003KT 9999 FEW040 SCT050 10/04 Q1032 RMK PP000=
SPZO Dic2008-080600Z 00000KT 9999 FEW040 SCT046 09/04 Q1032 RMK PP000=
SPZO Dic2008-080700Z 00000KT 9999 SCT040 SCT080 10/05 Q1031 RMK PP000=
SPZO Dic2008-080800Z 00000KT 9999 SCT040 SCT080 10/04 Q1030 RMK PP000=
SPZO Dic2008-080900Z 00000KT 9999 SCT040 SCT080 09/04 Q1030 RMK PP000=
SPZO Dic2008-081000Z 00000KT 9999 BKN040 SCT046 10/04 Q1031 RMK PP000=
SPZO Dic2008-081100Z 27001KT 9999 SCT040 BKN050 09/05 Q1032 NOSIG RMK PP000=
SPZO Dic2008-081200Z 00000KT 9999 SCT040 BKN080 11/05 Q1032 NOSIG RMK PP000=
SPZO Dic2008-081300Z 06002KT 9999 SCT040 BKN080 13/04 Q1033 NOSIG RMK=
SPZO Dic2008-081400Z 36002KT 9999 SCT040 BKN080 15/03 Q1033 NOSIG RMK=
SPZO Dic2008-081500Z 02002KT 9999 FEW040TCU SCT046 BKN050 15/03 Q1033 NOSIG RMK WIND RWY10 10010KT 060V140 PP000=
SPZO Dic2008-081600Z 02004KT 280V070 9999 FEW040TCU SCT046 BKN050 17/04 Q1031 NOSIG RMK WIND RWY10 31015KT 240V020 PP000=
SPZO Dic2008-081700Z 27014KT 250V310 9999 VCSH FEW040TCU SCT046 BKN050 14/05 Q1031 NOSIG RMK WIND RWY10 31023G34KT PP000=
SPZO Dic2008-081800Z 27007KT 250V320 9999 VCSH FEW040TCU SCT050 BKN070 18/03 Q1030 NOSIG RMK WIND RWY 10 28015KT 220V350 PP000=
SPZO Dic2008-081900Z 30012KT 260V330 8000 -RA VCSH FEW040TCU SCT050 BKN070 12/07 Q1029 NOSIG RMK WIND RWY 10 33014G24KT 260V070 PP010=
SPZO Dic2008-082000Z 27006KT 9999 FEW040 SCT050 BKN080 16/04 Q1028 NOSIG RMK WIND RWY 10 29007KT PPTRZ=
SPZO Dic2008-082100Z 27006KT 250V340 9999 SCT050 SCT090 18/05 Q1027 TEMPO=
SPZO Dic2008-082200Z 28007KT 250V320 9999 SCT050 SCT100 16/04 Q1027 TEMPO=
SPZO Dic2008-082300Z 32008KT 280V340 9999 VCSH BKN050 15/04 Q1028 TEMPO -RA RMK PP000=
SPZO Dic2008-090000Z 26013KT 9999 VCSH SCT040 BKN046 12/06 Q1029 RMK PP000=
SPZO Dic2008-090100Z 26005KT 9999 -DZ SCT040 BKN046 12/06 Q1031 RMK PP002=
SPZO Dic2008-090200Z 26005KT 9999 -DZ SCT040 BKN046 11/06 Q1032 RMK PPTRZ=
SPZO Dic2008-090300Z 27002KT 9999 -DZ SCT040 BKN046 11/06 Q1032 RMK PP006=
SPZO Dic2008-090400Z 29002KT 9000 SCT040 BKN046 10/06 Q1032 REDZ RMK PP000=
SPZO Dic2008-090500Z 25002KT 9999 SCT040 BKN046 10/06 Q1032 RMK PP000=
SPZO Dic2008-090600Z 31006KT 9999 SCT040 BKN046 10/04 Q1032 RMK PP000=
SPZO Dic2008-090700Z 34007KT 270V030 9999 SCT040 BKN046 10/03 Q1031 RMK PP000=
SPZO Dic2008-090800Z 32003KT 260V350 9999 SCT030 BKN046 09/04 Q1031 RMK PP000=
SPZO Dic2008-090900Z 00000KT 9999 SCT030 BKN046 09/04 Q1031 RMK PP000=
SPZO Dic2008-091000Z 00000KT 9999 FEW030 SCT040 BKN046 09/04 Q1031 RMK PP000=
SPZO Dic2008-091100Z 26002KT 9999 SCT036 BKN050 09/05 Q1032 NOSIG RMK PP000=
SPZO Dic2008-091200Z 00000KT 9999 FEW036 BKN046 11/04 Q1033 NOSIG RMK PP000=
SPZO Dic2008-091300Z 00000KT 9999 SCT046 BKN080 12/03 Q1033 NOSIG RMK PP000=
SPZO Dic2008-091400Z 00000KT 9999 SCT040 BKN046 13/03 Q1034 TEMPO VCSH RMK PP000=
SPZO Dic2008-091500Z 04006KT 8000 -RA SCT036 BKN046 11/06 Q1034 TEMPO 7000 RMK WIND RWY10 VRB05KT PP002=
SPZO Dic2008-091600Z VRB03KT 9999 SCT036 BKN046 12/06 Q1033 TEMPO RA RMK PP006=
SPZO Dic2008-091700Z 06006KT 360V070 9999 VCSH FEW030 SCT040 BKN046 14/06 Q1032 TEMPO -RA RMK WIND RWY10 VRB08KT PP000=
SPZO Dic2008-091800Z VRB03KT 8000 -RA VCSH FEW030TCU SCT040 BKN050 13/07 Q1031 NOSIG RMK WIND RWY 10 VRB07KT PP004=
SPZO Dic2008-091900Z VRB03KT 9999 FEW036 BKN046 16/06 Q1029 NOSIG RMK=
SPZO Dic2008-092000Z 31016KT 260V360 9999 4000W -RA VCSH SCT040TCU SCT050 13/07 Q1028 TEMPO NSW RMK PPTRZ=
SPZO Dic2008-092100Z 29006KT 260V330 9999 VCSH FEW040 BKN050 12/07 Q1028 RERA NOSIG RMK WIND RWY 10 30008KT 250V050 PPTRZ=
SPZO Dic2008-092200Z 28004KT 250V350 9000 -RA VCSH FEW040 BKN050 12/07 Q1028 NOSIG RMK WIND RWY 10 32004KT 260V030 TMAX 16.5 PP002=
SPZO Dic2008-092300Z 29004KT 9999 BKN050 SCT060 12/06 Q1028 RERA RMK PPTRZ=
SPZO Dic2008-100000Z 00000KT 9999 SCT040 BKN050 12/06 Q1029 RMK PP000=
SPZO Dic2008-100100Z 06004KT 330V070 9999 SCT040 BKN050 12/07 Q1030 RMK PP000=
SPZO Dic2008-100200Z 00000KT 9999 SCT040 BKN050 12/06 Q1030 RMK PP000=
SPZO Dic2008-100300Z 00000KT 9999 SCT040 BKN050 11/08 Q1031 RMK PP000=
SPZO Dic2008-100400Z 00000KT 9999 SCT040 BKN046 11/08 Q1031 RMK PP000=
SPZO Dic2008-100500Z 28013KT 250V360 9999 SCT040 BKN046 11/05 Q1031 RMK PP000=
SPZO Dic2008-100600Z 29004KT 9000 SCT040 BKN046 09/06 Q1031 RERA RMK PP012=
SPZO Dic2008-100700Z 02003KT 9000 -DZ SCT040 BKN046 09/06 Q1030 RMK PP010=
SPZO Dic2008-100800Z 00000KT 9999 SCT040 BKN946 09/06 Q1030 RMK PP000=
SPZO Dic2008-100900Z 00000KT 9999 SCT030 BKN046 09/06 Q1030 RMK PP000=
SPZO Dic2008-101000Z 06005KT 9999 FEW030 SCT040 BKN050 08/06 Q1030 RMK PP000=
SPZO Dic2008-101100Z 00000KT 9999 FEW020 SCT080 BKN230 08/06 Q1030 NOOSIG RMK PP000=
SPZO Dic2008-101200Z 00000KT 9999 FEW040 SCT100 OVC230 10/06 Q1031 NOSIG RMK PP000=
SPZO Dic2008-101300Z 00000KT 9999 FEW046 SCT100 BKN230 13/07 Q1032 NOSIG RMK PP000=
SPZO Dic2008-101400Z 00000KT 9999 FEW046 OVC230 13/05 Q1032 NOSIG RMK PP000=
SPZO Dic2008-101500Z VRB02KT 9999 FEW046 OVC230 14/05 Q1032 NOSIG RMK PP000=
SPZO Dic2008-101600Z VRB03KT 9999 FEW046 OVC230 15/04 Q1031 NOSIG RMK PP000=
SPZO Dic2008-101700Z 28003KT 250V030 9999 SCT046 OVC230 17/04 Q1030 NOSIG RMK WIND RWY10 28010KT PP000=
SPZO Dic2008-101800Z VRB07KT 9999 SCT046 BKN230 18/04 Q1028 NOSIG RMK PP000=
SPZO Dic2008-101900Z 27005KT 260V340 9999 SCT043 BKN230 19/03 Q1026 NOSIG RMK PP000=
SPZO Dic2008-102000Z 05018KT 010V070 9999 SCT043 BKN230 16/05 Q1026 NOSIG=
SPZO Dic2008-102100Z 04013KT 9999 SCT043 SCT230 17/04 Q1025 NOSIG RMK PP000=
SPZO Dic2008-102200Z 06014KT 9999 BKN046 15/04 Q1025 NOSIG RMK WIND RWY 10 10025G36KT 070V140 TMAX 19.2 PP000=
SPZO Dic2008-102300Z 04005KT 060V140 9999 SCT046 SCT230 15/04 Q1026 NOSIG RMK PP000=
SPZO Dic2008-110000Z 03005KT 350V070 9999 SCT050 13/04 Q1027 RMK PP000=
SPZO Dic2008-110100Z 00000KT 9999 SCT050 12/04 Q1029 RMK PP000=
SPZO Dic2008-110200Z 00000KT 9999 SCT050 12/05 Q1030 RMK PP000=
SPZO Dic2008-110300Z 26008KT 9999 BKN050 12/06 Q1031 RMK PP000=
SPZO Dic2008-110400Z 26012KT 9999 BKN050 11/05 Q1031 RMK PP000=
SPZO Dic2008-110500Z 27007KT 9999 BKN050 11/05 Q1031 RMK PP000=
SPZO Dic2008-110600Z 26005KT 9999 BKN050 10/05 Q1029 RMK PP000=
SPZO Dic2008-110700Z VRB02KT 9999 BKN050 10/05 Q1029 RMK PP000=
SPZO Dic2008-110800Z 29002KT 9999 BKN050 09/05 Q1028 RMK PP000=
SPZO Dic2008-110900Z VRB02KT 9999 BKN050 10/05 Q1028 RMK PP000=
SPZO Dic2008-111000Z 05003KT 9999 BKN050 09/05 Q1028 RMK PP000=
SPZO Dic2008-111100Z 27002KT 9999 SCT050 SCT100 BKN230 08/05 Q1029 NOSIG RMK WIND RWY 10 26002KT PP000=
SPZO Dic2008-111200Z VRB02KT 9999 FEW050 BKN230 11/06 Q1030 NOSIG RMK PP000=
SPZO Dic2008-111300Z 00000KT 9999 FEW050 BKN230 13/05 Q1030 NOSIG RMK PP000=
SPZO Dic2008-111400Z VRB02KT 9999 FEW050 SCT230 16/03 Q1030 NOSIG RMK PP000=
SPZO Dic2008-111500Z 03004KT 310V070 9999 FEW050 17/01 Q1030 NOSIG RMK PP000=
SPZO Dic2008-111600Z 04005KT 320V070 9999 FEW050 19/01 Q1029 NOSIG RMK PP000=
SPZO Dic2008-111700Z 28006KT 250V030 9999 SCT050 20/01 Q1027 NOSIG RMK=
SPZO Dic2008-111800Z VRB07KT 9999 SCT050 20/M02 Q1026 NOSIG RMK WIND RWY10 VRB12KT PP000=
SPZO Dic2008-111900Z 26018KT 250V330 9999 SCT050 23/M07 Q1024 NOSIG RMK=
SPZO Dic2008-112000Z 27014KT 240V330 9999 SCT050 22/M03 Q1023 NOSIG RMK=
SPZO Dic2008-112100Z 28015KT 240V320 9999 FEW050 SCT230 22/M01 Q1022 NOSIG RMK WIND RWY10 31015G33KT 250V010 PP000=
SPZO Dic2008-112200Z 28008KT 240V340 9999 FEW050 SCT230 21/M02 Q1022 NOSIG RMK WIND RWY10 26015KT 220V360 T.MAX.22.9 PP000=
SPZO Dic2008-112300Z 27011KT 250V300 9999 SCT040 OVC100 20/M01 Q1022 TEMPO VCSH RMK WIND RWY10 29017KT 250V330 PP000=
SPZO Dic2008-120000Z 32006KT 290V350 9999 SCT043 BKN100 18/02 Q1023 RMK PP000=
SPZO Dic2008-120100Z 05007KT 9999 FEW050 OVC100 16/06 Q1025 RMK PP000=
SPZO Dic2008-120200Z 04010KT 360V060 9999 BKN040 SCT070 15/06 Q1027 RMK PP000=
SPZO Dic2008-120300Z 05013KT 9999 -RA SCT036 BKN080 12/06 Q1029 RMK PP002=
SPZO Dic2008-120400Z 00000KT 9999 BKN043 SCT080 10/05 Q1030 RMK PP002=
SPZO Dic2008-120500Z 02006KT 9999 BKN040 SCT070 11/04 Q1029 RMK PP002=
SPZO Dic2008-120600Z 00000KT 9999 BKN040 SCT046 10/04 Q1029 RMK PP000=
SPZO Dic2008-120700Z 02004KT 9999 OVC040 10/03 Q1029 RMK PP000=
SPZO Dic2008-120800Z 00000KT 9999 SCT036 BKN040 10/04 Q1028 RMK PP000=
SPZO Dic2008-120900Z 00000KT 9999 BKN040 SCT050 10/04 Q1028 RMK PP000=
SPZO Dic2008-121000Z VRB02KT 9999 VCSH FEW036 SCT040 BKN043 09/04 Q1029 RMK PP000=
SPZO Dic2008-121100Z 00000KT 9999 FEW040 SCT046 BKN080 10/04 Q1029 NOSIG RMK PP000=
SPZO Dic2008-121200Z 06006KT 9999 SCT046 BKN100 10/05 Q1029 NOSIG RMK=
SPZO Dic2008-121300Z 05005KT 9999 SCT046 BKN100 12/04 Q1030 NOSIG RMK=
SPZO Dic2008-121400Z 02002KT 9999 SCT046 OVC100 14/03 Q1030 NOSIG RMK PP000=
SPZO Dic2008-121500Z VRB04KT 9999 FEW050 OVC100 17/02 Q1030 NOSIG RMK=
SPZO Dic2008-121600Z VRB04KT 9999 FEW050 OVC120 19/M02 Q1029 NOSIG RMK=
SPZO Dic2008-121700Z 00000KT 9999 FEW050 SCT120 20/M09 Q1028 NOSIG RMK=
SPZO Dic2008-121800Z 35006KT 250V070 9999 SCT050 SCT100 21/M01 Q1026 NOSIG RMK WIND RWY 10 14014KT 090V220 PP000=
SPZO Dic2008-121900Z 05008KT 340V070 9999 SCT050 SCT100 21/M01 Q1025 NOSIG RMK WIND RWY 10 11013KT 060V190 PP000=
SPZO Dic2008-122000Z 03007KT 330V070 9999 SCT050 SCT100 21/03 Q1024 NOSIG RMK WIND RWY 10 VRB13G23KT PP000=
SPZO Dic2008-122100Z 35008KT 300V050 9999 SCT050 SCT100 19/02 Q1024 NOSIG RMK WIND RWY 10 VRB15G29KT PP000=
SPZO Dic2008-122200Z 35012KT 310V030 9999 SCT050 SCT100 18/03 Q1024 NOSIG RMK WIND RWY 10 02015G25KT 310V110 TMAX 21.5 PP000=
SPZO Dic2008-122300Z 05006KT 320V070 9999 FEW050 SCT100 16/03 Q1025 NOSIG RMK PP000=
SPZO Dic2008-130000Z 03004KT 250V060 9999 SCT046 OVC100 15/03 Q1026 RMK PP000=
SPZO Dic2008-130100Z 07003KT 9999 SCT046 OVC100 14/04 Q1028 RMK PP000=
SPZO Dic2008-130200Z 05003KT 9999 SCT050 OVC100 13/04 Q1028 RMK PP000=
SPZO Dic2008-130300Z 06004KT 9999 FEW046 OVC100 12/04 Q1029 RMK PP000=
SPZO Dic2008-130400Z 06002KT 9999 FEW046 SCT100 11/05 Q1029 RMK PP000=
SPZO Dic2008-130500Z 00000KT 9999 FEW046 SCT100 10/04 Q1029 RMK PP000=
SPZO Dic2008-130600Z 00000KT 9999 FEW046 SCT100 09/04 Q1028 RMK PP000=
SPZO Dic2008-130700Z 28002KT 9999 FEW046 SCT100 09/04 Q1028 RMK PP000=
SPZO Dic2008-130800Z 00000KT 9999 FEW040 SCT100 08/03 Q1028 RMK PP000=
SPZO Dic2008-130900Z 00000KT 9999 FEW040 SCT100 07/04 Q1028 RMK PP000=
SPZO Dic2008-131000Z 00000KT 9999 FEW040 SCT100 07/04 Q1029 RMK PP000=
SPZO Dic2008-131100Z 00000KT 9999 FEW040 SCT100 07/04 Q1029 NOSIG RMK PP000=
SPZO Dic2008-131200Z 00000KT 9999 SKC 12/04 Q1030 NOSIG RMK PP000=
SPZO Dic2008-131300Z 06006KT 9999 FEW050 14/05 Q1030 NOSIG RMK PP000=
SPZO Dic2008-131400Z 03005KT 280V060 9999 FEW050 17/04 Q1030 NOSIG RMK PP000=
SPZO Dic2008-131500Z VRB02KT 9999 FEW050 19/04 Q1030 NOSIG RMK PP000=
SPZO Dic2008-131600Z 35005KT 260V060 9999 FEW040 SCT050 20/03 Q1029 NOSIG RMK PP000=
SPZO Dic2008-131700Z 31004KT 260V010 9999 FEW040 SCT050 21/02 Q1028 NOSIG RMK PP000=
SPZO Dic2008-131800Z 35006KT 250V070 9999 BKN050 21/M00 Q1027 NOSIG RMK=
SPZO Dic2008-131900Z VRB04KT 9999 SCT050 20/01 Q1026 NOSIG RMK WIND RWY 10 30020G32KT 220V010 PP000=
SPZO Dic2008-132000Z 32005KT 250V030 9999 SCT050 19/02 Q1025 NOSIG RMK=
SPZO Dic2008-132100Z 35009KT 300V030 9999 SCT050 SCT230 19/02 Q1024 NOSIG RMK WIND RWY 10 VRB06G16KT PP000=
SPZO Dic2008-132200Z 36010KT 320V030 9999 SCT050 SCT230 19/03 Q1024 NOSIG RMK WIND RWY 10 VRB15G26KT TMAX 22.4 PP000=
SPZO Dic2008-132300Z 32007KT 260V010 9999 SCT050 SCT230 17/04 Q1026 NOSIG RMK PP000=
SPZO Dic2008-140000Z 32009KT 280V350 9999 SCT050 BKN100 16/04 Q1027 RMK PP000=
SPZO Dic2008-140100Z 28002KT 9999 SCT050 BKN100 15/04 Q1028 RMK PP000=
SPZO Dic2008-140200Z 00000KT 9999 FEW050 SCT100 13/04 Q1029 RMK PP000=
SPZO Dic2008-140300Z 00000KT 9999 SCT050 BKN080 13/05 Q1029 RMK PP000=
SPZO Dic2008-140400Z 00000KT 9999 SCT040 BKN050 13/05 Q1029 RMK PP000=
SPZO Dic2008-140500Z 00000KT 9999 SCT040 BKN050 13/05 Q1029 RMK PP000=
SPZO Dic2008-140600Z 06006KT 9999 -RA SCT040 BKN050 11/07 Q1029 RMK PP000=
SPZO Dic2008-140700Z 35006KT 290V030 9999 RA SCT040 BKN046 10/05 Q1029 RMK PP012=
SPZO Dic2008-140800Z 00000KT 9999 RA SCT040 BKN046 09/06 Q1030 RMK PP028=
SPZO Dic2008-140900Z 26002KT 9999 SCT040 BKN046 09/06 Q1031 RMK PP020=
SPZO Dic2008-141000Z 27005KT 9000 -RA FEW030 SCT040 BKN046 08/05 Q1031 RMK PP006=
SPZO Dic2008-141100Z 26004KT 9000 -RA FEW033 SCT043 OVC080 08/05 Q1032 BECMG 9999 RMK WIND RWY10 27009KT PP016=
SPZO Dic2008-141200Z 26005KT 9999 -DZ FEW036 BKN050 OVC080 09/05 Q1033 BECMG NSW RMK WIND RWY 10 31008KT 250V060 PP008=
SPZO Dic2008-141300Z 27005KT 250V320 9999 FEW036 SCT050 BKN090 10/06 Q1034 REDZ NOSIG RMK WIND RWY 10 31008KT 240V030 PPTRZ=
SPZO Dic2008-141400Z 30004KT 250V010 9999 FEW036 SCT050 BKN100 12/04 Q1034 NOSIG RMK WIND RWY 10 29010KT 240V010 PP000=
SPZO Dic2008-141500Z 28007KT 250V350 9999 SCT036 BKN100 13/05 Q1033 NOSIG RMK PP000=
SPZO Dic2008-141600Z 30005KT 250V020 9999 SCT036 BKN100 15/05 Q1032 NOSIG RMK WIND RWY 10 30009KT 240V030 PP000=
SPZO Dic2008-141700Z 35006KT 250V070 9999 SCT040 BKN100 15/05 Q1031 NOSIG RMK WIND RWY 10 VRB07KT PP000=
SPZO Dic2008-141800Z 00000KT 9999 SCT046 SCT100 16/06 Q1029 NOSIG RMK PP000=
SPZO Dic2008-141900Z VRB03KT 9999 SCT046 SCT230 19/07 Q1028 NOSIG RMK PP000=
SPZO Dic2008-142000Z 35006KT 290V050 9999 FEW040 SCT050 BKN230 19/06 Q1026 NOSIG RMK PP000=
SPZO Dic2008-142100Z 36006KT 320V030 9999 SCT050 BKN230 18/04 Q1026 NOSIG RMK PP000=
SPZO Dic2008-142200Z VRB02KT 9999 SCT050 BKN230 18/05 Q1026 NOSIG RMK TMAX 19.4 PP000=
SPZO Dic2008-142300Z 06007KT 9999 -RA BKN040 SCT050 15/07 Q1027 NOSIG RMK PP004=
SPZO Dic2008-150000Z 30004KT 250V360 5000 +TSRA SCT030CB OVC040 11/07 Q1029 RMK PP262=
SPZO Dic2008-150100Z 07005KT 6000 TSRA FEW030CB OVC040 10/08 Q1031 RMK PP034=
SPZO Dic2008-150200Z VRB01KT 5000 TSRA FEW030CB OVC040 10/08 Q1032 RMK PP048=
SPZO Dic2008-150300Z 05002KT 6000 RA FEW030TCU OVC040 10/08 Q1033 RMK PP022=
SPZO Dic2008-150400Z 00000KT 5000 RA FEW030TCU OVC040 09/07 Q1033 RMK PP022=
SPZO Dic2008-150500Z 00000KT 5000 RA FEW030TCU OVC040 09/07 Q1033 RMK PP026=
SPZO Dic2008-150600Z 26002KT 5000 RA FEW020TCU OVC040 08/06 Q1032 RMK PP016=
SPZO Dic2008-150700Z 00000KT 6000 -RA FEW020TCU OVC040 08/06 Q1031 RMK PP004=
SPZO Dic2008-150800Z 00000KT 7000 -RA FEW020 OVC040 08/06 Q1030 RMK PP002=
SPZO Dic2008-150900Z 06005KT 8000 FEW020 OVC040 08/06 Q1030 RERA RMK PPTRZ=
SPZO Dic2008-151000Z 04002KT 9000 FEW020 SCT040 BKN050 08/04 Q1030 RMK PP000=
SPZO Dic2008-151100Z 06002KT 9999 SCT040 SCT100 BKN230 08/06 Q1030 NOSIG RMK PP000=
SPZO Dic2008-151200Z 00000KT 9999 FEW030 OVC230 09/06 Q1030 NOSIG RMK PP000=
SPZO Dic2008-151300Z 00000KT 9999 FEW030 SCT046 BKN230 11/06 Q1031 NOSIG RMK PP000=
SPZO Dic2008-151400Z 00000KT 9999 FEW030 SCT050 BKN230 12/06 Q1031 NOSIG RMK PP000=
SPZO Dic2008-151500Z VRB02KT 9999 SCT040 BKN060 13/06 Q1031 NOSIG RMK PP000=
SPZO Dic2008-151600Z 06004KT 360V070 9999 SCT040 BKN080 14/05 Q1030 NOSIG RMK PP000=
SPZO Dic2008-151700Z VRB02KT 9999 SCT043 SCT100 BKN230 16/05 Q1028 NOSIG RMK PP000=
SPZO Dic2008-151800Z VRB02KT 9999 FEW036 OVC230 17/06 Q1027 NOSIG RMK PP000=
SPZO Dic2008-151900Z 26002KT 9999 FEW043 BKN230 18/05 Q1025 NOSIG RMK PP000=
SPZO Dic2008-152000Z 01005KT 340V070 9999 FEW050 SCT100 18/07 Q1024 NOSIG RMK WIND RWY10 VRB07KT PP000=
SPZO Dic2008-152100Z 32002KT 9999 FEW046TCU SCT080 19/06 Q1024 TEMPO=
SPZO Dic2008-152200Z 05016KT 6000 RA SCT036CB BKN046 11/06 Q1028 BECMG FM2230 8000 RMK WIND RWY10 13031G45KT PP032=
SPZO Dic2008-152300Z 34004KT 270V020 8000 RA SCT036TCU BKN043 09/07 Q1028 NOSIG RMK WIND RWY10 VRB08KT PP000=
SPZO Dic2008-160000Z VRB02KT 9999 -RA SCT036 BKN046 10/07 Q1028 RMK PP010=
SPZO Dic2008-160100Z 05001KT 9999 SCT033 BKN046 10/07 Q1030 RMK PP000=
SPZO Dic2008-160200Z 05005KT 9999 -DZ BKN040 SCT070 09/07 Q1030 RMK PP002=
SPZO Dic2008-160300Z 06005KT 9999 BKN040 SCT080 09/07 Q1030 RMK PP000=
SPZO Dic2008-160400Z 00000KT 9999 BKN043 SCT070 09/07 Q1030 RMK PP000=
SPZO Dic2008-160500Z 00000KT 9999 OVC043 09/07 Q1029 RMK PP000=
SPZO Dic2008-160600Z 00000KT 9999 SCT030 BKN046 08/06 Q1028 RMK PP000=
SPZO Dic2008-160700Z 00000KT 9999 OVC040 08/05 Q1030 RMK PP000=
SPZO Dic2008-160800Z 00000KT 9999 FEW030 SCT043 06/05 Q1027 RMK PP000=
SPZO Dic2008-160900Z 00000KT 9999 SCT020 BKN043 07/05 Q1027 RMK PP000=
SPZO Dic2008-161000Z 00000KT 8000 SCT020 SCT033 BKN050 07/06 Q1027 RMK CLNG BLW 1200M PP000=
SPZO Dic2008-161100Z 26003KT 7000 BKN020 SCT070 07/06 Q1028 BECMG FM1140 8000 RMK CLNG BLW 1200M PP000=
SPZO Dic2008-161200Z 27002KT 6000 FEW020 SCT030 BKN043 08/06 Q1028 BECMG FM1230 8000 RMK CLNG BLW 1200M PP000=
SPZO Dic2008-161300Z 30002KT 6000 FEW020 SCT033 BKN046 08/06 Q1029 BECMG FM1320 9000 RMK PP000=
SPZO Dic2008-161400Z 05004KT 360V070 9000 FEW043 12/07 Q1028 BECMG FM1415 9999 RMK BCO FG CDTE/E PP000=
SPZO Dic2008-161500Z 05004KT 350V070 9999 FEW050 14/06 Q1027 NOSIG RMK=
SPZO Dic2008-161600Z VRB03KT 9999 SCT046 18/07 Q1026 NOSIG RMK RWY10 VRB06KT PP000=
SPZO Dic2008-161700Z 05006KT 330V070 9999 SCT046 19/06 Q1025 NOSIG RMK=
SPZO Dic2008-161800Z 32004KT 250V070 9999 -DZ VCSH FEW040 SCT050 20/05 Q1023 NOSIG RMK WIND RWY 10 VRB05KT PPTRZ=
SPZO Dic2008-161900Z 01012KT 290V070 6000 -RA VCSH SCT030TCU SCT040 13/07 Q1024 BECMG 1930 8000 RMK WIND RWY 10 13033G43KT 100V170 PP006=
SPZO Dic2008-162000Z VRB02KT 9000 -DZ VCSH FEW030TCU SCT040 BKN100 12/07 Q1024 TEMPO 7000 RA RMK WIND RWY 10 VRB05KT PP004=
SPZO Dic2008-162100Z 04004KT 360V070 8000 -RA VCSH FEW030TCU SCT040 BKN070 12/07 Q1023 TEMPO 7000 RMK WIND RWY 10 VRB06KT PP002=
SPZO Dic2008-162200Z 05007KT 9000 VCSH FEW030 SCT040 BKN080 11/08 Q1023 RERA NOSIG RMK WIND RWY 10 10015KT TMAX 21.1 PP002=
SPZO Dic2008-162300Z VRB02KT 9999 SCT040 BKN090 12/08 Q1024 NOSIG RMK PP000=
SPZO Dic2008-170000Z 04003KT 9999 SCT046 BKN100 12/08 Q1025 RMK PP000=
SPZO Dic2008-170100Z 28002KT 9999 SCT046 BKN100 12/07 Q1024 RMK PP000=
SPZO Dic2008-170200Z 00000KT 9999 SCT046 BKN100 11/07 Q1026 RMK PP000=
SPZO Dic2008-170300Z 00000KT 9999 DZ SCT046 BKN050 11/08 Q1028 RMK PP002=
SPZO Dic2008-170400Z 00000KT 9999 -RA SCT040 BKN046 10/08 Q1028 RMK PP010=
SPZO Dic2008-170500Z 00000KT 9999 SCT040 BKN046 10/08 Q1028 RERA RMK PP002=
SPZO Dic2008-170600Z 00000KT 9999 SCT040 BKN046 10/08 Q1027 RMK PP000=
SPZO Dic2008-170700Z 00000KT 9999 SCT040 BKN046 10/08 Q1026 RMK PP000=
SPZO Dic2008-170800Z 00000KT 9999 SCT036 BKN046 10/08 Q1026 RMK PP000=
SPZO Dic2008-170900Z 00000KT 9999 SCT040 BKN046 10/08 Q1025 RMK PP000=
SPZO Dic2008-171000Z 00000KT 9999 FEW030 SCT040 BKN046 09/08 Q1026 RMK PP000=
SPZO Dic2008-171100Z 00000KT 9999 FEW025 SCT036 BKN046 10/08 Q1027 NOSIG RMK PP000=
SPZO Dic2008-171200Z 00000KT 9999 FEW020 SCT043 BKN050 11/08 Q1027 NOSIG RMK PP000=
SPZO Dic2008-171300Z VRB02KT 9999 SCT030 SCT050 13/08 Q1028 NOSIG RMK PP000=
SPZO Dic2008-171400Z VRB02KT 9999 FEW036 SCT050 15/08 Q1028 NOSIG RMK PP000=
SPZO Dic2008-171500Z VRB03KT 9999 FEW036 SCT050 16/06 Q1027 NOSIG RMK PP000=
SPZO Dic2008-171600Z VRB03KT 9999 FEW040 BKN050 17/07 Q1026 NOSIG RMK PP000=
SPZO Dic2008-171700Z 01007KT 330V060 9999 FEW043TCU BKN050 17/06 Q1026 TEMPO VCSH RMK PP000=
SPZO Dic2008-171800Z 05014KT 360V070 9000 VCSH SCT036TCU SCT050 16/06 Q1025 NOSIG RMK WIND RWY 10 VRB18G35KT PP000=
SPZO Dic2008-171900Z 34008KT 250V060 9999 SCT050 20/06 Q1024 NOSIG RMK=
SPZO Dic2008-172000Z 35011KT 300V030 9999 SCT050 19/06 Q1023 NOSIG RMK=
SPZO Dic2008-172100Z 36015KT 300V050 9999 VCSH FEW036 SCT050 16/06 Q1023 NOSIG RMK WIND RWY 10 VRB18G36KT PP000=
SPZO Dic2008-172200Z VRB05KT 9999 BKN050 16/05 Q1023 NOSIG RMK TMAX 19.9 PP000=
SPZO Dic2008-172300Z 01011KT 320V060 9999 BKN050 16/06 Q1024 NOSIG RMK PP000=
SPZO Dic2008-180000Z 03007KT 340V070 9999 SCT046 BKN100 15/05 Q1025 RMK PP000=
SPZO Dic2008-180100Z 01005KT 330V060 9999 SCT046 BKN100 14/05 Q1027 RMK PP000=
SPZO Dic2008-180200Z 00000KT 9999 SCT046 BKN100 14/05 Q1028 RMK PP000=
SPZO Dic2008-180300Z 00000KT 9999 SCT046 BKN100 11/07 Q1028 RMK PP000=
SPZO Dic2008-180400Z 00000KT 9999 SCT046 BKN100 12/07 Q1029 RMK PP000=
SPZO Dic2008-180500Z 00000KT 9999 SCT040 BKN100 12/07 Q1028 RMK PP000=
SPZO Dic2008-180600Z 00000KT 9999 SCT040 BKN050 11/07 Q1028 RMK PP000=
SPZO Dic2008-180700Z 00000KT 9999 SCT040 BKN050 11/07 Q1028 RMK PP000=
SPZO Dic2008-180800Z 00000KT 9999 DZ SCT040 BKN050 11/08 Q1028 RMK PP004=
SPZO Dic2008-180900Z OOOOOKT 9999 SCT040 BKN050 10/07 Q1028 REDZ RMK PP000=
SPZO Dic2008-181000Z 00000KT 9999 FEW036 SCT040 BKN050 10/07 Q1029 RMK PP000=
SPZO Dic2008-181100Z 00000KT 9999 FEW030 SCT040 BKN100 10/08 Q1029 NOSIG RMK PP000=
SPZO Dic2008-181200Z 06002KT 9999 FEW020 SCT040 BKN090 11/08 Q1030 NOSIG RMK WIND RWY 10 16005KT PP000=
SPZO Dic2008-181300Z 00000KT 9999 FEW020 SCT040 BKN090 13/07 Q1030 NOSIG RMK WIND RWY 10 00000KT PP000=
SPZO Dic2008-181400Z 04003KT 310V070 9999 FEW030 BKN046 15/06 Q1030 NOSIG RMK PP000=
SPZO Dic2008-181500Z VRB02KT 9999 FEW033 BKN040 16/04 Q1030 NOSIG RMK=
SPZO Dic2008-181600Z VRB03KT 9999 FEW036 BKN040 17/05 Q1029 NOSIG RMK=
SPZO Dic2008-181700Z 35014KT 320V030 9999 FEW036 SCT040 BKN080 16/05 Q1029 NOSIG RMK WIND RWY 10 VRB16G30KT PP000=
SPZO Dic2008-181800Z 35014KT 310V050 9999 FEW036 SCT043 BKN080 16/04 Q1028 NOSIG RMK WIND RWY10 VRB22G40KT PP000=
SPZO Dic2008-181900Z 01011KT 310V060 9999 FEW036 SCT046 BKN080 16/05 Q1027 NOSIG RMK WIND RWY10 VRB14G22KT PP000=
SPZO Dic2008-182000Z VRB07KT 9999 FEW043 BKN230 17/04 Q1027 NOSIG RMK PP000=
SPZO Dic2008-182100Z VRB04KT 9999 SCT043 SCT230 18/04 Q1026 NOSIG RMK=
SPZO Dic2008-182200Z 05008KT 340V060 9999 FEW036 SCT043 BKN230 17/04 Q1026 NOSIG RMK T.MAX 18.5 PP000=
SPZO Dic2008-182300Z 05005KT 9999 FEW046 SCT100 BKN230 15/04 Q1026 NOSIG RMK PP000=
SPZO Dic2008-190000Z 05009KT 9999 SCT046 BKN100 13/07 Q1027 RMK PP000=
SPZO Dic2008-190100Z 06003KT 9999 SCT046 BKN100 13/06 Q1029 RMK PP000=
SPZO Dic2008-190200Z 02002KT 9999 SCT046 BKN100M 12/06 Q1029 RMK PP000=
SPZO Dic2008-190300Z 35002KT 9999 SCT046 BKN100 11/06 Q1030 RMK PP000=
SPZO Dic2008-190400Z 06002KT 9999 BKN050 SCT100 11/07 Q1030 RMK PP000=
SPZO Dic2008-190500Z 00000KT 9999 OVC050 11/07 Q1030 RMK PP000=
SPZO Dic2008-190600Z 05002KT 9999 OVC050 11/07 Q1029 RMK PP000=
SPZO Dic2008-190700Z VRB02KT 9999 OVC050 11/07 Q1028 RMK PP000=
SPZO Dic2008-190800Z 05002KT 9999 OVC050 11/07 Q1028 RMK PP000=
SPZO Dic2008-190900Z 06006KT 9999 OVC050 10/07 Q1028 RMK PP000=
SPZO Dic2008-191000Z 00000KT 9999 BKN050 SCT060 10/07 Q1029 RMK PP000=
SPZO Dic2008-191100Z 05002KT 9999 SCT050 SCT060 10/07 Q1030 NOSIG RMK=
SPZO Dic2008-191200Z VRB02KT 9999 FEW036 SCT050 BKN080 11/07 Q1030 NOSIG RMK PP000=
SPZO Dic2008-191300Z 04003KT 340V070 9999 SCT033 SCT046 BKN080 13/07 Q1031 NOSIG RMK PP000=
SPZO Dic2008-191400Z 05003KT 9999 FEW036 SCT050 14/06 Q1031 NOSIG RMK PP000=
SPZO Dic2008-191500Z VRB03KT 9999 SCT046 SCT230 16/06 Q1030 NOSIG RMK PP000=
SPZO Dic2008-191600Z VRB03KT 9999 FEW043TCU SCT050 17/05 Q1029 NOSIG RMK PP000=
SPZO Dic2008-191700Z 02010KT 350V060 9999 VCSH FEW043TCU SCT050 15/05 Q1028 RESHRA NOSIG RMK PP002=
SPZO Dic2008-191800Z 27004KT 250V320 9999 FEW043TCU SCT050 18/04 Q1027 RESHRA NOSIG RMK WIND RWY10 VRB09KT PP004=
SPZO Dic2008-191900Z 05009KT 350V090 9999 SCT046 BKN100 19/04 Q1026 NOSIG RMK WIND RWY10 12021KT 080V160 PP000=
SPZO Dic2008-192000Z VRB03KT 9999 SCT046 SCT230 19/03 Q1028 NOSIG RMK=
SPZO Dic2008-192100Z 33006KT 300V040 9999 SCT046 SCT230 19/03 Q1023 NOSIG RMK WIND RWY10 VRB13KT PP000=
SPZO Dic2008-192200Z 05011KT 010V070 9999 FEW043TCU BKN230 17/06 Q1023 NOSIG RMK WIND RWY10 VRB13KT T.MAX.20.3 PP000=
SPZO Dic2008-192300Z 05011KT 020V070 9999 FEW043TCU BKN230 15/06 Q1025 NOSIG RMK WIND RWY10 VRB16KT PP000=
SPZO Dic2008-200000Z VRB03KT 9999 FEW046 SCT230 14/05 Q1026 RMK PP000=
SPZO Dic2008-200100Z 01004KT 260V060 9999 FEW050 13/06 Q1028 RMK PP000=
SPZO Dic2008-200200Z 36002KT 9999 FEW050 SCT080 12/06 Q1028 RMK PP000=
SPZO Dic2008-200300Z 00000KT 9999 FEW050 11/06 Q1029 RMK PP000=
SPZO Dic2008-200400Z 00000KT 9999 SCT060 12/06 Q1029 RMK PP000=
SPZO Dic2008-200500Z 00000KT 9999 FEW040 SCT050 11/07 Q1028 RMK PP000=
SPZO Dic2008-200600Z 00000KT 9999 FEW040 SCT050 11/07 Q1029 RMK PP000=
SPZO Dic2008-200700Z VRB003KT 9999 SCT040 SCT046 10/07 Q1027 RMK PP000=
SPZO Dic2008-200800Z 00000KT 9999 SCT036 SCT046 10/06 Q1026 RMK PP000=
SPZO Dic2008-200900Z 00000KT 9000 RA BKN040 SCT046 10/07 Q1027 RMK PP006=
SPZO Dic2008-201000Z 06003KT 9000 RA FEW030 SCT036 BKN046 09/07 Q1028 RMK CLNG BLW 1200M PP018=
SPZO Dic2008-201100Z 06003KT 9999 -RA FEW020 SCT036 BKN080 09/07 Q1028 BECMG FM1200 FEW025 SCT043 OVC080 RMK CLNG BLW 1200M PP010=
SPZO Dic2008-201200Z 06006KT 9000 RA BFEW020 SCT036 BKN070 09/06 Q1030 NOSIG RMK CLNG BLW 1200M PP020=
SPZO Dic2008-201300Z 06006KT 9000 -RA SCT020 SCT036 OVC060 08/06 Q1031 NOSIG RMK CLNG BLW 1200M PP012=
SPZO Dic2008-201400Z 06008KT 7000 RA SCT020 SCT036 OVC060 08/05 Q1032 NOSIG RMK WIND RWY10 CLNG BLW 1200M 10012KT PP012=
SPZO Dic2008-201500Z 05006KT 7000 RA SCT020 SCT036 OVC060 08/06 Q1033 NOSIG RMK WIND RWY10 11011KT CLNG BLW 1200M PP016=
SPZO Dic2008-201600Z 05008KT 6000 RA SCT020 SCT036 OVC060 08/05 Q1033 NOSIG RMK WIND RWY10 10011KT CLNG BLW 1200M PP022=
SPZO Dic2008-201700Z 04002KT 9999 -DZ SCT025 SCT036 OVC070 08/05 Q1032 TEMPO -RA RMK CLNG BLW 1200M PP012=
SPZO Dic2008-201800Z VRB02KT 9999 FEW025 SCT036 BKN070 10/05 Q1031 REDZ BECMG FEW033 SCT040 OVC100 RMK WIND RWY 10 VRB04KT PP002=
SPZO Dic2008-201900Z VRB02KT 9999 FEW033 SCT040 BKN080 12/05 Q1029 NOSIG RMK WIND RWY 10 VRB10KT PP000=
SPZO Dic2008-202000Z 06004KT 9999 FEW033 SCT043 BKN150 12/06 Q1028 NOSIG RMK PP000=
SPZO Dic2008-202100Z VRB02KT 9999 FEW040 SCT230 13/06 Q1026 NOSIG RMK PP000=
SPZO Dic2008-202200Z VRB03KT 9999 FEW040 SCT230 14/05 Q1026 NOSIG RMK=
SPZO Dic2008-202300Z 00000KT 9999 FEW040 SCT150 14/05 Q1026 NOSIG RMK PP000=
SPZO Dic2008-210000Z 05003KT 9999 SCT043 OVC230 12/06 Q1027 RMK PP000=
SPZO Dic2008-210100Z 05002KT 9999 SCT043 OVC230 11/07 Q1028 RMK PP000=
SPZO Dic2008-210200Z 00000KT 9999 SCT043 OVC230 10/07 Q1029 RMK PP000=
SPZO Dic2008-210300Z 00000KT 9999 SCT040 BKN150 10/07 Q1029 RMK PP000=
SPZO Dic2008-210400Z 00000KT 9999 SCT040 BKN100 09/07 Q1029 RMK PP000=
SPZO Dic2008-210500Z 00000KT 9999 SCT040 09/06 Q1029 RMK PP000=
SPZO Dic2008-210600Z 00000KT 9999 SCT040 08/06 Q1028 RMK PP000=
SPZO Dic2008-210700Z 00000KT 9999 SCT040 08/06 Q1027 RMK PP000=
SPZO Dic2008-210800Z 00000KT 9999 FEW040 SCT100 07/05 Q1027 RMK PP000=
SPZO Dic2008-210900Z 00000KT 9999 FEW040 SCT100 07/05 Q1028 RMK PP000=
SPZO Dic2008-211000Z 00000KT 9999 SCT040 BKN080 08/06 Q1028 RMK PP000=
SPZO Dic2008-211100Z 04002KT 9999 SCT046 BKN100 08/06 Q1028 NOSIG RMK PP000=
SPZO Dic2008-211200Z VRB02KT 9999 SCT046 BKN230 10/06 Q1029 NOSIG RMK PP000=
SPZO Dic2008-211300Z 05004KT 350V070 9999 FEW036 SCT100 BKN230 12/07 Q1030 NOSIG RMK PP000=
SPZO Dic2008-211400Z VRB03KT 9999 FEW036 BKN230 15/06 Q1030 NOSIG RMK PP000=
SPZO Dic2008-211500Z VRB04KT 9999 FEW050 SCT230 16/06 Q1029 NOSIG RMK PP000=
SPZO Dic2008-211600Z VRB02KT 9999 SCT050 SCT230 18/04 Q1028 NOSIG RMK PP000=
SPZO Dic2008-211700Z VRB02KT 9999 FEW040 SCT050 19/05 Q1027 NOSIG RMK PP000=
SPZO Dic2008-211800Z VRB03KT 9999 BKN050 20/06 Q1025 NOSIG RMK WIND RWY 10 VRB09G22KT PP000=
SPZO Dic2008-211900Z VRB03KT 9999 VCSH FEW040 SCT050 20/03 Q1024 NOSIG RMK WIND RWY 10 VRB05KT PP000=
SPZO Dic2008-212000Z 36009KT 320V050 9999 SCT050 SCT100 21/03 Q1023 NOSIG RMK WIND RWY 10 02015G27KT 260V070 PP000=
SPZO Dic2008-212100Z 34006KT 260V070 9999 SCT040 SCT090 21/06 Q1022 NOSIG RMK WIND RWY 10 30024G41KT 240V360 PP000=
SPZO Dic2008-212200Z 30005KT 250V060 9999 SCT040 SCT080 19/05 Q1022 NOSIG RMK WIND RWY 10 28021G35KT 250V350 TMAX 21.4 PP000=
SPZO Dic2008-212300Z 33004KT 250V070 9999 SCT040 SCT080 18/04 Q1023 NOSIG RMK PP000=
SPZO Dic2008-220000Z 01002KT 9999 SCT040 BKN080 16/05 Q1025 RMK PP000=
SPZO Dic2008-220100Z 34004KT 280V070 9999 FEW040 BKN080 14/05 Q1026 RMK PP000=
SPZO Dic2008-220200Z 00000KT 9999 FEW040 SCT080 14/05 Q1027 RMK PP000=
SPZO Dic2008-220300Z 00000KT 9999 SCT040 SCT080 13/06 Q1028 RMK PP000=
SPZO Dic2008-220400Z 00000KT 9999 SCT040 BKN080 13/07 Q1028 RMK PP000=
SPZO Dic2008-220500Z 06005KT 9999 SCT040 BKN080 11/07 Q1028 RMK PP000=
SPZO Dic2008-220600Z VRB02KT 9999 SCT00 SCT080 11/07 Q1027 RMK PP000=
SPZO Dic2008-220700Z 28002KT 9999 SCT040 SCT080 10/06 Q1027 RMK PP000=
SPZO Dic2008-220800Z 00000KT 9999 SCT040 SCT080 10/06 Q1027 RMK PP000=
SPZO Dic2008-220900Z 00000KT 9999 SCT040 SCT080 10/07 Q1027 RMK PP000=
SPZO Dic2008-221000Z 06002KT 9999 SCT040 SCT080 09/06 Q1028 RMK PP000=
SPZO Dic2008-221100Z 29002KT 9999 SCT040 SCT060 10/07 Q1028 NOSIG RMK PP000=
SPZO Dic2008-221200Z 05003KT 9999 FEW036 BKN050 11/08 Q1029 NOSIG RMK=
SPZO Dic2008-221300Z 00000KT 9999 FEW036 SCT050 15/06 Q1030 NOSIG RMK=
SPZO Dic2008-221400Z VRB03KT 9999 FEW036 BKN050 16/06 Q1029 NOSIG RMK=
SPZO Dic2008-221500Z 05005KT 310V070 9999 FEW036 BKN050 16/05 Q1029 NOSIG RMK WIND RWY 10 07013G27KT 350V140 PP000=
SPZO Dic2008-221600Z 30005KT 250V010 9999 FEW040 SCT050 18/04 Q1028 NOSIG RMK WIND RWY 10 07014G24KT 350V140 PP000=
SPZO Dic2008-221700Z VRB02KT 9999 FEW040 SCT050 19/05 Q1027 TEMPO VCSH RMK PP000=
SPZO Dic2008-221800Z 33008KT 270V060 9999 SCT050 SCT230 20/01 Q1026 NOSIG RMK PP000=
SPZO Dic2008-221900Z 35010KT 310V030 9999 FEW050 BKN230 20/02 Q1025 NOSIG RMK WIND RWY10 VRB16G28KT PP000=
SPZO Dic2008-222000Z 01012KT 340V040 9999 FEW050 SCT230 19/03 Q1024 NOSIG RMK WIND RWY10 04014G26KT 330V120 PP000=
SPZO Dic2008-222100Z 01011KT 330V050 9999 FEW050 SCT230 20/02 Q1023 NOSIG RMK WIND RWY10 VRB15G28KT PP000=
SPZO Dic2008-222200Z 01008KT 340V040 9999 FEW050 SCT230 19/01 Q1023 NOSIG RMK T.MAX 20.9 PP000=
SPZO Dic2008-222300Z 35008KT 9999 FEW043 BKN230 18/01 Q1024 NOSIG RMK PP000=
SPZO Dic2008-230000Z 31004KT 270V010 9999 SCT050 SCT230 16/02 Q1025 RMK PP000=
SPZO Dic2008-230100Z 35004KT 270V070 9999 BKN050 16/02 Q1026 RMK PP000=
SPZO Dic2008-230200Z VRB02KT 9999 BKN050 14/05 Q1028 RMK PP000=
SPZO Dic2008-230300Z 31005KT 260V010 9999 BKN050 14/04 Q1029 RMK PP000=
SPZO Dic2008-230400Z 02005KT 300V070 9999 BKN050 14/04 Q1029 RMK PP000=
SPZO Dic2008-230500Z 05004KT 010V070 9999 BKN050 13/05 Q1029 RMK PP000=
SPZO Dic2008-230600Z 06006KT 9999 BKN050 12/05 Q1028 RMK PP000=
SPZO Dic2008-230700Z 05006KT 9999 BKN050 12/05 Q1028 RMK PP000=
SPZO Dic2008-230800Z 06003KT 9999 BKN050 11/05 Q1028 RMK PP000=
SPZO Dic2008-230900Z VRB02KT 9999 BKN050 11/05 Q1028 RMK PP000=
SPZO Dic2008-231000Z 00000KT 9999 BKN050 10/05 Q1028 RMK PP000=
SPZO Dic2008-231100Z VRB02KT 9999 SCT060 BKN070 10/06 Q1029 NOSIG RMK=
SPZO Dic2008-231200Z 05001KT 9999 SCT050 BKN100 11/06 Q1030 NOSIG RMK PP000=
SPZO Dic2008-231300Z VRB02KT 9999 FEW036 SCT043 BKN100 13/05 Q1031 NOSIG RMK PP000=
SPZO Dic2008-231400Z 05004KT 340V060 9999 FEW036 SCT043 BKN100 15/05 Q1031 NOSIG RMK PP000=
SPZO Dic2008-231500Z VRB02KT 9999 SCT040 SCT050 17/05 Q1030 NOSIG RMK PP000=
SPZO Dic2008-231600Z VRB03KT 9999 SCT040 BKN060 17/04 Q1030 NOSIG RMK PP000=
SPZO Dic2008-231700Z 27005KT 260V330 9999 SCT050 19/07 Q1028 NOSIG RMK=
SPZO Dic2008-231800Z 30004KT 250V070 9999 VCSH FEW040 SCT050 20/04 Q1027 NOSIG RMK WIND RWY 10 VRB05KT PP000=
SPZO Dic2008-231900Z 34012KT 300V020 9999 VCSH FEW040 BKN050 18/07 Q1026 NOSIG RMK WIND RWY 10 01013KT 300V090 PP000=
SPZO Dic2008-232000Z 02006KT 330V070 9999 VCSH SCT040 SCT080 18/05 Q1025 NOSIG RMK WIND RWY 10 VRB09KT PP000=
SPZO Dic2008-232100Z 28006KT 250V330 9999 VCSH SCT040 SCT080 18/05 Q1024 NOSIG RMK WIND RWY 10 24010KT 200V300 PP000=
SPZO Dic2008-232200Z 04008KT 9999 SCT040 SCT080 17/06 Q1024 NOSIG RMK=
SPZO Dic2008-232300Z 06004KT 9999 SCT040 SCT080 16/06 Q1025 NOSIG RMK PP000=
SPZO Dic2008-240000Z 00000KT 9999 SCT040 BKN050 16/06 Q1027 RMK PP000=
SPZO Dic2008-240100Z 29004KT 260V020 9999 SCT040 BKN060 15/05 Q1028 RMK PP000=
SPZO Dic2008-240200Z 26006KT 9999 SCT040 SCT060 14/04 Q1029 RMK PP000=
SPZO Dic2008-240300Z 28005KT 9999 SCT040 SCT060 14/04 Q1029 RMK PP000=
SPZO Dic2008-240400Z 27004KT 9999 BKN040 SCT050 13/05 Q1029 RMK PP000=
SPZO Dic2008-240500Z 27005KT 9999 OVC043 13/05 Q1029 RMK PP000=
SPZO Dic2008-240600Z 30004KT 9999 SCT040 BKN046 13/05 Q1028 RMK PP000=
SPZO Dic2008-240700Z 00000KT 9999 SCT036 BKN046 12/05 Q1027 RMK PP000=
SPZO Dic2008-240800Z 00000KT 9999 SCT036 BKN050 12/05 Q1027 RMK PP000=
SPZO Dic2008-240900Z 00000KT 9999 BKN040 SCT050 12/06 Q1027 RMK PP000=
SPZO Dic2008-241000Z 06001KT 9999 -DZ SCT036 BKN043 11/07 Q1027 RMK PP000=
SPZO Dic2008-241100Z VRB01KT 9000 -DZ VCSH FEW030 SCT036 BKN046 11/07 Q1028 NOSIG RMK CLNG BLW 1200M PP002=
SPZO Dic2008-241200Z 04003KT 010V070 8000 DZ VCSH FEW030 SCT036 BKN046 11/08 Q1029 TEMPO 7000 RMK CLNG BLW 1200M PPTRZ=
SPZO Dic2008-241300Z 04003KT 5000 RA FEW025 SCT033 BKN046 10/07 Q1030 NOSIG RMK WIND RWY10 VRB08KT CLNG BLW 1200M PP004=
SPZO Dic2008-241400Z 00000KT 5000 RA FEW025 SCT033 BKN046 10/08 Q1031 NOSIG RMK CLNG BLW 1200M WIND RWY10 10008KT PP012=
SPZO Dic2008-241500Z VRB04KT 5000 RA FEW025 SCT033 BKN046 11/06 Q1031 RMK PP000=
SPZO Dic2008-241600Z VRB04KT 9999 -RA FEW030 SCT036 BKN046 11/06 Q1031 NOSIG RMK RWY10 VRB05KT CLNG BLEW 1200M PP024=
SPZO Dic2008-241700Z 26003KT 240V050 8000 RA FEW030 SCT036 BKN046 13/08 Q1030 NOSIG RMK CLNG BLW 1200M PP010=
SPZO Dic2008-241800Z VRB03KT 8000 FEW025 SCT030 BKN050 14/07 Q1029 NOSIG RMK WIND RWY 10 VRB07KT PP034=
SPZO Dic2008-241900Z 05004KT 350V070 9000 VCSH SCT030 BKN050 14/08 Q1028 REDZ TEMPO 8000 RMK WIND RWY 10 12010KT 030V220 PPTRZ=
SPZO Dic2008-242000Z 01004KT 260V070 9999 SCT040 BKN050 16/08 Q1026 NOSIG RMK WIND RWY 10 VRB04KT PP000=
SPZO Dic2008-242100Z 34004KT 290V030 9999 VCSH SCT040 BKN050 16/07 Q1025 NOSIG RMK WIND RWY 10 28022G35KT 240V330 PP000=
SPZO Dic2008-242200Z 27009KT 9999 VCSH FEW040 BKN050 15/06 Q1025 NOSIG RMK WIND RWY 10 28018G30KT 230V350 TMAX 16.8 PP000=
SPZO Dic2008-242300Z 26007KT 9999 BKN050 14/07 Q1026 NOSIG RMK PP000=
SPZO Dic2008-250000Z 28007KT 250V330 9999 SCT046 BKN100 14/07 Q1027 RMK PP000=
SPZO Dic2008-250100Z 26004KT 9999 SCT046 13/07 Q1027 RMK PP000=
SPZO Dic2008-250200Z 28003KT 9999 SCT040 BKN080 13/06 Q1029 RMK PP000=
SPZO Dic2008-250300Z 30002KT 9999 SCT040 BKN050 12/06 Q1029 RMK PP000=
SPZO Dic2008-250400Z 29005KT 9999 SCT040 BKN050 12/05 Q1029 RMK PP000=
SPZO Dic2008-250500Z 29003KT 9999 SCT040 BKN050 12/06 Q1029 RMK PP000=
SPZO Dic2008-250600Z 28003KT 240V330 9999 SCT040 BKN050 11/06 Q1028 RMK PP000=
SPZO Dic2008-250700Z 26004KT 9999 SCT040 BKN050 11/07 Q1028 RMK PP000=
SPZO Dic2008-250800Z 33002KT 9999 SCT040 BKN050 11/07 Q1027 RMK PP000=
SPZO Dic2008-250900Z 00000KT 9999 SCT040 BKN050 11/06 Q1027 RMK PP000=
SPZO Dic2008-251000Z 00000KT 9999 SCT040 BKN050 10/07 Q1027 RMK PP000=
SPZO Dic2008-251100Z 26003KT 9999 FEW036 BKN046 10/06 Q1028 NOSIG RMK PP000=
SPZO Dic2008-251200Z 26002KT 9999 FEW036 SCT043 BKN050 11/06 Q1029 NOSIG RMK PP000=
SPZO Dic2008-251300Z VRB02KT 9999 FEW036 SCT050 14/06 Q1029 NOSIG RMK PP000=
SPZO Dic2008-251400Z VRB03KT 9999 FEW040 SCT050 16/05 Q1029 NOSIG RMK PP000=
SPZO Dic2008-251500Z 29005KT 260V060 9999 SCT040 SCT050 16/05 Q1028 NOSIG RMK PP000=
SPZO Dic2008-251600Z VRB03KT 9999 SCT040 SCT060 17/05 Q1027 NOSIG RMK PP000=
SPZO Dic2008-251700Z VRB03KT 9999 FEW043 SCT060 19/05 Q1026 NOSIG RMK PP000=
SPZO Dic2008-251800Z 01010KT 340V060 9999 BKN050 19/06 Q1025 NOSIG RMK=
SPZO Dic2008-251900Z 33008KT 290V020 9999 VCSH FEW040 BKN050 18/06 Q1024 NOSIG RMK WIND RWY 10 VRB14G27KT PP000=
SPZO Dic2008-252000Z 28005KT 250V010 9999 -RA VCSH FEW040 SCT046TCU BKN080 16/07 Q1023 TEMPO NSW RMK PPTRZ=
SPZO Dic2008-252100Z 27008KT 8000 3500W -RA VCSH FEW040CB SCT046TCU BKN080 12/09 Q1024 BECMG NSW RMK WIND RWY 10 30014KT PP036=
SPZO Dic2008-252200Z VRB02KT 9999 FEW040 SCT046 BKN100 13/07 Q1024 RERA NOSIG RMK WIND RWY 10 VRB05KT TMAX 20.9 PPTRZ=
SPZO Dic2008-252300Z VRB02KT 9999 FEW046 BKN060 13/07 Q1025 NOSIG RMK PP000=
SPZO Dic2008-260000Z 30007KT 250V340 9999 DZ BKN040 SCT050 12/08 Q1026 RMK PP040=
SPZO Dic2008-260100Z 26004KT 9999 DZ SCT040 BKN050 11/07 Q1028 RMK PP004=
SPZO Dic2008-260200Z 00000KT 9999 DZ SCT040 BKN050 11/07 Q1029 RMK PP006=
SPZO Dic2008-260300Z 28002KT 9999 DZ SCT040 BKN050 11/07 Q1030 RMK PP000=
SPZO Dic2008-260400Z 00000KT 9999 SCT040 BKN050 11/07 Q1029 RMK PP000=
SPZO Dic2008-260500Z 00000KT 9999 SCT040 BKN080 10/07 Q1028 RMK PP000=
SPZO Dic2008-260600Z 00000KT 9999 SCT040 BKN080 10/08 Q1027 RMK PP000=
SPZO Dic2008-260700Z 00000KT 9999 FEW030 SCT040 BKN050 10/08 Q1026 RMK PP000=
SPZO Dic2008-260800Z 00000KT 9999 FEW030 SCT040 BKN050 10/07 Q1026 RMK PP000=
SPZO Dic2008-260900Z 00000KT 9999 FEW030 SCT040 BKN050 09/07 Q1026 RMK PP000=
SPZO Dic2008-261000Z 00000KT 9999 FEW030 SCT043 BKN100 09/07 Q1026 RMK PP000=
SPZO Dic2008-261100Z 00000KT 9999 FEW025 SCT043 BKN100 09/07 Q1026 NOSIG RMK PP000=
SPZO Dic2008-261200Z 06002KT 9999 FEW020 SCT040 BKN050 10/07 Q1027 NOSIG RMK WIND RWY 10 12002KT HZ PP000=
SPZO Dic2008-261300Z VRB02KT 9999 FEW020 SCT040 BKN050 11/08 Q1028 NOSIG RMK WIND RWY 10 VRB02KT HZ PP000=
SPZO Dic2008-261400Z 00000KT 9999 FEW020 SCT040 BKN050 13/05 Q1028 NOSIG RMK WIND RWY 10 00000KT HZ PP000=
SPZO Dic2008-261500Z 05005KT 350V070 9999 -DZ VCSH FEW030 SCT040 BKN100 14/07 Q1028 NOSIG RMK WIND RWY 10 VRB03KT HZ PPTRZ=
SPZO Dic2008-261600Z VRB02KT 9999 FEW040 SCT050 BKN080 15/08 Q1027 REDZ NOSIG RMK PPTRZ=
SPZO Dic2008-261700Z VRB02KT 9999 FEW040 SCT050 BKN080 16/06 Q1026 NOSIG RMK WIND RWY 10 VRB06KT PP000=
SPZO Dic2008-261800Z 35005KT 290V020 9999 FEW040 SCT046 BKN100 16/05 Q1024 NOSIG RMK PP000=
SPZO Dic2008-261900Z VRB02KT 9999 FEW040TCU SCT046 BKN080 17/06 Q1024 NOSIG RMK PP000=
SPZO Dic2008-262000Z 31008KT 270V040 9999 VCSH FEW040TCU SCT046 BKN080 16/06 Q1023 NOSIG RMK PP000=
SPZO Dic2008-262100Z 06010KT 9999 VCSH SCT040TCU BKN046 14/07 Q1023 NOSIG RMK WIND RWY10 VRB12KT PP000=
SPZO Dic2008-262200Z 05005KT 350V070 7000 -RA VCSH SCT040TCU BKN043 12/08 Q1024 BECMG FM2230 9000 RMK T.MAX 16.9 PP010=
SPZO Dic2008-262300Z VRB03KT 6000 -RA VCSH FEW025 SCT033 BKN043 11/08 Q1025 NOSIG RMK CLNG BLW 1200M PP034=
SPZO Dic2008-270000Z 05004KT 8000 -RA SCT040 BKN050 10/08 Q1026 RMK PP024=
SPZO Dic2008-270100Z 00000KT 8000 -RA FEW040 BKN050 10/08 Q1027 RMK PP008=
SPZO Dic2008-270200Z 26005KT 8000 -RA FEW040 BKN050 09/06 Q1029 RMK PP002=
SPZO Dic2008-270300Z 27004KT 8000 -RA FEW040 BKN050 09/06 Q1029 RMK PP008=
SPZO Dic2008-270400Z 06002KT 8000 -RA FEW020 BKN040 09/06 Q1029 RMK PP014=
SPZO Dic2008-270500Z 00000KT 8000 -RA FEW020 BKN040 08/06 Q1029 RMK PP008=
SPZO Dic2008-270600Z 00000KT 8000 -RA FEW020 BKN040 08/06 Q1028 RMK PP004=
SPZO Dic2008-270700Z 00000KT 8000 -RA FEW020 BKN040 08/06 Q1027 RMK PP004=
SPZO Dic2008-270800Z 00000KT 8000 -RA FEW020 BKN040 08/06 Q1027 RMK PP004=
SPZO Dic2008-270900Z 00000KT 8000 -RA FEW020 SCT030 BKN040 08/06 Q1027 RMK CLNG BLW 1200M PP002=
SPZO Dic2008-271000Z 00000KT 8000 FEW020 SCT030 BKN050 08/06 Q1027 RERA RMK CLNG BLW 1200M PP002=
SPZO Dic2008-271100Z 00000KT 9000 FEW020 SCT030 BKN050 08/06 Q1028 BECMG 9999 FEW025 SCT036 BKN080 RMK CLNG BLW 1200M PP000=
SPZO Dic2008-271200Z 00000KT 9999 FEW025 BKN050 10/06 Q1029 NOSIG RMK PP000=
SPZO Dic2008-271300Z VRB01KT 9999 FEW030 SCT040 BKN050 12/06 Q1029 TEMPO SCT036 SCT060 RMK PP000=
SPZO Dic2008-271400Z 00000KT 9999 FEW036 BKN080 13/05 Q1029 NOSIG RMK PP000=
SPZO Dic2008-271500Z VRB02KT 9999 FEW036 SCT080 15/05 Q1028 NOSIG RMK PP000=
SPZO Dic2008-271600Z 30005KT 240V030 9999 SCT040 SCT100 16/06 Q1027 NOSIG RMK WIND RWY10 28013KT 210V010 PP000=
SPZO Dic2008-271700Z 29005KT 250V020 9999 FEW040 SCT100 16/04 Q1026 NOSIG RMK WIND RWY10 31015KT 220V360 PP000=
SPZO Dic2008-271800Z 34007KT 300V020 9999 FEW046TCU BKN060 16/06 Q1025 NOSIG RMK WIND RWY10 VRB13KT PP000=
SPZO Dic2008-271900Z VRB03KT 9999 VCSH FEW046TCU BKN060 17/06 Q1024 NOSIG RMK WIND RWY10 33007G17KT 240V020 PP000=
SPZO Dic2008-272000Z 34008KT 280V020 9999 -RA VCSH FEW46TCU BKN060 15/07 Q1023 NOSIG RMK WIND RWY10 31015KT 250V010 PPTRZ=
SPZO Dic2008-272100Z 02004KT 320V060 9999 VCSH FEW046TCU BKN060 14/07 Q1022 RERA NOSIG RMK WIND RWY10 16009KT 080V200 PPTRZ=
SPZO Dic2008-272200Z VRB01KT 9999 FEW046TCU SCT080 16/07 Q1022 NOSIG RMK T.MAX.18.3 PP000=
SPZO Dic2008-272300Z 26007KT 9999 VCSH FEW046TCU SCT230 15/07 Q1023 NOSIG RMK WIND RWY10 28009KT 240V330 PP000=
SPZO Dic2008-280000Z 00000KT 9999 SCT036 BKN060 14/08 Q1024 RMK PP000=
SPZO Dic2008-280100Z 03003KT 9999 SCT040 SCT100 13/07 Q1025 RMK PP000=
SPZO Dic2008-280200Z 05004KT 9999 SCT043 SCT060 13/07 Q1026 RMK PP000=
SPZO Dic2008-280300Z 03004KT 9999 BKN040 SCT080 12/07 Q1027 RMK PP000=
SPZO Dic2008-280400Z 00000KT 9999 OVC040 12/08 Q1027 RMK PP000=
SPZO Dic2008-280500Z 00000KT 9999 SCT036 BKN043 12/08 Q1027 RMK PP000=
SPZO Dic2008-280600Z 00000KT 9999 -RA SCT036 BKN046 11/08 Q1026 RMK PP002=
SPZO Dic2008-280700Z VRB02KT 9000 RA SCT036 BKN043 10/07 Q1026 RMK PP042=
SPZO Dic2008-280800Z 05008KT 9000 -RA OVC043 09/07 Q1026 RMK PP008=
SPZO Dic2008-280900Z 06003KT 8000 RA SCT030 BKN043 09/07 Q1027 RMK PP038=
SPZO Dic2008-281000Z 05003KT 360V080 9000 -RA FEW020 SCT033 BKN046 08/07 Q1027 RMK CLNG BLW 1200M PP020=
SPZO Dic2008-281100Z VRB02KT 9000 -RA FEW020 SCT035 BKN046 09/07 Q1028 RMK CLNG BLW 1200M PP002=
SPZO Dic2008-281200Z 04004KT 9000 FEW020 SCT040 BKN050 10/07 Q1028 RMK PP000=
SPZO Dic2008-281300Z 00000KT 9999 FEW020 SCT050 12/07 Q1029 NOSIG RMK PP000=
SPZO Dic2008-281400Z 00000KT 9999 SCT046 SCT100 13/05 Q1029 NOSIG RMK PP000=
SPZO Dic2008-281500Z 06003KT 330V070 9999 SCT046 SCT100 15/06 Q1029 NOSIG RMK PP000=
SPZO Dic2008-281600Z 00000KT 9999 SCT046 SCT100 15/05 Q1028 NOSIG RMK=
SPZO Dic2008-281700Z VRB03KT 9999 SCT046 SCT100 17/06 Q1027 NOSIG RMK=
SPZO Dic2008-281800Z 01004KT 250V070 9999 VCSH FEW040 BKN050 17/03 Q1026 NOSIG RMK WIND RWY 10 VRB04KT PP000=
SPZO Dic2008-281900Z 36005KT 300V070 9999 VCSH FEW040 BKN050 18/05 Q1024 NOSIG RMK WIND RWY 10 VRB11KT PP000=
SPZO Dic2008-282000Z VRB02KT 9999 SCT043 SCT060 18/05 Q1023 NOSIG RMK PP000=
SPZO Dic2008-282100Z 35004KT 300V050 9999 SCT040 SCT060 17/07 Q1023 RESHRA NOSIG RMK WIND RWY 10 15007KT 090V210 PP008=
SPZO Dic2008-282200Z VRB02KT 9999 BKN050 19/04 Q1022 NOSIG RMK WIND RWY 10 VRB02KT TMAX 20.7 PP000=
SPZO Dic2008-282300Z VRB07KT 9999 SCT050 18/M01 Q1023 NOSIG RMK WIND RWY10 30013KT PP000=
SPZO Dic2008-290000Z 28004KT 9999 SCT050 15/04 Q1024 RMK PP000=
SPZO Dic2008-290100Z 27002KT 9999 FEW050 13/06 Q1025 RMK PP000=
SPZO Dic2008-290200Z 27002KT 9999 FEW050 10/05 Q1026 RMK PP000=
SPZO Dic2008-290300Z 28004KT 9999 FEW050 11/06 Q1027 RMK PP000=
SPZO Dic2008-290400Z 29002KT 9999 FEW046 10/07 Q1028 RMK PP000=
SPZO Dic2008-290500Z 33002KT 9999 SCT046 BKN050 11/08 Q1028 RMK PP000=
SPZO Dic2008-290600Z 05006KT 9999 -RA SCT040 BKN046 10/07 Q1028 RMK PP010=
SPZO Dic2008-290700Z 00000KT 9999 SCT040 BKN046 09/06 Q1028 RMK PP002=
SPZO Dic2008-290800Z 00000KT 9999 SCT040 BKN046 09/06 Q1028 RMK PP000=
SPZO Dic2008-290900Z 00000KT 9999 SCT040 BKN046 09/06 Q1028 RMK PP000=
SPZO Dic2008-291000Z 00000KT 9999 SCT040 BKN050 09/07 Q1028 RMK PP000=
SPZO Dic2008-291100Z 00000KT 9999 FEW030 SCT043 BKN100 08/06 Q1029 NOSIG RMK PP000=
SPZO Dic2008-291200Z VRB02KT 9999 FEW036 SCT043 BKN060 09/07 Q1030 NOSIG RMK PP000=
SPZO Dic2008-291300Z VRB01KT 9999 FEW040 SCT230 12/07 Q1030 NOSIG RMK PP000=
SPZO Dic2008-291400Z VRB02KT 9999 SCT043 SCT230 14/07 Q1030 NOSIG RMK PP000=
SPZO Dic2008-291500Z VRB02KT 9999 SCT043 BKN230 16/06 Q1030 NOSIG RMK PP000=
SPZO Dic2008-291600Z VRB03KT 9999 FEW046 BKN230 18/04 Q1029 NOSIG RMK PP000=
SPZO Dic2008-291700Z VRB01KT 9999 FEW050 BKN230 20/04 Q1028 NOSIG RMK PP000=
SPZO Dic2008-291800Z VRB03KT 9999 SCT050 SCT150 19/02 Q1027 NOSIG RMK=
SPZO Dic2008-291900Z VRB02KT 9999 SCT050 SCT150 BKN230 20/02 Q1026 NOSIG RMK WIND RWY 10 VRB11KT PP000=
SPZO Dic2008-292000Z VRB03KT 9999 SCT050 SCT230 21/04 Q1025 NOSIG RMK=
SPZO Dic2008-292100Z VRB02KT 9999 FEW050 BKN230 20/04 Q1024 NOSIG RMK PP000=
SPZO Dic2008-292200Z 05009KT 9999 FEW050 BKN230 18/05 Q1024 NOSIG RMK TMAX 21.0 PP000=
SPZO Dic2008-292300Z 02005KT 260V070 9999 FEW050 BKN230 17/06 Q1024 NOSIG RMK PP000=
SPZO Dic2008-300000Z 05004KT 330V070 9999 FEW050 BKN230 16/07 Q1026 RMK PP000=
SPZO Dic2008-300100Z VRB04KT 9999 FEW050 BKN100 14/06 Q1027 RMK PP000=
SPZO Dic2008-300200Z 00000KT 9999 SCT046 BKN100 13/06 Q1028 RMK PP000=
SPZO Dic2008-300300Z 04005KT 9999 SCT040 BKN050 13/07 Q1030 RMK PP000=
SPZO Dic2008-300400Z 00000KT 9999 RA OVC040 10/07 Q1031 RMK PP040=
SPZO Dic2008-300500Z 06007KT 9999 TSRA FEW040CB OVC043 10/07 Q1031 RMK PP004=
SPZO Dic2008-300600Z 05007KT 9999 -RA OVC040 09/07 Q1030 RMK PP008=
SPZO Dic2008-300700Z 00000KT 9999 SCT040 BKN046 09/06 Q1030 RMK PP000=
SPZO Dic2008-300800Z 04006KT 9999 SCT040 BKN046 09/06 Q1028 RMK PP000=
SPZO Dic2008-300900Z 06002KT 9999 FEW036 SCT040 BKN046 09/06 Q1029 RMK PP000=
SPZO Dic2008-301000Z 05002KT 9999 FEW030 SCT040 BKN080 08/05 Q1029 RMK PP000=
SPZO Dic2008-301100Z 00000KT 9999 SCT100 BKN230 09/06 Q1030 NOSIG RMK PP000=
SPZO Dic2008-301200Z VRB02KT 9999 FEW060 SCT100 BKN230 10/07 Q1030 NOSIG RMK WIND RWY 10 VRB02KT PP000=
SPZO Dic2008-301300Z 00000KT 9999 FEW020 SCT060 BKN100 12/05 Q1031 NOSIG RMK PP000=
SPZO Dic2008-301400Z VRB03KT 9999 FEW020 SCT060 BKN090 14/06 Q1030 NOSIG RMK PP000=
SPZO Dic2008-301500Z VRB02KT 9999 FEW030 SCT043 BKN080 14/05 Q1030 NOSIG RMK PP000=
SPZO Dic2008-301600Z VRB04KT 9999 FEW030 SCT043 BKN230 15/06 Q1029 NOSIG RMK PP000=
SPZO Dic2008-301700Z VRB02KT 9999 FEW030 SCT080 BKN230 16/04 Q1028 NOSIG RMK PP000=
SPZO Dic2008-301800Z 30003KT 250V040 9999 SCT050 BKN230 18/05 Q1027 NOSIG RMK PP000=
SPZO Dic2008-301900Z VRB04KT 9999 SCT046 BKN230 20/06 Q1026 NOSIG RMK PP000=
SPZO Dic2008-302000Z 02011KT 300V070 9999 -RA VCSH FEW043TCU SCT050CB BKN100 14/06 Q1026 BECMG FM2100 NSW RMK PPTRZ=
SPZO Dic2008-302100Z 27004KT 9000 4000W -RA VCSH FEW043TCU SCT060TCU BKN100 11/08 Q1027 BECMG FM2130 9999 NSW RMK PP024=
SPZO Dic2008-302200Z 26008KT 9999 FEW040 BKN060 12/06 Q1027 NOSIG RMK TMAX 19.8 PP004=
SPZO Dic2008-302300Z 28002KT 9999 SCT040 BKN046 12/07 Q1028 NOSIG RMK PP000=
SPZO Dic2008-310000Z 29004KT 250V070 8000 -DZ SCT030 BKN040 11/08 Q1029 RMK PPTRZ=
SPZO Dic2008-310100Z 07003KT 8000 -DZ SCT030 BKN040 10/08 Q1030 RMK PPTRZ=
SPZO Dic2008-310200Z 00000KT 8000 -RA FEW030 BKN040 10/08 Q1031 RMK PP002=
SPZO Dic2008-310300Z 00000KT 5000 -RA FEW030 BKN040 10/08 Q1031 RMK PP006=
SPZO Dic2008-310400Z 00000KT 7000 -RA FEW030 BKN040 10/08 Q1032 RMK PP006=
SPZO Dic2008-310500Z VRB02KT 8000 -RA FEW030 BKN040 10/07 Q1031 RMK PPTRZ=
SPZO Dic2008-310600Z 31004KT 9000 FEW030 BKN040 10/06 Q1031 RERA RMK PP002=
SPZO Dic2008-310700Z 26005KT 9999 OVC040 09/06 Q1030 RMK PP000=
SPZO Dic2008-310800Z 26004KT 9999 SCT040 BKN050 09/06 Q1030 RMK PP000=
SPZO Dic2008-310900Z 00000KT 9999 SCT040 BKN050 09/06 Q1030 RMK PP000=
SPZO Dic2008-311000Z 07002KT 9999 SCT040 SCT050 BKN060 09/06 Q1030 RMK PP000=
SPZO Dic2008-311100Z 03002KT 9999 FEW025 SCT040 BKN060 09/06 Q1030 REDZ BECMG FEW030 SCT040 BKN080 RMK PP002=
SPZO Dic2008-311200Z 04004KT 9999 FEW036 SCT043 BKN080 10/07 Q1031 NOSIG RMK PP000=
SPZO Dic2008-311300Z VRB01KT 9999 FEW030 SCT040 BKN080 11/06 Q1031 NOSIG RMK PP000=
SPZO Dic2008-311400Z VRB01KT 9999 FEW036 SCT040 BKN100 14/07 Q1031 NOSIG RMK PP000=
SPZO Dic2008-311500Z 04004KT 350V070 9999 SCT040 SCT100 14/05 Q1031 NOSIG RMK PP000=
SPZO Dic2008-311600Z 06006KT 9999 FEW040 SCT050 15/05 Q1030 NOSIG RMK PP000=
SPZO Dic2008-311700Z VRB02KT 9999 FEW040 SCT050 18/05 Q1029 NOSIG RMK PP000=
SPZO Dic2008-311800Z 06011KT 9999 VCSH SCT043 BKN050 16/05 Q1028 NOSIG RMK PP000=
SPZO Dic2008-311900Z 01004KT 310V070 9999 SCT046 BKN100 19/04 Q1026 NOSIG RMK PP000=
SPZO Dic2008-312000Z 05009KT 9999 FEW043TCU BKN100 19/07 Q1025 TEMPO=
SPZO Dic2008-312100Z 32005KT 260V050 9999 FEW043TCU BKN100 19/06 Q1024 NOSIG RMK PP000=
SPZO Dic2008-312200Z 02006KT 300V070 9999 VCSH FEW043TCU BKN050 17/07 Q1024 NOSIG RMK T.MAX.20.2 PP000=
SPZO Dic2008-312300Z VRB03KT 9999 VCSH FEW043TCU BKN050 15/08 Q1025 TEMPO -RA RMK PP000=
SPZO Ene2009-010000Z 29005KT 9999 -RA SCT036 BKN043 14/07 Q1026 RMK PP002=
SPZO Ene2009-010100Z 27004KT 8000 RA SCT030 BKN040 12/08 Q1028 RMK PP018=
SPZO Ene2009-010200Z 26002KT 6000 RA SCT030 BKN043 10/08 Q1030 RMK PP040=
SPZO Ene2009-010300Z 06002KT 9999 -RA SCT030 BKN043 10/08 Q1030 RMK PP010=
SPZO Ene2009-010400Z 00000KT 9999 FEW025 OVC040 10/08 Q1030 RMK PP008=
SPZO Ene2009-010500Z 00000KT 7000 -RA SCT025 BKN040 10/07 Q1030 RMK PP008=
SPZO Ene2009-010600Z 00000KT 6000 -RA FEW025 OVC043 09/07 Q1029 RMK PP020=
SPZO Ene2009-010700Z 26004KT 6000 -RA SCT030 BKN043 09/07 Q1029 RMK PP016=
SPZO Ene2009-010800Z 27004KT 8000 SCT030 BKN046 09/07 Q1028 RMK PP000=
SPZO Ene2009-010900Z 28007KT 8000 SCT030 BKN043 10/06 Q1028 RMK PP002=
SPZO Ene2009-011000Z 26006KT 9999 -DZ FEW030 SCT036 BKN043 09/06 Q1029 RMK CLNG BLW 1200M PP002=
SPZO Ene2009-011100Z 26004KT 9999 FEW030 SCT036 BKN043 09/06 Q1030 BECMG FM1200 SCT036 BKN046 RMK CLNG BLW 1200M PP000=
SPZO Ene2009-011200Z 00000KT 9999 DZ VCSH FEW020 SCT030 BKN050 10/06 Q1030 NOSIG RMK CLNG BLW 1200M PPTRZ=
SPZO Ene2009-011300Z 28002KT 9999 VCSH FEW030 SCT036 BKN050 11/06 Q1030 TEMPO 8000 RMK PP000=
SPZO Ene2009-011400Z 00000KT 9999 VCSH SCT030 OVC050 11/06 Q1031 NOSIG RMK PP000=
SPZO Ene2009-011500Z 05003KT 360V070 9999 VCSH SCT030 OVC050 12/06 Q1030 NOSIG RMK PP000=
SPZO Ene2009-011600Z 06004KT 010V080 9999 DZ VCSH SCT030 OVC050 12/07 Q1030 TEMPO -RA RMK PP002=
SPZO Ene2009-011700Z VRB01KT 9999 VCSH SCT036 BKN080 14/07 Q1029 NOSIG RMK PP000=
SPZO Ene2009-011800Z VRB03KT 8000 -DZ VCSH FEW020 SCT030 BKN070 13/07 Q1028 BECMG FM1830 NSW RMK PP004=
SPZO Ene2009-011900Z 06006KT 8000 -DZ VCSH FEW020 SCT030 BKN070 14/08 Q1027 TEMPO -RA RMK PPTRZ=
SPZO Ene2009-012000Z 00000KT 9000 VCSH FEW020 SCT030 BKN070 15/08 Q1026 REDZ NOSIG RMK PP002=
SPZO Ene2009-012100Z 26007KT 9999 VCSH FEW020 SCT030 BKN080 15/07 Q1026 NOSIG RMK PP000=
SPZO Ene2009-012200Z 03004KT 350V070 9999 VCSH FEW030 SCT040 BKN090 15/07 Q1025 NOSIG RMK TMAX 15.7 PP000=
SPZO Ene2009-012300Z 01005KT 320V060 9999 SCT040 BKN100 15/06 Q1026 NOSIG RMK PP000=
SPZO Ene2009-020000Z 35002KT 9999 SCT040 BKN050 14/06 Q1027 RMK PP000=
SPZO Ene2009-020100Z 26003KT 9999 SCT040 BKN050 13/06 Q1028 RMK PP000=
SPZO Ene2009-020200Z 06003KT 9999 SCT040 BKN050 12/07 Q1029 RMK PP000=
SPZO Ene2009-020300Z 00000KT 9999 SCT040 BKN050 13/07 Q1029 RMK PP000=
SPZO Ene2009-020400Z 05003KT 9999 SCT040 BKN050 13/07 Q1029 RMK PP000=
SPZO Ene2009-020500Z 00000KT 9999 SCT040 BKN050 12/07 Q1029 RMK PP000=
SPZO Ene2009-020600Z 00000KT 9999 SCT040 BKN050 12/06 Q1029 RMK PP000=
SPZO Ene2009-020700Z 00000KT 9999 SCT040 BKN050 12/07 Q1028 RMK PP000=
SPZO Ene2009-020800Z 00000KT 9999 SCT040 BKN050 11/07 Q1028 RMK PP000=
SPZO Ene2009-020900Z 00000KT 9999 SCT040 BKN050 11/07 Q1028 RMK PP000=
SPZO Ene2009-021000Z 26002KT 9999 SCT040 BKN046 11/07 Q1028 RMK PP000=
SPZO Ene2009-021100Z 26003KT 9999 FEW020 SCT036 BKN050 10/07 Q1029 BECMG FM1130 SCT036 BKN050 RMK PP000=
SPZO Ene2009-021200Z VRB02KT 9999 FEW020 SCT040 BKN200 12/07 Q1030 NOSIG RMK PP000=
SPZO Ene2009-021300Z 05003KT 360V070 9999 FEW030 SCT046 13/07 Q1030 NOSIG RMK PP000=
SPZO Ene2009-021400Z 04004KT 360V060 9999 FEW030 SCT046 15/08 Q1030 NOSIG RMK PP000=
SPZO Ene2009-021500Z 05005KT 340V060 9999 FEW036 SCT046 16/07 Q1029 NOSIG RMK PP000=
SPZO Ene2009-021600Z 26004KT 260V020 9999 FEW040 SCT046 18/08 Q1029 NOSIG RMK PP000=
SPZO Ene2009-021700Z 06012KT 9999 VCSH SCT040TCU BKN046 16/08 Q1028 TEMPO RA RMK PP000=
SPZO Ene2009-021800Z 26010KT 9999 VCSH FEW036TCU BKN040 15/07 Q1027 TEMPO -RA RMK PP000=
SPZO Ene2009-021900Z 27008KT 9000 VCSH FEW030TCU SCT040 BKN070 19/05 Q1026 NOSIG RMK PP000=
SPZO Ene2009-022000Z 04007KT 010V070 8000 VCSH FEW025TCU SCT040 BKN060 14/07 Q1026 TEMPO -RA RMK PP000=
SPZO Ene2009-022100Z 26004KT 9999 VCSH FEW025TCU SCT040 BKN060 15/07 Q1025 NOSIG RMK PP000=
SPZO Ene2009-022200Z 00000KT 9999 VCSH FEW025TCU SCT040 BKN060 15/06 Q1025 NOSIG RMK TMAX 19.5 PP000=
SPZO Ene2009-022300Z 34008KT 300V030 9999 SCT040 BKN060 15/07 Q1026 NOSIG RMK PP000=
SPZO Ene2009-030000Z VRB03KT 9999 SCT040 BKN100 14/06 Q1026 RMK PP000=
SPZO Ene2009-030100Z 28004KT 250V010 9999 SCT040 BKN050 14/06 Q1027 RMK PP000=
SPZO Ene2009-030200Z 26003KT 230V330 9999 SCT040 BKN050 14/06 Q1028 RMK PP000=
SPZO Ene2009-030300Z 28002KT 9999 SCT040 BKN050 12/08 Q1029 RMK PP000=
SPZO Ene2009-030400Z 27002KT 9999 SCT040 BKN050 11/07 Q1029 RMK PP000=
SPZO Ene2009-030500Z 00000KT 9999 SCT040 BKN050 11/08 Q1029 RMK PP000=
SPZO Ene2009-030600Z VRB07KT 9999 RA OVC040 11/08 Q1028 RMK PP002=
SPZO Ene2009-030700Z VRB05KT 9999 RA FEW030 BKN043 11/08 Q1028 RMK PP020=
SPZO Ene2009-030800Z 06009KT 9999 FEW030 BKN043 09/07 Q1028 RMK PP000=
SPZO Ene2009-030900Z 04006KT 9000 DZ FEW020 SCT033 BKN046 09/06 Q1028 RMK PP002=
SPZO Ene2009-031000Z 06003KT 9000 FEW020 SCT033 BKN046 08/06 Q1029 RMK PP000=
SPZO Ene2009-031100Z 03002KT 9999 VCSH FEW020 SCT033 BKN046 09/06 Q1029 NOSIG RMK PP000=
SPZO Ene2009-031200Z VRB02KT 8000 FEW020 SCT030 BKN043 09/06 Q1030 BECMG=
SPZO Ene2009-031300Z VRB02KT 8000 FEW020 SCT030 BKN046 12/07 Q1031 NOSIG RMK HZ PP000=
SPZO Ene2009-031400Z VRB03KT 9000 FEW025 SCT033 BKN050 12/06 Q1031 BECMG FM1430 9999 RMK HZ PP000=
SPZO Ene2009-031500Z VRB03KT 9999 FEW033 SCT050 BKN060 14/07 Q1030 NOSIG RMK PP000=
SPZO Ene2009-031600Z VRB02KT 9999 FEW036 SCT050 BKN060 15/06 Q1030 NOSIG RMK PP000=
SPZO Ene2009-031700Z 26007KT 9000 VCSH FEW036 SCT050 BKN060 16/06 Q1029 NOSIG RMK WIND RWY 10 28008KT PP000=
SPZO Ene2009-031800Z 01004KT 260V060 9999 VCSH SCT040TCU BKN046 14/08 Q1029 TEMPO -RA RMK WIND RWY10 27011KT PP000=
SPZO Ene2009-031900Z 03010KT 360V060 9000 VCSH FEW030 SCT040TCU BKN046 11/08 Q1028 RESHRA TEMPO -RA RMK WIND RWY10 10011KT 050V120 PP002=
SPZO Ene2009-032000Z 04007KT 360V060 9999 FEW030 SCT046 BKN080 11/08 Q1027 TEMPO VCSH RMK PP000=
SPZO Ene2009-032100Z 05008KT 9999 SCT030 BKN230 15/07 Q1026 NOSIG RMK PP000=
SPZO Ene2009-032200Z 05007KT 9999 FEW043TCU SCT230 13/07 Q1026 NOSIG RMK T.MAX 16.5 PP000=
SPZO Ene2009-032300Z VRB02KT 9999 BKN040 SCT050 13/07 Q1026 TEMPO VCSH RMK PP000=
SPZO Ene2009-040000Z 05002KT 9999 OVC050 13/07 Q1028 RMK PP000=
SPZO Ene2009-040100Z 26002KT 8000 -RA FEW030 OVC040 12/08 Q1029 RMK PPTRZ=
SPZO Ene2009-040200Z 26002KT 5000 -RA FEW030 OVC040 11/09 Q1029 RMK PP010=
SPZO Ene2009-040300Z 00000KT 7000 RA FEW030 OVC040 11/08 Q1030 RMK PP014=
SPZO Ene2009-040400Z VRB02KT 8000 -RA FEW030 OVC040 11/09 Q1030 RMK PP020=
SPZO Ene2009-040500Z VRB02KT 8000 -RA FEW030 OVC040 11/08 Q1030 RMK PPTRZ=
SPZO Ene2009-040600Z 03002KT 8000 -RA FEW030 OVC040 11/09 Q1029 RMK PP006=
SPZO Ene2009-040700Z 00000KT 8000 -RA FEW030 OVC040 10/09 Q1028 RMK PP004=
SPZO Ene2009-040800Z 06002KT 8000 -RA FEW030 OVC040 10/08 Q1028 RMK PP006=
SPZO Ene2009-040900Z 28009KT 8000 -RA SCT030 OVC040 10/06 Q1029 RMK PP006=
SPZO Ene2009-041000Z 26002KT 8000 -RA BKN030 OVC040 09/07 Q1030 RMK CLNG BLW 1200M PP010=
SPZO Ene2009-041100Z 29005KT 8000 -RA BKN030 OVC040 09/07 Q1031 NOSIG RMK CLNG BLW 1200M PP010=
SPZO Ene2009-041200Z 27003KT 6000 -RA VCSH SCT030 SCT036 BKN043 09/06 Q1032 NOSIG RMK CLNG BLW 1200M PP004=
SPZO Ene2009-041300Z VRB02KT 7000 -RA VCSH SCT020 SCT036 BKN046 09/06 Q1033 NOSIG RMK CLNG BLW 1200M PP010=
SPZO Ene2009-041400Z VRB02KT 7000 -RA VCSH SCT020 SCT036 BKN070 10/07 Q1033 NOSIG RMK CLNG BLW 1200M PP008=
SPZO Ene2009-041500Z 28009KT 9999 -DZ FEW025 SCT036 BKN070 11/06 Q1032 BECMG FM1530 SCT036 BKN046 RMK CLNG BLW 1200M PP002=
SPZO Ene2009-041600Z 29010KT 250V320 9999 VCSH SCT025 SCT040 BKN070 12/07 Q1032 TEMPO 8000 -RA RMK PP000=
SPZO Ene2009-041700Z 29007KT 260V330 9999 VCSH FEW030 SCT043 BKN080 14/07 Q1031 NOSIG RMK PP000=
SPZO Ene2009-041800Z 28009KT 250V320 9999 SCT043 BKN080 15/05 Q1030 NOSIGM RMK PP000=
SPZO Ene2009-041900Z 27012KT 9999 SCT046 SCT080 16/07 Q1029 NOSIG RMK RWY10 RMK RWY10 27010KT 210V360 PP000=
SPZO Ene2009-042000Z 26012KT 9999 SCT046 SCT080 17/06 Q1027 NOSIG RMK=
SPZO Ene2009-042100Z 26004KT 9999 SCT046 17/06 Q1026 NOSIG RMK WIND RWY10 27011KT 230V330 PP000=
SPZO Ene2009-042200Z 26011KT 9999 SCT050 17/06 Q1026 NOSIG RMK WIND RWY10 27008KT 250V330 T.MAX.17.7 PP000=
SPZO Ene2009-042300Z 26011KT 9999 FEW050 16/06 Q1026 NOSIG RMK WIND RWY10 27009KT 230V350 PP000=
SPZO Ene2009-050000Z 26008KT 9999 FEW050 13/06 Q1027 RMK PP000=
SPZO Ene2009-050100Z 26009KT 9999 FEW050 13/06 Q1028 RMK PP000=
SPZO Ene2009-050200Z 27005KT 9999 FEW043 12/06 Q1029 RMK PP000=
SPZO Ene2009-050300Z 26004KT 9999 FEW046 11/06 Q1030 RMK PP000=
SPZO Ene2009-050400Z 27005KT 9999 SCT046 11/06 Q1030 RMK PP000=
SPZO Ene2009-050500Z 00000KT 9999 SCT046 SCT080 12/06 Q1030 RMK PP000=
SPZO Ene2009-050600Z 00000KT 9999 FEW036 SCT046 11/07 Q1029 RMK PP000=
SPZO Ene2009-050700Z 06008KT 9999 SCT036 SCT050 10/08 Q1029 RMK PP000=
SPZO Ene2009-050800Z 06006KT 9999 SCT036 SCT046 09/07 Q1028 RMK PP000=
SPZO Ene2009-050900Z 05004KT 9999 FEW020 SCT040 BKN046 09/07 Q1028 RMK PP000=
SPZO Ene2009-051000Z 06002KT 9999 FEW025 SCT040 BKN043 09/07 Q1029 RMK PP000=
SPZO Ene2009-051100Z 00000KT 9999 FEW030 SCT040 BKN046 10/07 Q1029 NOSIG RMK PP000=
SPZO Ene2009-051200Z 00000KT 9999 SCT036 BKN046 10/07 Q1030 NOSIG RMK PP000=
SPZO Ene2009-051300Z 06004KT 9999 SCT036 BKN050 11/08 Q1030 NOSI RMK PP000=
SPZO Ene2009-051400Z 05003KT 340V070 9999 SCT036 BKN050 13/08 Q1031 NOSIG RMK PP000=
SPZO Ene2009-051500Z VRB02KT 9999 FEW043 SCT050 15/06 Q1030 NOSIG RMK RWY10 VRB04KT PP000=
SPZO Ene2009-051600Z 31004KT 270V060 9999 SCT050 18/06 Q1029 NOSIG RMK PP000=
SPZO Ene2009-051700Z 29004KT 250V030 9999 SCT050 19/07 Q1028 NOSIG RMK PP000=
SPZO Ene2009-051800Z 29009KT 260V340 9999 SCT050 20/05 Q1026 NOSIG RMK PP000=
SPZO Ene2009-051900Z 30010KT 260V010 9999 SCT050 20/05 Q1025 NOSIG RMK PP000=
SPZO Ene2009-052000Z 27010KT 260V320 9999 FEW043TCU SCT050 19/04 Q1024 TEMPO VCSH RMK WIND RWY10 30010KT 260V360 PP000=
SPZO Ene2009-052100Z VRB02KT 9999 FEW043TCU SCT050 16/08 Q1024 RESHRA TEMPO VCSH RMK PP006=
SPZO Ene2009-052200Z VRB03KT 9999 FEW046 SCT230 17/07 Q1023 NOSIG RMK T.MAX 21.1 PP000=
SPZO Ene2009-052300Z 27009KT 9999 FEW046 BKN230 17/07 Q1023 NOSIG RMK PP000=
SPZO Ene2009-060000Z 05003KT 9999 FEW050 SCT230 15/07 Q1024 RMK PP000=
SPZO Ene2009-060100Z 05009KT 9999 FEW230 13/07 Q1025 RMK PP000=
SPZO Ene2009-060200Z 32002KT 9999 SKC 13/07 Q1027 RMK PP000=
SPZO Ene2009-060300Z 31002KT 9999 SKC 11/07 Q1027 RMK PP000=
SPZO Ene2009-060400Z 00000KT 9999 SKC 10/07 Q1028 RMK PP000=
SPZO Ene2009-060500Z 00000KT 9999 FEW040 BKN050 10/07 Q1028 RMK PP000=
SPZO Ene2009-060600Z 00000KT 9999 FEW040 SCT050 10/07 Q1027 RMK PP000=
SPZO Ene2009-060700Z 00000KT 9999 SCT040 09/06 Q1027 RMK PP000=
SPZO Ene2009-060800Z 00000KT 9999 SCT040 10/07 Q1026 RMK PP000=
SPZO Ene2009-060900Z 26002KT 9999 SCT040 BKN046 10/07 Q1027 RMK PP000=
SPZO Ene2009-061000Z 06002KT 9999 SCT036 BKN046 10/07 Q1027 RMK PP000=
SPZO Ene2009-061100Z 28002KT 9999 SCT036 BKN046 10/07 Q1028 NOSIG RMK PP000=
SPZO Ene2009-061200Z 00000KT 9999 FEW030 SCT040 BKN043 11/07 Q1029 NOSIG RMK WIND RWY 10 00000KT PP000=
SPZO Ene2009-061300Z 00000KT 9999 FEW030 SCT040 BKN046 13/07 Q1029 NOSIG RMK WIND RWY 10 00000KT PP000=
SPZO Ene2009-061400Z VRB02KT 9999 FEW030 SCT040 BKN050 14/07 Q1029 NOSIG RMK WIND RWY 10 11005KT 070V180 PP000=
SPZO Ene2009-061500Z 29005KT 250V040 9999 FEW040 BKN050 17/07 Q1029 NOSIG RMK WIND RWY 10 30006KT 230V050 PP000=
SPZO Ene2009-061600Z 36004KT 260V070 9999 FEW040 BKN050 18/06 Q1028 NOSIG RMK WIND RWY 10 09004KT 030V160 PP000=
SPZO Ene2009-061700Z VRB02KT 9999 FEW040 BKN050 18/07 Q1027 NOSIG RMK=
SPZO Ene2009-061800Z 04006KT 300V070 9999 FEW040 BKN050 19/05 Q1026 NOSIG RMK WIND RWY 10 VRB06KT PP000=
SPZO Ene2009-061900Z 01004KT 250V070 9999 VCSH FEW040TCU BKN050 18/06 Q1024 TEMPO -RA RMK WIND RWY 10 VRB09G21KT PP000=
SPZO Ene2009-062000Z 31004KT 250V060 9000 -RA VCSH FEW036TCU BKN050 13/07 Q1025 NOSIG RMK WIND RWY 10 10005KT 060V130 PP044=
SPZO Ene2009-062100Z 00000KT 9999 FEW036 SCT050 BKN060 14/09 Q1024 RERA TEMPO VCSH RMK WIND RWY 10 00000KT PP002=
SPZO Ene2009-062200Z 00000KT 9999 SCT050 SCT060 15/09 Q1024 NOSIG RMK=
SPZO Ene2009-062300Z 00000KT 9999 BKN050 15/08 Q1025 NOSIG RMK PP000=
SPZO Ene2009-070000Z 00000KT 9999 SCT200 13/09 Q1025 RMK PP000=
SPZO Ene2009-070100Z 26003KT 9999 SCT200 11/08 Q1026 RMK PP000=
SPZO Ene2009-070200Z VRB02KT 9999 SCT046 BKN080 12/09 Q1028 RMK PP000=
SPZO Ene2009-070300Z 28005KT 9999 SCT046 BKN080 12/06 Q1028 RMK PP000=
SPZO Ene2009-070400Z 26003KT 9999 SCT040 BKN080 11/07 Q1029 RMK PP000=
SPZO Ene2009-070500Z 00000KT 9999 SCT040 11/06 Q1029 RMK PP000=
SPZO Ene2009-070600Z 00000KT 9999 SCT040 09/06 Q1028 RMK PP000=
SPZO Ene2009-070700Z 00000KT 9999 FEW040 08/06 Q1028 RMK PP000=
SPZO Ene2009-070800Z 00000KT 9999 FEW040 07/05 Q1027 RMK PP000=
SPZO Ene2009-070900Z 06002KT 9999 FEW040 SCT046 07/05 Q1028 RMK PP000=
SPZO Ene2009-071000Z 25003KT 9999 FEW040 SCT046 07/05 Q1028 RMK PP000=
SPZO Ene2009-071100Z 06003KT 9999 SCT046 07/05 Q1029 NOSIG RMK PP000=
SPZO Ene2009-071200Z 00000KT 9999 FEW050 10/06 Q1030 NOSIG RMK WIND RWY 10 00000KT PP000=
SPZO Ene2009-071300Z 00000KT 9999 FEW050 13/06 Q1030 NOSIG RMK WIND RWY 10 00000KT PP000=
SPZO Ene2009-071400Z 00000KT 9999 FEW050 16/07 Q1029 NOSIG RMK WIND RWY 10 00000KT PP000=
SPZO Ene2009-071500Z 00000KT 9999 FEW050 17/05 Q1029 NOSIG RMK WIND RWY 10 00000KT PP000=
SPZO Ene2009-071600Z 33004KT 250V070 9999 FEW050 19/07 Q1028 NOSIG RMK=
SPZO Ene2009-071700Z 34005KT 250V070 9999 SCT050 20/05 Q1027 NOSIG RMK=
SPZO Ene2009-071800Z 36004KT 260V060 9999 VCSH FEW043TCU SCT050 21/07 Q1025 TEMPO RA RMK PP000=
SPZO Ene2009-071900Z 31008KT 270V360 9999 VCSH SCT043TCU SCT050 18/05 Q1025 TEMPO RA RMK WIND RWY10 31010KT 240V360 PP000=
SPZO Ene2009-072000Z 28005KT 260V360 9999 VCSH SCT046 SCT080 19/05 Q1024 NOSIG RMK PP000=
SPZO Ene2009-072100Z 27006KT 9999 FEW050 SCT230 19/06 Q1023 NOSIG RMK PP000=
SPZO Ene2009-072200Z 28006KT 250V330 9999 FEW050 SCT230 19/06 Q1023 NOSIG RMK T.MAX 21.7 PP000=
SPZO Ene2009-072300Z VRB03KT 9999 FEW050 SCT230 18/06 Q1024 NOSIG RMK PP000=
SPZO Ene2009-080000Z 00000KT 9999 SCT050 15/07 Q1025 RMK PP000=
SPZO Ene2009-080100Z 26005KT 9999 SCT050 14/07 Q1026 RMK PP000=
SPZO Ene2009-080200Z 03008KT 330V070 9999 BKN050 14/05 Q1028 RMK PP000=
SPZO Ene2009-080300Z 31009KT 260V340 5000 +TSRA FEW020CB OVC040 10/06 Q1031 RMK PP154=
SPZO Ene2009-080400Z 26004KT 9000 FEW020 OVC040 10/07 Q1031 RETSRA RMK PP002=
SPZO Ene2009-080500Z 00000KT 8000 -RA FEW020 OVC040 10/07 Q1031 RMK PP002=
SPZO Ene2009-080600Z VRB03KT 9000 FEW020 OVC040 10/07 Q1030 RERA RMK PPTRZ=
SPZO Ene2009-080700Z 26006KT 9999 FEW020 OVC040 09/05 Q1028 RMK PP000=
SPZO Ene2009-080800Z VRB02KT 9999 FEW020 OVC040 09/06 Q1029 RMK PP000=
SPZO Ene2009-080900Z 00000KT 9999 FEW020 SCT040 BKN043 09/06 Q1029 RMK PP000=
SPZO Ene2009-081000Z 06003KT 9999 FEW020 SCT040 BKN060 09/06 Q1029 RMK PP000=
SPZO Ene2009-081100Z 32002KT 9999 FEW020 SCT040 BKN100 09/06 Q1030 NOSIG RMK PP000=
SPZO Ene2009-081200Z 00000KT 9999 FEW030 SCT043 BKN100 10/06 Q1030 NOSIG RMK PP000=
SPZO Ene2009-081300Z 00000KT 9999 FEW036 SCT046 BKN100 12/06 Q1031 NOSIG RMK PP000=
SPZO Ene2009-081400Z VRB02KT 9999 SCT036 BKN230 14/06 Q1031 NOSIG RMK PP000=
SPZO Ene2009-081500Z VRB02KT 9999 FEW036 SCT043 BKN230 15/05 Q1031 NOSIG RMK PP000=
SPZO Ene2009-081600Z VRB02KT 9999 FEW036 SCT043 BKN050 17/06 Q1030 NOSIG RMK PP000=
SPZO Ene2009-081700Z 35008KT 300V050 9999 FEW040TCU SCT046 BKN060 16/05 Q1029 TEMPO VCSH RMK PP000=
SPZO Ene2009-081800Z 33008KT 280V010 9999 FEW040TCU SCT046 BKN080 16/05 Q1029 TEMPO VCSH RMK PP000=
SPZO Ene2009-081900Z 00000KT 9999 FEW040TCU SCT046 BKN080 17/05 Q1028 TEMPO VCSH RMK WIND RWY10 VRB06KT PP000=
SPZO Ene2009-082000Z 32008KT 290V020 9999 FEW040TCU SCT046 BKN080 18/04 Q1027 NOSIG RMK WIND RWY10 VRB06KT PP000=
SPZO Ene2009-082100Z 05008KT 9999 FEW040TCU BKN100 17/06 Q1026 17/06 Q1026 NOSIG RMK PP000=
SPZO Ene2009-082200Z 01007KT 330V050 9999 SCT050 BKN100 17/05 Q1026 NOSIG RMK WIND RWY10 13006KT 090V180 T.MAX.18.8 PP000=
SPZO Ene2009-082300Z 00000KT 9999 FEW050 SCT100 16/04 Q1026 NOSIG RMK PP000=
SPZO Ene2009-090000Z VRB02KT 9999 SCT043 SCT100 14/07 Q1027 RMK PP000=
SPZO Ene2009-090100Z 26004KT 9999 FEW060 SCT230 12/07 Q1029 RMK PP000=
SPZO Ene2009-090200Z 00000KT 9999 SCT040 SCT060 12/07 Q1029 RMK PP000=
SPZO Ene2009-090300Z 25004KT 9999 FEW040 SCT060 12/07 Q1030 RMK PP000=
SPZO Ene2009-090400Z 00000KT 9999 SCT040 SCT050 12/08 Q1031 RMK PP002=
SPZO Ene2009-090500Z 00000KT 9999 SCT040 SCT046 12/08 Q1031 RMK PP000=
SPZO Ene2009-090600Z 00000KT 9999 BKN040 SCT050 12/08 Q1030 RMK PP000=
SPZO Ene2009-090700Z 26009KT 9999 OVC040 11/07 Q1029 RMK PP000=
SPZO Ene2009-090800Z 00000KT 9999 BKN040 SCT080 11/07 Q1029 RMK PP000=
SPZO Ene2009-090900Z 00000KT 9999 BKN040 SCT080 11/07 Q1029 RMK PP000=
SPZO Ene2009-091000Z VRB01KT 9999 SCT040 SCT050 10/06 Q1029 RMK PP000=
SPZO Ene2009-091100Z VRB02KT 9999 FEW036 BKN046 09/07 Q1030 NOSIG RMK PP000=
SPZO Ene2009-091200Z 28002KT 9999 FEW046 SCT230 11/07 Q1031 NOSIG RMK PP000=
SPZO Ene2009-091300Z VRB02KT 9999 FEW046 14/05 Q1032 NOSIG RMK PP000=
SPZO Ene2009-091400Z 27003KT 250V020 9999 FEW046 15/05 Q1032 NOSIG RMK PP000=
SPZO Ene2009-091500Z 00000KT 9999 SCT046 17/04 Q1032 NOSIG RMK PP000=
SPZO Ene2009-091600Z VRB04KT 9999 SCT046 17/04 Q1031 NOSIG RMK WIND RWY10 VRB07KT PP000=
SPZO Ene2009-091700Z VRB03KT 9999 SCT046 18/03 Q1030 NOSIG RMK WIND RWY10 VRB09KT PP000=
SPZO Ene2009-091800Z 27005KT 250V030 9999 SCT050 20/02 Q1029 NOSIG RMK=
SPZO Ene2009-091900Z 33007KT 290V020 9999 SCT050 20/03 Q1028 NOSIG RMK PP000=
SPZO Ene2009-092000Z 36011KT 300V060 9999 SCT050 21/04 Q1027 NOSIG RMK=
SPZO Ene2009-092100Z 36008KT 300V020 9999 SCT050 20/03 Q1025 NOSIG RMK=
SPZO Ene2009-092200Z 04003KT 340V070 9999 SCT050 19/05 Q1025 NOSIG RMK=
SPZO Ene2009-092300Z 01009KT 340V050 9999 SCT050 17/05 Q1026 NOSIG RMK=
SPZO Ene2009-100000Z 00000KT 9999 SCT050 16/05 Q1027 RMK PP000=
SPZO Ene2009-100100Z 00000KT 9999 BKN046 15/06 Q1029 RMK PP000=
SPZO Ene2009-100200Z 01002KT 9999 SCT046 BKN050 15/05 Q1030 RMK PP000=
SPZO Ene2009-100300Z 01002KT 9999 VCSH SCT046 BKN050 14/06 Q1031 RMK PP000=
SPZO Ene2009-100400Z 00000KT 9999 SCT040 BKN046 12/05 Q1032 RERA RMK PP002=
SPZO Ene2009-100500Z 29007KT 9999 DZ OVC040 11/06 Q1032 RMK PP002=
SPZO Ene2009-100600Z 00000KT 9999 -RA OVC040 10/05 Q1032 RMK PP006=
SPZO Ene2009-100700Z 28004KT 9999 RA FEW036 BKN040 09/06 Q1031 CLN BLW 1200M RMK PP020=
SPZO Ene2009-100800Z 27009KT 9999 DZ FEW036 BKN040 10/06 Q1030 CLNG BLW 1200M RMK PPTRZ=
SPZO Ene2009-100900Z 04003KT 9999 FEW036 BKN043 10/06 Q1030 RMK PP000=
SPZO Ene2009-101000Z 26004KT 9999 FEW036 BKN043 09/05 Q1031 RMK PP000=
SPZO Ene2009-101100Z 28002KT 9999 FEW036 OVC046 09/05 Q1032 NOSIG RMK PP000=
SPZO Ene2009-101200Z 00000KT 9999 FEW036 SCT046 BKN080 10/06 Q1033 NOSIG RMK PP000=
SPZO Ene2009-101300Z 00000KT 9999 FEW030 SCT045 BKN080 13/06 Q1033 NOSIG RMK PP000=
SPZO Ene2009-101400Z VRB03KT 9999 FEW036 SCT043 BKN050 13/06 Q1033 NOSIG RMK PP000=
SPZO Ene2009-101500Z VRB02KT 9999 FEW036 SCT043 BKN050 14/06 Q1033 NOSIG RMK PP000=
SPZO Ene2009-101600Z 00000KT 9999 FEW040TCU BKN046 15/06 Q1033 TEMPO=
SPZO Ene2009-101700Z 35010KT 330V060 9999 SCT040 BKN046 16/05 Q1032 TEMPO=
SPZO Ene2009-101800Z 34006KT 9000 -DZ FEW040 SCT050 BKN070 17/06 Q1031 TEMPO VCSH RMK WIND RWY 10 VRB05KT PPTRZ=
SPZO Ene2009-101900Z 02007KT 320V070 9999 FEW040 SCT050 BKN070 16/04 Q1030 NOSIG RMK WIND RWY 10 VRB07KT PP002=
SPZO Ene2009-102000Z 35010KT 310V050 9999 FEW040 SCT050 BKN080 16/05 Q1028 NOSIG RMK WIND RWY 10 VRB08KT PP000=
SPZO Ene2009-102100Z 35009KT 300V050 9999 SCT050 SCT090 18/05 Q1028 NOSIG RMK WIND RWY 10 02007KT 300V140 PP000=
SPZO Ene2009-102200Z 29008KT 250V010 9999 BKN050 17/03 Q1028 NOSIG RMK=
SPZO Ene2009-102300Z 27006KT 250V320 9999 BKN050 14/05 Q1029 NOSIG RMK PP000=
SPZO Ene2009-110000Z 00000KT 9999 BKN050 14/06 Q1029 RMK PP000=
SPZO Ene2009-110100Z 00000KT 9999 SCT043 BKN050 14/07 Q1031 RMK PP000=
SPZO Ene2009-110200Z 26003KT 9999 SCT043 BKN050 13/06 Q1032 RMK PP000=
SPZO Ene2009-110300Z 00000KT 9999 SCT043 BKN050 13/07 Q1032 RMK PP000=
SPZO Ene2009-110400Z 05002KT 9999 SCT043 BKN050 13/07 Q1033 RMK PP000=
SPZO Ene2009-110500Z 18002KT 9999 SCT040 BKN046 12/07 Q1032 RMK PP000=
SPZO Ene2009-110600Z 00000KT 9999 -RA SCT040 BKN046 11/06 Q1032 RMK PP002=
SPZO Ene2009-110700Z 06013KT 9999 FEW036 SCT040 BKN046 10/06 Q1032 RMK PP000=
SPZO Ene2009-110800Z 05011KT 8000 RA FEW036 SCT040 BKN046 08/06 Q1032 RMK PP020=
SPZO Ene2009-110900Z 04002KT 7000 RA FEW036 SCT040 BKN046 07/05 Q1033 RMK PP034=
SPZO Ene2009-111000Z 00000KT 9000 FEW036 SCT040 BKN046 07/04 Q1032 RMK PP014=
SPZO Ene2009-111100Z 04002KT 9999 FEW020 SCT040 OVC050 07/04 Q1032 NOSIG RMK PP000=
SPZO Ene2009-111200Z 00000KT 9000 FEW015 SCT040 BKN070 09/05 Q1033 NOSIG RMK WIND RWY 10 00000KT HZ PP000=
SPZO Ene2009-111300Z VRB02KT 9000 FEW015 SCT040 BKN080 10/05 Q1033 BECMG=
SPZO Ene2009-111400Z VRB03KT 9999 FEW020 SCT040 BKN090 11/04 Q1034 NOSIG RMK WIND RWY 10 VRB03KT PP000=
SPZO Ene2009-111500Z 04005KT 300V070 9999 FEW033 SCT040 BKN100 13/05 Q1033 NOSIG RMK WIND RWY 10 VRB05KT PP000=
SPZO Ene2009-111600Z VRB02KT 9999 FEW036 SCT040 BKN100 15/05 Q1032 NOSIG RMK WIND RWY 10 VRB02KT PP000=
SPZO Ene2009-111700Z VRB02KT 9999 SCT040 SCT090 15/04 Q1031 NOSIG RMK=
SPZO Ene2009-111800Z 35011KT 310V020 9999 FEW036 SCT043 BKN080 15/05 Q1030 NOSIG RMK PP000=
SPZO Ene2009-111900Z 36012KT 320V040 9999 FEW036 SCT043 BKN100 14/04 Q1030 NOSIG RMK WIND RWY10 VRB10KT PP000=
SPZO Ene2009-112000Z 35012KT 330V040 9999 FEW040 SCT050 BKN100 14/04 Q1028 NOSIG RMK PP000=
SPZO Ene2009-112100Z 36009KT 330V050 9999 SCT040 SCT046 BKN100 14/04 Q1028 NOSIG RMK PP000=
SPZO Ene2009-112200Z 01005KT 310V060 9999 VCSH SCT043TCU BKN046 14/05 Q1028 NOSIG RMK T.MAX 16.8 PP000=
SPZO Ene2009-112300Z 35008KT 300V010 9999 FEW040TCU BKN046 13/04 Q1029 NOSIG RMK PP000=
SPZO Ene2009-120000Z 36008KT 300V060 9999 OVC050 12/04 Q1029 RMK PP000=
SPZO Ene2009-120100Z 00000KT 9999 OVC050 11/04 Q1030 RMK PP000=
SPZO Ene2009-120200Z 00000KT 9999 BKN050 11/06 Q1031 RMK PP000=
SPZO Ene2009-120300Z 00000KT 9999 BKN050 10/06 Q1032 RMK PP000=
SPZO Ene2009-120400Z 00000KT 9999 BKN050 09/05 Q1032 RMK PP000=
SPZO Ene2009-120500Z 33002KT 9999 BKN050 10/06 Q1032 RMK PP000=
SPZO Ene2009-120600Z VRB02KT 8000 -DZ SCT030 SCT050 10/07 Q1031 RMK PPTRZ=
SPZO Ene2009-120700Z 00000KT 8000 -DZ SCT030 SCT050 09/07 Q1031 RMK PP002=
SPZO Ene2009-120800Z 00000KT 9000 SCT030 SCT050 09/07 Q1030 REDZ RMK PP002=
SPZO Ene2009-120900Z 00000KT 8000 -DZ FEW030 SCT040 BKN050 09/06 Q1030 RMK PPTRZ=
SPZO Ene2009-121000Z 00000KT 8000 -DZ FEW030 SCT040 BKN050 09/06 Q1030 RMK PP002=
SPZO Ene2009-121100Z 00000KT 9000 FEW030 SCT040 BKN050 09/07 Q1031 REDZ NOSIG RMK PP000=
SPZO Ene2009-121200Z VRB01KT 9999 VCSH FEW025 SCT040 BKN046 10/07 Q1032 TEMPO -RA RMK PP000=
SPZO Ene2009-121300Z 00000KT 9999 FEW025 SCT040 BKN050 11/06 Q1033 NOSIG RMK PP000=
SPZO Ene2009-121400Z VRB02KT 9999 FEW030 SCT043 BKN060 12/06 Q1033 NOSIG RMK PP000=
SPZO Ene2009-121500Z 00000KT 9999 VCSH FEW036 SCT043 BKN050 14/05 Q1032 NOSIG RMK PP000=
SPZO Ene2009-121600Z 34006KT 310V010 9999 VCSH FEW036 SCT043 BKN050 13/07 Q1032 TEMPO -RA RMK PP000=
SPZO Ene2009-121700Z VRB03KT 9999 FEW036 SCT046 BKN080 15/06 Q1031 TEMPO=
SPZO Ene2009-121800Z 36010KT 310V060 9999 FEW040 SCT050 BKN070 16/06 Q1030 NOSIG RMK WIND RWY 10 VRB08G18KT PP000=
SPZO Ene2009-121900Z 36013KT 320V060 9999 FEW040 SCT050 BKN070 17/04 Q1029 NOSIG RMK WIND RWY 10 02008KT 290V120 PP000=
SPZO Ene2009-122000Z 01014KT 320V050 9999 SCT040 SCT050 17/04 Q1028 NOSIG RMK WIND RWY 10 VRB07KT PP000=
SPZO Ene2009-122100Z 35008KT 300V070 9999 SCT040 SCT050 17/04 Q1027 NOSIG RMK WIND RWY 10 VRB04KT PP000=
SPZO Ene2009-122200Z 36007KT 300V060 9999 SCT040 SCT050 17/03 Q1027 NOSIG RMK TMAX 17.8 PP000=
SPZO Ene2009-122300Z 01008KT 340V070 9999 BKN050 16/02 Q1027 NOSIG RMK PP000=
SPZO Ene2009-130000Z 03004KT 350V060 9999 SCT043 SCT080 14/03 Q1028 RMK PP000=
SPZO Ene2009-130100Z VRB03KT 9999 FEW050 11/04 Q1029 RMK PP000=
SPZO Ene2009-130200Z VRB02KT 9999 FEW050 11/05 Q1030 RMK PP000=
SPZO Ene2009-130300Z VRB03KT 9999 FEW050 10/05 Q1031 RMK PP000=
SPZO Ene2009-130400Z 00000KT 9999 SCT050 SCT080 11/05 Q1032 RMK PP000=
SPZO Ene2009-130500Z 00000KT 9999 FEW040 SCT050 11/06 Q1031 RMK PP000=
SPZO Ene2009-130600Z 00000KT 9999 SCT040 SCT050 10/06 Q1031 RMK PP000=
SPZO Ene2009-130700Z 00000KT 9999 SCT040 SCT046 10/06 Q1030 RMK PP000=
SPZO Ene2009-130800Z 00000KT 9999 SCT036 SCT046 10/06 Q1029 RMK PP000=
SPZO Ene2009-130900Z 00000KT 9999 SCT040 SCT046 09/06 Q1029 RMK PP000=
SPZO Ene2009-131000Z 27003KT 9999 SCT040 SCT050 07/04 Q1030 RMK PP000=
SPZO Ene2009-131100Z 00000KT 9999 SCT040 BKN050 08/05 Q1030 NOSIG RMK PP000=
SPZO Ene2009-131200Z 00000KT 9999 SCT046 BKN050 09/06 Q1031 NOSIG RMK PP000=
SPZO Ene2009-131300Z 04004KT 010V070 9999 SCT046 BKN050 10/06 Q1032 TEMPO=
SPZO Ene2009-131400Z 05006KT 9999 DZ FEW020 SCT043 BKN050 10/07 Q1033 NOSIG RMK WIND RWY10 12007KT 090V160 PPTRZ=
SPZO Ene2009-131500Z 04002KT 9999 FEW025 SCT043 BKN100 13/07 Q1033 NOSIG RMK PP002=
SPZO Ene2009-131600Z 06009KT 360V070 9999 SCT040 BKN100 14/07 Q1032 NOSIG RMK WIND RWY10 09005KT 040V190 PP000=
SPZO Ene2009-131700Z 29002KT 9999 SCT040 BKN100 17/05 Q1031 NOSIG RMK PP000=
SPZO Ene2009-131800Z 03005KT 260V070 9999 BKN050 SCT070 17/06 Q1030 TEMPO=
SPZO Ene2009-131900Z 36010KT 330V050 9999 BKN050 SCT080 18/03 Q1029 NOSIG RMK WIND RWY 10 VRB07KT PP000=
SPZO Ene2009-132000Z 36006KT 290V070 9999 SCT050 SCT080 19/04 Q1028 NOSIG RMK WIND RWY 10 07008KT 340V150 PP000=
SPZO Ene2009-132100Z 02012KT 340V060 9999 SCT050 SCT090 17/03 Q1027 NOSIG RMK WIND RWY 10 VRB08KT PP000=
SPZO Ene2009-132200Z 36007KT 260V070 9999 SCT050 SCT100 17/03 Q1027 NOSIG RMK WIND RWY 10 VRB04KT TMAX 19.0 PP000=
SPZO Ene2009-132300Z VRB03KT 9999 SCT050 SCT100 16/04 Q1027 NOSIG RMK PP000=
SPZO Ene2009-140000Z 01008KT 310V050 9999 SCT046 OVC100 15/04 Q1028 RMK PP000=
SPZO Ene2009-140100Z 29003KT 9999 SCT046 BKN100 14/04 Q1030 RMK PP000=
SPZO Ene2009-140200Z 04005KT 9999 SCT046 BKN100 12/05 Q1031 RMK PP000=
SPZO Ene2009-140300Z 00000KT 9999 SCT046 BKN100 12/06 Q1032 RMK PP000=
SPZO Ene2009-140400Z 00000KT 9999 SCT046 SCT100 09/06 Q1032 RMK PP000=
SPZO Ene2009-140500Z 00000KT 9999 SCT046 09/05 Q1032 RMK PP000=
SPZO Ene2009-140600Z 00000KT 9999 SCT046 09/05 Q1032 RMK PP000=
SPZO Ene2009-140700Z 00000KT 9999 SCT046 08/07 Q1031 RMK PP000=
SPZO Ene2009-140800Z 00000KT 9999 SCT046 08/05 Q1031 RMK PP000=
SPZO Ene2009-140900Z 26003KT 9999 FEW040 SCT046 08/05 Q1031 RMK PP000=
SPZO Ene2009-141000Z 00000KT 9999 SCT040 BKN046 09/06 Q1031 RMK PP000=
SPZO Ene2009-141100Z 05003KT 350V070 9999 SCT043 BKN080 08/05 Q1031 NOSIG RMK PP000=
SPZO Ene2009-141200Z VRB02KT 9999 SCT040 BKN080 11/06 Q1033 NOSIG RMK PP000=
SPZO Ene2009-141300Z VRB01KT 9999 FEW036 SCT100 13/07 Q1033 NOSIG RMK PP000=
SPZO Ene2009-141400Z VRB02KT 9999 FEW050 SCT230 15/05 Q1033 NOSIG RMK PP000=
SPZO Ene2009-141500Z VRB03KT 9999 SCT046 SCT230 16/05 Q1033 NOSIG RMK PP000=
SPZO Ene2009-141600Z VRB02KT 9999 FEW040 SCT050 17/05 Q1032 NOSIG RMK PP000=
SPZO Ene2009-141700Z 01004KT 300V060 9999 FEW043TCU BKN046 18/04 Q1031 NOSIG RMK PP000=
SPZO Ene2009-141800Z VRB03KT 9999 SCT050 SCT100 19/03 Q1030 NOSIG RMK=
SPZO Ene2009-141900Z 36009KT 300V050 9999 SCT050 SCT100 18/04 Q1029 NOSIG RMK WIND RWY 10 VRB07KT PP000=
SPZO Ene2009-142000Z 35011KT 310V020 9999 SCT050 SCT100 20/04 Q1028 NOSIG RMK WIND RWY 10 VRB08KT PP000=
SPZO Ene2009-142100Z 36011KT 320V060 9999 SCT050 SCT100 18/04 Q1027 NOSIG RMK WIND RWY 10 VRB08KT PP000=
SPZO Ene2009-142200Z 36015KT 330V040 9999 SCT050 SCT100 17/04 Q1027 NOSIG RMK TMAX 19.9 PP000=
SPZO Ene2009-142300Z 01009KT 320V040 9999 SCT050 SCT100 16/03 Q1027 NOSIG RMK PP000=
SPZO Ene2009-150000Z 05004KT 280V070 9999 SCT046 BKN100 14/04 Q1028 RMK PP000=
SPZO Ene2009-150100Z 01005KT 280V070 9999 SCT046 BKN100 15/04 Q1030 RMK PP000=
SPZO Ene2009-150200Z 33002KT 9999 FEW046 SCT100 13/05 Q1031 RMK PP000=
SPZO Ene2009-150300Z 27008KT 9999 SCT046 12/05 Q1032 RMK PP000=
SPZO Ene2009-150400Z 26004KT 250V320 9999 SCT046 11/05 Q1032 RMK PP000=
SPZO Ene2009-150500Z 00000KT 9999 SCT046 10/05 Q1032 RMK PP000=
SPZO Ene2009-150600Z 00000KT 9999 SCT046 09/05 Q1032 RMK PP000=
SPZO Ene2009-150700Z 00000KT 9999 SCT050 08/05 Q1031 RMK PP000=
SPZO Ene2009-150800Z 00000KT 9999 SCT050 08/05 Q1031 RMK PP000=
SPZO Ene2009-150900Z 00000KT 9999 FEW040 SCT120 07/05 Q1031 RMK PP000=
SPZO Ene2009-151000Z 00000KT 9999 FEW040 BKN120 06/04 Q1032 RMK PP000=
SPZO Ene2009-151100Z 00000KT 9999 SCT046 BKN120 07/05 Q1032 NOSIG RMK PP000=
SPZO Ene2009-151200Z 00000KT 9999 BKN040 SCT050 09/06 Q1033 NOSIG RMK=
SPZO Ene2009-151300Z 00000KT 9999 BKN040 SCT100 12/06 Q1033 NOSIG RMK=
SPZO Ene2009-151400Z VRB02KT 9999 SCT040 SCT100 14/06 Q1033 NOSIG RMK=
SPZO Ene2009-151500Z VRB03KT 9999 SCT040 SCT100 17/07 Q1033 NOSIG RMK=
SPZO Ene2009-151600Z 01004KT 260V070 9999 SCT040 SCT100 19/04 Q1032 NOSIG RMK WIND RWY 10 VRB04KT PP000=
SPZO Ene2009-151700Z 35004KT 250V070 9999 SCT040 SCT100 20/06 Q1030 NOSIG RMK WIND RWY 10 VRB05KT PP000=
SPZO Ene2009-151800Z 02006KT 300V060 9999 SCT040 SCT080 20/06 Q1029 NOSIG RMK PP000=
SPZO Ene2009-151900Z 36004KT 270V060 9999 SCT046 SCT230 21/03 Q1027 NOSIG RMK PP000=
SPZO Ene2009-152000Z VRB02KT 9999 SCT043 SCT230 22/03 Q1026 NOSIG RMK PP000=
SPZO Ene2009-152100Z 03008KT 330V060 9999 SCT043TCU SCT080 21/03 Q1025 TEMPO VCSH RMK PP000=
SPZO Ene2009-152200Z 02005KT 290V070 9999 VCSH FEW040TCU BKN100 18/06 Q1025 NOSIG RMK RWY10 VRB04KT TMX 21.9 PP000=
SPZO Ene2009-152300Z 05006KT 360V060 9999 FEW040 BKN050 16/06 Q1026 NOSIG RMK PP000=
SPZO Ene2009-160000Z 04006KT 9999 BKN050 15/06 Q1027 RMK PP000=
SPZO Ene2009-160100Z 00000KT 9999 SCT050 13/06 Q1028 RMK PP000=
SPZO Ene2009-160200Z 00000KT 9999 SCT050 13/07 Q1029 RMK PP000=
SPZO Ene2009-160300Z 00000KT 9999 BKN050 13/07 Q1030 RMK PP000=
SPZO Ene2009-160400Z 00000KT 9999 BKN050 13/07 Q1030 RMK PP000=
SPZO Ene2009-160500Z 00000KT 9999 BKN050 13/06 Q1030 RMK PP000=
SPZO Ene2009-160600Z 00000KT 9999 BKN050 12/07 Q1030 RMK PP000=
SPZO Ene2009-160700Z VRB02KT 9999 BKN050 11/05 Q1029 RMK PP000=
SPZO Ene2009-160800Z 27003KT 9999 BKN050 08/04 Q1029 RMK PP000=
SPZO Ene2009-160900Z 00000KT 9999 BKN050 09/05 Q1029 RMK PP000=
SPZO Ene2009-161000Z 00000KT 9999 SCT050 SCT100 08/05 Q1029 RMK PP000=
SPZO Ene2009-161100Z 00000KT 9999 SCT050 SCT100 09/06 Q1030 NOSIG RMK PP000=
SPZO Ene2009-161200Z VRB01KT 9999 FEW050 BKN230 10/07 Q1031 NOSIG RMK PP000=
SPZO Ene2009-161300Z VRB02KT 9999 FEW050 SCT230 13/06 Q1031 NOSIG RMK PP000=
SPZO Ene2009-161400Z 06005KT 360V060 9999 FEW050 SCT230 15/06 Q1031 NOSIG RMK PP000=
SPZO Ene2009-161500Z VRB02KT 9999 SCT046 SCT230 17/05 Q1031 NOSIG RMK PP000=
SPZO Ene2009-161600Z 05004KT 330V060 9999 SCT046 SCT230 18/05 Q1030 NOSIG RMK PP000=
SPZO Ene2009-161700Z 04006KT 320V060 9999 FEW040TCU SCT046 BKN230 19/05 Q1029 NOSIG RMK PP000=
SPZO Ene2009-161800Z 35005KT 300V040 9999 FEW043TCU SCT046 BKN100 19/06 Q1028 NOSIG RMK WIND RWY10 VRB06KT PP000=
SPZO Ene2009-161900Z 34008KT 260V020 9999 FEW043TCU SCT046 BKN100 19/05 Q1027 TEMPO VCSH RMK PP000=
SPZO Ene2009-162000Z 27007KT 240V310 9999 VCSH FEW043TCU SCT046 BKN100 TEMPO -RA RMK WIND RWY10 VRB08KT PP000=
SPZO Ene2009-162100Z 26005KT 280V070 9999 -RA VCSH SCT040TCU BKN046 14/05 Q1027 NOSIG RMK PPTRZ=
SPZO Ene2009-162200Z 04012KT 010V070 9999 VCSH SCT040 BKN046 11/07 Q1028 TEMPO -RA RMK WIND RWY10 10010KT 040V160 T.MAX.19.9 PP002=
SPZO Ene2009-162300Z 06004KT 9999 RA SCT036 OVC043 10/07 Q1029 NOSIG RMK PP020=
SPZO Ene2009-170000Z 28004KT 250V320 9999 -DZ BKN040 SCT070 10/07 Q1030 RMK PP010=
SPZO Ene2009-170100Z 27010KT 9999 BKN043 SCT080 11/06 Q1030 RMK PPTRZ=
SPZO Ene2009-170200Z 28008KT 260V320 9999 SCT030 BKN043 10/06 Q1031 RMK PP000=
SPZO Ene2009-170300Z 26006KT 9999 FEW030 OVC043 10/06 Q1032 RMK PP000=
SPZO Ene2009-170400Z 26004KT 9999 SCT030 BKN043 10/05 Q1031 RMK PP000=
SPZO Ene2009-170500Z 27003KT 9999 SCT036 BKN046 09/06 Q1032 RMK PP000=
SPZO Ene2009-170600Z 00000KT 9999 FEW050 SCT200 08/06 Q1039 RMK PP000=
SPZO Ene2009-170700Z 00000KT 9999 BKN040 SCT050 08/06 Q1030 RMK PP000=
SPZO Ene2009-170800Z 00000KT 9999 BKN050 07/05 Q1029 RMK PP000=
SPZO Ene2009-170900Z 00000KT 9999 SCT030 SCT050 07/05 Q1029 RMK PP000=
SPZO Ene2009-171000Z 00000KT 9999 SCT025 SCT050 07/05 Q1029 RMK PP000=
SPZO Ene2009-171100Z 00000KT 9999 FEW020 SCT033 BKN046 07/06 Q1030 NOSIG RMK CLNG BLW 1200M PP000=
SPZO Ene2009-171200Z 27002KT 9999 FEW020 SCT033 BKN046 09/06 Q1030 NOSIG RMK CLNG BLW 1200M PP000=
SPZO Ene2009-171300Z 26002KT 9999 FEW020 SCT036 BKN046 09/05 Q1031 BECMG FM1330 SCT036 BKN046 RMK CLNG BLW 1200M PP000=
SPZO Ene2009-171400Z 00000KT 9999 SCT036 BKN050 11/05 Q1031 NOSIG RMK PP000=
SPZO Ene2009-171500Z VRB02KT 9999 SCT043 BKN050 13/07 Q1030 NOSIG RM PP000=
SPZO Ene2009-171600Z 02002KT 9999 SCT046 BKN080 15/05 Q1030 NOSIG RMK PP000=
SPZO Ene2009-171700Z 02003KT 260V050 9999 SCT046 BKN080 16/04 Q1029 NOSIG RMK WIND RWY10 VRB05KT PP000=
SPZO Ene2009-171800Z VRB03KT 9999 SCT046 BKN080 17/05 Q1028 NOSIG RMK PP000=
SPZO Ene2009-171900Z VRB03KT 9999 SCT043 BKN100 19/05 Q1026 NOSIG RMK PP000=
SPZO Ene2009-172000Z 26010KT 9999 FEW040TCU SCT046 BKN100 18/06 Q1025 NOSIG RMK PP000=
SPZO Ene2009-172100Z 35008KT 280V030 9999 FEW040TCU SCT046 BKN100 18/05 Q1024 NOSIG RMK PP000=
SPZO Ene2009-172200Z 34007KT 300V020 9999 VCSH FEW040TCU SCT046 BKN080 16/06 Q1025 NOSIG RMK T.MAX 19.2 PP000=
SPZO Ene2009-172300Z 05008KT 9999 VCSH FEW040TCU SCT046 BKN080 13/07 Q1026 NOSIG RMK PP000=
SPZO Ene2009-180000Z 06005KT 9999 SCT046 BKN100 11/07 Q1027 RMK PP000=
SPZO Ene2009-180100Z 05002KT 9999 SCT046 BKN100 11/07 Q1029 RMK PP000=
SPZO Ene2009-180200Z 00000KT 9999 SCT040 BKN046 12/07 Q1030 RMK PP000=
SPZO Ene2009-180300Z 36005KT 270V060 9999 SCT040 BKN046 11/04 Q1031 RMK PP000=
SPZO Ene2009-180400Z 27004KT 9999 SCT040 BKN046 10/06 Q1032 REDZ RMK PPTRZ=
SPZO Ene2009-180500Z 00000KT 9999 -RA OVC043 09/06 Q1031 RMK PP008=
SPZO Ene2009-180600Z 00000KT 9999 OVC043 09/06 Q1031 RMK PP000=
SPZO Ene2009-180700Z 28002KT 9999 OVC043 09/06 Q1030 RMK PP000=
SPZO Ene2009-180800Z 05005KT 9999 OVC043 09/06 Q1029 RMK PP000=
SPZO Ene2009-180900Z 04003KT 9999 FEW036 BKN043 09/05 Q1029 RMK PP000=
SPZO Ene2009-181000Z 04002KT 9999 FEW036 BKN043 08/06 Q1029 RMK PP000=
SPZO Ene2009-181100Z 06002KT 9999 SCT036 BKN046 09/06 Q1030 NOSIG RMK PP000=
SPZO Ene2009-181200Z VRB01KT 9999 FEW030 SCT040 BKN050 10/06 Q1031 NOSIG RMK PP000=
SPZO Ene2009-181300Z 00000KT 9999 FEW025 SCT040 BKN050 12/07 Q1032 NOSIG RMK PP000=
SPZO Ene2009-181400Z VRB03KT 9999 FEW030 SCT043 BKN080 12/06 Q1032 NOSIG RMK PP000=
SPZO Ene2009-181500Z VRB02KT 9999 FEW030 SCT043 BKN050 13/05 Q1032 NOSIG RMK PP000=
SPZO Ene2009-181600Z VRB03KT 9999 VCSH FEW036 SCT043TCU BKN080 15/07 Q1031 NOSIG RMK PP000=
SPZO Ene2009-181700Z 33005KT 260V020 7000 RA FEW030 SCT040TCU BKN046 10/06 Q1032 BECMG FM1730 8000 RMK PP030=
SPZO Ene2009-181800Z 02004KT 290V060 9999 VCSH FEW033 SCT043 BKN080 10/06 Q1031 NOSIG RMK PP020=
SPZO Ene2009-181900Z VRB03KT 9999 VCSH FEW033 BKN046 13/08 Q1030 NOSIG RMK PP002=
SPZO Ene2009-182000Z 05008KT 360V060 9999 VCSH FEW030 BKN046 14/08 Q1029 NOSIG RMK PP000=
SPZO Ene2009-182100Z 05007KT 9999 SCT043 BKN050 14/07 Q1028 NOSIG RMK RWY10 11005KT PP000=
SPZO Ene2009-182200Z 05006KT 9999 SCT050 15/06 Q1028 NOSIG RMK T.MAX 15.6 PP000=
SPZO Ene2009-182300Z 07007KT 9999 SCT046 13/07 Q1028 NOSIG RMK PP000=
SPZO Ene2009-190000Z 04003KT 9999 SCT046 SCT100 12/07 Q1029 RMK PP000=
SPZO Ene2009-190100Z 00000KT 9999 FEW046 SCT100 11/07 Q1030 RMK PP000=
SPZO Ene2009-190200Z 00000KT 9999 FEW046 SCT100 09/07 Q1031 RMK PP000=
SPZO Ene2009-190300Z 06004KT 9999 FEW046 BKN100 09/06 Q1032 RMK PP000=
SPZO Ene2009-190400Z 04003KT 9999 FEW046 SCT100 09/07 Q1032 RMK PP000=
SPZO Ene2009-190500Z 00000KT 9999 FEW046 SCT100 09/07 Q1031 RMK PP000=
SPZO Ene2009-190600Z 00000KT 9999 SCT040 SCT100 09/07 Q1031 RMK PP000=
SPZO Ene2009-190700Z 07002KT 9999 SCT040 BKN080 09/07 Q1030 RMK PP000=
SPZO Ene2009-190800Z 00000KT 9999 SCT040 SCT100 08/07 Q1030 RMK PP000=
SPZO Ene2009-190900Z 00000KT 9999 SCT040 SCT080 08/06 Q1030 RMK PP000=
SPZO Ene2009-191000Z 00000KT 9999 SCT040 SCT080 06/04 Q1030 RMK PP000=
SPZO Ene2009-191100Z 00000KT 9999 FEW033 BKN046 07/05 Q1031 NOSIG RMK PP000=
SPZO Ene2009-191200Z 06002KT 9999 FEW036 SCT050 BKN230 09/06 Q1032 NOSIG RMK PP000=
SPZO Ene2009-191300Z VRB02KT 9999 FEW043 BKN230 12/07 Q1032 NOSIG RMK PP000=
SPZO Ene2009-191400Z VRB02KT 9999 SCT043 SCT230 15/07 Q1032 NOSIG RMK PP000=
SPZO Ene2009-191500Z 00000KT 9999 FEW040 SCT050 16/06 Q1031 NOSIG RMK PP000=
SPZO Ene2009-191600Z VRB03KT 9999 FEW040 SCT050 17/06 Q1031 NOSIG RMK PP000=
SPZO Ene2009-191700Z 29004KT 260V060 9999 VCSH SCT040TCU BKN046 15/05 Q1030 TEMPO -RA RMK PP000=
SPZO Ene2009-191800Z 06009KT 9999 VCSH FEW043TCU BKN046 13/08 Q1029 RESHRA NOSIG RMK PP020=
SPZO Ene2009-191900Z 04006KT 9999 VCSH FEW040TCU BKN046 14/08 Q1028 RESHRA TEMPO -RA RMK PP004=
SPZO Ene2009-192000Z 06007KT 9999 VCSH FEW043TCU BKN050 15/06 Q1027 TEMPO -RA RMK PP000=
SPZO Ene2009-192100Z 01007KT 310V050 9999 SCT043 BKN050 15/06 Q1027 TEMPO=
SPZO Ene2009-192200Z VRB02KT 9999 FEW036 SCT046 BKN080 15/06 Q1027 NOSIG RMK T.MAX 18.1 PP000=
SPZO Ene2009-192300Z 05005KT 9999 VCSH SCT040TCU BKN046 13/06 Q1028 TEMPO RA RMK PP000=
SPZO Ene2009-200000Z 05003KT 9999 DZ SCT040 BKN046 12/07 Q1029 RMK PP002=
SPZO Ene2009-200100Z 03003KT 9999 -RA FEW036 OVC043 10/07 Q1031 RMK PP006=
SPZO Ene2009-200200Z 06002KT 9999 DZ FEW036 OVC043 09/07 Q1032 RMK PP004=
SPZO Ene2009-200300Z 28002KT 9999 RA FEW036 BKN043 09/07 Q1033 RMK PP014=
SPZO Ene2009-200400Z 35002KT 9000 RA FEW036 BKN043 09/07 Q1033 RMK PP034=
SPZO Ene2009-200500Z 06002KT 9000 RA OVC040 09/07 Q1033 RMK PP014=
SPZO Ene2009-200600Z 06002KT 9000 RA OVC040 08/06 Q1032 RMK PP014=
SPZO Ene2009-200700Z 06002KT 9000 RA FEW036 BKN040 08/06 Q1032 RMK CLNG BELW 1200M PP018=
SPZO Ene2009-200800Z 00000KT 9000 RAFEW036 BKN040 07/05 Q1031 RMK PP026=
SPZO Ene2009-200900Z 07002KT 8000 RA FEW030 BKN036 07/05 Q1031 RMK CLNG BLW 1200M PP012=
SPZO Ene2009-201000Z 06004KT 010V070 8000 DZ FEW020 BKN036 07/06 Q1032 RMK CLNG BLW 1200M PP008=
SPZO Ene2009-201100Z 05006KT 9000 DZ FEW020 BKN036 07/05 Q1033 NOSIG RMK CLNG BLW 1200M WIND RWY10 VRB05KT PP004=
SPZO Ene2009-201200Z 05005KT 9000 -RA SCT020 BKN036 07/05 Q1033 NOSIG RMK CLNG BLW 1200M PP004=
SPZO Ene2009-201300Z 06007KT 9999 FEW020 SCT036 BKN046 08/05 Q1034 BECMG FM1340 SCT036 BKN046 RMK CLNG BLW 1200M PPTRZ=
SPZO Ene2009-201400Z 03004KT 310V060 9999 SCT025 SCT040 BKN046 09/05 Q1034 NOSIG RMK PP000=
SPZO Ene2009-201500Z VRB03KT 9999 FEW025 SCT043 BKN070 10/05 Q1034 NOSIG RMK PP000=
SPZO Ene2009-201600Z 05004KT 360V060 9999 FEW030 SCT045 BKN100 12/05 Q1033 NOSIG RMK PP000=
SPZO Ene2009-201700Z 04004KT 9999 VCSH FEW036 SCT046 BKN100 13/04 Q1032 NOSIG RMK PP000=
SPZO Ene2009-201800Z 02004KT 250V070 9999 VCSH SCT040 BKN100 14/06 Q1031 NOSIG RMK PP000=
SPZO Ene2009-201900Z 05005KT 340V070 9999 VCSH SCT046 BKN100 15/05 Q1030 NOSIG RMK WIND RWY10 01004KT 250V070 PP000=
SPZO Ene2009-202000Z 30014KT 250V340 9999 VCSH FEW040TCU SCT046 BKN100 12/07 Q1029 TEMPO RA RMK WIND RWY10 31008KT 270V020 PP000=
SPZO Ene2009-202100Z 28005KT 8000 RA SCT036 BKN043 11/07 Q1029 BCAMG FM2115 9999 RMK PP018=
SPZO Ene2009-202200Z 00000KT 9999 DZ FEW025 SCT040 BKN046 11/06 Q1030 NOSIG RMK T.MAX.15.7 PP004=
SPZO Ene2009-202300Z 06004KT 9999 VCSH SCT040 BKN046 11/07 Q1030 NOSIG RMK PP000=
SPZO Ene2009-210000Z VRB01KT 9999 VCSH SCT036 BKN046 11/06 Q1031 RMK PP000=
SPZO Ene2009-210100Z 05005KT 9999 SCT050 09/06 Q1031 RMK PP000=
SPZO Ene2009-210200Z 00000KT 9999 FEW033 SCT050 09/06 Q1032 RMK PP000=
SPZO Ene2009-210300Z 04004KT 9999 SCT030 SCT046 09/07 Q1033 RMK PP000=
SPZO Ene2009-210400Z 00000KT 9999 SCT036 BKN046 09/07 Q1033 RMK PP000=
SPZO Ene2009-210500Z 00000KT 9999 SCT036 BKN043 09/07 Q1032 RMK PP000=
SPZO Ene2009-210600Z 00000KT 9999 OVC040 09/07 Q1031 RMK PP000=
SPZO Ene2009-210700Z 00000KT 9999 OVC043 09/07 Q1031 RMK PP000=
SPZO Ene2009-210800Z 00000KT 9999 SCT036 BKN046 09/07 Q1031 RMK PP000=
SPZO Ene2009-210900Z 00000KT 9999 BKN040 SCT080 09/07 Q1030 RMK PP000=
SPZO Ene2009-211000Z VRB01KT 9999 SCT036 BKN046 09/07 Q1031 RMK PP000=
SPZO Ene2009-211100Z 04003KT 9999 FEW020 SCT040 BKN046 09/07 Q1032 NOSIG RMK PP000=
SPZO Ene2009-211200Z 06004KT 9999 DZ VCSH FEW020 SCT040 BKN046 09/07 Q1032 NOSIG RMK PP000=
SPZO Ene2009-211300Z 00000KT 9999 FEW030 BKN050 12/07 Q1033 REDZ NOSIG RMK PP002=
SPZO Ene2009-211400Z 02002KT 9999 SCT040 SCT100 14/08 Q1033 NOSIG RMK PP000=
SPZO Ene2009-211500Z VRB03KT 9999 SCT040 SCT100 16/05 Q1032 NOSIG RMK PP000=
SPZO Ene2009-211600Z 04003KT 270V060 9999 SCT046 SCT100 17/06 Q1031 NOSIG RMK PP000=
SPZO Ene2009-211700Z 35007KT 280V060 9999 VCSH FEW043TCU SCT046 SCT050 18/08 Q1030 NOSIG RMK WIND RWY10 25012KT PP000=
SPZO Ene2009-211800Z 27006KT 9999 VCSH FEW043TCU BKN046 15/07 Q1029 NOSIG RMK PP000=
SPZO Ene2009-211900Z 01011KT 9999 VCSH SCT043TCU BKN046 16/06 Q1028 NOSIG RMK WIND RWY10 VRB09KT PP000=
SPZO Ene2009-212000Z 26010KT 9999 VCSH SCT043TCU BKN046 14/05 Q1028 NOSIG RMK PP000=
SPZO Ene2009-212100Z 26009KT 9999 VCSH FEW036 SCT050 BKN080 14/06 Q1028 NOSIG RMK PP000=
SPZO Ene2009-212200Z 26005KT 9999 FEW040 SCT050 BKN080 14/06 Q1028 NOSIG RMK T.MAX 18.6 PP000=
SPZO Ene2009-212300Z 06007KT 9999 SCT040 BKN100 13/07 Q1029 NOSIG RMK PP000=
SPZO Ene2009-220000Z VRB08KT 9999 SCT040 BKN050 12/05 Q1031 RMK PP000=
SPZO Ene2009-220100Z 32003KT 9999 SCT040 BKN050 11/05 Q1033 RMK PP000=
SPZO Ene2009-220200Z 32002KT 9999 SCT040 BKN050 11/05 Q1033 RMK PP000=
SPZO Ene2009-220300Z 27010KT 9999 FEW040 SCT100 09/05 Q1033 RMK PP000=
SPZO Ene2009-220400Z 26009KT 9999 FEW040 SCT100 10/05 Q1033 RMK PP000=
SPZO Ene2009-220500Z 30007KT 9999 SCT040 BKN050 10/05 Q1033 RMK PP000=
SPZO Ene2009-220600Z 26002KT 9999 SCT040 BKN050 09/06 Q1032 RMK PP000=
SPZO Ene2009-220700Z 00000KT 9999 SCT040 BKN050 09/07 Q1031 RMK PP000=
SPZO Ene2009-220800Z 00000KT 9999 SCT040 BKN050 09/06 Q1031 RMK PP000=
SPZO Ene2009-220900Z 00000KT 9999 SCT040 BKN050 09/06 Q1031 RMK PP000=
SPZO Ene2009-221000Z 00000KT 9999 SCT040 BKN050 09/06 Q1032 RMK PP000=
SPZO Ene2009-221100Z 35002KT 9999 SCT040 BKN050 09/07 Q1032 NOSIG RMK PP000=
SPZO Ene2009-221200Z 06004KT 9999 FEW030 SCT100 10/07 Q1033 NOSIG RMK PP000=
SPZO Ene2009-221300Z 00000KT 9999 FEW030 SCT060 12/06 Q1033 NOSIG RMK PP000=
SPZO Ene2009-221400Z VRB02KT 9999 FEW033 SCT043 BKN060 12/06 Q1033 NOSIG RMK PP000=
SPZO Ene2009-221500Z VRB02KT 9999 FEW036 SCT043 BKN050 14/06 Q1033 NOSIG RMK PP000=
SPZO Ene2009-221600Z VRB02KT 9999 FEW036 SCT043 BKN050 15/05 Q1032 NOSIG RMK PP000=
SPZO Ene2009-221700Z VRB02KT 9999 FEW036 SCT043 BKN080 16/06 Q1031 NOSIG RMK PP000=
SPZO Ene2009-221800Z 04004KT 350V060 9999 SCT043 BKN080 17/05 Q1030 NOSIG RMK PP000=
SPZO Ene2009-221900Z 02004KT 260V060 9999 SCT050 19/07 Q1028 NOSIG RMK PP000=
SPZO Ene2009-222000Z 30005KT 260V360 9999 20/04 Q1027 NOSIG RMK PP000=
SPZO Ene2009-222100Z 33004KT 260V050 9999 SCT050 20/04 Q1026 NOSIG RMK PP000=
SPZO Ene2009-222200Z 05014KT 9999 VCSH FEW040TCU SCT046 17/07 Q1026 NOSIG RMK T.MAX 20.5 PP000=
SPZO Ene2009-222300Z 05008KT 9999 SCT050 15/07 Q1027 NOSIG RMK PP000=
SPZO Ene2009-230000Z 05004KT 9999 FEW050 13/07 Q1028 RMK PP000=
SPZO Ene2009-230100Z 00000KT FEW050 12/06 Q1029 RMK PP000=
SPZO Ene2009-230200Z 00000KT 9999 FEW050 12/06 Q1030 RMK PP000=
SPZO Ene2009-230300Z 00000KT 9999 BKN050 11/06 Q1031 RMK PP000=
SPZO Ene2009-230400Z 00000KT 9999 SCT040 BKN046 12/06 Q1032 RMK PP000=
SPZO Ene2009-230500Z 00000KT 9999 SCT040 BKN046 12/06 Q1031 RMK PP000=
SPZO Ene2009-230600Z 05005KT 9999 SCT040 BKN046 11/06 Q1031 RMK PP000=
SPZO Ene2009-230700Z 05005KT 9999 SCT040 BKN046 09/06 Q1031 RMK PP000=
SPZO Ene2009-230800Z 05005KT 9999 RA FEW020 OVC043 08/07 Q1031 RMK PP024=
SPZO Ene2009-230900Z 00000KT 9999 FEW020 SCT040 BKN046 08/07 Q1031 RMK PP006=
SPZO Ene2009-231000Z 04004KT 9999 FEW020 SCT040 BKN046 09/06 Q1032 RMK PP000=
SPZO Ene2009-231100Z 06002KT 9000 VCSH FEW020 SCT030 BKN043 09/07 Q1032 NOSIG RMK CLNG BLW 1200M PP000=
SPZO Ene2009-231200Z 06001KT 9999 VCSH FEW030 SCT036 BKN046 09/07 Q1033 BECMG FM1240 SCT036 BKN046 RMK CLNG BLW 1200M PP000=
SPZO Ene2009-231300Z VRB01KT 9999 VCSH FEW020 SCT036 BKN046 11/07 Q1034 RMK TEMPO 9000 PP000=
SPZO Ene2009-231400Z VRB02KT 9999 FEW020 SCT040 BKN046 11/06 Q1034 NOSIG RMK PP000=
SPZO Ene2009-231500Z 05005KT 9999 SCT030 SCT040 BKN060 13/07 Q1033 NOSIG RMK PP000=
SPZO Ene2009-231600Z 05008KT 9999 FEW036 SCT050 15/07 Q1032 NOSIG RMK PP000=
SPZO Ene2009-231700Z 05005KT 9999 VCSH FEW040 SCT050 15/07 Q1031 NOSIG RMK PP000=
SPZO Ene2009-231800Z 26012KT 9999 VCSH FEW043TCU BKN046 16/06 Q1030 NOSIG RMK WIND RWY10 27010KT PP000=
SPZO Ene2009-231900Z 27015KT 9999 VCSH FEW040TCU BKN046 16/08 Q1029 TEMPO -RA RMK WIND RWY10 28012KT PP000=
SPZO Ene2009-232000Z 27011KT 9999 -RA SCT040TCU BKN050 13/08 Q1029 BECMG FM2040 NSW RMK RWY10 31008KT 240V350 PP008=
SPZO Ene2009-232100Z 33007KT 300V020 9999 VCSH FEW043TCU BKN050 14/07 Q1029 NOSIG RMK PP002=
SPZO Ene2009-232200Z 33005KT 280V010 9999 FEW040 SCT230 14/07 Q1028 MOSIG RMK T.MAX 16.9 PP000=
SPZO Ene2009-232300Z 32004KT 9999 FEW050 SCT230 14/05 Q1028 NOSIG RMK PP000=
SPZO Ene2009-240000Z 27008KT 9999 FEW046 12/06 Q1028 RMK PP000=
SPZO Ene2009-240100Z 00000KT 9999 FEW046 11/06 Q1029 RMK PP000=
SPZO Ene2009-240200Z 00000KT 9999 FEW050 10/07 Q1030 RMK PP000=
SPZO Ene2009-240300Z 26002KT 9999 FEW046 10/07 Q1031 RMK PP000=
SPZO Ene2009-240400Z 04003KT 010V080 9999 FEW046 09/06 Q1031 RMK PP000=
SPZO Ene2009-240500Z 00000KT 9999 FEW046 09/07 Q1031 RMK PP000=
SPZO Ene2009-240600Z 00000KT 9999 BKN040 10/07 Q1030 RMK PP000=
SPZO Ene2009-240700Z 00000KT 9999 SCT040 BKN046 10/07 Q1030 RMK PP000=
SPZO Ene2009-240800Z 26003KT 9999 DZ SCT040 BKN046 09/07 Q1029 RMK PP010=
SPZO Ene2009-240900Z 03002KT 9999 SCT040 BKN050 10/07 Q1029 RMK PP000=
SPZO Ene2009-241000Z 06002KT 9999 FEW020 SCT040 BKN046 09/07 Q1030 RMK PP000=
SPZO Ene2009-241100Z 06001KT 9999 FEW020 SCT033 BKN043 09/07 Q1030 NOSIG RMK CLNG BLW 1200M PP000=
SPZO Ene2009-241200Z 00000KT 9999 FEW020 SCT033 BKN046 10/08 Q1031 BECMG FM1240 SCT036 BKN046 10/08 Q1031 RMK CLNG BLW 1200M PP000=
SPZO Ene2009-241300Z VRB01KT 9999 FEW020 SCT036 BKN046 11/08 Q1031 NOSIG RMK PP000=
SPZO Ene2009-241400Z 00000KT 9999 FEW030 SCT046 BKN060 12/07 Q1032 NOSIG RMK PP000=
SPZO Ene2009-241500Z VRB02KT 9999 FEW036 SCT046 BKN080 14/08 Q1031 NOSIG RMK PP000=
SPZO Ene2009-241600Z VRB03KT 9999 FEW043TCU SCT050 16/07 Q1030 NOSIG RMK PP000=
SPZO Ene2009-241700Z 27005KT 9999 VCSH SCT043TCU BKN046 14/07 Q1030 TEMPO -RA RMK PP000=
SPZO Ene2009-241800Z 27008KT 250V360 9999 VCSH FEW043TCU BKN046 16/06 Q1029 NOSIG RMK WIND RWY10 VRB05KT PP000=
SPZO Ene2009-241900Z 26010KT 9999 FEW043 SCT046 SCT230 18/07 Q1027 NOSIG RMK WIND RWY10 VRB06KT PP000=
SPZO Ene2009-242000Z 26015KT 9999 FEW043 SCT150 18/05 Q1026 NOSIG RMK=
SPZO Ene2009-242100Z 26014KT 9999 FEW043TCU SCT060 18/07 Q1025 TEMPO=
SPZO Ene2009-242200Z 26008KT 9999 FEW043TCU SCT060 18/05 Q1025 NOSIG RMK WIND RWY10 28010KT 240V320 T.MAX.19.2 PP000=
SPZO Ene2009-242300Z 05008KT 010V070 9999 FEW050 SCT100 16/05 Q1025 NOSIG RMK PP000=
SPZO Ene2009-250000Z 06006KT 9999 FEW040 SCT050 14/06 Q1026 RMK PP000=
SPZO Ene2009-250100Z VRB02KT 9999 FEW050 13/06 Q1027 RMK PP000=
SPZO Ene2009-250200Z VRB02KT 9999 FEW043 SCT050 12/07 Q1029 RMK PP000=
SPZO Ene2009-250300Z 00000KT 9999 FEW040 SCT050 12/07 Q1029 RMK PP000=
SPZO Ene2009-250400Z 00000KT 9999 FEW040 SCT050 11/07 Q1028 RMK PP000=
SPZO Ene2009-250500Z 00000KT 9999 SCT040 SCT050 11/07 Q1028 RMK PP000=
SPZO Ene2009-250600Z 00000KT 9999 SCT040 BKN050 11/07 Q1027 RMK PP000=
SPZO Ene2009-250700Z 00000KT 9999 SCT040 BKN046 11/07 Q1027 RMK PP000=
SPZO Ene2009-250800Z 00000KT 9999 BKN040 SCT080 10/07 Q1027 RMK PP000=
SPZO Ene2009-250900Z 00000KT 9999 SCT036 BKN046 09/06 Q1027 RMK PP000=
SPZO Ene2009-251000Z 00000KT 9999 SCT040 SCT050 10/07 Q1028 RMK PP000=
SPZO Ene2009-251100Z 07003KT 9999 SCT040 BKN046 08/06 Q1029 NOSIG RMK PP000=
SPZO Ene2009-251200Z 07002KT 9999 SCT046 BKN050 10/07 Q1029 NOSIG RMK PP000=
SPZO Ene2009-251300Z 05003KT 330V070 9999 FEW043 BKN050 12/07 Q1029 NOSIG RMK PP000=
SPZO Ene2009-251400Z 00000KT 9999 SCT043 16/07 Q1030 NOSIG RMK PP000=
SPZO Ene2009-251500Z 03002KT 9999 SCT046 16/04 Q1029 NOSIG RMK PP000=
SPZO Ene2009-251600Z 03006KT 330V070 9999 SCT050 18/03 Q1028 NOSIG RMK PP000=
SPZO Ene2009-251700Z 05006KT 250V060 9999 BKN050 20/03 Q1027 NOSIG RMK=
SPZO Ene2009-251800Z 06010KT 9999 FEW040 SCT050 20/06 Q1026 NOSIG RMK PP000=
SPZO Ene2009-251900Z VRB03KT 9999 SCT050 22/03 Q1025 NOSIG RMK PP000=
SPZO Ene2009-252000Z 36012KT 320V050 9999 FEW050 SCT230 21/03 Q1024 NOSIG RMK PP000=
SPZO Ene2009-252100Z 01009KT 320V060 9999 BKN046 19/05 Q1023 TEMPO VCSH RMK RWY10 VRB07KT PP000=
SPZO Ene2009-252200Z 36006KT 330V070 9999 VCSH SCT043TCU BKN050 17/06 Q1024 NOSIG RMK T.MAX 21.8 PP000=
SPZO Ene2009-252300Z 26008KT 250V360 9999 SCT046 BKN100 16/06 Q1024 TEMPO=
SPZO Ene2009-260000Z 06005KT 9999 SCT046 BKN100 15/06 Q1025 RMK PP000=
SPZO Ene2009-260100Z 03010KT 340V070 9999 SCT040 BKN050 15/06 Q1028 RMK PP000=
SPZO Ene2009-260200Z 29002KT 9999 SCT040 BKN046 11/06 Q1030 RERA RMK PP004=
SPZO Ene2009-260300Z 00000KT 9999 SCT040 BKN046 12/06 Q1029 RMK PP000=
SPZO Ene2009-260400Z 00000KT 9999 SCT040 BKN046 11/06 Q1030 RMK PP000=
SPZO Ene2009-260500Z 06003KT 9999 SCT040 BKN046 08/05 Q1030 RMK PP000=
SPZO Ene2009-260600Z 05002KT 9999 SCT040 BKN046 09/05 Q1029 RMK PP000=
SPZO Ene2009-260700Z 00000KT 9999 SCT040 BKN046 10/05 Q1029 RMK PP000=
SPZO Ene2009-260800Z 26005KT 9999 SCT040 BKN046 09/06 Q1029 RMK PP000=
SPZO Ene2009-260900Z 00000KT 9999 SCT040 BKN046 09/05 Q1028 RMK PP000=
SPZO Ene2009-261000Z 04002KT 9999 SCT036 BKN040 09/05 Q1030 RMK PP000=
SPZO Ene2009-261100Z 27002KT 9999 VCSH FEW025 SCT033 BKN043 10/06 Q1030 NOSIG RMK CLNG BLW 1200M PP000=
SPZO Ene2009-261200Z VRB01KT 9999 VCSH FEW025 SCT036 BKN043 10/06 Q1031 BECMG FM1240 SCT036 BKN046 RMK PP000=
SPZO Ene2009-261300Z 06004KT 9999 VCSH FEW030 SCT040 BKN046 10/06 Q1032 NOSIG RMK PP000=
SPZO Ene2009-261400Z 04006KT 9999 FEW036 SCT043 BKN060 11/06 Q1032 NOSIG RMK PP000=
SPZO Ene2009-261500Z 03003KT 9999 FEW036 SCT043 BKN080 14/06 Q1032 NOSIG RMK PP000=
SPZO Ene2009-261600Z VRB03KT 9999 SCT040 SCT050 15/04 Q1030 NOSIG RMK PP000=
SPZO Ene2009-261700Z 30004KT 260V060 9999 VCSH FEW040TCU BKN046 16/03 Q1030 NOSIG RMK PP000=
SPZO Ene2009-261800Z 02007KT 300V060 9999 SCT040 SCT060 17/06 Q1029 NOSIG RMK PP000=
SPZO Ene2009-261900Z 36010KT 310V050 9999 FEW043TCU SCT050 18/03 Q1027 TEMPO VCSH RMK PP000=
SPZO Ene2009-262000Z 04012KT 9999 VCSH FEW043TCU SCT050 15/06 Q1027 NOSIG RMK PP000=
SPZO Ene2009-262100Z 04005KT 330V060 9999 SCT046 18/07 Q1026 NOSIG RMK PP000=
SPZO Ene2009-262200Z 05010KT 9999 SCT050 SCT230 16/06 Q1026 NOSIG RMK T.MAX 19.0 PP000=
SPZO Ene2009-262300Z 06006KT 9999 FEW050 BKN230 15/05 Q1026 NOSIG RMK PP000=
SPZO Ene2009-270000Z 01002KT 9999 SCT050 15/05 Q1027 RMK PP000=
SPZO Ene2009-270100Z 02002KT 9999 FEW046 SCT050 14/05 Q1029 RMK PP000=
SPZO Ene2009-270200Z 04003KT 9999 FEW040 SCT050 13/06 Q1030 RMK PP000=
SPZO Ene2009-270300Z 01002KT 9999 SCT040 BKN050 13/05 Q1030 RMK PP000=
SPZO Ene2009-270400Z 06002KT 9999 SCT040 BKN046 12/06 Q1030 RMK PP000=
SPZO Ene2009-270500Z 07006KT 9999 SCT040 BKN046 12/06 Q1030 RMK PP000=
SPZO Ene2009-270600Z 05005KT 9999 SCT036 BKN046 10/07 Q1030 RMK PP000=
SPZO Ene2009-270700Z VRB02KT 9999 SCT036 BKN046 09/07 Q1030 RMK PP000=
SPZO Ene2009-270800Z 00000KT 9999 RA SCT036 BKN046 09/07 Q1030 RMK PP056=
SPZO Ene2009-270900Z 00000KT 9999 FEW033 SCT036 BKN043 09/07 Q1030 RMK CLNG BLW 1200M PP002=
SPZO Ene2009-271000Z 27008KT 240V320 9999 FEW033 SCT036 BKN043 09/06 Q1031 RMK CLNG BLW 1200M PP000=
SPZO Ene2009-271100Z 27006KT 9999 FEW020 SCT033 BKN043 09/06 Q1031 NOSIG RMK CLNG BLW 1200M PP000=
SPZO Ene2009-271200Z 26002KT 9999 FEW025 SCT040 BKN050 10/06 Q1032 NOSIG RMK PP000=
SPZO Ene2009-271300Z VRB01KT 9999 FEW025 SCT040 BKN050 11/06 Q1033 NOSIG RMK PP000=
SPZO Ene2009-271400Z VRB02KT 9999 FEW030 SCT043 BKN080 13/08 Q1033 NOSIG RMK PP000=
SPZO Ene2009-271500Z 05004KT 9999 FEW030 SCT040 BKN046 14/06 Q1032 NOSIG RMK PP000=
SPZO Ene2009-271600Z VRB03KT 9999 SCT040 BKN050 14/07 Q1032 NOSIG RMK PP000=
SPZO Ene2009-271700Z 33005KT 260V030 9999 FEW046 SCT100 16/05 Q1030 NOSIG RMK PP000=
SPZO Ene2009-271800Z 34008KT 270V020 9999 VCSH FEW043TCU SCT050 18/06 Q1029 NOSIG RMK PP000=
SPZO Ene2009-271900Z 04009KT 9999 VCSH SCT043TCU BKN050 16/07 Q1029 TEMPO -RA RMK PP000=
SPZO Ene2009-272000Z 02007KT 340V060 9999 VCSH SCT050 15/08 Q1028 NOSIG RMK PP000=
SPZO Ene2009-272100Z 27005KT 260V360 9999 FEW050 SCT100 18/07 Q1026 NOSIG RMK PP000=
SPZO Ene2009-272200Z 05005KT 9999 FEW050 SCT230 16/06 Q1026 NOSIG RMK T.MAX 18.2 PP000=
SPZO Ene2009-272300Z 05002KT 9999 FEW050 SCT230 17/06 Q1026 NOSIG RMK PP000=
SPZO Ene2009-280000Z 06004KT 9999 SCT043 14/07 Q1027 RMK PP000=
SPZO Ene2009-280100Z 35002KT 9999 SCT043 SCT080 14/06 Q1028 RMK PP000=
SPZO Ene2009-280200Z 00000KT 9999 SCT043 BKN050 14/06 Q1029 RMK PP000=
SPZO Ene2009-280300Z 00000KT 9999 SCT040 BKN046 13/07 Q1030 REDZ RMK PP002=
SPZO Ene2009-280400Z 29007KT 250V330 9999 -RA SCT040 BKN046 10/07 Q1030 RMK PP076=
SPZO Ene2009-280500Z 26003KT 9999 SCT040 BKN046 10/07 Q1030 RMK PP002=
SPZO Ene2009-280600Z 25003KT 9999 RA OVC040 10/07 Q1030 RMK PP006=
SPZO Ene2009-280700Z 26005KT 9999 RA OVC040 09/07 Q1928 RMK PP020=
SPZO Ene2009-280800Z 33002KT 9999 SCT036 BKN040 10/07 Q1029 REDZ RMK PP002=
SPZO Ene2009-280900Z 26004KT 240V010 9999 SCT033 BKN040 10/07 Q1029 RMK CLNG BLW 1200M PP000=
SPZO Ene2009-281000Z 26004KT 9999 DZ SCT033 BKN040 09/07 Q1030 RMK CLNG BLW 1200M PP008=
SPZO Ene2009-281100Z 00000KT 9999 VCSH FEW020 SCT033 BKN046 09/07 Q1031 BECMG FM1130 SCT036 BKN046 RMK CLNG BLW 1200M PPTRZ=
SPZO Ene2009-281200Z VRB01KT 9999 FEW025 SCT040 BKN046 10/07 Q1031 NOSIG RMK PP000=
SPZO Ene2009-281300Z VRB03KT 9999 FEW030 SCT043 BKN050 11/07 Q1032 NOSIG RMK PP000=
SPZO Ene2009-281400Z VRB02KT 9999 FEW030 SCT040 BKN046 13/06 Q1031 NOSIG RMK PP000=
SPZO Ene2009-281500Z VRB02KT 9999 FEW036 SCT040 BKN060 14/06 Q1031 NOSIG RMK PP000=
SPZO Ene2009-281600Z 35005KT 250V060 9999 VCSH FEW043TCU SCT050 15/06 Q1030 NOSIG RMK PP000=
SPZO Ene2009-281700Z 36005KT 300V060 9999 VCSH FEW043TCU SCT050 15/07 Q1030 NOSIG RMK PP000=
SPZO Ene2009-281800Z 01005KT 310V060 9999 SCT046 SCT060 16/05 Q1029 NOSIG RMK WIND RWY10 VRB04KT PP000=
SPZO Ene2009-281900Z 36003KT 290V060 9999 SCT046 17/07 Q1028 NOSIG RMK=
SPZO Ene2009-282000Z 32006KT 300V060 9999 FEW046TCU SCT050 18/04 Q1027 NOSIG RMK WIND RWY10 VRB09KT PP000=
SPZO Ene2009-282100Z 05002KT 9999 SCT046 19/04 Q1026 NOSIG RMK P000=
SPZO Ene2009-282200Z 35009KT 310V030 9999 SCT046 BKN100 18/03 Q1026 NOSIG RMK WIND RWY10 VRB07KT T.MAX.18.9 PP000=
SPZO Ene2009-282300Z 01009KT 330V050 9999 SCT046 BKN100 18/05 Q1026 NOSIG RMK WIND RWY10 VRBH07KT PP000=
SPZO Ene2009-290000Z 02008KT 320V060 9999 BKN040 SCT050 15/05 Q1027 RMK PP000=
SPZO Ene2009-290100Z 34008KT 260V020 9999 SCT040 SCT060 14/05 Q1029 RMK PP000=
SPZO Ene2009-290200Z VRB02KT 9999 SCT040 SCT080 13/06 Q1029 RMK PP000=
SPZO Ene2009-290300Z 05005KT 9999 SCT040 SCT080 12/06 Q1030 RMK PP000=
SPZO Ene2009-290400Z 00000KT 9999 SCT036 SCT070 12/05 Q1030 RMK PP000=
SPZO Ene2009-290500Z 00000KT 9999 FEW036 BKN046 10/07 Q1030 RMK PP000=
SPZO Ene2009-290600Z 00000KT 9999 -RA SCT040 BKN046 09/07 Q1030 RMK PP014=
SPZO Ene2009-290700Z 04004KT 9999 -RA OVC040 09/07 Q10309 RMK PP016=
SPZO Ene2009-290800Z 00000KT 9999 -RA SCT030 BKN040 09/07 Q1030 RMK PP004=
SPZO Ene2009-290900Z 00000KT 9000 -RA SCT030 BKN040 09/07 Q1030 RMK PP012=
SPZO Ene2009-291000Z 26002KT 9999 FEW025 SCT040 BKN046 09/07 Q1031 RMK PP000=
SPZO Ene2009-291100Z 05003KT 9999 FEW030 SCT040 BKN046 09/06 Q1032 NOSIG RMK PP000=
SPZO Ene2009-291200Z 05002KT 9999 SCT040 BKN080 10/07 Q1033 NOSIG RMK PP000=
SPZO Ene2009-291300Z 00000KT 9999 FEW036 SCT046 OVC100 11/07 Q1033 NOSIG RMK PP000=
SPZO Ene2009-291400Z 27002KT 9999 SCT040 OVC100 13/06 Q1033 NOSIG RMK PP000=
SPZO Ene2009-291500Z 00000KT 9999 SCT046 BKN100 14/04 Q1032 NOSIG RMK PP000=
SPZO Ene2009-291600Z 02004KT 340V070 9999 SCT046 BKN100 14/05 Q1031 NOSIG RMK PP000=
SPZO Ene2009-291700Z 34007KT 310V060 9999 SCT046 BKN080 15/06 Q1031 NOSIG RMK WIND RWY10 VRB06KT PP000=
SPZO Ene2009-291800Z 33008KT 270V050 9999 SCT046 BKN100 17/05 Q1030 NOSIG RMK PP000=
SPZO Ene2009-291900Z 03005KT 330V060 9999 SCT046 BKN230 18/05 Q1028 NOSIG RMK PP000=
SPZO Ene2009-292000Z 33004KT 260V060 9999 FEW043TCU SCT050 BKN230 20/05 Q1027 NOSIG RMK PP000=
SPZO Ene2009-292100Z VRB03KT 9999 SCT043 SCT230 19/03 Q1026 NOSIG RMK PP000=
SPZO Ene2009-292200Z 36005KT 320V060 9999 FEW043TCU SCT050 BKN230 19/04 Q1027 NOSIG RMK T.MAX 19.5 PP000=
SPZO Ene2009-292300Z 35011KT 310V030 9999 SCT043 SCT230 16/05 Q1027 NOSIG RMK PP000=
SPZO Ene2009-300000Z 05006KT 310V070 9999 SCT043 BKN100 15/06 Q1029 RMK PP000=
SPZO Ene2009-300100Z 05007KT 9999 SCT046 BKN100 13/06 Q1030 RMK PP000=
SPZO Ene2009-300200Z 00000KT 9999 SCT040 BKN046 12/06 Q1032 RMK PP000=
SPZO Ene2009-300300Z 27006KT 240V330 9999 SCT040 BKN046 12/05 Q1032 RMK PP000=
SPZO Ene2009-300400Z 00000KT 9999 SCT040 BKN046 11/05 Q1032 RMK PP000=
SPZO Ene2009-300500Z 26004KT 9999 SCT040 BKN046 09/05 Q1031 RMK PP000=
SPZO Ene2009-300600Z 06003KT 9999 SCT040 BKN046 08/05 Q1031 RMK PP000=
SPZO Ene2009-300700Z 00000KT 9999 SCT040 BKN046 09/06 Q1031 RMK PP000=
SPZO Ene2009-300800Z 00000KT 9999 SCT040 BKN046 09/06 Q1031 RMK PP000=
SPZO Ene2009-300900Z VRB02KT 9999 SCT040 BKN046 09/06 Q1031 RMK PP000=
SPZO Ene2009-301000Z 00000KT 9999 SCT040 BKN046 08/06 Q1031 RMK PP000=
SPZO Ene2009-301100Z VRB02KT 9999 FEW036 SCT046 BKN100 08/06 Q1032 RMK PP000=
SPZO Ene2009-301200Z 00000KT 9999 FEW036 SCT046 BKN100 09/06 Q1033 NOSIG RMK PP000=
SPZO Ene2009-301300Z 05003KT 9999 FEW030 SCT043 BKN100 10/07 Q1033 NOSIG RMK PP000=
SPZO Ene2009-301400Z VRB02KT 9999 FEW030 SCT046 BKN100 13/06 Q1033 NOSIG RMK PP000=
SPZO Ene2009-301500Z VRB02KT 9999 FEW036 SCT046 BKN060 14/05 Q1033 NOSIG RMK PP000=
SPZO Ene2009-301600Z VRB03KT 9999 FEW036 SCT043 BKN050 14/06 Q1032 NOSIG RMK PP000=
SPZO Ene2009-301700Z VRB02KT 9999 VCSH FEW036 SCT043 BKN046 15/05 Q1031 NOSIG RMK PP000=
SPZO Ene2009-301800Z VRB03KT 9999 SCT043 SCT060 16/05 Q1030 NOSIG RMK PP000=
SPZO Ene2009-301900Z VRB03KT 9999 VCSH FEW043TCU SCT050 17/04 Q1029 NOSIG RMK PP000=
SPZO Ene2009-302000Z 35006KT 280V070 9999 VCSH SCT043 BKN050 16/08 Q1028 NOSIG RMK RWY10 VRB04KT PP000=
SPZO Ene2009-302100Z 04007KT 340V060 9999 VCSH SCT040TCU BKN046 14/08 Q1028 TEMPO -RA RMK PP000=
SPZO Ene2009-302200Z VRB03KT 9999 VCSH SCT040TCU BKN046 14/07 Q1028 NOSIG RMK T.MAX 18.0 PP000=
SPZO Ene2009-302300Z 00000KT 9999 VCSH SCT040 BKN046 14/07 Q1029 NOSIG RMK PP000=
SPZO Ene2009-310000Z 00000KT 9999 SCT040 BKN046 13/07 Q1029 RMK PP000=
SPZO Ene2009-310100Z 00000KT 9999 SCT040 BKN046 13/08 Q1030 RMK PP000=
SPZO Ene2009-310200Z 07003KT 9999 SCT040 BKN046 13/07 Q1031 RMK PP000=
SPZO Ene2009-310300Z 00000KT 9999 SCT040 SCT100 13/07 Q1031 RMK PP000=
SPZO Ene2009-310400Z 00000KT 9999 SCT040 SCT100 12/07 Q1031 RMK PP000=
SPZO Ene2009-310500Z 05004KT 9999 SCT040 BKN080 11/07 Q1031 RMK PP000=
SPZO Ene2009-310600Z 32002KT 9999 SCT040 BKN050 11/07 Q1031 RMK PP000=
SPZO Ene2009-310700Z 05003KT 9999 SCT040 BKN046 11/08 Q1030 RMK PP000=
SPZO Ene2009-310800Z 04002KT 9999 SCT040 BKN046 10/08 Q1030 RMK PP000=
SPZO Ene2009-310900Z 04002KT 9999 SCT040 BKN046 10/08 Q1030 RMK PP000=
SPZO Ene2009-311000Z 00000KT 9999 SCT036 BKN043 10/07 Q1030RMK PP000=
SPZO Ene2009-311100Z 07004KT 9999 SCT033 BKN046 10/08 Q1031 NOSIG RMK PP000=
SPZO Ene2009-311200Z 06002KT 9999 SCT033 BKN046 11/07 Q1033 NOSIG RMK PP000=
SPZO Ene2009-311300Z VRB02KT 9999 FEW036 SCT043 BKN050 12/08 Q1033 NOSIG RMK PP000=
SPZO Ene2009-311400Z 00000KT 9999 SCT036 SCT050 14/06 Q1033 NOSIG RMK PP000=
SPZO Ene2009-311500Z VRB03KT 9999 SCT036 SCT050 15/06 Q1033 NOSIG RMK PP000=
SPZO Ene2009-311600Z VRB02KT 9999 VCSH FEW040TCU SCT050 15/07 Q1032 NOSIG RMK PP000=
SPZO Ene2009-311700Z 32004KT 260V020 9999 VCSH FEW040TCU BKN046 15/06 Q1031 RESHRA TEMPO -RA RMK PP002=
SPZO Ene2009-311800Z 34004KT 260V060 9999 VCSH FEW040 SCT050 17/08 Q1030 RESHRA NOSIG RMK PP002=
SPZO Ene2009-311900Z 03009KT 310V060 9999 SCT050 19/04 Q1028 NOSIG RMK PP000=
SPZO Ene2009-312000Z 35011KT 280V030 9999 SCT050 19/04 Q1027 NOSIG RMK PP000=
SPZO Ene2009-312100Z 35012KT 310V020 9999 SCT050 19/03 Q1027 NOSIG RMK PP000=
SPZO Ene2009-312200Z 36010KT 320V040 9999 FEW046 17/04 Q1027 NOSIG RMK RWY10 VRB09KT TMX 19.9 PP000=
SPZO Ene2009-312300Z 33005KT 280V040 9999 FEW050 16/04 Q1027 WIND RWY10 VRB10KT RMK PP000=
SPZO Feb2009-010000Z 01006KT 330V070 9999 FEW050 14/04 Q1028 RMK PP000=
SPZO Feb2009-010100Z 28003KT 9999 FEW050 11/05 Q1029 RMK PP000=
SPZO Feb2009-010200Z VRB02KT 9999 FEW050 10/05 Q1030 RMK PP000=
SPZO Feb2009-010300Z 00000KT 9999 FEW050 09/05 Q1031 RMK PP000=
SPZO Feb2009-010400Z 00000KT 9999 SKC 08/05 Q1031 RMK PP000=
SPZO Feb2009-010500Z 29002KT 9999 SKC 07/03 Q1030 RMK PP000=
SPZO Feb2009-010600Z 00000KT 9999 SKC 07/04 Q1030 RMK PP000=
SPZO Feb2009-010700Z 00000KT 9999 SKC 07/04 Q1030 RMK PP000=
SPZO Feb2009-010800Z 00000KT 9999 FEW100 06/04 Q1030 RMK PP000=
SPZO Feb2009-010900Z 00000KT 9999 FEW100 06/03 Q1030 RMK PP000=
SPZO Feb2009-011000Z 06002KT 9999 FEW040 SCT100 06/03 Q1030 RMK PP000=
SPZO Feb2009-011100Z 05001KT 9999 FEW036 SCT150 BKN230 06/04 Q1031 NOSIG RMK PP000=
SPZO Feb2009-011200Z 00000KT 9999 FEW036 OVC230 07/05 Q1032 NOSIG RMK PP000=
SPZO Feb2009-011300Z 00000KT 9999 FEW036 SCT050 BKN100 11/05 Q1032 NOSIG RMK PP000=
SPZO Feb2009-011400Z VRB03KT 9999 SCT046 SCT230 14/07 Q1032 NOSIG RMK PP000=
SPZO Feb2009-011500Z 05004KT 350V070 9999 SCT046 SCT230 15/04 Q1032 NOSIG RMK PP000=
SPZO Feb2009-011600Z 00000KT 9999 SCT050 SCT230 17/05 Q1031 NOSIG RMK PP000=
SPZO Feb2009-011700Z 02004KT 240V030 9999 FEW043 SCT050 17/04 Q1030 NOSIG RMK PP000=
SPZO Feb2009-011800Z 33002KT 9999 SCT046 SCT230 19/03 Q1029 NOSIG RMK=
SPZO Feb2009-011900Z VRB05KT 9999 SCT046 SCT060 20/02 Q1027 NOSIG RMK=
SPZO Feb2009-012000Z VRB06KT 9999 SCT046 SCT060 20/02 Q1026 NOSIG RMK PP000=
SPZO Feb2009-012100Z VRB04KT 9999 SCT050 21/01 Q1025 NOSIG RMK PP000=
SPZO Feb2009-012200Z VRB04KT 9999 SCT050 21/01 Q1024 NOSIG RMK T.MAX.20.9 PP000=
SPZO Feb2009-012300Z 01010KT 330V030 9999 SCT046 SCT230 19/05 Q1024 NOSIG RMK PP000=
SPZO Feb2009-020000Z VRB02KT 9999 FEW040 SCT050 16/05 Q1026 RMK PP000=
SPZO Feb2009-020100Z 03005KT 350V060 9999 FEW040 SCT050 14/05 Q1028 RMK PP000=
SPZO Feb2009-020200Z 00000KT 9999 SCT060 14/06 Q1029 RMK PP000=
SPZO Feb2009-020300Z VRB02KT 9999 SCT060 13/06 Q1029 RMK PP000=
SPZO Feb2009-020400Z 06009KT 9999 -RA BKN043 SCT046 11/07 Q1030 RMK PP004=
SPZO Feb2009-020500Z 00000KT 9999 -RA BKN040 SCT050 10/08 Q1030 RMK PP038=
SPZO Feb2009-020600Z 00000KT 9999 -RA SCT030 BKN043 10/06 Q1030 RMK PP014=
SPZO Feb2009-020700Z 26004KT 9999 -RA SCT036 BKN046 09/06 Q1030 RMK PP010=
SPZO Feb2009-020800Z 00000KT 9999 -RA SCT030 BKN0460 08/06 Q1029 RMK PP010=
SPZO Feb2009-020900Z 00000KT 9999 SCT030 BKN046 08/05 Q1029 RMK PP004=
SPZO Feb2009-021000Z 28004KT 9999 SCT030 BKN043 09/05 Q1029 RMK PP000=
SPZO Feb2009-021100Z 00000KT 9999 FEW025 SCT033 BKN046 09/06 Q1030 NOSIG RMK CLNG BLW 1200M PP000=
SPZO Feb2009-021200Z 26002KT 9999 SCT033 BKN050 09/05 Q1030 NOSIG RMK BCBR CTE NE PP000=
SPZO Feb2009-021300Z 05001KT 9999 -RA SCT033 BKN046 09/06 Q1031 NOSIG RMK BCBR CTE NE PPTRZ=
SPZO Feb2009-021400Z 01001KT 9999 SCT036 BKN060 11/06 Q1031 NOSIG RMK PP000=
SPZO Feb2009-021500Z VRB02KT 9999 SCT036 BKN050 12/07 Q1031 NOSIG RMK PP000=
SPZO Feb2009-021600Z 28004KT 240V330 9999 SCT040 BKN050 14/07 Q1030 NOSIG RMK PP000=
SPZO Feb2009-021700Z 32001KT 9999 VCSH SCT040 BKN050 15/06 Q1030 NOSIG RMK WIND RWY10 VRB06KT PP000=
SPZO Feb2009-021800Z 31008KT 280V350 9999 -RA SCT040 BKN050 15/06 Q1029 TEMPO 7000 RMK RWY10 VRB06KT PPTRZ=
SPZO Feb2009-021900Z 29002KT 9999 VCSH SCT040 BKN050 17/04 Q1027 NOSIG RMK PP000=
SPZO Feb2009-022000Z 04001KT 9999 VCSH SCT040 BKN050 15/06 Q1026 TEMPO -RA RMK PP000=
SPZO Feb2009-022100Z 28005KT 9999 -RA SCT040 BKN050 12/07 Q1026 NOSIG RMK PP002=
SPZO Feb2009-022200Z 00000KT 9999 VCSH SCT040 SCT050 14/07 Q1026 RERA NOSIG RMK RWY10 VRB03KT TMX 17.9 PP002=
SPZO Feb2009-022300Z 26006KT 9999 BKN040 12/07 Q1026 NOSIG RMK PP000=
SPZO Feb2009-030000Z 00000KT 9999 SCT040 BKN100 11/08 Q1027 RMK PP000=
SPZO Feb2009-030100Z 00000KT 9999 SCT040 BKN050 11/08 Q1028 RMK PP000=
SPZO Feb2009-030200Z 00000KT 9999 SCT040 SCT050 11/08 Q1029 RMK PP000=
SPZO Feb2009-030300Z 00000KT 9999 SCT040 SCT050 10/07 Q1030 RMK PP000=
SPZO Feb2009-030400Z 00000KT 9999 SCT040 BKN050 09/07 Q1030 RMK PP000=
SPZO Feb2009-030500Z 00000KT 9999 SCT040 BKN050 10/07 Q1030 RMK PP000=
SPZO Feb2009-030600Z 00000KT 9999 SCT040 BKN050 09/07 Q1029 RMK PP000=
SPZO Feb2009-030700Z 00000KT 9999 SCT040 BKN050 10/07 Q1028 RMK PP000=
SPZO Feb2009-030800Z 00000KT 9999 SCT040 BKN046 10/08 Q1028 RMK PP000=
SPZO Feb2009-030900Z 27004KT 9999 RA SCT025 BKN036 10/07 Q1029 RMK CLNG BLW 1200M PP004=
SPZO Feb2009-031000Z 00000KT 9999 -RA SCT025 BKN036 09/07 Q1029 RMK CLNG BLW 1200M PP020=
SPZO Feb2009-031100Z 00000KT 9000 RA FEW025 SCT036 BKN043 09/07 Q1030 TEMPO 7000 RMK CLNG BLW 1200M PP012=
SPZO Feb2009-031200Z 00000KT 9999 DZ SCT036 BKN050 09/07 Q1031 BECMG FM1300 NSW RMK PP004=
SPZO Feb2009-031300Z 31001KT 9999 SCT033 BKN050 11/07 Q1032 NOSIG RMK PPTRZ=
SPZO Feb2009-031400Z 00000KT 9999 FEW033 BKN046 13/07 Q1032 NOSIG RMK RWY10 VRB04KT PP000=
SPZO Feb2009-031500Z 00000KT 9999 SCT036 BKN050 14/07 Q1031 NOSIG RMK PP000=
SPZO Feb2009-031600Z 00000KT 9999 SCT040 SCT050 16/08 Q1030 NOSIG RMK PP000=
SPZO Feb2009-031700Z 26002KT 9999 VCSH FEW040TCU SCT043 SCT050 18/07 Q1029 NOSIG RMK WIND RWY10 VRB07KT PP000=
SPZO Feb2009-031800Z 29006KT 250V360 9999 VCSH FEW040TCU SCT050 BKN060 19/06 Q1028 NOSIG RMK WIND RWY 10 28008KT 220V330 PP000=
SPZO Feb2009-031900Z 26010KT 9999 VCSH FEW040TCU SCT050 BKN060 19/06 Q1027 REDZ NOSIG RMK WIND RWY 10 29008KT PP002=
SPZO Feb2009-032000Z 26011KT 9999 FEW043TCU SCT050 18/07 Q1026 NOSIG RMK PP000=
SPZO Feb2009-032100Z 27016KT 250V310 9999 VCSH FEW043TCU SCT050 17/07 Q1026 NOSIG RMK WIND RWY 10 30009KT 250V360 PP000=
SPZO Feb2009-032200Z 23006KT 250V320 9999 VCSH FEW040TCU SCT050 15/07 Q1027 NOSIG RMK TMAX 19.9 PP000=
SPZO Feb2009-032300Z 29004KT 250V350 9999 VCSH FEW040TCU SCT050 14/07 Q1028 RMK PP000=
SPZO Feb2009-040000Z 26006KT 9999 SCT046 13/07 Q1028 RMK PP000=
SPZO Feb2009-040100Z 26003KT 9999 FEW046 BKN100 12/08 Q1029 RMK PP000=
SPZO Feb2009-040200Z 00000KT 9999 FEW046 BKN100 10/07 Q1030 RMK PP000=
SPZO Feb2009-040300Z 28003KT 9999 SCT046 BKN080 11/07 Q1031 RMK PP000=
SPZO Feb2009-040400Z 26002KT 9999 SCT040 BKN080 11/08 Q1031 RMK PP000=
SPZO Feb2009-040500Z 00000KT 9999 SCT040 BKN080 11/08 Q1031 RMK PP000=
SPZO Feb2009-040600Z 06003KT 9999 -RA SCT036 BKN046 11/08 Q1031 RMK PPTRZ=
SPZO Feb2009-040700Z 26007KT 9999 SCT036 BKN046 11/05 Q1030 RMK PP006=
SPZO Feb2009-040800Z 26002KT 9999 DZ SCT036 BKN043 10/07 Q1031 RMK PP002=
SPZO Feb2009-040900Z 35002KT 9999 SCT036 BKN043 10/06 Q1031 RMK PP000=
SPZO Feb2009-041000Z 26003KT 9999 SCT036 BKN043 10/06 Q1031 RMK PP000=
SPZO Feb2009-041100Z 27004KT 9999 FEW020 SCT100 09/06 Q1032 NOSIG RMK PP000=
SPZO Feb2009-041200Z 00000KT 9999 SCT050 SCT100 10/06 Q1033 NOSIG RMK=
SPZO Feb2009-041300Z 00000KT 9999 FEW050 SCT100 13/07 Q1034 NOSIG RMK=
SPZO Feb2009-041400Z VRB03KT 9999 FEW050 BKN230 14/06 Q1034 NOSIG RMK PP000=
SPZO Feb2009-041500Z VRB03KT 9999 SCT040 SCT230 15/06 Q1033 NOSIG RMK=
SPZO Feb2009-041600Z VRB03KT 9999 SCT040 SCT230 16/06 Q1033 NOSIG RMK=
SPZO Feb2009-041700Z 03004KT 260V070 9999 SCT040 SCT230 18/05 Q1031 NOSIG RMK WIND RWY 10 VRB04KT PP000=
SPZO Feb2009-041800Z 35002KT 9999 SCT046 19/05 Q1030 NOSIG RMK PP000=
SPZO Feb2009-041900Z 34003KT 270V060 9999 SCT046 20/03 Q1029 NOSIG RMK=
SPZO Feb2009-042000Z 34003KT 9999 BKN050 21/05 Q1027 NOSIG RMK WIND RWY10 VRB04KT PP000=
SPZO Feb2009-042100Z 01010KT 9999 VCSH FEW046TCU SCT050 19/05 Q1027 TEMPO -SHRA RMK WIND RWY10 VRB07KT PP000=
SPZO Feb2009-042200Z 01009KT 230V060 9999 FEW046TCU BKN100 18/05 Q1027 RESHRA NOSIG RMK WIND RWY10 VRB07KT T.MAX.21.8 PP002=
SPZO Feb2009-042300Z 30010KT 270V060 9999 FEW046 BKN100 16/03 Q1028 NOSIG RMK WIND RWY10 VRB06KT PP000=
SPZO Feb2009-050000Z VRB03KT 9999 SCT050 SCT100 14/05 Q1029 RMK PP000=
SPZO Feb2009-050100Z 27002KT 9999 BKN050 13/06 Q1031 RMK PP000=
SPZO Feb2009-050200Z VRB02KT 9999 BKN050 13/06 Q1032 RMK PP000=
SPZO Feb2009-050300Z 00000KT 9999 BKN050 13/05 Q1032 RMK PP000=
SPZO Feb2009-050400Z VRB03KT 9999 BKN050 12/06 Q1032 RMK PP000=
SPZO Feb2009-050500Z VRB02KT 9999 BKN050 11/06 Q1032 RMK PP000=
SPZO Feb2009-050600Z 00000KT 9999 BKN050 10/06 Q1032 RMK PP000=
SPZO Feb2009-050700Z 00000KT 9999 BKN050 10/06 Q1031 RMK PP000=
SPZO Feb2009-050800Z VRB02KT 9999 BKN050 09/06 Q1031 RMK PP000=
SPZO Feb2009-050900Z VRB02KT 9999 BKN050 09/06 Q1031 RMK PP000=
SPZO Feb2009-051000Z 06003KT 9999 SCT050 07/05 Q1031 RMK PP000=
SPZO Feb2009-051100Z 00000KT 9999 SCT050 08/05 Q1032 RMK PP000=
SPZO Feb2009-051200Z 30003KT 250V340 9999 FEW040 BKN080 10/06 Q1033 NOSIG RMK PP000=
SPZO Feb2009-051300Z 00000KT 9999 FEW040 BKN080 13/06 Q1034 NOSIG RMK PP000=
SPZO Feb2009-051400Z 04005KT 340V050 9999 SCT040 BKN100 15/06 Q1034 NOSIG RMK WIND RWY10 VRB05KT PP000=
SPZO Feb2009-051500Z 05002KT 9999 SCT046 SCT100 16/05 Q1034 NOSIG RMK PP000=
SPZO Feb2009-051600Z VRB03KT 9999 SCT043 SCT230 18/04 Q1032 NOSIG RMK PP000=
SPZO Feb2009-051700Z 02004KT 270V070 9999 SCT050 SCT230 18/03 Q1032 NOSIG RMK PP000=
SPZO Feb2009-051800Z 29006KT 250V010 9999 SCT050 SCT230 20/05 Q1030 NOSIG RMK WIND RWY 10 12004KT 050V190 PP000=
SPZO Feb2009-051900Z 01005KT 310V070 9999 SCT050 SCT150 20/05 Q1029 NOSIG RMK WIND RWY 10 00000KT PP000=
SPZO Feb2009-052000Z 03008KT 340V070 9999 SCT050 SCT100 20/05 Q1027 NOSIG RMK WIND RWY 10 VRB06KT PP000=
SPZO Feb2009-052100Z 01004KT 270V070 8000 +RA FEW033TCU SCT050 BKN080 14/08 Q1027 NOSIG RMK WIND RWY 10 01012KT 070V150 PP032=
SPZO Feb2009-052200Z 00000KT 9000 VCSH FEW033TCU SCT050 BKN090 15/08 Q1027 RERA NOSIG RMK WIND RWY 10 00000KT TMAX 20.9 PP002=
SPZO Feb2009-052300Z 06004KT 9999 SCT050 SCT100 14/09 Q1028 NOSIG RMK PP000=
SPZO Feb2009-060000Z 00000KT 9999 SCT050 BKN100 14/09 Q1029 RMK PP000=
SPZO Feb2009-060100Z 00000KT 9999 SCT046 BKN100 14/07 Q1030 RMK PP000=
SPZO Feb2009-060200Z 00000KT 9999 SCT043 BKN080 14/07 Q1031 RMK PP000=
SPZO Feb2009-060300Z 05006KT 9999 DZ SCT040 BKN050 12/07 Q1032 RMK PPTRZ=
SPZO Feb2009-060400Z 29004KT 250V020 9999 SCT040 BKN050 12/05 Q1032 RMK PP000=
SPZO Feb2009-060500Z 32001KT 9999 SCT040 BKN050 11/05 Q1032 RMK PP000=
SPZO Feb2009-060600Z 26002KT 9999 OVC050 10/06 Q1032 RMK PP000=
SPZO Feb2009-060700Z 00000KT 9999 BKN050 11/06 Q1031 RMK PP000=
SPZO Feb2009-060800Z 00000KT 9999 BKN050 09/06 Q1031 RMK PP000=
SPZO Feb2009-060900Z 00000KT 9999 BKN050 09/06 Q1031 RMK PP000=
SPZO Feb2009-061000Z 06004KT 9999 BKN050 08/05 Q1031 RMK PP000=
SPZO Feb2009-061100Z 27002KT 9999 SCT050 09/06 Q1032 NOSIG RMK PP000=
SPZO Feb2009-061200Z 26003KT 9999 FEW036 SCT050 09/06 Q1032 NOSIG RMK PP000=
SPZO Feb2009-061300Z 00000KT 9999 FEW036 BKN046 12/06 Q1033 NOSIG RMK PP000=
SPZO Feb2009-061400Z 28004KT 250V330 9999 FEW036 SCT050 14/05 Q1033 NOSIG RMK PP000=
SPZO Feb2009-061500Z 28006KT 260V040 9999 SCT040 16/06 Q1032 NOSIG RMK=
SPZO Feb2009-061600Z 33004KT 260V070 9999 SCT050 17/06 Q1031 NOSIG RMK RWY10 VRB04KT PP000=
SPZO Feb2009-061700Z VRB02KT 9999 BKN050 19/06 Q1030 NOSIG RMK WIND RWY10 VRB06KT PP000=
SPZO Feb2009-061800Z VRB03KT 9999 BKN050 21/06 Q1028 NOSIG RMK WIND RWY 10 VRB05KT PP000=
SPZO Feb2009-061900Z 01008KT 300V070 9999 BKN050 21/05 Q1026 NOSIG RMK=
SPZO Feb2009-062000Z 33007KT 280V070 9999 BKN050 22/04 Q1025 NOSIG RMK=
SPZO Feb2009-062100Z 35008KT 310V050 9999 BKN050 20/04 Q1024 NOSIG RMK=
SPZO Feb2009-062200Z 36008KT 330V060 9999 SCT050 20/03 Q1025 NOSIG RMK TMAX 21.9 PP000=
SPZO Feb2009-062300Z 36007KT 270V060 9999 SCT050 18/05 Q1026 NOSIG RMK PP000=
SPZO Feb2009-070000Z 34006KT 250V040 9999 BKN050 16/06 Q1026 RMK PP000=
SPZO Feb2009-070100Z 06003KT 9999 BKN050 14/06 Q1028 RMK PP000=
SPZO Feb2009-070200Z 00000KT 9999 FEW050 13/06 Q1029 RMK PP000=
SPZO Feb2009-070300Z 35002KT 9999 FEW050 12/06 Q1030 RMK PP000=
SPZO Feb2009-070400Z 27003KT 9999 SCT050 11/06 Q1031 RMK PP000=
SPZO Feb2009-070500Z 28003KT 9999 FEW050 09/06 Q1031 RMK PP000=
SPZO Feb2009-070600Z 28003KT 9999 SCT050 10/06 Q1031 RMK PP000=
SPZO Feb2009-070700Z 00000KT 9999 SCT050 10/02 Q1030 RMK PP000=
SPZO Feb2009-070800Z 00000KT 9999 SCT050 09/06 Q1030 RMK PP000=
SPZO Feb2009-070900Z 00000KT 9999 FEW050 09/06 Q1030 RMK PP000=
SPZO Feb2009-071000Z 04002KT 9999 FEW046 08/05 Q1030 RMK PP000=
SPZO Feb2009-071100Z 00000KT 9999 FEW036 SCT046 08/05 Q1031 NOSIG RMK PP000=
SPZO Feb2009-071200Z VRB02KT 9999 FEW040 BKN050 10/06 Q1032 NOSIG RMK=
SPZO Feb2009-071300Z 06004KT 9000 FEW040 BKN050 11/07 Q1033 NOSIG RMK=
SPZO Feb2009-071400Z VRB02KT 9000 FEW040 BKN050 14/08 Q1033 NOSIG RMK=
SPZO Feb2009-071500Z 05005KT 9999 FEW040 SCT050 BKN060 15/06 Q1033 NOSIG RMK WIND RWY 10 11005KT PP000=
SPZO Feb2009-071600Z 04006KT 330V070 9999 VCSH FEW040 SCT050 BKN060 16/05 Q1032 NOSIG RMK WIND RWY 10 13006KT 030V180 PP000=
SPZO Feb2009-071700Z 28005KT 250V350 9999 VCSH FEW040 SCT050 BKN060 17/06 Q1031 REDZ NOSIG RMK WIND RWY 10 VRB02KT PP002=
SPZO Feb2009-071800Z 03004KT 250V070 9999 VCSH FEW040 SCT050 BKN060 18/07 Q1029 NOSIG RMK WIND RWY 10 04010KT 320V110 PP000=
SPZO Feb2009-071900Z 35007KT 290V070 9999 VCSH FEW040 BKN060 20/05 Q1028 NOSIG RMK WIND RWY 10 VRB07KT PP000=
SPZO Feb2009-072000Z 36014KT 320V040 9999 SCT050 20/05 Q1027 NOSIG RMK PP000=
SPZO Feb2009-072100Z 34011KT 300V020 9999 SCT050 21/04 Q1026 NOSIG RMK=
SPZO Feb2009-072200Z 34008KT 290V020 9999 SCT050 20/03 Q1025 NOSIG RMK=
SPZO Feb2009-072300Z 02008KT 340V060 9999 SCT050 18/04 Q1026 NOSIG RMK PP000=
SPZO Feb2009-080000Z VRB05KT 9999 SCT050 16/04 Q1027 RMK PP000=
SPZO Feb2009-080100Z 26002KT 9999 SCT046 BKN100 14/05 Q1028 RMK PP000=
SPZO Feb2009-080200Z 00000KT 9999 SCT046 BKN080 14/05 Q1030 RMK PP000=
SPZO Feb2009-080300Z 00000KT 9999 SCT046 BKN080 13/06 Q1031 RMK PP000=
SPZO Feb2009-080400Z 00000KT 9999 SCT046 BKN080 13/06 Q1031 RMK PP000=
SPZO Feb2009-080500Z 26004KT 9999 SCT046 BKN080 11/07 Q1031 RMK PP000=
SPZO Feb2009-080600Z 26005KT 9999 SCT046 BKN080 13/07 Q1030 RMK PP000=
SPZO Feb2009-080700Z 06003KT 9999 SCT046 BKN080 11/07 Q1030 RMK PP000=
SPZO Feb2009-080800Z 04007KT 9999 SCT040 BKN080 11/06 Q1030 RMK PP000=
SPZO Feb2009-080900Z 05011KT 9999 SCT040 BKN060 11/07 Q1030 RMK PP000=
SPZO Feb2009-081000Z 04009KT 9999 SCT040 BKN046 10/05 Q1030 RMK PP000=
SPZO Feb2009-081100Z 05005KT 010V070 9999 FEW025 SCT033 BKN043 10/05 Q1031 TEMPO -DZ RMK WIND RWY10 09005KT 030V150 PP000=
SPZO Feb2009-081200Z 03003KT 310V070 9999 VCSH FEW025 SCT033 BKN043 10/05 Q1032 NOSIG MRMK PP000=
SPZO Feb2009-081300Z 06004KT 9999 FEW025 SCT036 BKN080 10/06 Q1033 BECMG SCT033 SCT043 BKN100 RMK NUBOSIDAD BAJA OROPESA PP000=
SPZO Feb2009-081400Z VRB02KT 9999 FEW040 SCT100 13/06 Q1033 NOSIG RMK PP000=
SPZO Feb2009-081500Z VRB02KT 9999 FEW040 SCT100 15/06 Q1032 NOSIG RMK PP000=
SPZO Feb2009-081600Z 02003KT 330V070 9999 SCT043 SCT100 17/06 Q1031 NOSIG RMK PP000=
SPZO Feb2009-081700Z 29004KT 240V030 9999 SCT043 SCT100 18/05 Q1030 NOSIG RMK PP000=
SPZO Feb2009-081800Z VRB02KT 9999 SCT046 19/06 Q1029 NOSIG RMK PP000=
SPZO Feb2009-081900Z VRB04KT 9999 FEW040 SCT050 21/05 Q1027 NOSIG RMK PP000=
SPZO Feb2009-082000Z 27006KT 250V340 9999 FEW043TCU SCT050 21/04 Q1025 NOSIG RMK PP000=
SPZO Feb2009-082100Z 29004KT 240V340 9999 VCSH FEW043TCU BKN050 19/05 Q1025 NOSIG RMK WIND RWY10 VRB06KT PP000=
SPZO Feb2009-082200Z 35010KT 310V030 9999 VCSH FEW043TCU BKN050 16/05 Q1025 NOSIG RMK WIND RWY10 02007KT 310V030 T.MAX.22.3 PP000=
SPZO Feb2009-082300Z 07003KT 9999 FEW043TCU BKN050 15/08 Q1026 NOSIG RMK PP000=
SPZO Feb2009-090000Z 05002KT 9999 BKN050 15/08 Q1027 RMK PP000=
SPZO Feb2009-090100Z 05005KT 9999 OVC050 14/08 Q1028 RMK PP000=
SPZO Feb2009-090200Z 06007KT 5000 RA FEW030TCU OVC040 09/07 Q1030 RMK PP308=
SPZO Feb2009-090300Z 00000KT 9000 FEW030 SCT040 OVC050 10/07 Q1030 RERA RMK PP012=
SPZO Feb2009-090400Z 05003KT 9999 FEW030 SCT040 BKN050 10/08 Q1030 RMK PP000=
SPZO Feb2009-090500Z 00000KT 9999 FEW040 BKN050 11/08 Q1030 RMK PP000=
SPZO Feb2009-090600Z 28003KT 8000 -RA FEW040 BKN050 10/08 Q1030 RMK PP004=
SPZO Feb2009-090700Z 00000KT 9000 FEW040 BKN050 11/08 Q1029 RERA RMK PPTRZ=
SPZO Feb2009-090800Z 05002KT 8000 -DZ FEW040 BKN050 10/08 Q1028 RMK PPTRZ=
SPZO Feb2009-090900Z 00000KT 9000 FEW040 OVC050 10/07 Q1028 REDZ RMK PP002=
SPZO Feb2009-091000Z 05003KT 9999 OVC050 10/08 Q1028 RMK PP000=
SPZO Feb2009-091100Z 00000KT 9999 FEW020 SCT036 OVC046 10/08 Q1029 NOSIG RMK PP000=
SPZO Feb2009-091200Z 00000KT 9999 FEW020 SCT040 BKN080 11/08 Q1030 NOSIG RMK PP000=
SPZO Feb2009-091300Z 00000KT 9999 FEW020 SCT043 BKN100 13/08 Q1030 NOSIG RMK PP000=
SPZO Feb2009-091400Z VRB02 KT 9999 FEW025 SCT043 BKN100 14/07 Q1030 NOSIG RMK PP000=
SPZO Feb2009-091500Z VRB02KT 9999 FEW036 SCT043 BKN100 15/06 Q1030 NOSIG RMK PP000=
SPZO Feb2009-091600Z 00000KT 9999 SCT040 BKN100 17/07 Q1029 NOSIG RMK PP000=
SPZO Feb2009-091700Z 30009KT 260V350 9999 -SHRA FEW033 SCT043 BKN080 16/08 Q1029 BECMG NSW RMK PP000=
SPZO Feb2009-091800Z 34011KT 300V040 9999 VCSH FEW036 SCT043 BKN060 16/06 Q1028 NOSIG RMK WIND RWY10 VRB06KT PP000=
SPZO Feb2009-091900Z 34008KT 300V030 9999 SCT043 BKN060 15/07 Q1028 TEMPO=
SPZO Feb2009-092000Z 29005KT 260V360 9999 VCSH FEW043TCU BKN050 16/05 Q1027 TEMPO -RA RMK WIND RWY10 VRB05KT PP000=
SPZO Feb2009-092100Z 29007KT 250V340 9999 VCSH FEW043TCU BKN050 14/07 Q1026 NOSIG RMK WIND RWY10 VRB05KT PPTRZ=
SPZO Feb2009-092200Z 26002KT 9999 VCSH FEW043TCU BKN050 15/08 Q1026 TEMPO -RA RMK T.MAX.17.2 PP000=
SPZO Feb2009-092300Z 00000KT 9999 SCT043 BKN050 15/07 Q1026 NOSIG RMK PP000=
SPZO Feb2009-100000Z 00000KT 9999 BKN050 SCT100 13/08 Q1027 RMK PP000=
SPZO Feb2009-100100Z 27008KT 9999 BKN050 SCT060 13/08 Q1028 RMK PP000=
SPZO Feb2009-100200Z 28005KT 250V350 9999 OVC050 13/08 Q1029 RMK PP000=
SPZO Feb2009-100300Z 06005KT 8000 -DZ OVC050 12/09 Q1030 RMK PPTRZ=
SPZO Feb2009-100400Z 03005KT 9000 OVC050 11/07 Q1030 REDZ RMK PP002=
SPZO Feb2009-100500Z 06002KT 9999 OVC050 11/08 Q1030 RMK PP000=
SPZO Feb2009-100600Z VRB03KT 8000 -RA SCT040 OVC050 10/08 Q1030 RMK PP020=
SPZO Feb2009-100700Z 02003KT 8000 -RA SCT040 O0VC050 09/07 Q1030 RMK PP016=
SPZO Feb2009-100800Z 00000KT 8000 -RA SCT040 OVC050 09/07 Q1030 RMK PP012=
SPZO Feb2009-100900Z 00000KT 8000 -RA FEW030 SCT040 BKN050 09/07 Q1030 RMK PP014=
SPZO Feb2009-101000Z 00000KT 8000 -RA FEW030 SCT040 BKN050 08/06 Q1031 RMK PP006=
SPZO Feb2009-101100Z 06004KT 7000 -RA FEW020 SCT030 BKN046 08/06 Q1031 NOSIG RMK CLNG BLW 1200M PP004=
SPZO Feb2009-101200Z 06005KT 5000 -RA FEW020 SCT030 BKN043 08/06 Q1032 NOSIG RMK CLNG BLW 1200M PP002=
SPZO Feb2009-101300Z 05006KT 8000 FEW025 SCT033 BKN046 08/06 Q1032 RERA BECMG FM1340 SCT036 BKN046 RMK CLNG BLW 1200M PPTRZ=
SPZO Feb2009-101400Z 04004KT 350V070 8000 FEW025 SCT036 BKN043 09/05 Q1033 NOSIG RMK PP000=
SPZO Feb2009-101500Z VRB03KT 9999 SCT036 BKN043 11/05 Q1032 NOSIG RMK=
SPZO Feb2009-101600Z 05004KT 360V070 9999 SCT040 BKN046 12/06 Q1032 NOSIG RMK WIND RWY 10 11003KT 040V190 PP000=
SPZO Feb2009-101700Z 05007KT 9999 VCSH SCT040 BKN046 12/07 Q1031 TEMPO -RA RMK WIND RWY 10 10006KT 050V160 PP000=
SPZO Feb2009-101800Z 04005KT 9999 VCSH SCT036 BKN043 12/07 Q1031 TEMPO 9000 -RA RMK WIND RWY 10 11003KT 060V160 PP000=
SPZO Feb2009-101900Z 00000KT 8000 -RA VCSH SCT036 BKN043 12/07 Q1030 NOSIG RMK WIND RWY 10 00000KT PP002=
SPZO Feb2009-102000Z 00000KT 9000 VCSH FEW030 SCT040 BKN043 13/07 Q1029 RERA NOSIG RMK WIND RWY 10 00000KT PPTRZ=
SPZO Feb2009-102100Z 06003KT 9999 FEW033 SCT040 BKN050 13/07 Q1028 NOSIG RMK PP000=
SPZO Feb2009-102200Z 05005KT 9999 SCT040 BKN050 13/07 Q1028 NOSIG RMK=
SPZO Feb2009-102300Z 05005KT 9999 FEW040 BKN050 12/07 Q1028 RMK PP000=
SPZO Feb2009-110000Z 06002KT 9999 SCT040 BKN100 11/07 Q1029 RMK PP000=
SPZO Feb2009-110100Z 00000KT 9999 SCT040 BKN080 12/08 Q1029 RMK PP000=
SPZO Feb2009-110200Z 07002KT 9999 SCT040 BKN080 11/08 Q1030 RMK PP000=
SPZO Feb2009-110300Z 00000KT 9999 SCT040 SCT080 10/08 Q1031 RMK PP000=
SPZO Feb2009-110400Z 00000KT 9999 SCT040 SCT080 11/08 Q1031 RMK PP000=
SPZO Feb2009-110500Z 00000KT 9999 SCT040 BKN080 11/08 Q1030 RMK PP000=
SPZO Feb2009-110600Z 00000KT 9999 SCT040 BKN080 10/08 Q1030 RMK PP000=
SPZO Feb2009-110700Z 00000KT 9999 SCT040 BKN080 10/08 Q1029 RMK PP000=
SPZO Feb2009-110800Z 04003KT 9999 SCT040 BKN080 10/07 Q1029 RMK PP000=
SPZO Feb2009-110900Z 00000KT 9999 SCT040 BKN080 10/08 Q1029 RMK PP000=
SPZO Feb2009-111000Z 00000KT 9999 FEW033 SCT040 BKN080 10/07 Q1030 RMK PP000=
SPZO Feb2009-111100Z 00000KT 9999 SCT036 BKN043 10/07 Q1030 NOSIG RMK PP000=
SPZO Feb2009-111200Z 00000KT 9999 FEW025 SCT040 BKN043 10/08 Q1031 NOSIG RMK WIND RWY 10 00000KT PP000=
SPZO Feb2009-111300Z VRB03KT 9999 FEW025 SCT040 BKN060 13/09 Q1032 NOSIG RMK WIND RWY 10 VRB3KT HZ PP000=
SPZO Feb2009-111400Z VRB03KT 9999 FEW030 SCT040 BKN060 14/08 Q1032 NOSIG RMK WIND RWY 10 VRB06KT HZ PP000=
SPZO Feb2009-111500Z 05005KT 340V070 9999 FEW033 SCT040 BKN060 15/07 Q1032 TEMPO VCSH RMK WIND RWY 10 11007KT 050V160 PP000=
SPZO Feb2009-111600Z VRB02KT 9999 VCSH FEW033 SCT040 BKN060 17/07 Q1032 NOSIG RMK WIND RWY 10 VRB06KT PP000=
SPZO Feb2009-111700Z 27010KT 250V320 9999 VCSH FEW036 SCT040 BKN060 19/07 Q1031 NOSIG RMK WIND RWY 10 30008KT 230V040 PP000=
SPZO Feb2009-111800Z 26008KT 250V320 9999 SCT040 BKN060 19/08 Q1030 NOSIG RMK WIND RWY 10 26007KT 220V320 PP000=
SPZO Feb2009-111900Z 29006KT 250V040 9999 VCSH SCT040 BKN060 18/07 Q1028 TEMPO -SHRA RMK WIND RWY 10 31005KT 250V040 PP000=
SPZO Feb2009-112000Z 27008KT 250V310 9999 -SHRA FEW043TCU SCT050 17/06 Q1028 BECMG NSW RMK PPTRZ=
SPZO Feb2009-112100Z 28002KT 220V340 9999 VCSH FEW043TCU SCT050 18/06 Q1027 RESHRA NOSIG RMK WIND RWY 10 00000KT PPTRZ=
SPZO Feb2009-112200Z 27010KT 250V320 9999 VCSH FEW043TCU SCT050 16/07 Q1027 NOSIG RMK WIND RWY 10 30006KT 260V020 TMAX 20.3 PP000=
SPZO Feb2009-112300Z 26004KT 9999 FEW043 SCT050 15/08 Q1027 NOSIG RMK PP000=
SPZO Feb2009-120000Z 26003KT 9999 SCT046 14/08 Q1028 RMK PP000=
SPZO Feb2009-120100Z 00000KT 9999 FEW046 13/09 Q1028 RMK PP000=
SPZO Feb2009-120200Z 29002KT 9999 FEW046 BKN050 12/08 Q1029 RMK PP000=
SPZO Feb2009-120300Z 03004KT 9999 FEW043 BKN050 11/09 Q1031 RMK PP000=
SPZO Feb2009-120400Z 00000KT 9999 SCT040 BKN050 12/09 Q1031 RMK PP000=
SPZO Feb2009-120500Z 00000KT 9999 SCT040 BKN050 12/09 Q1031 RMK PP000=
SPZO Feb2009-120600Z 00000KT 9999 SCT040 BKN050 12/09 Q1030 RMK PP000=
SPZO Feb2009-120700Z 26006KT 9999 SCT040 BKN046 12/07 Q1030 RMK PP000=
SPZO Feb2009-120800Z 00000KT 9999 VCSH SCT036 BKN043 12/08 Q1030 RMK PP000=
SPZO Feb2009-120900Z 26005KT 9999 SCT036 BKN043 11/08 Q1030 REDZ RMK PP002=
SPZO Feb2009-121000Z 00000KT 9999 SCT036 SCT043 11/07 Q1030 RMK PP000=
SPZO Feb2009-121100Z 00000KT 9999 FEW033 SCT036 BKN100 10/07 Q1031 NOSIG RMK PP000=
SPZO Feb2009-121200Z 00000KT 9999 BKN040 SCT100 11/07 Q1032 NOSIG RMK=
SPZO Feb2009-121300Z 00000KT 9999 BKN040 SCT100 13/07 Q1032 NOSIG RMK=
SPZO Feb2009-121400Z VRB02KT 9999 SCT036 BKN230 15/06 Q1033 NOSIG RMK PP000=
SPZO Feb2009-121500Z VRB03KT 9999 SCT036 BKN230 16/07 Q1032 NOSIG RMK=
SPZO Feb2009-121600Z VRB03KT 9999 SCT036 BKN230 17/07 Q1031 NOSIG RMK=
SPZO Feb2009-121700Z VRB03KT 9999 SCT036 SCT230 19/06 Q1030 NOSIG RMK=
SPZO Feb2009-121800Z VRB03KT 9999 SCT046 BKN100 19/05 Q1029 NOSIG RMK PP000=
SPZO Feb2009-121900Z 35009KT 310V040 9999 SCT046 BKN100 18/06 Q1028 NOSIG RMK WIND RWY10 VRB06KT PP000=
SPZO Feb2009-122000Z VRB02KT 9999 SCT050 SCT230 20/06 Q1026 NOSIG RMK PP000=
SPZO Feb2009-122100Z 31004KT 9999 SCT046 BKN100 20/05 Q1025 NOSIG RMK=
SPZO Feb2009-122200Z 04012KT 360V070 9999 VCSH SCT040CB BKN050 16/08 Q1026 TEMPO -TSRA RMK VRB04KT T.MAX.20.4 PP000=
SPZO Feb2009-122300Z 27003KT 9999 SCT040 BKN050 15/08 Q1027 RESHRA NOSIG RMK PP001=
SPZO Feb2009-130000Z 27003KT 9999 OVC050 14/08 Q1027 RERA RMK PP010=
SPZO Feb2009-130100Z 00000KT 9999 OVC050 13/08 Q1028 RMK PP000=
SPZO Feb2009-130200Z 00000KT 9999 OVC050 13/09 Q1029 RMK PP000=
SPZO Feb2009-130300Z 00000KT 9999 OVC050 13/09 Q1030 RMK PP000=
SPZO Feb2009-130400Z 06002KT 9999 OVC050 12/09 Q1030 RMK PP000=
SPZO Feb2009-130500Z 29009KT 250V360 9999 OVC050 12/05 Q1030 RMK PP000=
SPZO Feb2009-130600Z 29009KT 250V330 8000 -RA SCT030 BKN050 10/07 Q1030 RMK PP010=
SPZO Feb2009-130700Z 26002KT 5000 +RA SCT030TCU BKN050 09/07 Q1030 RMK PP038=
SPZO Feb2009-130800Z VRB02KT 5000 +RA SCT030TCU BKN050 09/07 Q1030 RMK PP032=
SPZO Feb2009-130900Z 00000KT 5000 +RA SCT030TCU BKN050 09/06 Q1030 RMK PP044=
SPZO Feb2009-131000Z 00000KT 6000 -RA FEW025 SCT033 BKN050 09/06 Q1030 RMK PP004=
SPZO Feb2009-131100Z 07002KT 6000 -RA FEW020 SCT033 BKN050 08/06 Q1030 NOSIG RMK CLNG BLW 1200M PP002=
SPZO Feb2009-131200Z 06003KT 9999 FEW020 SCT036 BKN080 09/07 Q1030 BECMG FM1220 SCT025 SCT040 BKN100 RMK CLNG BLW 1200M PP002=
SPZO Feb2009-131300Z 04003KT 010V070 9999 SCT030 BKN130 10/06 Q1031 NOSIG RMK PP000=
SPZO Feb2009-131400Z 00000KT 9999 SCT033 BKN230 13/05 Q1031 NOSIG RMK PP000=
SPZO Feb2009-131500Z VRB02KT 9999 SCT036 BKN230 15/07 Q1030 NOSIG RMK PP000=
SPZO Feb2009-131600Z 05002KT 9999 SCT040 BKN230 16/06 Q1029 NOSIG RMK PP000=
SPZO Feb2009-131700Z 29006KT 250V010 9999 SCT040 BKN100 16/05 Q1028 NOSIG RMK WIND RWY10 VRB07KT PP000=
SPZO Feb2009-131800Z VRB02KT 9999 SCT046 BKN100 18/07 Q1027 NOSIG RMK PP000=
SPZO Feb2009-131900Z VRB02KT 9999 SCT046 BKN100 18/07 Q1026 NOSIG RMK PP000=
SPZO Feb2009-132000Z 00000KT 9999 SCT046 BKN100 20/06 Q1023 NOSIG RMK PP000=
SPZO Feb2009-132100Z 06004KT 010V080 9999 SCT046TCU BKN080 18/06 Q1023 TEMPO RA RMK PP000=
SPZO Feb2009-132200Z 03007KT 320V070 9999 VCSH SCT046TCU BKN080 16/07 Q1023 TEMPO RA RMK WIND RWY10 VRB08KT T.MAX.20.2 PP000=
SPZO Feb2009-132300Z 01005KT 310V050 9999 VCSH SCT040TCU BKN080 13/07 Q1025 RESHRA NOSIG RMK PP024=
SPZO Feb2009-140000Z 00000KT 9999 OVC050 12/06 Q1026 RMK PP000=
SPZO Feb2009-140100Z 00000KT 9999 OVC050 12/06 Q1027 RMK PP000=
SPZO Feb2009-140200Z VRB02KT 8000 -DZ OVC050 11/06 Q1028 RMK PPTRZ=
SPZO Feb2009-140300Z 27003KT 9000 OVC050 11/07 Q1028 REDZ RMK PP002=
SPZO Feb2009-140400Z 27006KT 9999 BKN050 10/06 Q1027 RMK PP000=
SPZO Feb2009-140500Z VRB03KT 9999 BKN050 10/06 Q1028 RMK PP000=
SPZO Feb2009-140600Z 00000KT 9999 BKN050 09/06 Q1027 RMK PP000=
SPZO Feb2009-140700Z 00000KT 9999 BKN050 09/06 Q1027 RMK PP000=
SPZO Feb2009-140800Z 00000KT 9999 BKN050 09/06 Q1026 RMK PP000=
SPZO Feb2009-140900Z 00000KT 9999 BKN050 09/06 Q1026 RMK PP000=
SPZO Feb2009-141000Z 00000KT 9999 BKN050 09/06 Q1026 RMK PP000=
SPZO Feb2009-141100Z 00000KT 9999 BKN050 09/06 Q1026 NOSIG RMK PP000=
SPZO Feb2009-141200Z 00000KT 9999 FEW046 10/07 Q1027 NOSIG RMK PP000=
SPZO Feb2009-141300Z 00000KT 9999 FEW050 13/07 Q1028 NOSIG RMK PP000=
SPZO Feb2009-141400Z 01002KT 9999 FEW050 15/07 Q1028 NOSIG RMK PP000=
SPZO Feb2009-141500Z VRB02KT 9999 SCT050 16/07 Q1027 NOSIG RMK PP000=
SPZO Feb2009-141600Z VRB02KT 9999 SCT050 19/07 Q1026 NOSIG RMK WIND RWY10 VRB05KT PP000=
SPZO Feb2009-141700Z VRB02KT 9999 SCT050 19/04 Q1025 NOSIG RMK PP000=
SPZO Feb2009-141800Z VRB03KT 9999 BKN050 21/05 Q1024 NOSIG RMK WIND RWY 10 VRB05KT PP000=
SPZO Feb2009-141900Z 34007KT 300V030 9000 -RA VCSH FEW040TCU BKN050 18/07 Q1023 RMK WIND RWY 10 02007KT 310V090 PPTRZ=
SPZO Feb2009-142000Z 33007KT 270V030 9000 -DZ VCSH FEW040TCU BKN050 17/07 Q1022 NOSIG RMK WIND RWY 10 16006KT 120V210 PPTRZ=
SPZO Feb2009-142100Z 30004KT 250V020 9999 SCT050 SCT100 19/08 Q1022 REDZ NOSIG RMK WIND RWY 10 17004KT 110V240 PPTRZ=
SPZO Feb2009-142200Z VRB02KT 9999 SCT050 SCT100 19/07 Q1021 NOSIG RMK=
SPZO Feb2009-142300Z VRB03KT 9999 SCT050 SCT100 17/07 Q1022 TEMPO VCSH RMK PP000=
SPZO Feb2009-150000Z 26007KT 250V050 9999 SCT050 BKN100 16/07 Q1023 RMK PP000=
SPZO Feb2009-150100Z 26009KT 9999 SCT046 BKN100 14/07 Q1024 RMK PP000=
SPZO Feb2009-150200Z 05002KT 9999 SCT046 BKN100 14/08 Q1025 RMK TEMBLOR FUERTE 0100Z DURACION 20 SEG.PP000=
SPZO Feb2009-150300Z 30002KT 9999 SCT040 BKN050 13/09 Q1026 RESHRA RMK PP004=
SPZO Feb2009-150400Z 28010KT 250V340 9999 DZ SCT036 BKN043 10/05 Q1028 RMK PP002=
SPZO Feb2009-150500Z 00000KT 9999 SCT036 BKN043 10/07 Q1027 RMK PPTRZ=
SPZO Feb2009-150600Z 26006KT 9999 SCT036 BKN043 11/07 Q1026 RMK PP000=
SPZO Feb2009-150700Z 26007KT 9999 SCT036 BKN043 10/05 Q1025 RMK PP000=
SPZO Feb2009-150800Z 28002KT 9999 SCT036 BKN043 10/05 Q1025 RMK PP000=
SPZO Feb2009-150900Z 26003KT 9999 SCT036 BKN043 10/05 Q1025 RMK PP000=
SPZO Feb2009-151000Z 00000KT 9999 SCT036 BKN043 10/06 Q1026 RMK PP000=
SPZO Feb2009-151100Z 00000KT 9999 FEW036 BKN046 09/06 Q1026 NOSIG RMK PP000=
SPZO Feb2009-151200Z 00000KT 9999 BKN050 SCT100 10/07 Q1027 NOSIG RMK=
SPZO Feb2009-151300Z 00000KT 9999 BKN050 SCT100 11/06 Q1029 NOSIG RMK=
SPZO Feb2009-151400Z 00000KT 9999 BKN050 SCT100 12/06 Q1029 NOSIG RMK=
SPZO Feb2009-151500Z 06004KT 9999 BKN050 SCT100 13/06 Q1029 NOSIG RMK=
SPZO Feb2009-151600Z VRB02KT 9999 BKN050 SCT100 15/06 Q1029 NOSIG RMK=
SPZO Feb2009-151700Z VRB02KT 9999 VCSH FEW040 SCT050 BKN090 15/07 Q1028 NOSIG RMK WIND RWY 10 VRB04KT PP000=
SPZO Feb2009-151800Z 35008KT 300V050 9999 VCSH FEW040 SCT050 BKN090 16/06 Q1027 NOSIG RMK WIND RWY 10 VRB05KT PP000=
SPZO Feb2009-151900Z 35006KT 290V060 9999 FEW040 SCT060 BKN150 16/07 Q1026 RMK PP000=
SPZO Feb2009-152000Z 00000KT 9999 FEW040 SCT060 BKN150 17/05 Q1025 NOSIG RMK PP000=
SPZO Feb2009-152100Z VRB02KT 9999 FEW040 SCT060 BKN150 17/05 Q1024 NOSIG RMK WIND RWY 10 VRB09KT PP000=
SPZO Feb2009-152200Z 26009KT 9999 SCT060 SCT150 15/07 Q1024 NOSIG RMK=
SPZO Feb2009-152300Z 26008KT 9999 SCT060 SCT150 14/07 Q1024 NOSIG RMK PP000=
SPZO Feb2009-160000Z 28008KT 9999 SCT050 BKN100 13/06 Q1024 RMK PP000=
SPZO Feb2009-160100Z 16007KT 9999 SCT050 SCT100 12/06 Q1025 RMK PP000=
SPZO Feb2009-160200Z 26005KT 9999 FEW050 SCT100 11/06 Q1026 RMK PP000=
SPZO Feb2009-160300Z 35002KT 9999 FEW050 SCT100 10/06 Q1027 RMK PP000=
SPZO Feb2009-160400Z 04002KT 9999 FEW050 SCT100 10/06 Q1027 RMK PP000=
SPZO Feb2009-160500Z 28002KT 9999 SCT043 BKN050 09/07 Q1026 RMK PP000=
SPZO Feb2009-160600Z 05002KT 9999 SCT043 BKN050 09/07 Q1026 RMK PP000=
SPZO Feb2009-160700Z 00000KT 9999 SCT040 BKN050 10/09 Q1025 RMK PP000=
SPZO Feb2009-160800Z 00000KT 9999 SCT040 BKN050 09/07 Q1025 RMK PP000=
SPZO Feb2009-160900Z 00000KT 9999 SCT040 SCT050 09/07 Q1025 RMK PP000=
SPZO Feb2009-161000Z 26002KT 9999 SCT036 BKN046 08/06 Q1025 RMK PP000=
SPZO Feb2009-161100Z 06002KT 9999 FEW030 SCT036 BKN100 09/07 Q1026 TEMPO SCT033 BKN043 RMK PP000=
SPZO Feb2009-161200Z 00000KT 9999 FEW030 BKN040 11/08 Q1027 TEMPO SCT050 RMK WIND RWY 10 00000KT PP000=
SPZO Feb2009-161300Z 00000KT 9999 FEW030 BKN040 11/08 Q1027 TEMPO FEW036 SCT050 RMK WIND RWY 10 00000KT PP000=
SPZO Feb2009-161400Z VRB03KT 9999 SCT050 15/07 Q1028 NOSIG RMK PP000=
SPZO Feb2009-161500Z 31006KT 260V050 9999 SCT050 SCT230 16/05 Q1027 NOSIG RMK WIND RWY 10 00000KT PP000=
SPZO Feb2009-161600Z VRB03KT 9999 SCT050 SCT230 17/05 Q1026 NOSIG RMK=
SPZO Feb2009-161700Z 29005KT 250V020 9999 SCT050 SCT230 20/03 Q1025 NOSIG RMK WIND RWY 10 00000KT PP000=
SPZO Feb2009-161800Z VRB03KT 9999 SCT050 21/00 Q1024 NOSIG RMK PP000=
SPZO Feb2009-161900Z VRB05KT 9999 SCT050 21/02 Q1022 NOSIG RMK PP000=
SPZO Feb2009-162000Z VRB03KT 9999 SCT050 22/01 Q1021 NOSIG RMK PP000=
SPZO Feb2009-162100Z 01015KT 320V050 9999 FEW046TCU SCT050 20/04 Q1020 NOSIG RMK WIND RWY10 VRB09KT PP000=
SPZO Feb2009-162200Z 35010KT 320V030 9999 VCSH FEW046TCU SCT050 18/04 Q1020 NOSIG RMK WIND RYWY10 VRB08KT T.MAX.22.7 PP000=
SPZO Feb2009-162300Z 04015KT 9999 VCSH FEW046TCU BKN050 15/06 Q1022 NOSIG RMK WIND RWY10 VRB11KT PP000=
SPZO Feb2009-170000Z 29006KT 250V020 9999 OVC050 15/04 Q1023 RMK PP000=
SPZO Feb2009-170100Z VRB03KT 9999 OVC050 13/05 Q1025 RMK PP000=
SPZO Feb2009-170200Z 06005KT 9999 BKN050 12/06 Q1026 RMK PP000=
SPZO Feb2009-170300Z 06002KT 9999 BKN050 11/06 Q1027 RMK PP000=
SPZO Feb2009-170400Z VRB02KT 9999 BKN050 11/07 Q1027 RMK PP000=
SPZO Feb2009-170500Z 00000KT 9999 BKN050 11/07 Q1026 RMK PP000=
SPZO Feb2009-170600Z 00000KT 9999 BKN050 11/07 Q1026 RMK PP000=
SPZO Feb2009-170700Z 33004KT 250V070 8000 -RA FEW040 OVC050 10/05 Q1026 RMK PP004=
SPZO Feb2009-170800Z VRB03KT 8000 -RA FEW040 OVC050 10/07 Q1026 RMK PP002=
SPZO Feb2009-170900Z 05008KT 5000 RA FEW030 SCT040 OVC050 08/06 Q1027 RMK PP016=
SPZO Feb2009-171000Z 06008KT 6000 RA FEW030 SCT040 BKN050 07/05 Q1028 RMK PP022=
SPZO Feb2009-171100Z 06004KT 7000 -RA FEW025 SCT036 BKN050 07/05 Q1029 NOSIG RMK CLNG BLW 1200M PP004=
SPZO Feb2009-171200Z 04005KT 360V060 7000 RA FEW020 SCT036 BKN050 07/05 Q1030 NOSIG RMK CLNG BLW 1200M PP010=
SPZO Feb2009-171300Z 06004KT 9000 -RA FEW015 SCT036 BKN080 07/05 Q1030 BECMG FM1400 9999 NSW SCT030 SCT043 BKN100 RMK CLNG BLW 1200M PP026=
SPZO Feb2009-171400Z 06008KT 9999 SCT025 SCT040 BKN100 09/05 Q1031 NOSIG RMK PPTRZ=
SPZO Feb2009-171500Z 05006KT 010V070 9999 FEW025 SCT043 BKN230 10/05 Q1030 NOSIG RMK PP000=
SPZO Feb2009-171600Z 02004KT 280V070 9999 SCT033 BKN100 13/05 Q1030 NOSIG RMK PP000=
SPZO Feb2009-171700Z VRB03KT 9999 VCSH FEW030 SCT040 BKN080 13/05 Q1029 NOSIG RMK WIND RWY10 VRB05KT PP000=
SPZO Feb2009-171800Z 05006KT 340V060 9999 VCSH SCT030 BKN100 14/09 Q1028 NOSIG RMK PP000=
SPZO Feb2009-171900Z 29002KT 9999 VCSH SCT036 BKN050 14/08 Q1027 TEMPO -RA RMK PP000=
SPZO Feb2009-172000Z 28002KT 9999 VCSH SCT040 BKN050 14/07 Q1026 NOSIG RMK PP000=
SPZO Feb2009-172100Z 27005KT 250V340 9999 VCSH SCT040 BKN050 13/08 Q1026 NOSIG RMK WIND RWY10 26006KT PP002=
SPZO Feb2009-172200Z 26006KT 9999 VCSH SCT040 BKN050 15/06 Q1025 NOSIG RMK WIND RWY10 26005KT 210V310 T.MAX.15.4 PP000=
SPZO Feb2009-172300Z 26006KT 9999 SCT040 BKN050 14/06 Q1026 NOSIG RMK PP000=
SPZO Feb2009-180000Z 04004KT 340V070 9999 OVC050 12/06 Q1027 RMK PP000=
SPZO Feb2009-180100Z 05007KT 9999 OVC050 11/05 Q1028 RMK PP000=
SPZO Feb2009-180200Z VRB03KT 9999 OVC050 11/05 Q1029 RMK PP000=
SPZO Feb2009-180300Z 05003KT 9999 OVC050 10/05 Q1030 RMK PP000=
SPZO Feb2009-180400Z 05004KT 9999 OVC050 10/05 Q1030 RMK PP000=
SPZO Feb2009-180500Z VRB02KT 9999 OVC050 10/05 Q1030 RMK PP000=
SPZO Feb2009-180600Z 00000KT 9999 OVC050 10/05 Q1029 RMK PP000=
SPZO Feb2009-180700Z 05002KT 9999 OVC050 09/05 Q1029 RMK PP000=
SPZO Feb2009-180800Z 00000KT 9999 OVC050 09/05 Q1028 RMK PP000=
SPZO Feb2009-180900Z 00000KT 9999 BKN050 09/05 Q1028 RMK PP000=
SPZO Feb2009-181000Z 00000KT 9999 BKN050 08/05 Q1029 RMK PP000=
SPZO Feb2009-181100Z 03002KT 9999 BKN050 08/05 Q1029 NOSIG RMK PP000=
SPZO Feb2009-181200Z 00000KT 9999 FEW040 BKN050 09/06 Q1030 NOSIG RMK PP000=
SPZO Feb2009-181300Z 06004KT 320V070 9999 FEW043 BKN100 12/05 Q1031 NOSIG RMK PP000=
SPZO Feb2009-181400Z 04006KT 010V080 9999 BKN046 13/05 Q1031 NOSIG RMK=
SPZO Feb2009-181500Z 04004KT 330V070 9999 SCT046 BKN050 15/05 Q1030 NOSIG RMK PP000=
SPZO Feb2009-181600Z 00000KT 9999 SCT046 BKN050 15/04 Q1030 NOSIG RMK=
SPZO Feb2009-181700Z VRB08KT 9999 SCT046 BKN050 16/05 Q1029 NOSIG RMK=
SPZO Feb2009-181800Z 01007KT 320V060 9999 FEW040 BKN050 17/05 Q1027 NOSIG RMK WIND RWY 10 VRB03KT PP000=
SPZO Feb2009-181900Z 35005KT 270V070 9999 FEW040 SCT050 18/05 Q1026 NOSIG RMK WIND RWY 10 04006KT 320V150 PP000=
SPZO Feb2009-182000Z 01006KT 300V070 9999 FEW040 SCT050 19/04 Q1025 NOSIG RMK WIND RWY 10 03008G19KT 270V130 PP000=
SPZO Feb2009-182100Z 35007KT 250V070 9999 FEW040 SCT050 18/04 Q1024 NOSIG RMK WIND RWY 10 VRB07KT PP000=
SPZO Feb2009-182200Z 05008KT 290V070 9999 FEW040 SCT050 16/04 Q1025 NOSIG RMK WIND RWY 10 01007KT 300V110 TMAX 18.8 PP000=
SPZO Feb2009-182300Z 01008KT 310V050 9999 FEW040 SCT050 15/04 Q1025 NOSIG RMK PP000=
SPZO Feb2009-190000Z 03002KT 9999 SCT050 13/05 Q1026 RMK PP000=
SPZO Feb2009-190100Z 05002KT 9999 FEW050 11/06 Q1028 RMK PP000=
SPZO Feb2009-190200Z 00000KT 9999 FEW050 09/06 Q1029 RMK PP000=
SPZO Feb2009-190300Z 07002KT 9999 FEW050 09/06 Q1030 RMK PP000=
SPZO Feb2009-190400Z 00000KT 9999 SKC 09/06 Q1030 RMK PP000=
SPZO Feb2009-190500Z 06003KT 9999 SKC 08/06 Q1030 RMK PP000=
SPZO Feb2009-190600Z 00000KT 9999 SKC 08/05 Q1029 RMK PP000=
SPZO Feb2009-190700Z 00000KT 9999 SKC 07/05 Q1029 RMK PP000=
SPZO Feb2009-190800Z 04003KT 9999 BKN050 07/05 Q1029 RMK PP000=
SPZO Feb2009-190900Z 00000KT 9999 SCT050 06/04 Q1029 RMK PP000=
SPZO Feb2009-191000Z 00000KT 9999 FEW040 BKN050 07/05 Q1029 RMK PP000=
SPZO Feb2009-191100Z 00000KT 9999 FEW036 BKN050 07/05 Q1030 NOSIG RMK PP000=
SPZO Feb2009-191200Z 00000KT 9999 SCT046 09/06 Q1030 NOSIG RMK PP000=
SPZO Feb2009-191300Z 05002KT 9999 SCT043 BKN046 10/06 Q1031 NOSIG RMK=
SPZO Feb2009-191400Z VRB03KT 9999 SCT040 14/06 Q1031 NOSIG RMK RWY10 VRB03KT PP000=
SPZO Feb2009-191500Z VRB03KT 9999 FEW040 15/05 Q1031 NOSIG RMK RWY10 VRB03KT PP000=
SPZO Feb2009-191600Z VRB02KT 9999 SCT040 18/07 Q1030 NOSIG RMK RWY10 VRB06KT PP000=
SPZO Feb2009-191700Z 05006KT 340V070 9999 SCT043 17/06 Q1028 NOSIG RMK PP000=
SPZO Feb2009-191800Z VRB02KT 9999 SCT050 21/07 Q1026 NOSIG RMK WIND RWY 10 VRB05KT PP000=
SPZO Feb2009-191900Z 29008KT 250V300 9999 BKN050 20/07 Q1025 NOSIG RMK=
SPZO Feb2009-192000Z 31005KT 250V050 9999 SCT043TCU SCT050 19/04 Q1024 TEMPO VCSH RMK PP000=
SPZO Feb2009-192100Z VRB03KT 9999 FEW043TCU SCT050 17/07 Q1024 NOSIG RMK WIND RWY 10 VRB06KT PP000=
SPZO Feb2009-192200Z VRB03KT 9999 FEW043TCU BKN050 18/07 Q1024 NOSIG RMK WIND RWY 10 VRB02KT TMAX 21.4 PP000=
SPZO Feb2009-192300Z 36005KT 320V060 9999 BKN050 17/07 Q1024 NOSIG RMK PP000=
SPZO Feb2009-200000Z 00000KT 9999 SCT050 SCT100 15/07 Q1025 RMK PP000=
SPZO Feb2009-200100Z 00000KT 9999 SCT046 SCT100 14/07 Q1027 RMK PP000=
SPZO Feb2009-200200Z 01003KT 9999 SCT043 SCT100 14/07 Q1028 RMK PP000=
SPZO Feb2009-200300Z 00000KT 9999 SCT043 SCT100 12/07 Q1028 RMK PP000=
SPZO Feb2009-200400Z 35002KT 9999 SCT040 BKN046 12/07 Q1028 RMK PP000=
SPZO Feb2009-200500Z 00000KT 9999 -RA OVC040 11/05 Q1029 RMK PP004=
SPZO Feb2009-200600Z 00000KT 9999 -RA OVC040 09/06 Q1029 RMK PP014=
SPZO Feb2009-200700Z 00000KT 9999 -RA OVC040 08/06 Q1029 RMK PP026=
SPZO Feb2009-200800Z 26003KT 9999 RA OVC040 08/07 Q1028 RMK PP034=
SPZO Feb2009-200900Z 28004KT 8000 RA OVC040 08/05 Q1028 RMK PP024=
SPZO Feb2009-201000Z 27003KT 8000 DZ OVC036 07/05 Q1029 RMK CLNG BLW 1200M PP008=
SPZO Feb2009-201100Z 26002KT 9999 -DZ FEW020 SCT043 BKN080 07/05 Q1029 NOSIG RMK PP002=
SPZO Feb2009-201200Z 00000KT 9999 FEW025 SCT040 BKN090 08/05 Q1030 REDZ BECMG FEW033 SCT060 OVC230 RMK WIND RWY 10 00000KT PPTRZ=
SPZO Feb2009-201300Z 00000KT 9999 FEW030 SCT050 BKN150 09/05 Q1031 NOSIG RMK WIND RWY 10 00000KT PP000=
SPZO Feb2009-201400Z VRB01KT 9999 FEW033 SCT080 BKN230 11/06 Q1030 NOSIG RMK PP000=
SPZO Feb2009-201500Z VRB02KT 9999 FEW033 SCT080 BKN230 13/05 Q1030 NOSIG RMK WIND RWY 10 VRB03KT PP000=
SPZO Feb2009-201600Z 00000KT 9999 SCT033 SCT080 BKN230 14/07 Q1029 NOSIG RMK WIND RWY 10 00000KT PP000=
SPZO Feb2009-201700Z VRB03KT 9999 SCT036 SCT090 BKN230 16/08 Q1028 NOSIG RMK WIND RWY 10 VRB04KT PP000=
SPZO Feb2009-201800Z 05006KT 360V070 9999 FEW043TCU SCT046 BKN080 16/06 Q1027 TEMPO VCSH RMK WIND RWY10 VRB05KT PP000=
SPZO Feb2009-201900Z 03005KT 340V070 999 FEW040 SCT050 BKN230 17/07 Q1025 NOSIG RMK PP000=
SPZO Feb2009-202000Z 03005KT 310V070 9999 BKN050 17/06 Q1024 NOSIG RMK PP000=
SPZO Feb2009-202100Z 04008KT 350V070 9999 FEW043TCU SCT046 BKN100 17/07 Q1024 NOSIG RMK WIND RWY10 VRB07KT PP000=
SPZO Feb2009-202200Z 05006KT 350V070 9999 VCSH FEW043TCU SCT046 BKN100 16/07 Q1024 NOSIG RMK T.MAX.18.9 PP000=
SPZO Feb2009-202300Z 28003KT 9999 VCSH SCT043 BKN100 12/08 Q1025 NOSIG RMK RESHRA PP008=
SPZO Feb2009-210000Z 27004KT 9999 BKN050 SCT100 11/08 Q1026 RERA RMK PP002=
SPZO Feb2009-210100Z 04005KT 8000 -RA FEW040 SCT050 BKN060 11/08 Q1027 RMK PP002=
SPZO Feb2009-210200Z 05006KT 5000 -RA SCT040 BKN050 11/08 Q1028 RMK PP008=
SPZO Feb2009-210300Z 04002KT 5000 -RA SCT040 BKN050 10/08 Q1029 RMK PP018=
SPZO Feb2009-210400Z 05003KT 9000 FEW040 BKN050 10/08 Q1029 RERA RMK PPTRZ=
SPZO Feb2009-210500Z 26005KT 250V330 9999 FEW020 SCT040 BKN050 09/07 Q1029 RMK PP000=
SPZO Feb2009-210600Z 27003KT 9999 FEW020 SCT040 BKN050 09/06 Q1028 RMK PP000=
SPZO Feb2009-210700Z 26003KT 9999 FEW020 SCT040 BKN050 09/06 Q1028 RMK PP000=
SPZO Feb2009-210800Z 28003KT 9999 FEW020 SCT040 BKN050 09/05 Q1027 RMK PP000=
SPZO Feb2009-210900Z 27002KT 9999 FEW020 SCT040 BKN050 09/06 Q1027 RMK PP000=
SPZO Feb2009-211000Z 00000KT 9999 FEW020 SCT040 BKN050 09/06 Q1027 RMK PP000=
SPZO Feb2009-211100Z 00000KT 9999 FEW030 SCT050 BKN060 09/06 Q1028 BECMG FEW030 BKN080 RMK PP000=
SPZO Feb2009-211200Z 05002KT 9999 FEW030 BKN100 09/07 Q1028 BECMG FEW040 BKN230 RMK PP000=
SPZO Feb2009-211300Z 00000KT 9999 FEW033 SCT150 BKN230 12/07 Q1029 NOSIG RMK PP000=
SPZO Feb2009-211400Z 00000KT 9999 SCT033 BKN120 13/07 Q1029 NOSIG RMK PP000=
SPZO Feb2009-211500Z VRB02KT 9999 FEW033 SCT043 BKN080 14/06 Q1029 NOSIG RMK PP000=
SPZO Feb2009-211600Z VRB01KT 9999 SCT043 BKN080 15/06 Q1028 NOSIG RMK PP000=
SPZO Feb2009-211700Z VRB02KT 9999 SCT046 BKN080 17/06 Q1027 NOSIG RMK PP000=
SPZO Feb2009-211800Z 30003KT 250V030 9999 SCT046 BKN080 18/06 Q1026 NOSIG RMK WIND RWY10 VRB05KT PP000=
SPZO Feb2009-211900Z 36005KT 320V050 9999 SCT046 BKN080 16/06 Q1025 NOSIG RMK WIND RWY10 11009KT PP000=
SPZO Feb2009-212000Z 02010KT 330V080 9999 SCT046 BKN080 18/07 Q1024 NOSIG RMK PP000=
SPZO Feb2009-212100Z 05009KT 010V070 9999 SCT046 BKN080 17/07 Q1024 NOSIG RMK WIND RWY10 11007KT 070V160 PP000=
SPZO Feb2009-212200Z 05011KT 010V080 9999 SCT046 BKN080 16/06 Q1024 NOSIG RMK WIND RWY10 11008KT 080V160 T.MAX.19.2 PP000=
SPZO Feb2009-212300Z 03015KT 350V060 9999 SCT046 BKN080 14/06 Q1025 NOSIG RMK WIND RWY10 11010KT 060V170 PP000=
SPZO Feb2009-220000Z 05004KT 9999 BKN050 SCT070 12/06 Q1026 RMK PP000=
SPZO Feb2009-220100Z 05002KT 310V070 9999 BKN050 SCT060 11/06 Q1027 RMK PP000=
SPZO Feb2009-220200Z 00000KT 9999 OVC050 10/06 Q1029 RMK PP000=
SPZO Feb2009-220300Z 00000KT 9999 BKN050 10/07 Q1030 RMK PP000=
SPZO Feb2009-220400Z VRB02KT 9999 BKN050 10/07 Q1030 RMK PP000=
SPZO Feb2009-220500Z VRB02KT 9999 BKN050 09/07 Q1030 RMK PP000=
SPZO Feb2009-220600Z 00000KT 9999 BKN050 09/07 Q1030 RMK PP000=
SPZO Feb2009-220700Z 34002KT 9999 BKN050 08/06 Q1029 RMK PP000=
SPZO Feb2009-220800Z 00000KT 9999 BKN050 07/05 Q1029 RMK PP000=
SPZO Feb2009-220900Z 00000KT 9999 BKN050 07/06 Q1029 RMK PP000=
SPZO Feb2009-221000Z 32002KT 9999 BKN050 07/05 Q1029 RMK PP000=
SPZO Feb2009-221100Z 06002KT 9999 BKN050 07/05 Q1030 NOSIG RMK PP000=
SPZO Feb2009-221200Z 06001KT 9999 SCT043 BKN120 08/06 Q030 NOSIG RMK PP000=
SPZO Feb2009-221300Z 28003KT 240V010 9999 FEW043 OVC120 11/06 Q1031 NOSIG RMK PP000=
SPZO Feb2009-221400Z VRB3KT 9999 FEW046 BKN230 15/06 Q1031 NOSIG RMK PP000=
SPZO Feb2009-221500Z 03002KT 9999 FEW046 BKN230 16/06 Q1031 NOSIG RMK PP000=
SPZO Feb2009-221600Z VRB06KT 9999 SCT046 SCT100 18/07 Q1030 NOSIG RMK PP000=
SPZO Feb2009-221700Z 35002KT 9999 SCT046 SCT100 19/04 Q1029 NOSIG RMK PP000=
SPZO Feb2009-221800Z VRB03KT 9999 BKN050 20/05 Q1027 NOSIG RMK WIND RWY 10 VRB04KT PP000=
SPZO Feb2009-221900Z 31004KT 250V060 9999 BKN050 20/04 Q1025 NOSIG RMK=
SPZO Feb2009-222000Z 06008KT 9000 -RA VCSH FEW030 SCT040 BKN050 16/09 Q1024 NOSIG RMK WIND RWY 10 05005KT PP002=
SPZO Feb2009-222100Z 03011KT 350V070 9999 VCSH FEW030 SCT040 BKN050 15/07 Q1025 RERA TEMPO RA RMK WIND RWY 10 11010G20KT 080V150 PP002=
SPZO Feb2009-222200Z 01008KT 320V060 9999 VCSH FEW030 OVC050 15/07 Q1025 TEMPO RA RMK WIND RWY 10 13006KT 070V180 TMAX 21.1 PP000=
SPZO Feb2009-222300Z VRB03KT 9999 BKN050 SCT060 14/06 Q1026 NOSIG RMK PP000=
SPZO Feb2009-230000Z 06007KT 9999 SCT050 BKN100 12/05 Q1027 RMK PP000=
SPZO Feb2009-230100Z 05004KT 9999 SCT043 BKN080 11/05 Q1028 RMK PP000=
SPZO Feb2009-230200Z 05002KT 9999 SCT040 BKN080 11/05 Q1030 RMK PP000=
SPZO Feb2009-230300Z 00000KT 9999 SCT040 BKN050 11/06 Q1030 RMK PP000=
SPZO Feb2009-230400Z 00000KT 9999 SCT0-40 BKN050 11/06 Q1031 RMK PP000=
SPZO Feb2009-230500Z 00000KT 9999 SCT040 BKN046 11/07 Q1031 RMK PP000=
SPZO Feb2009-230600Z 00000KT 9999 -RA OVC040 10/07 Q1030 RMK PP008=
SPZO Feb2009-230700Z 27002KT 9999 OVC040 10/07 Q1030 RERA RMK PPTRZ=
SPZO Feb2009-230800Z 00000KT 9999 OVC040 10/07 Q1029 RMK PP000=
SPZO Feb2009-230900Z 06003KT 9999 FEW040 SCT043 09/07 Q1029 REDZ RMK PP002=
SPZO Feb2009-231000Z 00000KT 9999 FEW040 SCT043 09/07 Q1029 RMK PP000=
SPZO Feb2009-231100Z 00000KT 9999 SCT036 BKN043 09/07 Q1030 NOSIG RMK PP000=
SPZO Feb2009-231200Z 00000KT 9999 SCT050 SCT100 10/07 Q1031 NOSIG RMK PP000=
SPZO Feb2009-231300Z 00000KT 9999 SCT040 SCT090 13/07 Q1031 NOSIG RMK=
SPZO Feb2009-231400Z VRB03KT 9999 SCT040 SCT080 14/06 Q1031 NOSIG RMK=
SPZO Feb2009-231500Z 27004KT 9999 SCT040 SCT070 15/06 Q1031 NOSIG RMK=
SPZO Feb2009-231600Z VRB02KT 9999 SCT040 SCT070 17/05 Q1030 NOSIG RMK=
SPZO Feb2009-231700Z VRB03KT 9999 SCT040 SCT070 18/07 Q1029 NOSIG RMK=
SPZO Feb2009-231800Z VRB03KT 9999 BKN040 SCT080 18/06 Q1028 TEMPO VCSH RMK WIND RWY 10 VRB03KT PP000=
SPZO Feb2009-231900Z 34011KT 300V020 9999 VCSH FEW040 SCT046TCU BKN060 15/05 Q1027 BECMG -RA RMK PP000=
SPZO Feb2009-232000Z 03007KT 330V070 7000 -RA VCSH FEW033 SCT040TCU BKN070 11/07 Q1028 BECMG FM2020 9999 NSW RMK WIND RWY 10 16009KT 120V220 PP016=
SPZO Feb2009-232100Z VRB02KT 9999 -RA VCSH FEW033 SCT040 BKN070 10/07 Q1027 BECMG NSW RMK WIND RWY 10 VRB02KT PP012=
SPZO Feb2009-232200Z VRB03KT 9999 FEW036 SCT043 BKN080 11/07 Q1027 RERA NOSIG RMK WIND RWY 10 VRB03KT TMAX 19.7 PPTRZ=
SPZO Feb2009-232300Z 05003KT 9999 SCT050 SCT090 11/07 Q1027 NOSIG RMK PP000=
SPZO Feb2009-240000Z 00000KT 9999 SCT046 BKN080 10/07 Q1028 RMK PP000=
SPZO Feb2009-240100Z 00000KT 9999 OVC046 09/07 Q1029 RMK PP000=
SPZO Feb2009-240200Z 00000KT 9999 OVC046 10/07 Q1030 RMK PP000=
SPZO Feb2009-240300Z 00000KT 9999 OVC046 10/08 Q1030 RMK PP000=
SPZO Feb2009-240400Z 06005KT 9999 SCT040 BKN046 10/07 Q1031 RMK PP000=
SPZO Feb2009-240500Z 00000KT 9999 SCT040 BKN046 10/07 Q1030 RMK PP000=
SPZO Feb2009-240600Z 06002KT 9999 SCT040 BKN046 10/08 Q1030 REDZ RMK PP002=
SPZO Feb2009-240700Z 03002KT 9999 SCT040 BKN046 10/07 Q1029 RMK PP000=
SPZO Feb2009-240800Z 05003KIT 9999 SCT040 BKN046 09/08 Q1028 RMK PP000=
SPZO Feb2009-240900Z 00000KT 9999 DZ SCT033 BKN040 09/07 Q1028 RMK PP004=
SPZO Feb2009-241000Z 26003KT 9999 DZ SCT033 BKN036 09/06 Q1028 RMK CLNG BLW 1200M PP004=
SPZO Feb2009-241100Z 27003KT 7000 -RA FEW020 SCT033 BKN080 08/06 Q1029 BECMG FM1200 9000 RMK CLNG BLW 1200M PP002=
SPZO Feb2009-241200Z 00000KT 7000 -RA VCSH FEW020TCU SCT030 BKN070 09/06 Q1030 NOSIG RMK CLNG BLW 1200M PP002=
SPZO Feb2009-241300Z 00000KT 8000 VCSH FEW020 SCT030 BKN070 10/07 Q1030 RERA BECMG FM1400 9999 FEW025 SCT040 BKN060 RMK CLNG BLW 1200M PP002=
SPZO Feb2009-241400Z 05002KT 9999 SCT030 BKN040 BKN070 10/07 Q1031 NOSIG RMK PP000=
SPZO Feb2009-241500Z VRB02KT 9999 FEW033 SCT040 BKN150 13/07 Q1030 NOSIG RMK WIND RWY 10 VRB02KT PP000=
SPZO Feb2009-241600Z 35006KT 290V020 9999 VCSH FEW033 SCT040 BKN100 14/07 Q1030 NOSIG RMK WIND RWY 10 32005KT 260V060 PP000=
SPZO Feb2009-241700Z 28005KT 250V350 9999 VCSH FEW033 SCT040 BKN100 14/07 Q1029 NOSIG RMK WIND RWY 10 30004KT 230V050 PP000=
SPZO Feb2009-241800Z 28008KT 9999 SCT046 BKN100 16/07 Q1027 NOSIG RMK=
SPZO Feb2009-241900Z 36007KT 300V070 9999 SCT046 BKN100 16/07 Q1026 NOSIG RMK WIND RWY10 02008KT 280V080 PP000=
SPZO Feb2009-242000Z 02007KT 320V060 9999 SCT046 BKN100 16/05 Q1025 NOSIG RMK WIND RWY10 VRB07KT PP000=
SPZO Feb2009-242100Z 36007KT 240V090 9999 SCT046 BKN100 17/05 Q1024 NOSIG RMK WIND RWY10 VRB08KT PP000=
SPZO Feb2009-242200Z 01006KT 310V070 9999 SCT046 BKN120 16/05 Q1024 NOSIG RMK WIND RWY10 01006KT 300V090 T.MAX.17.6 PP000=
SPZO Feb2009-242300Z 04006KT 9999 SCT046 BKN120 14/06 Q1025 NOSIG RMK=
SPZO Feb2009-250000Z 03006KT 350V070 9999 BKN050 SCT100 13/06 Q1026 RMK PP000=
SPZO Feb2009-250100Z VRB02KT 9999 BKN050 12/06 Q1028 RMK PP000=
SPZO Feb2009-250200Z VRB02KT 9999 BKN050 11/06 Q1029 RMK PP000=
SPZO Feb2009-250300Z VRB02KT 9999 BKN050 11/06 Q1029=
SPZO Feb2009-250400Z 00000KT 9999 BKN050 10/06 Q1030 RMK PP000=
SPZO Feb2009-250500Z 00000KT 9999 OVC050 10/07 Q1029 RMK PP000=
SPZO Feb2009-250600Z 00000KT 9999 OVC050 09/07 Q1028 RMK PP000=
SPZO Feb2009-250700Z 00000KT 9999 OVC050 10/06 Q1028 RMK PP000=
SPZO Feb2009-250800Z 06003KT 9999 OVC050 08/06 Q1027 RMK PP000=
SPZO Feb2009-250900Z 00000KT 9999 BKN050 SCT060 08/05 Q1028 RMK PP000=
SPZO Feb2009-251000Z 07003KT 9999 BKN050 SCT060 07/05 Q1028 RMK PP000=
SPZO Feb2009-251100Z 00000KT 9999 BKN050 SCT100 08/05 Q1028 NOSIG RMK PP000=
SPZO Feb2009-251200Z 04001KT 9999 FEW025 SCT046 BKN100 08/06 Q1029 NOSIG RMK PP000=
SPZO Feb2009-251300Z 00000KT 9999 FEW030 SCT046 BKN100 11/06 Q1030 NOSIG RMK PP000=
SPZO Feb2009-251400Z 06004KT 350V070 9999 FEW036 SCT046 BKN150 12/07 Q1030 NOSIG RMK PP000=
SPZO Feb2009-251500Z 00000KT 9999 SCT040 BKN150 14/06 Q1030 NOSIG RMK PP000=
SPZO Feb2009-251600Z VRB02KT 9999 SCT046 BKN150 16/05 Q1029 NOSIG RMK PP000=
SPZO Feb2009-251700Z VRB05KT 9999 VCSH SCT046 BKN100 17/06 Q1027 NOSIG RMK PP000=
SPZO Feb2009-251800Z VRB08KT 9999 VCSH SCT046 BKN100 19/06 Q1026 NOSIG RMK WIND RWY10 VRB08KT PP000=
SPZO Feb2009-251900Z 28012KT 250V320 9999 VCSH SCT043 SCT050 18/06 Q1025 TEMPO -RA RMK RWY10 VRB04KT PP000=
SPZO Feb2009-252000Z 36007KT 290V020 9999 VCSH SCT046 BKN060 17/06 Q1024 NOSIG RMK PP000=
SPZO Feb2009-252100Z 04010KT 340V070 9999 VCSH SCT046 BKN100 16/07 Q1024 NOSIG RMK WIND RWY10 11011KT 080V150 PP000=
SPZO Feb2009-252200Z 01006KT 310V050 9999 VCSH SCT043 BKN050 15/06 Q1024 NOSIG RMK WIND RWY10 VRB06KT T.MAX. 18.7 PP000=
SPZO Feb2009-252300Z 28007KT 9999 VCSH SCT040 BKN050 15/06 Q1025 NOSIG RMK WIND RWY10 30005KT 230V010 PP000=
SPZO Feb2009-260000Z 27009KT 8000 -RA SCT030 BKN050 13/07 Q1026 RMK PPTRZ=
SPZO Feb2009-260100Z 26004KT 8000 -RA SCT030 BKN050 11/08 Q1028 RMK PP012=
SPZO Feb2009-260200Z VRB02KT 8000 -RA FEW030 BKN050 11/07 Q1029 RMK PP014=
SPZO Feb2009-260300Z 00000KT 9000 FEW030 BKN050 11/08 Q1030 RERA RMK PP002=
SPZO Feb2009-260400Z 05002KT 9999 OVC050 10/08 Q1030 RMK PP000=
SPZO Feb2009-260500Z 00000KT 9999 OVC050 11/08 Q1029 RMK PP000=
SPZO Feb2009-260600Z 06003KT 9999 OVC050 10/08 Q1028 RMK PP000=
SPZO Feb2009-260700Z 00000KT 9999 OVC050 11/08 Q1028 RMK PP000=
SPZO Feb2009-260800Z 00000KT 5000 -RA FEW030 SCT040 BKN050 09/07 Q1028 RMK PP008=
SPZO Feb2009-260900Z 00000KT 6000 FEW030 SCT040 BKN050 09/06 Q1028 RERA RMK PP002=
SPZO Feb2009-261000Z 31004KT 280V350 7000 -RA FEW030 SCT040 BKN050 09/06 Q1029 RMK PP002=
SPZO Feb2009-261100Z 29009KT 260V330 7000 -RA FEW030 SCT036 BKN050 08/06 Q1029 NOSIG RMK CLNG BLW 1200M PP002=
SPZO Feb2009-261200Z 00000KT 9999 VCSH FEW025 SCT030 BKN043 09/06 Q1029 BECMG FM1230 SCT036 BKN046 RMK CLNG BLW 1200M PP000=
SPZO Feb2009-261300Z 00000KT 9999 VCSH SCT033 BKN050 10/06 Q1030 NOSIG RMK PP000=
SPZO Feb2009-261400Z 06004KT 010V080 9999 VCSH SCT033 SCT046 11/06 Q1030 NOSIG RMK PP000=
SPZO Feb2009-261500Z 00000KT 9999 VCSH SCT033 SCT046 13/06 Q1029 NOSIG RMK PP000=
SPZO Feb2009-261600Z VRB05KT 9999 VCSH SCT040 BKN046 15/08 Q1029 TEMPO 8000 RMK WIND RWY10 VRB06KT PP000=
SPZO Feb2009-261700Z 26013KT 9999 VCSH SCT040 BKN046 16/09 Q1028 NOSIG RMK WIND RWY10 VRB09KT PP000=
SPZO Feb2009-261800Z 26013KT 8000 -RA VCSH FEW036TCU SCT040 BKN050 15/08 Q1027 NOSIG RMK WIND RWY 10 30007KT PPTRZ=
SPZO Feb2009-261900Z 28006KT 250V360 8000 -RA VCSH FEW036TCU SCT040 BKN050 12/08 Q1026 NOSIG RMK WIND RWY 10 12002KT 090V190 PP010=
SPZO Feb2009-262000Z 26005KT 9000 VCSH FEW036TCU SCT040 BKN050 14/07 Q1025 RERA NOSIG RMK WIND RWY 10 25003KT 150V350 PPTRZ=
SPZO Feb2009-262100Z 26005KT 9999 VCSH SCT040 BKN050 14/08 Q1025 NOSIG RMK WIND RWY 10 28003KT PP000=
SPZO Feb2009-262200Z 00000KT 9999 SCT040 BKN050 15/07 Q1024 NOSIG RMK=
SPZO Feb2009-262300Z 01003KT 9999 FEW040 SCT050 BKN060 14/06 Q1024 NOSIG RMK PP000=
SPZO Feb2009-270000Z 32003KT 290V010 9999 SCT040 BKN050 14/06 Q1025 RMK PP000=
SPZO Feb2009-270100Z VRB01KT 9999 SCT040 BKN050 13/07 Q1026 RMK PP000=
SPZO Feb2009-270200Z 06002KT 9999 SCT040 BKN050 12/07 Q1027 RMK PP000=
SPZO Feb2009-270300Z 06002KT 9999 SCT040 BKN046 12/07 Q1028 RMK PP000=
SPZO Feb2009-270400Z 00000KT 9999 SCT040 BKN046 12/08 Q1028 RMK PP000=
SPZO Feb2009-270500Z 00000KT 9999 SCT040 BKN046 11/08 Q1028 RMK PP000=
SPZO Feb2009-270600Z 00000KT 9999 SCT040 BKN046 11/08 Q1028 RMK PP000=
SPZO Feb2009-270700Z 00000KT 9999 SCT040 BKN046 11/07 Q1027 RMK PP000=
SPZO Feb2009-270800Z 26004KT 9999 SCT040 BKN046 11/07 Q1027 RMK PP000=
SPZO Feb2009-270900Z 26005KT 9999 -RA SCT036 BKN043 10/07 Q1027 RMK PP002=
SPZO Feb2009-271000Z 27002KT 9999 DZ SCT036 BKN043 09/07 Q1027 RMK PP008=
SPZO Feb2009-271100Z 05003KT 9999 FEW025 SCT036 BKN046 09/07 Q1028 NOSIG RMK PP000=
SPZO Feb2009-271200Z 05005KT 8000 VCSH FEW020 SCT030 BKN040 09/07 Q1029 NOSIG RMK WIND RWY 10 10004KT PP000=
SPZO Feb2009-271300Z 04005KT 340V070 9000 FEW030 SCT040 BKN050 10/06 Q1030 RERA NOSIG RMK WIND RWY 10 10003KT 050V150 PP002=
SPZO Feb2009-271400Z 05009KT 9999 FEW040 SCT050 BKN060 12/06 Q1030 NOSIG RMK WIND RWY 10 11007KT PP000=
SPZO Feb2009-271500Z 05005KT 350V070 9999 FEW040 SCT050 BKN060 14/07 Q1030 NOSIG RMK WIND RWY 10 12005KT 010V170 PP000=
SPZO Feb2009-271600Z VRB03KT 9999 FEW040 SCT050 BKN060 16/06 Q1029 NOSIG RMK WIND RWY 10 VRB03KT PP000=
SPZO Feb2009-271700Z 06008KT 010V070 9999 VCSH FEW040 SCT050 BKN060 16/07 Q1028 NOSIG RMK WIND RWY 10 VRB03KT PP000=
SPZO Feb2009-271800Z 27006KT 9999 VCSH FEW040 SCT050 BKN060 16/08 Q1027 NOSIG RMK WIND RWY 10 27005KT PP000=
SPZO Feb2009-271900Z 01003KT 270V070 9999 VCSH FEW033 BKN043 16/08 Q1026 NOSIG RMK PP000=
SPZO Feb2009-272000Z 28003KT 240V050 9999 FEW033 SCT046 17/07 Q1025 NOSIG RMK PP000=
SPZO Feb2009-272100Z 31006KT 250V060 9999 VCSH SCT033 SCT046 17/05 Q1024 NOSIG RMK WIND RWY 10 30008KT 260V020 PP000=
SPZO Feb2009-272200Z 01008KT 330V050 9999 VCSH SCT033 SCT046 15/05 Q1024 NOSIG RMK WIND RWY 10 28004KT 220V030 TMAX 18.2 PP000=
SPZO Feb2009-272300Z 02006KT 300V070 9999 FEW033 SCT046 15/05 Q1025 NOSIG RMK PP000=
SPZO Feb2009-280000Z 00000KT 9999 SCT040 BKN046 15/04 Q1026 RMK PP000=
SPZO Feb2009-280100Z 30004KT 260V360 9999 SCT040 BKN046 13/06 Q1027 RMK PP000=
SPZO Feb2009-280200Z 05005KT 340V070 9999 SCT040 BKN046 12/06 Q1028 RMK PP000=
SPZO Feb2009-280300Z 02005KT 320V060 9999 SCT040 SCT050 12/05 Q1029 RMK PP000=
SPZO Feb2009-280400Z 04004KT 9999 SCT040 SCT050 10/05 Q1029 RMK PP000=
SPZO Feb2009-280500Z 00000KT 9999 SCTO4O SCT050 10/07 Q1029 RMK PP000=
SPZO Feb2009-280600Z 00000KT 9999 SCT040 SCT050 10/05 Q1029 RMK PP000=
SPZO Feb2009-280700Z 00000KT 9999 SCT040 SCT050 10/06 Q1029 RMK PP000=
SPZO Feb2009-280800Z 00000KT 9999 SCT040 SCT050 08/05 Q1028 RMK PP000=
SPZO Feb2009-280900Z 00000KT 9999 SCT040 SCT050 08/05 Q1028 RMK PP000=
SPZO Feb2009-281000Z 00000KT 9999 SCT040 SCT100 07/05 Q1028 RMK PP000=
SPZO Feb2009-281100Z 00000KT 9999 SCT060 SCT230 06/04 Q1029 NOSIG RMK PP000=
SPZO Feb2009-281200Z 06002KT 9999 SCT040 SCT090 BKN230 07/05 Q1030 NOSIG RMK HZ PP000=
SPZO Feb2009-281300Z 00000KT 9999 SCT040 SCT090 BKN230 09/05 Q1031 NOSIG RMK WIND RWY 10 00000KT PP000=
SPZO Feb2009-281400Z 00000KT 9999 SCT043 BKN230 13/08 Q1031 NOSIG RMK PP000=
SPZO Feb2009-281500Z 05006KT 350V070 9999 FEW033 SCT050 BKN080 15/05 Q1031 NOSIG RMK WIND RWY 10 VRB04KT PP000=
SPZO Feb2009-281600Z 05006KT 360V070 9999 FEW033 SCT050 BKN080 16/07 Q1030 NOSIG RMK WIND RWY 10 VRB03KT PP000=
SPZO Feb2009-281700Z VRB02KT 9999 FEW033 SCT050 BKN080 17/06 Q1029 NOSIG RMK WIND RWY 10 VRB06KT PP000=
SPZO Feb2009-281800Z 04003KT 270V060 9999 SCT046 BKN080 17/06 Q1028 NOSIG RMK WIND RWY10 VRB05KT PP000=
SPZO Feb2009-281900Z 28014KT 240V020 9999 SCT046 SCT100 18/07 Q1026 NOSIG RMK WIND RWY10 30010KT 240V030 PP000=
SPZO Feb2009-282000Z 27014KT 240V310 9999 FEW046TCU SCT050 BKN100 19/07 Q1025 NOSIG RMK WIND RWY10 VRB08KT PP000=
SPZO Feb2009-282100Z 02009KT 330V070 9999 FEW046TCU SCT050 18/05 Q1025 NOSIG RMK WIND RWY10 VRB09KT PP000=
SPZO Feb2009-282200Z 26012KT 9999 VCSH FEW046TCU SCT050 17/06 Q1025 NOSIG RMK WIND RWY10 31007KT T.MAX.19.2 PP000=
SPZO Feb2009-282300Z 26011KT 9999 VCSH FEW046TCU BKN050 14/07 Q1026 NOSIG RMK WIND RWY10 28008KT PP000=
