SPZO Dic2006-010000Z 27004KT 9999 FEW040 SCT200 12/06 Q1027 RMK PP000=
SPZO Dic2006-010100Z 27006KT 9999 SCT040 SCT100 13/07 Q1029 RMK PP000=
SPZO Dic2006-010200Z 27008KT 9999 SCT030 BKN040 14/07 Q1030 RMK PP000=
SPZO Dic2006-010300Z VRB02KT 9000 RA SCT030 BKN040 09/05 Q1033 RMK PP000=
SPZO Dic2006-010400Z VRB02KT 9999 -DZ FEW030 BKN040 08/05 Q1032 RMK PP094=
SPZO Dic2006-010500Z 26007KT 9999 SCT040 BKN070 08/05 Q1031 REDZ RMK PPTRZ=
SPZO Dic2006-010600Z 00000KT 9999 SCT040 BKN100 08/05 Q1031 RMK PP000=
SPZO Dic2006-010700Z 00000KT 9999 SCT050 BKN100 08/05 Q1030 RMK PP000=
SPZO Dic2006-010800Z 00000KT 9999 FEW030 SCT150 08/05 Q1029 RMK PP000=
SPZO Dic2006-010900Z 00000KT 9999 FEW040 08/05 Q1029 RMK PP000=
SPZO Dic2006-011000Z 28003KT 9999 FEW040 SCT200 06/04 Q1029 RMK PP000=
SPZO Dic2006-011100Z 00000KT 9000E FEW060 SCT150 08/05 Q1030 HZ RMK PP000=
SPZO Dic2006-011200Z 00000KT 8000 FEW050 SCT100 10/06 Q1031 BECMG 9999 RMK HZ/FU WIND RWY10 00000KT PP000=
SPZO Dic2006-011300Z 00000KT 9999 FEW050 SCT100 12/06 Q1031 NOSIG RMK=
SPZO Dic2006-011400Z 00000KT 9999 FEW050 14/06 Q1031 NOSIG RMK WIND RWY10 00000KT PP000=
SPZO Dic2006-011500Z VRB03KT 9999 SCT050 16/06 Q1030 NOSIG RMK WIND RWY10 VRB04KT PP000=
SPZO Dic2006-011600Z VRB03KT 9999 SCT050 18/06 Q1029 NOSIG RMK WIND RWY10 VRB04KT PP000=
SPZO Dic2006-011700Z VRB04KT 9999 SCT050 20/06 Q1028 NOSIG RMK WIND RWY10 VRB04KT PP000=
SPZO Dic2006-011800Z VRB03KT 9999 SCT050 20/04 Q1027 NOSIG RMK PP000=
SPZO Dic2006-011900Z VRB06KT 9999 SCT050 21/06 Q1025 NOSIG RMK WIND RWY10 28013KT 250V350 PP000=
SPZO Dic2006-012000Z 29007KT 250V350 9999 SCT050 20/03 Q1024 NOSIG RMK PP000=
SPZO Dic2006-012100Z 28009KT 250V350 9999 FEW050 21/03 Q1023 NOSIG RMK PP000=
SPZO Dic2006-012200Z 29009KT 260V350 9999 FEW050 21/03 Q1023 NOSIG RMK T.MAX 22.0 PP000=
SPZO Dic2006-012300Z 28009KT 260V350 9999 FEW050 18/02 Q1023 NOSIG RMK PP000=
SPZO Dic2006-020000Z 29004KT 270V350 9999 SKC 16/02 Q1025 RMK PP000=
SPZO Dic2006-020100Z 08007KT 9999 SKC 15/06 Q1026 RMK PP000=
SPZO Dic2006-020200Z VRB03KT 9999 SKC 13/07 Q1028 RMK PP000=
SPZO Dic2006-020300Z 00000KT 9999 SKC 13/07 Q1028 RMK PP000=
SPZO Dic2006-020400Z 27003KT 9999 FEW060 12/07 Q1029 RMK PP000=
SPZO Dic2006-020500Z 00000KT 9999 SCT060 13/08 Q1028 RMK PP000=
SPZO Dic2006-020600Z 00000KT 9999 BKN060 13/08 Q1028 RMK PP000=
SPZO Dic2006-020700Z 00000KT 9999 BKN060 12/08 Q1027 RMK PP000=
SPZO Dic2006-020800Z 28003KT 9999 BKN060 10/07 Q1027 RMK PP000=
SPZO Dic2006-020900Z 08003KT 9999 BKN060 10/07 Q1027 RMK PP000=
SPZO Dic2006-021000Z VRB02KT 9999 BKN060 09/07 Q1028 RMK PP000=
SPZO Dic2006-021100Z 00000KT 9999 SCT060 SCT100 11/07 Q1029 RMK WIND RWY10 00000KT PP000=
SPZO Dic2006-021200Z 00000KT 9999 FEW050 SCT230 11/07 Q1030 NOSIG RMK PP000=
SPZO Dic2006-021300Z 00000KT 9999 FEW040 SCT230 13/07 Q1030 NOSIG RMK PP000=
SPZO Dic2006-021400Z 00000KT 9999 SCT043 BKN230 16/07 Q1030 NOSIG RMK PP000=
SPZO Dic2006-021500Z VRB03KT 9999 FEW043 BKN230 18/06 Q1029 NOSIG RMK PP000=
SPZO Dic2006-021600Z VRB03KT 9999 FEW043 BKN230 18/03 Q1029 NOSIG RMK PP000=
SPZO Dic2006-021700Z VRB04KT 9999 FEW046 BKN230 20/02 Q1028 NOSIG RMK PP000=
SPZO Dic2006-021800Z VRB02KT 9999 SCT050 SCT230 22/03 Q1026 NOSIG RMK=
SPZO Dic2006-021900Z VRB05G11KT 9999 SCT050 SCT230 23/01 Q1024 NOSIG RMK WIND RWY10 VRB05G13KT PP000=
SPZO Dic2006-022000Z 29008KT 250V350 9999 SCT046 BKN100 22/04 Q1023 NOSIG RMK RWY10 32012KT 230V020 PP000=
SPZO Dic2006-022100Z 01009KT 9999 FEW046TCU SCT050 BKN100 21/05 Q1023 TEMPO VCSH RMK WIND RWY10 VRB16KT PP000=
SPZO Dic2006-022200Z 01008KT 350V080 9999 FEW046 SCT100 19/06 Q1023 NOSIG RMK WIND RWY10 VRB12KT T.MAX.23.6 PP000=
SPZO Dic2006-022300Z 09007KT 9999 FEW100 18/07 Q1024 NOSIG RMK WIND RWY10 VRB16KT PP000=
SPZO Dic2006-030000Z VRB04KT 9999 FEW050 17/07 Q1025 RMK PP000=
SPZO Dic2006-030100Z VRB01KT 9999 FEW050 16/07 Q1026 RMK PP000=
SPZO Dic2006-030200Z 00000KT 9999 SKC 14/07 Q1027 RMK PP000=
SPZO Dic2006-030300Z 26003KT 9999 SKC 12/07 Q1028 RMK PP000=
SPZO Dic2006-030400Z 28002KT 9999 SCT050 11/07 Q1029 RMK PP000=
SPZO Dic2006-030500Z 27002KT 9999 SCT050 SCT080 12/07 Q1028 RMK PP000=
SPZO Dic2006-030600Z 00000KT 9999 SCT050 12/07 Q1028 RMK PP000=
SPZO Dic2006-030700Z 00000KT 9999 FEW043 SCT050 12/08 Q1027 RMK PP000=
SPZO Dic2006-030800Z 00000KT 9999 SCT043 SCT080 11/07 Q1027 RMK PP000=
SPZO Dic2006-030900Z 00000KT 9999 SCT040 SCT080 10/07 Q1027 RMK PP000=
SPZO Dic2006-031000Z VRB02KT 9999 SCT040 SCT200 10/07 Q1027 RMK PP000=
SPZO Dic2006-031100Z 00000KT 9999 FEW050 SCT230 09/07 Q1028 RMK PP000=
SPZO Dic2006-031200Z 09002KT 070V170 9999 FEW036 BKN100 11/08 Q1029 NOSIG RMK WIND RWY10 17006KT PP000=
SPZO Dic2006-031300Z 00000KT 9999 FEW036 BKN100 14/08 Q1029 NOSIG RMK PP000=
SPZO Dic2006-031400Z 00000KT 9999 FEW040 BKN100 15/07 Q1029 NOSIG RMK PP000=
SPZO Dic2006-031500Z 00000KT 9999 FEW040 BKN100 18/07 Q1029 NOSIG RMK=
SPZO Dic2006-031600Z 08004KT 010V110 9999 FEW040 BKN100 19/08 Q1028 NOSIG RMK WIND RWY10 VRB05KT PP000=
SPZO Dic2006-031700Z 10007KT 090V180 9999 FEW043 BKN100 18/06 Q1027 NOSIG RMK WIND RWY10 VRB08KT PP000=
SPZO Dic2006-031800Z 10007KT 070V170 9999 FEW047 OVC100 18/05 Q1026 NOSIG RMK RWY10 09010KT 030V150 PP000=
SPZO Dic2006-031900Z 11008KT 070V170 9999 FEW047 OVC100 18/04 Q1025 NOSIG RMK RWY10 11012KT 060V150 PP000=
SPZO Dic2006-032000Z 11009KT 9999 FEW050 SCT100 BKN200 18/05 Q1024 NOSIG RMK RWY10 10012KT 050V140 PP000=
SPZO Dic2006-032100Z 10007KT 090V170 9999 FEW050 SCT150 BKN200 18/04 Q1024 NOSIG RMK RWY10 VRB11KT PP000=
SPZO Dic2006-032200Z 10009KT 9999 FEW050 SCT150 BKN200 17/06 Q1024 NOSIG RMK RWY10 10017KT TMAX 18.8 PP000=
SPZO Dic2006-032300Z VRB06KT 9999 FEW050 OVC200 16/06 Q1025 NOSIG RMK PP000=
SPZO Dic2006-040000Z 10004KT 080V180 9999 FEW050 BKN120 15/05 Q1026 RMK PP000=
SPZO Dic2006-040100Z 00000KT 9999 FEW050 BKN120 13/05 Q1027 RMK PP000=
SPZO Dic2006-040200Z 00000KT 9999 FEW050 SCT120 13/06 Q1028 RMK PP000=
SPZO Dic2006-040300Z 00000KT 9999 FEW050 SCT120 11/06 Q1028 RMK PP000=
SPZO Dic2006-040400Z 00000KT 9999 FEW050 SCT100 11/06 Q1029 RMK PP000=
SPZO Dic2006-040500Z 00000KT 9999 FEW050 BKN100 10/06 Q1028 RMK PP000=
SPZO Dic2006-040600Z 00000KT 9999 FEW050 BKN100 10/06 Q1028 RMK PP000=
SPZO Dic2006-040700Z 00000KT 9999 FEW050 BKN100 10/06 Q1028 RMK PP000=
SPZO Dic2006-040800Z 00000KT 9999 FEW050 BKN100 09/06 Q1028 RMK PP000=
SPZO Dic2006-040900Z 00000KT 9999 FEW050 BKN100 09/05 Q1028 RMK PP000=
SPZO Dic2006-041000Z 00000KT 9999 FEW050 SCT100 08/05 Q1028 RMK PP000=
SPZO Dic2006-041100Z 00000KT 9999 FEW050 SCT100 08/05 Q1029 RMK PP000=
SPZO Dic2006-041200Z VRB02KT 9000E FEW050 SCT100 12/06 Q1029 HZ/FU BECMG=
SPZO Dic2006-041300Z 00000KT 9999 FEW043 SCT100 BKN200 15/07 Q1030 NOSIG RMK RWY10 VRB03KT PP000=
SPZO Dic2006-041400Z 00000KT 9999 FEW043 SCT130 BKN200 16/05 Q1029 NOSIG RMK RWY10 VRB05KT PP000=
SPZO Dic2006-041500Z 00000KT 9999 SCT047 OVC200 17/05 Q1029 NOSIG RMK RWY10 VRB03KT PP000=
SPZO Dic2006-041600Z 23004KT 160V280 9999 SCT050 OVC200 18/07 Q1028 NOSIG RMK RWY10 29011KT 240V030 PP000=
SPZO Dic2006-041700Z 35006KT 280V080 9999 SCT050 OVC200 19/06 Q1028 NOSIG RMK RWY10 31010KT 240V020 PP000=
SPZO Dic2006-041800Z 27009KT 180V290 9999 SCT050 BKN200 20/06 Q1027 NOSIG RMK PP000=
SPZO Dic2006-041900Z VRB06KT 9999 SCT046 SCT200 21/04 Q1025 NOSIG RMK PP000=
SPZO Dic2006-042000Z 10023G33KT 080V180 9999 VCSH FEW040TCU SCT046 BKN050 14/06 Q1026 RESHRA TEMPO FM2030 10012KT RMK WIND RWY10 10043G59KT 070V140 PP010=
SPZO Dic2006-042100Z VRB06KT 9999 FEW043TCU SCT046 BKN070 13/06 Q1026 NOSIG RMK PPTRZ=
SPZO Dic2006-042200Z VRB02KT 9999 FEW043 SCT050 BKN080 13/07 Q1025 NOSIG RMK T.MAX 21.4 PP000=
SPZO Dic2006-042300Z 10003KT 9999 SCT043 BKN080 13/06 Q1026 NOSIG RMK PP000=
SPZO Dic2006-050000Z 28006KT 9999 SCT040 BKN080 12/07 Q1028 RMK PP000=
SPZO Dic2006-050100Z 10004KT 9999 SCT040 BKN070 13/07 Q1029 RMK PP000=
SPZO Dic2006-050200Z VRB02KT 9000 RA SCT033 BKN050 11/08 Q1031 RMK PP010=
SPZO Dic2006-050300Z 33005KT 9999 SCT033 BKN047 11/06 Q1031 RERA RMK PP002=
SPZO Dic2006-050400Z 28013KT 9999 FEW030 SCT070 BKN200 10/06 Q1030 RMK PP000=
SPZO Dic2006-050500Z 29005KT 9999 FEW030 SCT150 09/06 Q1030 RMK PP000=
SPZO Dic2006-050600Z 00000KT 9999 FEW033 SCT150 08/05 Q1030 RMK PP000=
SPZO Dic2006-050700Z 10003KT 9999 FEW040 SCT200 07/05 Q1029 RMK PP0000=
SPZO Dic2006-050800Z 00000KT 9999 SCT040 SCT100 07/05 Q1029 RMK PP000=
SPZO Dic2006-050900Z 00000KT 9999 SCT040 SCT150 07/05 Q1029 RMK PP000=
SPZO Dic2006-051000Z 27003KT 9999 SCT043 SCT080 07/05 Q1029 RMK PP000=
SPZO Dic2006-051100Z 00000KT 9999 SCT050 SCT080 07/05 Q1030 RMK PP000=
SPZO Dic2006-051200Z 00000KT 9999 FEW040 SCT230 09/06 Q1031 NOSIG RMK PP000=
SPZO Dic2006-051300Z 00000KT 9999 FEW036 SCT230 12/06 Q1031 NOSIG RMK PP000=
SPZO Dic2006-051400Z 00000KT 9999 FEW040 SCT230 15/06 Q1031 NOSIG RMK PP000=
SPZO Dic2006-051500Z 00000KT 9999 FEW046 SCT230 17/05 Q1030 NOSIG RMK PP000=
SPZO Dic2006-051600Z VRB04KT 9999 SCT050 SCT230 18/04 Q1029 NOSIG RMK=
SPZO Dic2006-051700Z VRB06KT 9999 SCT050 SCT200 20/05 Q1028 NOSIG RMK=
SPZO Dic2006-051800Z 02010KT 340V080 9999 FEW040TCU SCT050 19/05 Q1027 NOSIG RMK PP000=
SPZO Dic2006-051900Z 01012KT 340V080 9999 FEW040TCU SCT046 BKN080 20/04 Q1026 NOSIG RMK PP000=
SPZO Dic2006-052000Z 36010KT 330V080 9999 VCSH SCT043CB FEW046TCU BKN080 19/04 Q1025 TEMPO -SHRA RMK WIND RWY10 VRB15G25KT PP000=
SPZO Dic2006-052100Z 28011KT 9999 RA BKN040TCU SCT046 13/09 Q1026 TEMPO FM2140 NSW RMK PP016=
SPZO Dic2006-052200Z 10006KT 080V180 9999 SCT050 BKN100 14/08 Q1026 NOSIG RMK T.MAX 21.2 PP004=
SPZO Dic2006-052300Z 26005KT 9999 SCT050 BKN100 14/08 Q1026 NOSIG RMK PP000=
SPZO Dic2006-060000Z 27004KT 9999 SCT050 BKN150 13/09 Q1027 RMK PP000=
SPZO Dic2006-060100Z 00000KT 9999 FEW100 SCT200 12/08 Q1028 RMK PP000=
SPZO Dic2006-060200Z 00000KT 9999 FEW100 BKN200 12/09 Q1029 RMK PP000=
SPZO Dic2006-060300Z 00000KT 9999 FEW050 SCT200 11/08 Q1030 RMK PP000=
SPZO Dic2006-060400Z 00000KT 9999 SCT040 SCT070 11/08 Q1030 RMK PP000=
SPZO Dic2006-060500Z VRB02KT 9999 SCT040 SCT060 11/08 Q1030 RMK PP000=
SPZO Dic2006-060600Z 00000KT 9999 SCT040 BKN050 11/07 Q1030 RMK PP000=
SPZO Dic2006-060700Z 00000KT 9999 FEW050 10/07 Q1029 RMK PP000=
SPZO Dic2006-060800Z VRB02KT 9999 FEW100 08/05 Q1029 RMK PP000=
SPZO Dic2006-060900Z 00000KT 9999 FEW150 07/05 Q1029 RMK PP000=
SPZO Dic2006-061000Z 00000KT 9999 FEW040 08/05 Q1029 RMK PP000=
SPZO Dic2006-061100Z 00000KT 9999 FEW040 SCT100 08/06 Q1030 RMK PP000=
SPZO Dic2006-061200Z 00000KT 9999 FEW043 SCT100 11/07 Q1031 NOSIG RMK PP000=
SPZO Dic2006-061300Z 10003KT 9999 SCT043 14/07 Q1031 NOSIG RMK PP000=
SPZO Dic2006-061400Z VRB03KT 9999 SCT043 SCT230 16/07 Q1031 NOSIG RMK PP000=
SPZO Dic2006-061500Z 11004KT 080V180 9999 SCT043 SCT080 17/06 Q1031 NOSIG RMK PP000=
SPZO Dic2006-061600Z VRB06KT 9999 FEW040 SCT046 BKN080 18/06 Q1030 NOSIG RMK PP000=
SPZO Dic2006-061700Z VRB06KT 9999 SCT043 SCT100 20/04 Q1029 NOSIG RMK PP000=
SPZO Dic2006-061800Z VRB03KT 9999 SCT050 SCT100 21/09 Q1027 NOSIG RMK=
SPZO Dic2006-061900Z 32005KT 250V360 9999 FEW046TCU SCT050 SCT100 21/06 Q1025 TEMPO VCSH RMK WIND RWY10 29009KT 250V340 PP000=
SPZO Dic2006-062000Z 02007KT 340V080 9999 FEW043TCU SCT050 21/05 Q1024 TEMPO VCSH RMK WIND RWY10 33014G25KT 250V040 PP000=
SPZO Dic2006-062100Z 01009G20KT 340V080 9999 SCT043TCU SCT050 19/07 Q1024 TEMPO VCSH RMK RWY10 VRB15G26KT PP000=
SPZO Dic2006-062200Z 24006KT 160V280 9999 SCT046 SCT060 17/07 Q1025 NOSIG RMK WIND RWY10 VRB03KT RA BTN 2145/2150 T.MAX.22.2 PP002=
SPZO Dic2006-062300Z 05006KT 340V090 9999 SCT043 SCT050 17/05 Q1026 NOSIG RMK WIND RWY10 VRB12KT PP000=
SPZO Dic2006-070000Z 16004KT 090V190 9999 SCT040TCU BKN046 16/05 Q1027 RMK PP000=
SPZO Dic2006-070100Z VRB02KT 9999 SCT043 SCT050 15/07 Q1029 RMK PP000=
SPZO Dic2006-070200Z VRB04KT 9999 BKN040 SCT046 14/06 Q1030 RMK PP000=
SPZO Dic2006-070300Z 28009KT 9999 -RA BKN040 SCT046 12/07 Q1032 RMK PPTRZ=
SPZO Dic2006-070400Z 27002KT 9999 -RA OVC040 11/07 Q1032 RMK PP002=
SPZO Dic2006-070500Z 00000KT 9999 -RA FEW033 OVC040 10/07 Q1031 RMK PP002=
SPZO Dic2006-070600Z 00000KT 9999 SCT033 BKN040 10/06 Q1031 RMK PP000=
SPZO Dic2006-070700Z VRB02KT 9999 SCT036 BKN043 10/06 Q1030 RMK PP000=
SPZO Dic2006-070800Z 00000KT 9999 SCT036 BKN046 10/05 Q1030 RMK PP000=
SPZO Dic2006-070900Z 00000KT 9999 DZ SCT033 BKN040 09/04 Q1939 RMK PP002=
SPZO Dic2006-071000Z 00000KT 9000 -RA FEW030 SCT040 BKN043 08/04 Q1030 RMK PP004=
SPZO Dic2006-071100Z 00000KT 9000 -RA FEW030 SCT036 BKN046 08/05 Q1031 RMK CLNG BLW 1200M PP012=
SPZO Dic2006-071200Z 00000KT 9000 -RA FEW030 SCT036 BKN046 08/06 Q1032 BECMG FM13 NSW RMK PP016=
SPZO Dic2006-071300Z 00000KT 9999 VCSH FEW025 SCT040 BKN046 09/06 Q1032 NOSIG RMK PP004=
SPZO Dic2006-071400Z VRB02KT 9999 FEW030 SCT043 BKN050 13/06 Q1032 NOSIG RMK PP000=
SPZO Dic2006-071500Z VRB02KT 9999 FEW033 BKN050 14/06 Q1031 NOSIG RMK=
SPZO Dic2006-071600Z 26004KT 180V280 9999 FEW036 BKN050 15/05 Q1030 NOSIG RMK WIND RWY10 VRB03KT PP000=
SPZO Dic2006-071700Z 28007KT 270V350 9999 SCT040 BKN050 16/08 Q1029 NOSIG RMK WIND RWY10 VRB08G18KT PP000=
SPZO Dic2006-071800Z 28014KT 260V350 9999 FEW040TCU SCT047 BKN070 17/05 Q1028 NOSIG RMK RWY10 28020KT 240V330 PP000=
SPZO Dic2006-071900Z 27014KT 190V350 9999 SCT040TCU SCT060 18/06 Q1026 NOSIG RMK RWY10 28020G32KT 230V330 PP000=
SPZO Dic2006-072000Z 28010KT 250V350 9999 VCSH FEW040TCU SCT050 BKN080 19/06 Q1025 NOSIG RMK RWY10 28017G30KT 220V350 PP000=
SPZO Dic2006-072100Z 28011KT 250V350 9999 FEW040TCU SCT050 BKN080 19/06 Q1025 NOSIG RMK RWY10 2917G29KT 250V360 PP000=
SPZO Dic2006-072200Z 08007KT 360V110 9999 VCSH FEW040TCU SCT050 BKN100 16/07 Q1025 NOSIG RMK TMAX 20.2 PP000=
SPZO Dic2006-072300Z 10010KT 9000 -RA SCT040TCU BKN050 14/07 Q1027 NOSIG RMK PPTRZ=
SPZO Dic2006-080000Z VRB03KT 8000 -RA FEW030 BKN040 11/05 Q1030 RMK PP016=
SPZO Dic2006-080100Z 00000KT 8000 RA FEW030 BKN040 10/07 Q1030 RMK PP018=
SPZO Dic2006-080200Z 28002KT 8000 -RA SCT030 BKN040 10/07 Q1031 RMK PP014=
SPZO Dic2006-080300Z 00000KT 8000 -RA SCT030 BKN040 10/07 Q1031 RMK PP012=
SPZO Dic2006-080400Z 00000KT 8000 -RA SCT030 BKN040 09/07 Q1031 RMK PP026=
SPZO Dic2006-080500Z 00000KT 8000 FEW030 BKN040 10/06 Q1030 RMK PP002=
SPZO Dic2006-080600Z 28006KT 270V360 9000 FEW033 BKN043 10/07 Q1029 RMK PP000=
SPZO Dic2006-080700Z 28005KT 270V360 9999 FEW033 BKN046 10/06 Q1028 RMK PP000=
SPZO Dic2006-080800Z 00000KT 9999 FEW033 BKN046 10/06 Q1028 RMK PP000=
SPZO Dic2006-080900Z 00000KT 9999 FEW033 SCT100 09/06 Q1027 RMK PP000=
SPZO Dic2006-081000Z 00000KT 9999 FEW036 SCT100 08/06 Q1028 RMK PP000=
SPZO Dic2006-081100Z 00000KT 9999 FEW036 SCT100 SCT200 08/06 Q1028 RMK PP000=
SPZO Dic2006-081200Z 00000KT 9000 FEW030 BKN100 10/07 Q1029 HZ BECMG=
SPZO Dic2006-081300Z 00000KT 9999 FEW030 SCT130 BKN200 12/06 Q1030 NOSIG RMK RWY10 00000KT PP000=
SPZO Dic2006-081400Z 00000KT 9999 FEW040 SCT150 BKN200 14/08 Q1030 NOSIG RMK RWY10 00000KT PP000=
SPZO Dic2006-081500Z VRB04KT 9999 FEW040 SCT130 BKN200 14/07 Q1029 NOSIG RMK RWY10 VRB04KT PP000=
SPZO Dic2006-081600Z VRB03KT 9999 SCT040 SCT100 BKN200 17/07 Q1029 NOSIG RMK RWY10 00000KT PP000=
SPZO Dic2006-081700Z VRB04KT 9999 SCT047 SCT130 SCT200 17/07 Q1028 NOSIG RMK RWY10 24011KT 160V290 PP000=
SPZO Dic2006-081800Z VRB02KT 9999 SCT046 SCT100 BKN200 19/07 Q1027 NOSIG RMK PP000=
SPZO Dic2006-081900Z VRB02KT 9999 SCT050 BKN230 19/04 Q1025 NOSIG RMK PP000=
SPZO Dic2006-082000Z 00000KT 9999 SCT050 BKN230 21/03 Q1024 NOSIG RMK PP000=
SPZO Dic2006-082100Z VRB03KT 9999 SCT050 SCT230 21/04 Q1023 NOSIG RMK PP000=
SPZO Dic2006-082200Z VRB08KT 9999 SCT050 SCT230 19/06 Q1023 NOSIG RMK T.MAX 22.1 PP000=
SPZO Dic2006-082300Z 35007KT 270V020 9999 SCT050 BKN230 17/07 Q1024 NOSIG RMK PP000=
SPZO Dic2006-090000Z 36007KT 9999 SCT040 BKN200 15/07 Q1026 RMK PP000=
SPZO Dic2006-090100Z VRB03KT 9999 SCT040 SCT200 14/07 Q1027 RMK PP000=
SPZO Dic2006-090200Z 10003KT 9999 SCT040 SCT100 13/07 Q1028 RMK PP000=
SPZO Dic2006-090300Z 09005KT 9999 BKN040 SCT080 11/04 Q1029 RMK PP000=
SPZO Dic2006-090400Z 10008KT 9999 SCT037 BKN047 11/05 Q1030 RMK PP000=
SPZO Dic2006-090500Z 00000KT 9999 SCT037 SCT047 11/05 Q10029 RMK PP000=
SPZO Dic2006-090600Z 27004KT 9999 SCT037 SCT050 09/05 Q1029 RMK PP000=
SPZO Dic2006-090700Z 00000KT 9999 FEW037 BKN060 09/05 Q1028 RMK PP000=
SPZO Dic2006-090800Z 09003KT 9999 SCT040 09/06 Q1028 RMK PP000=
SPZO Dic2006-090900Z 00000KT 9999 FEW040 SCT070 09/05 Q1028 RMK PP000=
SPZO Dic2006-091000Z 00000KT 9999 SCT040 SCT050 09/05 Q1029 RMK PP000=
SPZO Dic2006-091100Z 00000KT 9999 SCT040 SCT047 09/05 Q1030 RMK PP000=
SPZO Dic2006-091200Z 00000KT 9999 FEW040 BKN100 11/05 Q1030 NOSIG RMK PP000=
SPZO Dic2006-091300Z 00000KT 9999 FEW040 SCT200 15/07 Q1030 NOSIG RMK PP000=
SPZO Dic2006-091400Z 00000KT 9999 SCT040 17/06 Q1030 NOSIG RMK PP000=
SPZO Dic2006-091500Z VRB03KT 9999 SCT050 18/06 Q1030 NOSIG RMK WIND RWY10 VRB07KT PP000=
SPZO Dic2006-091600Z 25004KT 180V270 9999 SCT050 19/05 Q1029 NOSIG RMK=
SPZO Dic2006-091700Z 23007KT 180V270 9999 SCT050 20/05 Q1028 NOSIG RMK=
SPZO Dic2006-091800Z 19010KT 180V270 9999 FEW040 SCT050 22/05 Q1026 NOSIG RMK WIND RWY10 28012KT PP000=
SPZO Dic2006-091900Z 01011KT 270V080 9999 FEW040TCU SCT050 21/04 Q1025 TEMPO VCSH RMK PP000=
SPZO Dic2006-092000Z 02015G26KT 340V080 9999 VCSH SCT043CB BKN046 17/05 Q1025 TEMPO -SHRA RMK WIND RWY10 VRB19G34KT PP000=
SPZO Dic2006-092100Z 12011KT 080V180 9999 FEW043CB SCT046 BKN230 18/06 Q1025 NOSIG RMK PP000=
SPZO Dic2006-092200Z 10012KT 9999 FEW050 SCT230 17/05 Q1024 NOSIG RMK T.MAX 22.9 PP000=
SPZO Dic2006-092300Z 09007KT 9999 FEW230 15/05 Q1025 NOSIG RMK PP000=
SPZO Dic2006-100000Z 10004KT 9999 SKC 14/05 Q1026 RMK PP000=
SPZO Dic2006-100100Z 00000KT 9999 SKC 13/05 Q1027 RMK PP000=
SPZO Dic2006-100200Z 00000KT 9999 SCT040 11/05 Q1029 RMK PP000=
SPZO Dic2006-100300Z VRB02KT 9999 FEW040 SCT050 12/06 Q1029 RMK PP000=
SPZO Dic2006-100400Z 00000KT 9999 SCT040 SCT050 12/07 Q1029 RMK PP000=
SPZO Dic2006-100500Z 15004KT 9999 -RA FEW030 BKN040 11/08 Q1030 RMK PP004=
SPZO Dic2006-100600Z 10003KT 9999 -RA SCT030 BKN040 10/07 Q1029 RMK PP008=
SPZO Dic2006-100700Z 10003KT 9999 -RA FEW025 SCT033 BKN040 09/07 Q1029 RMK PP014=
SPZO Dic2006-100800Z 00000KT 9999 -RA FEW030 BKN040 10/07 Q1029 PPTRZ=
SPZO Dic2006-100900Z 24004KT 9000 RA SCT025 SCT033 BKN047 09/07 Q1029 RMK PP012 CEILING BELOW 1200M=
SPZO Dic2006-101000Z 26003KT 9999 -DZ FEW025 SCT037 BKN047 09/07 Q1029 RMK PP006=
SPZO Dic2006-101100Z 00000KT 9999 FEW025 SCT040 BKN080 09/06 Q1030 RMK PP000=
SPZO Dic2006-101200Z 00000KT 9999 FEW025 SCT040 BKN080 10/07 Q1031 NOSIG RMK PP000=
SPZO Dic2006-101300Z 00000KT 9999 FEW025 SCT046 BKN080 11/07 Q1032 NOSIG RMK PP000=
SPZO Dic2006-101400Z 00000KT 9999 FEW030 SCT046 BKN100 13/07 Q1032 NOSIG RMK PP000=
SPZO Dic2006-101500Z VRB02KT 9999 FEW036 SCT046 BKN100 15/06 Q1031 NOSIG RMK PP000=
SPZO Dic2006-101600Z VRB02KT 9999 SCT043 BKN100 16/05 Q1030 NOSIG RMK PP000=
SPZO Dic2006-101700Z VRB05KT 9999 SCT046 OVC150 17/07 Q1029 NOSIG RMK PP000=
SPZO Dic2006-101800Z 01007KT 340V080 8000 -RA VCSH SCT043TCU SCT050 BKN100 14/07 Q1029 TEMPO FM1830 9999 NSW RMK PP004=
SPZO Dic2006-101900Z VRB05KT 9999 VCSH SCT043 BKN060 15/07 Q1029 RERA NOSIG RMK WIND RWY10 19007KT PP002=
SPZO Dic2006-102000Z 30007KT 250V360 9999 RA SCT043 BKN060 14/06 Q1029 NOSIG RMK WIND RWY10 28014KT PPTRZ=
SPZO Dic2006-102100Z 09008KT 070V170 6000 RA FEW020 SCT040 BKN050 10/07 Q1030 BECMG FM2130 8000 RMK WIND RWY10 09016KT PP024=
SPZO Dic2006-102200Z 11007KT 090V180 9999 VCSH FEW030 SCT040 BKN046 10/07 Q1029 RERA NOSIG RMK WIND RWY10 VRB10KT T.MAX.17.3 PP012=
SPZO Dic2006-102300Z 10009KT 070V180 9999 VCSH FEW025 SCT040 BKN046 10/06 Q1029 NOSIG RMK WIND RWY10 10014KT PP000=
SPZO Dic2006-110000Z VRB01KT 9999 SCT036 BKN046 09/06 Q1030 RMK PP000=
SPZO Dic2006-110100Z 00000KT 9999 BKN040 SCT100 10/06 Q1031 RMK PP000=
SPZO Dic2006-110200Z 08003KT 9999 SCT040 SCT100 10/07 Q1031 RMK PP000=
SPZO Dic2006-110300Z 00000KT 9999 SCT040 SCT100 10/06 Q1031 RMK PP000=
SPZO Dic2006-110400Z 10005KT 9999 SCT036 SCT080 09/07 Q1032 RMK PP000=
SPZO Dic2006-110500Z 00000KT 9999 BKN040 SCT070 08/06 Q1031 RMK PP000=
SPZO Dic2006-110600Z 00000KT 9999 BKN040 SCT050 07/06 Q1030 RMK PP000=
SPZO Dic2006-110700Z 00000KT 9999 BKN040 SCT046 08/06 Q1030 RMK PP000=
SPZO Dic2006-110800Z 00000KT 9999 BKN040 SCT200 07/06 Q1030 RMK PP000=
SPZO Dic2006-110900Z 00000KT 9999 BKN040 SCT200 07/05 Q1030 RMK PP000=
SPZO Dic2006-111000Z 00000KT 9999 FEW030 SCT200 06/05 Q1030 RMK PP000=
SPZO Dic2006-111100Z 00000KT 9000 FEW050 06/04 Q1031 RMK PP000=
SPZO Dic2006-111200Z 03002KT 340V090 9999 FEW043 09/06 Q1032 BECMG FM13 9999 RMK PP000=
SPZO Dic2006-111300Z VRB02KT 9999 FEW036 12/06 Q1032 NOSIG RMK WIND RWY10 VRB04KT PP000=
SPZO Dic2006-111400Z VRBO2KT 9999 FEW040 14/07 Q1032 NOSIG RMK WIND RWY10 VRB04KT PP000=
SPZO Dic2006-111500Z 00000KT 9999 SCT046 16/07 Q1032 NOSIG RMK WIND RWY10 VRB05KT PP000=
SPZO Dic2006-111600Z VRB06KT 9999 SCT046 SCT060 18/07 Q1031 NOSIG RMK=
SPZO Dic2006-111700Z VRB04KT 9999 SCT046 SCT060 18/07 Q1030 NOSIG RMK=
SPZO Dic2006-111800Z 01012KT 340V080 9999 VCSH SCT040TCU SCT050 18/06 Q1029 NOSIG RMK RWY10 36016KT 260V070 PP000=
SPZO Dic2006-111900Z 01008KT 340V080 9999 FEW040TCU SCT050 18/05 Q1027 NOSIG RMK RWY10 34011KT 280V070 PP000=
SPZO Dic2006-112000Z VRB06KT 9999 VCSH SCT040TCU SCT050 18/06 Q1027 NOSIG RMK RWY10 28014KT 220V320 PP000=
SPZO Dic2006-112100Z VRB06KT 8000E TS VCSH FEW037CB SCT043TCU BKN050 13/08 Q1028 TEMPO RA RMK RWY10 VRB08KT PP100=                
SPZO Dic2006-112200Z 11007KT 090V170 9999 VCSH FEW033TCU SCT043 BKN100 12/08 Q1029 NOSIG RMK RWY10 12014KT 090V160 TMAX 20.3 PP002=
SPZO Dic2006-112300Z 09003KT 9999 SCT050 SCT070 12/09 Q1029 NOSIG RMK PP000=
SPZO Dic2006-120000Z 00000KT 9999 FEW033 SCT040 BKN060 12/08 Q1030 RMK PP000=
SPZO Dic2006-120100Z 07003KT 360V090 9999 FEW036 BKN050 11/03 Q1031 RMK PP000=
SPZO Dic2006-120200Z 00000KT 9999 FEW036 SCT050 11/08 Q1031 RMK PP000=
SPZO Dic2006-120300Z 00000KT 9999 FEW036 SCT050 11/08 Q1032 RMK PP000=
SPZO Dic2006-120400Z 00000KT 9999 FEW036 SCT050 11/08 Q1032 RMK PP000=
SPZO Dic2006-120500Z 10005KT 9999 FEW036 SCT050 11/07 Q1032 RMK PP000=
SPZO Dic2006-120600Z 09002KT 9999 FEW036 SCT050 10/07 Q1031 RMK PP000=
SPZO Dic2006-120700Z 00000KT 9999 FEW036 SCT050 10/07 Q1030 RMK PP000=
SPZO Dic2006-120800Z 00000KT 9999 FEW036 SCT050 09/07 Q1030 RMK PP000=
SPZO Dic2006-120900Z 00000KT 9999 FEW036 SCT050 08/06 Q1029 RMK PP000=
SPZO Dic2006-121000Z 00000KT 9999 FEW036 SCT046 08/06 Q1030 RMK PP000=
SPZO Dic2006-121100Z 00000KT 9999 FEW036 BKN046 08/06 Q1031 RMK PP000=
SPZO Dic2006-121200Z 00000KT 9999 FEW030 SCT090 BKN200 09/06 Q1032 NOSIG RMK RWY10 00000KT PP000=
SPZO Dic2006-121300Z 00000KT 9999 FEW033 BKN200 12/07 Q1033 NOSIG RMK RWY10 00000KT PP000=
SPZO Dic2006-121400Z 00000KT 9999 SCT037 BKN200 14/06 Q1032 NOSIG RMK RWY10 VRB08KT PP000=
SPZO Dic2006-121500Z VRB02KT 9999 SCT040 BKN053 15/06 Q1032 NOSIG RMK RWY10 VRB05KT PP000=
SPZO Dic2006-121600Z 00000KT 9999 SCT043 BKN200 17/06 Q1031 NOSIG RMK RWY10 PP000=
SPZO Dic2006-121700Z VRB10KT 9999 SCT047 SCT070 19/05 Q1030 NOSIG RMK RWY10 VRB05KT PP000=
SPZO Dic2006-121800Z VRB03KT 9999 SCT046 20/03 Q1029 NOSIG RMK PP000=
SPZO Dic2006-121900Z VRB04KT 9999 FEW040 SCT050 21/02 Q1027 NOSIG RMK PP000=
SPZO Dic2006-122000Z 36008KT 340V080 9999 SCT046 21/06 Q1026 NOSIG RMK PP000=
SPZO Dic2006-122100Z 01010KT 340V080 9999 VCSH FEW040TCU SCT046 19/05 Q1025 NOSIG RMK PP000=
SPZO Dic2006-122200Z VRB03KT 9999 BKN043 SCT080 13/08 Q1027 NOSIG RMK T.MAX 21.8 PP024=
SPZO Dic2006-122300Z 00000KT 9999 BKN046 SCT080 14/09 Q1028 NOSIG RMK PP000=
SPZO Dic2006-130000Z 18005KT 9999 SCT050 SCT100 14/08 Q1028 RMK PP000=
SPZO Dic2006-130100Z 24006KT 9999 BKN100 13/09 Q1029 RMK PP000=
SPZO Dic2006-130200Z 00000KT 9999 SKC 12/09 Q1030 RMK PP000=
SPZO Dic2006-130300Z 00000KT 9999 SCT040 12/08 Q1031 RMK PP000=
SPZO Dic2006-130400Z 00000KT 9999 BKN040 11/09 Q1031 RMK PP000=
SPZO Dic2006-130500Z 00000KT 9999 SCT040 12/09 Q1030 RMK PP000=
SPZO Dic2006-130600Z 00000KT 9999 BKN040 10/08 Q1030 RMK PP000=
SPZO Dic2006-130700Z 00000KT 9999 SKC 10/08 Q1029 RMK PP000=
SPZO Dic2006-130800Z 00000KT 9999 SKC 08/06 Q1029 RMK PP000=
SPZO Dic2006-130900Z 00000KT 9999 SKC 08/06 Q1030 RMK PP000=
SPZO Dic2006-131000Z 00000KT 9999 SKC 07/06 Q1030 RMK PP000=
SPZO Dic2006-131100Z 00000KT 9000E SKC 07/05 Q1031 RMK PP000=
SPZO Dic2006-131200Z 00000KT 9999 SKC 11/07 Q1031 NOSIG RMK PP000=
SPZO Dic2006-131300Z 00000KT 9999 SKC 14/07 Q1032 NOSIG RMK PP000=
SPZO Dic2006-131400Z 00000KT 9999 FEW050 16/07 Q1031 NOSIG RMK PP000=
SPZO Dic2006-131500Z /////KT 9999 FEW050 18/05 Q1031 NOSIG RMK WIND RWY10 25007KT 160V330 PP000=
SPZO Dic2006-131600Z /////KT 9999 FEW050 20/04 Q1030 NOSIG RMK WIND RWY10 VRB05KT PP000=
SPZO Dic2006-131700Z /////KT 9999 VCSH SCT050 FEW060TCU 21/03 Q1028 NOSIG RMK WIND RWY10 VRB07KT PP000=
SPZO Dic2006-131800Z /////KT 9999 VCSH FEW043CB BKN046 17/06 Q1028 NOSIG RMK WIND RWY10 10019G29KT 010V140 PP000=
SPZO Dic2006-131900Z /////KT 9999 SCT046 SCT230 20/03 Q1026 NOSIG RMK=
SPZO Dic2006-132000Z /////KT 8000 TS VCSH SCT040CB BKN046 12/06 Q1027 TEMPO -RA RMK WIND RWY10 11036G53KT 050V150 PP000=
SPZO Dic2006-132100Z /////KT 9999 -RA SCT043 BKN046 11/07 Q1028 NOSIG RMK WIND RWY10 26010KT 230V290 PP070=
SPZO Dic2006-132200Z /////KT 9999 BKN043 SCT080 12/08 Q1027 NOSIG RMK=
SPZO Dic2006-132300Z /////KT 9999 SCT043 SCT080 12/08 Q1027 NOSIG RMK=
SPZO Dic2006-140000Z /////KT 9999 FEW050 SCT150 10/07 Q1027 RMK WIND RWY10 00000KT PP000=
SPZO Dic2006-140100Z /////KT 9999 FEW050 10/07 Q1028 RMK WIND RWY10 00000KT PP000=
SPZO Dic2006-140200Z /////KT 9999 SKC 09/07 Q1029 RMK PP000=
SPZO Dic2006-140300Z /////KT 9999 SKC 09/07 Q1029 RMK PP000=
SPZO Dic2006-140400Z /////KT 9999 SKC 07/05 Q1029 RMK PP000=
SPZO Dic2006-140500Z /////KT 9999 SKC 08/06 Q1029 RMK PP00=
SPZO Dic2006-140600Z /////KT 9999 SKC 07/05 Q1028 RMK PP00=
SPZO Dic2006-140700Z /////KT 9999 SKC 07/05 Q1028 RMK PP00=
SPZO Dic2006-140800Z /////KT 9999 SKC 06/04 Q1028 RMK PP000=
SPZO Dic2006-140900Z /////KT 9999 SKC 06/04 Q1028 RMK PP000=
SPZO Dic2006-141000Z /////KT 9999 SKC 05/04 Q1029 RMK PP000=
SPZO Dic2006-141100Z /////KT 9000E SKC 06/05 Q1030 HZ RMK WIND RWY10 00000KT PP000=
SPZO Dic2006-141200Z /////KT 9000 SKC 10/06 Q1031 BECMG 9999 RMK WIND RWY10 00000KT PP000=
SPZO Dic2006-141300Z /////KT 9999 FEW043 SCT230 13/06 Q1031 NOSIG RMK=
SPZO Dic2006-141400Z /////KT 9999 FEW043 SCT230 15/07 Q1030 NOSIG RMK=
SPZO Dic2006-141500Z /////KT 9999 SCT046 17/06 Q1030 NOSIG RMK WIND RWY10 VRB04KT PP000=
SPZO Dic2006-141600Z /////KT 9999 SCT050 19/08 Q1029 NOSIG RMK WIND RWY10 VRB05KT PP000=
SPZO Dic2006-141700Z /////KT 9999 SCT050 21/08 Q1027 NOSIG RMK WIND RWY10 VRB06KT PP000=
SPZO Dic2006-141800Z /////KT 9999 SCT050 22/06 Q1026 NOSIG RMK RMK WIND RWY10 06013KT 360V110 PP000=
SPZO Dic2006-141900Z /////KT 9999 SCT050 24/01 Q1025 NOSIG RMK WIND RWY10 VRB12KT PP000=
SPZO Dic2006-142000Z /////KT 9999 FEW050 SCT200 22/03 Q1024 NOSIG RMK=
SPZO Dic2006-142100Z /////KT 9999 FEW050 SCT200 21/03 Q1024 NOSIG RMK=
SPZO Dic2006-142200Z /////KT 9999 FEW050 SCT200 19/03 Q1024 NOSIG RMK=
SPZO Dic2006-142300Z /////KT 9999 FEW050 SCT200 17/04 Q1025 NOSIG RMK=
SPZO Dic2006-150000Z /////KT 9999 FEW040 SCT050 16/04 Q1027 RMK WIND RWY10 VRB14KT PP000=
SPZO Dic2006-150100Z /////KT 9999 FEW050 15/05 Q1028 RMK WIND RWY10 VRB10KT PP000=
SPZO Dic2006-150200Z /////KT 9999 SKC 13/06 Q1029 RMK WIND RWY10 VRB04KT PP000=
SPZO Dic2006-150300Z /////KT 9999 GEW040 SCT100 13/06 Q1029 RMK WIND RWY10 00000KT PP000=
SPZO Dic2006-150400Z /////KT 9999 SKC 12/07 Q1030 RMK WIND RWY10 18010KT PP000=
SPZO Dic2006-150500Z /////KT 9999 SKC 11/06 Q1030 RMK WIND RWY10 00000KT PP000=
SPZO Dic2006-150600Z /////KT 9999 SCT050 10/06 Q1029 RMK WIND RWY10 00000KT PP000=
SPZO Dic2006-150700Z /////KT 9999 FEW040 SCT050 08/05 Q1029 RMK WIND RWY10 13002KT PP000=
SPZO Dic2006-150800Z /////KT 9999 FEW036 SCT050 08/06 Q1029 RMK WIND RWY10 00000KT PP000=
SPZO Dic2006-150900Z /////KT 9999 FEW040 SCT050 08/06 Q1029 RMK WIND RWY10 00000KT PP000=
SPZO Dic2006-151000Z /////KT 9999 SCT036 SCT200 08/05 Q1029 RMK WIND RWY10 00000KT PP000=
SPZO Dic2006-151100Z /////KT 9999 FEW030 SCT043 BKN080 09/06 Q1030 RMK=
SPZO Dic2006-151200Z /////KT 9999 FEW036 SCT043 BKN080 10/07 Q1031 NOSIG RMK WIND RWY10 00000KT PP000=
SPZO Dic2006-151300Z /////KT 9999 SCT040 SCT060 11/07 Q1032 NOSIG RMK=
SPZO Dic2006-151400Z /////KT 9999 SCT040 SCT060 13/07 Q1031 NOSIG RMK=
SPZO Dic2006-151500Z /////KT 9999 SCT040 SCT060 17/06 Q1031 NOSIG RMK=
SPZO Dic2006-151600Z /////KT 9999 FEW040TCU SCT050 SCT060 19/04 Q1030 NOSIG RMK WIND RWY10 VRB06G16KT PP000=
SPZO Dic2006-151700Z /////KT 9999 -RA SCT043TCU BKN050 15/06 Q1029 NOSIG RMK WIND RWY10 00000KT PP008=
SPZO Dic2006-151800Z /////KT 9999 SCT050 SCT070 BKN200 18/05 Q1028 RERA TEMPO VCSH RMK WIND RWY10 22008KT 170V270 PP002=
SPZO Dic2006-151900Z /////KT 9999 VCSH FEW043TCU SCT060 BKN200 17/04 Q1027 TEMPO RA RMK WIND RWY10 29018KT 260V360 PP000=
SPZO Dic2006-152000Z /////KT 9999 SCT050 BKN200 17/03 Q1027 NOSIG RMK=
SPZO Dic2006-152100Z /////KT 9999 SCT047 SCT080 BKN200 18/05 Q1025 NOSIG RMK WIND RWY10 25010KT 200V280 PP000=
SPZO Dic2006-152200Z /////KT 9999 FEW047 SCT100 BK200 17/04 Q1025 NOSIG RMK WIND RWY10 02013KT 310V100 TMAX 19.4 PP000=
SPZO Dic2006-152300Z /////KT 9999 FEW040TCU BKN047 17/05 Q1027 TEMPO RA RMK WIND RWY10 01014KT 320V120 PP000=
SPZO Dic2006-160000Z /////KT 9999 -SHRA FEW040 BKN050 14/08 Q1029 RMK=
SPZO Dic2006-160100Z /////KT 8000 -SHRA FEW040 BKN050 11/08 Q1030 RMK=
SPZO Dic2006-160200Z /////KT 8000 -SHRA SCT040 BKN050 11/08 Q1031 RMK=
SPZO Dic2006-160300Z /////KT 9000 SCT040 BKN050 11/09 Q1031 RMK WIND RWY10 00000KT PP000=
SPZO Dic2006-160400Z /////KT 9999 SCT040 BKN050 11/08 Q1031 RMK WIND RWY10 00000KT PP000=
SPZO Dic2006-160500Z /////KT 9999 FEW030 SCT040 BKN050 11/08 Q1031 RMK=
SPZO Dic2006-160600Z /////KT 9999 FEW030 BKN046 11/09 Q1031 RMK WIND RWY10 00000KT PP000=
SPZO Dic2006-160700Z /////KT 9000 -RA FEW030 BKN046 10/08 Q1029 RMK WIND RWY10 10008KT PP008=
SPZO Dic2006-160800Z /////KT 9000 -RA FEW020 BKN046 10/08 Q1029 RMK WIND RWY10 10009KT PP008=
SPZO Dic2006-160900Z /////KT 9000 FEW020 BKN046 10/07 Q1029 RMK WIND RWY10 07006KT PP000=
SPZO Dic2006-161000Z /////KT 9000 FEW025 BKN046 10/07 Q1029 RMK WIND RWY10 00000KT PP002=
SPZO Dic2006-161100Z /////KT 9000 -DZ FEW025 BKN046 10/07 Q1930 RMK WIND RWY10 00000KT PP002=
SPZO Dic2006-161200Z /////KT 8000 RA FEW025 SCT033 BKN040 10/07 Q1031 NOSIG RMK WIND RWY10 00000KT PP010 CEILING BELOW 1200M=
SPZO Dic2006-161300Z /////KT 7000E -RA SCT025 SCT030 OVC043 10/06 Q1032 BECMG FM1330 8000 RMK WIND RWY10 12003KT 070V180 CEILING BELOW 1200M PP012=
SPZO Dic2006-161400Z /////KT 7000 -RA SCT020 SCT030 OVC043 09/07 Q1033 NOSIG RMK WIND RWY10 11005KT CELING BELOW 1200M PP014=
SPZO Dic2006-161500Z /////KT 8000 -RA SCT020 SCT030 OVC043 10/08 Q1033 NOSIG RMK RWY10 10008KT 040V150 CEILING BELOW 1200M PP006=
SPZO Dic2006-161600Z /////KT 8000 -RA SCT020 SCT033 OVC040 10/06 Q1033 NOSIG RMK WIND RWY10 VRB05KT CEILING BELOW 1200M PP014=
SPZO Dic2006-161700Z /////KT 9000 -RA SCT020 SCT033 OVC043 10/07 Q1033 NOSIG RMK RWY10 00000KT CEILING BELOWW 1200M PP012=
SPZO Dic2006-161800Z /////KT 8000 RA SCT020 SCT033 BKN043 10/07 Q1032 RMK WIND RWY10 00000 CLNG BLW 1200M PP014=
SPZO Dic2006-161900Z /////KT 8000 -RA SCT020 SCT033 BKN070 10/07 Q1031 TEMPO 9000 RMK WIND RWY10 00000KT CLNG BLW 1200M PP008=
SPZO Dic2006-162000Z /////KT 9999 -DZ FEW025 SCT036 OVC080 10/07 Q1030 TEMPO NSW RMK WIND RWY10 10010KT 040V170 PP004=
SPZO Dic2006-162100Z /////KT 9999 SCT030 BKN230 12/05 Q1028 NOSIG RMK=
SPZO Dic2006-162200Z /////KT 9999 SCT030 BKN230 13/06 Q1028 NOSIG RMK=
SPZO Dic2006-162300Z /////KT 9999 SCT036 BKN230 12/06 Q1028 NOSIG RMK=
SPZO Dic2006-170000Z /////KT 9999 SCT040 SCT200 11/07 Q1030 RMK PP000=
SPZO Dic2006-170100Z /////KT 9999 SKC 09/06 Q1030 RMK PP000=
SPZO Dic2006-170200Z /////KT 9999 SKC 09/07 Q1031 RMK PP000=
SPZO Dic2006-170300Z /////KT 9999 SKC 08/06 Q1032 RMK PP000=
SPZO Dic2006-170400Z /////KT 9999 SKC 08/06 Q1032 RMK PP000=
SPZO Dic2006-170500Z /////KT 9999 SKC 07/05 Q1031 RMK PP000=
SPZO Dic2006-170600Z /////KT 9999 FEW100 07/05 Q1030 RMK PP000=
SPZO Dic2006-170700Z /////KT 9999 FEW080 07/05 Q1030 RMK PP000=
SPZO Dic2006-170800Z /////KT 9999 SCT040 SCT080 07/05 Q1030 RMK PP000=
SPZO Dic2006-170900Z /////KT 9999 SCT040 07/06 Q1030 RMK PP000=
SPZO Dic2006-171000Z /////KT 9999 SCT043 SCT050 08/06 Q1030 RMK RWY10 00000KT PP000=
SPZO Dic2006-171100Z /////KT 9999 FEW040 BKN050 08/06 Q1031 RMK RWY10 00000KT PP000=
SPZO Dic2006-171200Z /////KT 9000 FEW030 SCT100 11/07 Q1032 BECMG 9999 RMK WIND RWY10 00000KT PP000=
SPZO Dic2006-171300Z /////KT 9999 FEW036 SCT100 13/07 Q1032 NOSIG RMK=
SPZO Dic2006-171400Z /////KT 9999 SCT040 15/07 Q1032 NOSIG RMK WIND RWY10 VRB06KT PP000=
SPZO Dic2006-171500Z /////KT 9999 SCT040 SCT060 18/08 Q1031 NOSIG RMK=
SPZO Dic2006-171600Z /////KT 9999 SCT040 SCT060 17/05 Q1030 NOSIG RMK=
SPZO Dic2006-171700Z /////KT 9999 SCT050 SCT100 19/05 Q1029 NOSIG RMK=
SPZO Dic2006-171800Z /////KT 9999 VCSH FEW040TCU SCT100 19/09 Q1028 NOSIG RMK WIND RWY10 31014G24KT 250V020 PP000=
SPZO Dic2006-171900Z /////KT 9999 FEW043TCU SCT046 17/06 Q1027 NOSIG RMK WIND RWY10 03016G28KT 300V120 PP000=
SPZO Dic2006-172000Z /////KT 9999 VCSH SCT040TCU BKN046 16/08 Q1027 NOSIG RMK WIND RWY10 92911KT 320V080 PP000=
SPZO Dic2006-172100Z /////KT 9999 FEW043 SCT230 16/07 Q1026 NOSIG RMK=
SPZO Dic2006-172200Z /////KT 9999 FEW046 17/06 Q1026 NOSIG RMK WIND RWY10 18009KT T.MAX 20.5 PP000=
SPZO Dic2006-172300Z /////KT 9999 FEW046 15/07 Q1026 NOSIG RMK WIND RWY10 00000KT PP000=
SPZO Dic2006-180000Z /////KT 9999 SCT040 SCT060 14/08 Q1027 RMK PP000=
SPZO Dic2006-180100Z /////KT 9000 -TSRA FEW033CB BKN040 11/07 Q1030 RMK PP070=
SPZO Dic2006-180200Z /////KT 8000 SHRA SCT030 BKN040 09/07 Q1032 RMK PP110=
SPZO Dic2006-180300Z /////KT 9000 RA FEW025 SCT030 BKN040 09/07 Q1032 RMK PP038=
SPZO Dic2006-180400Z /////KT 9999 FEW025 BKN040 10/08 Q1032 RERA RMK PP012=
SPZO Dic2006-180500Z /////KT 9999 FEW025 SCT033 BKN043 10/08 Q1031 RMK PP000=
SPZO Dic2006-180600Z /////KT 9999 FEW025 SCT030 BKN040 10/08 Q1030 RMK PP000=
SPZO Dic2006-180700Z /////KT 9999 FEW025 SCT030 BKN040 10/08 Q1029 RMK PP000=
SPZO Dic2006-180800Z /////KT 9999 FEW025 SCT030 BKN040 10/08 Q1029 RMK PP000=
SPZO Dic2006-180900Z /////KT 9999 FEW020 SCT030 BKN040 10/08 Q1029 RMK CEILING BELOW 1200M PP000=
SPZO Dic2006-181000Z /////KT 9000 -DZ FEW020 SCT030 BKN043 10/08 Q1029 RMK WIND RWY10 09003KT CEILING BELOW 1200M PP004=
SPZO Dic2006-181100Z /////KT 9999 SCT025 SCT043 09/08 Q1030 REDZ RMK RWY10=
SPZO Dic2006-181200Z /////KT 9999 FEW025 SCT043 BKN046 10/08 Q1030 NOSIG RMK WIND RWY10 00000KT PP000=
SPZO Dic2006-181300Z /////KT 9999 FEW025 SCT043 BKN070 12/08 Q1031 NOSIG RMK WIND RWY10 00000KT PP000=
SPZO Dic2006-181400Z /////KT 9999 FEW030 SCT043 BKN050 12/07 Q1031 NOSIG RMK WIND RWY10 00000KT PP000=
SPZO Dic2006-181500Z /////KT 9999 FEW030 SCT043 BKN080 14/08 Q1031 NOSIG RMK WIND RWY10 12003KT 060V200 PP000=
SPZO Dic2006-181600Z 00000KT 9999 FEW033 SCT043 BKN080 16/07 Q1031 NOSIG RMK PP000=
SPZO Dic2006-181700Z 00000KT 9999 SCT043 SCT080 18/07 Q1029 NOSIG RMK PP000=
SPZO Dic2006-181800Z 00000KT 9999 SCT050 SCT100 18/08 Q1028 NOSIG RMK=
SPZO Dic2006-181900Z 00000KT 9999 VCSH SCT040TCU BKN046 17/07 Q1028 TEMPO RA RMK WIND RWY10 VRB15G35KT PP000=
SPZO Dic2006-182000Z 28008KT 9999 FEW046TCU BKN080 15/08 Q1027 TEMPO=
SPZO Dic2006-182100Z 28008KT 9999 SCT046 BKN100 15/07 Q1027 TEMPO VCSH RMK WIND RWY10 28022G32KT PP000=
SPZO Dic2006-182200Z 26003KT 9999 SCT040 SCT100 14/06 Q1027 NOSIG RMK=
SPZO Dic2006-182300Z 00000KT 9999 SCT040 SCT100 13/06 Q1028 NOSIG RMK=
SPZO Dic2006-190000Z 00000KT 9999 SCT046 12/06 Q1029 RMK PP000=
SPZO Dic2006-190100Z 00000KT 9999 FEW040 SCT050 11/07 Q1030 RMK PP000=
SPZO Dic2006-190200Z 00000KT 9999 FEW050 11/07 Q1030 RMK PP000=
SPZO Dic2006-190300Z 00000KT 9999 FEW040 SCT060 11/07 Q1031 RMK PP000=
SPZO Dic2006-190400Z 00000KT 9999 FEW040 SCT046 09/07 Q1031 RMK PP000=
SPZO Dic2006-190500Z 00000KT 9999 BKN050 09/07 Q1030 RMK PP000=
SPZO Dic2006-190600Z 00000KT 9999 BKN040 SCT046 08/06 Q1029 RMK PP000=
SPZO Dic2006-190700Z 00000KT 9999 SCT040 SCT050 08/06 Q1029 RMK PP000=
SPZO Dic2006-190800Z 00000KT 9999 FEW036 SCT050 08/06 Q1029 RMK PP000=
SPZO Dic2006-190900Z 00000KT 9999 SCT040 SCT050 08/06 Q1029 RMK PP000=
SPZO Dic2006-191000Z 00000KT 9999 FEW040 SCT070 08/06 Q1029 RMK PP000=
SPZO Dic2006-191100Z 00000KT 9000 FEW043 BKN200 07/05 Q1030 RMK PP000=
SPZO Dic2006-191200Z 00000KT 9000 FEW040 SCT200 11/07 Q1030 NOSIG RMK PP000=
SPZO Dic2006-191300Z 00000KT 9999 FEW040 14/08 Q1030 NOSIG RMK PP000=
SPZO Dic2006-191400Z 00000KT 9999 FEW040 16/07 Q1030 NOSIG RMK WIND RWY10 VRB05KT PP000=
SPZO Dic2006-191500Z 00000KT 9999 SCT050 18/09 Q1030 NOSIG RMK WIND RWY10 VRB10KT PP000=
SPZO Dic2006-191600Z 00000KT 9999 VCSH FEW040TCU SCT050 19/07 Q1029 NOSIG RMK WIND RWY10 24011KT PP000=
SPZO Dic2006-191700Z 28006KT 260V350 9999 VCSH SCT043TCU SCT050 18/06 Q1028 NOSIG RMK WIND RWY10 28015KT PP000=
SPZO Dic2006-191800Z VRB02KT 9999 VCSH FEW040TCU SCT050 BKN080 14/07 Q1029 NOSIG RMK RWY10 01014KT 250V060 PP000=
SPZO Dic2006-191900Z 00000KT 9999 FEW040TCU SCT053 BKN100 16/06 Q1027 NOSIG RMK RWY10 VRB05KT PP000=
SPZO Dic2006-192000Z 00000KT 9999 FEW043 SCT053 BKN150 17/07 Q1026 NOSIG RMK RWY10 VRB04KT PP000=
SPZO Dic2006-192100Z 00000KT 9999 FEW047 SCT060 BKN200 18/06 Q1025 NOSIG RMK RWY10 00000KT PP000=
SPZO Dic2006-192200Z 00000KT 9999 FEW040TCU SCT050 19/05 Q1025 NOSIG RMK RWY10 00000KT TMAX 19.7 PP000=
SPZO Dic2006-192300Z 00000KT 9999 VCSH SCT037TCU SCT047 17/07 Q1026 NOSIG RMK RWY10 01006KT PP000=
SPZO Dic2006-200000Z 00000KT 9999 VCSH SCT036TCU SCT050 15/08 Q1027 RMK PP000=
SPZO Dic2006-200100Z 00000KT 9000 SHRA OVC036 10/07 Q1029 RMK PP068=
SPZO Dic2006-200200Z 00000KT 9000 DZ BKN036 SCT040 11/08 Q1030 RMK PP008=
SPZO Dic2006-200300Z 00000KT 9000 FEW036 SCT040 10/08 Q1031 RMK PP002=
SPZO Dic2006-200400Z 00000KT 9000 FEW030 SCT040 10/08 Q1031 RMK PP000=
SPZO Dic2006-200500Z 00000KT 9999 FEW030 BKN040 11/08 Q1031 RMK PP000=
SPZO Dic2006-200600Z 00000KT 9000 DZ FEW030 BKN040 10/08 Q1031 RMK PP002=
SPZO Dic2006-200700Z 00000KT 9000 DZ FEW030 BKN040 10/08 Q1030 RMK PP002=
SPZO Dic2006-200800Z 00000KT 9000 DZ SCT036 BKN046 10/08 Q1030 RMK PP002=
SPZO Dic2006-200900Z 00000KT 9999 SCT036 BKN046 10/08 Q1030 RMK PP000=
SPZO Dic2006-201000Z 00000KT 9999 DZ SCT036 BKN046 09/07 Q1030 RMK PP004=
SPZO Dic2006-201100Z 00000KT 9999 SCT036 BKN046 09/07 Q1031 RMK PP000=
SPZO Dic2006-201200Z 00000KT 9999 FEW030 SCT040 BKN050 10/07 Q1031 NOSIG RMK RWY10 00000KT PP000=
SPZO Dic2006-201300Z 00000KT 9999 FEW033 SCT040 BKN080 12/06 Q1032 NOSIG RMK RWY10 00000KT PP000=
SPZO Dic2006-201400Z 00000KT 9999 FEW033 SCT043 BKN070 13/07 Q1032 NOSIG RMK RWY10 00000KT PP000=
SPZO Dic2006-201500Z 00000KT 9999 FEW033 SCT043 BKN080 15/06 Q1032 NOSIG RMK RWY10 00000KT PP000=
SPZO Dic2006-201600Z 00000KT 9999 FEW037 SCT050 BKN080 16/07 Q1030 NOSIG RMK RWY10 VRB06KT PP000=
SPZO Dic2006-201700Z 00000KT 9999 FEW040 SCT050 BKN080 18/06 Q1029 NOSIG RMK PP000=
SPZO Dic2006-201800Z 00000KT 9999 FEW036 SCT046 BKN080 19/05 Q1028 NOSIG RMK WIND RWY10 29010KT PP000=
SPZO Dic2006-201900Z 00000KT 9999 FEW040TCU SCT046 20/06 Q1026 NOSIG RMK PP000=
SPZO Dic2006-202000Z 00000KT 9999 -RA FEW040CB SCT043 BKN046 14/09 Q1027 RESHRA TEMPO FM2030 NSW RMK PP092=
SPZO Dic2006-202100Z 00000KT 9999 -RA FEW040 SCT043 BKN070 12/08 Q1027 TEMPO NSW RMK PP040=
SPZO Dic2006-202200Z 00000KT 9999 SCT043 SCT080 13/09 Q1027 NOSIG RMK T.MAX 20.5 PP004=
SPZO Dic2006-202300Z 00000KT 9999 SCT043 13/08 Q1027 NOSIG RMK PP000=
SPZO Dic2006-210000Z 00000KT 9999 SCT040 SCT070 13/08 Q1028 RMK PP000=
SPZO Dic2006-210100Z 00000KT 9999 SCT040 12/08 Q1028 RMK PP000=
SPZO Dic2006-210200Z 00000KT 9999 BKN040 12/08 Q1029 RMK PP000=
SPZO Dic2006-210300Z 00000KT 9999 SCT033 BKN043 12/08 Q1030 RMK PP000=
SPZO Dic2006-210400Z 00000KT 9999 FEW030 SCT040 BKN060 12/08 Q1030 RMK PP000=
SPZO Dic2006-210500Z 00000KT 9999 SCT033 BKN050 12/06 Q1030 RMK PP000=
SPZO Dic2006-210600Z 00000KT 9999 SCT033 BKN050 11/06 Q1029 RMK PP000=
SPZO Dic2006-210700Z 00000KT 9999 BKN040 11/06 Q1029 RMK PP000=
SPZO Dic2006-210800Z 00000KT 9999 SCT033 SCT043 11/07 Q1029 RMK PP000=
SPZO Dic2006-210900Z 00000KT 9999 SCT037 BKN047 11/08 Q1029 RMK PP000=
SPZO Dic2006-211000Z 00000KT 9999 FEW033 SCT040 BKN047 11/08 Q1030 RMK PP000=
SPZO Dic2006-211100Z 00000KT 9999 FEW033 SCT040 BKN047 11/08 Q1030 RMK PP000=
SPZO Dic2006-211200Z 00000KT 9999 FEW030 SCT036 BKN046 11/09 Q1031 NOSIG RMK PP000=
SPZO Dic2006-211300Z 00000KT 9999 FEW030 SCT036 BKN046 12/08 Q1032 NOSIG RMK PP000=
SPZO Dic2006-211400Z 00000KT 9999 FEW030 SCT036 BKN046 12/08 Q1032 NOSIG RMK PP000=
SPZO Dic2006-211500Z /////KT 9999 FEW036 SCT046 16/08 Q1032 NOSIG RMK=
SPZO Dic2006-211600Z /////KT 9000 TSRA VCSH SCT043CB SCT050 16/07 Q1031 TEMPO FM1630 9999 NSW RMK WIND RWY10 VRB22G37KT PP008=
SPZO Dic2006-211700Z /////KT 9999 SCT043 BKN080 13/09 Q1031 NOSIG RMK=
SPZO Dic2006-211800Z /////KT 9999 VCSH FEW040TCU SCT046 BKN080 15/08 Q1030 NOSIG RMK WIND RWY10 VRB05KT PP000=
SPZO Dic2006-211900Z /////KT 9999 VCSH FEW040 SCT046 BKN070 14/09 Q1030 NOSIG RMK WIND RWY10 26012KT 220V310 PP000=
SPZO Dic2006-212000Z /////KT 9999 VCSH FEW033 SCT046 BKN080 16/08 Q1029 NOSIG RMK WIND RWY10 VRB07KT PP000=
SPZO Dic2006-212100Z /////KT 9999 -RA FEW033 SCT043 BKN050 12/09 Q1029 NOSIG RMK WIND RWY10 VRB06KT PP004=
SPZO Dic2006-212200Z /////KT 9000 -RA FEW033 SCT043 BKN046 13/08 Q1029 NOSIG RMK WIND RWY10 VRB05KT T.MAX 17.0 PP016=
SPZO Dic2006-212300Z /////KT 9999-RA FEW036 SCT043 BKN046 12/08 Q1030 NOSIG RMK WIND RWY10 23004KT PP006=
SPZO Dic2006-220000Z /////KT 9999 -RA FEW025 SCT033 BKN043 11/08 Q1031 RMK WIND RWY10 VRB06KT PP004=
SPZO Dic2006-220100Z /////KT 9999 -RA FEW027 SCT033 BKN043 10/08 Q1032 RMK WIND RWY10 09010KT PPTRZ=
SPZO Dic2006-220200Z /////KT 9999 -RA FEW020 SCT030 BKN040 10/08 Q1032 RMK WIND RWY10 00000KT PP004=
SPZO Dic2006-220300Z /////KT 9999 FEW025 SCT033 BKN040 10/08 Q1033 REDZ RMK WIND RWY10 00000KT PPTRZ=
SPZO Dic2006-220400Z /////KT 9999 FEW030 SCT040 BKN050 10/08 Q1033 RMK=
SPZO Dic2006-220500Z /////KT 9999 SCT033 BKN043 11/09 Q1032 RMK PP000=
SPZO Dic2006-220600Z /////KT 9999 FEW025 SCT033 BKN043 10/09 Q1031 RMK PP000=
SPZO Dic2006-220700Z /////KT 9999 FEW020 SCT033 BKN040 11/09 Q1031 RMK PP000=
SPZO Dic2006-220800Z /////KT 9999 FEW20 BKN037 11/09 Q1031 RMK CEILING BELOW 1200M PP000=
SPZO Dic2006-220900Z /////KT 9000 -RA SCT020 BKN033 11/08 Q1031 RMK RWY10 09004KT CEILING BELOW 1200M PP004=
SPZO Dic2006-221000Z /////KT 9000 -RA SCT020 SCT030 BKN040 10/08 Q1031 RMK RWY10 10006KT CEILING BELOW 1200M PP016=
SPZO Dic2006-221100Z /////KT 9000 6000W RA SCT020 SCT033 BKN043 10/08 Q1032 RMK WIND RWY10 28005KT CEILING BELOW 1200M PP010=
SPZO Dic2006-221200Z /////KT 9000 -RA FEW020 SCT033 BKN050 10/08 Q1033 BECMG FM13 9999 RMK WIND RWY10 27006KT CLNG BLW 1200M PP002=
SPZO Dic2006-221300Z /////KT 8000 -RA SCT020 BKN040 BKN080 11/08 Q1034 TEMPO FM1330 9999 RMK WIND RWY10 00000KT PP006=
SPZO Dic2006-221400Z /////KT 9999 FEW030 SCT046 BKN100 13/07 Q1034 NOSIG RMK WIND RWY10 00000KT PP000=
SPZO Dic2006-221500Z /////KT 9999 FEW033 SCT046 BKN100 15/07 Q1034 NOSIG RMK WIND RWY10 VRB04KT PP000=
SPZO Dic2006-221600Z /////KT 9999 FEW036 SCT046 BKN100 16/06 Q1033 NOSIG RMK WIND RWY10 VRB06KT PP000=
SPZO Dic2006-221700Z /////KT 9999 SCT050 18/10 Q1031 NOSIG RMK WIND RWY10 VRB05KT PP000=
SPZO Dic2006-221800Z /////KT 9999 FEW046 SCT050 19/05 Q1030 NOSIG RMK=
SPZO Dic2006-221900Z /////KT 9999 -RA FEW040TCU BKN050 17/07 Q1029 TEMPO RA RMK WIND RWY10 23021KT 200V270 PPTRZ=
SPZO Dic2006-222000Z /////KT 7000 TSRA FEW033CB SCT040 BKN046 09/07 Q1031 BCMEG FM2030 9000 RMK WIND RWY10 VRB06KT PP174=
SPZO Dic2006-222100Z /////KT 9999 RA FEW025 SCT040 BKN046 10/07 Q1030 NOSIG RMK WIND RWY10 13011KT PP068=
SPZO Dic2006-222200Z /////KT 9999 FEW030 SCT040 BKN100 10/08 Q1030 RERA NOSIG RMK WIND RWY10 VRB03KT T.MAX.19.7 PP006=
SPZO Dic2006-222300Z /////KT 9999 FEW030 SCT040 BKN080 10/08 Q1031 NOSIG RMK WIND RWY10 00000KT PP000=
SPZO Dic2006-230000Z /////KT 9999 OVC040 11/08 Q1031 RMK WIND RWY10 00000KT=
SPZO Dic2006-230100Z /////KT 9999 SCT036 SCT040 10/08 Q1932 RMK WIND RWY10 00000KT PP000=
SPZO Dic2006-230200Z /////KT 9999 SCT050 09/07 Q1032 RMK WIND RWY10 00000KT PP000=
SPZO Dic2006-230300Z /////KT 9999 FEW050 09/07 Q1033 RMK WIND RWY10 00000KT PP000=
SPZO Dic2006-230400Z /////KT 9999 SCT050 08/06 Q1033 RMK PP000 RMK WIND RWY10 00000KT PP000=
SPZO Dic2006-230500Z /////KT 9999 SCT050 07/06 Q1032 RMK WIND RWY10 00-000KT PP000=
SPZO Dic2006-230600Z /////KT 9999 SCT050 07/06 Q1032 RMK WIND RWY10 00000KT PP000=
SPZO Dic2006-230700Z /////KT 9999 FEW050 07/95 Q10311 RMK WIND RWY10 00000KT PP0000=
SPZO Dic2006-230800Z /////KT 9999 FEW040 SCT050 06/05 Q1031 RMK WIND RWY10 00000KT PP000=
SPZO Dic2006-230900Z /////KT 9999 FEW033 SCT050 07/06 Q1030 RMK WIND RWY10 00000KT PP000=
SPZO Dic2006-231000Z /////KT 9999 FEW033 SCT043 BKN046 8/06 Q1031 RMK=
SPZO Dic2006-231100Z /////KT 9999 FEW033 SCT040 BKN046 08/06 Q1032 RMK=
SPZO Dic2006-231200Z /////KT 9999 FEW030 SCT040 BKN046 09/07 Q1032 NOSIG RMK WIND RWY10 28005KT PP000=
SPZO Dic2006-231300Z /////KT 9999 FEW040 BKN046 10/07 Q1033 NOSIG RMK=
SPZO Dic2006-231400Z /////KT 9999 FEW040 BKN046 12/07 Q1033 NOSIG RMK=
SPZO Dic2006-231500Z /////KT 9999 FEW040 BKN046 14/07 Q1033 NOSIG RMK=
SPZO Dic2006-231600Z /////KT 9999 FEW040 SCT080 17/06 Q1032 NOSIG RMK=
SPZO Dic2006-231700Z /////KT 9999 FEW046 SCT080 17/07 Q1031 NOSIG RMK=
SPZO Dic2006-231800Z /////KT 9999 FEW047 BKN200 18/08 Q1029 NOSIG RMK=
SPZO Dic2006-231900Z /////KT 9999 SCT050 BKN200 20/06 Q1028 NOSIG RMK=
SPZO Dic2006-232000Z /////KT 9999 FEW040TCU SCT050 BKN200 21/07 Q1026 NOSIG RMK WIND RWY10 29009KT 220V050 PP000=
SPZO Dic2006-232100Z /////KT 9000N VCSH FEW040TCU SCT050 BKN080 18/06 Q1026 NOSIG RMK WIND RWY10 17005KT 130V240 PP000=
SPZO Dic2006-232200Z /////KT 9999 FEW050 SCT080 BKN200 17/07 Q1026 TEMPO=
SPZO Dic2006-232300Z /////KT 9999 SCT047 BKN200 16/08 Q1027 NOSIG RMK=
SPZO Dic2006-240000Z /////KT 9999 FEW040 SCT050 BKN080 16/08 Q1028 RMK=
SPZO Dic2006-240100Z /////KT 9999 FEW040 SCT050 BKN080 15/07 Q1029 RMK=
SPZO Dic2006-240200Z /////KT 9999 FEW040 SCT050 BKN080 14/09 Q1030 RMK=
SPZO Dic2006-240300Z /////KT 9999 SCT040 BKN050 13/07 Q1031 RMK WIND RWY10 32012KT PP000=
SPZO Dic2006-240400Z /////KT 9999 TSRA SCT040CB BKN050 09/05 Q1030 RA INICIO 0325Z RMK WIND RWY10 00000KT PP020=
SPZO Dic2006-240500Z /////KT 9999 FEW040 SCT050 09/06 Q1031 RA CESO 0420 RMK WIND RWY10 18002KT PP002=
SPZO Dic2006-240600Z /////KT 9999 FEW040 SCT050 09/05 Q1030 RMK WIND RWY10 00000KT PP000=
SPZO Dic2006-240700Z /////KT 9999 FEW040 08/06 Q1030 RMK WIND RWY10 00000KT PP000=
SPZO Dic2006-240800Z /////KT 9999 FEW040 06/04 Q1029 RMK WIND RWY10 00000KT PP000=
SPZO Dic2006-240900Z /////KT 9999 FEW040 06/05 Q1029 RMK WIND RWY10 00000KT PP000=
SPZO Dic2006-241000Z /////KT 9999 FEW040 06/05 Q1030 RMK WIND RWY10 00000KT PP000=
SPZO Dic2006-241100Z /////KT 9999 FEW030 SCT040 SCT050 06/05 Q1030 RMK=
SPZO Dic2006-241200Z /////KT 9999 FEW025 SCT080 BKN200 08/07 Q1031 NOSIG RMK WIND RWY10 14004KT 100V170 PP000=
SPZO Dic2006-241300Z /////KT 9999 FEW030 SCT100 BKN200 09/06 Q1032 NOSIG RMK WIND RWY10 10007KT 050V130 PP000=
SPZO Dic2006-241400Z /////KT 9999 FEW030 SCT100 BKN200 11/07 Q1032 NOSIG RMK WIND RWY10 VRB03KT PP000=
SPZO Dic2006-241500Z /////KT 9999 FEW037 SCT080 BKN200 15/08 Q1031 NOSIG RMK WIND RWY10 00000KT PP000=
SPZO Dic2006-241600Z /////KT 9999 FEW043 SCT100 BKN200 17/06 Q1030 NOSIG RMK WIND RWY10 VRB06KT PP000=
SPZO Dic2006-241700Z /////KT 9999 SCT047 BKN100 18/07 Q1029 NOSIG RMK=
SPZO Dic2006-241800Z /////KT 9999 SCT046 BKN100 18/07 Q1028 NOSIG RMK=
SPZO Dic2006-241900Z /////KT 9999 SCT046 BKN100 20/07 Q1027 NOSIG RMK=
SPZO Dic2006-242000Z /////KT 9999 SCT046 SCT230 19/06 Q1026 NOSIG RMK=
SPZO Dic2006-242100Z /////KT 9999 FEW040TCU SCT046 BKN080 16/07 Q1026 NOSIG RMK WIND RWY10 09020G30KT 030V130 PP000=
SPZO Dic2006-242200Z /////KT 9999 VCSH FEW040TCU SCT043 BKN080 15/06 Q1027 NOSIG RMK WIND RWY10 10025G35KT 040V140 T.MAX 20.2 PP000=
SPZO Dic2006-242300Z /////KT 9999 SCT043 BKN080 14/05 Q1027 NOSIG RMK=
SPZO Dic2006-250000Z /////KT 9999 FEW050 SCT200 13/05 Q1027 PP000=
SPZO Dic2006-250100Z /////KT 9999 SCT060 12/06 Q1028 RMK PP000=
SPZO Dic2006-250200Z /////KT 9999 BKN050 12/07 Q1029 RMK PP000=
SPZO Dic2006-250300Z /////KT 9999 SCT050 SCT070 11/07 Q1030 RMK PP000=
SPZO Dic2006-250400Z /////KT 90000 BKN040 11/07 Q1030 RMK PP000=
SPZO Dic2006-250500Z /////KT 8000 FEW040 09/07 Q1030 RMK PP000=
SPZO Dic2006-250600Z /////KT 6000 FEW040 10/06 Q1029 FU RMK PP000=
SPZO Dic2006-250700Z /////KT 7000 FEW040 08/06 Q1029 FU RMK PP000=
SPZO Dic2006-250800Z /////KT 9000 SCT050 07/05 Q1028 RMK PP000=
SPZO Dic2006-250900Z /////KT 8000 BKN043 08/06 Q1029 FU RMK PP000 RWY10 00000KT PP000=
SPZO Dic2006-251000Z /////KT 8000 SCT040 SCT050 08/06 Q1029 RMK RWY10 00000KT PP000=
SPZO Dic2006-251100Z /////KT 8000 FEW040 SCT100 08/06 Q1030 FU RMK RWY10 10007KT PP000=
SPZO Dic2006-251200Z /////KT 8000 FEW030 SCT050 BKN100 10/07 Q1031 TEMPO 9000 RMK WIND RWY10 12006KT 050V150 FU PP000=
SPZO Dic2006-251300Z /////KT 9000 FEW036 BKN100 12/06 Q1031 BECMG 9999 RMK WIND RWY10 10008KT 060V150 PP000=
SPZO Dic2006-251400Z /////KT 9999 FEW040 17/06 Q1031 NOSIG RMK WIND RWY10 VRB03KT PP000=
SPZO Dic2006-251500Z /////KT 9999 FEW040 SCT050 18/06 Q1031 NOSIG RMK=
SPZO Dic2006-251600Z /////KT 9999 FEW040 SCT050 17/06 Q1030 NOSIG RMK=
SPZO Dic2006-251700Z /////KT 9999 VCSH FEW040TCU SCT050 20/05 Q1028 NOSIG RMK WIND RWY10 VRB07KT PP000=
SPZO Dic2006-251800Z /////KT 9999 RAGR SCT040CB BKN046 15/06 Q1028 TEMPO FM1830 NSW WIND RWY10 VRB10G32KT PP002=
SPZO Dic2006-251900Z /////KT 9999 FEW040 SCT046 BKN070 14/08 Q1027 NOSIG=
SPZO Dic2006-252000Z /////KT 9999 FEW030 SCT046 BKN100 16/06 Q1027 NOSIG RMK WIND RWY10 22006KT 170V270 PP000=
SPZO Dic2006-252100Z /////KT 9999 SCT043 BKN100 15/07 Q1027 NOSIG RMK=
SPZO Dic2006-252200Z /////KT 9999 SCT043 BKN100 14/06 Q1027 NOSIG RMK=
SPZO Dic2006-252300Z /////KT 9999 FEW040 SCT046 BKN070 13/07 Q1028 NOSIG RMK WIND RWY10 00000KT PP000=
SPZO Dic2006-260000Z /////KT 9999 SCT050 SCT200 12/07 Q1029 RMK PP000=
SPZO Dic2006-260100Z /////KT 9999 SCT050 SCT080 13/08 Q1030 RMK PP000=
SPZO Dic2006-260200Z /////KT 9999 SCT040 12/07 Q1031 RMK PP000=
SPZO Dic2006-260300Z /////KT 9999 FEW040 10/07 Q1031 RMK PP000=
SPZO Dic2006-260400Z /////KT 9999 FEW080 09/07 Q1031 RMK PP000=
SPZO Dic2006-260500Z /////KT 9999 SCT040 SCT060 10/07 Q1030 RMK PP000=
SPZO Dic2006-260600Z /////KT 9999 SCT043 SCT060 10/07 Q1029 RMK PP000=
SPZO Dic2006-260700Z /////KT 9999 SCT040 SCT050 10/07 Q1029 RMK PP000=
SPZO Dic2006-260800Z /////KT 9999 SCT037 BKN047 10/07 Q1028 RMK PP000=
SPZO Dic2006-260900Z /////KT 9999 SCT037 SCT047 10/08 Q1029 RMK RWY10 00000KT PP000=
SPZO Dic2006-261000Z /////KT 9999 SCT037 BN047 10/08 Q1029 RMK RWY10 00000KT PP000=
SPZO Dic2006-261100Z /////KT 9999 FEW037 BKN050 11/08 Q1030 RMK RWY10 00000KT PP000=
SPZO Dic2006-261200Z /////KT 9999 FEW036 SCT043 BKN046 11/08 Q1031 TEMPO=
SPZO Dic2006-261300Z /////KT 9999 FEW033 SCT043 BKN050 12/08 Q1032 NOSIG RMK RWY10 VRB02KT PP000=
SPZO Dic2006-261400Z /////KT 9999 FEW033 SCT043 BKN050 13/07 Q1032 NOSIG RMK RWY10 00000KT PP000=
SPZO Dic2006-261500Z /////KT 9999 FEW036 SCT043 BKN100 13/08 Q1032 NOSIG RMK RWY10 11008KT 040V180 PP000=
SPZO Dic2006-261600Z /////KT 9999 FEW036 SCT043 BKN080 14/08 Q1032 NOSIG RMK RWY10 11012KT 060V180 PP000=
SPZO Dic2006-261700Z /////KT 9000 VCSH SCT040TCU BKN046 13/08 Q1031 TEMPO -RA RMK RWY10 00000KT PP000=
SPZO Dic2006-261800Z /////KT 8000 RA VCSH SCT040TCU BKN046 11/07 Q1032 TEMPO 7000 BECMG FM1830 9000 RMK RWY10 10010KT 050V130 PP018=
SPZO Dic2006-261900Z /////KT 9999 FEW020 SCT040 12/08 Q1030 RERA NOSIG RMK RWY10 VRB02KT PP002=
SPZO Dic2006-262000Z /////KT 9999 -RA VCSH FEW025TCU SCT040 BKN050 15/08 Q1029 TEMPO RA RMK RWY10 VRB03KT PPTRZ=
SPZO Dic2006-262100Z /////KT 9999 RA FEW025 SCT040 BKN046 12/07 Q1029 NOSIG RMK WIND RWY10 VRB05KT PP004=
SPZO Dic2006-262200Z /////KT 9999 -RA FEW025 SCT050 12/07 Q1028 NOSIG RMK WIND RWY10 00000KT PPTRZ T.MAX.15.5=
SPZO Dic2006-262300Z /////KT 9999 FEW025 SCT050 13/06 Q1029 TEMPO VCSH RMK RWY10 00000KT PP000=
SPZO Dic2006-270000Z /////KT 9999 SCT036 BKN050 12/08 Q1030 RMK RWY10 00000KT PP000=
SPZO Dic2006-270100Z /////KT 9999 FEW036 SCT080 12/08 Q1031 RMK WIND RWY10 00000KT PP000=
SPZO Dic2006-270200Z /////KT 9999 FEW040 SCT080 12/09 Q1032 RMK WIND RWY10 00000KT PP000=
SPZO Dic2006-270300Z /////KT 9999 FEW040 SCT070 12/09 Q1033 RMK WIND RWY10 00000KT PP000=
SPZO Dic2006-270400Z /////KT 9999 SCT040 SCT070 11/09 Q1033 RMK WIND RWY10 00000KT PP000=
SPZO Dic2006-270500Z /////KT 9999 RA SCT036 BKN046 11/09 Q1032 RMK WIND RWY10 11005KT PP010=
SPZO Dic2006-270600Z /////KT 9999 RA SCT030 BKN043 10/08 Q1032 RMK WIND RWY10 00000KT PP008=
SPZO Dic2006-270700Z /////KT 9999 SCT036 BKN043 11/09 Q1030 RMK WIND RWY10 00000KT PP000=
SPZO Dic2006-270800Z /////KT 9000 RA SCT036 BKN043 10/07 Q1031 RMK WIND RWY10 34006KT PP016=
SPZO Dic2006-270900Z /////KT 8000 -RA SCT030 BKN043 09/07 Q1031 RMK WIND RWY10 32004KT PP010=
SPZO Dic2006-271000Z /////KT 9999 -DZ FEW025 SCT040 BKN043 09/07 Q1031 RMK WIND RWY10 00000KT PP002=
SPZO Dic2006-271100Z /////KT 9999 VCSH FEW030 SCT040 BKN046 09/07 Q1032 RMK WIND RWY10 00000KT PPTRZ=
SPZO Dic2006-271200Z /////KT 9999 VCSH FEW030 SCT040 BKN046 10/07 Q1033 NOSIG RMK WIND RWY10 00000KT PP000=
SPZO Dic2006-271300Z /////KT 9999 FEW025 SCT040 BKN050 11/07 Q1034 NOSIG RMK WIND RWY10 00000KT PP000=
SPZO Dic2006-271400Z /////KT 9999 FEW033 SCT043 BKN050 13/07 Q1034 NOSIG RMK WIND RWY10 00000KT PP000=
SPZO Dic2006-271500Z /////KT 9999 FEW036 SCT046 16/08 Q1033 NOSIG RMK=
SPZO Dic2006-271600Z /////KT 9999 FEW040 SCT050 17/06 Q1032 NOSIG RMK=
SPZO Dic2006-271700Z /////KT 9999 VCSH SCT040TCU BKN050 17/07 Q1031 NOSIG RMK WIND RWY10 07011KT 010V120KT PP000=
SPZO Dic2006-271800Z /////KT 9999 VCSH FEW040TCU SCT050 BKN080 17/07 Q1030 NOSIG RMK RWY10 VRB12KT PP000=
SPZO Dic2006-271900Z /////KT 9999 VCSH FEW040TCU SCT050 BKN100 18/05 Q1029 NOSIG RMK RWY10 21012KT 190V260 PP000=
SPZO Dic2006-272000Z /////KT 9999 FEW040TCU SCT050 SCT100 17/08 Q1029 TEMPO VSH RMK RWY10 10016KT 070V140 PP000=
SPZO Dic2006-272100Z /////KT 9999 VCSH SCT040TCU SCT050 BKN100 18/06 Q1028 NOSIG RMK RWY10 VRB08KT PP000=
SPZO Dic2006-272200Z /////KT 9000N VCSH SCT037TCU SCT047 BKN070 15/06 Q1028 TEMPO RA RMK RWY10 02023G38KT 310V100 TMAX 18.6 PP000=
SPZO Dic2006-272300Z /////KT 9999 -RA SCT040TCU BKN047 13/07 Q1029 NOSIG RMK RWY10 VRB07KT PP004=
SPZO Dic2006-280000Z /////KT 9999 FEW030 OVC046 13/07 Q1031 RMK RWY10 00000KT PPTRZ=
SPZO Dic2006-280100Z /////KT 9999 FEW030 BKN046 12/08 Q1032 RERA RMK RWY10 00000KT PP002=
SPZO Dic2006-280200Z /////KT 9000 FEW030 BKN046 12/08 Q1033 RMK RWY10 VRB05KT PP000=
SPZO Dic2006-280300Z /////KT 9999 FEW030 SCT046 11/08 Q1033 RMK RWY10 00000KT PP000=
SPZO Dic2006-280400Z /////KT 9999 FEW040 SCT046 11/08 Q1033 RMK RWY10 10006KT PP000=
SPZO Dic2006-280500Z /////KT 9999 FEW040 SCT046 11/08 Q1033 RMK RWY10 00000KT PP000=
SPZO Dic2006-280600Z /////KT 9999 FEW040 BKN046 11/08 Q1032 RMK RWY10 00000KT PP000=
SPZO Dic2006-280700Z /////KT 9999 FEW040 BKN046 11/08 Q1031 RMK RWY10 10007KT PP000=
SPZO Dic2006-280800Z /////KT 9999 FEW040 BKN046 11/08 Q1031 RMK WIND RWY10 00000KT PP000=
SPZO Dic2006-280900Z /////KT 9999 FEW040 BKN046 11/09 Q1031 RMK WIND RWY10 10005KT PP000=
SPZO Dic2006-281000Z /////KT 9999 FEW030 BKN 046 10/08 Q1032 RMK WIND RWY10 00000KT PP000=
SPZO Dic2006-281100Z /////KT 8000 RA FEW030 SCT040 BKN046 10/07 Q1034 CLNG BLW 1200M RMK WIND RWY10 08012KT 020V110KT PP006=
SPZO Dic2006-281200Z /////KT 9999 -RA FEW027 SCT037 BKN053 09/06 Q1035 RMK CLNG BLW 1200M WIND RWY10 10011KT 040V120 PP024=
SPZO Dic2006-281300Z /////KT 9999 SCT027 SCT047 BKN070 10/06 Q1035 REDZ RMK WIND RWY10 11008KT 060V150 PP006=
SPZO Dic2006-281400Z /////KT 9999 SCT030 SCT080 14/06 Q1035 RMK RWY10 00000KT PP000=
SPZO Dic2006-281500Z /////KT 9999 SCT037 SCT050 15/06 Q1034 NOSIG RMK=
SPZO Dic2006-281600Z /////KT 8000 SHRA SCT033TCU BKN047 13/06 Q1034 TEMPO FM1620 9999 NSW RMK WIND RWY10 08012KT PP006=
SPZO Dic2006-281700Z /////KT 9999 FEW037TCU BKN053 16/06 Q1033 RESHRA TEMPO VCSH RMK WIND RWY10 VRB12KT PP006=
SPZO Dic2006-281800Z /////KT 9999 FEW040 SCT050 18/06 Q1032 NOSIG RMK=
SPZO Dic2006-281900Z /////KT 9999 SCT050 19/06 Q1031 NOSIG RMK WIND RWY10 06015KT 340V140 PP000=
SPZO Dic2006-282000Z /////KT 9999 FEW040TCU SCT050 19/05 Q1029 NOSIG RMK WIND RWY10 VRB14G24KT PP000=
SPZO Dic2006-282100Z /////KT 9999 SCT046 19/05 Q1029 NOSIG RMK WIND RWY10 VRB12G23KT PP000=
SPZO Dic2006-282200Z /////KT 9999 FEW046 BKN230 18/04 Q1029 NOSIG RMK=
SPZO Dic2006-282300Z /////KT 9999 FEW050 BKN230 16/06 Q1029 NOSIG RMK=
SPZO Dic2006-290000Z /////KT 9999 FEW050 SCT100 15/07 Q1031 RMK PP000=
SPZO Dic2006-290100Z /////KT 9999 SCT050 SCT100 14/08 Q1032 RMK PP000=
SPZO Dic2006-290200Z /////KT 9999 SCT050 SCT100 14/08 Q1033 RMK PP000=
SPZO Dic2006-290300Z /////KT 9999 SCT040 SCT080 13/08 Q1033 RMK PP000=
SPZO Dic2006-290400Z /////KT 9999 SCT040 SCT080 13/08 Q1033 RMK PP000=
SPZO Dic2006-290500Z /////KT 9999 SCT037 BKN050 12/09 Q1033 RMK PP000=
SPZO Dic2006-290600Z /////KT 9999 -RA SCT033 BKN043 11/08 Q1033 RMK PP008=
SPZO Dic2006-290700Z /////KT 9999 SCT033 BKN043 10/07 Q1032 RERA RMK PP006=
SPZO Dic2006-290800Z /////KT 9999 SCT030 BKN043 10/07 Q1032 RMK PP000=
SPZO Dic2006-290900Z /////KT 9000 RA SCT025 SCT037 BKN043 09/07 Q1033 RMK CLNG BLW 1200M PP022=
SPZO Dic2006-291000Z /////KT 9999 SCT027 SCT037 BKN047 09/07 Q1033 RERA RMK CLNG BLW 1200M PP002=
SPZO Dic2006-291100Z /////KT 9999 FEW025 SCT037 BKN053 10/08 Q1034 RMK RWY10 10005KT PP000=
SPZO Dic2006-291200Z /////KT 9999 FEW020 SCT033 BKN043 10/08 Q1035 NOSIG RMK WIND RWY10 00000KT PP000=
SPZO Dic2006-291300Z /////KT 9999 FEW020 SCT033 BKN046 12/07 Q1035 NOSIG RMK WIND RWY10 VRB02KT PP000=
SPZO Dic2006-291400Z /////KT 9999 FEW030 SCT080 14/06 Q1035 NOSIG RMK=
SPZO Dic2006-291500Z /////KT 9999 FEW040 SCT080 17/08 Q1034 NOSIG RMK=
SPZO Dic2006-291600Z /////KT 9999 FEW040 SCT080 17/07 Q1034 NOSIG RMK=
SPZO Dic2006-291700Z /////KT 9999 SCT046 19/04 Q1032 NOSIG RMK WIND RWY10 VRB06KT PP000=
SPZO Dic2006-291800Z /////KT 9999 FEW040TCU SCT046 19/05 Q1030 NOSIG RMK WIND RWY10 07008KT 310V130 PP000=
SPZO Dic2006-291900Z /////KT 6000 RA BKN040CB SCT046 10/06 Q1032 BECMG FM 1930 9999 NSW RMK WIND RWY10 11040G55KT 070V140 PP064=
SPZO Dic2006-292000Z /////KT 9999 -RA BKN043 SCT070 11/07 Q1032 TEMPO FM2015 NSW RMK WIND RWY10 VRB02KT PP026=
SPZO Dic2006-292100Z /////KT 9999 -RA BKN043 SCT080 11/07 Q1030 NOSIG RMK WIND RWY10 00000KT PP006=
SPZO Dic2006-292200Z /////KT 9999 SCT050 SCT080 12/07 Q1030 NOSIG RMK=
SPZO Dic2006-292300Z /////KT 9999 FEW040 SCT046 BKN230 12/08 Q1031 NOSIG RMK WIND RWY10 31005KT 250V010 PP000=
SPZO Dic2006-300000Z /////KT 9999 SCT050 SCT080 10/08 Q1033 RMK PP000=
SPZO Dic2006-300100Z /////KT 9999 SCT050 SCT070 11/08 Q1033 RMK PP000=
SPZO Dic2006-300200Z /////KT 9999 SCT050 SCT070 11/08 Q1034 RMK PP000=
SPZO Dic2006-300300Z /////KT 9999 BKN040 SCT060 11/08 Q1034 RMK PP000=
SPZO Dic2006-300400Z /////KT 9999 SCT070 11/08 Q1034 RMK PP000=
SPZO Dic2006-300500Z /////KT 9999 SCT100 10/06 Q1033 RMK PP000=
SPZO Dic2006-300600Z /////KT 9999 SKC 09/06 Q1032 RMK PP000=
SPZO Dic2006-300700Z /////KT 9999 SKC 07/05 Q1031 RMK PP000=
SPZO Dic2006-300800Z /////KT 9999 SKC 06/05 Q1031 RMK PP000=
SPZO Dic2006-300900Z /////KT 9999 SKC 07/05 Q1031 RMK PP000=
SPZO Dic2006-301000Z /////KT 9999 SKC 06/04 Q1032 RMK PP000=
SPZO Dic2006-301100Z /////KT 9999 FEW200 06/05 Q1033 RMK RWY10 WIND 00000KT PP000=
SPZO Dic2006-301200Z /////KT 9999 FEW033 SCT200 09/06 Q1033 NOSIG RMK=
SPZO Dic2006-301300Z /////KT 9999 FEW033 12/07 Q1033 NOSIG RMK WIND RWY10 VRB03KT PP000=
SPZO Dic2006-301400Z /////KT 9999 FEW036 14/06 Q1033 NOSIG RMK WIND RWY10 VRB04KT PP000=
SPZO Dic2006-301500Z /////KT 9999 FEW040 SCT230 15/08 Q1033 NOSIG RMK=
SPZO Dic2006-301600Z /////KT 9999 SCT046 17/07 Q1032 NOSIG RMK WIND RWY10 VRB06KT PP000=
SPZO Dic2006-301700Z /////KT 9999 SCT046 19/03 Q1030 NOSIG RMK WIND RWY10 VRB09KT PP000=
SPZO Dic2006-301800Z /////KT 9999 SCT046 SCT100 20/02 Q1029 TEMPO VCSH RMK WIND RWY10 VRB08KT PP000=
SPZO Dic2006-301900Z /////KT 9999 FEW043TCU SCT050 BKN080 19/06 Q1028 TEMPO VCSH RMK WIND RWY10 02016G31KT PP000=
SPZO Dic2006-302000Z /////KT 9999 FEW040TCU SCT046 BKN080 14/07 Q1028 NOSIG RMK WIND RWY10 10023G34KT 050V140 PP000=
SPZO Dic2006-302100Z /////KT 9999 SCT050 BKN080 14/06 Q1028 NOSIG RMK=
SPZO Dic2006-302200Z /////KT 9999 SCT050 BKN100 13/06 Q1029 NOSIG RMK=
SPZO Dic2006-302300Z /////KT 9999 FEW050 BKN100 13/06 Q1028 NOSIG RMK=
SPZO Dic2006-310000Z /////KT 9999 SCT050 BKN100 12/06 Q1029 RMK WIND RWY10 09008KT 030V130 PP000=
SPZO Dic2006-310100Z /////KT 9999 FEW050 SCT200 11/06 Q1030 RMK WIND RWY10 00000KT PP000=
SPZO Dic2006-310200Z /////KT 9999 FEW230 10/06 Q1031 RMK WIND RWY10 00000KT PP000=
SPZO Dic2006-310300Z /////KT 9999 FEW040 09/05 Q1032 RMK WIND RWY10 00000KT PP000=
SPZO Dic2006-310400Z /////KT 9999 SKC 09/06 Q1032 RMK WIND RWY10 00000KT PP000=
SPZO Dic2006-310500Z /////KT 9999 FEW040 SCT080 09/07 Q1032 RMK WIND RWY10 12005KT PP000=
SPZO Dic2006-310600Z /////KT 9999 SCT036 SCT080 09/07 Q1031 RMK WIND RWY10 00000KT PP000=
SPZO Dic2006-310700Z /////KT 9999 SCT036 SCT043 10/07 Q1030 RMK WIND RWY10 00000KT PP000=
SPZO Dic2006-310800Z /////KT 8000 -RA SCT033 BKN043 09/07 Q1030 RMK WIND RWY10 12004KT PP010=
SPZO Dic2006-310900Z /////KT 8000 -RA FEW025 OVC040 09/07 Q1030 RMK WIND RWY10 00000KT PP012=
SPZO Dic2006-311000Z /////KT 9000 FEW025 SCT040 BKN043 09/07 Q1031 RMK=
SPZO Dic2006-311100Z /////KT 9999 FEW025 SCT040 BKN046 09/07 Q1032 RMK=
SPZO Dic2006-311200Z /////KT 9999 FEW025 SCT040 BKN046 10/07 Q1033 NOSIG RMK WIND RWY10 00000KT PP000=
SPZO Dic2006-311300Z /////KT 9999 FEW030 SCT050 BKN100 11/07 Q1033 NOSIG RMK WIND RWY10 00000KT PP000=
SPZO Dic2006-311400Z /////KT 9999 FEW030 SCT040 BKN100 13/07 Q1033 NOSIG RMK WIND RWY10 VRB06KT PP000=
SPZO Dic2006-311500Z /////KT 9999 SCT040 BKN080 15/07 Q1033 NOSIG RMK=
SPZO Dic2006-311600Z /////KT 9999 SCT046 SCT080 15/05 Q1032 NOSIG RMK=
SPZO Dic2006-311700Z /////KT 9999 FEW040 SCT046 BKN230 16/05 Q1031 TEMPO=
SPZO Dic2006-311800Z /////KT 9999 FEW040TCU SCT050 BKN200 18/06 Q1030 NOSIG RMK WIND RWY10 VRB15KT PP000=
SPZO Dic2006-311900Z /////KT 9999 FEW040TCU SCT050 BKN200 18/05 Q1029 NOSIG RMK WIND RWY10 VRB18KT PP000=
SPZO Dic2006-312000Z /////KT 9999 SCT047 BKN200 17/05 Q1028 NOSIG RMK=
SPZO Dic2006-312100Z /////KT 9999 SCT047 SCT200 17/04 Q1027 NOSIG RMK=
SPZO Dic2006-312200Z /////KT 9999 SCT047 SCT200 15/04 Q1028 NOSIG RMK=
SPZO Dic2006-312300Z /////KT 9999 SCT047 SCT200 14/03 Q1029 NOSIG RMK=
SPZO Ene2007-010000Z /////KT 9999 FEW040 SCT200 13/02 Q1030 RMK WIND RWY10 VRB17G33KT PP000=
SPZO Ene2007-010100Z /////KT 9999 FEW050 12/03 Q1031 RMK WIND RWY10 VRB11G21KT PP000=
SPZO Ene2007-010200Z /////KT 9999 FEW050 11/03 Q1032 RMK WIND RWY10 00000KT PP000=
SPZO Ene2007-010300Z /////KT 9999 SKC 09/04 Q1033 RMK WIND RWY10 00000KT PP000=
SPZO Ene2007-010400Z /////KT 9999 SKC 08/05 Q1033 RMK WIND RWY10 00000KT PP000=
SPZO Ene2007-010500Z /////KT 9999 FEW050 08/04 Q1033 RMK WIND RWY10 00000KT PP000=
SPZO Ene2007-010600Z /////KT 9000 FEW050 07/04 Q1032 RMK WIND RWY210 11003KT PP000=
SPZO Ene2007-010700Z /////KT 8000 SCT050 07/04 Q1031 RMK WIND RWY10 00000KT PP000=
SPZO Ene2007-010800Z /////KT 8000 FEW040 BKN050 07/05 Q1031 RMK WIND RWY10 00000KT PP000=
SPZO Ene2007-010900Z /////KT 8000 FEW030 BKN046 08/05 Q1031 RMK WIND RWY10 09003KT PP000=
SPZO Ene2007-011000Z /////KT 8000 FEW030 SCT046 BKN050 08/04 Q1031 RMK=
SPZO Ene2007-011100Z /////KT 6000 FU FEW025 SCT040 BKN050 07/05 Q1032 RMK WIND RWY10 00000KT PP000=
SPZO Ene2007-011200Z /////KT 3000 FU HZ FEW040 SCT100 08/05 Q1032 NOSIG RMK WIND RWY10 VRB02KT VISIBILITY BELOW 8000M PP000=
SPZO Ene2007-011300Z /////KT 4000 3000E FU HZ FEW040 SCT100 12/05 Q1033 NOSIG RMK WIND RWY10 12005KT 060V170 VISIBILITY BLW 800M PP000=
SPZO Ene2007-011400Z /////KT 9999 SCT047 15/04 Q1032 NOSIG RMK WIND RWY10 VRB04KT PP000=
SPZO Ene2007-011500Z /////KT 9999 SCT047 SCT070 16/06 Q1031 NOSIG RMK RWY10 VRB06T PP000=
SPZO Ene2007-011600Z /////KT 9999 SCT043 BKN053 17/03 Q1030 NOSIG RMK=
SPZO Ene2007-011700Z /////KT 9999 FEW040TCU BKN050 18/03 Q1029 TEMPO=
SPZO Ene2007-011800Z /////KT 9999 FEW040TCU SCT050 BKN080 18/03 Q1029 NOSIG RMK WIND RWY10 VRB08KT PP000=
SPZO Ene2007-011900Z /////KT 9999 SCT050 BKN100 19/03 Q1028 NOSIG RMK=
SPZO Ene2007-012000Z /////KT 9999 SCT043 SCT100 18/04 Q1026 NOSIG RMK=
SPZO Ene2007-012100Z /////KT 9999 FEW040TCU SCT046 18/05 Q1025 NOSIG RMK WIND RWY10 VRB12G38KT PP000=
SPZO Ene2007-012200Z /////KT 9999 VCSH FEW040TCU SCT046 17/06 Q1025 NOSIG RMK WIND RWY10 04009KT 340V140 T. MAX 19.7 PP000=
SPZO Ene2007-012300Z /////KT 9999 VCSH FEW036TCU BKN043 14/07 Q1026 RESHRA NOSIG RMK WIND RWY10 02014G25KT 330V100 PPTRZ=
SPZO Ene2007-020000Z /////KT 9999 -RA BKN037 SCT080 13/07 Q1027 RMK PP004=
SPZO Ene2007-020100Z /////KT 9999 SCT040 SCT060 12/08 Q1028 RERA RMK PP002=
SPZO Ene2007-020200Z /////KT 9999 SCT040 BKN070 13/08 Q1029 RMK PP000=
SPZO Ene2007-020300Z /////KT 9999 SCT040 BKN050 13/07 Q1029 RMK PP000=
SPZO Ene2007-020400Z /////KT 9999 SCT037 BKN047 12/08 Q1029 RMK PP000=
SPZO Ene2007-020500Z /////KT 9999 SCT037 BKN047 11/08 Q1029 RMK PP000=
SPZO Ene2007-020600Z /////KT 9999 FEW040TCU BKN050 10/08 Q1029 RMK PP000=
SPZO Ene2007-020700Z /////KT 9999 SCT037 BKN047 10/08 Q1029 RMK PP000=
SPZO Ene2007-020800Z /////KT 9999 FEW025 SCT037 BKN047 10/07 Q1028 RMK PP000=
SPZO Ene2007-020900Z /////KT 9000 RA FEW025 SCT033 BKN043 09/07 Q1029 RMK CEILING BELOW 1200M PP016=
SPZO Ene2007-021000Z /////KT 9999 FEW025 BKN040 09/07 Q1029 RERA RMK RWY10=
SPZO Ene2007-021100Z /////KT 9999 FEW027 SCT033 BKN047 09/07 Q1030 RMK=
SPZO Ene2007-021200Z /////KT 9999 FEW025 SCT036 BKN050 10/07 Q1030 NOSIG RMK WIND RWY10 00000KT PP000=
SPZO Ene2007-021300Z /////KT 9999 FEW025 SCT040 BKN080 12/07 Q1031 NOSIG RMK WIND RWY10 00000KY PP000=
SPZO Ene2007-021400Z /////KT 9999 FEW030 SCT040 BKN080 14/08 Q1031 NOSIG RMK WIND RWY10 VRB05KT PP000=
SPZO Ene2007-021500Z /////KT 9999 FEW040 SCT050 BKN100 15/07 Q1030 NOSIG RMK WIND RWY10 14005KT 070V230 PP000=
SPZO Ene2007-021600Z /////KT 9999 FEW040 SCT050 17/07 Q1029 NOSIG RMK=
SPZO Ene2007-021700Z /////KT 9999 -RA VCSH FEW040TCU BKN050 13/08 Q1029 TEMPO NSW RMK RWY10 VRB15KT PP018=
SPZO Ene2007-021800Z /////KT 9999 VCSH FEW040TCU BKN046 15/08 Q1028 NOSIG RMK WIND RWY10 11006KT 060V180 PP012=
SPZO Ene2007-021900Z /////KT 9999 VCSH FEW040 SCT046 BKN070 16/07 Q1028 NOSIG RMK WIND RWY10 VRB02KT PP000=
SPZO Ene2007-022000Z /////KT 9999 VCSH SCT040CB BKN046 17/06 Q1026 TEMPO -TSRA RMK WIND RWY10 20008KT 150V270 PP000=
SPZO Ene2007-022100Z /////KT 9999 -RA FEW036 SCT043 BKN050 11/07 Q1027 TEMPO NSW RMK WIND RWY10 16010KT 080V230 PP048=
SPZO Ene2007-022200Z /////KT 9999 SCT043 BKN100 11/08 Q1027 NOSIG RMK=
SPZO Ene2007-022300Z /////KT 9999 SCT046 BKN100 12/08 Q1028 NOSIG RMK=
SPZO Ene2007-030000Z /////KT 9999 SCT040 BKN060 11/08 Q1029 RMK PP000=
SPZO Ene2007-030100Z /////KT 9999 SCT040 SCT060 11/08 Q1029 RMK PP000=
SPZO Ene2007-030200Z /////KT 9999 SCT040 SCT080 10/08 Q1030 RMK PP000=
SPZO Ene2007-030300Z /////KT 9999 SCT040 BKN060 11/08 Q1031 RMK PP000=
SPZO Ene2007-030400Z /////KT 9000 RA SCT033 BKN047 10/08 Q1032 RMK PP014=
SPZO Ene2007-030500Z /////KT 9999 FEW025 SCT033 BKN047 10/08 Q1032 RERA RMK PP010=
SPZO Ene2007-030600Z /////KT 9999 SCT030 BKN040 10/07 Q1031 RMK PP000=
SPZO Ene2007-030700Z /////KT 9999 SCT030 BKN040 10/07 Q1030 RMK PP000=
SPZO Ene2007-030800Z /////KT 9999 SCT030 BKN040 10/07 Q1030 RMK PP000=
SPZO Ene2007-030900Z /////KT 8000 -DZ OVC040 09/07 Q1030 RMK PPTRZ=
SPZO Ene2007-031000Z /////KT 9000 FEW020 SCT040 BKN050 09/07 Q1031 RERA RMK PP002=
SPZO Ene2007-031100Z /////KT 9999 FEW020 SCT040 BKN050 09/07 Q1031 RMK PP000=
SPZO Ene2007-031200Z /////KT 9999 FEW020 SCT043 BKN050 10/07 Q1032 NOSIG RMK WIND RWY10 00000KT PP000=
SPZO Ene2007-031300Z /////KT 9999 FEW025 SCT043 BKN080 11/07 Q1033 NOSIG RMK WIND RWY10 00000KT PP000=
SPZO Ene2007-031400Z /////KT 9999 FEW030 SCT046 BKN100 12/06 Q1033 NOSIG RMK WIND RWY10 VRB03KT PP000=
SPZO Ene2007-031500Z /////KT 9999 FEW036TCU SCT043 BKN050 13/06 Q1032 TEMPO VCSH RMK WIND RWY10 VRB04KT PP000=
SPZO Ene2007-031600Z /////KT 9999 VCSH FEW036TCU SCT043 BKN046 14/07 Q1032 NOSIG RMK WIND RWY10 00000KT PP000=
SPZO Ene2007-031700Z /////KT 9999 VCSH FEW040TCU SCT043 BKN050 15/08 Q1031 TEMPO -RA RMK WIND RWY10 VRB02KT PP000=
SPZO Ene2007-031800Z /////KT 9999 VCSH SCT050 BKN080 15/06 Q1031 RMK=
SPZO Ene2007-031900Z /////KT 9999 SCT040 SCT060 16/06 Q1029 NOSIG RMK=
SPZO Ene2007-032000Z /////KT 9999 FEW040TCU SCT046 BKN060 17/08 Q1028 TEMPO VCSH WIND RWY10 09008KT PP000=
SPZO Ene2007-032100Z /////KT 9999 VCSH FEW040TCU SCT046 BKN060 15/08 Q1027 NOSIG RMK WIND RWY10 VRB06G26KT PP000=
SPZO Ene2007-032200Z /////KT 9999 VCSH FEW040TCU SCT046 BKN060 14/08 Q1027 TEMPO RA RMK WIND RWY10 VRB08KT T.MAX.18.3 PP000=
SPZO Ene2007-032300Z /////KT 9999 -RA SCT040 BKN046 12/08 Q1029 NOSIG RMK WIND RWY10 VRB07G19KT PP004=
SPZO Ene2007-040000Z /////KT 8000 -RA SCT036 BKN046 11/08 Q1030 RMK WIND RWY10 00000KT PP012=
SPZO Ene2007-040100Z /////KT 9999 -RA FEW036 OVC043 11/08 Q1030 RMK WIND RWY10 20005KT PP010=
SPZO Ene2007-040200Z /////KT 9999 SCT025 BKN050 11/09 Q1031 RMK WIND RWY10 11005KT PPTRZ=
SPZO Ene2007-040300Z /////KT 9999 FEW025 OVC050 11/09 Q1031 RMK WIND RWY10 05006KT PP000=
SPZO Ene2007-040400Z /////KT 9999 SCT025 BKN050 11/08 Q1031 RMK WIND RWY10 00000KT PP000=
SPZO Ene2007-040500Z /////KT 9999 SCT030 BKN050 10/09 Q1031 RMK WIND RWY10 00000KT PP000=
SPZO Ene2007-040600Z /////KT 9999 RA SCT033 BKN043 11/07 Q1030 RMK WIND RWY10 VRB2KT PP022=
SPZO Ene2007-040700Z /////KT 9999 -RA FEW030 OVC040 10/08 Q1031 RMK WIND RWY10 VRB02KT PP022=
SPZO Ene2007-040800Z /////KT 9999 SCT033 BKN043 10/08 Q1030 RMK WIND RWY10 00000KT PP002=
SPZO Ene2007-040900Z /////KT 9999 SCT030 BKN043 09/08 Q1030 RMK WIND RWY10 VRB03KT PP000=
SPZO Ene2007-041000Z /////KT 9999 -RA FEW025 SCT040 BKN043 09/07 Q1031 RMK WIND RWY10 10004KT PPTRZ=
SPZO Ene2007-041100Z /////KT 9999 -RA SCT025 SCT036 BKN046 09/07 Q1031 RMK CLNG BLW 1200M WIND RWY10 09004KT 040V120 PP006=
SPZO Ene2007-041200Z /////KT 9999 DZ FEW020 SCT040 BKN046 09/08 Q1032 BECMG FM1230 NSW RMK WIND RWY10 09004KT 060V130 PP002=
SPZO Ene2007-041300Z /////KT 9999 FEW025 SCT040 SCT050 11/08 Q1032 NOSIG RMK WIND RWY10 VRB03KT PP002=
SPZO Ene2007-041400Z /////KT 9999 FEW030 SCT040 SCT050 13/07 Q1032NOSIG RMK WIND RWY10 VRB06KT PP000=
SPZO Ene2007-041500Z /////KT 9999 FEW030 SCT050 BKN100 14/08 Q1032 NOSIG RMK WIND RWY10 VRB12KT PP000=
SPZO Ene2007-041600Z /////KT 9999 FEW030 SCT050 BKN100 15/08 Q1031 TEMPO=
SPZO Ene2007-041700Z /////KT 9999 SCT043 BKN080 16/06 Q1030 TEMPO VCSH RMK WIND RWY10 VRB04KT PP000=
SPZO Ene2007-041800Z /////KT 9999 FEW040TCU SCT100 BKN200 17/07 Q1029 NOSIG RMK WIND RWY10 VRB06KT PP000=
SPZO Ene2007-041900Z /////KT 9999 SCT047 BKN200 18/07 Q1028 NOSIG RMK=
SPZO Ene2007-042000Z /////KT 9999 SCT047 SCT200 19/06 Q1027 NOSIG RMK=
SPZO Ene2007-042100Z /////KT 9999 FEW043TCU SCT050 20/07 Q1025 NOSIG RMK WIND RWY10 28014G26KT 230V340 PP000=
SPZO Ene2007-042200Z /////KT 9999 FEW040TCU SCT050 19/06 Q1025 RMK RWY10 27017KT 230V320 TMAX 19.9 PP000=
SPZO Ene2007-042300Z /////KT 9999 SCT047 17/08 Q1025 NOSIG RMK WIND RWY10 29018KT PP000=
SPZO Ene2007-050000Z /////KT 9999 FEW040 SCT050 15/08 Q1027 RMK WIND RWY10 VRB14KT PP000=
SPZO Ene2007-050100Z /////KT 9999 FEW040 SCT050 14/08 Q1028 RMK WIND RWY10 27017KT PP000=
SPZO Ene2007-050200Z /////KT 9999 FEW040 SCT050 14/08 Q1029 RMK WIND RWY10 27012KT PP000=
SPZO Ene2007-050300Z /////KT 9999 FEW040 SCT040 14/07 Q1030 RMK WIND RWY10 VRB13KT PP000=
SPZO Ene2007-050400Z /////KT 9999 FEW050 12/07 Q1030 RMK WIND RWY10 29009KT 230V360 PP000=
SPZO Ene2007-050500Z /////KT 9999 FEW046 SCT050 11/08 Q1029 RMK WIND RWY10 00000KT PP000=
SPZO Ene2007-050600Z /////KT 9999 FEW040 BKN050 12/08 Q1029 RMK WIND RWY10 00000KT PP000=
SPZO Ene2007-050700Z /////KT 9999 FEW040 BKN050 12/09 Q1028 RMK WIND RWY10 00000KT PP000=
SPZO Ene2007-050800Z /////KT 9999 FEW040 BKN050 11/08 Q1028 RMK WIND RWY10 00000KT PP000=
SPZO Ene2007-050900Z /////KT 9999 FEW030 SCT050 11/08 Q1029 RMK WIND RWY10 30008KT 260V360 PP000=
SPZO Ene2007-051000Z /////KT 9999 FEW030 10/08 Q1029 RMK WIND RWY10 VRB02KT PP000=
SPZO Ene2007-051100Z /////KT 9999 FEW033 SCT050 10/07 Q1030 RMK WIND RWY10 00000KT PP000=
SPZO Ene2007-051200Z /////KT 9999 SCT033 SCT050 11/08 Q1031 NOSIG RMK=
SPZO Ene2007-051300Z /////KT 9999 FEW033 SCT050 13/08 Q1031 NOSIG RMK=
SPZO Ene2007-051400Z /////KT 9999 FEW033 SCT047 14/07 Q1031 NOSIG RMK=
SPZO Ene2007-051500Z /////KT 9999 FEW037 SCT047 16/07 Q1030 RMK WIND RWY10 VRB05KT PP000=
SPZO Ene2007-051600Z /////KT 9999 SCT037TCU SCT050 19/07 Q1029 NOSIG RMK WIND RWY10 VRB02KT PP000=
SPZO Ene2007-051700Z /////KT 9999 VCSH SCT037TCU SCT047 19/08 Q1028 NOSIG RMK WIND RWY10 02014KT 340V100 PP000=
SPZO Ene2007-051800Z /////KT 9999 BKN050 20/06 Q1027 NOSIG RMK WIND RWY10 33017KT PP000=
SPZO Ene2007-051900Z /////KT 9999 BKN050 21/05 Q1025 NOSIG RMK WIND RWY10 03010G21KT 260V160 PP000=
SPZO Ene2007-052000Z /////KT 9999 BKN050 21/05 Q1025 NOSIG RMK WIND RWY10 01013G32KT 250V100 PP000=
SPZO Ene2007-052100Z /////KT 9999 BKN050 19/05 Q1024 TEMPO VCSH RMK WIND RWY10 01015G25KT 290V080 PP000=
SPZO Ene2007-052200Z /////KT 9999 BKN050 19/05 Q1025 NOSIG RMK WIND RWY10 28019KT 240V340 TMAX 22.0 PP000=
SPZO Ene2007-052300Z /////KT 9999 BKN050 17/07 Q1025 NOSIG RMK WIND RWY10 29017KT 250V320 PP000=
SPZO Ene2007-060000Z /////KT 9999 SCT050 SCT200 14/08 Q1027 RMK PP000=
SPZO Ene2007-060100Z /////KT 9999 SCT040 14/08 Q1028 RMK PP000=
SPZO Ene2007-060200Z /////KT 9999 SCT040 13/08 Q1029 RMK PP000=
SPZO Ene2007-060300Z /////KT 9999 FEW040 11/07 Q1030 RMK PP000=
SPZO Ene2007-060400Z /////KT 9999 FEW040 SCT100 11/08 Q1030 RMK PP000=
SPZO Ene2007-060500Z /////KT 9999 FEW040 SCT100 11/08 Q1030 RMK PP000=
SPZO Ene2007-060600Z /////KT 9999 SCT040 SCT070 12/08 Q1029 RMK PP000=
SPZO Ene2007-060700Z /////KT 9999 SCT040 BKN070 11/08 Q1028 RMK PP000=
SPZO Ene2007-060800Z /////KT 9999 SCT040 BKN050 11/08 Q1028 RMK PP000=
SPZO Ene2007-060900Z /////KT 9999 SCT040 BKN 050 11/08 Q1029 RMK PP000=
SPZO Ene2007-061000Z /////KT 9999 FEW030 SCT037 BKN047 10/08 Q1030 RMK RWY10=
SPZO Ene2007-061100Z /////KT 9000NE VCSH FEW027 SCT037 BKN050 10/06 Q1031 RMK WIND RWY10 12017KT 070V170 CEILING BELOW 1200M PP000=
SPZO Ene2007-061200Z /////KT 9000 VCSH FEW030 SCT040 BKN046 10/05 Q1032 RERA NOSIG RMK WIND RWY10 11004KT 050V160 VCSH QUAD W PPTRZ=
SPZO Ene2007-061300Z /////KT 9999 FEW033 SCT050 BKN060 12/06 Q1032 NOSIG RMK WIND RWY10 00000KT PP000=
SPZO Ene2007-061400Z /////KT 9999 SCT040 SCT050 BKN080 15/07 Q1032 NOSIG RMK WIND RWY10 00000KT PP000=
SPZO Ene2007-061500Z /////KT 9999 SCT040 SCT050 BKN080 15/05 Q1032 TEMPO=
SPZO Ene2007-061600Z /////KT 9999 SCT040 SCT050 BKN080 16/06 Q1031 NOSIG RMK WIND RWY10 00000KT PP000=
SPZO Ene2007-061700Z /////KT 9999 SCT040 SCT050 BKN080 18/09 Q1030 TEMPO=
SPZO Ene2007-061800Z /////KT 9999 FEW040TCU BKN046 16/05 Q1029 TEMPO=
SPZO Ene2007-061900Z /////KT 9999 VCSH FEW040TCU BKN046 18/08 Q1028 NOSIG RMK WIND RWY10 30025G46KT 260V360 PP000=
SPZO Ene2007-062000Z /////KT 9999 VCSH FEW040TCU BKN046 15/07 Q1027 NOSIG RMK WIND RWY10 29021G33 PP000=
SPZO Ene2007-062100Z /////KT 9999 FEW040TCU BKN046 16/06 Q1026 RMK PP000 RWY 10 29019G28KT250V350=
SPZO Ene2007-062200Z /////KT 9999 SCT046 BKN050 16/07 Q1026 NOSIG RMK=
SPZO Ene2007-062300Z /////KT 9999 SCT050 SCT080 16/07 Q1027 NOSIG RMK=
SPZO Ene2007-070000Z /////KT 9999 SCT050 SCT100 14/08 Q1028 PP000=
SPZO Ene2007-070100Z /////KT 9999 SCT050 SCT100 14/08 Q1029 RMK PP000=
SPZO Ene2007-070200Z /////KT 9999 SCT050 SCT100 14/08 Q1029 RMK PP000=
SPZO Ene2007-070300Z /////KT 9999 SCT050 SCT060 13/07 Q1031 RMK PP000=
SPZO Ene2007-070400Z /////KT 9999 SCT050 SCT060 13/07 Q1031 RMK PP000=
SPZO Ene2007-070500Z /////KT 9999 SCT040 SCT050 10/06 Q1031 RMK PP000=
SPZO Ene2007-070600Z /////KT 9999 SCT040 SCT050 10/06 Q1031 RMK PP000=
SPZO Ene2007-070700Z /////KT 9999 SCT040 SCT050 09/06 Q1031 RMK PP000=
SPZO Ene2007-070800Z /////KT 9999 SCT040 SCT050 08/06 Q1031 RMK PP000=
SPZO Ene2007-070900Z ////KT 9999 FEW020 SCT040 BKN050 08/05 Q1031 RMK PP000=
SPZO Ene2007-071000Z /////KT 9999 FEW020 SCT040 BKN050 08/05 Q1031 RMK PP000=
SPZO Ene2007-071100Z /////KT 9999 FEW020 SCT040 BKN050 08/05 Q1032 RMK PP000=
SPZO Ene2007-071200Z /////KT  9999 FEW033 BKN050 09/05 Q1033 NOSIG RMK RWY10 VRB02KT PP000=
SPZO Ene2007-071300Z /////KT 99999 FEW033 BKN053 10/05 Q1033 NOSIG RMK RWY10 VRB 02KT PP000=
SPZO Ene2007-071400Z /////KT 9999 FEW037 BKN060 12/05 Q1033 RMK NOSIG RWY10 00KT PP000=
SPZO Ene2007-071500Z /////KT 99999 SCT040 BKN070 14/05 Q1033 RMK NOSIG RMK RWY10 000KT PP000=
SPZO Ene2007-071600Z /////KT 9999 SCT043 SCT080 17/06 Q1031 NOSIG RMK RWY10 00000KT PP000=
SPZO Ene2007-071700Z /////KT 9999 SCT043 SCT080 19/06 Q1029 NOSIG RMK RWY10 VRB08KT PP000=
SPZO Ene2007-071800Z /////KT 9999 FEW046TCU BKN050 18/05 Q1029 NOSIG RMK WIND RWY10 12008KT 050V170 PP000=
SPZO Ene2007-071900Z /////KT 9999 TS VCSH FEW043CB BKN050 17/08 Q1028 TEMPO RA RMK WIND RWY10 11018KT 080V150 PP000=
SPZO Ene2007-072000Z /////KT 9999 FEW043TCU BKN050 17/07 Q1027 TEMPO=
SPZO Ene2007-072100Z /////KT 9999 FEW043 SCT100 18/05 Q1026 NOSIG RMK WIND RWY10 VRB06G19KT PP000=
SPZO Ene2007-072200Z /////KT 9999 FEW046 SCT100 18/06 Q1026 NOSIG RMK=
SPZO Ene2007-072300Z /////KT 9999 FEW050 SCT100 17/06 Q1026 NOSIG RMK=
SPZO Ene2007-080000Z /////KT 9999 SCT050 SCT100 16/06 Q1028 RMK PP000=
SPZO Ene2007-080100Z /////KT 9999 BKN050 15/05 Q1029 RMK PP000=
SPZO Ene2007-080200Z /////KT 9999 BKN050 14/06 Q1030 RMK PP000=
SPZO Ene2007-080300Z /////KT 9999 BKN050 13/06 Q1031 RMK PP000=
SPZO Ene2007-080400Z /////KT 9999 BKN050 12/06 Q1031 RMK PP000=
SPZO Ene2007-080500Z /////KT 9999 BKN050 12/06 Q1030 RMK PP000=
SPZO Ene2007-080600Z /////KT 9999 BKN050 11/07 Q1029 RMK PP000=
SPZO Ene2007-080700Z /////KT 9999 BKN050 10/06 Q1028 RMK PP000=
SPZO Ene2007-080800Z /////KT 9999 BKN050 10/07 Q1028 RMK PP000=
SPZO Ene2007-080900Z /////KT 9999 BKN050 11/07 Q1028 RMK PP000=
SPZO Ene2007-081000Z /////KT 9999 BKN050 10/06 Q1029 RMK PP000=
SPZO Ene2007-081100Z /////KT 9999 SCT040 BKN050 10/07 Q1030 RMK WIND RWY10 32008KT 230V020 PP000=
SPZO Ene2007-081200Z /////KT 9999 SCT040 BKN050 11/08 Q1030 NOSIG RMK=
SPZO Ene2007-081300Z /////KT 9999 SCT040 BKN050 12/06 Q1031 NOSIG RMK=
SPZO Ene2007-081400Z /////KT 9999 VCSH SCT040 BKN050 13/07 Q1031 NOSIG RMK WIND RWY10 30007KT 260V360 PP000=
SPZO Ene2007-081500Z /////KT 9999 FEW030 SCT040 BKN050 13/06 Q1031 NOSIG RMK WIND RWY10 VRB05KT PP000=
SPZO Ene2007-081600Z /////KT 9999 -RAVCSH SCT040 BKN050 13/06 Q1031 NOSIG RMK WIND RWY10 VRB09KT PPTRZ=
SPZO Ene2007-081700Z /////KT 9999 VCSH FEW040 SCT046 BKN060 14/05 Q1030 NOSIG RMK WIND RWY10 33007KT 290V010 PPTRZ=
SPZO Ene2007-081800Z /////KT 9999 SCT040 SCT050 BKN080 17/06 Q1029 NOSIG RMK RWY10 35014KT 310V070 PP000=
SPZO Ene2007-081900Z /////KT 9999 FEW037TCU SCT047 BKN070 17/05 Q1028 NOSIG RMK RWY10 VRB08KT PP000=
SPZO Ene2007-082000Z /////KT 9000W VCSH SCT037 TCU SCT050 BKN080 16/04 Q1027 TEMPO RA RMK RWY10 03015KT 330V120 PP000=
SPZO Ene2007-082100Z /////KT 9999 FEW037TCU SCT050 BKN100 15/05 Q1027 TEMPO VCSH RMK RWY10 VRB09KT PP000=
SPZO Ene2007-082200Z /////KT 9999 SCT040 BKN120 16/05 Q1027 NOSIG RMK RWY10 VRB05KT TMAX 17.5 PP000=
SPZO Ene2007-082300Z /////KT 9999 SCT050 BKN200 NOSIG RMK RWY10 VRB09KT PP000=
SPZO Ene2007-090000Z /////KT 9999 FEW050 OVC100 13/06 Q1028 RMK RWY10=
SPZO Ene2007-090100Z /////KT 9999 FEW050 13/06 Q1029 RMK WIND RWY10 10008KT PP000=
SPZO Ene2007-090200Z /////KT 9999 FEW050 11/06 Q1030 RMK WIND RWY10 00000KT PP000=
SPZO Ene2007-090300Z /////KT 9999 FEW046 SCT050 11/07 Q1031 RMK WIND RWY10 00000KT PP000=
SPZO Ene2007-090400Z /////KT 9999 FEW040 SCT050 11/07 Q1031 RMK WIND RWY10 13003KT PP000=
SPZO Ene2007-090500Z /////KT 9999 FEW040 SCT050 10/07 Q1030 RMK WIND RWY10 04008KT PP000=
SPZO Ene2007-090600Z /////KT 9999 FEW040 BKN050 10/07 Q1030 RMK WIND RWY10 00000KT PP000=
SPZO Ene2007-090700Z /////KT 9999 FEW040 BKN050 10/06 Q1029 RMK WIND RWY10 00000KT PP000=
SPZO Ene2007-090800Z /////KT 9999 FEW040 BKN050 10/06 Q1029 RMK WIND RWY10 15003KT PP000=
SPZO Ene2007-090900Z /////KT 9999 FEW040 BKN050 10/07 Q1029 RMK WIND RWY10 00000KT PP000=
SPZO Ene2007-091000Z /////KT 9999 FEW040 BKN050 09/07 Q1029 RMK WIND RWY10 00000KT PP000=
SPZO Ene2007-091100Z /////KT 9999 FEW030 BKN046 10/06 Q1030 RMK WIND RWY10 12002KT PP000=
SPZO Ene2007-091200Z /////KT 9999 SCT040 SCT080 11/07 Q1031 NOSIG RMK RWY10 12004KT 080V170 PP000=
SPZO Ene2007-091300Z /////KT 9999 FEW033TCU BKN047 13/07 Q1031 NOSIG RMK RWY10 VRB08KT PP000=
SPZO Ene2007-091400Z /////KT 9999 SCT040 BKN070 16/05 Q1031 NOSIG RMK RWY10 16008KT 090V220 PP000=
SPZO Ene2007-091500Z /////KT 9999 BKN040 SCT050 17/05 Q1030 NOSIG RMK RWY10 VRB04KT PP000=
SPZO Ene2007-091600Z /////KT 9999 FEW037TCU SCT047 BKN060 17/05 Q1030 TEMPO VCSH RMK RWY10 VRB07KT PP000=
SPZO Ene2007-091700Z /////KT 9999 FEW037TCU BKN050 18/04 Q1029 TEMOP=
SPZO Ene2007-091800Z /////KT 9999 FEW040 BKN050 19/07 Q1028 TEMPO VCSH RMK WIND RWY10 26009KT 200V290 PP000=
SPZO Ene2007-091900Z /////KT 9999 FEW040 BKN050 19/06 Q1026 TEMPO VCSH RMK WIND RWY10 01015G27KT 280V130 PP000=
SPZO Ene2007-092000Z /////KT 9999 FEW040 BKN050 20/06 Q1025 TEMPO VCSH RMK WIND RWY10 35015KT 260V060 PP000=
SPZO Ene2007-092100Z /////KT 8000 -DZ FEW040 BKN050 18/07 Q1025 TEMPO=
SPZO Ene2007-092200Z /////KT 8000 -DZ FEW040 BKN050 17/06 Q1025 TEMPO=
SPZO Ene2007-092300Z /////KT 9000 FEW040 BKN050 15/07 Q1026 REDZ TEMPO=
SPZO Ene2007-100000Z /////KT 9000 -DZ FEW037TCU BN047 14/08 Q1027 RMK PPTRZ=
SPZO Ene2007-100100Z /////KT 9999 -RA FEW033 BKN043 13/09 Q1028 RMK PP004=
SPZO Ene2007-100200Z /////KT 9999 -RA SCT033 BKN043 13/08 Q1029 RMK PPTRZ=
SPZO Ene2007-100300Z /////KT 9000 RA SCT030 BKN040 11/08 Q1030 RMK PP008=
SPZO Ene2007-100400Z /////KT 9999 VCRA SCT030 BKN040 12/08 Q1031 RMK PP006=
SPZO Ene2007-100500Z /////KT 9999 SCT030 BKN043 12/09 Q1030 RMK PP000=
SPZO Ene2007-100600Z /////KT 9999 SCT033 SCT100 11/09 Q1030 RMK PP000=
SPZO Ene2007-100700Z /////KT 9999 FEW030 SCT040 BKN100 11/09 Q1029 RMK PP000=
SPZO Ene2007-100800Z /////KT 9999 FEW025 SCT040 BKN150 11/08 Q1029 RMK PP000=
SPZO Ene2007-100900Z /////KT 9999 FEW025 BKN043 10/08 Q1029 RMK PP000=
SPZO Ene2007-101000Z /////KT 9999 FEW027 SCT040 BKN053 10/08 Q1029 RMK RWY10 00000KT PP000=
SPZO Ene2007-101100Z /////KT 9999 FEW030 SCT040 BKN050 11/08 Q1030 RMK RWY10 00000KT PP000=
SPZO Ene2007-101200Z /////KT 9999 FEW030 SCT040 BKN050 11/08 Q1031 NOSIG RMK WIND RWY10 32011KT 240V040 PP000=
SPZO Ene2007-101300Z /////KT 7000 -RA SCT020 BKN040 11/06 Q1032 BECMG=
SPZO Ene2007-101400Z /////KT 9000 SCT030 BKN040 11/08 Q1032 TEMPO VCSH RMK WIND RWY10 11013KT 070V160 PP014=
SPZO Ene2007-101500Z /////KT 8000 -RA SCT030 BKN040 12/07 Q1032 TEMPO 7000 RMK WIND RWY10 34006KT 260V060 PPTRZ=
SPZO Ene2007-101600Z /////KT 7000 RA SCT030TCU BKN040 11/08 Q1032 FM1640 8000 RMK WIND RWY10 VRB02KT PP018=
SPZO Ene2007-101700Z /////KT 9000 FEW030TCU SCT040 BKN046 11/09 Q1032 RERA TEMPO VCSH RMK WIND RWY10 09009KT 030V150 PP018=
SPZO Ene2007-101800Z /////KT 9000 RA FEW030TCU SCT040 BKN046 11/08 Q1031 TEMPO 7000 RMK WIND RWY10 11008KT PP002=
SPZO Ene2007-101900Z /////KT 9999 FEW025 SCT040 BKN050 13/07 Q1030 RERA TEMPO VCSH RMK WIND RWY10 VRB03KT PP004=
SPZO Ene2007-102000Z /////KT 9999 FEW040 SCT050 BKN100 14/06 Q1028 TEMPO=
SPZO Ene2007-102100Z /////KT 9999 FEW036 SCT050 BKN100 14/07 Q1027 TEMPO=
SPZO Ene2007-102200Z /////KT 9999 FEW036 SCT046 BKN100 14/08 Q1028 TEMPO=
SPZO Ene2007-102300Z /////KT 9999 FEW040 BKN100 13/08 Q1027 NOSIG RMK=
SPZO Ene2007-110000Z /////KT 9999 SCT050 SCT100 13/08 Q1029 RMK PP000=
SPZO Ene2007-110100Z /////KT 9999 BKN050 SCT100 13/09 Q1029 RMK PP000=
SPZO Ene2007-110200Z /////KT 9999 BKN050 13/09 Q1030 RMK PP000=
SPZO Ene2007-110300Z /////KT 9999 BKN050 11/09 Q1030 RMK PP000=
SPZO Ene2007-110400Z /////KT 9999 OVC050 11/08 Q1031 RMK PP000=
SPZO Ene2007-110500Z /////KT 9999 OVC050 11/08 Q1030 RMK PP000=
SPZO Ene2007-110600Z /////KT 9999 OVC050 11/09 Q1030 RMK PP000=
SPZO Ene2007-110700Z /////KT 9999 OVC050 11/09 Q1029 RMK PP000=
SPZO Ene2007-110800Z /////KT 9999 OVC050 11/07 Q1029 RMK PP000=
SPZO Ene2007-110900Z /////KT 8000 -RA SCT040 BKN050 10/08 Q1029 RMK PP002=
SPZO Ene2007-111000Z /////KT 7000 RA FEW030 SCT040 BKN050 10/08 Q1030 RMK PP012=
SPZO Ene2007-111100Z /////KT 8000 -RA FEW030 SCT040 BKN050 09/08 Q1031 RMK WIND RWY10 10003KT 060V140 PP020=
SPZO Ene2007-111200Z /////KT 9999 -RA FEW020 SCT030 BKN047 10/08 Q1032 TEMPO 9000 RWY10 10005KT PPTRZ=
SPZO Ene2007-111300Z /////KT 9000 -RA FEW020 SCT030 BKN043 10/08 Q1033 NOSIG RMK RWY10 10010KT 070V120 PPTRZ=
SPZO Ene2007-111400Z /////KT 9000 -RA SCT020 SCT033 BKN043 09/07 Q1034 BECMG FM1435 SCT036 BKN043 RMK RWY10 09013KT 050V130 CEILING BELOW 1200M PP008=
SPZO Ene2007-111500Z /////KT 9999 SCT030 SCT043 BKN060 11/07 Q1034 RERA NOSIG RMK RWY10 09017KT 050V140 PPTRZ=
SPZO Ene2007-111600Z /////KT 9999 FEW033 SCT040 BKN060 12/07 Q1033 TEMPO=
SPZO Ene2007-111700Z /////KT 9999 VCSH SCT033 BKN053 17/10 Q1032 NOSIG RMK RWY10 VRB08KT PP000=
SPZO Ene2007-111800Z /////KT 9999 VCSH SCT040 BKN050 16/07 Q1031 NOSIG RMK WIND RWY10 VRB08KT PP000=
SPZO Ene2007-111900Z /////KT 9999 FEW043 SCT050 16/06 Q1029 NOSIG RMK=
SPZO Ene2007-112000Z /////KT 9999 FEW043TCU SCT050 19/07 Q1028 TEMPO=
SPZO Ene2007-112100Z /////KT 9999 FEW043TCU SCT050 BKN080 18/06 Q1027 TEMPO VCSH RMK WIN RWY10 VRB10KT PP000=
SPZO Ene2007-112200Z /////KT 9999 VCSH SCT043TCU BKN050 16/06 Q1027 TEMPO RA RMK WIND RWY10 VRB12KT T.MAX.19.5 PP000=
SPZO Ene2007-112300Z /////KT 9999 FEW043TCU BKN080 14/07 Q1028 NOSIG RMK PP000=
SPZO Ene2007-120000Z /////KT 9999 BKN050 SCT100 13/08 Q1029 RMK PP000=
SPZO Ene2007-120100Z /////KT 9999 BKN050 12/09 Q1029 RMK PP000=
SPZO Ene2007-120200Z /////KT 9999 BKN050 11/08 Q1030 RMK PP000=
SPZO Ene2007-120300Z /////KT 9999 BKN050 11/09 Q1031 RMK PP000=
SPZO Ene2007-120400Z /////KT 9999 BKN050 11/08 Q1031 RMK PP000=
SPZO Ene2007-120500Z /////KT 9999 BKN050 10/08 Q1030 RMK PP000=
SPZO Ene2007-120600Z /////KT 9999 BKN050 09/08 Q1030 RMK PP000=
SPZO Ene2007-120700Z /////KT 9999 BKN050 10/08 Q1030 RMK PP000=
SPZO Ene2007-120800Z /////KT 9999 FEW040 BKN050 10/08 Q1029 RMK PP000=
SPZO Ene2007-120900Z /////KT 7000 RA FEW020 SCT040 BKN050 10/08 Q1030 RMK PP008=
SPZO Ene2007-121000Z /////KT 7000 +RA FEW020TCU SCT040 BKN046 10/08 Q1030 RMK PP080=
SPZO Ene2007-121100Z /////KT 7000 RA FEW020TCU SCT040 BKN050 10/08 Q1031 RMK PP010=
SPZO Ene2007-121200Z /////KT 8000 -RA FEW020 SCT036 SCT050 10/08 Q1032 TEMPO 7000 BECMG 1240 NSW RMK RWY10 /////KT PP008=
SPZO Ene2007-121300Z /////KT 9999 FEW020 SCT050 12/07 Q1032 RERA NOSIG RMK WIND RWY10 /////KT PP002=
SPZO Ene2007-121400Z 00000KT 9999 FEW025 SCT080 14/07 Q1032 NOSIG RMK=
SPZO Ene2007-121500Z VRB02KT 9999 FEW040 SCT050 17/07 Q1032 NOSIG RMK=
SPZO Ene2007-121600Z 05004KT 010V070 9999 FEW040 SCT050 18/06 Q1030 NOSIG RMK WIND RWY10 /////KT PP000=
SPZO Ene2007-121700Z VRB04KT 9999 FEW043TCU SCT050 19/05 Q1029 TEMPO=
SPZO Ene2007-121800Z 01009KT 330V050 9999 VCSH SCT037TCU SCT050 BKN100 18/06 Q1028 NOSIG RMK RWY10 02013KT 310V070 PP000=
SPZO Ene2007-121900Z 25008KT 180V290 9999 VCSH SCT037TCU SCT050 BKN080 17/07 Q1028 NOSIG RMK RWY10 23013KT 190V270 PP000=
SPZO Ene2007-122000Z 25005KT 220V300 9999 FE037TCU SCT047 BKN100 17/06 Q1027 TEMPO VCSH RMK RWY10 25011KT 210V300 PP000=
SPZO Ene2007-122100Z VRB04KT 9999 FEW040 SCT120 BKN200 18/06 Q1026 NOSIG RMK RWY10 VRB03KT PP000=
SPZO Ene2007-122200Z VRB02KT 9999 SCT047 SCT200 19/06 Q1026 NOSIG RKM RWY10=
SPZO Ene2007-122300Z VRB02KT 9999 SCT047 SCT200 18/08 Q1026 NOSIG RMK PP000=
SPZO Ene2007-130000Z 35006KT 9999 FEW050 OVC100 16/07 Q1027 RMK PP000=
SPZO Ene2007-130100Z 28009KT 9999 FEW050 BKN100 14/08 Q1028 RMK PP000=
SPZO Ene2007-130200Z 28004KT 9999 FEW050 SCT100 13/08 Q1029 RMK PP000=
SPZO Ene2007-130300Z 26003KT 9999 FEW050 SCT100 13/08 Q1029 RMK PP000=
SPZO Ene2007-130400Z 27003KT 240V330 9999 FEW050 SCT100 12/07 Q1029 RMK PP000=
SPZO Ene2007-130500Z 28007KT 9999 SCT040 SCT100 13/07 Q1029 RMK PP000=
SPZO Ene2007-130600Z 08007KT 9999 RA FEW030 BKN050 11/09 Q1029 RMK PPTRZ=
SPZO Ene2007-130700Z 07002KT 9000 RA FEW030 BKN046 11/08 Q1029 RMK PP022=
SPZO Ene2007-130800Z VRB09KT 9000 -RA FEW025 BKN046 10/08 Q1029 RMK PP040=
SPZO Ene2007-130900Z 09005KT 9000 -RA FEW025 BKN046 09/06 Q1029 RMK PP002=
SPZO Ene2007-131000Z 00000KT 9000 -RA FEW025 BKN046 09/06 Q1029 RMK PP006=
SPZO Ene2007-131100Z 26002KT 7000 -RA FEW025 SCT040 BKN046 09/07 Q1030 RMK PP002=
SPZO Ene2007-131200Z 00000KT 6000 RABR SCT025 SCT033 BKN040 09/07 Q1031 NOSIG RMK RWY10 00000KT CEILING BELOW 1200M PP008=
SPZO Ene2007-131300Z 00000KT 6000 RABR SCT020 SCT030 BKN040 09/07 Q1032 BECMG FM14 8000 RMK RWY10 12004KT 080V150 CEIING BELOW 1200M PP024=
SPZO Ene2007-131400Z 10003KT 8000 -RA SCT025 SCT030 BKN047 09/07 Q1032 NOSIG RMK RWY10 10005KT 030V140 CEILING BELOW 1200M PP008=
SPZO Ene2007-131500Z VRB02KT 9999 FEW025 SCT030 BKN053 11/06 Q1032 REDZ BECMG FM16 SCT036 BKN046 RMK RWY10 VRB04KT PPTRZ=
SPZO Ene2007-131600Z 10004KT 070V170 9999 FEW025 SCT033 BKN050 11/06 Q1032 NOSIG RMK RWY10 VRB08KT PP000=
SPZO Ene2007-131700Z 00000KT 9999 FEW033 SCT043 BKN060 13/05 Q1031 NOSIG RMK RWY10 VRB04KT PP000=
SPZO Ene2007-131800Z VRB03KT 9999 FEW033 SCT040 BKN060 14/07 Q1029 NOSIG RMK WIND RWY10 VRB03KT PP000=
SPZO Ene2007-131900Z VRB02KT 9999 BKN040 SCT080 17/08 Q1028 NOSIG RMK=
SPZO Ene2007-132000Z VRB02KT 9999 BKN040 SCT100 18/06 Q1026 NOSIG RMK=
SPZO Ene2007-132100Z VRB03KT 9999 SCT040 SCT100 18/07 Q1024 NOSIG RMK=
SPZO Ene2007-132200Z 09003KT 050V150 9999 SCT040 SCT100 18/07 Q1024 NOSIG RMK WIND RWY10 09005KT 050V150 TMAX 18.8 PP000=
SPZO Ene2007-132300Z 17004KT 090V220 9999 SCT040 SCT100 17/09 Q1025 NOSIG RMK WIND RWY10 18004KT 150V210 PP000=
SPZO Ene2007-140000Z 10003KT 9999 SCT047 15/08 Q1026 RMK PP000=
SPZO Ene2007-140100Z 26004KT 9999 SKC 14/09 Q1027 RMK PP000=
SPZO Ene2007-140200Z 26003KT 9999 SKC 12/08 Q1028 RMK PP000=
SPZO Ene2007-140300Z 00000KT 9999 SKC 11/08 Q1028 RMK PP000=
SPZO Ene2007-140400Z 00000KT 9999 SKC 11/08 Q1028 RMK PP000=
SPZO Ene2007-140500Z 00000KT 9999 SKC 10/07 Q1028 RMK PP000=
SPZO Ene2007-140600Z 00000KT 9999 SKC 10/08 Q1028 RMK PP000=
SPZO Ene2007-140700Z 00000KT 9999 SCT050 10/08 Q1028 RMK PP000=
SPZO Ene2007-140800Z 00000KT 9999 SCT060 09/07 Q1027 RMK PP000=
SPZO Ene2007-140900Z VRB02KT 9999 SKC 08/06 Q1028 RMK PP000=
SPZO Ene2007-141000Z 00000KT 9999 FEW040 08/06 Q1028 RMK PP000=
SPZO Ene2007-141100Z VRB02KT 9000E SCT037 SCT200 07/05 Q1029 HZFU RMK PP000=
SPZO Ene2007-141200Z 26002KT 9999 FEW030 SCT050 BKN100 08/06 Q1029 NOSIG RMK WIND RWY10 25002KT PP000=
SPZO Ene2007-141300Z 18002KT 9000 BKN030 SCT046 10/07 Q1030 BECMG 1330 SCT036 SCT050 RMK HZFU CLNG BLW 1200M PP000=
SPZO Ene2007-141400Z VRB02KT 9000 FEW030 SCT046 BKN200 14/08 Q1030 BECMG 1430 9999 RMK WIND RWY10 33003KT 280V070 HZFU PP000=
SPZO Ene2007-141500Z 09004KT 020V160 9999 FEW030 SCT046 BKN200 16/08 Q1030 NOSIG RMK WIND RWY10 11004KT 070V170 PP000=
SPZO Ene2007-141600Z 09006KT 040V130 9999 SCT033 BKN046 16/08 Q1029 NOSIG RMK WIND RWY10 08007KT 050V110 PP000=
SPZO Ene2007-141700Z 10007KT 070V170 9000 -RA SCT033 SCT050 16/09 Q1028 NOSIG RMK WIND RWY10 10007KT 080V120 PPTRZ=
SPZO Ene2007-141800Z VRB03KT 9999 VCSH FEW036 SCT043 BKN060 15/08 Q1028 RERA NOSIG RMK RWY10 02013G23KT PPTRZ=
SPZO Ene2007-141900Z 11007KT 080V170 9999 SCT040 BKN060 16/08 Q1027 TEMPO=
SPZO Ene2007-142000Z 11009KT 9999 SCT040 BKN060 15/08 Q1026 NOSIG RMK=
SPZO Ene2007-142100Z 10006KT 9999 SCT040 BKN060 15/07 Q1025 TEMPO VCSH RMK WIND RWY10 VRB14KT PP000=
SPZO Ene2007-142200Z 10005KT 080V140 9999 FEW040 BKN060 15/07 Q1025 NOSIG RMK WIND RWY10 VRB10KT T.MAX.17.0 PP000=
SPZO Ene2007-142300Z 11004KT 9999 FEW046 BKN080 15/08 Q1025 NOSIG RMK=
SPZO Ene2007-150000Z 00000KT 9999 SCT050 SCT080 14/08 Q1027 RMK PP000=
SPZO Ene2007-150100Z 29002KT 9999 BKN050 SCT080 12/08 Q1028 RMK PP000=
SPZO Ene2007-150200Z 29003KT 9999 BKN050 11/08 Q1029 RMK PP000=
SPZO Ene2007-150300Z 11002KT 9999 BKN050 11/08 Q1029 RMK PP000=
SPZO Ene2007-150400Z 28002KT 9999 BKN050 11/08 Q1030 RMK PP000=
SPZO Ene2007-150500Z 00000KT 9999 BKN050 11/08 Q1029 RMK PP000=
SPZO Ene2007-150600Z 00000KT 9999 OVC050 12/09 Q1028 RMK PP000=
SPZO Ene2007-150700Z 00000KT 9999 OVC050 12/09 Q1028 RMK PP000=
SPZO Ene2007-150800Z 30010KT 260V350 5000 +RA SCT030TCU SCT040 BKN046 09/07 Q1029 RMK PP050=
SPZO Ene2007-150900Z 27002KT 4000 +RA SCT030TCU SCT040 BKN046 09/07 Q1028 RMK PP050=
SPZO Ene2007-151000Z 00000KT 5000 +RA SCT030TCU SCT040 BKN046 09/06 Q1030 RMK PP034=
SPZO Ene2007-151100Z 00000KT 7000 -RA FEW030TCU SCT040 BKN050 09/07 Q1030 RMK PP008=
SPZO Ene2007-151200Z VRB02KT 9999 FEW027 SCT037 BKN053 09/06 Q1030 REDZ TEMPO VCSH RMK RWY10 00000KT PP002=
SPZO Ene2007-151300Z 08004KT 030V110 9999 FEW030 SCT060 BKN080 09/06 Q1031 NOSIG RMK RWY10 10005KT 030V140 PP000=
SPZO Ene2007-151400Z 10003KT 040V140 9999 FEW033 SCT070 BKN150 10/06 Q1031 NOSIG RMK RWY10 10009KT 070V140 PP000=
SPZO Ene2007-151500Z VRB02KT 9999 FEW033 SCT100 BKN200 12/06 Q1031 NOSIG RMK RWY10 00000KT PP000=
SPZO Ene2007-151600Z VRB02KT 9999 SCT040 SCT150 15/07 Q1030 NOSIG RMK RWY10 VRB06KT PP000=
SPZO Ene2007-151700Z VRB03KT 9999 SCT040 BKN120 16/04 Q1029 NOSIG RMK RWY10 VRB03KT PP000=
SPZO Ene2007-151800Z VRB06KT 9999 VCSH FEW040TCU SCT050 BKN080 18/08 Q1028 NOSIG RMK WIND RWY10 VRB10KT PP000=
SPZO Ene2007-151900Z VRB07KT 9999 SCT050 BKN080 17/06 Q1027 TEMPO VCSH RMK WIND RWY10 VRB12KT PP000=
SPZO Ene2007-152000Z VRB10KT 9999 SCT046 BKN080 18/07 Q1926 NOSIG RMK=
SPZO Ene2007-152100Z VRB10KT 9999 FEW040TCU BKN060 18/07 Q1025 TEMPO=
SPZO Ene2007-152200Z VRB05KT 9999 FEW040 BKN060 17/06 Q1025 NOSIG RMK=
SPZO Ene2007-152300Z 11006KT 090V180 9999 SCT040 BKN060 15/08 Q1026 NOSIG RMK WIND RWY10 10013KT PP000=
SPZO Ene2007-160000Z 10011KT 9999 OVC050 13/08 Q1027 RMK PP000=
SPZO Ene2007-160100Z 11007KT 080V140 9999 OVC050 12/08 Q1029 RMK PP000=
SPZO Ene2007-160200Z 12007KT 080V170 9999 OVC050 11/09 Q1030 RMK PP000=
SPZO Ene2007-160300Z 10007KT 9999 OVC040 11/08 Q1031 RMK PP000=
SPZO Ene2007-160400Z 03004KT 330V080 5000 -RA SCT030 BKN040 11/08 Q1031 RMK PP004=
SPZO Ene2007-160500Z VRB02KT 5000 -RA SCT030 BKN040 10/07 Q1031 RMK PP010=
SPZO Ene2007-160600Z 30003KT 270V330 6000 -RA SCT030 BKN040 10/07 Q1031 RMK PP004=
SPZO Ene2007-160700Z 25003KT 7000 -RA SCT030 BKN040 10/07 Q1030 RMK PP004=
SPZO Ene2007-160800Z 34002KT 300V020 5000 -RA SCT030 BKN040 09/07 Q1029 RMK PP006=
SPZO Ene2007-160900Z 00000KT 6000 -RA SCT030 SCT040 BKN050 09/07 Q1029 RMK PP002=
SPZO Ene2007-161000Z 00000KT 7000 SCT030 SCT040 BKN050 09/07 Q1029 RERA RMK PPTRZ=
SPZO Ene2007-161100Z 08003KT 9000 FEW030 SCT040 BKN050 09/07 Q1030 RMK=
SPZO Ene2007-161200Z 06002KT 9000 FEW025 SCT040 BKN060 11/07 Q1030 BECMG=
SPZO Ene2007-161300Z 00000KT 9999 FEW025 SCT040 BKN060 12/07 Q1031 NOSIG RMK PP000=
SPZO Ene2007-161400Z VRB02KT 9999 SCT040 SCT050 15/08 Q1031 NOSIG RMK=
SPZO Ene2007-161500Z VRB03KT 9999 FEW040 SCT046 BKN060 16/06 Q1031 NOSIG RMK WIND RWY10 VRB03KT PP000=
SPZO Ene2007-161600Z VRB04KT 9999 SCT040 SCT050 17/08 Q1030 NOSIG RMK=
SPZO Ene2007-161700Z VRB05KT 9999 FEW043TCU SCT050 19/09 Q1029 NOSIG RMK WIND RWY10 VRB11KT PP000=
SPZO Ene2007-161800Z 31009KT 9999 VCSH FEW037TCU SCT050 BKN200 19/07 Q1028 NOSIG RMK RWY10 29014KT 250V040 PP000=
SPZO Ene2007-161900Z 29011KT 250V330 9999 FEW037TCU SCT050 20/08 Q1027 NOSIG RMK RWY10 28018G35KT 250V350 PP000=
SPZO Ene2007-162000Z 28014KT 9999 SCT037TCU SCT200 20/09 Q1026 TEMPO=
SPZO Ene2007-162100Z 27013KT 250V350 9999 FEW040TCU SCT050 19/07 Q1025 NOSIG RMK RWY10 30020G31KT 240V340 PP000=
SPZO Ene2007-162200Z 26010KT 220V300 9999 FEW040TCU SCT050 BKN200 18/07 Q1024 NOSIG RMK RWY10 29016KT 250V340 TMAX 21.3 PP000=
SPZO Ene2007-162300Z VRB02KT 9999 SCT040 SCT200 18/08 Q1025 NOSIG RMK PP000=
SPZO Ene2007-170000Z 09005KT 060V150 9999 FEW040 SCT100 16/09 Q1026 RMK PP000=
SPZO Ene2007-170100Z VRB13KT 9999 SCT036 BKN060 14/05 Q1029 RMK PP000=
SPZO Ene2007-170200Z 00000KT 9999 DZ SCT036 BKN050 11/08 Q1030 RMK PP008=
SPZO Ene2007-170300Z 00000KT 9999 FEW036 BKN050 10/07 Q1031 RMK PP002=
SPZO Ene2007-170400Z 09004KT 9999 SCT036 09/07 Q1031 RMK PP000=
SPZO Ene2007-170500Z 00000KT 9999 SCT036 09/08 Q1031 RMK PP000=
SPZO Ene2007-170600Z 00000KT 9999 FEW030 SCT036 09/07 Q1030 RMK PP000=
SPZO Ene2007-170700Z 00000KT 9999 FEW030 SCT040 10/08 Q1029 RMK PP000=
SPZO Ene2007-170800Z 09004KT 9999 FEW030 SCT046 08/07 Q1029 RMK PP000=
SPZO Ene2007-170900Z 00000KT 9999 FEW030 SCT046 09/07 Q1029 RMK PP000=
SPZO Ene2007-171000Z 00000KT 9999 FEW030 SCT040 BKN046 09/07 Q1029 RMK PP000=
SPZO Ene2007-171100Z 11002KT 9999 FEW030 SCT040 BKN046 10/07 Q1030 RMK PP000=
SPZO Ene2007-171200Z 00000KT 9999 FEW025 SCT040 BKN050 10/08 Q1031 NOSIG RMK RWY10 00000KT PP000=
SPZO Ene2007-171300Z 00000KT 9999 FEW030 SCT040 BKN053 12/09 Q1031 NOSIG RMK RWY10 00000KT PP000=
SPZO Ene2007-171400Z VRB02KT 9999 FEW033 SCT040 BKN060 14/08 Q1031 NOSIG RMK RWY10 00000KT PP000=
SPZO Ene2007-171500Z 00000KT 9999 SCT040 SCT050 16/07 Q1031 NOSIG RMK RWY10 VRB08KT PP000=
SPZO Ene2007-171600Z VRB02KT 9999 FEW040TCU SCT050 18/08 Q1030 NOSIG RMK RWY10 VRB09KT PP000=
SPZO Ene2007-171700Z VRB06KT 9999 FEW043TCU SCT050 21/08 Q1029 NOSIG RMK RWY10 VRB08KT PP000=
SPZO Ene2007-171800Z VRB06KT 9999 SCT040 SCT050 21/04 Q1027 NOSIG RMK=
SPZO Ene2007-171900Z VRB04KT 9999 SCT040 SCT050 23/08 Q1026 TEMPO VCSH RMK WIND RWY10 25004KT 200V300 PP000=
SPZO Ene2007-172000Z 04009KT 350V080 8000 -RA FEW030 SCT040 BKN050 18/07 Q1027 NOSIG RMK WIND RWY10 VRB18G36KT VCSH QUAD E PP002=
SPZO Ene2007-172100Z VRB04KT 9999 SCT040 SCT050 19/06 Q1026 NOSIG RMK=
SPZO Ene2007-172200Z 27006KT 230V320 9999 SCT040 SCT050 18/07 Q1026 NOSIG RMK WIND RWY10 28009KT TMAX 22.9 PP000=
SPZO Ene2007-172300Z 28005KT 250V320 9999 BKN050 18/07 Q1026 NOSIG RMK PP000=
SPZO Ene2007-180000Z 00000KT 9999 BKN040 15/09 Q1027 RMK PP000=
SPZO Ene2007-180100Z 24003KT 9999 FEW040 14/09 Q1028 RMK PP000=
SPZO Ene2007-180200Z 00000KT 9999 FEW040 14/09 Q1029 RMK PP000=
SPZO Ene2007-180300Z 00000KT 9999 SKC 12/09 Q1030 RMK PP000=
SPZO Ene2007-180400Z 00000KT 9999 SKC 11/08 Q1031 RMK PP000=
SPZO Ene2007-180500Z VRB02KT 9999 SCT040 12/08 Q1030 RKM PP000=
SPZO Ene2007-180600Z 00000KT 9999 SCT050 11/09 Q1033 RMK PP000=
SPZO Ene2007-180700Z 00000KT 9999 SCT040 11/09 Q1030 RMK PP000=
SPZO Ene2007-180800Z 00000KT 9999 SCT050 SCT080 11/08 Q1029 RKM PP000=
SPZO Ene2007-180900Z 00000KT 9999 SCT040 SCT070 11/08 Q1030 RMK PP000=
SPZO Ene2007-181000Z 00000KT 9999 FEW037 BKN043 10/08 Q1030 RMK PP000=
SPZO Ene2007-181100Z VRB02KT 9999 FEW033 SCT040 BKN200 11/09 Q1031 RMK PP000=
SPZO Ene2007-181200Z 00000KT 9000 SCT040 SCT100 13/09 Q1031 BECMG FM13 9999 RMK WIND RWY10 00000KT HZFU PP000=
SPZO Ene2007-181300Z 00000KT 9000 BKN040 SCT100 14/09 Q1032 BECMG FM1330 9999 RMK WIND RWY10 00000KT HZFU PP000=
SPZO Ene2007-181400Z VRB02KT 9999 BKN040 SCT100 16/09 Q1032 NOSIG RMK=
SPZO Ene2007-181500Z VRB06KT 9999 BKN040 SCT100 17/07 Q1032 NOSIG RMK=
SPZO Ene2007-181600Z VRB02KT 9999 BKN040 SCT230 20/07 Q1031 NOSIG RMK=
SPZO Ene2007-181700Z VRB03KT 9999 BKN050 SCT230 21/08 Q1030 NOSIG RMK=
SPZO Ene2007-181800Z VRB03KT 9999 SCT043 SCT050 21/06 Q1029 NOSIG RMK=
SPZO Ene2007-181900Z VRB04KT 9999 FEW043TCU BKN050 23/07 Q1927 NOSIG RMK WIND RWY10 VRB09KT PP000=
SPZO Ene2007-182000Z 25008KT 320V020 9999 FEW043TCU BKN050 22/04 Q1026 NOSIG RMK WIND RWY10 VRB10G25KT PP000=
SPZO Ene2007-182100Z 01008KT 330V070 9999 SCT050 SCT100 23/06 Q1025 NOSIG RMK WIND RWY10 01016KT 310V080 PP000=
SPZO Ene2007-182200Z 03007KT 360V090 9999 SCT050 SCT100 21/03 Q1025 NOSIG RMK RWY10 VRB10KT T.MAX.23.6 PP000=
SPZO Ene2007-182300Z 31008KT 9999 SCT050 BKN100 19/06 Q1026 NOSIG RMK=
SPZO Ene2007-190000Z 26009KT 9999 BKN050 SCT100 17/09 Q1026 RMK PP000=
SPZO Ene2007-190100Z 27008KT 9999 BKN050 16/09 Q1027 RMK PP000=
SPZO Ene2007-190200Z 26006KT 230V290 9999 BKN050 16/09 Q1029 PP000=
SPZO Ene2007-190300Z 28006KT 230V330 5000 +RA FEW030TCU SCT040 BKN050 09/05 Q1032 RMK PP058=
SPZO Ene2007-190400Z 29003KT 260V310 6000 -RA FEW030TCU SCT040 BKN050 10/06 Q1031 RMK PP006=
SPZO Ene2007-190500Z 25002KT 170V340 7000 FEW030 SCT040 BKN050 11/07 Q1029 RERA RMK PPTRZ=
SPZO Ene2007-190600Z 32002KT 270V010 8000 FEW030 SCT040 BKN050 10/07 Q1030 RMK PP000=
SPZO Ene2007-190700Z 06002KT 360V120 9999 BKN050 10/07 Q1030 RMK PP000=
SPZO Ene2007-190800Z 17002KT 080V230 9999 BKN050 09/07 Q1029 RMK PP000=
SPZO Ene2007-190900Z 08002KT 020V140 9999 BKN050 08/06 Q1030 RMK PP000=
SPZO Ene2007-191000Z 00000KT 9999 BKN050 09/07 Q1031 RMK PP000=
SPZO Ene2007-191100Z 00000KT 8000 -RA FEW030 SCT040 BKN050 10/07 Q1031 RMK WIND RWY10 00000KT PP010=
SPZO Ene2007-191200Z VRB02KT 9999 FEW030 SCT050 12/07 Q1032 RERA NOSIG RMK RWY10 VRB02KT PP002=
SPZO Ene2007-191300Z VRB02KT 9999 SCT033 13/08 Q1033 NOSIG RMK RWY10 VRB09KT PP000=
SPZO Ene2007-191400Z 00000KT 9999 SCT037 16/06 Q1033 NOSIG RMK RWY10 VRB10KT PP000=
SPZO Ene2007-191500Z VRB02KT 9999 SCT043 SCT200 18/07 Q1032 NOSIG RMK RWY10 VRB06KT PP000=
SPZO Ene2007-191600Z 17005KT 090V240 9999 FEW043TCU SCT053 19/07 Q1031 NOSIG RMK RWY10 VRB12KT PP000=
SPZO Ene2007-191700Z VRB06KT 9999 BKN050 21/06 Q1030 NOSIG RMK RWY10 VRB12KT PP000=
SPZO Ene2007-191800Z 08007KT 360V130 9999 SCT050 21/08 Q1029 NOSIG RMK=
SPZO Ene2007-191900Z VRB04KT 9999 BKN050 23/04 Q1028 NOSIG RMK WIND RWY10 VRB09KT PP000=
SPZO Ene2007-192000Z VRB06KT 9999 FEW046TCU SCT050 23/05 Q1026 NOSIG RMK WIND RWY10 VRB06KT PP000=
SPZO Ene2007-192100Z VRB05KT 9999 FEW046TCU SCT050 21/05 Q1025 TEMPO=
SPZO Ene2007-192200Z VRB08KT 9999 TSRA SCT043CB BKN050 15/05 Q1027 NOSIG RMK RWY10 VRB22G33KT T/MAX. 32.1 PP006=
SPZO Ene2007-192300Z 27007KT 180V270 9999 -RA SCT043TCU BKN050 12/07 Q1028 RMK WIND RWY10 VRB12KT PP008=
SPZO Ene2007-200000Z 11004KT 060V170 9000 FEW030 BKN050 13/08 Q1028 RERA RMK PPTRZ=
SPZO Ene2007-200100Z 28005KT 9999 FEW030 BKN050 13/09 Q1030 RMK PP000=
SPZO Ene2007-200200Z 00000KT 9999 OVC050 14/09 Q1031 RMK PP000=
SPZO Ene2007-200300Z 21003KT 9999 OVC050 13/09 Q1031 RMK PP000=
SPZO Ene2007-200400Z 22004KT 9999 OVC050 13/08 Q1032 RMK PP000=
SPZO Ene2007-200500Z 22004KT 9999 OVC050 13/08 Q1032 RMK PP000=
SPZO Ene2007-200600Z 00000KT 9999 BKN050 12/08 Q1030 RMK PP000=
SPZO Ene2007-200700Z 00000KT 9999 BKN050 10/07 Q1030 RMK PP000=
SPZO Ene2007-200800Z 00000KT 9999 BKN050 10/07 Q1030 RMK PP000=
SPZO Ene2007-200900Z 00000KT 9999 BKN050 10/07 Q1030 RMK PP000=
SPZO Ene2007-201000Z 00000KT 9999 BKN050 10/07 Q1030 RMK PP000=
SPZO Ene2007-201100Z 00000KT 9999 BKN050 09/07 Q1031 RMK PP000=
SPZO Ene2007-201200Z 00000KT 9999 FEW036 SCT060 11/08 Q1032 NOSIG RMK PP000=
SPZO Ene2007-201300Z VRB02KT 9999 FEW040 SCT060 14/09 Q1033 NOSIG RMK=
SPZO Ene2007-201400Z VRB05KT 9999 FEW040 SCT100 15/08 Q1033 NOSIG RMK=
SPZO Ene2007-201500Z VRB03KT 9999 SCT040 SCT100 17/05 Q1033 NOSIG RMK=
SPZO Ene2007-201600Z VRB04KT 9999 FEW043TCU BKN050 18/06 Q1032 NOSIG RMK WIND RWY10 VRB08KT PP000=
SPZO Ene2007-201700Z VRB02KT 9999 FEW046 SCT100 20/05 Q1032 NOSIG RMK=
SPZO Ene2007-201800Z 14004KT 070V210 9999 SCT050 SCT200 20/04 Q1030 NOSIG RMK RWY10 VRB08KT PP000=
SPZO Ene2007-201900Z 32008KT 270V010 9999 SCT050 BKN200 21/04 Q1029 NOSIG RMK RWY10 04014G28KT 330V110 PP000=
SPZO Ene2007-202000Z 02007KT 340V060 9999 SCT050 BKN200 21/03 Q1027 NOSIG RMK RWY10 35010G22KT 300V080 PP000=
SPZO Ene2007-202100Z 02009KT 340V090 9000SE VCSH SCT040TCU SCT070 20/03 Q1027 NOSIG RMK RWY10 VRB10KT PP000=
SPZO Ene2007-202200Z 09015KT 9000E -RA SCT037TCU SCT050 12/08 Q1030 TEMPO RA RMK RWY10 VRB15KT TMAX 22.5 PPTRZ=
SPZO Ene2007-202300Z 31006KT 9999 FEW040TCU BKN050 13/08 Q1030 RESH NOSIG RMK RWY10 33006KT PP002=
SPZO Ene2007-210000Z 12008KT 090V170 9999 FEW040TCU BKN050 13/07 Q1032 RMK PP000=
SPZO Ene2007-210100Z 12003KT 090V170 9999 FEW040TCU BKN050 13/06 Q1033 RMK PP000=
SPZO Ene2007-210200Z 26002KT 9999 OVC050 12/07 Q1032 RMK PP000=
SPZO Ene2007-210300Z 00000KT 9999 BKN040 12/07 Q1032 RMK PP000=
SPZO Ene2007-210400Z 00000KT 9999 SCT040 11/07 Q1033 RMK PP000=
SPZO Ene2007-210500Z 00000KT 9999 SCT040 10/07 Q1033 RMK PP000=
SPZO Ene2007-210600Z 00000KT 9999 SCT040 10/07 Q1032 RMK PP000=
SPZO Ene2007-210700Z 00000KT 9999 FEW030 SCT040 09/07 Q1032 RMK PP000=
SPZO Ene2007-210800Z 00000KT 9999 FEW030 SCT040 09/07 Q1032 RMK PP000=
SPZO Ene2007-210900Z OOOOOKT 9999 FEW030 SCT040 09/07 Q1031 RMK PP000=
SPZO Ene2007-211000Z 08003KT 9999 FEW030 SCT043 08/06 Q1032 RERA PP002=
SPZO Ene2007-211100Z 22002KT 9999 FEW025 SCT050 08/06 Q1032 RMK PP000=
SPZO Ene2007-211200Z 08002KT 030V110 9000 SCT050 SCT150 09/07 Q1033 BECMG=
SPZO Ene2007-211300Z 00000KT 9999 SCT050 SCT150 12/07 Q1034 NOSIG RMK=
SPZO Ene2007-211400Z 00000KT 9999 SCT050 SCT150 14/06 Q1033 NOSIG RMK=
SPZO Ene2007-211500Z 11006KT 050V190 9999 SCT050 SCT150 16/05 Q1033 NOSIG RMK WIND RWY10 VRB08KT PP000=
SPZO Ene2007-211600Z VRB02KT 9999 SCT050 SCT150 18/06 Q1032 NOSIG RMK=
SPZO Ene2007-211700Z VRB05KT 9999 SCT050 SCT150 19/06 Q1032 NOSIG RMK=
SPZO Ene2007-211800Z 36009KT 320V050 9999 SCT050 SCT150 20/04 Q1030 NOSIG RMK WIND RWY10 VRB19G32KT PP000=
SPZO Ene2007-211900Z 02009KT 340V060 9999 SCT050 SCT150 20/05 Q1029 NOSIG RMK WIND RWY10 VRB13G24KT PP000=
SPZO Ene2007-212000Z 34006KT 270V060 9999 SCT050 SCT150 21/04 Q1027 NOSIG RMK WIND RWY10 VRB13KT PP000=
SPZO Ene2007-212100Z 03013KT 350V070 9999 FEW040 SCT050 BKN100 19/05 Q1027 TEMPO VCSH RMK WIND RWY10 VRB19G34KT PP000=
SPZO Ene2007-212200Z VRB03KT 9000 VCSH FEW040 SCT050 BKN100 16/07 Q1028 RERA NOSIG RMK WIND RWY10 VRB06KT VCSH QUAD W TMAX 21.6 PP002=
SPZO Ene2007-212300Z 36011KT 330V030 9999 FEW040 SCT050 BKN100 14/05 Q1029 NOSIG RMK PP000=
SPZO Ene2007-220000Z 12004KT 9999 BKN040 SCT100 14/06 Q1031 RMK PP000=
SPZO Ene2007-220100Z 27003KT 9999 SCT040 13/07 Q1031 RMK PP000=
SPZO Ene2007-220200Z 00000KT 9999 SCT100 13/06 Q1032 RMK PP000=
SPZO Ene2007-220300Z 00000KT 9999 SCT080 12/07 Q1033 RMK PP000=
SPZO Ene2007-220400Z 00000KT 9999 SCT050 12/06 Q1033 RMK PP000=
SPZO Ene2007-220500Z 00000KT 9999 FEW040 SCT060 10/06 Q1033 RMK PP000=
SPZO Ene2007-220600Z 00000KT 9999 BKN040 10/06 Q1032 RMK PP000=
SPZO Ene2007-220700Z 00000KT 9999 SCT050 09/06 Q1032 RMK PP000=
SPZO Ene2007-220800Z 00000KT 9999 FEW100 10/07 Q1031 RMK PP000=
SPZO Ene2007-220900Z VRB02KT 9999 FEW100 09/06 Q1031 RMK PP000=
SPZO Ene2007-221000Z 17003KT 130V210 9999 SCT040 SCT100 09/06 Q1031 RMK PP000=
SPZO Ene2007-221100Z VRB02KT 9999 SCT043 SCT060 BKN200 09/06 Q1032 RMK RWY10 VRB02KT PP000=
SPZO Ene2007-221200Z 00000KT 9999 FEW040 SCT050 BKN150 10/07 Q1033 NOSIG RMK WIND RWY10 00000KT PP000=
SPZO Ene2007-221300Z 04002KT 330V140 9999 FEW040 SCT050 BKN150 12/07 Q1033 NOSIG RMK WIND RWY10 VRB03KT PP000=
SPZO Ene2007-221400Z 09003KT 040V140 9999 FEW040 SCT050 BKN150 13/07 Q1033 NOSIG RMK WIND RWY10 11008KT 050V160 PP000=
SPZO Ene2007-221500Z 00000KT 9999 SCT040 SCT050 15/06 Q1033 NOSIG RMK=
SPZO Ene2007-221600Z 02007KT 320V100 9999 SCT040 SCT050 16/06 Q1033 NOSIG RMK WIND RWY10 VRB18G29KT PP000=
SPZO Ene2007-221700Z VRB05KT 9999 SCT040 SCT050 17/07 Q1032 NOSIG RMK=
SPZO Ene2007-221800Z VRB07KT 9999 FEW040 SCT050 18/06 Q1031 NOSIG RMK=
SPZO Ene2007-221900Z 02011KT 330V070 9999 FEW046 SCT050 20/03 Q1029 NOSIG RMK WIND RWY10 06020G33KT PP000=
SPZO Ene2007-222000Z VRB08KT 9999 SCT050 20/04 Q1028 NOSIG RMK WIND RWY10 VRB14KT PP000=
SPZO Ene2007-222100Z VRB04KT 9999 FEW946TCU SCT050 20/07 Q1027 NOSIG RMK WIND RWY10 VRB08KT PP000=
SPZO Ene2007-222200Z 35006KT 9999 FEW046TCU SCT050 18/04 Q1027 NOSIG RMK WIND RWY10 VRB12G25KT T.MAX.20.5 PP000=
SPZO Ene2007-222300Z VRB07KT 9999 FEW046TCU SCT050 17/05 Q1027 TEMPO=
SPZO Ene2007-230000Z 15003KT 080V240 9999 BKN050 16/05 Q1029 RMK PP000=
SPZO Ene2007-230100Z 25007KT 200V290 9999 BKN050 14/07 Q1030 RMK PP000=
SPZO Ene2007-230200Z 25004KT 200V290 9999 BKN050 13/07 Q1031 RMK PP000=
SPZO Ene2007-230300Z 32004KT 290V350 9999 OVC050 13/06 Q1031 RMK PP000=
SPZO Ene2007-230400Z 19003KT 120V280 9999 OVC050 13/06 Q1031 RMK PP000=
SPZO Ene2007-230500Z 17006KT 130V220 9999 OVC050 13/06 Q1031 RMK PP000=
SPZO Ene2007-230600Z 18003KT 120V250 9999 OVC050 12/06 Q1030 RMK PP000=
SPZO Ene2007-230700Z 20007KT 140V250 9999 OVC050 12/05 Q1030 RMK PP000=
SPZO Ene2007-230800Z 22004KT 170V270 9999 OVC050 11/05 Q1030 RMK PP000=
SPZO Ene2007-230900Z 31006KT 270V350 9999 FEW030 SCT040 BKN050 11/05 Q1030 RMK PP000=
SPZO Ene2007-231000Z 26002KT 220V290 9999 FEW030 SCT040 BKN050 10/06 Q1030 RMK PP000=
SPZO Ene2007-231100Z 26004KT 9999 FEW030 SCT040 BKN050 10/06 Q1030 RMK=
SPZO Ene2007-231200Z 00000KT 9999 FEW037 SCT043 BKN080 11/06 Q1031 NOSIG RMK RWY10 VRB03KT PP000=
SPZO Ene2007-231300Z VRB03KT 9999 SCT040 BKN070 13/05 Q1031 NOSIG RMK RWY10 VRB06KT PP000=
SPZO Ene2007-231400Z 23005KT 190V270 9999 SCT040 BKN080 15/06 Q1031 NOSIG RMK RWY10 16008KT 110V250 PP000=
SPZO Ene2007-231500Z 00000KT 9999 BKN043 SCT070 16/05 Q1031 NOSIG RMK RWY10 VRB05KT PP000=
SPZO Ene2007-231600Z 32003KT 250V010 9999 BKN040 SCT050 15/05 Q1030 NOSIG RMK RWY10 VRB05KT PP000=
SPZO Ene2007-231700Z 00000KT 9999 BKN043 SCT050 16/05 Q1030 NOSIG RMK RWY10 VRB04KT PP000=
SPZO Ene2007-231800Z VRB05KT 9999 SCT043 SCT050 18/05 Q1028 NOSIG RMK=
SPZO Ene2007-231900Z VRB04KT 9999 FEW043TCU SCT050 SCT060 20/04 Q1027 TEMPO=
SPZO Ene2007-232000Z 29016KT 260V350 9999 FEW043TCU SCT050 SCT060 19/06 Q1026 TEMPO VCSH RMK WIND RWY10 VRB20G34KT PP000=
SPZO Ene2007-232100Z 01007KT 320V060 9999 SCT050 SCT060 18/06 Q1025 NOSIG RMK WIND RWY10 VRB10KT PP000=
SPZO Ene2007-232200Z VRB03KT 9999 FEW050TCU SCT060 19/06 Q1025 NOSIG RMK WIND RWY10 VRB04KT T.MAX.20.8 PP000=
SPZO Ene2007-232300Z 10008KT 9999 FEW050TCU SCT060 15/07 Q1026 NOSIG RMK WIND RWY10 09017KT PP000=
SPZO Ene2007-240000Z 09004KT 9999 BKN050 13/08 Q1027 RMK PP000=
SPZO Ene2007-240100Z 12003KT 9999 BKN050 13/08 Q1028 RMK PP000=
SPZO Ene2007-240200Z 00000KT 9999 BKN050 14/08 Q1029 RMK PP000=
SPZO Ene2007-240300Z 00000KT 9999 BKN050 14/08 Q1030 RMK PP000=
SPZO Ene2007-240400Z 12005KT 080V170 8000 -RA FEW030 BKN040 11/07 Q1031 RMK PP002=
SPZO Ene2007-240500Z 06002KT 9000 FEW030 BKN040 11/08 Q1030 RERA RMK PP002=
SPZO Ene2007-240600Z 16002KT 110V210 9999 OVC040 11/08 Q1030 RMK PP000=
SPZO Ene2007-240700Z 08002KT 9999 OVC040 10/08 Q1029 RMK PP000=
SPZO Ene2007-240800Z 26002KT 9999 OVC040 10/07 Q1029 RMK PP000=
SPZO Ene2007-240900Z 09002KT 9999 OVC040 10/08 Q1029 RMK PP000=
SPZO Ene2007-241000Z 13002KT 9999 SCT040 SCT050 10/08 Q1029 RMK PP000=
SPZO Ene2007-241100Z 09003KT 9000 SCT040 SCT050 10/08 Q1029 RMK WIND RWY10 09003KT HZ FU PP000=
SPZO Ene2007-241200Z 11005KT 9999 FEW040 SCT050 11/08 Q1030 NOSIG RMK=
SPZO Ene2007-241300Z 09004KT 360V120 9999 FEW025 SCT040 BKN050 12/08 Q1030 NOSIG RMK WIND RWY10 09007KT 050V140 PP000=
SPZO Ene2007-241400Z VRB03KT 9999 FEW030 SCT043 15/08 Q1030 NOSIG RMK=
SPZO Ene2007-241500Z VRB02KT 9999 SCT040 BKN080 17/06 Q1030 NOSIG RMK=
SPZO Ene2007-241600Z VRB02KT 9999 SCT040 BKN080 19/06 Q1032 NOSIG RMK=
SPZO Ene2007-241700Z 25006KT 180V280 9999 -RA FEW036TCU SCT040 BKN060 17/08 Q1028 NOSID RMK WIND RWY10 VRB11KT PP002=
SPZO Ene2007-241800Z 01007KT 330V060 9000E TS VCSH FEW033CB SCT043 BKN050 14/08 Q1028 RESH NOSIG RMK RWY10 VRB19KT PP006=
SPZO Ene2007-241900Z 36008KT 9999 SCT040 SCT053 BKN080 16/07 Q1027 RETS TEMPO VCSH RMK RWY10 VRB16G29KT PP000=
SPZO Ene2007-242000Z VRB02KT 9999 -RA FEW037TCU SCT047 BKN070 16/07 Q1027 NOSIG RMK RWY10 VRB10KT PP000=
SPZO Ene2007-242100Z 27008KT 240V320 9000 TS -RA FEW033CB BKN043 11/08 Q1027 NOSIG RMK RWY10 28007KT 250V340 PP030=
SPZO Ene2007-242200Z 18004KT 110V230 9999 SCT047 SCT070 13/08 Q1027 RERA TEMPO VCSH RMK RWY10 17010KT 120V220 TMAX 19.6 PP008=
SPZO Ene2007-242300Z 11004KT 9999 SCT043 13/08 Q1027 NOSIG RMK RWY10 10010KT PP000=
SPZO Ene2007-250000Z 18002KT 9999 SCT060 12/08 Q1027 RMK PP000=
SPZO Ene2007-250100Z 27002KT 9999 FEW030 SCT050 10/08 Q1029 RMK PP000=
SPZO Ene2007-250200Z 00000KT 9999 FEW030 SCT050 11/08 Q1029 RERA RMK PP002=
SPZO Ene2007-250300Z 00000KT 9999 FEW030 SCT050 BKN080 10/08 Q1030 RMK PP000=
SPZO Ene2007-250400Z 00000KT 9999 FEW030 SCT050 BKN080 10/08 Q1031 RMK PP000=
SPZO Ene2007-250500Z 00000KT 9999 FEW030 SCT046 BKN080 11/08 Q1030 RMK PP000=
SPZO Ene2007-250600Z 00000KT 9999 FEW030 SCT046 BKN080 11/08 Q1030 RMK PP000=
SPZO Ene2007-250700Z 07003KT 9999 FEW030 SCT046 SCT050 09/08 Q1029 RMK PP000=
SPZO Ene2007-250800Z 00000KT 9999 FEW030 BKN050 10/08 Q1029 RMK PP000=
SPZO Ene2007-250900Z 00000KT 9999 DZ FEW030 BKN046 10/08 Q1029 RMK PP002=
SPZO Ene2007-251000Z 00000KT 9999 FEW030 SCT046 09/07 Q1029 RMK PP000=
SPZO Ene2007-251100Z 00000KT 9000 FEW030 SCT046 BKN050 09/07 Q1030 RMK PP000=
SPZO Ene2007-251200Z 00000KT 9999 SCT043 SCT070 11/08 Q1031 NOSIG RMK RWY10 00000KT PP000=
SPZO Ene2007-251300Z 00000KT 9999 SCT040 SCT060 12/08 Q1031 NOSIG RMK RWY10 VRB03KT PP000=
SPZO Ene2007-251400Z VRB02KT 9999 SCT040 SCT100 16/07 Q1031 NOSIG RMK RWY10 VRB04KT PP000=
SPZO Ene2007-251500Z VRB02KT 9999 SCT043 SCT100 16/07 Q1031 NOSIG RMK RWY10 00000KT PP000=
SPZO Ene2007-251600Z 00000KT 9999 SCT047 SCT200 19/07 Q1030 NOSIG RMK RWY10 VRB06KT PP000=
SPZO Ene2007-251700Z 00000KT 9999 SCT047 BKN200 20/04 Q1029 NOSIG RMK RWY10 VRB09KT PP000=
SPZO Ene2007-251800Z VRB03KT 9999 SCT050 SCT230 21/04 Q1027 NOSIG RMK=
SPZO Ene2007-251900Z VRB02KT 9999 SCT050 SCT230 21/03 Q1026 NOSIG RMK=
SPZO Ene2007-252000Z VRB03KT 9999 SCT050 SCT5100 BKN230 21/03 Q1025 NOSIG RMK WIND RWY10 VRB08G18KT PP000=
SPZO Ene2007-252100Z 25004KT 180V340 9999 SCT050 SCT100 BKN230 21/06 Q1024 NOSIG RMK WIND RWY10 30012KT 250V020 PP000=
SPZO Ene2007-252200Z 31007KT 270V010 9999 SCT050 SCT100 21/04 Q1024 NOSIG RMK WIND RWY10 30014KT 220V020 TMAX 22.7 PP000=
SPZO Ene2007-252300Z 28013KT 260V350 9999 SCT050 SCT100 18/06 Q1025 NOSIG RMK WIND RWY10 29017G27KT 210V020 PP000=
SPZO Ene2007-260000Z VRB02KT 9999 FEW200 17/06 Q1026 RMK PP000=
SPZO Ene2007-260100Z 33003KT 9999 SKC 16/07 Q1027 RMK LGT/NE PP000=
SPZO Ene2007-260200Z VRB02KT 9999 SCT070 15/07 Q1028 RMK LGT/NE PP000=
SPZO Ene2007-260300Z 00000KT 9999 SCT040 BKN060 14/08 Q1029 RMK PP000=
SPZO Ene2007-260400Z 28006KT 9000 TSRA FEW030CB SCT040 BKN050 11/07 Q1030 RMK PP014=
SPZO Ene2007-260500Z VRB03KT 9999 TS -RA FEW030CB BKN043 11/07 Q1030 RMK PP008=
SPZO Ene2007-260600Z 10004KT 9999 -RA SCT033 BKN043 10/08 Q1030 RETS RMK LGE/E PP008=
SPZO Ene2007-260700Z 12003KT 9999 -RA SCT030 BKN040 10/08 Q1030 RMK PP010=
SPZO Ene2007-260800Z 00000KT 9999 SCT030 BKN040 09/07 Q1030 RERA RMK PPTRZ=
SPZO Ene2007-260900Z 06003KT 9999 FEW025 SCT033 BKN050 10/07 Q1030 RMK RWY10 00000KT PP000=
SPZO Ene2007-261000Z 10004KT 9999 FEW025 SCT037 BKN047 09/07 Q1030 RMK RWY10 10014KT PP000=
SPZO Ene2007-261100Z VRB02KT 9999 FEW027 SCT043 BKN200 09/07 Q1031 RMK RWY10 VRB03KT PP000=
SPZO Ene2007-261200Z 00000KT 9999 FEW020 SCT040 BKN150 10/08 Q1032 NOSIG RMK WIND RWY10 00000KT PP000=
SPZO Ene2007-261300Z 00000KT 9999 FEW025 SCT040 BKN150 12/07 Q1032 NOSIG RMK WIND RWY10 00000KT PP000=
SPZO Ene2007-261400Z 00000KT 9999 FEW030 SCT040 BKN150 14/07 Q1032 NOSIG RMK WIND RWY10 00000KT PP000=
SPZO Ene2007-261500Z 00000KT 9999 SCT040 BKN100 15/07 Q1032 NOSIG RMK=
SPZO Ene2007-261600Z 00000KT 9999 SCT040 BKN100 18/04 Q1031 NOSIG RMK=
SPZO Ene2007-261700Z 22005KT 140V280 9999 SCT040 BKN100 19/08 Q1029 NOSIG RMK WIND RWY10 VRB04KT PP000=
SPZO Ene2007-261800Z VRB04KT 9999 FEW040 SCT060 20/05 Q1029 NOSIG RMK=
SPZO Ene2007-261900Z 07008KT 020V120 9999 SCT040 SCT050 21/06 Q1027 NOSIG RMK WIND RWY10 VRB11KT PP000=
SPZO Ene2007-262000Z 34009KT 270V030 9999 FEW040TCU SCT050 21/05 Q1026 TEMPO VCSH RMK WIND RWY10 VRB13KT PP000=
SPZO Ene2007-262100Z 02011KT 330V060 9999 FEW040TCU SCT050 20/05 Q1026 TEMPO=
SPZO Ene2007-262200Z VRB03KT 9999 VCSH FEW040TCU SCT050 SCT060 18/03 Q1027 NOSIG RMK WIND RWY10 VRB10 T.MAX.22.2 PP000=
SPZO Ene2007-262300Z 16003KT 120V210 9999 SCT046 BKN100 16/04 Q1027 NOSIG RMK WIND RWY10 VRB10KT PP000=
SPZO Ene2007-270000Z 07005KT 050V110 9999 SCT050 SCT100 14/06 Q1028 RMK PP000=
SPZO Ene2007-270100Z 00000KT 9999 BKN050 12/07 Q1029 RMK PP000=
SPZO Ene2007-270200Z 30003KT 9999 BKN050 12/07 Q1030 RMK PP000=
SPZO Ene2007-270300Z 29004KT 9999 BKN050 12/07 Q1031 RMK PP000=
SPZO Ene2007-270400Z 00000KT 9999 BKN050 11/08 Q1031 RMK PP000=
SPZO Ene2007-270500Z 00000KT 9999 BKN050 12/07 Q1031 RMK PP000=
SPZO Ene2007-270600Z 15002KT 9999 BKN050 11/08 Q1030 RMK PP000=
SPZO Ene2007-270700Z 00000KT 9999 BKN050 11/08 Q1030 RMK PP000=
SPZO Ene2007-270800Z 00000KT 8000 -DZ BKN050 10/07 Q1030 RMK PPTRZ=
SPZO Ene2007-270900Z 00000KT 9999 OVC050 11/08 Q1030 REDZ RMK PPTRZ=
SPZO Ene2007-271000Z 08002KT 9999 FEW040 OVC050 10/07 Q1030 RMK PP000=
SPZO Ene2007-271100Z 25002KT 9999 FEW040 SCT050 BKN060 11/07 Q1031 RMK WIND RWY10 29007KT PP000=
SPZO Ene2007-271200Z 00000KT 9999 BKN040 SCT050 12/07 Q1032 NOSIG RMK RWY10 33008KT 270V020 PP000=
SPZO Ene2007-271300Z 00000KT 9999 SCT040 BKN050 14/07 Q1032 NOSIG RMK RWY10 00000KT PP000=
SPZO Ene2007-271400Z VRB02KT 9999 SCT040 SCT050 15/06 Q1033 NOSIG RMK RWY10 VRB03KT PP000=
SPZO Ene2007-271500Z VRB02KT 9999 SCT040 BKN053 16/05 Q1032 NOSIG RMK RWY10 00000KT PP000=
SPZO Ene2007-271600Z VRB02KT 9999 BKN040 SCT060 17/06 Q1032 NOSIG RMK RWY10 VRB02KT PP000=
SPZO Ene2007-271700Z VRB05KT 9999 VCSH FEW037TCU SCT043 BKN053 18/07 Q1031 NOSIG RMK RWY10 VRB04KT PP000=
SPZO Ene2007-271800Z 12005KT 090V180 9999 FEW046 SCT060 19/06 Q1030 NOSIG RMK WIND RWY10 VRB05G15KT PP000=
SPZO Ene2007-271900Z VRB02KT 9999 FEW046 SCT060 21/04 Q1029 NOSIG RMK=
SPZO Ene2007-272000Z 35008KT 9999 FEW046TCU SCT050 SCT060 19/05 Q1028 TEMPO VCSH RMK WIND RWY10 VRB17G28KT PP000=
SPZO Ene2007-272100Z 01009KT 330V060 9999 FEW046TCU BKN050 19/05 Q1027 NOSIG RMK WIND RWY10 VRB14KT PP000=
SPZO Ene2007-272200Z VRB05KT 9999 SCT050 BKN100 18/07 Q1027 NOSIG RMK=
SPZO Ene2007-272300Z 04004KT 350V090 9999 FEW050 SCT100 18/06 Q1027 NOSIG RMK WIND RWY10 VRB10KT PP000=
SPZO Ene2007-280000Z 00000KT 9999 SCT050 SCT100 16/07 Q1028 RMK PP000=
SPZO Ene2007-280100Z 25004KT 210V280 9999 BKN050 14/07 Q1030 RMK PP000=
SPZO Ene2007-280200Z 05002KT 9999 BKN050 13/08 Q1031 RMK PP000=
SPZO Ene2007-280300Z 11006KT 8000 -RA SCT040 BKN050 13/07 Q1033 RMK PPTRZ=
SPZO Ene2007-280400Z 24003KT 160V290 8000 -RA SCT040 BKN050 11/08 Q1033 RMK PP004=
SPZO Ene2007-280500Z 24002KT 8000 -RA SCT040 BKN050 11/08 Q1032 RMK PP004=
SPZO Ene2007-280600Z 10004KT 9000 FEW040 BKN050 10/08 Q1030 RERA RMK PPTRZ=
SPZO Ene2007-280700Z 00000KT 9999 FEW040 BKN050 10/08 Q1030 RMK PP000=
SPZO Ene2007-280800Z 00000KT 9999 OVC050 10/08 Q1030 RMK PP000=
SPZO Ene2007-280900Z 33002KT 9999 OVC050 10/08 Q1030 RMK PP000=
SPZO Ene2007-281000Z 07003KT 9999 FEW040 SCT050 BKN060 10/08 Q1030 RMK PP000=
SPZO Ene2007-281100Z 12003KT 8000 FEW040 SCT050 BKN100 09/07 Q1031 RMK WIND RWY10 12007KT HZFU PP000=
SPZO Ene2007-281200Z 09002KT 9999 FEW020 SCT050 10/08 Q1032 NOSIG RMK=
SPZO Ene2007-281300Z 03002KT 330V090 9999 FEW025 SCT050 BKN060 12/08 Q1033 NOSIG RMK WIND RWY10 VRB02KT PP000=
SPZO Ene2007-281400Z 09004KT 030V150 9999 FEW030 SCT050 BKN060 15/08 Q1033 NOSIG RMK WIND RWY10 VRB05KT PP000=
SPZO Ene2007-281500Z VRB02KT 9999 FEW040 SCT050 16/07 Q1033 NOSIG RMK=
SPZO Ene2007-281600Z VRB03KT 9999 SCT040 18/08 Q1032 NOSIG RMK WIND RWY10 VRB07G18KT PP000=
SPZO Ene2007-281700Z VRB03KT 9999 SCT046 20/09 Q1031 NOSIG RMK WIND RWY10 VRB07KT PP000=
SPZO Ene2007-281800Z VRB03KT 9999 SCT046 22/07 Q1029 NOSIG RMK WIND RWY10 25009KT 210V290 PP000=
SPZO Ene2007-281900Z VRB04KT 9999 SCT046 23/04 Q1027 NOSIG RMK WIND RWY10 VRB08KT PP000=
SPZO Ene2007-282000Z 23003KT 9999 SCT046 23/05 Q1026 NOSIG RMK WIND RWY10 24007KT PP000=
SPZO Ene2007-282100Z 27008KT 200V340 9999 SCT050 24/06 Q1025 NOSIG RMK=
SPZO Ene2007-282200Z 29008KT 250V340 9999 SCT050 23/06 Q1025 NOSIG RMK WIND RWY10 30015KT 240V030 TMAX 23.9 PP000=
SPZO Ene2007-282300Z VRB06KT 9999 SCT050 20/09 Q1026 NOSIG RMK WIND RWY10 VRB17G32KT PP000=
SPZO Ene2007-290000Z 32009KT 270V360 9999 SCT050 18/09 Q1027 RMK PP000=
SPZO Ene2007-290100Z VRB09KT 9999 SCT050 16/08 Q1028 RMK PP000=
SPZO Ene2007-290200Z 26006KT 9999 SCT050 16/08 Q1029 RMK PP000=
SPZO Ene2007-290300Z 10004KT 9999 SCT046 15/09 Q1031 RMK PP000=
SPZO Ene2007-290400Z 27008KT 9999 FEW046 SCT050 14/08 Q1030 RMK PP000=
SPZO Ene2007-290500Z 32006KT 9999 FEW046 SCT050 14/08 Q1031 RMK PP000=
SPZO Ene2007-290600Z 31002KT 9999 FEW040 SCT050 13/08 Q1030 RMK PP000=
SPZO Ene2007-290700Z 07004KT 9999 FEW040 SCT050 13/09 Q1030 RMK PP000=
SPZO Ene2007-290800Z 00000KT 9999 FEW040 SCT050 12/09 Q1029 RMK PP000=
SPZO Ene2007-290900Z 27007KT 9999 FEW040 SCT050 12/08 Q1029 RMK PP000=
SPZO Ene2007-291000Z VRB03KT 9999 FEW040 SCT050 BKN060 13/08 Q1029 RMK PP000=
SPZO Ene2007-291100Z 11002KT 9999 FEW040 SCT050 12/08 Q1030 RMK PP000=
SPZO Ene2007-291200Z 29003KT 270V350 9999 FEW037 BKN043 12/09 Q1031 NOSIG RMK RWY10 28005KT 220V360 PP000=
SPZO Ene2007-291300Z 11005KT 080V140 9999 FEW037 BKN043 14/10 Q1032 NOSIG RMK RWY10 VRB05KT PP000=
SPZO Ene2007-291400Z 08004KT 050V130 9999 FEW037 BKN050 15/09 Q1033 NOSIG RMK RWY10 VRB09KT PP000=
SPZO Ene2007-291500Z 00000KT 9999 SCT040 BKN080 19/08 Q1032 NOSIG RMK RWY10 00000KT PP000=
SPZO Ene2007-291600Z 28015KT 9999 VCSH FEW037TCU SCT043 BKN053 18/07 Q1031 NOSIG RMK RWY10 28023G35KT 240V320 PP000=
SPZO Ene2007-291700Z 27013KT 240V300 9999 VCSH FEW037TCU SCT043 BKN053 18/09 Q1031 NOSIG RMK RWY10 28024G35KT 240V330 PP000=
SPZO Ene2007-291800Z 28014KT 230V350 9000 VCSH FEW030TCU SCT040 BKN050 18/09 Q1030 NOSIG RMK WIND RWY10 29021G31KT 250V350 VCSH QUAD W PP000=
SPZO Ene2007-291900Z 27008KT 230V300 9000 VCSH FEW030TCU SCT040 BKN050 17/09 Q1029 NOSIG RMK WIND RWY10 27008KT 230V320 VCSH QUAD W PP000=
SPZO Ene2007-292000Z 27007KT 230V350 9000 VCSH FEW030TCU SCT040 BKN050 18/07 Q1028 NOSIG RMK WIND RWY10 28024G38KT 240V330 VCSH QUAD W PP000=
SPZO Ene2007-292100Z 27016KT 9000 VCSH FEW030TCU SCT040 BKN100 18/07 Q1027 NOSIG RMK WIND RWY10 29023G37KT 240V360 VCSH QUAD W PP000=
SPZO Ene2007-292200Z 27013KT 240V310 9999 FEW030TCU SCT040 BKN100 18/07 Q1028 NOSIG RMK WIND RWY10 26017G28KT 230V310 TMAX 20.3 PP000=
SPZO Ene2007-292300Z 27009KT 240V300 9999 SCT040 SCT100 16/06 Q1028 NOSIG RMK WIND RWY10 27017G28KT 230V310 PP000=
SPZO Ene2007-300000Z 28007KT 9999 FEW040TCU SCT050 15/06 Q1029 RMK PP000=
SPZO Ene2007-300100Z 26006KT 9999 FEW040 SCT100 14/06 Q1029 RMK PP000=
SPZO Ene2007-300200Z 00000KT 9999 FEW050 SCT200 12/07 Q1030 RMK PP000=
SPZO Ene2007-300300Z 00000KT 9999 SKC 11/06 Q1032 RMK LGT/NE PP000=
SPZO Ene2007-300400Z 00000KT 9999 SKC 11/06 Q1032 RMK PP000=
SPZO Ene2007-300500Z VRB03KT 9999 SKC 10/06 Q1031 RMK PP000=
SPZO Ene2007-300600Z 00000KT 9999 SCT100 10/06 Q1030 RMK PP000=
SPZO Ene2007-300700Z 00000KT 9999 SCT040 SCT100 10/06 Q1030 RMK PP000=
SPZO Ene2007-300800Z 00000KT 9999 SCT040 SCT080 10/06 Q1030 RKM PP000=
SPZO Ene2007-300900Z 00000KT 9999 SCT040 SCT080 10/07 Q1030 RMK PP000=
SPZO Ene2007-301000Z 00000KT 9999 BKN040 SCT060 10/07 Q1031 RMK PP000=
SPZO Ene2007-301100Z 00000KT 9999 FEW027 SCT037 BKN047 11/08 Q1032 RMK RWY10 27010KT 240V310 PP000=
SPZO Ene2007-301200Z 13005KT 090V150 9999 FEW030 SCT040 BKN047 11/08 Q1033 NOSIG RMK RWY10 10009KT 040V120 PP000=
SPZO Ene2007-301300Z 11007KT 090V170 9999 FEW030 SCT043 BKN070 13/08 Q1033 NOSIG RMK RWY10 10011KT 060V140 PP000=
SPZO Ene2007-301400Z VRB02KT 9999 FEW037 SCT047 BKN080 14/08 Q1033 NOSIG RMK RWY10 VRB04KT PP000=
SPZO Ene2007-301500Z VRB05KT 9999 SCT040 BKN100 18/09 Q1032 NOSIG RMK RWY10 12012KT 070V190 PP000=
SPZO Ene2007-301600Z VRB04KT 9999 FEW040TCU SCT050 BKN080 18/07 Q1031 NOSIG RMK RWY10 VRB09KT PP000=
SPZO Ene2007-301700Z VRB04KT 9999 SCT040TCU SCT050 20/07 Q1030 NOSIG RMK RWY10 VRB09KT PP000=
SPZO Ene2007-301800Z VRB05KT 9999 VCSH SCT040TCU SCT050 22/07 Q1029 NOSIG RMK WIND RWY10 01020KTKT PP000=
SPZO Ene2007-301900Z VRB12KT 9999 FEW040TCU SCT050 SCT060 19/02 Q1028 NOSIG RMK WIND RWY10 VRB10KT BTN 1845/50 -RA PP004=
SPZO Ene2007-302000Z 28014KT 9999 FEW040TCU SCT050 BKN100 20/06 Q1027 NOSIG RMK WIND RWY10 29024G36KT PP000=
SPZO Ene2007-302100Z 27014KT 230V350 9999 SCT040TCU BKN050 21/07 Q1026 TEMPO VCSH RMK WIND RWY10 23024G40KT 230V350 PP000=
SPZO Ene2007-302200Z 08011KT 040V150 9999 FEW036TCU SCT040 BKN060 12/07 Q1028 TEMPO VCSH RMK WIND RWY10 09010KT 360V130 T.MAX.21.5 PP000=
SPZO Ene2007-302300Z 04002KT 350V090 9999 FEW040TCU SCT050 BKN060 13/08 Q1028 NOSIG RMK WIND RWY10 VRB03KT PP000=
SPZO Ene2007-310000Z 09005KT 060V140 9999 OVC050 12/09 Q1029 RMK PP000=
SPZO Ene2007-310100Z 07002KT 040V120 9999 OVC050 12/09 Q1030 RMK PP000=
SPZO Ene2007-310200Z 00000KT 9999 OVC050 12/08 Q1031 RMK PP000=
SPZO Ene2007-310300Z 00000KT 9999 BKN050 11/09 Q1031 RMK PP000=
SPZO Ene2007-310400Z 00000KT 9999 BKN050 11/09 Q1031 RMK PP000=
SPZO Ene2007-310500Z 00000KT 9999 BKN050 11/09 Q1031 RMK PP000=
SPZO Ene2007-310600Z 09002KT 9999 BKN050 12/09 Q1030 RMK PP000=
SPZO Ene2007-310700Z 07003KT 9999 OVC050 12/09 Q1030 RMK PP000=
SPZO Ene2007-310800Z 33007KT 270V350 9999 OVC050 11/08 Q1030 RMK PP000=
SPZO Ene2007-310900Z 26003KT 230V300 5000 -RA SCT040 BKN050 11/08 Q1030 RMK PP006=
SPZO Ene2007-311000Z 11002KT 030V170 8000 FEW040 BKN050 11/08 Q1030 RERA RMK PPTRZ=
SPZO Ene2007-311100Z 08004KT 9000 FEW040 SCT050 BKN060 10/08 Q1031 RMK=
SPZO Ene2007-311200Z 10004KT 070V130 9999 VCSH FEW033 SCT040 BKN053 11/08 Q1032 RMK RWY10 10006KT 040V130 PP000=
SPZO Ene2007-311300Z VRB02KT 9999 FEW037 SCT043 BKN053 11/08 Q1033 NOSIG RMK RWY10 11012KT 080V150 PP000=
SPZO Ene2007-311400Z 11008KT 070V140 9999 FEW037 SCT050 BKN100 14/07 Q1034 NOSIG RMK RWY10 11015KT 080V150 PP000=
SPZO Ene2007-311500Z 10005KT 050V160 9999 SCT040 BKN100 15/07 Q1033 NOSIG RMK RWY10 05011KT 010V120 PP000=
SPZO Ene2007-311600Z VRB02KT 9999 SCT043 SCT200 17/06 Q1032 NOSIG RMK RWY10 12010KT 070V170 PP000=
SPZO Ene2007-311700Z VRB05KT 9999 SCT050 19/07 Q1031 NOSIG RMK RWY10 VRB09KT PP000=
SPZO Ene2007-311800Z VRB02KT 9999 SCT046 22/06 Q1029 NOSIG RMK WIND RWY10 VRB11KT PP000=
SPZO Ene2007-311900Z 25015KT 180V270 9999 VCSH SCT046TCU BKN060 16/05 Q1029 TEMPO RA RMK WIND RWY10 24024G40KT PP000=
SPZO Ene2007-312000Z VRB03KT 9999 SCT050 BKN080 17/06 Q1028 NOSIG RMK=
SPZO Ene2007-312100Z 10004KT 9999 FEW050 OVC100 17/07 Q1027 NOSIG RMK WIND RWY10 10011KT 040V160 PP000=
SPZO Ene2007-312200Z 09004KT 9999 FEW050 BKN100 17/08 Q1026 NOSIG RMK=
SPZO Ene2007-312300Z 10004KT 9999 FEW050 SCT100 17/08 Q1027 NOSIG RMK=
SPZO Feb2007-010000Z 11004KT 9999 SCT050 SCT100 14/08 Q1028 RMK PP000=
SPZO Feb2007-010100Z 00000KT 9999 BKN050 13/08 Q1029 RMK PP000=
SPZO Feb2007-010200Z 27006KT 240V310 9999 BKN050 14/07 Q1031 RMK PP000=
SPZO Feb2007-010300Z 09012KT 060V130 5000 RA SCT040 BKN050 10/07 Q1033 RMK PP010=
SPZO Feb2007-010400Z 00000KT 6000 RA SCT040 BKN050 10/08 Q1033 RMK PP018=
SPZO Feb2007-010500Z 24002KT 190V290 5000 RA SCT040 BKN050 10/08 Q1033 RMK PP012=
SPZO Feb2007-010600Z 21003KT 160V250 5000 +RA FEW030TCU SCT040 BKN050 10/08 Q1033 RMK PP032=
SPZO Feb2007-010700Z 09003KT 5000 +RA SCT030TCU SCT040 BKN050 09/08 Q1033 RMK PP054=
SPZO Feb2007-010800Z 09002KT 040V150 5000 +RA SCT030TCU OVC040 09/07 Q1032 RMK PP028=
SPZO Feb2007-010900Z 29002KT 5000 RA FEW030TCU OVC040 09/06 Q1032 RMK PP010=
SPZO Feb2007-011000Z 10003KT 7000 FEW030 SCT040 BKN050 09/06 Q1032 RERA RMK HZFU PPTRZ=
SPZO Feb2007-011100Z 00000KT 9000 SCT040 SCT050 BKN060 09/07 Q1032 RMK=
SPZO Feb2007-011200Z 00000KT 9999 FEW040 OVC060 10/07 Q1033 NOSIG RMK PP000=
SPZO Feb2007-011300Z 07002KT 020V120 9999 FEW030 OVC060 11/07 Q1033 NOSIG RMK WIND RWY10 13002KT 070V180 PP000=
SPZO Feb2007-011400Z VRB02KT 9999 FEW036 OVC080 13/06 Q1034 NOSIG RMK=
SPZO Feb2007-011500Z VRB02KT 9999 FEW040 OVC080 14/06 Q1034 NOSIG RMK=
SPZO Feb2007-011600Z VRB02KT 9999 FEW040 OVC080 15/06 Q1033 NOSIG RMK=
SPZO Feb2007-011700Z VRB02KT 9999 FEW040 OVC080 17/04 Q1032 NOSIG RMK=
SPZO Feb2007-011800Z VRB04KT 9999 FEW047 OVC150 18/06 Q1031 NOSIG RMK RWY10 29006KT 220V010 PP000=
SPZO Feb2007-011900Z 00000KT 9999 FEW050 SCT150 BKN200 19/04 Q1030 NOSIG RMK RWY10 00000KT PP000=
SPZO Feb2007-012000Z VRB02KT 9999 SCT047 SCT100 BKN200 19/03 Q1029 NOSIG RMK RWY10 26013KT 220V330 PP000=
SPZO Feb2007-012100Z 35007KT 310V030 9999 SCT050 SCT100 BKN200 18/06 Q1028 NOSIG RMK RWY10 02012KT 310V110 PP000=
SPZO Feb2007-012200Z 00000KT 9999 FEW050 SCT150 BKN200 18/05 Q1028 NOSIG RMK RWY10 VRB13KT TMAX 19.9 PP000=
SPZO Feb2007-012300Z 02007KT 350V050 9999 SCT150 BKN200 17/05 Q1028 NOSIG RMK RWY10 VRB09KT PP000=
SPZO Feb2007-020000Z 00000KT 9999 FEW050 OVC200 16/07 Q1029 RMK PP000=
SPZO Feb2007-020100Z 00000KT 9999 FEW050 SCT200 14/08 Q1029 RMK PP000=
SPZO Feb2007-020200Z 00000KT 9999 FEW050 SCT200 13/08 Q1031 RMK PP000=
SPZO Feb2007-020300Z 30002KT 9999 SCT050 SCT100 12/08 Q1031 RMK PP000=
SPZO Feb2007-020400Z 00000KT 9999 SCT050 SCT100 12/09 Q1031 RMK PP000=
SPZO Feb2007-020500Z 21002KT 9999 SCT050 BKN100 11/08 Q1031 RMK PP000=
SPZO Feb2007-020600Z 12002KT 9999 SCT050 BKN100 10/08 Q1031 RMK PP000=
SPZO Feb2007-020700Z 10002KT 9999 SCT050 BKN100 10/08 Q1031 RMK PP000=
SPZO Feb2007-020800Z 00000KT 9999 FEW040 SCT100 10/07 Q1031 RMK PP000=
SPZO Feb2007-020900Z 00000KT 9999 FEW040 SCT100 10/08 Q1031 RMK PP000=
SPZO Feb2007-021000Z 00000KT 9999 FEW040 SCT100 10/08 Q1031 RMK PP000=
SPZO Feb2007-021100Z 28003KT 9999 FEW036 SCT080 09/06 Q1032 RMK PP000=
SPZO Feb2007-021200Z 00000KT 9000E FEW037 SCT070 10/08 Q1033 HZ BECMG=
SPZO Feb2007-021300Z VRB02KT 9000E FEW037 SCT070 14/08 Q1033 HZ BECMG FM1330 9999 RMK RWY10 00000KT PP000=
SPZO Feb2007-021400Z 09004KT 050V160 9999 SCT040 BKN060 15/08 Q1034 NOSIG RMK RWY10 13010KT 090V170 PP000=
SPZO Feb2007-021500Z VRB05KT 9999 SCT040 SCT060 17/07 Q1033 NOSIG RMK RWY10 VRB05KT PP000=
SPZO Feb2007-021600Z VRB02KT 9999 SCT043 SCT070 18/07 Q1032 NOSIG RMK RWY10 00000KT PP000=
SPZO Feb2007-021700Z 12003KT 080V170 9999 SCT043 BKN060 17/06 Q1031 NOSIG RMK RWY10 VRB04KT PP000=
SPZO Feb2007-021800Z VRB03KT 9999 BKN040 SCT050 18/06 Q1030 NOSIG RMK=
SPZO Feb2007-021900Z 35007KT 270V040 9999 FEW040 SCT050 BKN060 19/05 Q1030 NOSIG RMK WIND RWY10 01014KT 290V070 PP000=
SPZO Feb2007-022000Z 35007KT 300V050 9999 SCT050 SCT060 19/05 Q1028 NOSIG RMK WIND RWY10 VRB14G30KT PP000=
SPZO Feb2007-022100Z VRB05KT 9999 SCT050 SCT060 20/04 Q1027 NOSIG RMK=
SPZO Feb2007-022200Z 30005KT 210V350 9999 BKN050 20/06 Q1027 NOSIG RMK=
SPZO Feb2007-022300Z 01007KT 340V050 9999 SCT050 19/06 Q1027 NOSIG RMK=
SPZO Feb2007-030000Z 00000KT 9999 FEW200 16/07 Q1028 RMK PP000=
SPZO Feb2007-030100Z 00000KT 9999 FEW100 15/07 Q1029 RMK PP000=
SPZO Feb2007-030200Z 00000KT 9999 FEW040 SCT200 14/08 Q1031 RMK PP000=
SPZO Feb2007-030300Z 00000KT 9999 SCT040 BKN060 14/08 Q1032 RMK PP000=
SPZO Feb2007-030400Z 27004KT 9999 FEW033 BKN043 13/08 Q1032 RMK PP000=
SPZO Feb2007-030500Z 09009KT 9999 -RA SCT030 BKN040 13/09 Q1032 RMK PPTRZ=
SPZO Feb2007-030600Z 11010KT 9999 FEW020 BKN040 11/08 Q1032 RERA RMK PP002=
SPZO Feb2007-030700Z 10008KT 9999 -RA SCT023 BKN040 10/08 Q1032 RMK PP002=
SPZO Feb2007-030800Z 11008KT 9999 -RA FEW020 SCT033 BKN040 09/07 Q1032 RMK CEILING BELOW 1200M PP004=
SPZO Feb2007-030900Z 11010KT 9999 FEW020 SCT033 BKN043 09/07 Q1031 RERA RMK CEILING BELOW 1200M PPTRZ=
SPZO Feb2007-031000Z 10004KT 070V170 9999 FEW023 SCT040 BKN060 09/06 Q1032 RMK RWY10 07008KT 020V110 PP000=
SPZO Feb2007-031100Z 00000KT 9999 FEW023 SCT040 BKN060 09/07 Q1033 RMK PP000=
SPZO Feb2007-031200Z 00000KT 9999 BKN043 SCT060 10/07 Q1034 NOSIG RMK RWY10 VRB02KT PP000=
SPZO Feb2007-031300Z VRB04KT 9999 FEW033 BKN060 12/07 Q1034 NOSIG RMK RWY10 VRB03KT PP000=
SPZO Feb2007-031400Z VRB02KT 9999 FEW037 SCT080 14/06 Q1034 NOSIG RMK RWY10 00000KT PP000=
SPZO Feb2007-031500Z VRB03KT 9999 SCT043 SCT200 16/07 Q1033 NOSIG RMK RWY10 VRB02KT PP000=
SPZO Feb2007-031600Z VRB05KT 9999 SCT040TCU SCT050 18/08 Q1032 TEMPO=
SPZO Feb2007-031700Z VRB05KT 9999 SCT043TCU SCT053 19/09 Q1031 TEMPO=
SPZO Feb2007-031800Z 03007KT 340V080 9999 FEW040TCU SCT050 20/06 Q1029 NOSIG RMK PP000=
SPZO Feb2007-031900Z 36006KT 300V060 9999 FEW040TCU SCT050 20/05 Q1028 NOSIG RMK PP000=
SPZO Feb2007-032000Z 35008KT 300V060 9999 FEW040TCU SCT050 20/07 Q1027 NOSIG WIND RWY10 31015KT 260V020 RMK PP000=
SPZO Feb2007-032100Z 36008KT 9999 VCSH FEW040TCU SCT080 18/05 Q1027 NOSIG RMK PP000=
SPZO Feb2007-032200Z 02004KT 340V060 9999 FEW043 SCT100 BKN230 19/07 Q1027 NOSIG RMK TMAX 21.3 PP000=
SPZO Feb2007-032300Z 09004KT 060V180 9999 SCT040 BKN100 17/08 Q1028 NOSIG RMK PP000=
SPZO Feb2007-040000Z VRB02KT 9999 BKN050 17/08 Q1028 RMK PP000=
SPZO Feb2007-040100Z 21011KT 150V240 9999 BKN050 16/08 Q1030 RMK PP000=
SPZO Feb2007-040200Z 04005KT 330V080 9999 SCT040 BKN050 15/08 Q1032 RMK PP000=
SPZO Feb2007-040300Z 29006KT 5000 -RA BKN040 SCT050 13/09 Q1033 RMK PP004=
SPZO Feb2007-040400Z 23006KT 190V280 9000 SCT040 SCT050 13/06 Q1034 RERA RMK PP002=
SPZO Feb2007-040500Z 33006KT 270V350 5000 -RA SCT040 BKN050 12/07 Q1034 RMK PP002=
SPZO Feb2007-040600Z 28002KT 5000 -RA SCT040 BKN050 11/07 Q1033 RMK PP004=
SPZO Feb2007-040700Z 29002KT 5000 -RA SCT040 BKN050 10/08 Q1031 RMK PP006=
SPZO Feb2007-040800Z 11005KT 8000 SCT040 SCT050 10/08 Q1030 RERA RMK PP002=
SPZO Feb2007-040900Z 00000KT 9000 SCT040 SCT050 BKN060 10/08 Q1031 RMK HZFU PP000=
SPZO Feb2007-041000Z 00000KT 9000 SCT040 SCT050 BKN060 10/07 Q1031 RMK HZFU PP000=
SPZO Feb2007-041100Z 13002KT 9000 FEW040 SCT050 BKN060 10/08 Q1031 RMK HZ FU PP000=
SPZO Feb2007-041200Z 18002KT 160V260 9999 FEW030 SCT040 BKN046 10/08 Q1033 NOSIG RMK PP000=
SPZO Feb2007-041300Z 07004KT 040V100 9999 -DZ FEW030 SCT040 BKN046 11/08 Q1033 BECMG FM1340 NSW RMK PP004=
SPZO Feb2007-041400Z VRB02KT 9999 FEW036 SCT100 14/09 Q1033 REDZ NOSIG RMK PPTRZ=
SPZO Feb2007-041500Z VRB02KT 9999 FEW040 SCT230 16/08 Q1032 NOSIG RMK PP000=
SPZO Feb2007-041600Z VRB03KT 9999 FEW043 SCT230 18/07 Q1031 NOSIG RMK PP000=
SPZO Feb2007-041700Z VRB02KT 9999 FEW043 SCT230 21/08 Q1029 NOSIG RMK PP000=
SPZO Feb2007-041800Z VRB03KT 9999 SCT050 SCT100 22/09 Q1028 NOSIG RMK=
SPZO Feb2007-041900Z 33006KT 270V020 9999 SCT046TCU SCT060 22/05 Q1027 TEMPO VCSH RMK WIND RWY10 VRB11KT PP000=
SPZO Feb2007-042000Z VRB07KT 9999 VCSH SCT046TCU BKN060 19/07 Q1027 NOSIG RMK WIND RWY10 VRB13KT PP000=
SPZO Feb2007-042100Z VRB04KT 9999 FEW046 SCT050 BKN080 18/08 Q1026 NOSIG RMK WIND RWY10 VRB07KT PP000=
SPZO Feb2007-042200Z 17002KT 9999 FEW046TCU SCT050 BKN080 19/08 Q1026 NOSIG RMK WIND RWY10 VRB06KT T.MAX.23.3 PP000=
SPZO Feb2007-042300Z 32003KT 290V020 9999 SCT050 BKN080 19/04 Q1026 NOSIG RMK RWY10 VRB04KT PP000=
SPZO Feb2007-050000Z 01004KT 330V100 9999 BKN043 SCT080 17/09 Q1027 RMK PP000=
SPZO Feb2007-050100Z VRB02KT 9999 SCT050 15/09 Q1028 RMK PP000=
SPZO Feb2007-050200Z VRB02KT 9999 SCT050 14/09 Q1029 RMK PP000=
SPZO Feb2007-050300Z 00000KT 9999 SCT050 SCT080 13/08 Q1031 RMK PP000=
SPZO Feb2007-050400Z 00000KT 9999 FEW040 SCT046 12/09 Q1031 RMK PP000=
SPZO Feb2007-050500Z 00000KT 9999 FEW040 BKN046 10/08 Q1031 RERA RMK PP002=
SPZO Feb2007-050600Z 00000KT 9999 BKN040 SCT046 13/09 Q1030 RMK PP000=
SPZO Feb2007-050700Z 32006KT 9999 -RA OVC040 11/08 Q1030 RMK PP142=
SPZO Feb2007-050800Z 00000KT 9999 FEW030 OVC040 11/08 Q1030 RMK PPTRZ=
SPZO Feb2007-050900Z 00000KT 9999 FEW030 OVC040 11/09 Q1029 RMK PP000=
SPZO Feb2007-051000Z 27002KT 9999 FEW036 SCT200 09/07 Q1030 RMK PP000=
SPZO Feb2007-051100Z VRB02KT 9999 FEW036 SCT200 09/08 Q1030 RMK PP000=
SPZO Feb2007-051200Z 00000KT 9999 FEW036 SCT150 11/09 Q1031 NOSIG RMK PP000=
SPZO Feb2007-051300Z 24003KT 180V270 9999 FEW036 SCT150 14/09 Q1031 NOSIG RMK WIND RWY10 VRB03KT PP000=
SPZO Feb2007-051400Z VRB02KT 9999 FEW036 SCT150 17/09 Q1031 NOSIG RMK=
SPZO Feb2007-051500Z 15003KT 9999 SCT046 18/09 Q1031 NOSIG RMK WIND RWY10 VRB06KT PP000=
SPZO Feb2007-051600Z VRB03KT 9999 SCT046 20/09 Q1030 NOSIG RMK=
SPZO Feb2007-051700Z VRB05KT 9999 FEW046TCU SCT050 21/09 Q1029 NOSIG RMK WIND RWY10 VRB07KT PP000=
SPZO Feb2007-051800Z VRB04KT 9999 FEW040TCU SCT050 21/08 Q1027 NOSIG RMK RWY10 VRB10KT PP000=
SPZO Feb2007-051900Z 05006KT 340V110 9999 SCT040TCU SCT200 21/07 Q1026 TEMPO VCSH RMK RWY10 02017G29KT 280V080 PP000=
SPZO Feb2007-052000Z 28014KT 250V0350 9000W VCSH SCT037TCU SCT047 BKN200 NOSIG 18/08 Q1026 RMK RWY10 29027G41KT 260V330 PP000=
SPZO Feb2007-052100Z 28011KT 250V310 9999 VCSH FEW037TCU SCT047 BKN200 18/08 Q1026 NOSIG RMK RWY10 29014KT 250V360 PP000=
SPZO Feb2007-052200Z 33008KT 9999 SCT047 SCT200 19/07 Q1026 NOSIG RMK RWY10 30014KT TMAX 22.0 PP000=
SPZO Feb2007-052300Z 26007KT 9999 SCT040 BKN200 17/08 Q1027 NOSIG RMK PP000=
SPZO Feb2007-060000Z 35005KT 9999 FEW050 OVC200 16/05 Q1027 RMK PP000=
SPZO Feb2007-060100Z 25003KT 180V290 9999 FEW050 BKN100 15/07 Q1029 RMK PP000=
SPZO Feb2007-060200Z 00000KT 9999 FEW040 SCT100 13/07 Q1030 RMK PP000=
SPZO Feb2007-060300Z 00000KT 9999 FEW050 SCT100 12/08 Q1031 RMK PP000=
SPZO Feb2007-060400Z 00000KT 9999 FEW050 SCT100 11/07 Q1031 RMK PP000=
SPZO Feb2007-060500Z 00000KT 9999 FEW050 SCT100 11/08 Q1031 RMK PP000=
SPZO Feb2007-060600Z 00000KT 9999 FEW050 SCT100 11/08 Q1031 RMK PP000=
SPZO Feb2007-060700Z 00000KT 9999 SCT046 BKN100 10/08 Q1030 RMK PP000=
SPZO Feb2007-060800Z 00000KT 9999 SCT040 BKN080 12/08 Q1030 RMK PP000=
SPZO Feb2007-060900Z 25004KT 210V310 9999 SCT030 BKN050 12/07 Q1030 RMK PP000=
SPZO Feb2007-061000Z 29006KT 270V350 9999 FEW030 SCT050 BKN060 12/06 Q1031 RMK PP000=
SPZO Feb2007-061100Z 25002KT 220V300 9999 FEW036 SCT046 BKN060 11/07 Q1031 RMK WIND RWY10 VRB06KT PP000=
SPZO Feb2007-061200Z 26004KT 240V350 9999 SCT043 BKN053 13/07 Q1032 NOSIG RMK RWY10 31004KT 240V010 PP000=
SPZO Feb2007-061300Z 33004KT 260V040 9999 SCT040 SCT050 BKN200 14/06 Q1032 NOSIG RMK RWY10 VRB05KT PP000=
SPZO Feb2007-061400Z 33003KT 300V030 9999 BKN043 SCT200 15/06 Q1032 NOSIG RMK RWY10 00000KT PP000=
SPZO Feb2007-061500Z VRB05KT 9999 SCT047 SCT200 17/07 Q1032 NOSIG RMK RWY10 VRB03KT PP000=
SPZO Feb2007-061600Z VRB03KT 9999 SCT050 SCT200 19/07 Q1031 NOSIG RMK RWY10 VRB09KT PP000=
SPZO Feb2007-061700Z VRB05KT 9999 SCT050 SCT200 20/07 Q1029 NOSIG RMK RWY10 VRB07KT PP000=
SPZO Feb2007-061800Z VRB03KT 9999 SCT050 SCT230 22/06 Q1027 NOSIG RMK WIND RWY10 VRB05KT PP000=
SPZO Feb2007-061900Z VRB03KT 9999 SCT050 SCT230 23/03 Q1026 TEMPO VCSH RMK WIND RWY10 VRB04KT PP000=
SPZO Feb2007-062000Z 33006KT 270V050 9999 SCT050 SCT100 21/05 Q1025 TEMPO=
SPZO Feb2007-062100Z 03006KT 290V080 9999 SCT050 SCT100 20/04 Q1025 NOSIG RMK WIND RWY10 VRB12G25KT PP000=
SPZO Feb2007-062200Z VRB05KT 9999 SCT050 SCT100 20/07 Q1025 NOSIG RMK=
SPZO Feb2007-062300Z 35005KT 310V010 9999 SCT050 SCT100 19/08 Q1025 NOSIG RMK WIND RWY10 VRB08KT PP000=
SPZO Feb2007-070000Z VRB03KT 9999 SCT043 17/08 Q1027 RMK PP000=
SPZO Feb2007-070100Z 10006KT 9999 SCT040 15/08 Q1028 RMK PP000=
SPZO Feb2007-070200Z 00000KT 9999 SKC 14/09 Q1029 RMK PP000=
SPZO Feb2007-070300Z 26006KT 9999 SCT040 13/07 Q1030 RMK PP000=
SPZO Feb2007-070400Z 27006KT 9999 BKN040 14/09 Q1031 RMK PP000=
SPZO Feb2007-070500Z 00000KT 9999 SCT030 SCT040 14/05 Q1031 RMK PP000=
SPZO Feb2007-070600Z 24003KT 9999 SCT033 BKN043 14/06 Q1031 RMK PP000=
SPZO Feb2007-070700Z 00000KT 9999 SCT037 SCT200 12/06 Q1031 RMK PP000=
SPZO Feb2007-070800Z 00000KT 9999 FEW037 SCT200 12/06 Q1031 RMK PP000=
SPZO Feb2007-070900Z 00000KT 9999 SCT040 SCT200 09/06 Q1030 RMK PP000=
SPZO Feb2007-071000Z 00000KT 9999 FEW037 SCT200 09/06 Q1031 RMK PP000=
SPZO Feb2007-071100Z 00000KT 9999 SCT200 09/06 Q1031 RMK PP000=
SPZO Feb2007-071200Z 00000KT 9999 SCT200 11/06 Q1032 NOSIG RMK RWY10 0000KT PP000=
SPZO Feb2007-071300Z 00000KT 9999 FEW200 15/05 Q1032 NOSIG RMK RWY10 00000KT PP000=
SPZO Feb2007-071400Z VRB03KT 9999 FEW047 17/07 Q1032 NOSIG RMK RWY10 VRB08KT PP000=
SPZO Feb2007-071500Z VRB02KT 9999 SCT050 18/05 Q1031 NOSIG RMK RWY10 08008KT 030V140 PP000=
SPZO Feb2007-071600Z 11005KT 060V180 9999 SCT050 19/07 Q1030 NOSIG RMK RWY10 14012KT 100V210 PP000=
SPZO Feb2007-071700Z VRB07KT 9999 SCT050 21/05 Q1029 NOSIG RMK RWY10 VRB07KT PP000=
SPZO Feb2007-071800Z 28005KT 200V350 9999 SCT050 23/03 Q1027 NOSIG RMK PP000=
SPZO Feb2007-071900Z 09009KT 050V170 9999 FEW040TCU SCT050 22/08 Q1026 TEMPO VCSH RMK PP000=
SPZO Feb2007-072000Z VRB07KT 9999 SCT050 23/03 Q1025 NOSIG RMK PP000=
SPZO Feb2007-072100Z VRB08KT 9999 SCT050 22/05 Q1025 NOSIG RMK PP000=
SPZO Feb2007-072200Z 01010KT 320V080 9999 FEW040TCU 19/05 Q1025 NOSIG RMK T.MAX 23.4 PP000=
SPZO Feb2007-072300Z VRB04KT 9999 SCT050 18/05 Q1026 NOSIG RMK PP000=
SPZO Feb2007-080000Z 36004KT 310V070 9999 BKN050 17/06 Q1027 RMK PP000=
SPZO Feb2007-080100Z 09005KT 060V120 9999 BKN050 16/06 Q1029 RMK PP000=
SPZO Feb2007-080200Z VRB03KT 9999 BKN050 15/06 Q1030 RMK PP000=
SPZO Feb2007-080300Z 28004KT 250V320 9999 BKN050 12/07 Q1031 RMK PP000=
SPZO Feb2007-080400Z 28005KT 240V340 9999 BKN050 14/06 Q1031 RMK PP000=
SPZO Feb2007-080500Z 00000KT 9999 BKN050 13/07 Q1031 RMK PP000=
SPZO Feb2007-080600Z 17007KT 090V230 9999 OVC050 13/06 Q1031 RMK PP000=
SPZO Feb2007-080700Z VRB02KT 5000 +RA SCT040TCU BKN050 10/08 Q1031 RMK PP024=
SPZO Feb2007-080800Z 08003KT 5000 +RA SCT040TCU SCT050 09/07 Q1031 RMK PP056=
SPZO Feb2007-080900Z 10002KT 5000 RA SCT030TCU SCT040 BKN050 09/07 Q1031 RMK PP028=
SPZO Feb2007-081000Z 00000KT 6000 RA SCT030TCU SCT040 BKN050 09/07 Q1032 RMK PP016=
SPZO Feb2007-081100Z 00000KT 7000 -RA SCT030 SCT043 BKN050 09/06 Q1032 RMK WIND RWY10 00000KT HZFU PP002=
SPZO Feb2007-081200Z 00000KT 9999 -RA FEW025 SCT040 BKN070 10/07 Q1033 NOSIG RMK PP002=
SPZO Feb2007-081300Z 09004KT 050V120 9999 -RA FEW030 SCT043 BKN070 10/08 Q1033 NOSIG RMK PP002=
SPZO Feb2007-081400Z VRB02KT 9999 FEW025 SCT046 BKN070 11/07 Q1034 RERA NOSIG RMK PPTRZ=
SPZO Feb2007-081500Z VRB02KT 9999 FEW030 OVC080 12/06 Q1034 NOSIG RMK PP000=
SPZO Feb2007-081600Z VRB03KT 9999 FEW030 SCT043 BKN080 14/07 Q1033 NOSIG RMK PP000=
SPZO Feb2007-081700Z VRB03KT 9999 FEW036 SCT043 BKN100 14/08 Q1032 NOSIG RMK PP000=
SPZO Feb2007-081800Z 08007KT 050V110 9999 FEW040TCU SCT050 BKN150 15/06 Q1031 TEMPO VCSH RMK RWY10 10015KT 040V140 PP000=
SPZO Feb2007-081900Z VRB03KT 9999 SCT047 BKN200 17/07Q 1030 NOSIG RMK RWY10 VRB05KT PP000=
SPZO Feb2007-082000Z 00000KT 9999 SCT050 SCT200 18/06 Q1029 RMK RWY10 07008KT 360V120 PP000=
SPZO Feb2007-082100Z 36008KT 280V030 9999 FEW050 BKN200 17/06 Q1027 NOSIG RMK RWY10 36014KT 240V050 PP000=
SPZO Feb2007-082200Z 02010KT 360V060 9999 FEW047 SCT100 BKN200 17/05 Q1028 NOSIG RMK RWY10 05017KT 360V120 TMAX 18.0 PP000=
SPZO Feb2007-082300Z 03017KT 9999 SCT047 BKN200 15/04 Q1028 NOSIG RMK PP000=
SPZO Feb2007-090000Z 02008KT 9999 SCT040 SCT050 15/04 Q1029 RMK PP000=
SPZO Feb2007-090100Z 36005KT 9999 SCT050 15/03 Q1030 RMK PP000=
SPZO Feb2007-090200Z 31006KT 9999 SCT050 14/05 Q1032 RMK PP000=
SPZO Feb2007-090300Z 00000KT 9999 SCT050 13/05 Q1032 RMK PP000=
SPZO Feb2007-090400Z 00000KT 9999 FEW036 SCT050 13/06 Q1032 RMK PP000=
SPZO Feb2007-090500Z 00000KT 9999 SCT040 SCT046 12/08 Q1032 RMK PP000=
SPZO Feb2007-090600Z 30005KT 9999 OVC040 11/07 Q1032 RMK PP000=
SPZO Feb2007-090700Z 00000KT 9999 OVVC040 11/07 Q1031 RMK PP000=
SPZO Feb2007-090800Z 00000KT 9999 SCT036 BKN043 11/07 Q1031 RMK PP000=
SPZO Feb2007-090900Z 10004KT 9999 SCT030 BKN040 10/08 Q1031 RMK PP000=
SPZO Feb2007-091000Z VRB02KT 9999 SCT030 BKN040 10/08 Q1031 RMK PP000=
SPZO Feb2007-091100Z 12003KT 9999 FEW025 SCT036 BKN043 10/07 Q1032 RMK CLNG BLW 1200M PP000=
SPZO Feb2007-091200Z 09004KT 9999 FEW036 SCT040 BKN046 11/08 Q1033 NOSIG RMK WIND RWY10 09006KT PP000=
SPZO Feb2007-091300Z 08004KT 050V130 9999 FEW030 SCT040 BKN100 12/07 Q1033 NOSIG RMK WIND RWY10 VRB03KT PP000=
SPZO Feb2007-091400Z VRB04KT 9999 FEW036 SCT043 BKN080 13/07 Q1033 NOSIG RMK WIND RWY10 VRB08KT PP000=
SPZO Feb2007-091500Z VRB06KT 9999 SCT043 BKN050 15/08 Q1033 NOSIG RMK=
SPZO Feb2007-091600Z VRB02KT 9999 SCT043 SCT050 17/08 Q1033 NOSIG RMK=
SPZO Feb2007-091700Z VRB04KT 9999 SCT043 SCT050 17/06 Q1031 NOSIG RMK=
SPZO Feb2007-091800Z 02008G17KT 280V080 9999 SCT050 SCT200 19/06 Q1030 NOSIG RMK RWY10 VRB18KT PP000=
SPZO Feb2007-091900Z 01010G20KT 340V060 9999 VCSH FEW043TCU SCT200 20/06 Q1029 NOSIG RMK RWY10 VRB14KT PP000=
SPZO Feb2007-092000Z 01012KT 340V090 9999 SCT043 BKN200 19/06 Q1028 TEMPO=
SPZO Feb2007-092100Z 02012KT 340V050 9999 SCT040TCU BKN200 17/05 Q1028 NOSIG RMK RWY10 VRB21KT PP000=
SPZO Feb2007-092200Z 01006KT 320V080 9999 FEW040TCU BKN200 17/03 Q1028 NOSIG RMK RWY10 VRB17KT TMAX 19.8 PP000=
SPZO Feb2007-092300Z 01010KT 9999 FEW040 BKN200 16/05 Q1028 NOSIG RMK RWY10 VRB09KT PP000=
SPZO Feb2007-100000Z VRB06KT 9999 FEW050 OVC200 15/04 Q1029 RMK PP000=
SPZO Feb2007-100100Z VRB02KT 9999 FEW050 SCT200 14/05 Q1030 RMK PP000=
SPZO Feb2007-100200Z VRB02KT 9999 SCT050 BKN100 14/06 Q1032 RMK PP000=
SPZO Feb2007-100300Z 12004KT 9999 SCT050 BKN100 13/07 Q1032 RMK PP000=
SPZO Feb2007-100400Z 16002KT 9999 SCT046 BKN100 13/07 Q1032 RMK PP000=
SPZO Feb2007-100500Z 00000KT 9999 SCT046 BKN100 13/06 Q1032 RMK PP000=
SPZO Feb2007-100600Z 00000KT 9999 SCT046 BKN080 13/07 Q1032 RMK PP000=
SPZO Feb2007-100700Z 10008KT 9999 SCT046 BKN050 12/07 Q1031 RMK PP000=
SPZO Feb2007-100800Z 10008KT 9999 FEW043 SCT050 BKN060 11/07 Q1031 RMK PP000=
SPZO Feb2007-100900Z 11008KT 9999 FEW040 SCT050 BKN060 11/07 Q1031 RMK PP000=
SPZO Feb2007-101000Z 11005KT 9999 FEW040 SCT050 BKN060 10/07 Q1032 RMK PP000=
SPZO Feb2007-101100Z 11007KT 9999 DZ SCT036 BKN046 10/07 Q1033 RMK PPTRZ=
SPZO Feb2007-101200Z 09006KT 9999 FEW027 SCT040 BKN070 10/08 Q1034 REDZ NOSIG RMK RWY10 09008KT 060V130 PPTRZ=
SPZO Feb2007-101300Z VRB02KT 9999 SCT033 BKN200 12/07 Q1034 NOSIG RMK RWY10 VRB11KT PP000=
SPZO Feb2007-101400Z 09007KT 9999 SCT037 SCT050 BKN150 13/07 Q1034 NOSIG RMK RWY10 10011KT 070V140 PP000=
SPZO Feb2007-101500Z 11006KT 010V150 9999 VCSH FEW037TCU SCT047 BKN100 15/08 Q1034 NOSIG RMK RWY10 VRB08KT PP000=
SPZO Feb2007-101600Z 11005KT 040V180 9999 VCSH FEW037TCU SCT047 BKN100 16/06 Q1033 NOSIG RMK RWY10 12015KT 050V170 PP000=
SPZO Feb2007-101700Z 29007KT 240V350 9000W VCSH SCT037TCU BKN047 17/08 Q1032 TEMPO RA RMK RWY10 28016KT 240V330 PP000=
SPZO Feb2007-101800Z 01009KT 320V080 8000 VCSH SCT030TCU SCT050 17/06 Q1031 NOSIG RMK WIND RWY10 VRB14G26KT VCSH QUAD W PP000=
SPZO Feb2007-101900Z 35008KT 290V040 8000 VCSH SCT030TCU SCT050 18/06 Q1030 NOSIG RMK WIND RWY10 29024G38KT 240V350 VCSH QUAD W PP000=
SPZO Feb2007-102000Z 35008KT 300V060 9999 SCT030 SCT050 19/06 Q1029 NOSIG RMK WIND RWY10 VRB13G24KT PP000=
SPZO Feb2007-102100Z VRB03KT 9999 SCT040 SCT050 17/06 Q1029 TEMPO VCSH RMK WIND RWY10 VRB10G21KT PP000=
SPZO Feb2007-102200Z 36004KT 320V080 9000 VCSH SCT040 SCT050 17/06 Q1029 NOSIG RMK WIND RWY10 VRB13KT VCSH QUAD W TMAX 19.6 PP000=
SPZO Feb2007-102300Z 36008KT 330V060 9999 BKN050 15/06 Q1030 NOSIG RMK=
SPZO Feb2007-110000Z 13005KT 9999 SCT040 BKN100 14/06 Q1031 RMK PP000=
SPZO Feb2007-110100Z 09003KT 9999 FEW040 BKN070 13/06 Q1032 RMK PP000=
SPZO Feb2007-110200Z VRB03KT 9999 SCT040 BKN060 13/06 Q1033 RMK PP000=
SPZO Feb2007-110300Z 12003KT 9999 SCT040 BKN060 13/05 Q1034 RMK PP000=
SPZO Feb2007-110400Z 00000KT 9999 SCT040 BKN050 12/06 Q1034 RMK PP000=
SPZO Feb2007-110500Z 08003KT 9999 -RA FEW033 BKN043 11/07 Q1034 RMK PP002=
SPZO Feb2007-110600Z VRB02KT 9999 -RA SCT030 BKN040 10/07 Q1033 RMK PP004=
SPZO Feb2007-110700Z 00000KT 9000 RA SCT030 BKN040 10/07 Q1033 RMK PP002=
SPZO Feb2007-110800Z 24004KT 9999 -RA SCT027 SCT037 BKN047 10/06 Q1033 RMK CEILING BELOW 1200M PP004=
SPZO Feb2007-110900Z 24005KT 9999 -RA SCT025 SCT033 BKN043 09/05 Q1033 RMK RWY10 VRB07KT CEIING BELOW 1200M PP002=
SPZO Feb2007-111000Z VRB02KT 9000 -RA SCT025 SCT033 BKN043 09/05 Q1033 RMK RWY10 00000KT CEIING BELOW 1200M PP004=
SPZO Feb2007-111100Z 11003KT 9999 SCT033 BKN043 09/06 Q1034 RMK RWY10 10005KT PP000=
SPZO Feb2007-111200Z 00000KT 9999 FEW027 SCT037 BKN047 10/06 Q1034 NOSIG RMK RWY10 VRB02KT PP000=
SPZO Feb2007-111300Z 00000KT 9999 FEW030 SCT037 BKN050 11/05 Q1035 NOSIG RMK RWY10 00000KT PP000=
SPZO Feb2007-111400Z 00000KT 9999 SCT033 SCT047 BKN060 13/06 Q1035 NOSIG RMK RWY10 VRB03KT PP000=
SPZO Feb2007-111500Z 09004KT 9999 SCT037 BKN090 14/06 Q1035 NOSIG RMK RWY10 VRB04KT PP000=
SPZO Feb2007-111600Z VRB03KT 9999 SCT043 SCT080 16/07 Q1034 NOSIG RMK PP000=
SPZO Feb2007-111700Z VRB03KT 9999 SCT043 SCT080 18/06 Q1032 NOSIG RMK PP000=
SPZO Feb2007-111800Z 35010KT 310V020 9999 SCT050 19/06 Q1031 NOSIG RMK PP000=
SPZO Feb2007-111900Z 35010KT 310V040 9999 SCT050 19/04 Q1030 NOSIG RMK PP000=
SPZO Feb2007-112000Z 35012KT 270V050 9999 SCT043 BKN230 20/07 Q1028 NOSIG RMK PP000=
SPZO Feb2007-112100Z 36009KT 320V050 9999 SCT040 SCT230 19/05 Q1028 NOSIG RMK PP000=
SPZO Feb2007-112200Z 02009KT 330V060 9999 SCT043 SCT100 BKN230 18/04 Q1028 NOSIG RMK TMAX 20.1 PP000=
SPZO Feb2007-112300Z 02005KT 310V100 SCT043 BKN230 17/05 Q1029 NOSIG RMK PP000=
SPZO Feb2007-120000Z VRB02KT 9999 BKN040 SCT100 16/06 Q1030 RMK PP000=
SPZO Feb2007-120100Z 11010KT 9999 OVC040 12/08 Q1031 RMK PP000=
SPZO Feb2007-120200Z 08007KT 9999 OVC040 12/08 Q1032 RMK PP000=
SPZO Feb2007-120300Z 11005KT 080V150 8000 -RA SCT030 BKN040 11/08 Q1033 RMK PPTRZ=
SPZO Feb2007-120400Z 10005KT 070V140 9000 FEW030 BKN040 11/09 Q1033 RERA RMK PP002=
SPZO Feb2007-120500Z 09004KT 9999 FEW030 BKN040 11/08 Q1033 RMK PP000=
SPZO Feb2007-120600Z 10005KT 9999 OVC040 11/08 Q1032 RMK PP000=
SPZO Feb2007-120700Z VRB03KT 9999 OVC040 11/08 Q1032 RMK PP000=
SPZO Feb2007-120800Z VRB02KT 9999 OVC040 11/08 Q1031 RMK PP000=
SPZO Feb2007-120900Z 08002KT 030V120 9999 SCT040 SCT050 11/08 Q1031 RMK PP000=
SPZO Feb2007-121000Z 08002KT 060V120 9999 SCT040 BKN050 11/08 Q1031 RMK PP000=
SPZO Feb2007-121100Z 00000KT 9999 FEW040 SCT050 BKN060 11/08 Q1032 RMK PP000=
SPZO Feb2007-121200Z VRB02KT 9999 FEW030 SCT043 BKN060 11/09 Q1032 NOSIG RMK PP000=
SPZO Feb2007-121300Z VRB03KT 9999 FEW036 SCT050 14/08 Q1033 NOSIG RMK PP000=
SPZO Feb2007-121400Z VRB02KT 9999 SCT036 SCT080 15/08 Q1033 NOSIG RMK PP000=
SPZO Feb2007-121500Z VRB03KT 9999 SCT040 SCT080 17/08 Q1032 NOSIG RMK PP000=
SPZO Feb2007-121600Z VRB02KT 9999 FEW040TCU SCT050 16/07 Q1032 TEMPO=
SPZO Feb2007-121700Z 03008KT 350V080 9999 VCSH FEW040TCU SCT050 18/06 Q1031 NOSIG RMK PP000=
SPZO Feb2007-121800Z 36009KT 270V050 9999 FEW040TCU SCT050 20/07 Q1029 NOSIG RMK RWY10 VRB13G25KT PP000=
SPZO Feb2007-121900Z 30008KT 240V010 9999 FEW040TCU SCT050 BKN200 20/07 Q1028 TEMPO VCSH RMK RWY10 26014G28KT 220V360 PP000=
SPZO Feb2007-122000Z VRB03KT 9000 VCSH SCT040TCU SCT050 18/06 Q1027 TEMPO RA RMK RWY10 30014G26KT 260V360 PP000=
SPZO Feb2007-122100Z 26010KT 220V310 9999 FEW040TCU SCT050 BKN200 20/08 Q1026 NOSIG RMK RWY10 28015KT 230V330 PP000=
SPZO Feb2007-122200Z 31008KT 270V350 9999 VCSH FEW040TCU SCT050 BKN200 18/07 Q1026 NOSIG RMK RWY10 VRB11KT TMAX 21.0 PP000=
SPZO Feb2007-122300Z VRB07KT 9999 VCSH FEW040TCU SCT050 17/06 Q1027 NOSIG RMK RWY10 VRB15KT PP000=
SPZO Feb2007-130000Z 32006KT 270V010 9999 BKN040 16/06 Q1027 RMK PP000=
SPZO Feb2007-130100Z 26009KT 9999 FEW040 SCT080 15/08 Q1028 RMK PP000=
SPZO Feb2007-130200Z VRB02KT 9999 SCT040 SCT046 15/07 Q1030 RMK PP000=
SPZO Feb2007-130300Z 10005KT 9999 SCT040 SCT050 13/08 Q1030 RMK PP000=
SPZO Feb2007-130400Z 00000KT 9999 FEW036 BKN043 13/07 Q1030 RMK PP000=
SPZO Feb2007-130500Z 00000KT 9999 SCT036 SCT043 13/07 Q1030 RMK PP000=
SPZO Feb2007-130600Z 00000KT 9999 SCT036 BKN040 12/08 Q1030 RMK PP000=
SPZO Feb2007-130700Z 14003KT 9999 -RA OVC040 11/08 Q1029 RMK PP002=
SPZO Feb2007-130800Z 10003KT 9999 DZ FEW033 OVC040 11/08 Q1029 RMK PP002=
SPZO Feb2007-130900Z 28006KT 9000 -RA FEW030 OVC040 10/07 Q1029 RMK PP010=
SPZO Feb2007-131000Z 18003KT 9999 -DZ FEW030 SCT040 BKN043 10/07 Q1030 RMK PP004=
SPZO Feb2007-131100Z VRB01KT 9999 -RA SCT036 BKN043 10/07 Q1030 RMK PPTRZ=
SPZO Feb2007-131200Z 25002KT 210V340 9999 -RA SCT036 BKN046 11/08 Q1031 NOSIG RMK WIND RWY10 25012KT PP002=
SPZO Feb2007-131300Z 33002KT 290V010 9999 VCSH FEW030 SCT040 BKN046 11/05 Q1032 NOSIG RMK WIND RWY10 VRB07KT PP002=
SPZO Feb2007-131400Z VRB02KT 9999 FEW030 SCT040 BKN080 14/06 Q1033 NOSIG RMK WIND RWY10 VRB06KT PP000=
SPZO Feb2007-131500Z VRB03KT 9999 SCT040 BKN050 15/07 Q1032 NOSIG RMK=
SPZO Feb2007-131600Z VRB02KT 9999 SCT040 BKN050 16/07 Q1032 NOSIG RMK=
SPZO Feb2007-131700Z VRB03KT 9999 FEW036 SCT040 BKN050 15/07 Q1031 NOSIG RMK WIND RWY10 VRB07KT PP000=
SPZO Feb2007-131800Z 28009KT 180V320 9000 VCSH FEW040 SCT050 BKN060 16/07 Q1030 NOSIG RMK WIND RWY10 29010KT 250V350 VCSH QUAD E PP000=
SPZO Feb2007-131900Z VRB05KT 9999 SCT040 SCT050 18/06 Q1028 NOSIG RMK=
SPZO Feb2007-132000Z VRB05KT 9999 SCT040 BKN050 17/08 Q1027 TEMPO VCSH RMK WIND RWY10 30017G28KT 250V020 PP000=
SPZO Feb2007-132100Z VRB04KT 9999 SCT040 BKN050 16/07 Q1027 TEMPO VCSH RMK WIND RWY10 29016G26KT 240V350 PP000=
SPZO Feb2007-132200Z 30014KT 270V350 9000 VCSH SCT040 BKN050 15/08 Q1027 TEMPO RA RMK WIND RWY10 30022G38KT 250V010 VCSH QUAD W/E TMAX 18.7 PP000=
SPZO Feb2007-132300Z 12006KT 080V170 9999 SCT040 BKN050 12/08 Q1028 NOSIG RMK WIND RWY10 VRB06G19KT PP000=
SPZO Feb2007-140000Z 07004KT 040V120 9999 SCT040 BKN050 11/08 Q1029 RMK PP000=
SPZO Feb2007-140100Z 12003KT 090V160 9999 SCT949 BKN050 11/08 Q1029 RMK PP000=
SPZO Feb2007-140200Z 08003KT 9999 SCT040 SCT080 11/08 Q1030 RMK PP000=
SPZO Feb2007-140300Z 00000KT 9999 SCT040 SCT080 11/08 Q1030 RMK PP000=
SPZO Feb2007-140400Z 10002KT 9999 SCT040 SCT080 11/08 Q1031 RMK PP000=
SPZO Feb2007-140500Z 09002KT 9999 SCT040 BKN060 10/08 Q1030 RMK PP000=
SPZO Feb2007-140600Z 00000KT 9999 SCT040 BKN060 11/08 Q1030 RMK PP000=
SPZO Feb2007-140700Z 00000KT 9999 SCT040 BKN060 10/08 Q1029 RMK PP000=
SPZO Feb2007-140800Z 12004KT 9999 SCT040 BKN060 10/08 Q1029 RMK PP000=
SPZO Feb2007-140900Z 06003KT 9999 FEW036 SCT040 BKN050 10/08 Q1029 RMK PP000=
SPZO Feb2007-141000Z 00000KT 9999 FEW036 SCT040 BKN050 11/08 Q1029 RMK PP000=
SPZO Feb2007-141100Z 07002KT 030V100 8000 VCSH FEW030 SCT040 BKN046 11/08 Q1030 RMK PP000=
SPZO Feb2007-141200Z 00000KT 8000 -RA SCT030 BKN040 11/09 Q1031 NOSIG RMK WIND RWY10 31006KT PP004=
SPZO Feb2007-141300Z 28008KT 7000 RA FEW020 SCT030 BKN040 10/07 Q1033 NOSIG RMK WIND RWY10 26013KT CLNG BLW 1200M PP014=
SPZO Feb2007-141400Z 00000KT 7000 +RA FEW020 SCT033 BKN046 09/06 Q1034 TEMPO FM1430 9000 RMK WIND RWY10 00000KT PP038=
SPZO Feb2007-141500Z 00000KT 9000 -RA FEW020 SCT040 BKN060 11/08 Q1033 TEMPO NSW RMK WIND RWY10 110/5KT PP010=
SPZO Feb2007-141600Z VRB02KT 9999 FEW030 SCT040 BKN100 13/06 Q1033 NOSIG RMK PPTRZ=
SPZO Feb2007-141700Z 00000KT 9999 FEW030 SCT043 BKN070 14/06 Q1031 NOSIG RMK PP000=
SPZO Feb2007-141800Z VRB03KT 9999 FEW040 SCT050 BKN080 17/08 Q1029 NOSIG RMK WIND RWY10 VRB05KT PP000=
SPZO Feb2007-141900Z 32005KT 230V050 9999 FEW040 SCT050 BKN080 17/05 Q1027 NOSIG RMK WIND RWY10 31010KT 240V010 PP000=
SPZO Feb2007-142000Z 26003KT 170V310 FEW043 SCT080 BKN230 17/06 Q1026 NOSIG RMK PP000=
SPZO Feb2007-142100Z VRB01KT 9999 FEW040TCU SCT043 BKN150 18/06 Q1025 NOSIG RMK PP000=
SPZO Feb2007-142200Z 29007KT 270V350 9999 FEW043 SCT060 BKN100 16/06 Q1025 NOSIG RMK WIND RWY10 27010KT 240V300 TMAX 17.8 PP000=
SPZO Feb2007-142300Z 13008KT 080V190 8000 TSRA SCT030CB SCT040 BKN050 14/08 Q1026 NOSIG RMK PPTRZ=
SPZO Feb2007-150000Z 33010KT 8000 SHRA FEW030 OVC040 11/07 Q1029 RMK PP020=
SPZO Feb2007-150100Z 23004KT 180V280 8000 -RA FEW030 BKN040 11/07 Q1029 RMK PP020=
SPZO Feb2007-150200Z 11004KT 9999 SCT036 BKN040 10/07 Q1030 RMK RERA PP002=
SPZO Feb2007-150300Z 00000KT 9999 SCT036 BKN040 10/07 Q1030 RMK PP000=
SPZO Feb2007-150400Z 00000KT 9999 SCT036 BKN040 11/07 Q1030 RMK PP000=
SPZO Feb2007-150500Z 00000KT 9999 SCT036 BKN040 10/07 Q1030 RMK PP000=
SPZO Feb2007-150600Z 00000KT 9999 SCT036 BKN040 09/07 Q1029 RMK PP000=
SPZO Feb2007-150700Z 00000KT 9999 SCT036 BKN040 09/07 Q1028 RMK PP000=
SPZO Feb2007-150800Z 00000KT 9999 SCT036 BKN040 08/06 Q1028 RMK PP000=
SPZO Feb2007-150900Z 00000KT 9999 SCT036 BKN046 07/06 Q1027 RMK PP000=
SPZO Feb2007-151000Z 00000KT 9999 SCT036 BKN046 07/05 Q1028 RMK PP000=
SPZO Feb2007-151100Z VRB04KT 9999 SCT040 BKN050 08/06 Q1029 RMK PP000=
SPZO Feb2007-151200Z 08002KT 050V120 9999 SCT050 SCT100 BKN230 08/06 Q1029 NOSIG RMK WIND RWY10 12004KT 080V150 PP000=
SPZO Feb2007-151300Z 00000KT 9999 SCT050 SCT100 BKN230 11/07 Q1029 NOSIG RMK WIND RWY10 00000KT PP000=
SPZO Feb2007-151400Z 00000KT 9999 SCT050 SCT100 BKN230 14/04 Q1029 NOSIG RMK WIND RWY10 00000KT PP000=
SPZO Feb2007-151500Z VRB02KT 9999 SCT050 SCT100 BKN230 15/05 Q1029 NOSIG RMK WIND RWY10 VRB08KT PP000=
SPZO Feb2007-151600Z VRB03KT 9999 SCT050 SCT100 BKN230 17/04 Q1028 NOSIG RMK WIND RWY10 VRB07G17KT PP000=
SPZO Feb2007-151700Z VRB03KT 9999 SCT050 SCT100 BKN230 18/03 Q1027 NOSIG RMK WIND RWY10 24016G26KT 200V290 PP000=
SPZO Feb2007-151800Z VRB06KT 9999 SCT050 SCT100 BKN230 18/04 Q1026 NOSIG RMK PP000=
SPZO Feb2007-151900Z VRB06KT 9999 SCT046 BKN230 20/02 Q1024 NOSIG RMK PP000=
SPZO Feb2007-152000Z 11007KT 070V150 9999 SCT046 SCT100 19/04 Q1024 NOSIG RMK PP000=
SPZO Feb2007-152100Z VRB06KT 9999 FEW040 SCT046 BKN080 18/05 Q1023 NOSIG RMK PP000=
SPZO Feb2007-152200Z 30013KT 260V350 9999 FEW040 SCT046 BKN080 17/04 Q1023 NOSIG RMK WIND RWY10 28017KT T.MAX 20.1 PP000=
SPZO Feb2007-152300Z 29011KT 260V330 9999 VCSH BKN043 SCT080 16/05 Q1024 NOSIG RMK PP000=
SPZO Feb2007-160000Z 30007KT 270V350 9999 FEW050 SCT060 BKN100 14/06 Q1025 RMK PP000=
SPZO Feb2007-160100Z 30010KT 270V350 9999 BKN050 SCT100 14/05 Q1026 RMK PP000=
SPZO Feb2007-160200Z 31009KT 270V350 9999 BKN050 14/05 Q1028 RMK PP000=
SPZO Feb2007-160300Z 15002KT 9999 BKN050 12/07 Q1028 RMK PP000=
SPZO Feb2007-160400Z 00000KT 9999 BKN050 12/07 Q1028 RMK PP000=
SPZO Feb2007-160500Z 24004KT 210V300 9999 BKN050 11/06 Q1028 RMK PP000=
SPZO Feb2007-160600Z VRB03KT 9999 BKN050 10/05 Q1027 RMK PP000=
SPZO Feb2007-160700Z 21004KT 170V260 9999 BKN050 09/05 Q1027 RMK PP000=
SPZO Feb2007-160800Z 28007KT 9999 BKN050 08/04 Q1026 RMK PP000=
SPZO Feb2007-160900Z 28004KT 170V340 9999 BKN050 08/04 Q1026 RMK PP000=
SPZO Feb2007-161000Z VRB02KT 9999 BKN050 08/04 Q1026 RMK PP000=
SPZO Feb2007-161100Z 28003KT 9999 BKN050 SCT100 08/03 Q1027 RMK WIND RWY10 27010KT PP000=
SPZO Feb2007-161200Z VRB02KT 9999 SCT050 OVC150 08/04 Q1029 NOSIG RMK PP000=
SPZO Feb2007-161300Z 00000KT 9999 SCT050 OVC150 10/04 Q1029 NOSIG RMK PP000=
SPZO Feb2007-161400Z 00000KT 9999 SCT050 OVC150 12/03 Q1029 NOSIG RMK PP000=
SPZO Feb2007-161500Z VRB03KT 9999 FEW050 OVC150 14/02 Q1028 NOSIG RMK PP000=
SPZO Feb2007-161600Z 24005KT 180V300 9999 FEW043 OVC150 15/M00 Q1028 NOSIG RMK PP000=
SPZO Feb2007-161700Z 26007KT 220V330 9999 FEW043 SCT150 BKN230 16/01 Q1026 NOSIG RMK PP000=
SPZO Feb2007-161800Z VRB08KT 9999 FEW046 OVC150 17/M01 Q1025 NOSIG RMK=
SPZO Feb2007-161900Z VRB06KT 9999 FEW050 OVC150 17/M01 Q1024 NOSIG RMK=
SPZO Feb2007-162000Z VRB05KT 9999 FEW050 OVC150 18/02 Q1024 NOSIG RMK=
SPZO Feb2007-162100Z 30013KT 270V360 9999 FEW050 OVC150 17/01 Q1023 NOSIG RMK WIND RWY10 30022G37KT 240V340 PP000=
SPZO Feb2007-162200Z 30012KT 270V360 9999 FEW050 OVC150 16/M00 Q1023 NOSIG RMK WIND RWY10 31017G27KT 250V360 T.MAX. 17.7 PP000=
SPZO Feb2007-162300Z 30007KT 260V330 9999 FEW050 OVC150 15/00 Q1023 NOSIG RMK WIND RWY10 VRB09KT PP000=
SPZO Feb2007-170000Z 29004KT 9999 SCT043 BKN100 14/02 Q1024 RMK PP000=
SPZO Feb2007-170100Z VRB01KT 9999 BKN100 13/04 Q1025 RMK PP000=
SPZO Feb2007-170200Z 00000KT 9999 FEW040 SCT100 12/05 Q1025 RMK PP000=
SPZO Feb2007-170300Z 00000KT 9999 FEW040 SCT230 11/05 Q1026 RMK PP000=
SPZO Feb2007-170400Z 00000KT 9999 SCT040 SCT100 11/05 Q1027 RMK PP000=
SPZO Feb2007-170500Z 00000KT 9999 SCT036 SCT080 10/05 Q1026 RMK PP000=
SPZO Feb2007-170600Z 00000KT 9999 SCT036 SCT080 08/03 Q1026 RMK PP000=
SPZO Feb2007-170700Z 00000KT 9999 SCT036 SCT070 08/04 Q1026 RMK PP000=
SPZO Feb2007-170800Z 00000KT 9999 FEW040 SCT070 06/03 Q1026 RMK PP000=
SPZO Feb2007-170900Z 00000KT 9999 FEW040 SCT080 06/03 Q1026 RMK PP000=
SPZO Feb2007-171000Z VRB01KT 9999 FEW040 SCT230 06/03 Q1026 RMK PP000=
SPZO Feb2007-171100Z 00000KT 9999 FEW046 SCT230 06/03 Q1027 RMK PP000=
SPZO Feb2007-171200Z 00000KT 9999 SCT050 BKN230 08/04 Q1028 NOSIG RMK=
SPZO Feb2007-171300Z VRB02KT 9999 SCT050 BKN100 12/03 Q1029 NOSIG RMK WIND RWY10 VRB05KT PP000=
SPZO Feb2007-171400Z VRB02KT 9999 SCT050 BKN100 15/04 Q1029 NOSIG RMK=
SPZO Feb2007-171500Z 00000KT 9999 FEW043 SCT050 15/03 Q1028 NOSIG RMK=
SPZO Feb2007-171600Z VRB04KT 9999 FEW043 SCT050 17/02 Q1028 NOSIG RMK=
SPZO Feb2007-171700Z VRB04KT 9999 SCT050 19/02 Q1026 NOSIG RMK WIND RWY10 VRB07KT PP000=
SPZO Feb2007-171800Z VRB03KT 9999 SCT050 19/04 Q1025 NOSIG RMK WIND RWY10 VRB06G16KT PP000=
SPZO Feb2007-171900Z VRB05KT 9999 SCT050 19/02 Q1024 NOSIG RMK WIND RWY10 VRB15G25KT PP000=
SPZO Feb2007-172000Z 28006KT 190V350 9999 SCT050 21/02 Q1022 NOSIG RMK=
SPZO Feb2007-172100Z 28011KT 240V350 9999 BKN050 19/04 Q1022 TEMPO VCSH RMK WIND RWY10 30017KT 260V010 PP000=
SPZO Feb2007-172200Z 36011KT 330V050 9999 BKN050 18/05 Q1022 NOSIG RMK WIND RWY10 VRB14G24KT TMAX 21.5 PP000=
SPZO Feb2007-172300Z 36009KT 320V050 9999 BKN050 17/05 Q1023 NOSIG RMK=
SPZO Feb2007-180000Z 00000KT 9999 FEW050 SCT100 15/05 Q1024 RMK PP000=
SPZO Feb2007-180100Z VRB03KT 9999 FEW050 SCT100 14/06 Q1025 RMK PP000=
SPZO Feb2007-180200Z VRB02KT 9999 FEW050 SCT100 12/06 Q1026 RMK PP000=
SPZO Feb2007-180300Z VRB02KT 9999 FEW050 SCT100 12/05 Q1027 RMK PP000=
SPZO Feb2007-180400Z 28006KT 9999 FEW050 11/06 Q1028 RMK PP000=
SPZO Feb2007-180500Z 26005KT 9999 FEW050 SCT080 11/06 Q1028 RMK PP000=
SPZO Feb2007-180600Z 36006KT 9999 SCT050 BKN080 11/06 Q1027 RMK PP000=
SPZO Feb2007-180700Z 27004KT 240V320 9999 SCT046 BKN060 11/06 Q1027 RMK PP000=
SPZO Feb2007-180800Z 10003KT 090V180 9999 -RA SCT046 BKN060 10/07 Q1027 RMK PPTRZ=
SPZO Feb2007-180900Z 08002KT 9000 DZ FEW030 SCT046 BKN060 10/07 Q1027 RMK PP002=
SPZO Feb2007-181000Z 04003KT 9000 SHRA FEW030 SCT046 BKN060 10/07 Q1027 RMK PPTRZ=
SPZO Feb2007-181100Z 00000KT 9999 VCSH FEW030 SCT043 BKN050 10/07 Q1028 RMK RERA PP000=
SPZO Feb2007-181200Z 26003KT 230V350 9999 FEW030 SCT043 BKN080 11/06 Q1029 NOSIG RMK WIND RWY10 30011KT 260V350 PP000=
SPZO Feb2007-181300Z 28004KT 250V330 9999 SCT043 BKN080 12/05 Q1030 NOSIG=
SPZO Feb2007-181400Z 27006KT 250V310 9999 SCT043 BKN100 12/05 Q1030 NOSIG=
SPZO Feb2007-181500Z 24004KT 170V290 9999 FEW040 SCT100 15/05 Q1030 NOSIG RMK PP000=
SPZO Feb2007-181600Z VRB03KT 9999 FEW040 OVC080 16/04 Q1029 NOSIG RMK PP000=
SPZO Feb2007-181700Z VRB04KT 9999 FEW040TCU SCT043 BKN050 16/03 Q1028 TEMPO VCSH WIND RWY10 29021G34KT 190V350 RMK PP000=
SPZO Feb2007-181800Z 30011KT 260V350 9999 FEW040TCU OVC050 17/06 Q1027 NOSIG RMK WIND RWY10 29022G35KT 240V340 PP000=
SPZO Feb2007-181900Z 30012KT 260V350 9999 VCSH FEW040 SCT043 BKN080 17/06 Q1027 NOSIG RMK WIND RWY10 30023G35KT 250V360 PP000=
SPZO Feb2007-182000Z 29015KT 260V320 9999 FEW040 SCT050 BKN080 18/06 Q1025 NOSIG RMK WIND RWY10 31023G39KT 240V050 PP000=
SPZO Feb2007-182100Z 30013KT 260V350 9999 SCT050 SCT100 18/06 Q1024 NOSIG RMK WIND RWY10 29020G36KT 240V020 PP000=
SPZO Feb2007-182200Z 30012KT 250V350 9999 SCT050 17/05 Q1024 NOSIG RMK=
SPZO Feb2007-182300Z 30009KT 260V350 9999 SCT050 16/04 Q1024 NOSIG RMK=
SPZO Feb2007-190000Z 30008KT 250V350 9999 FEW050 SCT200 14/05 Q1025 RMK PP000=
SPZO Feb2007-190100Z 27008KT 9999 FEW050 SCT200 13/05 Q1026 RMK PP000=
SPZO Feb2007-190200Z 25004KT 190V290 9999 SCT046 BKN150 13/05 Q1027 RMK PP000=
SPZO Feb2007-190300Z 00000KT 9999 SCT046 BKN100 12/06 Q1028 RMK PP000=
SPZO Feb2007-190400Z 08003KT 9999 -RA SCT040 BKN100 12/07 Q1028 RMK PPTRZ=
SPZO Feb2007-190500Z 01002KT 300V050 9999 -SHRA SCT040 BKN050 11/07 Q1028 RMK PP002=
SPZO Feb2007-190600Z 27006KT 9999 SCT040 BKN050 11/07 Q1028 RMK RERA PP000=
SPZO Feb2007-190700Z 29009KT 9999 FEW040 SCT043 BKN050 10/06 Q1027 RMK PP000=
SPZO Feb2007-190800Z 30007KT 270V350 9999 FEW040 SCT043 BKN050 10/06 Q1027 RMK PP000=
SPZO Feb2007-190900Z 27006KT 9999 FEW040 SCT043 BKN050 10/06 Q1026 RMK PP000=
SPZO Feb2007-191000Z VRB02KT 9999 FEW030 SCT043 BKN050 11/06 Q1027 RMK PP000=
SPZO Feb2007-191100Z 09002KT 9999 VCSH FEW030 SCT040 BKN046 10/07 Q1028 RMK PP000=
SPZO Feb2007-191200Z 12006KT 090V170 8000 BKN030 SCT040 10/07 Q1029 TEMPO FM1240 VCSH SCT033 BKN043 RMK CLNG BLW 1200M PP000=
SPZO Feb2007-191300Z 09006KT 060V120 8000 VCSH SCT030 SCT040 BKN043 11/07 Q1030 NOSIG RMK WIND RWY10 10012KT 060V140 VCSH QUAD E PP000=
SPZO Feb2007-191400Z 10007KT 060V140 9000 SCT033 SCT043 BKN050 12/08 Q1030 NOSIG RMK WIND RWY10 10013KT 050V140 PP000=
SPZO Feb2007-191500Z 10008KT 070V140 9999 SCT033 SCT043 BKN050 13/08 Q1030 NOSIG RMK RMK WIND RWY10 11017KT 070V140 PP000=
SPZO Feb2007-191600Z 10010KT 060V140 9999 VCSH SCT033 SCT043 BKN050 14/08 Q1029 NOSIG RMK WIND RWY10 09014G24KT 020V140 VCSH QUAD NE PP000=
SPZO Feb2007-191700Z 21008G18KT 160V260 9999 VCSH SCT030 SCT043 BKN050 12/04 Q1028 NOSIG RMK WIND RWY10 20017G27KT 150V240 VCSH QUAD NE/S PP000=
SPZO Feb2007-191800Z 07007KT 360V120 9999 VCSH FEW030 SCT040 BKN070 13/07 Q1028 NOSIG RMK PP000=
SPZO Feb2007-191900Z VRB03KT 9999 FEW040 SCT046 BKN080 15/06 Q1026 NOSIG RMK PP000=
SPZO Feb2007-192000Z 20005KT 150V270 9999 -RA VCSH FEW036 SCT043 BKN046 12/06 Q1025 TEMPO NSW RMK PPTRZ=
SPZO Feb2007-192100Z 13006KT 080V180 9999 VCSH FEW040 SCT043 BKN070 11/07 Q1025 NOSIG RMK PP000=
SPZO Feb2007-192200Z 00000KT 9999 FEW040 SCT043 BKN080 14/07 Q1025 NOSIG RMK T.MAX 16.1 PP000=
SPZO Feb2007-192300Z 00000KT 9999 FEW040 SCT043 BKN200 14/06 Q1024 NOSIG RMK PP000=
SPZO Feb2007-200000Z VRB03KT 9999 SCT040 SCT050 11/07 Q1026 RMK PP000=
SPZO Feb2007-200100Z 12002KT 9999 OVC050 11/08 Q1027 RMK PP000=
SPZO Feb2007-200200Z VRB07KT 5000 -RA SCT040 BKN050 09/06 Q1029 RMK PP002=
SPZO Feb2007-200300Z 31004KT 250V350 5000 -RA SCT040 BKN050 09/06 Q1029 RMK PPTRZ=
SPZO Feb2007-200400Z VRB02KT 9000 FEW040 BKN050 09/06 Q1029 RERA RMK PPTRZ=
SPZO Feb2007-200500Z 27007KT 9999 FEW040 BKN050 09/05 Q1029 RMK PP000=
SPZO Feb2007-200600Z 29005KT 9999 OVC050 09/05 Q1028 RMK PP000=
SPZO Feb2007-200700Z VRB02KT 9999 OVC050 08/06 Q1028 RMK PP000=
SPZO Feb2007-200800Z 10002KT 9999 OVC050 08/06 Q1027 RMK PP000=
SPZO Feb2007-200900Z 07002KT 9999 OVC050 08/06 Q1027 RMK PP000=
SPZO Feb2007-201000Z 00000KT 9999 BKN050 SCT060 09/06 Q1027 RMK PP000=
SPZO Feb2007-201100Z VRB02KT 9999 FEW040 SCT050 BKN060 08/06 Q1028 RMK WIND RWY10 11005KT 080V150 PP000=
SPZO Feb2007-201200Z 00000KT 9999 FEW036 SCT043 BKN050 09/06 Q1028 NOSIG RMK PP000=
SPZO Feb2007-201300Z VRB02KT 9999 FEW036 SCT046 11/06 Q1029 NOSIG RMK PP000=
SPZO Feb2007-201400Z VRB01KT 9999 SCT040 15/06 Q1028 NOSIG RMK PP000=
SPZO Feb2007-201500Z VRB03KT 9999 SCT040 16/05 Q1028 NOSIG RMK PP000=
SPZO Feb2007-201600Z 12006KT 070V170 9999 FEW040 SCT050 16/06 Q1027 NOSIG RMK PP000=
SPZO Feb2007-201700Z VRB02KT 9999 VCSH FEW040TCU SCT046 16/04 Q1026 NOSIG RMK PP000=
SPZO Feb2007-201800Z 20005KT 150V270 9000 -RA SCT043TCU BKN046 12/06 Q1026 NOSIG RMK WIND RWY10 VRB06KT PPTRZ=
SPZO Feb2007-201900Z 11006KT 070V170 9999 VCSH FEW040TCU SCT043 BKN060 11/07 Q1026 TEMPO-RA RMK WIND RWY10 10018KT 060V130 PPTRZ=
SPZO Feb2007-202000Z 00000KT 9999 VCSH FEW030TCU SCT040 BKN060 12/07 Q1025 NOSIG RMK WIND RWY10 VRB04KT PP000=
SPZO Feb2007-202100Z 30004KT 220V010 9999 FEW036 SCT050 BKN080 13/07 Q1024 NOSIG RMK WIND RWY10 VRB05KT PP000=
SPZO Feb2007-202200Z 00000KT 9999 VCSH FEW030 SCT043TCU BKN060 14/07 Q1024 NOSIG TMAX 17/0 RMK PP000=
SPZO Feb2007-202300Z 08003KT 040V120 9999 FEW030TCU SCT043 BKN050 12/08 Q1025 TEMPO-RA RMK WIN RWY10 VRB06KT PP000=
SPZO Feb2007-210000Z 26004KT 9999 -RA OVC040 10/07 Q1027 RMK PPTRZ=
SPZO Feb2007-210100Z 00000KT 9999 OVC040 10/07 Q1028 RMK PP000=
SPZO Feb2007-210200Z 22002KT 9999 SCT025 OVC040 10/07 Q1028 RMK PP000=
SPZO Feb2007-210300Z 00000KT 9999 OVC040 11/08 Q1029 RMK PP000=
SPZO Feb2007-210400Z 00000KT 9999 SCT040 SCT046 QQ/08 Q1029 RMK PP000=
SPZO Feb2007-210500Z 00000KT 9999 SCT036 SCT050 11/08 Q1028 RMK PP000=
SPZO Feb2007-210600Z 00000KT 9999 SCT040 SCT050 10/08 Q1027 RMK PP000=
SPZO Feb2007-210700Z 13002KT 9999 SCT036 BKN046 19/08 Q1027 RMK PP000=
SPZO Feb2007-210800Z 09002KT 9999 SCT036 BKN043 10/08 Q1026 RMK PP000=
SPZO Feb2007-210900Z VRB02KT 9999 SCT036 BKN046 10/08 Q1026 RMK PP000=
SPZO Feb2007-211000Z 12002KT 9999 FEW025 SCT040 BKN043 10/07 Q1026 RMK PP000=
SPZO Feb2007-211100Z 10003KT 9999 FEW020 SCT040 BKN043 09/08 Q1027 RMK PP000=
SPZO Feb2007-211200Z 07002KT 360V100 8000 -RA FEW015 SCT036 BKN050 10/08 Q1028 TEMPO FM1300 NSW RMK WIND RWY10 VRB02KT PP000=
SPZO Feb2007-211300Z VRB01KT 9000 VCSH FEW020 SCT033 BKN060 11/08 Q1029 TEMPO 9999 RMK PP006=
SPZO Feb2007-211400Z VRB01KT 9999 FEW036 SCT040 BKN060 13/08 Q1029 NOSIG RMK=
SPZO Feb2007-211500Z 07003KT 010V130 9999 VCSH FEW036 SCT043 BKN060 13/07 Q1028 NOSIG RMK WIND RWY10 11008KT 060V170 PP000=
SPZO Feb2007-211600Z 16004KT 120V220 9999 FEW040 SCT050 BKN080 15/07 Q1028 RESHRA NOSIG RMK WIND RWY10 14009KT 070V200 PP002=
SPZO Feb2007-211700Z 21002KT 9999 SCT040 BKN060 16/07 Q1027 NOSIG RMK=
SPZO Feb2007-211800Z VRB04KT 9999 BKN050 18/06 Q1025 NOSIG RMK WIND RWY10 VRB19G35KT PP000=
SPZO Feb2007-211900Z VRB04KT 9999 BKN050 19/04 Q1024 NOSIG RMK WIND RWY10 VRB08G24KT PP000=
SPZO Feb2007-212000Z 36011KT 270V060 9999 BKN050 19/04 Q1023 NOSIG RMK=
SPZO Feb2007-212100Z 36011KT 300V040 9999 BKN050 18/03 Q1023 NOSIG RMK=
SPZO Feb2007-212200Z 28014KT 240V350 9999 OVC050 14/06 Q1024 NOSIG RMK=
SPZO Feb2007-212300Z 25009KT 180V290 9999 OVC050 14/05 Q1025 NOSIG RMK=
SPZO Feb2007-220000Z 26010KT 9000 DZ OVC040 12/02 Q1026 RMK PP008=
SPZO Feb2007-220100Z 12002KT 9000 SCT036 BKN040 10/07 Q1028 RERA RMK PP002=
SPZO Feb2007-220200Z 00000KT 9999 SCT036 BKN043 11/07 Q1029 RMK PP000=
SPZO Feb2007-220300Z 00000KT 9999 FEW036 SCT043 11/07 Q1029 RMK PP000=
SPZO Feb2007-220400Z 00000KT 9999 FEW036 SCT043 10/07 Q1029 RMK PP000=
SPZO Feb2007-220500Z 00000KT 9999 FEW036 SCT046 09/07 Q1029 RMK PP000=
SPZO Feb2007-220600Z 12002KT 090V170 9999 FEW030 SCT046 09/07 Q1028 RMK PP000=
SPZO Feb2007-220700Z 00000KT 9999 FEW030 SCT046 09/07 Q1028 RMK PP000=
SPZO Feb2007-220800Z 00000KT 9999 FEW030 SCT046 10/07 Q1028 RMK PP000=
SPZO Feb2007-220900Z 08003KT 9999 FEW030 SCT046 08/06 Q1027 RMK PP000=
SPZO Feb2007-221000Z 00000KT 9999 FEW030 SCT046 08/07 Q1028 RMK PP000=
SPZO Feb2007-221100Z 00000KT 9999 FEW030 SCT046 07/06 Q1028 RMK PP000=
SPZO Feb2007-221200Z 08003KT 030V110 9000 FEW030 08/06 Q1029 BECMG 9999 RMK CDTE E/HZ PP000=
SPZO Feb2007-221300Z VRB02KT 9999 SCT036 12/07 Q1030 NOSIG RMK PP000=
SPZO Feb2007-221400Z 00000KT 9999 FEW036 SCT050 13/06 Q1030 NOSIG RMK PP000=
SPZO Feb2007-221500Z VRB03KT 9999 FEW040 SCT050 15/07 Q1030 NOSIG RMK PP000=
SPZO Feb2007-221600Z VRB02KT 9999 FEW040 SCT050 16/05 Q1029 NOSIG RMK PP000=
SPZO Feb2007-221700Z 08007KT 360V120 9999 SCT050 18/05 Q1029 NOSIG RMK PP000=
SPZO Feb2007-221800Z VRB06KT 9999 SCT050 18/06 Q1028 NOSIG RMK WIND RWY10 VRB16G33KT PP000=
SPZO Feb2007-221900Z 35009KT 300V050 9999 BKN050 18/05 Q1027 NOSIG RMK=
SPZO Feb2007-222000Z VRB08KT 9999 BKN050 18/05 Q1026 NOSIG RMK WIND RWY10 VRB14G27KT PP000=
SPZO Feb2007-222100Z 02008KT 330V080 9999 BKN050 16/06 Q1026 NOSIG RMK=
SPZO Feb2007-222200Z 09004KT 360V160 9999 OVC050 16/05 Q1026 NOSIG RMK=
SPZO Feb2007-222300Z 07005KT 020V110 9999 OVC050 15/05 Q1027 NOSIG RMK WIND RWY10 VRB08G18KT PP000=
SPZO Feb2007-230000Z 00000KT 9999 SCT050 BKN1000 14/05 Q1028 RMK PP000=
SPZO Feb2007-230100Z 24003KT 9999 SCT050 BKN100 13/05 Q1029 RMK PP000=
SPZO Feb2007-230200Z 32006KT 270V360 9999 FEW050 SCT100 13/05 Q1030 RMK PP000=
SPZO Feb2007-230300Z 00000KT 9999 FEW050 SCT100 11/06 Q1030 RMK PP000=
SPZO Feb2007-230400Z 00000KT 9999 FEW050 SCT100 09/06 Q1031 RMK PP000=
SPZO Feb2007-230500Z 00000KT 9999 FEW050 SCT100 08/05 Q1031 RMK PP000=
SPZO Feb2007-230600Z 00000KT 9999 FEW050 SCT100 08/05 Q1030 RMK PP000=
SPZO Feb2007-230700Z 00000KT 9999 FEW040 SCT100 07/05 Q1030 RMK PP000=
SPZO Feb2007-230800Z 08002KT 9999 FEW040 SCT100 06/04 Q1030 RMK PP000=
SPZO Feb2007-230900Z 00000KT 9999 FEW040 SCT100 07/05 Q1030 RMK PP000=
SPZO Feb2007-231000Z 00000KT 9999 FEW036 SCT100 06/04 Q1031 RMK PP000=
SPZO Feb2007-231100Z 00000KT 9999 FEW036 SCT043 BKN100 06/04 Q1031 RMK PP000=
SPZO Feb2007-231200Z 09002KT 9999 FEW043 SCT050 BKN230 07/05 Q1033 NOSIG RMK PP000=
SPZO Feb2007-231300Z 00000KT 9999 FEW040 SCT050 BKN230 11/06 Q1033 NOSIG RMK WIND RWY10 00000KT PP000=
SPZO Feb2007-231400Z VRB02KT 9999 FEW040 SCT050 BKN230 15/05 Q1033 NOSIG RMK WIND RWY10 VRB05KT PP000=
SPZO Feb2007-231500Z 08004KT 360V140 9999 SCT040 SCT230 15/05 Q1032 NOSIG RMK WIND RWY10 08008G19KT 360V170 PP000=
SPZO Feb2007-231600Z VRB02KT 9999 SCT040 SCT230 18/06 Q1032 NOSIG RMK=
SPZO Feb2007-231700Z VRB04KT 9999 BKN050 SCT230 17/05 Q1031 NOSIG RMK=
SPZO Feb2007-231800Z VRB03KT 9999 FEW040 SCT050 20/04 Q1029 NOSIG RMK PP000=
SPZO Feb2007-231900Z 36009KT 300V080 9999 SCT050 20/03 Q1027 NOSIG RMK=
SPZO Feb2007-232000Z 02008KT 320V090 9999 SCT050 20/04 Q1026 NOSIG RMK PP000=
SPZO Feb2007-232100Z 36012KT 330V060 9999 FEW050 SCT230 20/04 Q1026 NOSIG RMK PP000=
SPZO Feb2007-232200Z 02014KT 350V080 9999 FEW046 SCT230 18/04 Q1026 NOSIG RMK T.MAX 20.9 PP000=
SPZO Feb2007-232300Z 01009KT 320V080 9999 SCT043 SCT230 17/04 Q1026 NOSIG RMK WIND RWY10 03019KT 320V120 PP000=
SPZO Feb2007-240000Z 02011KT 320V110 9999 BKN050 15/04 Q1028 RMK PP000=
SPZO Feb2007-240100Z VRB04KT 9999 OVC050 14/05 Q1029 RMK PP000=
SPZO Feb2007-240200Z VRB09KT 9999 OVC050 14/04 Q1031 RMK PP000=
SPZO Feb2007-240300Z 06002KT 8000 -RA SCT040 BKN050 10/07 Q1032 RMK PPTRZ=
SPZO Feb2007-240400Z 00000KT 9000 FEW040 BKN050 10/07 Q1032 RERA RMK PP006=
SPZO Feb2007-240500Z VRB02KT 9999 FEW040 BKN050 10/07 Q1032 RMK PP000=
SPZO Feb2007-240600Z 00000KT 9999 OVC050 09/07 Q1031 RMK PP000=
SPZO Feb2007-240700Z 00000KT 9999 OVC050 09/07 Q1031 RMK PP000=
SPZO Feb2007-240800Z 00000KT 9999 OVC050 09/06 Q1030 RMK PP000=
SPZO Feb2007-240900Z 09006KT 070V120 9999 OVC050 09/07 Q1031 RMK PP000=
SPZO Feb2007-241000Z 10004KT 070V140 9999 OVC050 09/05 Q1031 RMK PP000=
SPZO Feb2007-241100Z 08002KT 9999 BKN050 SCT060 08/05 Q1032 RMK WIND RWY10 10002KT PP000=
SPZO Feb2007-241200Z 00000KT 9999 SCT050 BKN100 09/06 Q1033 NOSIG RMK PP000=
SPZO Feb2007-241300Z 11003KT 060V170 9999 FEW036 SCT046 BKN100 10/06 Q1034 NOSIG RMK PP000=
SPZO Feb2007-241400Z 10007KT 070V150 9999 FEW030 SCT046 BKN100 11/06 Q1034 NOSIG RMK PP000=
SPZO Feb2007-241500Z VRB03KT 9999 FEW036 SCT046 BKN230 13/05 Q1934 NOSIG RMK PP000=
SPZO Feb2007-241600Z VRB03KT 9999 SCT043 BKN230 15/05 Q1033 NOSIG RMK PP000=
SPZO Feb2007-241700Z VRB04KT 9999 SCT043 SCT230 17/05 Q1032 NOSIG RMK PP000=
SPZO Feb2007-241800Z VRB05KT 9999 SCT043 BKN100 17/02 Q1030 NOSIG RMK=
SPZO Feb2007-241900Z 36008KT 270V050 9999 FEW040TCU SCT043 BKN100 17/05 Q1029 NOSIG RMK WIND RWY10 VRB12KT PP000=
SPZO Feb2007-242000Z 36010KT 310V040 9999 FEW040TCU BKN060 18/05 Q1028 RESHRA NOSIG RMK WIND RWY10 VRB11KT PP002=
SPZO Feb2007-242100Z 01009KT 320V050 9999 FEW040TCU BKN060 17/04 Q1027 NOSIG RMK WIND RWY10 VRB15G28KT PP000=
SPZO Feb2007-242200Z 01008KT 300V020 9999 FEW040 SCT100 17/05 Q1027 N0SIG RMK WIND RWY10 32017G28KT 280V010 T.MAX.18.8 PP000=
SPZO Feb2007-242300Z 02008KT 330V070 9999 SCT046 BKN230 15/05 Q1028 NOSIG RMK WIND RWY10 VRB06KT PP000=
SPZO Feb2007-250000Z VRB06KT 9999 SCT046 14/04 Q1029 RMK PP000=
SPZO Feb2007-250100Z VRB03KT 9999 FEW050 12/04 Q1031 RMK PP000=
SPZO Feb2007-250200Z VRB02KT 9999 FEW040 SCT080 12/05 Q1032 RMK PP000=
SPZO Feb2007-250300Z 00000KT 9999 SCT040 BKN050 12/07 Q1032 RMK PP000=
SPZO Feb2007-250400Z 00000KT 9999 BKN040 SCT050 11/07 Q1032 RMK PP000=
SPZO Feb2007-250500Z 00000KT 9999 BKN040 SCT050 11/07 Q1032 RMK PP000=
SPZO Feb2007-250600Z 00000KT 9999 OVC040 11/07 Q1031 RMK PP000=
SPZO Feb2007-250700Z 00000KT 9999 FEWO30 OVC040 12/06 Q1031 RMK PP000=
SPZO Feb2007-250800Z 00000KT 9999 SCT036 BKN043 12/06 Q1030 RMK PP000=
SPZO Feb2007-250900Z 08002KT 9999 BKN040 SCT080 11/05 Q1030 RMK PP000=
SPZO Feb2007-251000Z VRB02KT 9999 SCT040 SCT050 10/06 Q1031 RMK PP000=
SPZO Feb2007-251100Z VRB01KT 9999 VCSH FEW036 SCT040 BKN043 10/06 Q1031 RMK PP000=
SPZO Feb2007-251200Z 00000KT 9999 SCT040 BKN046 11/06 Q1032 TEMPO SCT40 SCT80 RMK PP000=
SPZO Feb2007-251300Z VRB02KT 9999 SCT040 BKN060 12/06 Q1033 NOSIG RMK PP000=
SPZO Feb2007-251400Z 00000KT 9999 VCSH FEW036 SCT040 BKN060 13/05 Q1033 NOSIG WIND RWY10 VRB04KT PP000=
SPZO Feb2007-251500Z 09004KT 020V150 9999 VCSH FEW040TCU SCT050 BKN080 14/06 Q1033 NOSIG RMK WIND RWY10 VRB11KT PP000=
SPZO Feb2007-251600Z VRB04KT 9999 VCSH SCT050 BKN080 15/04 Q1033 NOSIG RMK WIND RWY10 05010KT 340V100 PP000=
SPZO Feb2007-251700Z 02005KT 320V080 9999 VCSH SCT050 BKN100 14/05 Q1033 NOSIG RMK WIND RWY10 VRB20G36KT PP000=
SPZO Feb2007-251800Z VRB05KT 9999 FEW040 SCT050 BKN100 16/05 Q1032 NOSIG RMK WIND RWY10 VRB21G40KT PP000=
SPZO Feb2007-251900Z 34008KT 270V040 9999 SCT050 SCT100 17/05 Q1030 NOSIG RMK WIND RWY10 VRB15G29KT PP000=
SPZO Feb2007-252000Z 07010KT 360V110 9999 BKN050 17/04 Q1029 NOSIG RMK=
SPZO Feb2007-252100Z 01010KT 320V070 9999 BKN050 17/04 Q1029 NOSIG RMK=
SPZO Feb2007-252200Z 35011KT 320V030 9999 BKN050 16/04 Q1029 NOSIG RMK=
SPZO Feb2007-252300Z 36009KT 270V050 9999 BKN050 14/03 Q1030 NOSIG RMK PP000=
SPZO Feb2007-260000Z 00000Z 9999 SCT050 13/03 Q1031 RMK PP000=
SPZO Feb2007-260100Z 32004KT 270V010 9999 SCT050 12/04 Q1031 RMK PP000=
SPZO Feb2007-260200Z VRB03KT 9999 SCT050 10/04 Q1032 RMK PP000=
SPZO Feb2007-260300Z 00000KT 9999 FEW050 10/04 Q1033 RMK PP000=
SPZO Feb2007-260400Z 00000KT 9999 SKC 09/04 Q1033 RMK PP000=
SPZO Feb2007-260500Z 00000KT 9999 SKC 08/04 Q1033 RMK PP000=
SPZO Feb2007-260600Z 00000KT 9999 SCT050 08/04 Q1033 RMK PP000=
SPZO Feb2007-260700Z 00000KT 9999 SCT046 09/04 Q1032 RMK PP000=
SPZO Feb2007-260800Z 00000KT 9999 FEW040 SCT046 09/05 Q1031 RMK PP000=
SPZO Feb2007-260900Z 09004KT 9999 FEW040 SCT046 08/05 Q1031 RMK PP000=
SPZO Feb2007-261000Z 00000KT 9999 FEW040 07/04 Q1032 RMK PP000=
SPZO Feb2007-261100Z 28003KT 9999 FEW040 SCT230 05/02 Q1032 RMK PP000=
SPZO Feb2007-261200Z 00000KT 9999 SCT230 09/05 Q1033 NOSIG RMK PP000=
SPZO Feb2007-261300Z 00000KT 9999 FEW040 12/05 Q1034 NOSIG RMK PP000=
SPZO Feb2007-261400Z VRB02KT 9999 FEW040 15/05 Q1034 NOSIG RMK PP000=
SPZO Feb2007-261500Z 17003KT 080V250 9999 SCT043 16/03 Q1033 NOSIG RMK PP000=
SPZO Feb2007-261600Z VRB03KT 9999 FEW040 SCT046 17/04 Q1032 NOSIG RMK PP000=
SPZO Feb2007-261700Z 06005KT 350V110 9999 FEW040 SCT050 17/03 Q1031 NOSIG RMK WIND RWY10 06015G36KT 350V130 PP000=
SPZO Feb2007-261800Z 34007KT 350V110 9999 SCT050 SCT060 20/04 Q1030 NOSIG RMK PP000=
SPZO Feb2007-261900Z 35013KT 310V030 9999 SCT050 SCT060 19/05 Q1029 NOSIG RMK WIND RWY10 VRB12G23KT PP000=
SPZO Feb2007-262000Z 20005KT 150V270 9999 SCT050 SCT060 17/06 Q1028 NOSIG RMK WIND RWY10 15011KT 080V240 PP000=
SPZO Feb2007-262100Z 12009KT 080V170 9999 SCT050 SCT060 17/05 Q1027 NOSIG RMK WIND RWY10 10014KT 030V160 PP000=
SPZO Feb2007-262200Z 11006KT 090V170 9999 SCT050 SCT060 16/05 Q1027 NOSIG RMK WIND RWY10 09011KT 030V150 TMAX 20.4 PP000=
SPZO Feb2007-262300Z VRB06KT 9999 SCT050 SCT060 16/04 Q1028 NOSIG RMK=
SPZO Feb2007-270000Z 26007KT 220V310 9999 SCT050TCU BKN080 14/05 Q1029 RMK PP000=
SPZO Feb2007-270100Z 30007KT 9999 SCT050 13/05 Q1030 RMK PP000=
SPZO Feb2007-270200Z 11004KT 9999 SCT046 BKN050 12/06 Q1031 RMK PP000=
SPZO Feb2007-270300Z 00000KT 9999 SCT046 BKN050 12/06 Q1032 RMK PP000=
SPZO Feb2007-270400Z 00000KT 9999 SCT046 BKN050 11/06 Q1032 RMK PP000=
SPZO Feb2007-270500Z 10003KT 9999 SCT046 BKN050 11/06 Q1031 RMK PP000=
SPZO Feb2007-270600Z 12002KT 9999 SCT046 BKN050 11/06 Q1031 RMK PP000=
SPZO Feb2007-270700Z 11008KT 9000 -RA SCT040 BKN5000 10/07 Q1031 RMK PPTRZ=
SPZO Feb2007-270800Z 02005KT 340V060 9000 -RA FEW030 SCT040 BKN050 10/06 Q1031 RMK PP060=
SPZO Feb2007-270900Z 27005KT 250V350 9000 -RA FEW030 SCT040 BKN050 08/06 Q1031 RMK PP010=
SPZO Feb2007-271000Z 28002KT 9000 -RA FEW030 SCT040 BKN050 08/06 Q1031 RMK PP007=
SPZO Feb2007-271100Z 00000KT 9000 -RA FEW025 SCT036 BKN043 08/06 Q1032 CLNG BLW 1200M RMK PP004=
SPZO Feb2007-271200Z 00000KT 9999 FEW030 SCT040 BKN060 09/06 Q1032 RERA NOSIG RMK WIND RWY10 00000KT PPTRZ=
SPZO Feb2007-271300Z 00000KT 9000 FEW030 SCT040 BKN050 11/06 Q1033 NOSIG RMK WIND RWY10 00000KT VIS RED POR NUBOSIDAD BAJA PP000=
SPZO Feb2007-271400Z VRB03KT 9000 FEW030 SCT040 BKN050 12/07 Q1034 NOSIG RMK WIND RWY10 VRB04KT VIS RED POR NUBOSIDAD BAJA PP000=
SPZO Feb2007-271500Z 00000KT 9999 FEW033 SCT040 BKN080 13/06 Q1033 NOSIG RMK WIND RWY10 00000KT PP000=
SPZO Feb2007-271600Z VRB03KT 9999 SCT040 SCT080 15/07 Q1032 NOSIG RMK=
SPZO Feb2007-271700Z VRB03KT 9999 SCT040 SCT060 17/06 Q1030 NOSIG RMK=
SPZO Feb2007-271800Z 01013KT 340V060 9999 VCSH FEW040TCU SCT046 15/06 Q1030 TEMPO -RA RMK WIND RWY10 VRB020G36KT PP000=
SPZO Feb2007-271900Z 34009KT 290V050 9999 VCSH SCT040 SCT050 16/06 Q1029 NOSIG RMK WIND RWY10 VRB12G24KT PPTRZ=
SPZO Feb2007-272000Z 35007KT 300V030 9999 FEW040TCU SCT050 17/06 Q1027 NOSIG RMK PP000=
SPZO Feb2007-272100Z 29014KT 260V350 9999 FEW040TCU SCT050 15/07 Q1027 NOSIG RMK WIND RWY10 30019G30KT 250V350 PP000=
SPZO Feb2007-272200Z 28009KT 240V350 9999 SCT043 SCT230 15/07 Q1027 NOSIG RMK T.MAX 18.3 PP000=
SPZO Feb2007-272300Z 29006KT 250V350 9999 SCT040 SCT230 15/07 Q1027 NOSIG RMK PP000=
SPZO Feb2007-280000Z 12005KT 080V170 9999 BKN040 13/06 Q1029 RMK PP000=
SPZO Feb2007-280100Z 09004KT 9999 BKN050 11/07 Q1030 RMK PP000=
SPZO Feb2007-280200Z 10002KT 9999 BKN050 11/07 Q1030 RMK PP000=
SPZO Feb2007-280300Z 00000KT 9999 OVC050 12/07 Q1031 RMK PP000=
SPZO Feb2007-280400Z 08002KT 9999 OVC050 11/08 Q1031 RMK PP000=
SPZO Feb2007-280500Z 00000KT 9999 OVC050 11/07 Q1031 RMK PP000=
SPZO Feb2007-280600Z 25002KT 9999 OVC050 11/06 Q1030 RMK PP000=
SPZO Feb2007-280700Z 10002KT 9999 OVC050 10/08 Q1029 RMK PP000=
SPZO Feb2007-280800Z 00000KT 8000 -RA SCT040 BKN050 10/08 Q1029 RMK PPTRZ=
SPZO Feb2007-280900Z 00000KT 9000 FEW040 BKN050 10/08 Q1028 RERA RMK PP002=
SPZO Feb2007-281000Z 07003KT 9999 FEW040 BKN050 10/08 Q1029 RMK PP000=
SPZO Feb2007-281100Z 10003KT 9999 FEW040 BKN050 10/08 Q1029 RMK WIND RWY10 11003KT PP000=
SPZO Feb2007-281200Z VRB02KT 9999 FEW030 SCT043 BKN050 10/08 Q1029 NOSIG RMK PP000=
SPZO Feb2007-281300Z 00000KT 9999 SCT043 SCT080 12/06 Q1030 NOSIG RMK PP000=
SPZO Feb2007-281400Z VRB02KT 9999 SCT043 SCT100 15/07 Q1030 NOSIG RMK PP000=
SPZO Feb2007-281500Z VRB04KT 9999 SCT043 SCT100 17/06 Q1030 NOSIG RMK PP000=
SPZO Feb2007-281600Z 06007KT 360V170 9999 VCSH FEW040TCU SCT046 16/05 Q1029 NOSIG RMK PP000=
SPZO Feb2007-281700Z 03012KT 340V060 9999 VCSH FEW040TCU BKN050 15/04 Q1029 NOSIG RMK PP000=
SPZO Feb2007-281800Z 01012KT 330V050 9999 VCSH FEW040TCU BKN050 18/06 Q1028 RMK WIND RWY10 VRB17G29KT PP000=
SPZO Feb2007-281900Z 05010KT 350V110 VCSH 9999 SCT046 BKN050 16/05 Q1027 NOSIG RMK WIND RWY10 VRB17KT PP000=
SPZO Feb2007-282000Z 05006KT 330V140 9999 VCSH FEW040TCU BKN080 17/06 Q1026 NOSIG RMK WIND RWY10 VRB08KT PP000=
SPZO Feb2007-282100Z VRB02KT 9999 FEW040TCU SCT060 16/06 Q1025 NOSIG RMK WIND RWY10 28009KT PP000=
SPZO Feb2007-282200Z VRB02KT 9999 FEW040 SCT060 15/06 Q1024 NOSIG RMK PP000=
SPZO Feb2007-282300Z VRB04KT 9999 FEW040 SCT060 14/05 Q1026 NOSIG RMK PP000=
