SPZO Ene2003-010000Z 00000KT 9999 SCT040 SCT050 12/07 Q1031 PP000=
SPZO Ene2003-010100Z 00000KT 9999 SCT040 11/07 Q1031 PP000=
SPZO Ene2003-010200Z 00000KT 9000 BKN040 10/08 Q1032 PP000=
SPZO Ene2003-010300Z 00000KT 9000 SCT037 09/07 Q1032 PP000=
SPZO Ene2003-010400Z 00000KT 8000 SCT040 08/06 Q1032 RMK FU PP000=
SPZO Ene2003-010500Z 00000KT 5000 FU FEW040 09/07 Q1032 PP000=
SPZO Ene2003-010600Z 00000KT 4000 FU FEW040 08/06 Q1031 PP000=
SPZO Ene2003-010700Z 00000KT 1000 FU SCT040 08/06 Q1031 PP000=
SPZO Ene2003-010800Z 00000KT 0800 FU /// 08/06 Q1030 PP000=
SPZO Ene2003-010900Z 00000KT 1200 FU /// 08/06 Q1031 PP000=
SPZO Ene2003-011000Z 00000KT 1000 FU /// 08/07 Q1031 PP000=
SPZO Ene2003-011100Z 00000KT 0600 FU /// 08/07 Q1031 PP000=
SPZO Ene2003-011200Z 00000KT 0800 FU R28 1000U /// 09/07 Q1032 BECMG FM13 6000 SCT040 SCT046 RMK PP000=
SPZO Ene2003-011300Z 00000KT 2000 FU BKN040 10/07 Q1033 BECMG FM14
SPZO Ene2003-011330Z 00000KT 3000E FU BKN046 12/08 Q1033 RMK BWCMG FM14 7000 =
SPZO Ene2003-011400Z 00000KT 5000E FU BKN050 14/07 Q1033 BECMG FM1430 8000=
SPZO Ene2003-011420Z VRB04KT 8000E BKN046 14/08 Q1033 NOSIG=
SPZO Ene2003-011500Z VRB03KT 9999 SCT040 BKN046 14/07 Q1032 NOSIG RMK PP000=
SPZO Ene2003-011600Z 00000KT 9999 SCT040 SCT046 16/07 Q1032 NOSIG RMK PP000=
SPZO Ene2003-011700Z 00000KT 9999 SCT043 SCT050 17/08 Q1031 NOSIG RMK PP000=
SPZO Ene2003-011800Z 27003KT 240V300 9999 SCT043 SCT050 18/08 Q1030 NOSIG RMK PP000=
SPZO Ene2003-011900Z VRB04KT 9999 FEW040TCU SCT046 19/07 Q1029 TEMPO VCSH RMK PP000 RWY10 27013KT=
SPZO Ene2003-012000Z 24006KT 190V280 9999 FEW040TCU SCT046 18/08 Q1028 TEMPO VCSH RMK PP000 RWY10 24014KT=
SPZO Ene2003-012100Z 28007KT 250V310 9999 SCT043 SCT050 19/07 Q1027 NOSIG RMK PP000=
SPZO Ene2003-012138Z 33005 260V030 8000 -RA FEW040TCU SCT046 18/0 Q1027=
SPZO Ene2003-012200Z 29009KT 240V320 7000 -RA FEW040TCU SCT050 16/08 Q1027 BCMG AT 2230 NSW RMK PP002 TMAX 20.0=
SPZO Ene2003-012300Z VRB03KT 9000 BKN050 15/07 Q1028 RERA NOSIG RMK PP016=
SPZO Ene2003-020000Z 00000KT 9999 FEW040 SCT050 14/09 Q1029 PP000=
SPZO Ene2003-020100Z 27005KT 9999 FEW050 12/09 Q1029 PP000=
SPZO Ene2003-020200Z VRB03KT 9999 FEW050 12/08 Q1031 PP000=
SPZO Ene2003-020300Z 00000KT 9999 FEW050 10/08 Q1031 PP000=
SPZO Ene2003-020400Z 00000KT 9999 SCT050 09/07 Q1032 PP000=
SPZO Ene2003-020500Z 00000KT 9999 FEW050 09/07 Q1031 PP000=
SPZO Ene2003-020600Z 00000KT 9999 SCT050 08/07 Q1031 PP000=
SPZO Ene2003-020700Z 00000KT 9999 FEW050 08/06 Q1030 PP000=
SPZO Ene2003-020800Z 00000KT 9999 FEW050 07/06 Q1030 PP000=
SPZO Ene2003-020900Z 00000KT 9999 FEW050 06/05 Q1030 PP000=
SPZO Ene2003-021000Z 00000KT 9999 FEW040 06/05 Q1030 PP000=
SPZO Ene2003-021100Z 00000KT 9999 FEW050 SCT300 06/05 Q1031 PP000=
SPZO Ene2003-021200Z 00000KT/E 9999 FEW050 SCT200 12/06 Q1031 NOSIG RMK PP000=
SPZO Ene2003-021300Z VRB02KT/E 9999 FEW043 SCT200 13/08 Q1031 NOSIG RMK PP000=
SPZO Ene2003-021400Z VRB03KT/E 9999 FEW040 15/07 Q1031 NOSIG RMK PP000=
SPZO Ene2003-021500Z VRB02KT 9999 FEW046 18/07 Q1030 NOSIG RMK PP000=
SPZO Ene2003-021600Z 13004KT 080V190 9999 SCT050 19/03 Q1029 NOSIG RMK PP000=
SPZO Ene2003-021700Z VRB04KT 9999 FEW040TCU SCT050 20/05 Q1028 TEMPO VCSH RMK PP000=
SPZO Ene2003-021800Z VRB03KT 9999 FEW040TCU SCT050 20/06 Q1027 TEMPO VCSH RMK PP000=
SPZO Ene2003-021900Z 02011KT 350V060 9999 VCRA FEW046 SCT060 17/06 Q1027 NOSIG RMK PP000=
SPZO Ene2003-022000Z 32005KT 260V040 9999 FEW043 SCT200 21/05 Q1025 N0SIG RMK PP000=
SPZO Ene2003-022100Z 01010KT 330V050 9999 SCT050 SCT200 21/06 Q1024 NOSIG RMK PP000=
SPZO Ene2003-022200Z 35005KT 290V060 9999 SCT050 21/05 Q1024 NOSIG RMK PP000 TMX:21.1=
SPZO Ene2003-022300Z 29011KT 260V350 9999 FEW050 BKN200 18/08 Q1025 NOSIG RMK PP000=
SPZO Ene2003-030000Z 01007KT 9999 SCT050 SCT200 16/08 Q1027 PP000=
SPZO Ene2003-030100Z 26005KT 9999 SCT040 SCT080 15/08 Q1028 PP000=
SPZO Ene2003-030200Z 08009KT 9000 -RA OVC040 11/07 Q1031 PP006=
SPZO Ene2003-030300Z 00000KT 9999 -RA OVC040 10/07 Q1033 PP014=
SPZO Ene2003-030400Z 21005KT 9999 OVC040 10/07 Q1032 PPTRZ=
SPZO Ene2003-030500Z 00000KT 9999 BKN040 SCT050 09/07 Q1032 PP000=
SPZO Ene2003-030600Z 00000KT 9999 BKN040 SCT050 09/07 Q1031 PP000=
SPZO Ene2003-030700Z 00000KT 9999 SCT037 SCT050 09/07 Q1030 PP000=
SPZO Ene2003-030800Z 00000KT 9999 SCT040 SCT050 09/07 Q1030 PP000=
SPZO Ene2003-030900Z 00000KT 9999 SCT040 SCT100 09/07 Q1030 PP000=
SPZO Ene2003-031000Z 00000KT 9999 SCT040 SCT200 09/07 Q1030 PP000=
SPZO Ene2003-031100Z 00000KT 9999 SCT050 SCT200 09/07 Q1031 PP000=
SPZO Ene2003-031200Z VRB03KT 9999 SCT060 BKN080 09/08 Q1031 NOSIG RMK PP000=
SPZO Ene2003-031300Z VRB02KT 9999 FEW050 BKN080 11/08 Q1032 NOSIG RMK PP000=
SPZO Ene2003-031400Z 00000KT 9999 FEW050 OVC080 13/07 Q1032 NOSIG RMK PP000=
SPZO Ene2003-031500Z VRB02KT 9999 FEW050 OVC080 14/06 Q1032 NOSIG RMK PP000=
SPZO Ene2003-031600Z VRB02KT 9999 FEW047 OVC100 16/06 Q1031 PP000=
SPZO Ene2003-031700Z 00000KT 9999 FEW047 BKN100 17/06 Q1030 NOSIG PP000=
SPZO Ene2003-031800Z 00000KT 9999 FEW050 BKN100 18/08 Q1029 NOSIG PP000=
SPZO Ene2003-031900Z 25006KT 9999 FEW050 BKN150 18/06 Q1028 PP000=
SPZO Ene2003-032000Z VRB02KT 9999 SCT050 SCT200 19/07 Q1026 PP000=
SPZO Ene2003-032100Z 00000KT 9999 SCT050 SCT200 20/06 Q1026 PP000=
SPZO Ene2003-032108Z 28012KT 240V330 9999 SCT050 SCT200 19/06 Q1026
SPZO Ene2003-032200Z 29007KT 9999 FEW050 19/06 Q1025 PP000 TMAX 20.3=
SPZO Ene2003-032300Z 28008KT 9999 FEW050 17/06 Q1026 PP000=
SPZO Ene2003-040000Z 28004KT 250V320 9999 SCT050 14/07 Q1027 PP000=
SPZO Ene2003-040100Z 26004KT 240V300 9999 SCT050 14/08 Q1028 PP000=
SPZO Ene2003-040200Z 00000KT 9999 SCT050 12/08 Q1029 RMK PP000=
SPZO Ene2003-040300Z 12004KT 100V140 9999 BKN050 13/06 Q1030 PP000=
SPZO Ene2003-040400Z 10003KT 9999 BKN050 12/07 Q1031 RMK PP000=
SPZO Ene2003-040500Z 00000KT 9999 BKN050 10/07 Q1030 RMK PP000=
SPZO Ene2003-040600Z 33003KT 9999 BKN050 10/07 Q1030 RMK PP000=
SPZO Ene2003-040700Z 00000KT 9999 BKN050 09/07 Q1028 RMK PP000=
SPZO Ene2003-040800Z 00000KT 9999 BKN050 08/06 Q1028 RMK PP000=
SPZO Ene2003-040900Z 23003KT 9999 BKN050 08/06 Q1029 RMK PP000=
SPZO Ene2003-041000Z 29002KT 9999 BKN050 08/05 Q1029 RMK PP000=
SPZO Ene2003-041100Z VRB01KT 9999 BKN050 08/06 Q1030 RMK PP000=
SPZO Ene2003-041200Z VRB02KT 9000 SCT040 SCT46 09/07 Q1031 NOSIG RMK PP000=
SPZO Ene2003-041230Z VRB01KT 9000 SCT040 SCT050 14/08 Q1032=
SPZO Ene2003-041300Z VRB02KT 9999 FEW040 SCT050 14/08 Q1032 N0SIG RMK PP000=
SPZO Ene2003-041400Z 09004KT 010V170 9999 FEW040 BKN100 15/08 Q1032
SPZO Ene2003-041500Z VRB02KT 9999 SCT043 BKN100 18/08 Q1031 NOSIG RMK PP000=
SPZO Ene2003-041600Z 33004K 9999 SCT043 BKN150 19/06 Q1030 NOSIG PP000=
SPZO Ene2003-041700Z 29009KT 240V040 9999 FEW037TCU SCT043 BKN090
SPZO Ene2003-041720Z 36014KT 320V040 9000 -RA FEW037TCU SCT043 16/07 Q1030 RMK RWY10 03020G30KT 310V080=
SPZO Ene2003-041800Z 03009KT 340V060 9000 -RA FEW037TCU SCT047 BKN070 14/08 Q1030 NOSIG RMK RWY10 06008KT PP010=
SPZO Ene2003-041830Z 12006KT 9999 VC-RA FEW040TCU SCT060 BKN100 16/08 Q1029 RMK RWY10 19010KT 120V220=
SPZO Ene2003-041900Z 12006KT 060V170 9999 SCT043 BKN080 16/07 Q1029 PP004=
SPZO Ene2003-042000Z 00000KT 9999 SCT043 BKN100 18/05 Q1028 PP000=
SPZO Ene2003-042100Z 10009KT 9999 SCT070 SCT200 18/07 Q1027 PP000=
SPZO Ene2003-042200Z 10011KT 9999 FEW050 SCT200 18/06 Q1027 PP000 TMAX 20.0=
SPZO Ene2003-042300Z VRB03KT 9999 FEW050 SCT200 16/05 Q1027 PP000=
SPZO Ene2003-050000Z 00000KT 9999 SCT050 13/06 Q1028 RMK PP000=
SPZO Ene2003-050100Z 00000KT 9999 SCT050 11/07 Q1029 RMK PP000=
SPZO Ene2003-050200Z 00000KT 9999 SCT050 10/07 Q1030 RMK PP000=
SPZO Ene2003-050300Z 00000KT 9999 SCT050 10/07 Q1030 RMK PP000=
SPZO Ene2003-050400Z 00000KT 9999 SCT050 10/07 Q1030 PP000=
SPZO Ene2003-050500Z 00000KT 9999 SCT050 08/06 Q1030 RMK PP000=
SPZO Ene2003-050600Z 00000KT 9999 SCT050 08/06 Q1029 RMK PP000=
SPZO Ene2003-050700Z 00000KT 9999 SCT050 09/07 Q1029 RMK PP000=
SPZO Ene2003-050800Z 00000KT 9999 SCT050 09/07 Q1029 RMK PP000=
SPZO Ene2003-050900Z 00000KT 9999 BKN050 09/07 Q1029 RMK PP000=
SPZO Ene2003-051000Z 00000KT 9999 BKN050 10/07 Q1030 RMK PP000=
SPZO Ene2003-051100Z 00000KT 9999 BKN050 09/07 Q1031 RMK PP000=
SPZO Ene2003-051200Z VRB03KT 9000 SCT043 SCT100 10/08 Q1032 NOSIG RMK PP000=
SPZO Ene2003-051300Z 00000KT 9999 FEW040 BKN100 13/08 Q1032 NOSIG RMK PP000=
SPZO Ene2003-051400Z VRB02KT 9999 FEW040 SCT100 15/07 Q1032 NOSIG RMK PP000=
SPZO Ene2003-051500Z VRB03KT 9999 SCT043 18/08 Q1032 NOSIG RMK PP000=
SPZO Ene2003-051600Z 09005KT 9999 SCT043TCU SCT200 19/08 Q1031 NOSIG PP000=
SPZO Ene2003-051700Z 00000KT 9999 FEW040TCU SCT047 BKN200 20/05 Q1030 TEMPO VCSH PP000=
SPZO Ene2003-051800Z 21005KT 9999 SCT043TCU BKN200 20/05 Q1029 NOSIG PP000=
SPZO Ene2003-051900Z VRB03KT 9999 SCT047 BKN200 20/05 Q1027 NOSIG RMK RWY10 30014KT PP000=
SPZO Ene2003-052000Z 01005KT 320V050 9999 FEW040TCU SCT047 SCT200 20/07 Q1026 RMK RWY10 36007KT PP000=
SPZO Ene2003-052100Z 33005KT 8000 TSRA FEW037CB BKN047 16/08 Q1026 PP008=
SPZO Ene2003-052200Z 25006KT 9000W VCRA SCT040 SCT050 14/10 Q1027 RMK RETS PP038 TMAX 22.2=
SPZO Ene2003-052300Z 24006KT 9999 SCT043 SCT200 15/08 Q1028 PP000=
SPZO Ene2003-060000Z 29008KT 9999 FEW050 13/08 Q1029 PP000=
SPZO Ene2003-060100Z 35004KT 9999 FEW060 14/08 Q1030 PP000=
SPZO Ene2003-060200Z VRB01KT 9999 FEW050 13/08 Q1031 PP000=
SPZO Ene2003-060300Z 00000KT 9999 SCT050 12/07 Q1032 PP000=
SPZO Ene2003-060400Z 00000KT 9999 SCT050 12/08 Q1033 PP000=
SPZO Ene2003-060500Z 00000KT 9999 BKN040 SCT050 11/09 Q1031 PP002=
SPZO Ene2003-060600Z 00000KT 9999 FEW040 SCT050 10/08 Q1030 PP000=
SPZO Ene2003-060700Z 00000KT 9999 SCT040 SCT050 08/07 Q1029 PP000=
SPZO Ene2003-060800Z 00000KT 9999 SCT050 08/07 Q1030 PP000=
SPZO Ene2003-060900Z 00000KT 9999 FEW050 07/05 Q1030 PP000=
SPZO Ene2003-061000Z VRB03KT 9999 FEW040 SCT050 07/05 Q1030 PP000=
SPZO Ene2003-061100Z 00000KT 9999 FEW050 SCT200 07/05 Q1032 PP000=
SPZO Ene2003-061200Z 00000KT 9999 SCT080 12/07 Q1033 NOSIG RMK PP000=
SPZO Ene2003-061300Z VRB02KT 9999 FEW050 14/07 Q1033 NOSIG RMK PP000=
SPZO Ene2003-061400Z VRB02KT 9999 FEW043 SCT080 15/07 Q1033 NOSIG RMK PP000=
SPZO Ene2003-061500Z VRB02KT 9999 SCT046 17/07 Q1032 NOSIG RMK PP000=
SPZO Ene2003-061600Z VRB02KT 9999 BKN050 18/04 Q1031 NOSIG RMK PP000=
SPZO Ene2003-061700Z VRB02KT 9999 BKN050 21/07 Q1030 NOSIG RMK PP000 RWY10 29008KT=
SPZO Ene2003-061740Z 00000KT 9999 -RA FEW040TCU SCT050 18/07 Q1029=
SPZO Ene2003-061800Z VRB02KT 9999 RERA FEW040TCU SCT050 19/07 Q1029 TEMPO -RA RMK PP000=
SPZO Ene2003-061900Z 28004KT 200V010 9999 BKN050 21/06 Q1028 NOSIG RMK PP000 RWY10 28013KT=
SPZO Ene2003-062000Z 34006KT 300V030 9999 BKN047 SCT200 20/04 Q1027 RMK RWY10 01012KT 270V060 PP000=
SPZO Ene2003-062100Z 14006KT 9999 FEW040TCU SCT050 BKN200 20/06 Q1026 PP000=
SPZO Ene2003-062200Z 10017KT 9000W VCRA FEW040TCU SCT050 BKN100 17/07 Q1027 PP000 TMAX 21.8=
SPZO Ene2003-062300Z 13007KT 9999 SCT047 SCT150 16/07 Q1028 PP000=
SPZO Ene2003-070000Z VRB03KT 9999 FEW050 SCT100 15/07 Q1029 PP000=
SPZO Ene2003-070100Z 00000KT 9999 FEW050 14/07 Q1030 PP000=
SPZO Ene2003-070200Z VRB02KT 9999 FEW050 SCT130 12/08 Q1032 PP000=
SPZO Ene2003-070300Z 00000KT 9999 FEW040 SCT100 10/07 Q1032 PP000=
SPZO Ene2003-070400Z 00000KT 9999 FEW040 SCT130 10/07 Q1033 PP000=
SPZO Ene2003-070500Z 00000KT 9999 SCT050 10/08 Q1033 PP000=
SPZO Ene2003-070600Z 00000KT 9999 SCT050 09/07 Q1032 PP000=
SPZO Ene2003-070700Z 00000KT 9999 SCT050 08/06 Q1032 PP000=
SPZO Ene2003-070800Z 00000KT 9999 SCT050 08/06 Q1031 PP000=
SPZO Ene2003-070900Z 00000KT 9999 FEW050 08/06 Q1031 PP000=
SPZO Ene2003-071000Z 00000KT 9999 FEW050 SCT300 08/06 Q1032 PP000=
SPZO Ene2003-071015Z VRB03KT 9999 SCT040 SCT050 07/06 Q1033=
SPZO Ene2003-071100Z VRB02KT 9999 BKN040 SCT050 08/07 Q1033 PP000=
SPZO Ene2003-071200Z 09004KT 9999 SCT040 BKN050 09/07 Q1034 NOSIG RMK PP000=
SPZO Ene2003-071300Z VRB02KT 9000E VCRA FEW037 SCT040 BKN050 10/07 Q1035 TEMPO -RA RMK PP000=
SPZO Ene2003-071400Z 11010KT 070V140 9000E VCRA FEW037 SCT040 BKN45 10/07 Q1036 NOSIG RMK PP000 RWY10 11017KT=
SPZO Ene2003-071500Z 04004KT 350V110 9999 SCT040 BKN050 11/06 Q1036 NOSIG RMK PP000=
SPZO Ene2003-071600Z VRB03KT 9999 FEW033 SCT050 BKN080 13/07 Q1035 NOSIG PP000=
SPZO Ene2003-071700Z VRB03KT 9999 FEW037 SCT060 BKN150 14/06 Q1034 NOSIG PP000=
SPZO Ene2003-071800Z VRB03KT 9999 FEW047 SCT100 BKN200 17/05 Q1033
SPZO Ene2003-071900Z VRB02KT 9999 FEW047 BKN200 18/06 Q1031 PP000=
SPZO Ene2003-072000Z VRB03KT 9999 SCT050 BKN200 20/05 Q1029 PP000=
SPZO Ene2003-072100Z VRB03KT 9999 SCT050 BKN200 20/05 Q1028 PP000=
SPZO Ene2003-072200Z VRB03KT 9999 SCT047 BKN200 19/07 Q1027 PP000
SPZO Ene2003-072300Z 02004KT 9999 SCT047 SCT200 18/07 Q1028 PP000=
SPZO Ene2003-080000Z 10005KT 9999 SCT050 15/07 Q1030 RMK PP000=
SPZO Ene2003-080100Z 00000KT 9999 SCT050 15/06 Q1031 RMK PP000=
SPZO Ene2003-080200Z 00000KT 9999 SCT050 14/07 Q1031 RMK PP000=
SPZO Ene2003-080300Z 00000KT 9999 SCT050 14/07 Q1032 RMK PP000=
SPZO Ene2003-080400Z 00000KT 9999 SCT050 11/07 Q1033 RMK PP000=
SPZO Ene2003-080500Z 00000KT 9999 SCT050 13/07 Q1032 RMK PP000=
SPZO Ene2003-080600Z 00000KT 9999 SCT050 11/07 Q1032 RMK PP000=
SPZO Ene2003-080700Z 00000KT 9999 SCT050 10/07 Q1032 RMK PP000=
SPZO Ene2003-080900Z 00000KT 9999 SCT050 09/07 Q1032 RMK PP000=
SPZO Ene2003-081000Z 00000KT 9999 SCT050 08/06 Q1032 RMK PP000=
SPZO Ene2003-081100Z 00000KT 9999 SCT050 07/05 Q1033 RMK PP000=
SPZO Ene2003-081200Z VRB03KT 9999 SCT050 SCT200 09/06 Q1034 NOSIG RMK PP000=
SPZO Ene2003-081300Z VRB02KT 9999 FEW050 SCT200 12/07 Q1035 NOSIG RMK PP000=
SPZO Ene2003-081400Z VRB02KT 9999 FEW043 SCT100 15/07 Q1035 NOSIG
SPZO Ene2003-081500Z VRB03KT 9999 FEW043 SCT250 17/04 Q1034 NOSIG RMK PP000=
SPZO Ene2003-081600Z VRB03KT 9999 SCT047 BKN200 18/07 Q1033 NOSIG PP000=
SPZO Ene2003-081700Z 22006KT 120V260 9999 SCT050 SCT200 20/07 Q1032
SPZO Ene2003-081800Z VRB03KT 9999 SCT050 SCT200 22/07 Q1030 NOSIG RMK RWY10 14010KT PP000=
SPZO Ene2003-081900Z 10004KT 9999 SCT050 SCT200 21/07 Q1029 NOSIG PP000=
SPZO Ene2003-082000Z 10006KT 9999 SCT050 SCT200 21/05 Q1027 PP000=
SPZO Ene2003-082100Z 02005KT 9999 FEW047 SCT100 SCT200 22/06 Q1027 PP000=
SPZO Ene2003-082200Z 36007KT 9999 FEW047 BKN200 20/06 Q1027 PP000 TMAX 23.1=
SPZO Ene2003-082300Z 33004KT 9999 FEW047 SCT150 SCT200 19/07 Q1027 PP000=
SPZO Ene2003-090000Z 09004KT 050V140 9999 SCT050 SCT150 16/08 Q1028 RMK PP000=
SPZO Ene2003-090100Z 08003KT 9999 BKN050 16/08 Q1029 RMK PP000=
SPZO Ene2003-090200Z 14002KT 9999 BKN050 16/09 Q1030 RMK PP000=
SPZO Ene2003-090300Z 09003KT 9999 BKN050 15/08 Q1031 RMK PP000=
SPZO Ene2003-090400Z 00000KT 9999 BKN050 15/08 Q1031 RMK PP000=
SPZO Ene2003-090500Z 00000KT 9999 BKN050 14/09 Q1031 RMK PP000=
SPZO Ene2003-090600Z 09007KT 9999 BKN050 13/09 Q1031 RMK PP000=
SPZO Ene2003-090612Z 12010KT 5000 -RA SCT040 BKN050 12/09 Q1031=
SPZO Ene2003-090700Z 12010KT 5000 RA SCT040 BKN050 10/08 Q1032 PP014=
SPZO Ene2003-090800Z 10010KT 5000 RA SCT040 BKN050 09/07 Q1032 PP016=
SPZO Ene2003-090900Z 00000KT 9000 FEW040 BKN050 09/07 Q1032 RERA
SPZO Ene2003-091000Z 26002KT 9999 FEW040 BKN050 09/07 Q1032 PP000=
SPZO Ene2003-091100Z 07003KT 9999 BKN050 SCT070 09/07 Q1033 RMK PP000=
SPZO Ene2003-091200Z VRB02KT 9999 SCT046 SCT100 10/08 Q1034 NOSIG RMK PP000=
SPZO Ene2003-091300Z VRB05KT 9999 FEW043 SCT200 13/08 Q1034 NOSIG RMK PP000=
SPZO Ene2003-091400Z VRB02KT 9999 FEW040 BKN200 14/09 Q1034 NOSIG RMK
SPZO Ene2003-091500Z VRB02KT 9999 SCT040 SCT200 17/08 Q1033 NOSIG RMK PP000=
SPZO Ene2003-091600Z 05004KT 9999 FEW040TCU SCT047 BKN060 17/07 Q1032 TEMPO VCSH PP000=
SPZO Ene2003-091700Z VRB03KT 9999 SCT043 SCT060 19/07 Q1031 NOSIG PP000=
SPZO Ene2003-091800Z 25007KT 9999 FEW040TCU SCT047 SCT150 20/09 Q1030 TEMPO VCSH PP000=
SPZO Ene2003-091900Z 28013KT 240V330 9999 FEW043TCU SCT050 BKN100 19/08 Q1028 NOSIG PP000=
SPZO Ene2003-091920Z 28013KT 260V340 9999 FEW040TCU SCT047 SCT100 20/08 Q1028 RMK RWY10 34016G33KT 260V350
SPZO Ene2003-092000Z 29009KT 260V340 9999 VC-RA FEW040TCU SCT047 BKN150 20/07 Q1027 RMK RWY10 32018G30 PP000=
SPZO Ene2003-092100Z 32008KT 260V350 9999 VC-RA SCT040TCU SCT047 BKN070 17/09 Q1027 PP000=
SPZO Ene2003-092200Z 09007KT 9999 VC-RA SCT040TCU SCT047 BKN070 15/07 Q1029 PP000 TMAX 20.7=
SPZO Ene2003-092300Z 10006KT 9999 -RA OVC040 13/07 Q1031 PP006=
SPZO Ene2003-100000Z 15004KT 9999 VCSH OVC040 13/06 Q1032 PPTRZ=
SPZO Ene2003-100100Z 10007KT 9999 BKN040 SCT050 12/07 Q1033 PP000=
SPZO Ene2003-100200Z 10007KT 9999 BKN040 SCT050 11/07 Q1034 PP000=
SPZO Ene2003-100300Z 09007KT 9999 BKN040 SCT070 10/07 Q1034 PP002=
SPZO Ene2003-100400Z 06005KT 9999 BKN040 SCT050 10/07 Q1035 PP000=
SPZO Ene2003-100500Z 00000KT 9999 -RA OVC040 10/08 Q1034 PP004=
SPZO Ene2003-100600Z 00000KT 9999 -RA OVC040 09/07 Q1034 PP006=
SPZO Ene2003-100700Z 00000KT 9999 -RA OVC040 09/07 Q1033 PP008=
SPZO Ene2003-100800Z 00000KT 9999 -RA SCT030 BKN040 09/08 Q1033 PP010=
SPZO Ene2003-100900Z 00000KT 9999 SCT030 BKN043 09/08 Q1032 PP002=
SPZO Ene2003-101000Z 00000KT 9999 SCT025 BKN043 09/08 Q1033 PP000=
SPZO Ene2003-101035Z 00000KT 9999 FEW025 SCT037 BKN043 09/07 Q1033 CLNG BLW 1200M=
SPZO Ene2003-101100Z VRB01KT 9999 FEW025 SCT040 BKN047 09/08 Q1034 PP000=
SPZO Ene2003-101200Z VRB02KT 9999 FEW030 SCT040 BKN046 10/08 Q1034 NOSIG RMK PP000 BCBR NE NW =
SPZO Ene2003-101300Z VRB02KT 9999 FEW033 SCT040 BKN050 11/08 Q1035 NOSIG RMK PP000 BCBR E/NE =
SPZO Ene2003-101400Z VRB03KT 9999 SCT040 BKN050 13/08 Q1035 NOSIG RMK PP000 BCBR NE=
SPZO Ene2003-101500Z VRB03KT 9999 FEW037 SCT040 15/10 Q1034 NOSIG RMK PP000=
SPZO Ene2003-101600Z 11006KT 060V190 9999 SCT040 SCT050 17/07 Q1033 NOSIG RMK PP000=
SPZO Ene2003-101700Z 11008KT 070V170 9999 FEW040TCU BKN046 18/08 Q1032 NOSIG RMK PP000 TEMPO RASH=
SPZO Ene2003-101800Z VRB02KT 9999 FEW040TCU BKN050 19/06 Q1031 TEMPO VCSH RMK PP000 RWY10 10015KT=
SPZO Ene2003-101900Z VRB04KT 9999 VCRA FEW040TCU SCT050 20/05 Q1029 NOSIG RMK PP000=
SPZO Ene2003-102000Z 30009KT 240V030 9999 BKN040 18/07 Q1029 PP000=
SPZO Ene2003-102100Z 01008KT 330V050 9999 BKN040 19/05 Q1028 PP000=
SPZO Ene2003-102200Z 28007KT 210V350 9999 BKN040 18/06 Q1028 PP000 TMAX 20.0=
SPZO Ene2003-102300Z VRB06KT 9999 BKN040 17/06 Q1029 RMK PP000=
SPZO Ene2003-110000Z VRB02KT 9999 SCT040 SCT060 16/06 Q1030 PP000=
SPZO Ene2003-110100Z VRB02KT 9999 SCT040 SCT080 14/07 Q1031 PP000=
SPZO Ene2003-110200Z VRB03KT 9999 SCT040 SCT080 13/07 Q1032 PP000=
SPZO Ene2003-110300Z 09004KT 9999 FEW040 SCT060 11/07 Q1033 PP000=
SPZO Ene2003-110400Z 00000KT 9999 FEW040 SCT080 10/07 Q1033 PP000=
SPZO Ene2003-110500Z 00000KT 9999 SCT080 10/07 Q1033 PP000=
SPZO Ene2003-110600Z 00000KT 9999 SCT040 SCT050 10/07 Q1032 PP000=
SPZO Ene2003-110700Z 00000KT 9999 BKN040 SCT050 10/08 Q1032 PP000=
SPZO Ene2003-110800Z 00000KT 9999 BKN040 SCT050 11/08 Q1031 PP000=
SPZO Ene2003-110900Z 00000KT 9999 SCT040 SCT050 11/08 Q1031 PP000=
SPZO Ene2003-111000Z 30004KT 9999 VCSH BKN040 SCT047 10/08 Q1032 PP000=
SPZO Ene2003-111030Z 20004KT 9999 FEW030 SCT040 BKN047 11/08 Q1033=
SPZO Ene2003-111100Z 00000KT 9999 FEW030 SCT040 BKN043 11/08 Q1033 PPTRZ=
SPZO Ene2003-111200Z 26005KT 230V300 9999 -DZ SCT037 BKN043 11/08 Q1034 NOSIG RMK PP000=
SPZO Ene2003-111242Z VRB02KT 7000E VCRA SCT037 BKN045 12/08 Q1034 =
SPZO Ene2003-111300Z 00000KT 7000E VCRA SCT037 BKN045 12/08 Q1034 BECMG FM1330 8000 RMK PP000=
SPZO Ene2003-111315Z 00000KT 8000 VCRA SCT037 BKN045 12/0=
SPZO Ene2003-111338Z VRB02KT 8000 DZ SCT037 BKN46 12/08 Q1035 RMK RWY WET=
SPZO Ene2003-111400Z VRB04KT 9000 DZ SCT037 BKN046 12/09 Q1035 NOSIG RMK PP000=
SPZO Ene2003-111500Z VRB02KT 9999 FEW033 BKN050 12/08 Q1035 NOSIG RMK PP002 RWY WET=
SPZO Ene2003-111533Z VRB03KT 9999 FEW033 SCT043 SCT100 15/07 Q1034=
SPZO Ene2003-111600Z VRB03KT 9999 FEW033 SCT080 SCT200 15/08 Q1034 NOSIG PP000=
SPZO Ene2003-111625Z 00000KT 9999 FEW037 SCT053 BKN200 17/06 Q1033
SPZO Ene2003-111700Z 24004KT 9999 VC-RA FEW037TCU SCT050 SCT200 18/08
SPZO Ene2003-111800Z 02013KT 340V050 8000N/E VCRA SCT037TCU SCT050 16/08 Q1031 NOSIG RMK RWY10 02025KT PP000=
SPZO Ene2003-111807Z 01020KT 8000 RA SCT037TCU BKN047 14/07 Q1031
SPZO Ene2003-111900Z 18004KT 9999 FEW040TCU SCT050 BKN100 14/09 Q1030
SPZO Ene2003-112000Z VRB02KT 9999 FEW040TCU SCT050 BKN150 17/09 Q1029 PP000=
SPZO Ene2003-112100Z 29013KT 9000 -TSRA FEW037CB SCT047 BKN200 17/09
SPZO Ene2003-112200Z 20004KT 9000E VCRA FEW037TCU SCT050 BKN150 14/09 Q1028 RETS PP008 TMAX 18.8=
SPZO Ene2003-112300Z 10004KT 9999 SCT040 BKN200 15/09 Q1029 PP000=
SPZO Ene2003-120000Z 00000KT 9999 BKN040 13/08 Q1030 RMK PP000=
SPZO Ene2003-120100Z 00000KT 9999 BKN040 12/08 Q1031 RMK PP000=
SPZO Ene2003-120200Z 00000KT 9999 BKN040 11/09 Q1031 RMK PP000=
SPZO Ene2003-120300Z 00000KT 9999 OVC040 12/09 Q1032 RMK PP000=
SPZO Ene2003-120400Z 00000KT 9999 OVC040 12/10 Q1032 RMK PP000=
SPZO Ene2003-120500Z 00000KT 9999 BKN040 13/09 Q1031 RMK PP000=
SPZO Ene2003-120600Z 00000KT 8000 -RA FEW030 BKN040 12/10 Q1030 PPTRZ=
SPZO Ene2003-120700Z 00000KT 8000 RA FEW030 BKN040 11/09 Q1030 PP012=
SPZO Ene2003-120800Z 00000KT 8000 -RA FEW030 BKN040 11/09 Q1029 PP002=
SPZO Ene2003-120900Z 00000KT 7000 RA FEW030 BKN040 11/09 Q1030 PP002=
SPZO Ene2003-121000Z 00000KT 7000 -RA FEW030 BKN040 11/09 Q1030 PP006=
SPZO Ene2003-121100Z 06003KT 8000 -RA FEW030 BKN040 10/08 Q1031 PP004=
SPZO Ene2003-121130Z 00000KT 9000 VCRA SCT043 BKN046 11/08 Q1032 RMK RWY WET=
SPZO Ene2003-121200Z 00000KT 9999 VCRA SCT040 BKN050 11/09 Q1032
SPZO Ene2003-121224Z 00000KT 7000E -RA FEW030 SCT037 BKN046 11/09
SPZO Ene2003-121300Z 00000KT 6000 RA FEW020 SCT033 BKN046 11/08
SPZO Ene2003-121330Z 12005KT 7000E DZ FEW020 SCT035 BKN046 10/09 Q1033 RMK CLNG BLW 1200M=
SPZO Ene2003-121400Z 11004KT 070V140 8000E VCRA FEW025 SCT037 BKN046 11/09 Q1033 BECMG FM1430 FEW030 SCT040 BKN050 RMK PP010 CLNG BLW 1200M RWY WET BCBR E-NE=
SPZO Ene2003-121423Z 00000KT 9999 FEW030 SCT037 BKN046 12/09
SPZO Ene2003-121500Z 00000KT 9999 SCT037 BKN046 13/09 Q1033 NOSIG
SPZO Ene2003-121508Z VRB02KT 9000E VCRA FEW033 SCT040 BKN047 13/08 Q1033 RMK RWY10 15005KT=
SPZO Ene2003-121519Z 00000KT 8000E VCRA SCT033 SCT040 BKN047 13/08 Q1033=
SPZO Ene2003-121535Z 00000KT 7000 -RA FEW027 SCT037 BKN050 13/09 Q1033 CEILING BELOW 040=
SPZO Ene2003-121600Z 00000KT 7000 RA FEW027 SCT037 BKN050 13/09 Q1033
SPZO Ene2003-121613Z 08004KT 8000 -RA FEW027 SCT037 BKN050 13/09 Q1033 RMK CEILING BELOW 040 RWY10 14008KT=
SPZO Ene2003-121634Z 00000KT 9999 SCT030 SCT040 BKN050 13/08 Q1033=
SPZO Ene2003-121700Z 00000KT 9999 -DZ SCT027 SCT040 BKN050 13/08 Q1032 NOSIG PP006=
SPZO Ene2003-121730Z VRB02KT 9999 FEW030 SCT040 BKN060 15/09 Q1031=
SPZO Ene2003-121800Z 07004KT 9999 FEW030 SCT043 BKN060 15/09 Q1031 REDZ TEMPO VCRA
SPZO Ene2003-121900Z 26014KT 220V350 9000W -RA FEW033TCU SCT040 BKN050 15/08 Q1030
SPZO Ene2003-121935Z 24006KT 210V320 9000N VCRA FEW033 SCT040 BKN050 12/09 Q1030 RM
SPZO Ene2003-122000Z 24004KT 210V290 9999 FEW037 SCT047 BKN080 13/09 Q1030 RERA RMK
SPZO Ene2003-122100Z 00000KT 9999 FEW037 SCT0100 BKN200 16/08 Q1028 PP000=
SPZO Ene2003-122200Z 11004KT 9999 SCT040 BKN200 16/08 Q1028 PP000 TMAX 16.6=
SPZO Ene2003-122300Z 10004KT 9999 SCT100 SCT200 14/08 Q1028 PP000=
SPZO Ene2003-130000Z 00000KT 9999 SCT040 SCT150 13/08 Q1029 RMK PP000=
SPZO Ene2003-130100Z 00000KT 9999 BKN040 12/09 Q1030 RMK PP000=
SPZO Ene2003-130200Z 00000KT 9999 BKN040 12/09 Q1031 RMK PP000=
SPZO Ene2003-130300Z 30004KT 240V060 9999 BKN040 12/08 Q1032 PP000=
SPZO Ene2003-130400Z 00000KT 9999 OVC040 12/09 Q1032 RMK PP000=
SPZO Ene2003-130500Z 00000KT 9999 OVC040 12/09 Q1031 RMK PP000=
SPZO Ene2003-130600Z 00000KT 5000 +RA BKN030 SCT040 09/08 Q1032 PP078=
SPZO Ene2003-130700Z 00000KT 6000 RA SCT030 SCT040 10/08 Q1031 PP004=
SPZO Ene2003-130800Z 00000KT 8000 FEW030 BKN040 09/08 Q1031 RERA RMK PP002=
SPZO Ene2003-130900Z 11003KT 9999 FEW030 BKN040 09/08 Q1030 RMK PP000=
SPZO Ene2003-131000Z 09002KT 9999 OVC040 09/08 Q1031 RMK PP000=
SPZO Ene2003-131100Z 10001KT 9999 BKN040 SCT070 09/08 Q1031 RMK PP000=
SPZO Ene2003-131200Z 00000KT 9999 FEW033 SCT043 BKN100 11/09 Q1032 NOSIG RMK PP000=
SPZO Ene2003-131300Z VRB02KT 9999 FEW037 BKN050 14/09 Q1032 NOSIG RMK PP000 BCBR NE
SPZO Ene2003-131400Z VRB02KT 9999 FEW040 SCT150 16/07 Q1032 NOSIG RMK PP000=
SPZO Ene2003-131500Z VRB03KT 9999 FEW037TCU SCT043 BKN100 16/08 Q1031 TEMPO VCSH RM
SPZO Ene2003-131530Z 00000KT 9000 SH FEW037TCU SCT043 BKN060 16/07 Q1031 RWY WET=
SPZO Ene2003-131600Z 25006KT 9000 -RA FEW037TCU SCT043 BKN050 14/09 Q1032 NOSIG PPT
SPZO Ene2003-131630Z 27007KT 9000W -DZ FEW037TCU SCT043 BKN050 13/07 Q1032 RWY WET=
SPZO Ene2003-131700Z 28008KT 250V340 9000NW -DZ FEW037TCU SCT043 BKN053 13/09 Q1031
SPZO Ene2003-131800Z 26006KT 9999 SCT047 BKN200 16/09 Q1029 NOSIG PPTRZ=
SPZO Ene2003-131900Z 00000KT 9999 FEW040TCU SCT050 BKN200 19/06 Q1028 TEMPO VCRA PP
SPZO Ene2003-132000Z 28014KT 260V310 9999 FEW040TCU SCT047 BKN100 17/09 Q1027 PP000
SPZO Ene2003-132100Z 24010KT 9999 SCT050 BKN150 16/09 Q1026 PP000=
SPZO Ene2003-132200Z 26010KT 9999 SCT047 BKN150 16/08 Q1027 PP000 TMAX 19.6=
SPZO Ene2003-132300Z 11008KT 9999 SCT040 SCT100 14/08 Q1028 PP000=
SPZO Ene2003-140000Z 14009KT 9999 BKN040 SCT050 14/05 Q1029 PP000=
SPZO Ene2003-140100Z VRB03KT 9999 -SHRA OVC040 13/07 Q1031 PPTRZ=
SPZO Ene2003-140200Z VRB02KT 9000 -RA OVC040 10/08 Q1032 PP016=
SPZO Ene2003-140300Z 30006KT 9999 -RA OVC040 10/08 Q1032 PP008=
SPZO Ene2003-140400Z VRB03KT 9999 DZ OVC040 10/08 Q1032 PP004=
SPZO Ene2003-140500Z 00000KT 9999 BKN040 SCT050 10/08 Q1032 PP000=
SPZO Ene2003-140600Z 00000KT 9999 DZ OVC040 10/08 Q1031 PP002=
SPZO Ene2003-140700Z 00000KT 9999 -RA AOVC040 10/08 Q1030 PP004=
SPZO Ene2003-140800Z 00000KT 9999 SCT030 SCT050 10/08 Q1030 PPTRZ=
SPZO Ene2003-140900Z 000000KT 9999 SCT040 SCT050 09/08 Q1029 PP000=
SPZO Ene2003-141000Z VRB02KT 9999 FEW025 BKN050 09/08 Q1030 PP000=
SPZO Ene2003-141100Z 00000KT 9999 FEW025 SCT050 BKN100 09/07 Q1030 PP000=
SPZO Ene2003-141200Z VRB01KT 9000 VCRA FEW040 BKN070 10/09 Q1031 NOSIG RMK PP000=
SPZO Ene2003-141300Z VRB02KT 9999 SCT040 BKN080 13/08 Q1031 NOSIG RMK PP000=
SPZO Ene2003-141400Z VRB03KT 9999 BKN043 SCT100 15/07 Q1032 NOSIG RMK PP000=
SPZO Ene2003-141500Z VRB02KT 9999 FEW037TCU SCT043 BKN100 16/07 Q1031 TEMPO VCSH RM
SPZO Ene2003-141600Z VRB03KT 9999 SCT046 BKN100 17/07 Q1031 NOSIG RMK PP000=
SPZO Ene2003-141700Z VRB05KT 9999 SCT050 18/09 Q1029 NOSIG RMK PP000=
SPZO Ene2003-141800Z 27008KT 220V350 9999 SCT050 BKN200 20/07 Q1028 NOSIG RMK PP000
SPZO Ene2003-141900Z 30010KT 270V340 9999 SCT050 OVC200 19/07 Q1027 NOSIG RMK RWY10
SPZO Ene2003-142000Z 33007KT 9999 FEW050 OVC200 20/06 Q1026 PP000=
SPZO Ene2003-142100Z 36008KT 9999 FEW050 OVC200 19/07 Q1025 PP000=
SPZO Ene2003-142200Z 10006KT 9999 FEW100 BKN200 16/09 Q1026 PP000 TMAX 20.0=
SPZO Ene2003-142300Z 11008KT 9999 BKN200 15/07 Q1026 PP000=
SPZO Ene2003-150000Z 10007KT 9999 FEW050 SCT200 14/07 Q1027 PP000=
SPZO Ene2003-150100Z 00000KT 9999 FEW050 SCT200 12/07 Q1028 PP000=
SPZO Ene2003-150200Z VRB01KT 9999 FEW040 SCT200 12/09 Q1029 PP000=
SPZO Ene2003-150300Z 00000KT 9999 SCT200 11/08 Q1030 PP000=
SPZO Ene2003-150400Z 00000KT 9999 FEW040 SCT100 11/08 Q1031 PP000=
SPZO Ene2003-150500Z 00000KT 9999 FEW040 SCT100 11/09 Q1030 PP000=
SPZO Ene2003-150600Z 00000KT 9999 SCT040 SCT100 11/08 Q1030 PP000=
SPZO Ene2003-150700Z 00000KT 9999 SCT040 SCT100 11/09 Q1029 PP000=
SPZO Ene2003-150800Z 00000KT 9999 SCT040 SCT050 11/09 Q1029 PP000=
SPZO Ene2003-150900Z 10004KT 9999 BKN040 SCT047 10/08 Q1029 PP000=
SPZO Ene2003-150910Z 07004KT 9999 -RA BKN040 SCT047 10/08 Q1029=
SPZO Ene2003-151000Z 00000KT 9999 VCSH FEW025 SCT040 BKN050 10/08 Q1030 PP006=
SPZO Ene2003-151100Z 00000KT 9999 FEW030 SCT040 BKN050 10/08 Q1030 PP000=
SPZO Ene2003-151200Z VRB01KT 9999 FEW037 SCT043 BKN50 11/08 Q1031 NOSIG RMK PP000=
SPZO Ene2003-151300Z 00000KT 9999 VCRA SCT040 BKN050 13/09 Q1031 NOSIG RMK PP000=
SPZO Ene2003-151400Z VRB02KT 9999 FEW037 SCT040 BKN050 14/09 Q1031 NOSIG RMK PP000=
SPZO Ene2003-151500Z VRB03KT 9999 SCT040 BKN100 15/08 Q1031 NOSIG RMK PP000=
SPZO Ene2003-151600Z 00000KT 9999 FEW040 SCT047 BKN080 17/08 Q1030 NOSIG PP000=
SPZO Ene2003-151700Z VRB02KT 9999 FEW040TCU SCT050 BKN150 19/08 Q1029 NOSIG PP000=
SPZO Ene2003-151800Z 10010KT 9999 FEW040TCU SCT047 BKN100 18/07 Q1028 TEMPO VCSH PP
SPZO Ene2003-151835Z VRB02KT 9000 -TSSH FEW037CB SCT047 BKN080 18/07 Q1028 RMK RWY1
SPZO Ene2003-151900Z 31008KT 9000 SHRA FEW040CB SCT050 BKN070 17/07 Q1028 RMK RWY10
SPZO Ene2003-151910Z 27007KT 9999 SCT043 BKN070 17/08 Q1027 RESH=
SPZO Ene2003-152000Z 29010KT 9999 SCT047 BKN080 17/07 Q1027 PP000=
SPZO Ene2003-152100Z VRB02KT 9999 SCT050 BKN150 17/07 Q1027 PP000=
SPZO Ene2003-152200Z 01004KT 9999 SCT060 SCT200 17/07 Q1027 PP000 TMAX 20.1=
SPZO Ene2003-152300Z 10007KT 9999 SCT060 SCT200 15/08 Q1028 PP000=
SPZO Ene2003-160000Z 00000KT 9999 BKN040 13/08 Q1028 RMK PP000=
SPZO Ene2003-160100Z 00000KT 9999 BKN040 11/08 Q1030 RMK PP000=
SPZO Ene2003-160200Z 00000KT 9999 BKN040 12/08 Q1031 RMK PP000=
SPZO Ene2003-160300Z 00000KT 9999 OVC040 12/09 Q1032 RMK PP000=
SPZO Ene2003-160400Z 02005KT 7000 RA BKN030 SCT040 10/08 Q1032 PP006=
SPZO Ene2003-160500Z 00000KT 7000 RA SCT030 SCT040 10/08 Q1032 PP008=
SPZO Ene2003-160600Z 00000KT 8000 FEW030 BKN040 10/08 Q1031 RERA PP002=
SPZO Ene2003-160700Z 00000KT 7000 -RA FEW030 BKN040 10/08 Q1031 PP004=
SPZO Ene2003-160800Z 00000KT 7000 -RA FEW030 BKN040 10/08 Q1031 PP004=
SPZO Ene2003-160900Z 00000KT 7000 -RA FEW030 BKN040 09/07 Q1031 PP004=
SPZO Ene2003-161000Z 00000KT 8000 FEW030 BKN040 09/08 Q1031 RERA PPTRZ=
SPZO Ene2003-161100Z 11003KT 8000 FEW030 BKN040 09/07 Q1032 RMK PP000=
SPZO Ene2003-161127Z 00000KT 9999 FEW033 SCT040 SCT050 09/08 Q1032 RMK BCBR NE, SW,
SPZO Ene2003-161200Z VRB02KT 9999 FEW033 BKN050 10/08 Q1032 NOSIG RMK PP000 VCFG E,
SPZO Ene2003-161300Z VRB02KT 9999 SCT043 BKN050 12/08 Q1033 NOSIG RMK PP000 BCBR NE
SPZO Ene2003-161400Z 07004KT 340V150 9999 FEW035 BKN046 14/07 Q1033 NOSIG RMK PP000
SPZO Ene2003-161500Z VRB02KT 9999 FEW037 BKN046 14/06 Q1032 NOSIG RMK PP000=
SPZO Ene2003-161600Z 00000KT 9999 FEW037TCU SCT043 BKN080 16/06 Q1031 TEMPO VCSH RM
SPZO Ene2003-161700Z 10006KTM 050V140 VC-RA FEW037TCU SCT043 BKN070 15/09 Q1031 NOS
SPZO Ene2003-161800Z 00000KT 9000NE VCRA FEW037TCU SCT043 BKN060 15/07 Q1030 NOSIG
SPZO Ene2003-161900Z 17004KT 9000NW VC-RA FEW037TCU SCT043 BKN070 17/07 Q1029 NOSIG
SPZO Ene2003-162000Z 27009KT 9000 VCRA FEW037TCU SCT043 BKN053 14/09 Q1029 RMK RWY1
SPZO Ene2003-162100Z 27004KT 9000 VC-RA FEW033 SCT050 BKN080 14/09 Q1028 SH 2025/2
SPZO Ene2003-162200Z VRB02KT 9999 SCT040 BKN200 15/09 Q1028 PP000 TMAX 18.1=
SPZO Ene2003-162300Z 00000KT 9999 SCT040 SCT200 14/09 Q1029 PP000=
SPZO Ene2003-170000Z 00000KT 9999 BKN040 13/09 Q1030 RMK PP000=
SPZO Ene2003-170100Z 00000KT 9999 BKN040 11/09 Q1030 RMK PP000=
SPZO Ene2003-170200Z 00000KT 9999 BKN040 12/09 Q1031 RMK PP000=
SPZO Ene2003-170300Z 00000KT 9999 OVC040 11/09 Q1032 RMK PP000=
SPZO Ene2003-170400Z 00000KT 9999 OVC040 11/09 Q1032 RMK PP000=
SPZO Ene2003-170500Z 00000KT 9999 OVC040 11/09 Q1032 RMK PP000=
SPZO Ene2003-170600Z 00000KT 9999 OVC040 11/09 Q1031 RMK PP000=
SPZO Ene2003-170700Z 00000KT 9999 OVC040 11/08 Q1030 RMK PP000=
SPZO Ene2003-170800Z 10003KT 7000 -RA SCT030 SCT040 10/09 Q1030 PPTRZ=
SPZO Ene2003-170900Z 07003KT 8000 SCT030 BKN040 11/09 Q1030 RERA RMK PP008=
SPZO Ene2003-171000Z 09004KT 8000 FEW030 BKN040 10/08 Q1031 RMK PP000=
SPZO Ene2003-171038Z 11004KT 8000 BKN040 SCT080 10/08 Q1031 BR=
SPZO Ene2003-171100Z 10002KT 9000 SCT040 SCT080 10/08 Q1031 RMK BR PP000=
SPZO Ene2003-171200Z VRB03KT 9999 FEW040 BKN200 12/09 Q1032 NOSIG RMK PP000=
SPZO Ene2003-171300Z VRB02KT 9999 FEW040 SCT100 14/09 Q1032 NOSIG RMK PP000=
SPZO Ene2003-171400Z VRB02KT 9999 FEW040 SCT250 16/08 Q1032 NOSIG RMK PP000=
SPZO Ene2003-171500Z VRB02KT 9999 SCT050 18/08 Q1032 NOSIG RMK PP000=
SPZO Ene2003-171600Z 05005KT 9999 SCT050 19/07 Q1031 NOSIG PP000=
SPZO Ene2003-171700Z 10004KT 9999 SCT050 20/06 Q1030 NOSIG PP000=
SPZO Ene2003-171800Z 22007KT 9999 FEW043TCU SCT053 SCT200 21/06 Q1029 NOSIG RMK RWY
SPZO Ene2003-171900Z 17006KT 110V220 9999 VC-RA FEW040TCU SCT047 SCT200 21/04 Q1028
SPZO Ene2003-172000Z 10004KT 9999 SCT047 SCT200 21/02 Q1027 PP000=
SPZO Ene2003-172100Z 30013KT 9999 SCT050 SCT200 20/03 Q1026 PP000=
SPZO Ene2003-172200Z 32009KT 9999 SCT050 SCT200 20/04 Q1025 PP000 TMAX 22.0=
SPZO Ene2003-172300Z 28009KT 9999 FEW050 BKN200 19/04 Q1026 PP000=
SPZO Ene2003-180000Z 30004KT 9999 FEW050 BKN200 17/05 Q1027 PP000=
SPZO Ene2003-180100Z 00000KT 9999 BKN200 14/07 Q1029 PP000=
SPZO Ene2003-180200Z 00000KT 9999 -RA BKN040 SCT050 14/08 Q1030 PP006=
SPZO Ene2003-180300Z 00000KT 9999 DZ SCT040TCU BKN043 12/09 Q1032 PP008=
SPZO Ene2003-180400Z 00000KT 9999 OVC040 12/08 Q1032 PP000=
SPZO Ene2003-180500Z 00000KT 9999 SCT040 SCT080 12/08 Q1031 PP000=
SPZO Ene2003-180600Z 00000KT 9999 SCT040 SCT050 12/08 Q1031 PP000=
SPZO Ene2003-180700Z 00000KT 9999 SCT040 SCT050 11/08 Q1030 PP000=
SPZO Ene2003-180800Z 00000KT 9999 BKN040 SCT050 11/08 Q1030 PP000=
SPZO Ene2003-180900Z 00000KT 9999 -RA OVC040 11/09 Q1030 PP002=
SPZO Ene2003-181000Z 00000KT 9999 FEW030 SCT040 BKN050 11/08 Q1030 PP000=
SPZO Ene2003-181100Z VRB02KT 9999 SCT040 SCT050 11/09 Q1031 PP000=
SPZO Ene2003-181200Z VRB03KT 9999 DZ SCT043 BKN046 11/09 Q1032 BECMG FM1230 NSW RMK
SPZO Ene2003-181220Z VRB02KT 9999 VCRA FEW030 SCT040 BKN050 12/09 Q1033 RMK RERA=
SPZO Ene2003-181300Z 00000KT 9999 FEW033 SCT043 BKN050 13/09 Q1033 NOSIG RMK PPTRZ
SPZO Ene2003-181400Z VRB02KT 9999 SCT043 BKN090 15/08 Q1033 NOSIG RMK PP000 BCBR NE
SPZO Ene2003-181500Z VRB02KT 9999 FEW037TCU SCT040 BKN050 15/09 Q1033 TEMPO VCSH RM
SPZO Ene2003-181600Z VRB02KT 9999 SCT040 SCT050 17/09 Q1032 NOSIG RMK PP000=
SPZO Ene2003-181700Z 02008KT 330V080 9999 FEW040 SCT046 17/07 Q1030 NOSIG RMK PP000
SPZO Ene2003-181800Z VRB05KT 9000E VCRA SCT040TCU BKN046 16/08 Q1030 TEMPO -RA RMK
SPZO Ene2003-181815Z 22004KT 150V300 7000E VCRA SCT040 BKN050 14/10 Q1030=
SPZO Ene2003-181830Z 29005KT 250V320 5000 -RA SCT040 BKN050 13/10 Q1030=
SPZO Ene2003-181843Z 29006KT 8000 -RA SCT040 BKN050 14/10 Q1030=
SPZO Ene2003-181900Z 30006KT 270V330 9000 FEW040 BKN050 15/10 Q1029 RERA RMK PP018=
SPZO Ene2003-182000Z 30004KT 220V060 9999 FEW040 BKN050 17/08 Q1038 RMK PP000=
SPZO Ene2003-182100Z 27008KT 240V300 9999 OVC050 16/08 Q1028 RMK PP000=
SPZO Ene2003-182200Z 30006KT 270V350 9999 OVC050 16/08 Q1028 PP000=
SPZO Ene2003-182300Z 28005KT 200V360 8000 -RA OVC050 15/10 Q1029 RMK PP002=
SPZO Ene2003-190000Z VRB02KT 9000 -RA OVC040 12/10 Q1030 PP018=
SPZO Ene2003-190100Z 00000KT 7000 RA SCT030 BKN040 11/08 Q1032 PP020=
SPZO Ene2003-190200Z 00000KT 9000 DZ OVC040 10/09 Q1033 PP046=
SPZO Ene2003-190300Z 00000KT 8000 -RA SCT030 BKN040 11/09 Q1033 PP004=
SPZO Ene2003-190400Z 00000KT 9000 -RA OVC040 10/07 Q1034 PP010=
SPZO Ene2003-190500Z 00000KT 9999 DZ BKN040 SCT047 10/09 Q1033 PP002=
SPZO Ene2003-190600Z 00000KT 9999 SCT040 SCT050 09/06 Q1033 PP000=
SPZO Ene2003-190700Z 00000KT 9999 -RA OVC037 09/07 Q1032 PP006=
SPZO Ene2003-190800Z 00000KT 9999 BKN040 SCT070 09/06 Q1031 PPTRZ=
SPZO Ene2003-190900Z 00000KT 9999 BKN040 SCT070 09/06 Q1031 PP000=
SPZO Ene2003-191000Z 00000KT 9999 BKN040 SCT070 09/06 Q1031 PP000=
SPZO Ene2003-191040Z VRB02KT 9999 -RA BKN043 SCT070 09/07 Q1032=
SPZO Ene2003-191100Z VRB02KT 9999 -RA BKN043 SCT070 09/07 Q1032 PP004=
SPZO Ene2003-191200Z 00000KT 99999 OVC050 09/07 Q1032 NOSIG RMK PPTRZ RWY WET=
SPZO Ene2003-191300Z 00000KT 9999 OVC050 10/07 Q1032 NOSIG RMK PP000=
SPZO Ene2003-191400Z 00000KT 9999 VCRA OVC046 11/07 Q1032 NOSIG RMK PP000=
SPZO Ene2003-191500Z VRB02KT 9999 VCRA OVC050 12/06 Q1032 NOSIG RMK PP000=
SPZO Ene2003-191600Z VRB03KT 9999 FEW043 OVC060 13/03 Q1032 NOSIG PP000=
SPZO Ene2003-191700Z 31005KT 9999 FEW047 OVC060 14/04 Q1031 TEMPO VCRA PP000=
SPZO Ene2003-191800Z 09004KT 9999 SCT047 OVC060 15/04 Q1030 TEMPO VCRA PP000=
SPZO Ene2003-191810Z 11008KT 8000 -DZBR SCT043 BKN050 12/07 Q1030=
SPZO Ene2003-191900Z 10009KT 9000 -DZBR SCT043 BKN050 11/08 Q1030 PP002=
SPZO Ene2003-192000Z 05004KT 9000 -DZBR SCT040 BKN047 11/07 Q1029 PP002=
SPZO Ene2003-192005Z 00000KT 6000 DZBR SCT037 OVC043 11/07 Q1029=
SPZO Ene2003-192100Z 00000KT 5000 DZBR FEW025 SCT037 BKN043 10/07 Q1030 PP012=
SPZO Ene2003-192200Z 00000KT 6000 DZBR FEW025 SCT040 BKN047 11/08 Q1030 PP004 TMAX
SPZO Ene2003-192300Z 00000KT 6000 DZBR SCT025 SCT040 BKN047 10/08 Q1030 PP006=
SPZO Ene2003-200000Z 10002KT 5000 BR OVC040 10/08 Q1030 REDZ PPTRZ=
SPZO Ene2003-200100Z 11002KT 5000 BR OVC040 10/08 Q1031 RMK PP000=
SPZO Ene2003-200200Z 12002KT 4300 -DZ OVC040 10/08 Q1031 PP002=
SPZO Ene2003-200300Z 12002KT 5000 BR OVC040 10/08 Q1031 REDZ PP002=
SPZO Ene2003-200400Z 11001KT 5000 BR OVC040 10/08 Q1031 RMK PP000=
SPZO Ene2003-200500Z 11004KT 5000 BR OVC040 10/08 Q1030 RMK PP000=
SPZO Ene2003-200600Z 00000KT 9999 OVC040 10/08 Q1030 RMK PP000=
SPZO Ene2003-200700Z 00000KT 8000 -RA SCT030 BKN040 09/08 Q1029 PP004=
SPZO Ene2003-200800Z 09003KT 7000 -RA FEW030 BKN040 09/08 Q1029 PP002=
SPZO Ene2003-200900Z 10003KT 7000 -RA FEW030 BKN040 09/08 Q1029 PP006=
SPZO Ene2003-201000Z 10003KT 8000 FEW030 BKN040 09/08 Q1029 RERA RMK PPTRZ=
SPZO Ene2003-201030Z 00000KT 8000 SCT030 BKN040 09/08 Q1030 BR=
SPZO Ene2003-201100Z 00000KT 8000 SCT030 BKN040 09/08 Q1030 BR RMK PP000=
SPZO Ene2003-201124Z VRB02KT 9000E FEW033 SCT040 09/08 Q1030 RMK BCBR/ E NE=
SPZO Ene2003-201200Z 00000KT 7000E VCFG FEW033 SCT040 SCT050 10/08 BECMG FM1220 800
SPZO Ene2003-201300Z VRB02KT 9000E FEW033 BKN043 11/08 Q1031 NOSIG RMK PP000 VCFG/E
SPZO Ene2003-201326Z 00000KT 9000E FEW037 SCT050 13/09 Q1031 RMK BCBR E/NE=
SPZO Ene2003-201400Z VRB01KT 9999 FEW043 SCT050 15/09 Q1031 NOSIG RMK PP000=
SPZO Ene2003-201500Z VRB02KT 9999 SCT043 SCT120 17/06 Q1030 NOSIG RMK PP000=
SPZO Ene2003-201700Z 06004KT 9999 SCT047 BKN060 18/07 Q1028 NOSIG PP000=
SPZO Ene2003-201800Z 36006KT 9000NW VC-RA FEW040TCU SCT050 20/08 Q1027 NOSIG RMK RW
SPZO Ene2003-201900Z 28011KT 9000NW VC-RA FEW040TCU SCT050 SCT200 19/08 Q1026 NOSIG
SPZO Ene2003-202000Z 32011KT 9999 FEW040TCU SCT047 SCT070 20/06 Q1025 RMK RWY10 320
SPZO Ene2003-202100Z 28013KT 9000NE VCRA SCT040TCU SCT050 BKN070 17/08 Q1024 PP000=
SPZO Ene2003-202200Z 26011KT 8000 TS FEW037CB SCT043 BKN060 14/07 Q1026 VCRA PP000
SPZO Ene2003-202300Z 00000KT 8000W -RA FEW037TCU BKN047 14/09 Q1027 PPTRZ=
SPZO Ene2003-210000Z 10003KT 7000 -RA SCT030 BKN040 12/10 Q1028 PP010=
SPZO Ene2003-210100Z 12006KT 5000 RA BKN030 SCT040 11/09 Q1030 PP030=
SPZO Ene2003-210200Z 00000KT 4100 +RA BKN030 SCT040 11/09 Q1030 PP060=
SPZO Ene2003-210300Z 00000KT 3500 RA SCT030 SCT040 10/08 Q1031 PP054=
SPZO Ene2003-210400Z 00000KT 5000 RA SCT030 BKN040 09/07 Q1031 PP026= MROC 210400
SPZO Ene2003-210500Z 00000KT 7000 -RA SCT030 BKN040 09/07 Q1030 PP006=
SPZO Ene2003-210600Z 00000KT 7000 -RA SCT030 BKN040 09/08 Q1030 PP010=
SPZO Ene2003-210700Z 00000KT 5000 -RA SCT030 BKN040 09/07 Q1029 PP012=
SPZO Ene2003-210800Z 00000KT 5000 -RA SCT030 BKN040 09/07 Q1029 PP016=
SPZO Ene2003-210900Z 00000KT 7000 -RA SCT030 BKN040 09/07 Q1028 PP012=
SPZO Ene2003-211000Z 00000KT 7000 -RA SCT030 BKN040 08/06 Q1029 PP008=
SPZO Ene2003-211030Z 07002KT 7000 -RA FEW030 BKN040 08/07 Q1029=
SPZO Ene2003-211100Z 00000KT 8000 -DZ FEW030 BKN040 08/07 Q1029 PP004=
SPZO Ene2003-211200Z VRB02KT 9999 REDZ BKN040 SCT046 09/07 Q1030 TEMPO 8000 RMK PPT
SPZO Ene2003-211300Z VRB03KT 9999 FEW033 BKN040 09/07 Q1030 NOSIG RMK PP000 RWY WET
SPZO Ene2003-211400Z VRB02KT 9999 SCT040 BKN046 10/07 Q1030 NOSIG RMK PP000=
SPZO Ene2003-211500Z VRB01KT 9999 SCT040 BKN050 12/07 Q1030 NOSIG RMK PP000=
SPZO Ene2003-211600Z 10004KT 9999 FEW037 BKN050 13/07 Q1029 NOSIG RMK RWY10 10007KT
SPZO Ene2003-211700Z 10007KT 9999 SCT040 BKN050 13/08 Q1028 TEMPO VCRA PP000=
SPZO Ene2003-211800Z VRB02KT 9999 FEW037TCU SCT050 SCT060 17/09 Q1026 TEMPO VCSH RM
SPZO Ene2003-211900Z VRB02KT 9999 FEW043 SCT060 BKN200 18/06 Q1025 NOSIG PP000=
SPZO Ene2003-212000Z VRB02KT 9999 FEW040 SCT0080 SCT200 18/07 Q1023 PP000=
SPZO Ene2003-212100Z 00000KT 9999 SCT040 BKN150 18/06 Q1022 PP000=
SPZO Ene2003-212200Z 00000KT 9999 FEW040TCU SCT047 BKN080 18/08 Q1023 PP000 TMAX 18
SPZO Ene2003-212300Z 27011KT 7000 TSRA FEW033CB BKN043 11/06 Q1026 PP008=
SPZO Ene2003-220000Z 30007KT 7000 TSRA FEW033CB BKN040 11/08 Q1027 PP014=
SPZO Ene2003-220100Z 30013KT 9999 BKN040 SCT070 12/06 Q1026 PP008=
SPZO Ene2003-220200Z 26013KT 9999 FEW040 SCT100 11/05 Q1027 PP000=
SPZO Ene2003-220300Z 26010KT 9999 BKN040 10/06 Q1028 PP000=
SPZO Ene2003-220400Z 30007KT 9999 SCT040 SCT050 09/07 Q1028 PP000=
SPZO Ene2003-220500Z VRB03KT 9999 SCT040 SCT050 08/06 Q1027 PP000=
SPZO Ene2003-220600Z 00000KT 9999 BKN040 SCT050 08/06 Q1027 PP000=
SPZO Ene2003-220700Z 00000KT 9999 SCT040 SCT080 08/06 Q1027 PP000=
SPZO Ene2003-220800Z 00000KT 9999 SCT040 SCT080 08/06 Q1026 PP000=
SPZO Ene2003-220900Z 00000KT 9999 SCT040 SCT100 08/07 Q1026 PP000=
SPZO Ene2003-221000Z VRB03KT 9999 FEW050 BKN080 08/06 Q1027 PP000=
SPZO Ene2003-221100Z VRB02KT 9999 SCT050 SCT080 08/06 Q1028 PP000=
SPZO Ene2003-221200Z VRB02KT 9999 SCT050 SCT080 09/07 Q1028 NOSIG RMK PP000=
SPZO Ene2003-221300Z VRB03KT 9999 FEW040 SCT200 12/07 Q1028 NOSIG RMK PP000=
SPZO Ene2003-221400Z VRB02KT 9999 FEW050 15/03 Q1028 NOSIG RMK PP000=
SPZO Ene2003-221500Z 35006KT 280V050 SCT050 16/05 Q1028 NOSIG RMK PP000=
SPZO Ene2003-221600Z 34005KT 290V080 9999 BKN050 18/05 Q1027 NOSIG RMK PP000=
SPZO Ene2003-221700Z 26004KT 170V330 9999 BKN043 SCT050 17/05 Q1026 TEMPO -RA RMK P
SPZO Ene2003-221800Z 27005KT 200V330 9999 SCT040 BKN050 18/06 Q1025 NOSIG RMK PP000
SPZO Ene2003-221900Z VRB03KT 9999 FEW037TCU SCT043 BKN150 20/04 Q1024 NOSIG RMK RWY
SPZO Ene2003-222000Z 29006KT 9000W VCRA FEW037TCU SCT047 BKN080 19/07 Q1023 RMK RWY
SPZO Ene2003-222100Z 10020KT 9999 SCT043 BKN200 15/09 Q1023 PP000=
SPZO Ene2003-222200Z 09008KT 9999 SCT050 BKN200 14/08 Q1024 PP000 TMAX 20.0=
SPZO Ene2003-222300Z 10007KT 9999 SCT060 OVC200 13/08 Q1024 PP000=
SPZO Ene2003-230000Z VRB02KT 9999 FEW050 BKN200 13/08 Q1025 PP000=
SPZO Ene2003-230100Z 10007KT 9999 SCT040 BKN050 13/08 Q1027 PP000=
SPZO Ene2003-230200Z 00000KT 8000 RA OVC040 10/08 Q1030 PP042=
SPZO Ene2003-230300Z 00000LT 9000 -RA OVC040 10(08 Q1030 PP020=
SPZO Ene2003-230400Z 00000KT 9000 -RA OVC037 10/08 Q1029 PP028=
SPZO Ene2003-230500Z 00000KT 9999 DZ BKN040 SCT070 10/08 Q1029 PP002=
SPZO Ene2003-230600Z 00000KT 9999 BKN040 SCT050 10/08 Q1028 PP000=
SPZO Ene2003-230700Z 00000KT 9999 SCT040 SCT080 10/08 Q1027 PP000=
SPZO Ene2003-230800Z 00000KT 9999 SCCT040 SCT080 09/07 Q1027 PP000=
SPZO Ene2003-230900Z 00000KT 9999 FEW050 SCT100 08/06 Q1028 PP000=
SPZO Ene2003-231000Z VRB02KT 9999 FEW040 BKN080 08/07 Q1028 PP000=
SPZO Ene2003-231100Z 00000KT 9999 SCT040 SCT050 08/07 Q1029 PP000=
SPZO Ene2003-231200Z VRB02KT 9000 SCT043 BKN050 09/08 Q1030 NOSIG RMK PP000=
SPZO Ene2003-231300Z 08004KT 030V120 9999 SCT040 BKN46 11/08 Q1030 NOSIG RMK PP000
SPZO Ene2003-231400Z VRB03KT 9999 -DZ FEW037 SCT040 BKN046 11/08 Q1030 BECMG AT 143
SPZO Ene2003-231418Z VRB02KT 9999 REDZ SCT040 SCT080 14/09 Q1030=
SPZO Ene2003-231500Z 00000KT 9999 SCT040 SCT080 15/08 Q1029 NOSIG RMK PP002=
SPZO Ene2003-231600Z 11005KT 9999 FEW037TCU SCT047 SCT080 17/09 Q1029 NOSIG RMK RWY
SPZO Ene2003-231700Z 07006KT 9000NW VCRA FEW037TCU SCT047 SCT070 16/06 Q1028 NOSIG
SPZO Ene2003-231800Z 18004KT 9000NW VC-RA FEW037TCU SCT047 SCT070 16/08 Q1028 NOSIG
SPZO Ene2003-231900Z 10018KT 8000E SCT037TCU SCT047 BKN080 18/11 Q1027 RMK RWY10 10
SPZO Ene2003-231903Z 10017KT 6000E VC+RA SCT037TCU SCT047 BKKN060 15/10 Q1027 RMK R
SPZO Ene2003-232000Z 05005KT 9000 TS FEW037CB SCT043 BKN050 13/09 Q1027 VCRA RMK RW
SPZO Ene2003-232030Z VRB03KT 9000E VCRA FEW040TCU SCT047 BKN060 13/09 Q1027=
SPZO Ene2003-232100Z 11005KT 9000E VCRA FEW030 SCT043TCU BKN060 13/09 Q1027 PP000=
SPZO Ene2003-232200Z 10011KT 9999 FEW037TCU BKN047 13/10 Q1027 PP000 TMAX 19.0=
SPZO Ene2003-232300Z VRB03KT 9000W VC-RA FEW037TCU SCT047 SCT060 12/09 Q1028 PP000=
SPZO Ene2003-240000Z 07003KT 9999 OVC040 12/09 Q1029 RMK PP000=
SPZO Ene2003-240100Z 00000KT 9999 OVC040 12/09 Q1029 RMK PP000=
SPZO Ene2003-240200Z 00000KT 9999 OVC040 12/09 Q1030 RMK PP000=
SPZO Ene2003-240300Z 00000KT 9999 OVC040 12/09 Q1031 RMK PP000=
SPZO Ene2003-240400Z 00000KT 9999 OVC040 12/09 Q1031 RMK PP000=
SPZO Ene2003-240500Z 00000KT 9999 OVC040 11/09 Q1030 RMK PP000=
SPZO Ene2003-240600Z 00000KT 9999 OVC040 11/09 Q1030 RMK PP000=
SPZO Ene2003-240700Z 29002KT 9999 OVC040 11/09 Q1029 RMK PP000=
SPZO Ene2003-240800Z 00000KT 9999 OVC040 11/09 Q1029 RMK PP000=
SPZO Ene2003-240900Z 00000KT 9999 OVC040 11/09 Q1029 RMK PP000=
SPZO Ene2003-241000Z 00000KT 9999 OVC040 11/09 Q1029 RMK PP000=
SPZO Ene2003-241100Z 10003KT 9999 BKN040 SCT050 10/09 Q1030 RMK PP000=
SPZO Ene2003-241139Z VRB01KT 8000 DZ SCT040 BKN046 11/08 Q1031=
SPZO Ene2003-241200Z VRB02KT 9000E REDZ SCT040 BKN046 11/09 Q1031 NOSIG RMK PP002 R
SPZO Ene2003-241230Z VRB03KT 9999 SCT040 BKN046 12/08 Q1032=
SPZO Ene2003-241300Z VRB02KT 9999 SCT040 BKN046 13/07 Q1032 NOSIG RMK PP000=
SPZO Ene2003-241400Z 06004KT 320V110 9999 FEW037 BKN050 15/08 Q1032 NOSIG RMK PP000
SPZO Ene2003-241500Z VRB03KT 9999 SCT040 SCT050 16/07 Q1031 NOSIG RMK PP000=
SPZO Ene2003-241535Z 10004KT 9000NE VC-RA FEW037TCU SCT043 BKN053 16/07 Q1031=
SPZO Ene2003-241600Z 12008KT 9999 VC-RA FEW037TCU SCT047 BKN053 16/08 Q1031 NOSIG R
SPZO Ene2003-241700Z 10004KT 9999 VC-RA FEW037TCU SCT047 BKN060 17/08 Q1030 PP000 N
SPZO Ene2003-241800Z 10005KT 9999 VC-RA SCT040TCU BKN050 17/07 Q1029 NOSIG RMK RWY1
SPZO Ene2003-241900Z 36014KT 9999 FEW040TCU SCT047 BKN060 17/06 Q1028 TEMPO VCSH RM
SPZO Ene2003-242000Z 03006KT 9999 FEW037TCU SCT047 BKN060 16/07 Q1028 RMK RWY10 030
SPZO Ene2003-242100Z 06009KT 9999 SCT040 BKN080 15/05 Q1028 PP000=
SPZO Ene2003-242200Z 07014KT 9999 SCT040 SCT100 SCT200 14/05 Q1028 PP000 TMAX 18.3=
SPZO Ene2003-242300Z 10010KT 9999 SCT040 SCT200 13/06 Q1029 PP000=
SPZO Ene2003-250000Z 11002KT 9999 BKN040 12/06 Q1030 RMK PP000=
SPZO Ene2003-250100Z 18002KT 9999 BKN040 12/06 Q1031 RMK PP000=
SPZO Ene2003-250200Z 00000KT 9999 BKN040 12/06 Q1032 RMK PP000=
SPZO Ene2003-250300Z 00000KT 9999 OVC040 12/06 Q1033 RMK PP000=
SPZO Ene2003-250400Z 12003KT 9999 OVC040 11/06 Q1032 RMK PP000=
SPZO Ene2003-250500Z 00000KT 9999 OVC040 10/07 Q1032 RMK PP000=
SPZO Ene2003-250600Z 00000KT 9999 OVC040 09/07 Q1032 RMK PP000=
SPZO Ene2003-250700Z 00000KT 9999 OVC040 09/07 Q1031 RMK PP000=
SPZO Ene2003-250800Z 00000KT 9999 OVC040 09/07 Q1031 RMK PP000=
SPZO Ene2003-250900Z 00000KT 9999 OVC040 09/07 Q1031 RMK PP000=
SPZO Ene2003-251000Z 00000KT 9999 OVC040 08/07 Q1031 RMK PP000=
SPZO Ene2003-251100Z 00000KT 9999 SCT040 SCT080 08/07 Q1031 RMK PP000=
SPZO Ene2003-251200Z 00000KT 9999 SCT050 12/07 Q1032 NOSIG RMK PP000=
SPZO Ene2003-251300Z VRB02KT 9999 FEW040 13/06 Q1032 NOSIG RMK PP000=
SPZO Ene2003-251400Z VRB03KT 9999 SCT040 15/06 Q1032 NOSIG RMK PP000=
SPZO Ene2003-251500Z VRB02KT 9999 BKN043 16/07 Q1031 NOSIG RMK PP000=
SPZO Ene2003-251600Z 12004KT 040V170 9999 FEW040TCU BKN050 17/05 Q1030 TEMP VCSH RMK PP000=
SPZO Ene2003-251700Z VRB02KT 9999 BKN050 19/07 Q1029 NOSIG RMK PP000=
SPZO Ene2003-251800Z VRB04KT 9999 BKN050 20/08 Q1028 NOSIG RMK PP000=
SPZO Ene2003-251900Z VRB04KT 9999 FEW040TCU SCT050 20/06 Q1026 TEMPO
SPZO Ene2003-252000Z 33008KT 280V010 9999 FEW030TCU SCT040 17/07
SPZO Ene2003-252100Z 02008KT 330V060 9999 BKN040 18/07 Q1026 PP000=
SPZO Ene2003-252200Z 02006KT 330V090 9999 BKN040 18/06 Q1025
SPZO Ene2003-252300Z VRB04KT 9999 BKN040 16/06 Q1026 RMK PP000=
SPZO Ene2003-260000Z 25005KT 9999 BKN040 SCT050 14/08 Q1027 PP000=
SPZO Ene2003-260100Z 09005KT 9999 SCT040 SCT050 13/07 Q1029 PP000=
SPZO Ene2003-260200Z VRB03KT 9999 SCT040 SCT050 12/07 Q1030 PP000=
SPZO Ene2003-260300Z 08004KT 9999 OVC040 13/07 Q1030 PP000=
SPZO Ene2003-260400Z 00000KT 9999 OVC043 12/06 Q1030 PP000=
SPZO Ene2003-260500Z 00000KT 9999 BKN037 SCT050 12/07 Q1030 PP000=
SPZO Ene2003-260600Z 00000KT 9999 BKN043 SCT050 12/07 Q1030 PP000=
SPZO Ene2003-260700Z 00000KT 9999 SCT043 SCT050 12/06 Q1029 PP000=
SPZO Ene2003-260800Z 00000KT 9999 SCT040 SCT050 11/07 Q1029 PP0020=
SPZO Ene2003-260900Z VRB03KT 9999 BKN040 SCT047 11/07 Q1029 PP000=
SPZO Ene2003-261000Z VRB02KT 9999 SCT040 SCT050 11/07 Q1029 PP000=
SPZO Ene2003-261100Z VRB02KT 9999 SCT040 SCT060 11/07 Q1030 PP000=
SPZO Ene2003-261200Z 00000KT 9999 SCT043 SCT060 11/08 Q1031 NOSIG RMK PP000=
SPZO Ene2003-261300Z 00000KT 9999 SCT043 SCT090 13/08 Q1032 NOSIG RMK PP000=
SPZO Ene2003-261400Z VRB01KT 9999 SCT040 SCT060 14/07 Q1032 NOSIG RMK PP000=
SPZO Ene2003-261500Z VRB02KT 9999 FEW040 BKN060 16/07 Q1031 NOSIG RMK PP000=
SPZO Ene2003-261600Z 08004KT 020V140 9999 SCT046 SCT060 16/07 Q1030 NOSIG RMK PP000=
SPZO Ene2003-261700Z VRB04KT 9999 SCT046 19/07 Q1029 NOSIG RMK PP000=
SPZO Ene2003-261800Z VRB05KT 9999 FEW040TCU SCT050 20/07 Q1027 TEMPO VCSH RMK PP000=
SPZO Ene2003-261900Z 28004KT 210V010 9999 FEW040TCU SCT050 20/06 Q1026 TEMPO VCSH RMK PP000=
SPZO Ene2003-262000Z 31004KT 230V040 8000 -RA FEW040TCU SCT050 17/09 Q1025 RMK PP004=
SPZO Ene2003-262010Z 03008KT 330V090 9000 FEW040TCU SCT050 17/08 Q1025 RERA=
SPZO Ene2003-262100Z 06007KT 020V100 9999 BKN040 17/07 Q1025 PPTRZ=
SPZO Ene2003-262200Z VRB01KT 9999 BKN040 18/06 Q1025 PP000 TMAX 20.8=
SPZO Ene2003-262300Z 07004KT 030V100 9999 BKN040 17/08 Q1025 PP000=
SPZO Ene2003-270000Z 29006KT 9999 BKN040 SCT050 15/08 Q1026 PP000=
SPZO Ene2003-270100Z 27004KT 9999 SCT040 SCT050 15/09 Q1028 PP000=
SPZO Ene2003-270200Z 25007KT 9999 SCT040 SCT050 15/09 Q1028 PP000=
SPZO Ene2003-270300Z 26004KT 9999 SCT040 SCT050 14/08 Q1029 PP000=
SPZO Ene2003-270400Z 20007KT 9999 RA OVC040 13/09 Q1030 PP002=
SPZO Ene2003-270500Z 00000KT 9999 RA OVC040 09/007 Q1031 PP092=
SPZO Ene2003-270600Z 00000KT 8000 RA OVC037 08/07 Q1031 PP078=
SPZO Ene2003-270700Z 00000KT 7000 RA OVC037 08/07 Q1030 PP092=
SPZO Ene2003-270800Z 00000KT 8000 RA OVC040 08/06 Q1030 PP062=
SPZO Ene2003-270900Z 00000KT 9000 -RA OVC040 08/06 Q1030 PP020=
SPZO Ene2003-271000Z 00000KT 9999 SCT030 BKN040 08/06 Q1030 PPTRZ=
SPZO Ene2003-271100Z VRB02KT 9999 BKN040 SCT047 08/06 Q1031 PP000=
SPZO Ene2003-271200Z 00000KT 9999 SCT040 BKN050 09/07 Q1031 NOSIG RMK PP000=
SPZO Ene2003-271300Z 00000KT 9999 SCT040 SCT050 11/07 Q1032 NOSIG RMK PP000 BCBR NE=
SPZO Ene2003-271400Z 00000KT 9999 SCT043 BKN050 15/07 Q1032 NOSIG RMK PP000=
SPZO Ene2003-271500Z VRB03KT 9999 FEW043 SCT050 15/07 Q1031 NOSIG RMK PP000=
SPZO Ene2003-271600Z 00000KT 9999 FEW040TCU SCT047 SCT100 17/08 Q1030 TEMPO VCSH PP000=
SPZO Ene2003-271700Z VRB03KT 9999 SCT040TCU SCT050 18/07 Q1030 NOSIG PP000=
SPZO Ene2003-271800Z 27007KT 220V320 9999 SCT040TCU SCT050 19/10 Q1028
SPZO Ene2003-271900Z 36006KT 9999 SCT040TCU BKN050 19/06 Q1026 RMK
SPZO Ene2003-271940Z 01009KT 9000NE TS FEW037CB BKN047 16/07 Q1026 VCRA=
SPZO Ene2003-272000Z 02009KT 8000 TSRA FEW033CB SCT043 BKN050 16/06
SPZO Ene2003-272025Z 16008KT 8000 -TSRA FEW033CB BKN047 12/08 Q1027
SPZO Ene2003-272100Z 00000KT 9000 -RA FEW037 SCT043 BKN060 12/08
SPZO Ene2003-272200Z 21007KT 9999 BKN050 SCT150 12/08 Q1027 RERA
SPZO Ene2003-272300Z 00000KT 9999 SCT060 SCT200 12/08 Q1028 PP000=
SPZO Ene2003-280000Z 00000KT 9999 BKN050 11/09 Q1029 RMK PP000=
SPZO Ene2003-280100Z 10002KT 9999 BKN050 10/08 Q1030 RMK PP000=
SPZO Ene2003-280200Z 00000KT 9999 BKN040 11/09 Q1031 RMK PP000=
SPZO Ene2003-280300Z 00000KT 9999 OVC040 11/09 Q1031 RMK PP000=
SPZO Ene2003-280400Z 00000KT 9999 OVC040 11/09 Q1031 RMK PP000=
SPZO Ene2003-280500Z 00000KT 8000 -DZ OVC040 11/09 Q1030 RMK PPTRZ=
SPZO Ene2003-280600Z OOOOOKT 9000 OVC040 11/09 Q1029 REDZ RMK PP002=
SPZO Ene2003-280700Z 00000KT 9999 OVC040 11/07 Q1029 PP000=
SPZO Ene2003-280800Z 10003KT 9999 OVC040 10/09 Q1029 RMK PP000=
SPZO Ene2003-280900Z 00000KT 9999 OVC040 10/09 Q1029 RMK PP000=
SPZO Ene2003-281000Z 00000KT 9999 OVC040 10/09 Q1029 RMK PP000=
SPZO Ene2003-281100Z 00000KT 8000 OVC040 10/09 Q1030 RMK BR PP000=
SPZO Ene2003-281120Z 00000KT 9000 VCRA FEW033 SCT043 SCT050 12/09 Q1030=
SPZO Ene2003-281200Z 00000KT 9999 SCT043 SCT050 12/09 Q1031 NOSIG RMK PP000=
SPZO Ene2003-281300Z VRB03KT 9999 FEW043 SCT060 13/08 Q1031 NOSIG RMK PP000=
SPZO Ene2003-281400Z VRB03KT 9999 VCRA SCT040 SCT046 14/07 Q1032 NOSIG
SPZO Ene2003-281406Z VRB03KT 9000 -RA SCT040 BKN046 14/07 Q1032=
SPZO Ene2003-281430Z VRB03KT 9999 RERA FEW040 BKN046 16/07 Q1032 =
SPZO Ene2003-281500Z VRB03KT 9999 FEW040 BKN050 16/09 Q1031 NOSIG PPTRZ=
SPZO Ene2003-281600Z 34009KT 9999 FEW040TCU SCT047 SCT070 16/06 Q1031
SPZO Ene2003-281700Z VRB02KT 9999 VCRA FEW040TCU SCT050 17/08 Q1030
SPZO Ene2003-281800Z 02017KT 340V080 9999 SCT047 SCT070 18/06 Q1029 NOSIG RMK RWY10 03020KT PP000=
SPZO Ene2003-281900Z 01008KT 9000E VCRA FEW037TCU SCT047 SCT070 15/05 Q1028 PP000=
SPZO Ene2003-282000Z 01008KT 9000E VCRA FEW037TCU SCT047 SCT070 15/05 Q1028 PP000=
SPZO Ene2003-282100Z 03005KT 9999 FEW037TCU SCT050 SCT080 15/07 Q1028 PP000=
SPZO Ene2003-282200Z 02006KT 9999 SCT040 BKN060 15/05 Q1028 PP000 TMAX 19.1=
SPZO Ene2003-282300Z 02009KT 9999 SCT040 BKN060 14/05 Q1029 PP000=
SPZO Ene2003-290000Z VRB03KT 9999 BKN040 13/05 Q1030 RMK PP000=
SPZO Ene2003-290100Z 03006KT 300V100 9999 BKN040 13/05 Q1031 PP000=
SPZO Ene2003-290200Z 04008KT 350V070 9999 BKN040 13/03 Q1033 PP000=
SPZO Ene2003-290300Z 18002KT 120V240 9999 OVC040 12/06 Q1033 PP000=
SPZO Ene2003-290400Z 13005KT 9000 RA SCT030 BKN040 10/07 Q1034 PP008=
SPZO Ene2003-290500Z 00000KT 9000 -RA SCT030 BKN040 09/07 Q1034 PP022=
SPZO Ene2003-290600Z 00000KT 9999 -RA FEW030 BKN040 09/06 Q1032 PP008=
SPZO Ene2003-290700Z VRB03KT 9999 -DZ BKN030 SCT040 09/06 Q1032 PP002=
SPZO Ene2003-290800Z 00000KT 9999 FEW025 SCT033 BKN040 09/06 Q1032 REDZ PP000=
SPZO Ene2003-290900Z 00000KT 9999 FEW020 SCT030 BKN040 09/06 Q1031 PP000=
SPZO Ene2003-291000Z 00000KT 9999 FEW025 BKN040 09/06 Q1031 PP000=
SPZO Ene2003-291100Z VRB03KT 9999 FEW030 BKN043 09/07 Q1032 PP000=
SPZO Ene2003-291200Z 00000KT 9999 SCT040 SCT046 10/07 Q1032 NOSIG RMK PP000=
SPZO Ene2003-291300Z VRB02KT 9999 FEW040 SCT050 13/07 Q1033 NOSIG RMK PP000=
SPZO Ene2003-291400Z VRB02KT 9999 FEW040 SCT050 14/05 Q1033 NOSIG RMK PP000=
SPZO Ene2003-291500Z VRB02KT 9999 FEW043 SCT050 15/05 Q1032 NOSIG RMK PP000=
SPZO Ene2003-291600Z 13004KT 9999 BKN047 SCT070 16/06 Q1032 NOSIG PP000=
SPZO Ene2003-291700Z VRB03KT 9999 SCT050 SCT080 17/02 Q1031 NOSIG RMK RWY10 04015KT PP000=
SPZO Ene2003-291800Z 36006KT 9999 SCT050 18/04 Q1030 NOSIG PP000=
SPZO Ene2003-291900Z VRB03KT 9999 FEW050 18/02 Q1029 NOSIG PP000=
SPZO Ene2003-292000Z VRB03KT 9999 SCT050 20/04 Q1027 RMK RWY10 33007KT PP000=
SPZO Ene2003-292100Z 32004KT 9999 FEW040TCU SCT050 20/05 Q1025 PP000=
SPZO Ene2003-292200Z 11011KT 9999 FEW040TCU SCT050 18/06 Q1025 PP000 TMAX 20.3=
SPZO Ene2003-292300Z 33006KT 9999 RESH SCT040 SCT050 15/08 Q1027 PP008=
SPZO Ene2003-292330Z 33005KT 8000 RA SCT040 SCT050 13/08 Q1028=
SPZO Ene2003-300000Z VRB02KT 9999 BKN040 SCT050 13/08 Q1028 PP056=
SPZO Ene2003-300100Z 03005KT 9999 BKN040 SCT080 14/08 Q1028 PP000=
SPZO Ene2003-300200Z 09005KT 9999 SCT043 SCT100 13/06 Q1029 PP000=
SPZO Ene2003-300300Z 10010KT 9999 -RA OVC040 10/07 Q1032 PP008=
SPZO Ene2003-300400Z 00000KT 8000 RA SCT030 BKN040 09/07 Q1032 PP044=
SPZO Ene2003-300500Z 00000KT 7000 RA OVC037 09/07 Q1032 PP070=
SPZO Ene2003-300600Z 00000KT 7000 RA OVC040 08/07 Q1032 PP060=
SPZO Ene2003-300700Z 00000KT 8000 RA OVC040 08/05 Q1032 PP068=
SPZO Ene2003-300800Z 00000KT 9999 -RA OVC040 07/05 Q1031 PP032=
SPZO Ene2003-300900Z 00000KT 9999 DZ SCT030 BKN040 07/05 Q1031 PP002=
SPZO Ene2003-301000Z VRB02KT 9999 FEW025 SCT037 BKN043 07/04 Q1031 PP002 RMK CLNG BLW 1200M=
SPZO Ene2003-301100Z VRB03KT 9999 FEW030 SCT040 BKN047 07/05 Q1032 PP000=
SPZO Ene2003-301138Z VRB01KT 9000E VCRA SCT037 BKN046 08/05 Q1033=
SPZO Ene2003-301200Z 00000KT 9000E FEW033 SCT040 BKN080 08/05 Q1033 NOSIG RMK PP000 BCBR/E=
SPZO Ene2003-301300Z 00000KT 9999 FEW035 SCT040 SCT050 09/05 Q1034 NOSIG RMK PP000=
SPZO Ene2003-301400Z VRB02KT 9999 SCT040 BKN050 11/06 Q1034 NOSIG RMK PP000=
SPZO Ene2003-301500Z VRB03KT 9999 FEW033 BKN046 13/05 Q1033 NOSIG RMK PP000=
SPZO Ene2003-301600Z VRB03KT 9999 FEW037TCU BKN046 14/05 Q1032 TEMPO VCRA RMK PP000=
SPZO Ene2003-301700Z 01008KT 320V050 9999 FEW043 BKN050 15/05 Q1031 NOSIG RMK PP000=
SPZO Ene2003-301800Z VRB04KT 9999 FEW043TCU BKN050 16/06 Q1030 NOSIG RMK PP000=
SPZO Ene2003-301900Z VRB03KT 9999 FEW040TCU BKN050 16/06 Q1O28 TEMPO VCSH RMK RWY10 02012KT PP000=
SPZO Ene2003-302000Z 21004KT 9000 -RA SCT040TCU SCT050 16/06 Q1027 PPTRZ=
SPZO Ene2003-302100Z 26008KT 9999 VC-RA SCT047 SCT150 16/07 Q1026 RERA PPTRZ=
SPZO Ene2003-302200Z VRB03KT 9999 SCT050 17/06 Q1026 PP000 TMAX 17.4=
SPZO Ene2003-302300Z 28009KT 9999 FEW050 SCT100 15/07 Q1026 PP000=
SPZO Ene2003-310000Z 30007KT 9999 FEW050 SCT200 14/06 Q1027 PP000=
SPZO Ene2003-310100Z 32004KT 9999 FEW060 13/06 Q1028 PP000=
SPZO Ene2003-310200Z 00000KT 9999 SCT050 13/07 Q1029 PP000=
SPZO Ene2003-310300Z 21004KT 9999 SCT050 12/07 Q1031 PP000=
SPZO Ene2003-310400Z VRB02KT 9999 FEW040 SCT050 09/05 Q1032 PP000=
SPZO Ene2003-310500Z 00000KT 9999 -RA BKN040 SCT050 08/06 Q1032 PP008=
SPZO Ene2003-310600Z 00000KT 9999 SCT040 SCT050 08/06 Q1031 PP006=
SPZO Ene2003-310700Z 00000KT 9999 -RA OVC040 11/08 Q1030 PP004=
SPZO Ene2003-310800Z VRB03KT 9999 -RA BKN037 SCT050 08/06 Q1030 PP008=
SPZO Ene2003-310900Z 00000KT 9999 DZ BKN037 SCT043 07/05 Q1030 PP008=
SPZO Ene2003-311000Z 00000KT 9000 DZ FEW030 SCT037 BKN043 07/06 Q1030 PP004 RMK CLNG BLW 1200M=
SPZO Ene2003-311100Z 00000KT 9000 -DZ FEW025 SCT033 BKN047 08/06 Q1031 PP002 RMK CLNG BLW 1200M=
SPZO Ene2003-311200Z 00000KT 9999 FEW025 SCT037 BKN047 08/06 Q1032 TEMPO FEW030 SCT040 BKN050 RMK PP001=
SPZO Ene2003-311224Z 00000KT 9999 SCT030 BKN047 09/06 Q1032=
SPZO Ene2003-311300Z VRB02KT 9999 SCT030 BKN043 09/06 Q1032 TEMPO BKN047 RMK PP000=
SPZO Ene2003-311400Z VRB03KT 9999 SCT030 BKN047 10/06 Q1032 NOSIG RMK PP000=
SPZO Ene2003-311500Z VRB02KT 9999 SCT033 BKN050 12/07 Q1032 NOSIG RMK PP000=
SPZO Ene2003-311600Z 07006KT 9999 FEW033TCU SCT047 SCT080 15/07 Q1031 NOSIG PP000=
SPZO Ene2003-311700Z 10006KT 9999 SCT040TCU SCT080 15/06 Q1030 TEMPO VCSH RMK RWY10 10017KT PP000=
SPZO Ene2003-311800Z VRB03KT 9999 FEW040TCU SCT050 17/05 Q1028
SPZO Ene2003-311900Z VRB03KT 9999 SCT040TCU SCT050 18/07 Q1027
SPZO Ene2003-312000Z 27018KT 9999 SCT040TCU SCT050 18/08 Q1026 NOSIG
SPZO Ene2003-312100Z 28011KT 9000W VC-RA FEW040TCU SCT050 18/08 Q1026
SPZO Ene2003-312200Z 28012KT 9999 SCT050 16/07 Q1026 PP000 TMAX 19.0=
SPZO Ene2003-312300Z 32009KT 9999 SCT047 15/07 Q1026 NOSIG PP000=
SPZO Feb2003-010000Z 270007KT 240V300 9999 BKN040 14/07 Q1027 PP000=
SPZO Feb2003-010100Z 27011KT 9999 BKN040 13/07 Q1028 RMK PP000=
SPZO Feb2003-010200Z 26007KT 230V290 9999 BKN040 13/07 Q1029 PP000=
SPZO Feb2003-010300Z 27007KT 240V300 9999 BKN040 11/06 Q1030 PP000=
SPZO Feb2003-010400Z 25004KT 230V300 9999 BKN040 10/06 Q1030 PP000=
SPZO Feb2003-010500Z 00000KT 9999 BKN040 10/07 Q1030 RMK PP000=
SPZO Feb2003-010600Z 00000KT 9999 BKN040 10/08 Q1029 RMK PP000=
SPZO Feb2003-010700Z 00000KT 9999 BKN040 10/07 Q1029 RMK PP000=
SPZO Feb2003-010800Z 00000KT 9999 BKN040 08/06 Q1029 RMK PP000=
SPZO Feb2003-010900Z 00000KT 9999 BKN040 09/06 Q1029 RMK PP000=
SPZO Feb2003-011000Z 00000KT 9999 BKN040 09/07 Q1030 RMK PP000=
SPZO Feb2003-011100Z 00000KT 9999 SCT040 08/06 Q1031 RMK PP000=
SPZO Feb2003-011200Z 00000KT 9999 SCT060 11/07 Q1032 NOSIG RMK PP000=
SPZO Feb2003-011300Z VRB02KT 9999 FEW043 13/06 Q1032 NOSIG RMK PP000=
SPZO Feb2003-011400Z 11004KT 030V190 9999 SCT043 14/06 Q1032 NOSIG RMK PP000=
SPZO Feb2003-011500Z VRB02KT 9999 FEW040 SCT047 15/05 Q1032 NOSIG RMK PP000=
SPZO Feb2003-011600Z VRB03KT 9999 FEW040 SCT047 17/05 Q1031 NOSIG RMK PP000=
SPZO Feb2003-011700Z VRB03KT 9999 FEW040 SCT047 17/05 Q1030 NOSIG RMK PP000=
SPZO Feb2003-011800Z 25005KT 140V320 9999 SCT043 19/03 Q1029 NOSIG RMK PP000=
SPZO Feb2003-011900Z 27008KT 210V330 9999 FEW043TCU SCT050 21/06 Q1027 TEMPO VCSH RMK PP000 RWY10 30016KT=
SPZO Feb2003-012000Z 31008KT 280V350 9999 SCT040TCU SCT050 18/04 Q1026 TEMPO RA RMK PP000=
SPZO Feb2003-012100Z VRB02KT 9999 SCT050 18/06 Q1025 NOSIG RMK PP000 TMAX:20.8=
SPZO Feb2003-012200Z 33009KT 9999 SCT050 20/05 Q1025 NOSIG RMK PP000=
SPZO Feb2003-012300Z 03004KT 350V080 9999 SCT050 17/05 Q1026 NOSIG RMK PP000=
SPZO Feb2003-020000Z 20003KT 120V280 9999 BKN040 15/07 Q1027 PP000=
SPZO Feb2003-020100Z 27002KT 200V340 9999 BKN040 15/06 Q1029 PP000=
SPZO Feb2003-020200Z VRB02KT 9999 BKN040 13/07 Q1030 RMK PP000=
SPZO Feb2003-020300Z VRB02KT 9999 BKN040 10/07 Q1031 RMK PP000=
SPZO Feb2003-020400Z 28002KT 9999 BKN040 10/07 Q1032 RMK PP000=
SPZO Feb2003-020500Z 29004KT 9999 BKN040 10/07 Q1031 RMK PP000=
SPZO Feb2003-020600Z 08004KT 060V140 9999 BKN040 11/08 Q1031 PP000=
SPZO Feb2003-020700Z VRB03KT 9999 BKN040 10/07 Q1031 RMK PP000=
SPZO Feb2003-020800Z VRB03KT 9999 BKN040 11/07 Q1030 RMK PP000=
SPZO Feb2003-020900Z 00000KT 9999 BKN040 10/07 Q1031 RMK PP000=
SPZO Feb2003-021000Z 00000KT 9999 BKN040 09/07 Q1031 RMK PP000=
SPZO Feb2003-021030Z 00000KT 9999 SCT040 09/06 Q1032=
SPZO Feb2003-021100Z 00000KT 9999 SCT040 09/07 Q1032 RMK PP000=
SPZO Feb2003-021200Z VRB01KT 9999 SCT040 SCT050 11/08 Q1033 NOSIG RMK PP000=
SPZO Feb2003-021300Z VRB01KT 9999 SCT043 SCT050 13/07 Q1033 NOSIG RMK PP000=
SPZO Feb2003-021400Z VRB03KT 9999 SCT046 14/07 Q1033 NOSIG RMK PP000=
SPZO Feb2003-021500Z VRB01KT 9999 SCT046 17/07 Q1032 NOSIG RMK PP000=
SPZO Feb2003-021600Z VRB02KT 9999 SCT047 SCT080 17/07 Q1032 PP000 TEMPO VCSH=
SPZO Feb2003-021700Z VRB02KT 9999 SCT040 SCT100 18/04 Q1030 PP000 NOSIG=
SPZO Feb2003-021800Z 01004KT 9999 SCT040 SCT100 20/06 Q1029 NOSIG PP000=
SPZO Feb2003-021900Z 36005KT 9999 SCT050 SCT080 20/06 Q1028 NOSIG PP000=
SPZO Feb2003-022000Z 36006KT 320V060 9999 VCSH SCT040 SCT050 17/07 Q1027 NOSIG PP002=
SPZO Feb2003-022100Z 20004KT 9999 VCSH SCT040 SCT050 21/04 Q1026 NOSIG PP000=
SPZO Feb2003-022200Z 06007KT 010V160 9999 BKN040 17/07 Q1026 NOSIG PP000 TMAX.21.2=
SPZO Feb2003-022300Z 26004KT 9999 SCT040 SCT050 17/07 Q1027 NOSIG PP000=
SPZO Feb2003-030000Z 16009KT 9999 SH SCT040TCU SCT050 15/05 Q1029 PP002=
SPZO Feb2003-030100Z 30007KT 8000 TSSH FEW030CB SCT040TCU SCT050 10/08 Q1031 PP102=
SPZO Feb2003-030200Z 00000KT 9999 -DZ FEW033TCU BKN047 11/08 Q1031 PP006=
SPZO Feb2003-030300Z VRB02KT 9999 SCT033 SCT043 11/08 Q1032 REDZ PPTRZ=
SPZO Feb2003-030400Z 00000KT 9999 SCT033 SCT043 10/08 Q1032 PP000=
SPZO Feb2003-030500Z 00000KT 9999 SCT033 BKN043 10/08 Q1032 PP000=
SPZO Feb2003-030600Z 00000KT 9999 SCT030 BKN040 11/08 Q1031 PP000=
SPZO Feb2003-030700Z 00000KT 9999 SCT030 SCT040 10/08 Q1030 PP000=
SPZO Feb2003-030800Z VRB03KT 9999 SCT030 BKN040 10/08 Q1030 PP000=
SPZO Feb2003-030900Z 000000KT 9999 FEW025 BKN037 10/08 Q1030 PP000=
SPZO Feb2003-031000Z 00000KT 9999 FEW030 BKN040 10/08 Q1031 PP000=
SPZO Feb2003-031100Z 00000KT 9999 FEW033 BKN043 10/08 Q1032 PP000=
SPZO Feb2003-031200Z VRB02KT 9999 VCRA SCT040 SCT046 11/08 Q1033 NOSIG RMK PP000=
SPZO Feb2003-031300Z VRB03KT 9999 SCT040 SCT046 12/07 Q1033 NOSIG RMK PP000=
SPZO Feb2003-031400Z VRB02KT 9999 SCT040 SCT050 14/06 Q1033 NOSIG RMK PP000=
SPZO Feb2003-031500Z 09004KT 020V190 9999 VCRA SCT040 BKN046 14/05 Q1033 NOSIG RMK PP000=
SPZO Feb2003-031600Z VRB02KT 9999 SCT040 SCT050 16/06 Q1032 NOSIG PP000=
SPZO Feb2003-031700Z 00000KT 9999 BKN040 SCT060 16/05 Q1031 NOSIG PP000=
SPZO Feb2003-031800Z 02005KT 9999 SCT040 SCT050 16/07 Q1030 NOSIG PP000=
SPZO Feb2003-031900Z VRB04KT 9999 SCT040 SCT050 18/07 Q1029 NOSIG RMK PP000=
SPZO Feb2003-032000Z 01009KT 320V080 9999 SCT043 18/06 Q1028 NOSIG RMK PP000=
SPZO Feb2003-032100Z 02011KT 310V070 9999 SCT047 19/05 Q1027 NOSIG RMK PP000=
SPZO Feb2003-032200Z 01011KT 340V050 9999 FEW047 18/05 Q1027 NOSIG RMK PP000 TMAX 19.7=
SPZO Feb2003-032300Z 01009KT 330V060 9999 SCT047 SCT300 17/04 Q1028 NOSIG RMK PP000=
SPZO Feb2003-040000Z 10006KT 9999 FEW040 SCT100 SCT200 15/04 Q1029 PP000=
SPZO Feb2003-040100Z 36008KT 9999 SCT040 SCT100 15/05 Q1030 PP000=
SPZO Feb2003-040200Z 23006KT 9999 FEW040 SCT150 13/05 Q1031 PP000=
SPZO Feb2003-040300Z 10005KT 9999 BKN040 12/03 Q1032 PP000=
SPZO Feb2003-040400Z VRB02KT 9999 BKN040 12/08 Q1032 PP000=
SPZO Feb2003-040500Z 00000KT 9999 SCT030 SCT040 12/06 Q1032 PP000=
SPZO Feb2003-040600Z 00000KT 9999 SCT030 BKN040 11/07 Q1031 PP000=
SPZO Feb2003-040700Z 00000KT 9999 SCT030 BKN040 10/07 Q1031 PP000=
SPZO Feb2003-040800Z VRB02KT 9999 SCT030 BKN040 11/07 Q1031 PP000=
SPZO Feb2003-040900Z 00000KT 9999 SCT030 SCT040 10/07 Q1031 PP000=
SPZO Feb2003-041000Z 00000KT 9999 SCT033 SCT043 10/07 Q1031 PP000=
SPZO Feb2003-041100Z 00000KT 9999 FEW040 SCT050 09/07 Q1032 PP000=
SPZO Feb2003-041200Z 00000KT 9999 FEW040 SCT080 10/07 Q1033 NOSIG RMK PP000=
SPZO Feb2003-041300Z 00000KT 9999 FEW043 SCT060 12/07 Q1033 NOSIG RMK PP000=
SPZO Feb2003-041500Z 08005KT 010V140 9999 SCT043 16/08 Q1033 NOSIG RMK PP000=
SPZO Feb2003-041600Z VRB03KT 9999 SCT043 SCT060 18/06 Q1032 NOSIG PP000=
SPZO Feb2003-041700Z 13004KT 060V230 9999 BKN050 19/07 Q1030 NOSIG PP000=
SPZO Feb2003-041800Z VRB03KT 9999 FEW040 SCT050 20/05 Q1028 NOSIG RMK PP000=
SPZO Feb2003-041900Z 01013KT 9999 SCT040 SCT050 18/06 Q1028 TEMPO FEW040TCU PP000=
SPZO Feb2003-041930Z 01013KT 9999 VCSH FEW040TCU BKN047 16/06 Q1027=
SPZO Feb2003-042000Z 01007KT 330V070 9999 VCSH SCT040TCU BKN047 16/07 Q1027 NOSIG PP000=
SPZO Feb2003-042030Z 16006KT 9999 -RA BKN040 SCT047 13/08 Q1028=
SPZO Feb2003-042100Z VRB03KT 9999 -RA BKN040 SCT050 13/08 Q1028 TEMPO FM2120 NSW PP008=
SPZO Feb2003-042200Z VRB02KT 9999 BKN043 SCT080 12/09 Q1028 NOSIG PP008 TMAX 20.9=
SPZO Feb2003-042300Z 11006KT 9999 BKN040 SCT050 12/09 Q1029 NOSIG PP000=
SPZO Feb2003-050000Z 00000KT 9999 OVC040 11/07 Q1030 RMK PP000=
SPZO Feb2003-050100Z 00000KT 5000 RA SCT030 BKN040 10/08 Q1031 PP022=
SPZO Feb2003-050200Z 09003KT 7000 -RA SCT030 BKN040 10/09 Q1032 PP020=
SPZO Feb2003-050300Z 09004KT 030V140 9000 FEW030 BKN040 10/08 Q1032 RERA PPTRZ=
SPZO Feb2003-050400Z VRB03KT 9999 FEW030 BKN040 10/08 Q1032 RMK PP000=
SPZO Feb2003-050500Z 00000KT 9999 OVC040 10/08 Q1032 RMK PP000=
SPZO Feb2003-050600Z 00000KT 9999 OVC040 10/08 Q1031 RMK PP000=
SPZO Feb2003-050700Z 00000KT 9999 OVC040 10/08 Q1031 RMK PP000=
SPZO Feb2003-050800Z 00000KT 9999 OVC040 09/08 Q1030 RMK PP000=
SPZO Feb2003-050900Z 00000KT 9999 OVC040 09/08 Q1030 RMK PP000=
SPZO Feb2003-051000Z 00000KT 9999 OVC040 10/08 Q1030 RMK PP000=
SPZO Feb2003-051100Z 00000KT 9999 BKN040 09/08 Q1031 RMK PP000=
SPZO Feb2003-051118Z VRB01KT 9000 FEW020 SCT080 10/08 Q1031 BECMG 9999=
SPZO Feb2003-051200Z 00000KT 9000 FEW020 SCT080 10/08 Q1031 BECMG 9999 RMK PP000=
SPZO Feb2003-051224Z 00000KT 9999 SCT030 12/08 Q1032=
SPZO Feb2003-051300Z VRB01KT 9999 SCT030 13/08 Q1032 NOSIG RMK PP000=
SPZO Feb2003-051400Z VRB02KT 9999 SCT033 SCT080 15/08 Q1032 NOSIG
SPZO Feb2003-051500Z VRB01KT 9999 SCT040 SCT080 17/06 Q1032 NOSIG
SPZO Feb2003-051600Z VRB03KT 9999 SCT040 SCT060 17/08 Q1031 NOSIG RMK PP000=
SPZO Feb2003-051700Z VRB04KT 9999 SCT040 SCT060 19/07 Q1030 NOSIG RMK PP000=
SPZO Feb2003-051800Z VRB02KT 9999 SCT040 SCT060 20/09 Q1029 NOSIG RMK PP000=
SPZO Feb2003-051900Z 29011KT 250V320 9999 TSVCRA SCT040TCU SCT050 16/08 Q1027 TEMPO RA RMK PP000=
SPZO Feb2003-051920Z 31011KT 9999 -RA SCT040 SCT050 15/09 Q1028=
SPZO Feb2003-052000Z 34005KT 290V050 9999 VCRA SCT040 SCT050 15/09
SPZO Feb2003-052100Z VRB02KT 9999 VCRA SCT043 BKN060 17/08 Q1026 NOSIG RMK PP000=
SPZO Feb2003-052200Z 09005KT 060V130 9999 VCRA SCT043 SCT050 15/10 Q1026 NOSIG RMK PP000 TMX: 20.6=
SPZO Feb2003-052300Z VRB02KT 9999 BKN060 16/08 Q1027 NOSIG RMKL PP000=
SPZO Feb2003-060000Z VRB03KT 9999 BKN050 13/08 Q1028 RMK PP000=
SPZO Feb2003-060100Z 00000KT 9999 BKN050 13/09 Q1028 RMK PP000=
SPZO Feb2003-060200Z 29002KT 9999 BKN040 11/09 Q1030 RMK PP000=
SPZO Feb2003-060300Z 00000KT 9999 BKN040 12/08 Q1030 RMK PP000=
SPZO Feb2003-060400Z 00000KT 9999 BKN040 11/08 Q1030 RMK PP000=
SPZO Feb2003-060500Z 00000KT 9999 BKN040 12/08 Q1030 RMK PP000=
SPZO Feb2003-060600Z VRB02KT 8000 -DZ OVC040 11/09 Q1030 RMK PPTRZ=
SPZO Feb2003-060700Z 00000KT 9000 OVC040 11/09 Q1029 RMK REDZ PP002=
SPZO Feb2003-060800Z 07004KT 8000 -RA SCT030 BKN040 11/09 Q1029 PP010=
SPZO Feb2003-060900Z 10008KT 050V140 8000 -RA FEW030 BKN040 09/07 Q1030 RMK PP006=
SPZO Feb2003-061000Z 11007KT 9000 FEW030 BKN040 09/07 Q1030 RERA RMK PP004=
SPZO Feb2003-061028Z 10006KT 8000 -RA FEW030 BKN040 09/07 Q1031=
SPZO Feb2003-061100Z 09004KT 060V120 9000 FEW030 BKN040 09/07 Q1030 RERA RMK PPTRZ=
SPZO Feb2003-061123Z 09004KT 9999 FEW033 SCT040 BKN050 09/07 Q1031=
SPZO Feb2003-061200Z VRB03KT 9999 SCT040 BKN060 09/07 Q1031 NOSIG RMK PP000 BCBR NE=
SPZO Feb2003-061300Z 00000KT 9999 FEW030 SCT040 BKN046 11/07 Q1032 NOSIG RMK PP000 BCBR NE=
SPZO Feb2003-061400Z VRB01KT 9999 FEW033 SCT040 BKN050 11/08 Q1032 NOSIG RMK PP000=
SPZO Feb2003-061500Z 00000KT 9999 FEW033 SCT043 BKN080 13/07 Q1032 NOSIG RMK PP000=
SPZO Feb2003-061600Z 10004KT 050V200 9999 FEW033 SCT040 BKN080 15/07 Q1031 NOSIG PP000=
SPZO Feb2003-061700Z VRB02KT 9999 SCT040 SCT080 17/07 Q1030 TEMPO VCRA PP000=
SPZO Feb2003-061800Z 29007KT 240V010 9999 VCSH BKN040 SCT100 18/10 Q1029 NOSIG PP000=
SPZO Feb2003-061900Z 30012KT 250V340 9999 SCT040 SCT100 18/08 Q1027 TEMPO VCSH PP000=
SPZO Feb2003-061915Z 28012KT 250V320 9999 SCT040 SCT100 18/08 Q1027 RMK RWY010 30022KT VRB 230V360=
SPZO Feb2003-062000Z 29012KT 240V340 9999 SCT040 SCT100 19/08 Q1027 TEMPO VCRA RMK RWY10 300/24KT 250V360 PP000=
SPZO Feb2003-062100Z 36008KT 280V090 9999 SCT040 SCT050 18/07 Q1026 NOSIG RMK RWY10 280/26KT 240V090 PP000=
SPZO Feb2003-062200Z 27014KT 240V310 9999 SCT040 SCT080 17/07 Q1026 BECMG FM2230 RWY10 34010KT RMK 29024KT
SPZO Feb2003-062300Z 26009KT 230V300 9999 SCT040 SCT050 16/07 Q1027 NOSIG RMK RWY 28018KT 230V330 PP000=
SPZO Feb2003-070000Z 10006KT 9999 BKN043 14/08 Q1028 PP000=
SPZO Feb2003-070100Z 00000KT 9999 BKN040 12/08 Q1029 PP000=
SPZO Feb2003-070200Z 00000KT 9999 BKN040 12/09 Q1030 PP000=
SPZO Feb2003-070300Z VRB02KT 9999 SCT037 11/08 Q1031 PP000=
SPZO Feb2003-070400Z 00000KT 9999 FEW033 SCT043 11/08 Q1031 PP000=
SPZO Feb2003-070500Z 00000KT 9999 SCT033 SCT043 12/08 Q1031 PP000=
SPZO Feb2003-070600Z 00000KT 9999 SCT033 BKN043 12/07 Q1030 PP000=
SPZO Feb2003-070700Z 00000KT 9999 SCT033 BKN043 12/08 Q1030 PP000=
SPZO Feb2003-070800Z 00000KT 9999 SCT030 SCT040 12/07 Q1029 PP000=
SPZO Feb2003-070900Z 11004KT 9999 SCT030 SCT040 11/08 Q1029 PP000=
SPZO Feb2003-071000Z 00000KT 9999 FEW030 BKN043 10/08 Q1029 PP000=
SPZO Feb2003-071100Z 00000KT 9999 FEW030 BKN043 10/08 Q1030 PP000=
SPZO Feb2003-071200Z 00000KT 9999 VCRA SCT043 BKN050 11/08 Q1031 NOSIG RMK PP000=
SPZO Feb2003-071300Z VRB02KT 9999 SCT040 BKN046 13/08 Q1032 NOSIG RMK PP000=
SPZO Feb2003-071400Z VRB02KT 9999 SCT040 SCT080 15/07 Q1032 NOSIG RMK PP000 BCBR NE=
SPZO Feb2003-071500Z VRB02KT 9999 FEW040 SCT050 16/07 Q1031 NOSIG RMK PP000=
SPZO Feb2003-071600Z VRB03KT 9999 SCT040 SCT050 19/07 Q1031 NOSIG PP000=
SPZO Feb2003-071700Z VRB05KT 9999 VCSH SCT040 SCT050 18/07 Q1030 NOSIG PP000=
SPZO Feb2003-071800Z 10008KT 060V140 9999 VCSH FEW040TCU BKN050 18/08 Q1029 TEMPO -RA PP000=
SPZO Feb2003-071900Z 27015KT 250V320 9999 SCT040TCU SCT050 14/07 Q1029 NOSIG RMK RWY10 30020KT 240V330 PP000=
SPZO Feb2003-072000Z 27011KT 9999 VCSH BKN043 SCT050 13/09 Q1029 NOSIG PPTRZ=
SPZO Feb2003-072100Z 27007KT 9999 BKN043 SCT050 14/09 Q1028 NOSIG PP000=
SPZO Feb2003-072200Z VRB03KT 9999 VCSH BKN040 SCT050 15/08 Q1028 NOSIG PP000 TMAX 19.6=
SPZO Feb2003-072300Z 01008KT 330V060 9999 VCSH BKN040 SCT050 14/07 Q1029 NOSIG PP000=
SPZO Feb2003-080000Z 10010KT 9000 -RA SCT030 BKN040 11/08 Q1030 PPTRZ=
SPZO Feb2003-080100Z 10005KT 9000 -RA SCT030 BKN040 10/08 Q1031 PP010=
SPZO Feb2003-080200Z 00000KT 9999 -DZ FEW020 SCT033 SCT050 10/08 Q1032 PP006=
SPZO Feb2003-080300Z 00000KT 9999 SCT030 BKN040 11/09 Q1033 REDZ PPTRZ=
SPZO Feb2003-080400Z 00000KT 9999 SCT030 BKN040 11/09 Q1033 PP000=
SPZO Feb2003-080500Z 00000KT 9999 SCT030 BKN040 11/09 Q1032 PP000=
SPZO Feb2003-080600Z 00000KT 9999 SCT030 SCT040 11/08 Q1031 PP000=
SPZO Feb2003-080700Z 00000KT 9999 -RA SCT030 BKN040 10/08 Q1031 PP010=
SPZO Feb2003-080800Z 27008KT 9999 FEW030 BKN040 10/07 Q1030 RERA PP006=
SPZO Feb2003-080900Z VRB02KT 9999 SCT030 SCT040 10/07 Q1030 PP000=
SPZO Feb2003-081000Z 00000KT 9999 SCT030 SCT040 10/07 Q1030 PP000=
SPZO Feb2003-081100Z 00000KT 9999 FEW037 BKN050 09/08 Q1031 PP000=
SPZO Feb2003-081200Z 00000KT 9999 FEW037 BKN050 10/07 Q1032 NOSIG RMK PP000=
SPZO Feb2003-081215Z 00000KT 9999 SCT037 BKN047 11/08 Q1032=
SPZO Feb2003-081240Z 00000KT 9999 -DZ SCT037 BKN050 1
SPZO Feb2003-081300Z 00000KT 9999 -DZ SCT037 BKN050 12/08 Q1033 TEMPO NSW SCT060 RMK PPTRZ=
SPZO Feb2003-081400Z 00000KT 9999 SCT033 SCT100 14/07 Q1033 NOSIG RMK PP000=
SPZO Feb2003-081500Z VRB03KT 9999 SCT037 SCT100 17/08 Q1033 NOSIG RMK PP000=
SPZO Feb2003-081600Z 35009KT 320V040 9999 VCSH SCT037 SCT100 15/08 Q1032 NOSIG PP000=
SPZO Feb2003-081700Z 36010KT 9999 VCSH SCT040 SCT100 18/07 Q1031 TEMPO -RA PP000=
SPZO Feb2003-081800Z 24009KT 210V310 9999 VCSH BKN040 SCT100 17/08 Q1030 NOSIG PP000=
SPZO Feb2003-081900Z 12006KT 080V170 9999 RA BKN040 SCT050 14/08 Q1030 TEMPO FM1920 NSW PPTRZ EMPEZO 1846=
SPZO Feb2003-082000Z 30007KT 250V330 9999 VCSH BKN040 SCT050 13/10 Q1030 NOSIG PP002=
SPZO Feb2003-082100Z 30007KT 9999 VCSH BKN040 SCT050 13/09 Q1029 NOSIG PP000=
SPZO Feb2003-082115Z 27005KT 9999 -RA BKN040 SCT047 12/09 Q1029=
SPZO Feb2003-082200Z VRB03KT 9999 DZ BKN043 SCT050 12/08 Q1029 NOSIG PP014 TMAX 18.6=
SPZO Feb2003-082300Z VRB01KT 9999 -DZ BKN040 SCT080 12/08 Q1029 NOSIG PP002=
SPZO Feb2003-090000Z 00000KT 9000 OVC040 11/09 Q1030 REDZ RMK PP002=
SPZO Feb2003-090100Z 10003KT 9999 OVC040 10/09 Q1031 RMK PP000=
SPZO Feb2003-090200Z 00000KT 9999 OVC040 11/09 Q1031 RMK PP000=
SPZO Feb2003-090300Z 00000KT 9999 OVC040 11/09 Q1032 RMK PP000=
SPZO Feb2003-090400Z 00000KT 9999 OVC040 11/09 Q1032 RMK PP000=
SPZO Feb2003-090500Z 36003KT 8000 -RA SCT030 BKN040 11/08 Q1032 PP004=
SPZO Feb2003-090600Z 27004KT 8000 -RA SCT030 BKN040 10/07 Q1032 PP020=
SPZO Feb2003-090700Z 29002KT 2300 +RA BKN030 SCT040 09/08 Q1032 PP064=
SPZO Feb2003-090800Z 25002KT 5000 +RA SCT030 SCT040 09/07 Q1031 PP052=
SPZO Feb2003-090900Z 21002KT 5000 RA SCT030 BKN040 09/07 Q1032 PP032=
SPZO Feb2003-091000Z 00000KT 5000 RA FEW030 BKN040 09/07 Q1032 PP028=
SPZO Feb2003-091100Z 00000KT 7000 -RA FEW030 SCT040 BKN050 08/07 Q1032 RMK PP008=
SPZO Feb2003-091108Z VRB02KT 9000 -RA FEW025 SCT040 B Q1032=
SPZO Feb2003-091136Z 00000KT 9999 FEW025 SCT040 BKN053 09/07 Q1033
SPZO Feb2003-091200Z VRB01KT 9999 FEW025 SCT040 BKN057 09/07 Q1033 TEMPO FEW030 BKN070 NOSIG RMK PP002=
SPZO Feb2003-091300Z VRB01KT 9999 FEW030 SCT043 BKN080 11/08 Q1033 TEMPO SCT033 RMK PP000=
SPZO Feb2003-091325Z VRB03KT 9999 SCT033 BKN080 12/07 Q1033=
SPZO Feb2003-091400Z 00000KT 9999 SCT033 BKN060 13/07 Q1033 NOSIG RMK PP000=
SPZO Feb2003-091500Z VRB02KT 9999 SCT037 BKN060 14/07 Q1033 NOSIG RMK PP000=
SPZO Feb2003-091600Z VRB03KT 9999 SCT040 BKN080 16/06 Q1032 NOSIG RMK PP000=
SPZO Feb2003-091700Z 27004KT 220V340 9999 SCT040 BKN080 17/08 Q1031 NOSIG RMK PP000=
SPZO Feb2003-091725Z VRB03KT 9999 SCT043 SCT060 18/07 Q1030=
SPZO Feb2003-091800Z VRB03KT 9999 SCT043 SCT060 17/07 Q1030 TEMPO VCSH RMK PP000=
SPZO Feb2003-091900Z VRB05KT 9999 VCRA SCT043 SCT050 17/09 Q1029 NOSIG RMK PP000=
SPZO Feb2003-092000Z VRB04KT 9999 VCRA FEW040TCU SCT060 20/08 Q1027 NOSIG RMK PP000 RWY10 04008KT=
SPZO Feb2003-092033Z 33008KT 9999 TSVCRA FEW040TCU SCT050 16/07 Q1027=
SPZO Feb2003-092100Z 35006KT 320V020 9999 VCRA FEW040TCU SCT046 17/08 Q1027 TEMPO -RA RMK PP000 RWY10 35009KT=
SPZO Feb2003-092200Z VRB02KT 9999 VCRA SCT043 SCT050 17/08 Q1027 NOSIG RMK PP000 TMX: 19.7=
SPZO Feb2003-092300Z 09005KT 9999 VCRA SCT043 SCT050 14/09 Q1027 NOSIG RMK PP000=
SPZO Feb2003-100000Z 11004KT 060V170 8000 -DZ OVC040 12/09 Q1029 RMK PP002=
SPZO Feb2003-100100Z VRB02KT 8000 -DZ OVC040 12/09 Q1030 RMK PP010=
SPZO Feb2003-100200Z VRB02KT 9999 OVC040 11/09 Q1031 REDZ RMK PPTRZ=
SPZO Feb2003-100300Z 09004KT 8000 -DZ OVC040 11/09 Q1031 RMK PP002=
SPZO Feb2003-100400Z 29002KT 8000 -DZ OVC040 11/09 Q1032 RMK PP004=
SPZO Feb2003-100500Z VRB03KT 8000 -DZ OVC040 11/08 Q1031 RMK PP002=
SPZO Feb2003-100600Z VRB02KT 9000 OVC040 11/08 Q1030 REDZ RMK PPTRZ=
SPZO Feb2003-100700Z 28008KT 9999 OVC040 10/07 Q1030 RMK PP000=
SPZO Feb2003-100800Z 27009KT 9999 OVC040 10/07 Q1030 RMK PP000=
SPZO Feb2003-100900Z 28006KT 250V320 9999 OVC040 10/06 Q1030 PP000=
SPZO Feb2003-101000Z 31004KT 9999 OVC040 10/06 Q1030 RMK PP000=
SPZO Feb2003-101100Z 10003KT 8000 OVC040 10/07 Q1031 BR RMK PP000=
SPZO Feb2003-101115Z 12005KT 8000 DZ SCT035 BKN043 09/07 Q1031=
SPZO Feb2003-101142Z 11005KT 7000E VCRA SCT030 BKN043 09/07 Q1032=
SPZO Feb2003-101200Z 11004KT 6000 -RA FEW025 SCT033 BKN046 09/07 Q1032 NOSIG RMK PP004 CLNG BLW 1200M=
SPZO Feb2003-101300Z 00000KT 7000 -RA FEW033 SCT037 BKN046 09/07 Q1033 BECMG AT 1340 NSW RMK PP0014 CLNG BLW 1200M=
SPZO Feb2003-101330Z 00000KT 7000 DZ FEW025 SCT037 BKN046 10/07 Q1033 RMK CLNG BELOW 1200M=
SPZO Feb2003-101400Z VRB02KT 9999 REDZ FEW030 SCT040 BKN046 10/07 Q1033 NOSIG RMK PP006 RWY WET BCBR NE-E=
SPZO Feb2003-101500Z VRB02KT 9999 FEW033 SCT043 BKN060 13/09 Q1032 NOSIG RMK PP000 RWY WET BCBR NE=
SPZO Feb2003-101600Z VRB03KT 9999 SCT040 BKN046 14/07 Q1032 TEMPO VCRA RMK PP000=
SPZO Feb2003-101700Z VRB02KT 9999 VCRA SCT040 BKN046 15/07 Q1031 NOSIG RMK PP000=
SPZO Feb2003-101800Z 29005KT 220V350 9999 VCRA SCT040 SCT050 17/07 Q1030 NOSIG RMK PP000 RWY10 30016KT 250V350=
SPZO Feb2003-101900Z 26005KT 190V350 9999 VCRA SCT040 19/09 Q1028 NOSIG RMK PP000 RWY10 25012KT 200V340=
SPZO Feb2003-102000Z 33016KT 290V010 7000 RA FEW037TCU SCT040 SCT046 13/08 Q1028 NOSIG RMK PP000 RWY10 04015KT 340V120=
SPZO Feb2003-102023Z 16006KT 090V220 9000 -RA FEW037TCU SCT040 BKN050 13/09 Q1028 RMK RWY10 12012KT=
SPZO Feb2003-102100Z 08007KT 050V120 9999 DZ SCT040 BKN050 12/09 Q1028 BECMG FM2130 NSW RMK PP082 RWY10 11009KT
SPZO Feb2003-102114Z 04004KT 9999 REDZ SCT040 SCT050 13/09 Q1028=
SPZO Feb2003-102200Z VRB02KT 9999 VCRA SCT040 BKN060 13/09 Q1028 NOSIG RMK PP004 TMX: 19.2=
SPZO Feb2003-102300Z 00000KT 9999 VCRA FEW040 BKN050 13/09 Q1028 NOSIG RMK PP000=
SPZO Feb2003-110000Z 00000KT 9999 BKN040 SCT080 13/10 Q1028 PP004=
SPZO Feb2003-110100Z 00000KT 9999 SCT040 SCT100 12/10 Q1029 PP000=
SPZO Feb2003-110200Z VRB02KT 9999 SCT050 SCT200 12/09 Q1030 PP000=
SPZO Feb2003-110300Z 00000KT 9999 FEW040 SCT100 10/09 Q1031 PP000=
SPZO Feb2003-110400Z VRB02KT 9999 FEW040 SCT050 10/08 Q1031 PP000=
SPZO Feb2003-110500Z 00000KT 9999 BKN040 10/09 Q1031 PP000=
SPZO Feb2003-110600Z 00000KT 9999 FEW040 SCT050 09/08 Q1030 PP000=
SPZO Feb2003-110700Z 00000KT 9999 SCT040 SCT050 09/08 Q1031 PP000=
SPZO Feb2003-110800Z 00000KT 9999 SCT040 SCT050 10/08 Q1029 PP000=
SPZO Feb2003-110900Z 00000KT 9999 BKN040 DVT050 10/08 Q1030 PP000=
SPZO Feb2003-111000Z 00000KT 9999 SCT040 SCT050 10/09 Q1030 PP000=
SPZO Feb2003-111035Z VRB02KT 9999 FEW025 SCT037 BKN047 10/09 Q1030 RMK CLNG BLW 1200M=
SPZO Feb2003-111100Z 00000KT 9000 FEW025 SCT037 BKN050 10/09 Q1030 PP000 RMK CLNG BLW 1200M=
SPZO Feb2003-111112Z 00000KT 9000 VCFG/E SCT040 BKN050 10/09 Q1030
SPZO Feb2003-111200Z VRB03KT 9000 FEW037 SCT040 BKN046 10/09 Q1031 NOSIG RMK PP000 BCBR N-NW=
SPZO Feb2003-111300Z 00000KT 9999 SCT040 SCT050 12/09 Q1031 NOSIG RMK PP000=
SPZO Feb2003-111400Z VRB02KT 9999 SCT040 SCT050 13/10 Q1032 NOSIG RMK PP000=
SPZO Feb2003-111500Z VRB02KT 9999 FEW040 SCT050 16/07 Q1031 NOSIG RMK PP000=
SPZO Feb2003-111600Z VRB03KT 9999 SCT050 19/07 Q1030 NOSIG RMK PP000=
SPZO Feb2003-111700Z VRB02KT 9999 SCT050 20/04 Q1029 NOSIG RMK PP000=
SPZO Feb2003-111800Z VRB04KT 9999 BKN050 21/05 Q1028 NOSIG RMK PP000=
SPZO Feb2003-111900Z VRB03KT 9999 BKN047 22/09 Q1026 NOSIG RMK PP000=
SPZO Feb2003-112000Z VRB03KT 9999 -SHRA SCT040 SCT050 21/07 Q1025 TEMPO NSW RMK PP000=
SPZO Feb2003-112100Z 35004KT 320V050 9999 SCT043 SCT300 19/07 Q1024 RE-SHRA NOSIG RMK PPTRZ=
SPZO Feb2003-112200Z 28012KT 250V320 9999 FEW040 SCT050 18/10 Q1024 NOSIG RMK CB DISTANTE AL S PP000 TMAX 22.9=
SPZO Feb2003-112300Z 30009KT 260V350 9999 FEW043 SCT300 17/08 Q1025 NOSIG RMK CB DISTANTE AL SW PP000=
SPZO Feb2003-120000Z 33006KT 9999 FEW040 SCT050 16/07 Q1026 PP000=
SPZO Feb2003-120100Z VRB02KT 9999 SCT050 14/09 Q1028 PP000=
SPZO Feb2003-120200Z 20004KT 9999 FEW040 SCT050 13/09 Q1029 PP000=
SPZO Feb2003-120300Z 00000KT 9999 FEW040 SCT050 12/09 Q1030 PP000=
SPZO Feb2003-120400Z 00000KT 9999 FEW040 SCT050 11/09 Q1030 PP000=
SPZO Feb2003-120500Z 00000KT 9999 SCT040 SCT080 11/08 Q1030 PP000=
SPZO Feb2003-120600Z 00000KT 9999 BKN040 12/09 Q1029 PP000=
SPZO Feb2003-120700Z 00000KT 9999 SCT043 SCT100 12/09 Q1029 PP000=
SPZO Feb2003-120800Z 00000KT 9999 BKN040 SCT050 12/09 Q1029 PP000=
SPZO Feb2003-120900Z 00000KT 9999 SCT040 SCT050 11/07 Q1029 PP000=
SPZO Feb2003-121000Z 00000KT 9999 FEW040 SCT050 11/07 Q1030 PP000=
SPZO Feb2003-121100Z VRB02KT 9999 FEW040 SCT050 10/07 Q1030 PP000=
SPZO Feb2003-121200Z VRB03KT 9999 FEW050 BKN300 11/08 Q1031 NOSIG RMK PP000=
SPZO Feb2003-121300Z VRB02KT 9999 FEW050 BKN300 14/07 Q1032 NOSIG RMK PP000=
SPZO Feb2003-121400Z VRB01KT 9999 FEW047 SCT080 BKN300 15/07 Q1032 NOSIG RMK PP000=
SPZO Feb2003-121500Z VRB01KT 9999 FEW047 BKN080 17/06 Q1032 NOSIG RMK PP000=
SPZO Feb2003-121600Z VRB03KT 9999 SCT043 SCT060 18/07 Q1031 NOSIG RMK PP000=
SPZO Feb2003-121700Z VRB03KT 9999 SCT040 SCT060 19/07 Q1030 NOSIG RMK PP000=
SPZO Feb2003-121739Z VRB03KT 9999 VCSH SCT040 SCT050TCU 20/07 Q1029=
SPZO Feb2003-121800Z 10006KT 060V150 8000 VCSH SCT040 SCT050TCU 18/08 Q1029 TEMPO 7000 -RA RMK PP000=
SPZO Feb2003-121805Z 11020KT 080V140 7000 TSRA SCT040 BKN050CB 12/08 Q1030 TEMPO FM1830 9000 NSW=
SPZO Feb2003-121815Z 16005KT 090V230 9999 -RA VCTS SCT040 BKN050CB 12/07 Q1029 RMK CB MOV AL SW=
SPZO Feb2003-121900Z 31007KT 280V360 9999 FEW040 BKN060 13/08 Q1029 NOSIG RMK PP018=
SPZO Feb2003-122000Z 31004KT 280V020 9999 FEW037 BKN100 16/07 Q1028 NOSIG RMK PP000=
SPZO Feb2003-122100Z 26004KT 190V350 9999 SCT043 SCT300 17/08 Q1027 NOSIG RMK PP000=
SPZO Feb2003-122200Z 29004KT 250V340 9999 SCT043 BKN300 17/07 Q1027 NOSIG RMK PP000 TMAX 21.2=
SPZO Feb2003-122300Z 32004KT 260V360 9999 FEW043 BKN300 15/08 Q1027 NOSIG RMK PP000=
SPZO Feb2003-130000Z VRB03KT 9999 SCT050 SCT100 14/09 Q1029 RMK PP000=
SPZO Feb2003-130100Z VRB01KT 9999 BKN050 SCT100 14/09 Q1030 RMK PP000=
SPZO Feb2003-130200Z VRB02KT 9999 BKN050 12/09 Q1031 RMK PP000=
SPZO Feb2003-130300Z VRB03KT 9999 BKN050 11/09 Q1032 RMK PP000=
SPZO Feb2003-130400Z 00000KT 9999 OVC050 11/09 Q1032 RMK PP000=
SPZO Feb2003-130500Z 00000KT 9999 OVC050 10/08 Q1032 RMK PP000=
SPZO Feb2003-130600Z 00000KT 9999 OVC050 10/09 Q1031 RMK PP000=
SPZO Feb2003-130700Z VRB02KT 9999 OVC050 10/08 Q1030 RMK PP000=
SPZO Feb2003-130800Z 25005KT 210V300 8000 -RA FEW030 SCT040 BKN050 11/07 Q1031 RMK PP006=
SPZO Feb2003-130900Z 25005KT 200V330 7000 -RA FEW030 SCT040 BKN050 11/07 Q1031 RMK PP002=
SPZO Feb2003-131000Z VRB03KT 8000 FEW030 SCT040 BKN050 11/07 Q1031 RERA RMK PPTRZ=
SPZO Feb2003-131033Z 08003KT 8000 -RA FEW030 SCT040 BKN050 10/08 Q1032=
SPZO Feb2003-131100Z 07006KT 9000 SCT040 BKN050 10/08 Q1032 RERA RMK PP002=
SPZO Feb2003-131118Z 08004KT 9000 -RA FEW043 OVC060 10/08 Q1
SPZO Feb2003-131200Z 00000KT 9999 -DZ FEW043 OVC060 10/08 Q1032 TEMPO NSW RMK PP002=
SPZO Feb2003-131220Z VRB01KT 9999 SCT060 OVC100 11/08 Q1033=
SPZO Feb2003-131300Z 10008KT 060V150 9999 SCT050 OVC100 11/07 Q1033 NOSIG RMK PPTRZ=
SPZO Feb2003-131400Z 13004KT 090V160 9999 SCT060 OVC100 13/06 Q1033 TEMPO BKN100 RMK PP000=
SPZO Feb2003-131500Z VRB03KT 9999 SCT060 OVC160 14/06 Q1033 TEMPO FEW050 SCT100 OVC300 RMK PP000=
SPZO Feb2003-131515Z 25005KT 200V300 9999 FEW060 SCT100 OVC300 16/07 Q1032=
SPZO Feb2003-131530Z VRB03KT 9999 FEW050 SCT100 BKN300 16/06 Q1032=
SPZO Feb2003-131600Z VRB03KT 9999 FEW050 SCT100 BKN300 16/07 Q1032 NOSIG RMK PP000=
SPZO Feb2003-131700Z VRB01KT 9999 SCT043 SCT100 BKN300 18/04 Q1031 NOSIG RMK PP000=
SPZO Feb2003-131800Z VRB03KT 9999 SCT043 BKN300 20/04 Q1030 NOSIG
SPZO Feb2003-131900Z VRB03KT 9999 SCT050 21/06 Q1028 NOSIG RMK PP000=
SPZO Feb2003-132000Z 28014KT 240V320 9999 SCT050 20/08 Q1027 NOSIG RMK
SPZO Feb2003-132100Z 28010KT 230V330 9999 SCT050 21/06 Q1026 NOSIG RMK
SPZO Feb2003-132200Z 03011KT 350V080 9000E -RA SCT040 SCT050 17/04
SPZO Feb2003-132300Z 10013KT 9999 RERA SCT043 SCT050 14/06 Q1027 NOSIG
SPZO Feb2003-140000Z 12005KT 080V160 9999 OVC050 13/07 Q1029
SPZO Feb2003-140100Z 04004KT 9999 OVC050 13/07 Q1030 RMK PP000=
SPZO Feb2003-140200Z VRB02KT 9999 OVC050 12/08 Q1031 RMK PP000=
SPZO Feb2003-140300Z 00000KT 9999 OVC050 11/08 Q1032 RMK PP000=
SPZO Feb2003-140400Z 00000KT 8000 -DZ OVC050 10/07 Q1032 RMK PPTRZ=
SPZO Feb2003-140500Z 00000KT 9999 OVC050 10/08 Q1031 REDZ RMK PP002=
SPZO Feb2003-140600Z 00000KT 9999 OVC050 10/07 Q1030 RMK PP000=
SPZO Feb2003-140700Z 00000KT 9999 OVC050 11/08 Q1030 RMK PP000=
SPZO Feb2003-140800Z 00000KT 9999 OVC050 11/08 Q1029 RMK PP000=
SPZO Feb2003-140900Z 00000KT 9999 OVC050 10/08 Q1029 RMK PP000=
SPZO Feb2003-141000Z VRB02KT 9999 OVC050 10/08 Q1029 RMK PP000=
SPZO Feb2003-141100Z 00000KT 9999 OVC050 09/07 Q1030 RMK PP000=
SPZO Feb2003-141200Z 00000KT 9999 SCT043 BKN050 10/08 Q1031 NOSIG RMK PP000=
SPZO Feb2003-141300Z 00000KT 9999 SCT043 BKN060 12/07 Q1032 NOSIG RMK PP000=
SPZO Feb2003-141400Z VRB02KT 9999 FEW040 BKN080 15/07 Q1032 NOSIG RMK PP000=
SPZO Feb2003-141500Z VRB03KT 9999 FEW040 SCT100 16/06 Q1031 NOSIG RMK PP000=
SPZO Feb2003-141600Z VRB04KT 999 SCT043 BKN100 17/07 Q1031 NOSIG RMK PP000=
SPZO Feb2003-141700Z VRB04KT 9999 FEW046 BKN100 18/08 Q1029 NOSIG RMK PP000 RWY10 08010KT=
SPZO Feb2003-141800Z 12004KT 030V190 9999 SCT046 SCT100 19/05 Q1027 NOSIG RMK PP000 RWY10 11007KT=
SPZO Feb2003-141900Z 01012KT 340V050 9999 SCT043 SCT050 17/07 Q1026 NOSIG RMK PP000 TEMPO VCRA RWY10 02019KT=
SPZO Feb2003-142000Z 32006KT 270V350 9999 VCRA SCT043 SCT050 17/07 Q1026 NOSIG RMK PP000 RWY10 29021KT=
SPZO Feb2003-142100Z 05007KT 010V080 9000/E VCRA BKN043 SCT050 16/06 Q1025 NOSIG RMK PP000=
SPZO Feb2003-142144Z 13011KT 7000E -RA SCT040 BKN046 12/07 Q1027=
SPZO Feb2003-142200Z 07007KT 010V100 7000 -RA SCT037 BKN046 12/08 Q1026 NOSIG RMK PP010 TMX:20.8=
SPZO Feb2003-142220Z VRB03KT 9000 RERA/VCRA SCT043 BKN046 12/07 Q1026=
SPZO Feb2003-142300Z 10011KT 9999 VCRA SCT043 OVC050 12/08 Q1027 NOSIG RMK PP004=
SPZO Feb2003-150000Z VRB03KT 9999 SCT040 BKN080 11/08 Q1028 PP000=
SPZO Feb2003-150100Z VRB02KT 8000 -RA BKN040 SCT050 11/09 Q1029 PP004=
SPZO Feb2003-150200Z VRB02KT 9999 FEW040 SCT080 11/08 Q1030 PPTRZ=
SPZO Feb2003-150300Z 00000KT 9999 SCT040 SCT070 11/09 Q1030 PP002=
SPZO Feb2003-150400Z 00000KT 9999 BKN040 SCT070 11/08 Q1030 PP000=
SPZO Feb2003-150500Z 120005KT 9999 BKN040 SCT050 11/09 Q1030 PP000=
SPZO Feb2003-150600Z 00000KT 9999 OVC040 10/09 Q1029 PP006 RA 0525/35=
SPZO Feb2003-150700Z 00000KT 9999 OVC040 10/09 Q1028 PP000=
SPZO Feb2003-150800Z 00000KT 9999 SCT040 SCT050 10/09 Q1027 PP000=
SPZO Feb2003-150900Z VRB03KT 9999 BKN040 SCT047 10/08 Q1027 PP002=
SPZO Feb2003-151000Z 00000KT 9999 FEW030 SCT040 BKN050 09/08 Q1028 PP000=
SPZO Feb2003-151100Z 00000KT 9999 FEW025 SCT040 BKN060 10/08 Q1028 PP000=
SPZO Feb2003-151200Z 00000KT 9000E FEW033 SCT043 BKN050 12/09 Q1029 NOSIG RMK PP000 BCBR E-NE=
SPZO Feb2003-151300Z VRB02KT 9999 FEW037 SCT043 14/09 Q1030 NOSIG RMK PP000=
SPZO Feb2003-151400Z VRB03KT 9999 FEW037 BKN043 14/09 Q1030 NOSIG RMK PP000=
SPZO Feb2003-151500Z VRB03KT 9999 SCT043 SCT050 15/08 Q1030 NOSIG RMK PP000=
SPZO Feb2003-151600Z VRB03KT 9999 VCRA SCT043 SCT050 18/05 Q1029 NOSIG RMK PP000=
SPZO Feb2003-151700Z VRB02KT 9999 SCT043 SCT050 18/08 Q1028 NOSIG RMK PP000=
SPZO Feb2003-151800Z 31006KT 250V350 9999 SCT043 BKN080 18/08 Q1027 TEMPO VCRA RMK PP000=
SPZO Feb2003-151900Z 30006KT 250V350 9999 FEW043 BKN100 18/08 Q1026 NOSIG RMK RWY10 29018KT 250V310 PP000=
SPZO Feb2003-152000Z 31005KT 250V360 9999 FEW043 BKN100 18/09 Q1025 NOSIG RMK PP000=
SPZO Feb2003-152100Z 27005KT 200V320 9999 FEW043 BKN100 19/08 Q1024 NOSIG RMK PP000=
SPZO Feb2003-152200Z 10009KT 070V130 9999 FEW043 BKN080 17/08 Q1024 NOSIG RMK PP000 TMAX 19.3=
SPZO Feb2003-152300Z 11004KT 070V150 9999 FEW043 BKN080 16/08 Q1025 NOSIG RMK PP000=
SPZO Feb2003-160000Z VRB03KT 9999 FEW043 SCT100 14/08 Q1025 PP000=
SPZO Feb2003-160100Z 00000KT 9999 FEW050 SCT100 13/09 Q1026 PP000=
SPZO Feb2003-160200Z 00000KT 9999 SCT200 12/08 Q1028 PP000=
SPZO Feb2003-160300Z 00000KT 9999 FEW050 SCT200 11/08 Q1029 PP000=
SPZO Feb2003-160400Z 00000KT 9999 FEW040 SCT100 10/08 Q1029 PP000=
SPZO Feb2003-160500Z 00000KT 9999 SCT040 09/07 Q1029 PP000=
SPZO Feb2003-160600Z 00000KT 9999 SCT050 09/07 Q1028 PP000=
SPZO Feb2003-160700Z 00000KT 9999 SCT040 SCT050 08/07 Q1028 PP000=
SPZO Feb2003-160800Z 00000KT 9999 SCT040 SCT100 08/07 Q1028 PP000=
SPZO Feb2003-160900Z 00000KT 9999 SCT040 SCT050 08/07 Q1028 PP000=
SPZO Feb2003-161000Z 00000KT 9999 SCT040 SCT050 09/07 Q1029 PP000=
SPZO Feb2003-161100Z 08004KT 9000 SCT050 SCT200 07/06 Q1029 PP000=
SPZO Feb2003-161114Z VRB03KT 8000 SCT050 SCT300 08/07 Q1029 RMK BR=
SPZO Feb2003-161200Z VRB02KT 9000 SCT040 SCT060 10/08 Q1030 BECMG 9999 RMK PP000=
SPZO Feb2003-161300Z 00000KT 9999 FEW043 SCT080 13/08 Q1031 NOSIG RMK PP000=
SPZO Feb2003-161400Z 00000KT 9999 SCT040 16/08 Q1031 NOSIG RMK PP000=
SPZO Feb2003-161500Z VRB03KT 9999 SCT040 17/08 Q1030 NOSIG RMK PP000=
SPZO Feb2003-161700Z VRB03KT 9999 SCT040 20/07 Q1029 NOSIG RMK PP000=
SPZO Feb2003-161800Z VRB03KT 9999 FEW040 SCT050 22/07 Q1026 NOSIG RMK PP000=
SPZO Feb2003-161900Z VRB03KT 9999 FEW043 SCT050 20/03 Q1025 TEMPO VCSH RMK TCU DISTANTES AL S/SE PP000=
SPZO Feb2003-162000Z 36012KT 320V050 9999 SCT043 20/05 Q1024 NOSIG RMK PP000=
SPZO Feb2003-162100Z 01010KT 320V070 9999 FEW040 SCT047TCU 20/05 Q1023 NOSIG RMK PP000=
SPZO Feb2003-162200Z VRB03KT 9999 FEW040 BKN050 19/07 Q1023 NOSIG RMK PP000 CB DISTANTE SE TMAX 22.1=
SPZO Feb2003-162300Z 08004KT 050V110 9999 SCT043 18/07 Q1023 NOSIG RMK PP000=
SPZO Feb2003-170000Z 36007KT 330V060 9999 SCT050 17/06 Q1024 PP000=
SPZO Feb2003-170100Z VRB03KT 9999 SCT050 15/07 Q1025 RMK PP000=
SPZO Feb2003-170200Z 00000KT 9999 BKN050 15/08 Q1027 RMK PP000=
SPZO Feb2003-170300Z 00000KT 9999 BKN050 14/08 Q1028 RMK PP000=
SPZO Feb2003-170400Z VRB01KT 9999 BKN050 14/08 Q1028 RMK PP000=
SPZO Feb2003-170500Z VRB02KT 8000 -DZ OVC050 13/09 Q1028 RMK PPTRZ=
SPZO Feb2003-170600Z 26011KT 230V340 1000 +RA BKN030 SCT050 09/06 Q1028 RMK PP120=
SPZO Feb2003-170700Z 25004KT 200V290 5000 RA SCT030 SCT050 09/07 Q1029 RMK PP034=
SPZO Feb2003-170800Z 00000KT 3900 RA SCT030 BKN050 09/07 Q1029 PP048=
SPZO Feb2003-170900Z 29007KT 5000 RA SCT030 BKN050 09/08 Q1029 PP040=
SPZO Feb2003-171000Z 26004KT 200V290 7000 -RA FEW030 BKN050 09/07 Q1030 RMK PP006=
SPZO Feb2003-171100Z 28005KT 250V320 8000 FEW030 SCT050 BKN060 09/07 Q1030 RERA RMK PPTRZ=
SPZO Feb2003-171120Z 28005KT 9999 -RA FEW030 SCT037 BKN043 09/07 Q1031 TEMPO 9000=
SPZO Feb2003-171138Z VRB03KT 9999 -DZ FEW030 SCT040 OVC080 10 Q1031=
SPZO Feb2003-171200Z VRB02KT 9999 FEW030 BKN040 OVC100 10/07 Q1031 REDZ TEMPO SCT040 BKN060 RMK PPTRZ=
SPZO Feb2003-171220Z VRB02KT 9999 FEW030 SCT040 BKN100 10/07 Q1031=
SPZO Feb2003-171300Z VRB01KT 9999 FEW033 SCT100 BKN300 12/07 Q1031 NOSIG RMK PP000=
SPZO Feb2003-171400Z VRB02KT 9999 SCT037 BKN300 14/07 Q1031 NOSIG RMK PP000=
SPZO Feb2003-171500Z VRB01KT 9999 SCT037 BKN047 15/07 Q1031 NOSIG RMK PP000=
SPZO Feb2003-171600Z 00000KT 9999 SCT040 SCT100 16/07 Q1030 NOSIG RMK PP000=
SPZO Feb2003-171700Z VRB03KT 9999 FEW040 SCT043 17/06 Q1029 NOSIG RMK PP000=
SPZO Feb2003-171800Z 09005KT 050V130 9999 VCSH FEW040 SCT043 18/09 Q1027 NOSIG RMK PP000=
SPZO Feb2003-171900Z 09008KT 060V120 9999 VCRA SCT040 SCT050 16/08 Q1026 NOSIG RMK PP000 RWY10 11021KT=
SPZO Feb2003-172000Z 09005KT 040V140 9999 SCT043 SCT060 18/07 Q1025 NOSIG RMK PP000=
SPZO Feb2003-172100Z VRB03KT 9999 SCT046 SCT100 20/06 Q1024 NOSIG RMK PP000=
SPZO Feb2003-172200Z 10008KT 9999 SCT040 SCT060 17/07 Q1024 NOSIG RMK PP000 TMX: 19.8=
SPZO Feb2003-172300Z 02004KT 320V070 9999 SCT040 BKN050 17/06 Q1025 NOSIG RMK PP000=
SPZO Feb2003-180000Z 03007KT 330V100 9999 OVC050 16/06 Q1026 PP000=
SPZO Feb2003-180100Z 25004KT 170V310 4400 +RA BKN030 SCT040 10/07 Q1030 RMK PP068=
SPZO Feb2003-180200Z 33007KT 290V360 7000 -RA SCT030 SCT040 10/07 Q1030 RMK PP022=
SPZO Feb2003-180300Z 00000KT 8000 FEW030 BKN040 11/07 Q1031 RERA RMK PPTRZ=
SPZO Feb2003-180400Z VRB02KT 9999 FEW030 BKN040 10/08 Q1031 RMK PP000=
SPZO Feb2003-180500Z 00000KT 9999 OVC040 10/07 Q1030 RMK PP000=
SPZO Feb2003-180600Z 28004KT 250V320 9999 OVC040 10/07 Q1030 PP000=
SPZO Feb2003-180700Z 00000KT 9999 OVC040 10/07 Q1029 RMK PP000=
SPZO Feb2003-180800Z 00000KT 9999 OVC040 10/07 Q1029 RMK PP000=
SPZO Feb2003-180900Z 27003KT 9999 OVC040 10/07 Q1029 RMK PP000=
SPZO Feb2003-181000Z VRB03KT 9999 BKN040 SCT050 10/07 Q1029 RMK PP000=
SPZO Feb2003-181100Z 07002KT 9999 SCT040 SCT050 BKN060 10/07 Q1029 RMK PP000=
SPZO Feb2003-181200Z VRB02KT 9999 VCRA SCT040 SCT046 10/08 Q1030 NOSIG RMK PP000=
SPZO Feb2003-181300Z VRB02KT 9999 FEW037 BKN050 12/07 Q1031 NOSIG RMK PP000=
SPZO Feb2003-181400Z VRB01KT 9999 SCT040 16/06 Q1030 NOSIG RMK PP000=
SPZO Feb2003-181500Z VRB03KT 9999 SCT040 SCT050 15/07 Q1030 TEMPO VCRA RMK PP000=
SPZO Feb2003-181600Z VRB03KT 9999 VCRA SCT040 SCT050 16/08 Q1029 NOSIG RMK PP000=
SPZO Feb2003-181700Z VRB04KT 9999 SCT040 SCT060 18/07 Q1028 NOSIG RMK PP000=
SPZO Feb2003-181800Z 07007KT 340V150 9999 VCRA SCT040TCU SCT046 16/08 Q1027 TEMPO RA RMK PP000 RWY10 30018KT=
SPZO Feb2003-181900Z 10008KT 060V160 8000E -RA SCT040TCU SCT050 13/08 Q1027 NOSIG RMK PP000=
SPZO Feb2003-182000Z 30004KT 250V030 9999 DZ SCT040 BKN046 13/08 Q1027 NOSIG RMK PP006=
SPZO Feb2003-182100Z 30004KT 240V340 9999 REDZ FEW040 BKN050 13/08 Q1026 NOSIG RMK PP002
SPZO Feb2003-182200Z 00000KT 9999 VCRA SCT040 BKN046 14/08 Q1027 TEMPO -RA RMK PP000 TMX:18.8=
SPZO Feb2003-182300Z 32006KT 9999 VCRA SCT040 BKN46 13/08 Q1027 NOSIG RMK PP000=
SPZO Feb2003-190000Z 00000KT 9999 SCT040 SCT050 12/08 Q1028 PP000=
SPZO Feb2003-190100Z 00000KT 9999 FEW040 SCT050 12/07 Q1029 PP000=
SPZO Feb2003-190200Z 00000KT 9999 FEW040 SCT080 12/08 Q1030 PP000=
SPZO Feb2003-190300Z 00000KT 9999 FEW040 SCT080 11/08 Q1030 PP000=
SPZO Feb2003-190400Z 00000KT 9999 FEW040 SCT060 11/09 Q1030 PP000=
SPZO Feb2003-190500Z VRB02KT 9999 SCT040 SCT050 11/09 Q1030 PP000=
SPZO Feb2003-190600Z 00000KT 9999 -RA BKN040 SCT050 10/08 Q1029 PP004=
SPZO Feb2003-190700Z VRB02KT 9999 OVC040 10/08 Q1029 PP006=
SPZO Feb2003-190800Z 00000KT 9999 BKN040 SCT050 10/08 Q1028 PP000=
SPZO Feb2003-190900Z 00000KT 9999 FEW030 OVC040 10/08 Q1028 PP002=
SPZO Feb2003-191000Z 00000KT 9999 BKN040 SCT050 10/08 Q1028 PP000=
SPZO Feb2003-191100Z 00000KT 9000 BKN040 SCT047 10/08 Q1029 PP000=
SPZO Feb2003-191200Z VRB03KT 9999 SCT040 BKN046 10/09 Q1030 NOSIG RMK PP000 BCBR NW-SW=
SPZO Feb2003-191300Z VRB01KT 9999 SCT040 BKN050 12/09 Q1030 NOSIG RMK PP000 BCBR E-NE=
SPZO Feb2003-191400Z VRB03KT 9999 FEW033 SCT040 SCT050 14/09 Q1030 NOSIG RMK PP000=
SPZO Feb2003-191500Z VRB01KT 9999 SCT040 BKN046 15/07 Q1030 NOSIG RMK PP000=
SPZO Feb2003-191600Z VRB02KT 9999 SCT040 BKN046 16/08 Q1029 NOSIG RMK PP000=
SPZO Feb2003-191700Z 25004KT 170V300 9999 SCT040 BKN046 17/07 Q1028 TEMPO VCRA RMK PP000=
SPZO Feb2003-191800Z 13004KT 050V190 9999 SCT043 SCT050 18/07 Q1027 NOSIG RMK PP000=
SPZO Feb2003-191900Z 32010KT 280V360 9000 SHRA SCT043TCU BKN047 17/07 Q1026 TEMPO FM1915 9999 NSW RMK PP000=
SPZO Feb2003-191927Z VRB04KT 9999 VCSH SCT043 BKN047 14/07 Q1027 RESHRA NOSIG RMK PP004=
SPZO Feb2003-192000Z VRB05KT 9000 VCSH SCT043 BKN047 16/08 Q1026 NOSIG RMK PP004=
SPZO Feb2003-192010Z 34008KT 290V030 9000 -RA SCT043 BKN050 14/08 Q1026 TEMPO FM2030 NSW=
SPZO Feb2003-192100Z VRB04KT 9999 -RA FEW033 BKN050 13/08 Q1026 BECMG NSW RMK PP002=
SPZO Feb2003-192200Z VRB03KT 9999 -DZ SCT043 BKN047 13/08 Q1026 NOSIG RMK PP002 TMAX 18.7=
SPZO Feb2003-192300Z VRB02KT 9999 -DZ SCT040 BKN047 13/09 Q1026 NOSIG RMK PPTRZ=
SPZO Feb2003-200000Z 31006KT 9999 -DZ SCT037 BKN047 12/09 Q1028 PP004=
SPZO Feb2003-200100Z 00000KT 9999 -RA OVC040 11/08 Q1028 PP008=
SPZO Feb2003-200200Z 00000KT 9999 BKN040 SCT100 11/09 Q1029 PPTRZ=
SPZO Feb2003-200300Z VRB02KT 9999 OVC043 11/09 Q1030 PP000=
SPZO Feb2003-200400Z 00000KT 9999 BKN040 SCT070 11/09 Q1030 PP000=
SPZO Feb2003-200500Z 00000KT 9999 BKN040 SCT070 11/09 Q1030 PP000=
SPZO Feb2003-200600Z 00000KT 9999 OVC040 11/09 Q1029 PP000=
SPZO Feb2003-200700Z 00000KT 9999 OVC043 11/09 Q1029 PP000=
SPZO Feb2003-200800Z VRB03KT 8000 RA OVC040 10/08 Q1028 PP014=
SPZO Feb2003-200900Z 00000KT 8000 -RA FEW025 OVC040 10/08 Q1029 PP042=
SPZO Feb2003-201000Z 09004KT 9999 FEW025 SCT040 BKN047 09/08 Q1029 PPTRZ=
SPZO Feb2003-201030Z VRB03KT 9000 FEW025 SCT037 BKN047 09/08 Q1030 RMK CLNG BLW 1200M=
SPZO Feb2003-201100Z VRB01KT 9999 FEW025 SCT037 BKN050 09/08 Q1030 PP000 RMK CLNG BLW 1200M=
SPZO Feb2003-201130Z VRB02KT 9999 FEW025 SCT037 BKN043 1 RMK RA SOBRE OROPESA=
SPZO Feb2003-201200Z VRB03KT 9999 SCT025 SCT040 BKN04 TEMPO BKN047 RMK RA Y NUB
SPZO Feb2003-201237Z 00000KT 9000 -RA SCT025 SCT040 BKN0 Q1031 TEMPO FM1310 9999 NSW BKN043=
SPZO Feb2003-201300Z VRB02KT 9000 -DZ SCT025 BKN043 12/09 Q1031 RERA TEMPO FM1310 9999 NSW RMK PP002=
SPZO Feb2003-201400Z VRB02KT 9999 SCT025 BKN047 13/07 Q1031 REDZ NOSIG RMK PPTRZ=
SPZO Feb2003-201500Z VRB02KT 9999 SCT033 SCT060 15/08 Q1031 TEMPO SCT040 RMK PP000=
SPZO Feb2003-201600Z 08005KT 340V130 9999 VCSH SCT040 SCT060 15/08
SPZO Feb2003-201624Z 07005KT 020V120 9000 VCSH BKN040 SCT047 15/08
SPZO Feb2003-201643Z 01007KT 320V140 8000 -RA BKN040 SCT047 13/08 Q1030=
SPZO Feb2003-201700Z 00000KT 8000 -RA SCT040 BKN047 17/08 Q1029
SPZO Feb2003-201715Z 23004KT 180V300 9999 VCSH SCT040 SCT047 14/08 Q1029=
SPZO Feb2003-201800Z VRB03KT 9999 -RA SCT043TCU SCT047 15/07 Q1028 TEMPO 9000 FM1820 NSW RMK TCU DISTANTES ESE Y S PPTRZ=
SPZO Feb2003-201815Z 27004KT 200V330 9999 VCSH SCT040 SCT047 1 Q1028 RERA=
SPZO Feb2003-201900Z 09005KT 050V140 8000 TSRA BKN043CB SCT047 16/09 Q1028 TEMPO 7000 RWY10 34021G34KT 270V050 RA INICIO 1854Z PPTRZ=
SPZO Feb2003-201940Z 17004KT 110V230 9000 VCSH BKN043 SCT047 1 Q1028=
SPZO Feb2003-202000Z VRB02KT 9000 VCSH BKN043 SCT047 13/08 Q1028 TEMPO 8000 -RA RMK PP030=
SPZO Feb2003-202032Z 00000KT 6000 RA SCT037 BKN043 12/09 Q1028=
SPZO Feb2003-202100Z 00000KT 7000 RA SCT040 BKN043 11/08 Q1028 TEMPO FM2130 9000 NSW RMK PP014=
SPZO Feb2003-202200Z 00000KT 9999 -RA FEW025 BKN043 12/09 Q1027
SPZO Feb2003-202300Z 00000KT 9999 SCT040 SCT047 12/09 Q1027 RERA NOSIG RMK PPTRZ=
SPZO Feb2003-210000Z 00000KT 9999 OVC040 12/09 Q1028 RMK PP000=
SPZO Feb2003-210100Z 00000KT 9999 OVC040 11/09 Q1029 RMK PP000=
SPZO Feb2003-210200Z 08002KT 9999 OVC040 11/09 Q1030 RMK PP000=
SPZO Feb2003-210300Z 00000KT 9999 OVC040 11/09 Q1030 RMK PP000=
SPZO Feb2003-210400Z 00000KT 8000 -DZ OVC040 11/10 Q1030 RMK PPTRZ=
SPZO Feb2003-210500Z 00000KT 9000 OVC040 11/09 Q1030 REDZ RMK PP002=
SPZO Feb2003-210600Z 00000KT 9999 OVC040 10/09 Q1030 RMK PP000=
SPZO Feb2003-210700Z 00000KT 9999 OVC040 09/08 Q1029 RMK PP000=
SPZO Feb2003-210800Z 00000KT 9999 OVC040 09/07 Q1029 RMK PP000=
SPZO Feb2003-210900Z 00000KT 9999 OVC040 09/08 Q1029 RMK PP000=
SPZO Feb2003-211000Z 00000KT 9999 OVC040 09/08 Q1029 RMK PP000=
SPZO Feb2003-211100Z 00000KT 9999 OVC040 09/08 Q1030 RMK PP000=
SPZO Feb2003-211123Z 00000KT 9999 FEW030 SCT037 BKN047 10/08 Q1030=
SPZO Feb2003-211200Z 00000KT 9000 FEW030 SCT037 BKN043 10/08 Q1031 BECMG 9999 VCRA RMK PP000=
SPZO Feb2003-211208Z VRB01KT 8000 VCRA SCT037 BKN047 11/08 Q1031=
SPZO Feb2003-211223Z 00000KT 9000 SCT033 BKN047 12/08 Q1031=
SPZO Feb2003-211300Z 00000KT 9999 SCT033 BKN043 12/08 Q1031 NOSIG RMK PP000=
SPZO Feb2003-211400Z VRB03KT 9999 SCT037 BKN047 14/09 Q1032 NOSIG RMK PP000=
SPZO Feb2003-211500Z VRB03KT 9999 VCSH SCT037 BKN043 15/09 Q1031 NOSIG RMK PP000=
SPZO Feb2003-211512Z 31005KT 240V350 8000 RA SCT037TCU BKN043 14/09 Q1031 TEMPO 7000=
SPZO Feb2003-211534Z 24005KT 200V090 9000 -RA SCT037 BKN043 12/09 Q1031 RMK RWY10 23014KT=
SPZO Feb2003-211600Z 23004KT 150V300 9000 VCSH SCT040TCU SCT043 14/09 Q1031 NOSIG RMK PP012=
SPZO Feb2003-211620Z VRB02KT 8000 -RA SCT037 FEW040TCU SCT047 14/09 Q1031 RMK TCU E=
SPZO Feb2003-211700Z VRB03KT 8000 TSRA SCT037CB BKN043 13/07 Q1030 TEMPO 7000 PP008=
SPZO Feb2003-211737Z 26006KT 220V300 9000 -RA FEW030 SCT040 BKN043 11/07 Q1030=
SPZO Feb2003-211800Z 25006KT 210V280 9000 -RA FEW030 SCT040 BKN043 11/08 Q1030 TEMPO 8000 RMK PP010=
SPZO Feb2003-211827Z VRB02KT 9000E VCRA SCT037 SCT046 15/10 Q1029=
SPZO Feb2003-211900Z VRB02KT 9999 VCRA/E FEW037 SCT046 16/09 Q1028 NOSIG RMK PP000=
SPZO Feb2003-212000Z 33004KT 290V020 9000 VCRA SCT040TCU SCT046 16/08 Q1027 NOSIG RMK PP000=
SPZO Feb2003-212100Z VRB03KT 9999 VCRA SCT040 15/07 Q1026 NOSIG RMK PP000=
SPZO Feb2003-212200Z 28005KT 9999 VCRA BKN040 15/08 Q1026 NOSIG RMK PP000 TMX: 16.3=
SPZO Feb2003-212300Z VRB03KT 9999 BKN043 14/07 Q1026 NOSIG RMK PP000=
SPZO Feb2003-220000Z 00000KT 9999 OVC040 14/09 Q1028 RMK PP000=
SPZO Feb2003-220100Z 21004KT 110V270 4200 +RA SCT030TCU BKN040 12/09 Q1029 RMK PP0052=
SPZO Feb2003-220200Z 26002KT 5000 +RA SCT030TCU BKN040 10/08 Q1030 RMK PP054=
SPZO Feb2003-220300Z 21002KT 8000 -RA FEW030 BKN040 10/08 Q1031 PP006=
SPZO Feb2003-220400Z 00000KT 9000 FEW030 BKN040 10/08 Q1031 RERA
SPZO Feb2003-220500Z 00000KT 9999 OVC040 10/08 Q1030 RMK PP000=
SPZO Feb2003-220600Z 10002KT 7000 -RA SCT030 BKN040 10/09 Q1030 PP004=
SPZO Feb2003-220700Z VRB01KT 7000 -RA SCT030 BKN040 10/09 Q1030
SPZO Feb2003-220800Z VRB02KT 4400 RA SCT030TCU BKN040 10/08 Q1030 RMK PP026=
SPZO Feb2003-220900Z 05004KT 9000 SCT030 BKN040 09/08 Q1030 RERA RMK PP012=
SPZO Feb2003-221000Z 10003KT 9999 FEW030 BKN040 09/07 Q1030 RMK PP000=
SPZO Feb2003-221100Z 00000KT 9999 FEW030 BKN040 OVC050 09/07 Q1031 RMK PP000=
SPZO Feb2003-221136Z VRB01KT 9000E VCRA FEW033 SCT040 BKN046 10/08 Q1031=
SPZO Feb2003-221200Z VRB03KT 9000E VCRA SCT037 BKN046 10/08 Q1031 BECMG FM13 SCT040 RMK PP000=
SPZO Feb2003-221230Z VRB02KT 9999 VCRA SCT037 BKN046 10/07 Q1032=
SPZO Feb2003-221300Z VRB03KT 9999 SCT037 BKN046 11/07 Q1032 BECMG FM1330 SCT040 RMK PP000=
SPZO Feb2003-221330Z VRB03KT 9999 FEW033 SCT040 SCT050 12/08 Q1033=
SPZO Feb2003-221400Z 11004KT 060V200 9999 VCRA FEW033 SCT040 BKN050 12/07 Q1033 NOSIG RMK PP000=
SPZO Feb2003-221500Z 10005KT 050V160 9999 SCT040 SCT050 14/07 Q1032 NOSIG RMK PP000=
SPZO Feb2003-221526Z 09005KT 9000E VCRA FEW037 SCT040 SCT046 14/08 Q1032=
SPZO Feb2003-221600Z 08006KT 040V150 9999 VCRA FEW037 SCT040 15/08 Q1032 NSOIG RMK PP000=
SPZO Feb2003-221620Z 09004KT 9000 -RA SCT040 BKN046 14/08 Q1032=
SPZO Feb2003-221622Z 31007KT 7000 -RA SCT037 BKN046 12/08 Q1032=
SPZO Feb2003-221700Z 29006KT 7000 -RA SCT037 BKN043 11/09 Q1032 BECMG AT 1745 9000 SCT040 BKN046 RMK PP0014 COR RWY WET=
SPZO Feb2003-221728Z VRB03KT 8000 -RA FEW033 SCT037 BKN046 11/08 Q1031=
SPZO Feb2003-221800Z VRB03KT 9999 RERA SCT040 SCT050 13/08 Q1031 NOSIG RMK PP018 RWY WET=
SPZO Feb2003-221900Z 28004KT 9999 DZ FEW037 SCT040 SCT046 14/08 Q1029 NOSIG RMK PP000=
SPZO Feb2003-222000Z VRB03KT 9999 VCRA SCT040 SCT050 15/08 Q1028 NOSIG RMK PPTRZ=
SPZO Feb2003-222100Z VRB03KT 9999 VCRA BKN040 15/08 Q1027 NOSIG RMK PP000=
SPZO Feb2003-222200Z VRB02KT 9999 SCT043 17/08 Q1027 NOSIG RMK PP000 TMAX:17.4=
SPZO Feb2003-222300Z VRB03KT 9999 VCRA BKN043 15/09 Q1028 NOSIG RMK PP000=
SPZO Feb2003-230000Z 29004KT 9999 SCT040 SCT046 14/08 Q1029 PP000=
SPZO Feb2003-230100Z 36004KT 9999 -RA SCT030 BKN043 13/08 Q1030 PP002=
SPZO Feb2003-230200Z 08004KT 9999 RERA BKN040 SCT070 11/08 Q1031 PP002=
SPZO Feb2003-230300Z 00000KT 9999 BKN040 SCT070 11/08 Q1032 PP000=
SPZO Feb2003-230400Z VRB03KT 9999 BKN040 SCT050 11/08 Q1032 PP000=
SPZO Feb2003-230500Z VRB02KT 9999 OVC040 10/08 Q1032 PP000=
SPZO Feb2003-230600Z 00000KT 9999 OVC040 09/08 Q1032 PP000=
SPZO Feb2003-230700Z 00000KT 9999 SCT030 BKN040 10/08 Q1031 PP002=
SPZO Feb2003-230800Z 00000KT 9999 SCT030 BKN043 10/08 Q1031 PP000=
SPZO Feb2003-230900Z 00000KT 9999 SCT030 BKN043 10/08 Q1031 PP000=
SPZO Feb2003-231000Z 00000KT 9999 FEW030 SCT043 BKN050 10/08 Q1031 PP000=
SPZO Feb2003-231100Z VRB03KT 9999 FEW030 SCT040 BKN046 10/09 Q1032 PP000=
SPZO Feb2003-231200Z VRB02KT 9999 FEW037 BKN043 10/09 Q1033 NOSIG RMK PP000=
SPZO Feb2003-231300Z VRB03KT 9999 FEW037 SCT043 14/08 Q1034 NOSIG RMK PP000=
SPZO Feb2003-231400Z VRB03KT 9999 SCT043 16/08 Q1034 NOSIG RMK PP000=
SPZO Feb2003-231500Z VRB03KT 9999 SCT046 18/06 Q1033 NOSIG RMK PP000=
SPZO Feb2003-231600Z VRB04KT 9999 SCT050 18/09 Q1032 NOSIG RMK PP000=
SPZO Feb2003-231700Z VRB03KT 9999 FEW040TCU SCT050 19/07 Q1031 TEMPO VCRA RMK PP000=
SPZO Feb2003-231800Z 32008KT 280V360 9999 VCRA SCT040TCU BKN050 TEMPO
SPZO Feb2003-231900Z 03011KT 300V080 9999 SCT043 SCT100 19/07 Q1029
SPZO Feb2003-232000Z 34006KT 260V040 9999 SCT043 SCT100 20/06 Q1028
SPZO Feb2003-232100Z 36008KT 320V060 9999 VCSH FEW043TCU FEW047 BKN100
SPZO Feb2003-232200Z 13005KT 100V160 9999 SCT043 BKN100 17/08 Q1028
SPZO Feb2003-232300Z 02005KT 330V070 9999 FEW040 BKN043 16/07 Q1029
SPZO Feb2003-240000Z 16004KT 9999 SCT040 SCT046 15/07 Q1030 PP000=
SPZO Feb2003-240100Z VRB02KT 9999 FEW040 SCT050 13/07 Q1032 PP000=
SPZO Feb2003-240200Z VRB01KT 9999 SCT040 13/06 Q1032 PP000=
SPZO Feb2003-240300Z 00000KT 9999 SCT050 11/08 Q1033 PP000=
SPZO Feb2003-240400Z 00000KT 9999 FEW040 SCT050 11/08 Q1033 PP000=
SPZO Feb2003-240500Z 00000KT 9999 SCT037 SCT050 10/07 Q1033 PP000=
SPZO Feb2003-240600Z 00000KT 9999 BKN037 SCT046 09/07 Q1033 PP000=
SPZO Feb2003-240700Z 00000KT 9999 BKN040 09/07 Q1033 PP000=
SPZO Feb2003-240800Z 00000KT 9999 SCT050 08/06 Q1033 PP000=
SPZO Feb2003-240900Z 00000KT 9999 SCT050 08/07 Q1033 PP000=
SPZO Feb2003-241000Z VRB03KT 9999 SCT040 SCT050 08/07 Q1033 PP000=
SPZO Feb2003-241100Z 00000KT 9999 FEW040 SCT050 08/06 Q1034 PP000=
SPZO Feb2003-241200Z 00000KT 9000 FEW040 BKN300 09/07 Q1034 BECMG 9999 RMK PP000=
SPZO Feb2003-241300Z 01005KT 060V120 9999 FEW040 BKN300 11/07 Q1035 TEMPO SCT040 SCT300 RMK PP000=
SPZO Feb2003-241400Z 08004KT 360V170 9999 SCT040 14/08 Q1035 NOSIG RMK PP000=
SPZO Feb2003-241500Z 09004KT 030V140 9999 FEW040 SCT043 15/07 Q1034 NOSIG RMK PP000=
SPZO Feb2003-241600Z 08004KT 020V170 9999 FEW040 SCT043 17/07 Q1033 NOSIG RMK PP000=
SPZO Feb2003-241700Z 10007KT 020V140 9999 FEW040 SCT047 19/06 Q1032 NOSIG RMK PP000=
SPZO Feb2003-241800Z VRB04KT 9999 FEW040 SCT050 20/06 Q1030 NOSIG RMK PP000=
SPZO Feb2003-241900Z 01010KT 320V070 9999 FEW040 SCT050 21/05 Q1029 NOSIG RMK PP000=
SPZO Feb2003-242000Z 01011KT 340V050 9999 FEW040 SCT050 20/06 Q1028 NOSIG RMK PP000=
SPZO Feb2003-242100Z 04007KT 340V070 9999 SCT043 20/05 Q1027 NOSIG RMK PP000=
SPZO Feb2003-242200Z 01010KT 300V050 9999 SCT043 SCT300 18/04 Q1027 NOSIG RMK PP000 TMAX 21.1=
SPZO Feb2003-242300Z VRB04KT 9999 SCT043 SCT300 17/06 Q1028 NOSIG RMK PP000=
SPZO Feb2003-250000Z 03007KT 320V080 9999 BKN050 15/06 Q1030 PP000=
SPZO Feb2003-250100Z 00000KT 9999 BKN050 14/07 Q1031 RMK PP000=
SPZO Feb2003-250200Z 00000KT 9999 BKN050 13/07 Q1032 RMK PP000=
SPZO Feb2003-250300Z 00000KT 9999 BKN050 12/07 Q1033 RMK PP000=
SPZO Feb2003-250400Z 00000KT 9999 BKN050 10/07 Q1033 RMK PP000=
SPZO Feb2003-250500Z 00000KT 9999 BKN050 10/08 Q1032 RMK PP000=
SPZO Feb2003-250600Z 00000KT 9999 BKN050 10/07 Q1032 RMK PP000=
SPZO Feb2003-250700Z 00000KT 9999 BKN050 09/07 Q1032 RMK PP000=
SPZO Feb2003-250800Z 00000KT 9999 BKN050 09/07 Q1031 RMK PP000=
SPZO Feb2003-250900Z 00000KT 9999 BKN050 09/07 Q1031 RMK PP000=
SPZO Feb2003-251000Z 00000KT 9999 BKN050 08/07 Q1032 RMK PP000=
SPZO Feb2003-251100Z 10002KT 9999 BKN050 08/07 Q1032 RMK PP000=
SPZO Feb2003-251120Z VRB01KT 9000 SCT037 BKN043 09/07 Q1032=
SPZO Feb2003-251200Z VRB02KT 9999 SCT040 BKN043 09/07 Q1033 NOSIG RMK PP000=
SPZO Feb2003-251236Z VRB01KT 9999 SCT040 SCT080 13/08 Q1033=
SPZO Feb2003-251300Z VRB01KT 9999 SCT040 SCT080 13/07 Q1033 NOSIG RMK PP000=
SPZO Feb2003-251330Z VRB01KT 9999 BKN040 SCT060 14/07 Q1033=
SPZO Feb2003-251400Z VRB03KT 9999 BKN040 SCT043 14/06 Q1033 NOSIG RMK PP000=
SPZO Feb2003-251500Z VRB02KT 9999 FEW040 BKN047 16/08 Q1033 NOSIG RMK PP000=
SPZO Feb2003-251600Z VRB03KT 9999 SCT040 SCT050 17/08 Q1032 NOSIG RMK PP000=
SPZO Feb2003-251700Z 29008KT 250V340 9999 SCT043TCU SCT050 16/07 Q1031 TEMPO VCSH RMK RWY10 29020G34KT 240V340 PP000=
SPZO Feb2003-251800Z 31006KT 260V010 9999 VCSH SCT043 FEW050TCU SCT100 17/07 Q1030 NOSIG RMK PP000=
SPZO Feb2003-251900Z VRB03KT 9999 VCRA BKN050 19/08 Q1028 NOSIG RMK PP000=
SPZO Feb2003-252000Z 29011KT 240V330 9999 VCRA FEW043TCU BKN050 17/06 Q1027 NOSIG RMK PP000=
SPZO Feb2003-252100Z 35006KT 320V020 9999 VCRA SCT043 SCT050 16/07 Q1026 TEMPO -RA RMK PP000 TMX:19.3=
SPZO Feb2003-252200Z 35006KT 320V020 9999 VCRA SCT043 SCT050 16/07 Q1026 TEMPO -RA RMK PP000 TMX:19.3=
SPZO Feb2003-252236Z 10004KT 8000 -RA SCT040 SCT046 14/09 Q1027=
SPZO Feb2003-252300Z 18004KT 140V210 9000 -RA SCT040 BKN050 14/08 Q1027 RMK PPTRZ=
SPZO Feb2003-260000Z 11003KT 9000 FEW030 BKN040 12/08 Q1029 RERA RMK PP004=
SPZO Feb2003-260100Z 11013KT 5000 RA SCT030 SCT040 10/07 Q1031 PP012=
SPZO Feb2003-260200Z 08003KT 8000 -RA SCT030 BKN040 09/07 Q1032 PP016=
SPZO Feb2003-260300Z 10004KT 8000 RA SCT030 BKN040 09/07 Q1033 PP024=
SPZO Feb2003-260400Z 00000KT 8000 -RA FEW030 BKN040 09/07 Q1032 PP004=
SPZO Feb2003-260500Z 00000KT 8000 -RA FEW030 BKN040 09/07 Q1032 PP006=
SPZO Feb2003-260600Z 00000KT 9000 OVC040 09/07 Q1031 RERA RMK PP002=
SPZO Feb2003-260700Z 00000KT 9999 OVC040 09/07 Q1030 RMK PP000=
SPZO Feb2003-260800Z 00000KT 9999 OVC040 09/07 Q1030 RMK PP000=
SPZO Feb2003-260900Z 00000KT 7000 -DZ OVC040 09/07 Q1030 RMK PP002=
SPZO Feb2003-261000Z 00000KT 8000 OVC040 09/07 Q1030 REDZ RMK PPTRZ=
SPZO Feb2003-261100Z 08003KT 9000 SCT030 BKN040 OVC050 09/07 Q1030
SPZO Feb2003-261118Z 10004KT 9999 FEW033 SCT040 BKN046 09/07 Q1031=
SPZO Feb2003-261200Z 10004KT 060V130 9999 FEW033 SCT040 SCT050 10/07 Q1031 RMK PP000 BCBRE NW-SW=
SPZO Feb2003-261300Z 10004KT 050V140 9999 FEW030 SCT040 SCT050 11/08 Q1032 NOSIG RMK PP000 BCBR NE,W=
SPZO Feb2003-261400Z VRB02KT 9999 FEW037 SCT060 14/07 Q1031 NOSIG RMK PP000 BCBR NE=
SPZO Feb2003-261500Z VRB05KT 9999 SCT050 15/08 Q1031 NOSIG RMK PP000=
SPZO Feb2003-261600Z VRB03KT 9999 SCT040 16/08 Q1029 NOSIG RMK PP000=
SPZO Feb2003-261700Z VRB03KT 9999 SCT046 18/08 Q1028 NOSIG RMK PP000=
SPZO Feb2003-261800Z VRB04KT 9999 BKN046 20/07 Q1026 TEMPO VCRA RMK PP000=
SPZO Feb2003-261900Z VRB03KT 9999 BKN050 20/05 Q1024 NOSIG RMK PP000=
SPZO Feb2003-262000Z 01010KT 320V060 9999 BKN043 20/07 Q1023 TEMPO VCRA RMK PP000 RWY10 02018KT=
SPZO Feb2003-262100Z VRB08KT 8000 TSRA SCT040TCU SCT046 16/08 Q1024 BECMG AT 2140 NSW PP000 RWY10 35006KT=
SPZO Feb2003-262200Z 26006KT 210V330 9999 VCRA SCT040 BKN046 14/09 Q1024 NOSIG RMK PP002 RWY10 23009KT TMX:20.7=
SPZO Feb2003-262300Z VRB03KT 9999 SCT040 BKN046 14/08 Q1026 NOSIG RMK PP000=
SPZO Feb2003-270000Z 25008KT 9999 -RA BKN040 SCT050 13/08 Q1026 PPTRZ=
SPZO Feb2003-270010Z 27009KT 9999 VCSH BKN040 SCT050 13/09 Q1027=
SPZO Feb2003-270100Z 32005KT 9999 SCT040 SCT050 13/08 Q1027 PPTRZ=
SPZO Feb2003-270200Z 28011KT 9999 SCT030 BKN040 12/07 Q1029 PP000=
SPZO Feb2003-270300Z 36004KT 9999 OVC040 12/08 Q1030 PP000=
SPZO Feb2003-270400Z 00000KT 9999 OVC040 11/06 Q1030 PP000=
SPZO Feb2003-270500Z 09006KT 9999 DZ OVC040 10/07 Q1030 PP000=
SPZO Feb2003-270600Z 00000KT 9999 DZ OVC040 09/07 Q1030 PP004=
SPZO Feb2003-270700Z 00000KT 9999 SCT030 BKN040 08/06 Q1030 PPTRZ=
SPZO Feb2003-270800Z 09004KT 9999 SCT030 BKN043 08/06 Q1029 PP000=
SPZO Feb2003-270900Z 10006KT 9999 -RA OVC040 08/06 Q1029 PP002=
SPZO Feb2003-271000Z 10005KT 9999 FEW025 SCT040 BKN043 08/06 Q1030 PP000=
SPZO Feb2003-271100Z 11004KT 9000E FEW025 SCT037 BKN046 08/06 Q1030 PPTRZ RMK CLNG BLW 1200M 1200M=
SPZO Feb2003-271200Z 10005KT 060V130 9000 DZ FEW025 SCT035 BKN046 08/06 Q1031 NOSIG RMK PP000 CLNG BLW 1200M=
SPZO Feb2003-271243Z 11006KT 9999 FEW025 SCT037 BKN046 08/06 Q1032=
SPZO Feb2003-271300Z 11005KT 070V170 9999 FEW030 SCT037 BKN050 09/06 Q1032 BECMG FM1330 SCT040 SCT050 RMK PPTRZ
SPZO Feb2003-271400Z VRB02KT 9999 FEW030 SCT037 BKN050 11/06 Q1032 BECMG FM1430 SCT040 SCT050 RMK PP000 BCBR E-NE=
SPZO Feb2003-271500Z VRB03KT 9999 FEW030 SCT040 SCT100 13/06 Q1032
SPZO Feb2003-271600Z VRB03KT 9999 BKN040 SCT080 14/06 Q1031 NOSIG RMK PP000=
SPZO Feb2003-271700Z VRB01KT 9999 VCRA BKN040 SCT050 15/07 Q1030 NOSIG
SPZO Feb2003-271800Z VRB01KT 9999 VCRA BKN043 SCT046 16/06 Q1029 NOSIG RMK PP000=
SPZO Feb2003-271830Z 16006KT 120V200 9999 SCT043 BKN047 15/08 Q1028=
SPZO Feb2003-271900Z 17004KT 140V210 9999 SCT040 SCT050 16/07 Q1028 NOSIG RMK PP000=
SPZO Feb2003-272000Z VRB02KT 9999 SCT040 SCT060 16/07 Q1027 NOSIG RMK PP000=
SPZO Feb2003-272100Z 35009KT 310V040 9999 BKN043 18/05 Q1026 NOSIG RMK PP000=
SPZO Feb2003-272200Z 11005KT 040V150 9999 BKN043 15/08 Q1026 PP000 T. MAX 18.3=
SPZO Feb2003-272300Z 11007KT 9999 BKN043 SCT300 14/08 Q1027 NOSIG RMK PP000=
SPZO Feb2003-280000Z VRB03KT 9999 BKN043 SCT060 14/06 Q1028 PP000=
SPZO Feb2003-280100Z 06005KT 9999 FEW043 SCT100 12/07 Q1029 PP000=
SPZO Feb2003-280200Z 09004KT 9999 FEW040 SCT070 13/05 Q1031 PP000=
SPZO Feb2003-280300Z 00000KT 9999 FEW040 SCT050 12/05 Q1031 PP000=
SPZO Feb2003-280400Z 00000KT 9999 FEW040 SCT050 12/05 Q1032 PP000=
SPZO Feb2003-280500Z 00000KT 9999 SCT040 SCT050 11/08 Q1031 PP000=
SPZO Feb2003-280600Z 00000 SCT040 SCT050 11/07 Q1031 PP000=
SPZO Feb2003-280700Z 00000KT 9999 BKN040 SCT050 12/07 Q1031 PP000=
SPZO Feb2003-280800Z 00000KT 9999 BKN040 SCT050 10/07 Q1030 PP000=
SPZO Feb2003-280900Z 00000KT 9999 SCT040 SCT080 11/05 Q1030 PP000=
SPZO Feb2003-281000Z VRB02KT 9999 SCT040 SCT080 10/06 Q1031 PP000=
SPZO Feb2003-281100Z 00000KT 9999 FEW037 SCT043 BKN050 10/06 Q1031 PP000=
SPZO Feb2003-281200Z 00000KT 9999 FEW037 BKN040 11/07 Q1032 TEMPO BKN043 RMK PP000=
SPZO Feb2003-281300Z VRB01KT 9999 SCT040 BKN060 12/06 Q1032 TEMPO BKN080 RMK PP000=
SPZO Feb2003-281400Z VRB02KT 9999 SCT040 BKN060 14/06 Q1033 NOSIG RMK PP000=
SPZO Feb2003-281500Z VRB01KT 9999 SCT040 BKN050 15/05 Q1032 NOSIG RMK PP000=
SPZO Feb2003-281600Z VRB01KT 9999 SCT040 BKN060 16/05 Q1032 NOSIG RMK PP000=
SPZO Feb2003-281700Z VRB03KT 9999 SCT040 SCT060 18/08 Q1031 NOSIG RMK PP000=
SPZO Feb2003-281800Z VRB02KT 9999 SCT043 SCT060 18/05 Q1030 NOSIG RMK PP000=
SPZO Feb2003-281900Z 35009KT 310V040 9999 FEW040 SCT050 19/04 Q1028 TEMPO VCSH RMK PP000=
SPZO Feb2003-282000Z 07008KT 030V120 9999 FEW040 SCT050 18/08 Q1027 NOSIG RMK PP000=
SPZO Feb2003-282100Z 02010KT 320V070 9999 SCT043 18/05 Q1026 NOSIG RMK PP000=
SPZO Feb2003-282200Z 02009KT 340V080 9999 SCT043 16/06 Q1027 NOSIG RMK PP000 TMAX 19.9=
SPZO Feb2003-282300Z 06005KT 340V150 9999 SCT043 SCT060 15/05 Q1028 NOSIG RMK PP000=
SPZO Mar2003-010000Z 01010KT 330V060 9999 BKN050 14/05 Q1029 RMK PP000=
SPZO Mar2003-010100Z VRB03KT 9999 BKN050 13/06 Q1030 RMK PP000=
SPZO Mar2003-010200Z 00000KT 9999 BKN050 12/06 Q1031 RMK PP000=
SPZO Mar2003-010300Z 00000KT 9999 BKN050 12/07 Q1032 RMK PP000=
SPZO Mar2003-010400Z 00000KT 9999 BKN050 11/07 Q1032 RMK PP000=
SPZO Mar2003-010500Z 00000KT 9999 BKN050 12/07 Q1032 RMK PP000=
SPZO Mar2003-010600Z 00000KT 9999 OVC050 12/08 Q1031 RMK PP000=
SPZO Mar2003-010700Z 12004KT 090V150 9999 OVC050 11/08 Q1030
SPZO Mar2003-010800Z 33002KT 5000 -RA FEW030 SCT040 BKN050 10/08 Q1030
SPZO Mar2003-010900Z 00000KT 9000 SCT040 BKN050 10/07 Q1030 RERA
SPZO Mar2003-011000Z 00000KT 8000 -DZ SCT040 BKN050 09/08 Q1031
SPZO Mar2003-011030Z 00000KT 9000 SCT040 BKN050 10/08 Q1031 REDZ=
SPZO Mar2003-011100Z 00000KT 9999 SCT040 BKN050 10/08 Q1031
SPZO Mar2003-011137Z VRB03KT 8000 SCT040 SCT047 10/08 Q1031 RMK
SPZO Mar2003-011200Z VRB03KT 8000 SCT037 SCT047 11/08 Q1031 TEMPO
SPZO Mar2003-011225Z 00000KT 9000 SCT037 SCT047 12/08 Q1032
SPZO Mar2003-011300Z VRB01KT 9999 SCT037 SCT047 12/07 Q1032 TEMPO VCRA BKN043 RMK PP000=
SPZO Mar2003-011325Z 00000KT 9999 VCRA SCT037 BKN043 13/07 Q1033=
SPZO Mar2003-011400Z VRB01KT 9999 SCT040 SCT060 14/07 Q1032=
SPZO Mar2003-011410Z VRB01KT 9999 SCT040 SCT060 14/07 Q1032=
SPZO Mar2003-011500Z VRB03KT 9999 SCT040 BKN060 14/07 Q1032 NOSIG
SPZO Mar2003-011600Z VRB02KT 9999 VCSH SCT040 SCT060 16/07 Q1031
SPZO Mar2003-011700Z 06008KT 030V100 9999 VCSH SCT043TCU SCT047 15/07
SPZO Mar2003-011800Z VRB03KT 9999 SCT043 SCT060 14/07 Q1029 RESHRA NOSIG RMK PP002=
SPZO Mar2003-011825Z VRB02KT 9999 SCT050 19/07 Q1028 RMK DISTANTES CB SE / TCU S=
SPZO Mar2003-011900Z 34006KT 270V080 9999 FEW040 SCT050 19/07 Q1028 NOSIG RMK CB DISTANTE AL SE PP000=
SPZO Mar2003-012000Z 13007KT 080V160 9999 SCT040 SCT060 19/08 Q1026 TEMPO VCSH RMK PP000=
SPZO Mar2003-012100Z VRB03KT 9999 VCSH BKN043 SCT300 15/08 Q1025 NOSIG RMK CB DISTANTE W PP000=
SPZO Mar2003-012200Z 00000KT 9999 SCT040 SCT047 17/07 Q1025 NOSIG RMK CB DISTANTE W PP000 TMAX 19.8=
SPZO Mar2003-012300Z 06006KT 360V140 9999 FEW040CB SCT043 BKN100 15/05 Q1027 TEMPO SHRA RMK CB S NS W PP000=
SPZO Mar2003-020000Z 11011KT 060V160 9999 OVC040 12/08 Q1029 RMK PP000=
SPZO Mar2003-020100Z 08005KT 050V140 8000 -DZ OVC040 11/08 Q1030 RMK PP002=
SPZO Mar2003-020200Z 00000KT 7000 -RA BKN030 SCT040 10/09 Q1031
SPZO Mar2003-020300Z 27004KT 9000 SCT030 SCT040 10/08 Q1031 RERA
SPZO Mar2003-020400Z 11003KT 9999 SCT030 BKN040 10/09 Q1031 RMK PP000=
SPZO Mar2003-020500Z 11003KT 9999 FEW030 BKN040 10/09 Q1031 RMK PP000=
SPZO Mar2003-020600Z 00000KT 9999 FEW030 BKN040 11/08 Q1031 RMK PP000=
SPZO Mar2003-020700Z 00000KT 9999 OVC040 10/06 Q1030 RMK PP000=
SPZO Mar2003-020800Z 00000KT 9999 OVC040 09/06 Q1029 RMK PP000=
SPZO Mar2003-020900Z 12003KT 8000 -RA FEW030 BKN040 09/06 Q1030
SPZO Mar2003-021000Z 11001KT 8000 -RA FEW030 BKN040 OVC050 08/06 Q1030 RMK PP004=
SPZO Mar2003-021100Z 00000KT 8000 -DZ FEW030 SCT040 BKN050 08/06 Q1031
SPZO Mar2003-021125Z 00000KT 9000 -DZ FEW030 SCT040 OVC047 09/07 Q1031=
SPZO Mar2003-021200Z 00000KT 9000 -RA FEW025 BKN040 OVC047 09/07 Q1031 TEMPO 8000 RMK PP002=
SPZO Mar2003-021300Z 00000KT 9999 SCT025 BKN043 OVC080 10/07 Q1032 RERA NOSIG RMK PP002=
SPZO Mar2003-021334Z VRB02KT 9999 -RA SCT025 BKN043 OVC080 11/07 Q1033=
SPZO Mar2003-021400Z VRB02KT 9999 SCT030 BKN043 BKN060 11/07 Q1032
SPZO Mar2003-021500Z 00000KT 9999 SCT030 BKN080 14/08 Q1032 TEMPO SCT037 RMK PP000=
SPZO Mar2003-021522Z 00000KT 9999 SCT037 BKN043 14/06 Q1032=
SPZO Mar2003-021600Z VRB02KT 9999 VCSH SCT037 BKN060 14/08 Q1031 NOSIG RMK PP000=
SPZO Mar2003-021700Z 11008KT 8000 VCSH SCT037TCU BKN047 13/08 Q1032 TEMPO -SHRA RMK PP000=
SPZO Mar2003-021719Z 10004KT 020V150 9999 -SHRA SCT040 BKN047 13/09 Q1030 TEMPO FM1730 NSW=
SPZO Mar2003-021800Z 24004KT 200V310 9999 SCT040 BKN060 15/08 Q1029 RESHRA TEMPO VCSH RMK PPTRZ=
SPZO Mar2003-021900Z 29005KT 250V340 9000 VCSH SCT040 FEW050TCU SCT060 15/08 Q1028 TEMPO 9999 RMK PP000=
SPZO Mar2003-021930Z VRB01KT 9999 -SHRA SCT040 SCT050 16/08 Q1027 TEMPO NSW=
SPZO Mar2003-022000Z 26004KT 170V320 9999 SCT040 SCT050 17/09 Q1026 RESHRA TEMPO VCSH RMK PPTRZ=
SPZO Mar2003-022100Z 27005KT 240V300 9000 -SHRA SCT043TCU BKN047 15/10 Q1026 NOSIG RMK PPTRZ=
SPZO Mar2003-022200Z VRB03KT 9999 SCT040 BKN047 15/09 Q1025 RESHRA TEMPO VCSH RMK PPTRZ TMAX 16.6=
SPZO Mar2003-022300Z VRB01KT 9999 VCSH SCT040 BKN047 14/08 Q1026 NOSIG RMK PP000=
SPZO Mar2003-030000Z 27005KT 9000 -RA SCT030 BKN040 14/09 Q1027 PPTRZ=
SPZO Mar2003-030100Z VRB02KT 9999 BKN040 SCT070 12/08 Q1028 PP004=
SPZO Mar2003-030200Z 00000KT 9999 BKN040 SCT070 11/08 Q1029 PP000=
SPZO Mar2003-030300Z VRB02KT 9999 OVC040 11/08 Q1030 PP000=
SPZO Mar2003-030400Z 00000KT 9999 BKN040 SCT070 10/08 Q1030 PP000=
SPZO Mar2003-030500Z 00000KT 9999 SCT040 SCT050 10/08 Q1030 PP000=
SPZO Mar2003-030600Z 00000KT 9999 -RA OVC040 11/09 Q1029 PP002=
SPZO Mar2003-030700Z 00000KT 9000 -RA OVC040 10/08 Q1029 PP018=
SPZO Mar2003-030800Z 00000KT 9999 SCT040 SCT050 10/08 Q1028 PP008=
SPZO Mar2003-030900Z 00000KT 9999 SCT030 BKN040 10/08 Q1028 PP000=
SPZO Mar2003-031000Z 09004KT 9999 FEW030 SCT040 BKN050 10/08 Q1028 PP000=
SPZO Mar2003-031035Z VRB03KT 9000 VCSH FEW025 SCT037 BKN047 10/08 Q1029 RMK CLNG BLW 1200M=
SPZO Mar2003-031100Z 11007KT 9000 VCSH FEW020 SCT037 BKN047 09/08 Q1029 PP000 RMK CLNG BLW 1200M=
SPZO Mar2003-031200Z 09007KT 060V120 9999 FEW020 SCT037 BKN047 09/08 Q1030 NOSIG RMK CLNG BLW 1200M PP000=
SPZO Mar2003-031224Z 10006KT 060V130 9999 SCT030 OVC047 10/07 Q1031 TEMPO -DZ=
SPZO Mar2003-031300Z 10008KT 9999 SCT030 OVC047 10/08 Q1031 TEMPO SCT040 BKN060 RMK PP000=
SPZO Mar2003-031341Z 10008KT 070V140 9999 SCT033 SCT040 BKN060 12/08 Q1031=
SPZO Mar2003-031400Z 11008KT 070V140 9999 SCT033 SCT040 BKN060 12/07 Q1031 NOSIG RMK PP000=
SPZO Mar2003-031420Z 11008KT 080V150 9999 VCSH SCT037 SCT043 BKN060 Q1031 TEMPO -SHRA=
SPZO Mar2003-031500Z 09006KT 050V150 9999 SCT037 SCT043 BKN060 12/07 Q1031 RESHRA TEMPO VCSH RMK PPTRZ=
SPZO Mar2003-031600Z VRB02KT 9999 -SHRA FEW037 SCT043 BKN053 14/07 Q1031 TEMPO NSW RMK PP000=
SPZO Mar2003-031700Z VRB02KT 9999 FEW037 BKN053 14/08 Q1030 RESHRA TEMPO VCSH RMK PP004=
SPZO Mar2003-031714Z VRB03KT 9999 VCSH FEW030 SCT040 BKN053 15/08
SPZO Mar2003-031800Z VRB01KT 9999 VCSH SCT040TCU BKN043 16/08 Q1029
SPZO Mar2003-031810Z VRB03KT 9000 -RA SCT040TCU BKN043 15/07 Q1029
SPZO Mar2003-031900Z VRB02KT 9999 -RA SCT040 BKN047 13/10 Q1028 TEMPO
SPZO Mar2003-031924Z VRB01KT 9999 VCSH SCT040 SCT047 BKN100 15/
SPZO Mar2003-032000Z VRB02KT 9999 FEW037 SCT043 BKN100 15/09 Q1027
SPZO Mar2003-032100Z 11006KT 060V150 9999 FEW037 SCT043 BKN100 15/09
SPZO Mar2003-032200Z 11009KT 080V150 9999 FEW037 SCT047 BKN300 15/08
SPZO Mar2003-032300Z 10007KT 9999 SCT040 BKN047 13/08 Q1026
SPZO Mar2003-040000Z 00000KT 9999 VCSH BKN040 SCT047 13/08 Q1027 PP000=
SPZO Mar2003-040100Z 30006KT 9999 SCT040 SCT050 12/09 Q1029 PP002=
SPZO Mar2003-040110Z 26004KT 9999 -RA SCT030 BKN040 11/09 Q1029=
SPZO Mar2003-040200Z VRB02KT 9000 -RA OVC040 12/09 Q1030 PP008=
SPZO Mar2003-040300Z 00000KT 9999 RA OVC040 10/09 Q1031 PP034=
SPZO Mar2003-040400Z 00000KT 9999 -RA SCT037 BKN040 11/09 Q1031 PP008=
SPZO Mar2003-040500Z 00000KT 9999 DZ SCT030 BKN040 10/08 Q1030 PP008=
SPZO Mar2003-040600Z 00000KT 9999 RA OVC040 10/08 Q1030 PP010=
SPZO Mar2003-040700Z 00000KT 8000 RA OVC040 09/07 Q1030 PP038=
SPZO Mar2003-040800Z 00000KT 9999 -RA SCT030 SCT050 10/09 Q1029 PP050=
SPZO Mar2003-040900Z 00000KT 9999 RERA SCT030 BKN043 09/07 Q1029 PPTRZ=
SPZO Mar2003-041000Z 00000KT 9999 FEW030 SCT040 BKN050 09/07 Q1030 PP000=
SPZO Mar2003-041100Z 00000KT 9999 BKN040 SCT050 09/07 Q1030 PP000=
SPZO Mar2003-041200Z 00000KT 9999 BKN040 SCT050 09/08 Q1031 NOSIG
SPZO Mar2003-041300Z 00000KT 9999 FEW025 SCT040 BKN050 11/08 Q1032
SPZO Mar2003-041400Z 00000KT 9999 FEW030 BKN060 13/07 Q1032 NOSIG
SPZO Mar2003-041500Z 00000KT 9999 FEW037 BKN060 14/07 Q1032 NOSIG
SPZO Mar2003-041533Z VRB02KT 9999 VCSH SCT040 SCT080 17/07 Q1031=
SPZO Mar2003-041600Z VRB03KT 9999 VCSH BKN040 SCT060 17/10 Q1031
SPZO Mar2003-041634Z 31005KT 240V030 9999 FEW037 SCT047 17/08 Q1030=
SPZO Mar2003-041700Z VRB02KT 9999 FEW037 SCT050 18/09 Q1030 NOSIG
SPZO Mar2003-041735Z 08005KT 350V150 9999 VCSH FEW040TCU SCT050 18/07 Q1029=
SPZO Mar2003-041800Z VRB02KT 9999 VCSH SCT040TCU SCT050 18/08 Q1029
SPZO Mar2003-041802Z 30014KT 9999 -SHRA SCT040TCU SCT050 15/08 Q1029
SPZO Mar2003-041900Z 27007KT 250V310 9999 SCT040 SCT050 15/08 Q1028
SPZO Mar2003-042000Z VRB04KT 9999 VCSH SCT040 SCT060 BKN300 18/08
SPZO Mar2003-042100Z 04008KT 330V080 9999 BKN043 BKN100 17/07 Q1026
SPZO Mar2003-042200Z 03010KT 330V120 9999 SCT043 SCT100 BKN300 16/06
SPZO Mar2003-042300Z 02006KT 300V080 9999 BKN043 SCT047 15/06 Q1028
SPZO Mar2003-050000Z 00000KT 9999 OVC050 14/05 Q1028 RMK PP000=
SPZO Mar2003-050100Z 00000KT 9999 OVC050 13/06 Q1030 RMK PP000=
SPZO Mar2003-050200Z 00000KT 9999 OVC050 12/07 Q1030 RMK PP000=
SPZO Mar2003-050300Z 00000KT 9999 OVC040 12/07 Q1031 RMK PP000=
SPZO Mar2003-050400Z 00000KT 9999 OVC040 12/06 Q1031 RMK PP000=
SPZO Mar2003-050500Z 00000KT 9999 OVC040 11/08 Q1031 RMK PP000=
SPZO Mar2003-050600Z 00000KT 9999 OVC040 11/07 Q1031 RMK PP000=
SPZO Mar2003-050700Z 25004KT 5000 -RA SCT030 BKN040 10/08 Q1031 PP002=
SPZO Mar2003-050800Z 35003KT 4600 -RA SCT030 BKN040 09/07 Q1031 PP006=
SPZO Mar2003-050900Z 00000KT 5000 -RA SCT030 BKN040 09/07 Q1031 PP006=
SPZO Mar2003-051000Z 00000KT 7000 -RA FEW030 BKN040 09/07 Q1031 PP002=
SPZO Mar2003-051030Z 00000KT 8000 -RA FEW030 BKN040 09/07 Q1031 BR=
SPZO Mar2003-051100Z 00000KT 8000 -DZ FEW030 BKN040 09/07 Q1031 RMK BR PPTRZ=
SPZO Mar2003-051112Z VRB02KT 9000 -RA FEW020 SCT037 OVC043 09/08 Q1032 RMK CLNG BLW 1200M=
SPZO Mar2003-051200Z 00000KT 9000 -RA FEW020 SCT037 OVC040 09/08 Q1032
SPZO Mar2003-051219Z 00000KT 9000 -RA FEW025 SCT040 OVC047 10/08 Q1033 TEMPO OVC060=
SPZO Mar2003-051300Z 00000KT 9000 -RA FEW025 SCT040 OVC070 11/08 Q1033
SPZO Mar2003-051314Z 00000KT 9000 -RA SCT025 SCT040 OVC070 11/08 Q1033=
SPZO Mar2003-051400Z 00000KT 9999 SCT030 SCT040 OVC070 11/08 Q1033
SPZO Mar2003-051500Z VRB01KT 9999 SCT033 SCT040 OVC070 13/08 Q1033
SPZO Mar2003-051600Z VRB03KT 9999 SCT037 SCT100 BKN300 14/07 Q1032
SPZO Mar2003-051700Z VRB03KT 9999 FEW037 SCT040 BKN100 16/07 Q1031
SPZO Mar2003-051714Z 17005KT 120V230 9999 FEW037 BKN043 15/07 Q1031=
SPZO Mar2003-051800Z VRB03KT 9999 FEW037 BKN043 16/07 Q1030 TEMPO VCSH RMK PP000=
SPZO Mar2003-051900Z 02011KT 340V060 9000 VCRA SCT040TCU BKN046 15/07 Q1029 TEMPO RA RMK PP000=
SPZO Mar2003-051906Z VRB05KT 8000 RA SCT040TCU BKN046 14/07 Q1029=
SPZO Mar2003-051934Z VRB04KT 7000 RA SCT040 BKN056 12/09 Q1029=
SPZO Mar2003-052000Z 15004KT 110V190 8000 VCRA SCT040 BKN046 11/08 Q1029 RMK PP028=
SPZO Mar2003-052100Z VRB03KT 9999 VCRA SCT040 SCT050 13/09 Q1028 NOSIG RMK PP000=
SPZO Mar2003-052200Z 10006KT 060V140 9999 VCRA FEW040 BKN050 13/09 Q1028 NOSIG RMK PP000 TMX:17.0=
SPZO Mar2003-052300Z VRB03KT 9999 BKN046 12/08 Q1028 NOSIG RMK PP000=
SPZO Mar2003-060000Z 07003KT 9999 BKN040 11/08 Q1028 RMK PP000=
SPZO Mar2003-060100Z 00000KT 9999 BKN040 10/08 Q1029 RMK PP000=
SPZO Mar2003-060200Z 00000KT 9999 BKN040 09/08 Q1030 RMK PP000=
SPZO Mar2003-060300Z 00000KT 9999 BKN040 09/08 Q1030 RMK PP000=
SPZO Mar2003-060400Z 00000KT 9999 BKN040 10/09 Q1031 RMK PP000=
SPZO Mar2003-060500Z 08003KT 9999 BKN040 10/08 Q1030 RMK PP000=
SPZO Mar2003-060600Z 30004KT 280V020 9999 BKN040 10/08 Q1030 PP000=
SPZO Mar2003-060700Z 11003KT 9999 BKN040 10/08 Q1029 RMK PP000=
SPZO Mar2003-060800Z 00000KT 9999 BKN040 10/08 Q1029 RMK PP000=
SPZO Mar2003-060900Z 00000KT 9999 OVC040 10/08 Q1029 RMK PP000=
SPZO Mar2003-061000Z 00000KT 9999 SCT040 SCT060 09/08 Q1029 RMK PP000=
SPZO Mar2003-061100Z 00000KT 8000 SCT040 BKN050 OVC060 10/08 Q1030 RMK BR PP000=
SPZO Mar2003-061200Z VRB02KT 9999 FEW037 SCT040 BKN046 10/08 Q1030 NOSIG RMK PP000=
SPZO Mar2003-061300Z VRB02KT 9999 FEW037 SCT040 BKN046 11/08 Q1031 NOSIG RMK PP000=
SPZO Mar2003-061400Z 00000KT 9999 FEW030 SCT040 BKN046 12/08 Q1031 NOSIG RMK PP000 BCBR E-NE=
SPZO Mar2003-061500Z VRB02KT 9999 SCT040 BKN046 14/08 Q1031 NOSIG RMK PP000 BCBR NE=
SPZO Mar2003-061600Z VRB05KT 9999 VCRA SCT040 SCT050 15/10 Q1031 NOSIG RMK PP000=
SPZO Mar2003-061700Z 09007KT 050V150 9999 VCRA SCT040 SCT060 16/08
SPZO Mar2003-061800Z 10009KT 9999 VCRA SCT040 SCT060 17/08 Q1028 NOSIG RMK PP000 RWY10 12012KT=
SPZO Mar2003-061900Z VRB03KT 9999 VCRA SCT043 SCT050 18/08 Q1027 NOSIG RMK PP000=
SPZO Mar2003-062000Z VRB06KT 8000 VCRA SCT040 BKN046 14/08 Q1027 TEMPO -RA RMK PP000 RWY10 27018KT=
SPZO Mar2003-062011Z 18012KT 080V240 8000 TSRA SCT040TCU BKN046 12/08 Q1027=
SPZO Mar2003-062024Z 27008KT 170V330 6000 RA SCT037 BKN046 12/08 Q1028 RMK RWY10 29022KT=
SPZO Mar2003-062100Z 23005KT 190V260 7000 -RA SCT037 BKN043 11/08 Q1028 BECMG AT 2130 NSW RMK PP060 RWY10 25008KT=
SPZO Mar2003-062200Z 09002KT 6000 RA SCT037 BKN46 10/08 Q1029 NOSIG RMK PP028 TMX:18.6=
SPZO Mar2003-062300Z 00000KT 8000 -RA SCT037 BKN046 09/08 Q1029 BECMG AT 2320 NSW RMK PP034=
SPZO Mar2003-070000Z 00000KT 8000 RA SCT030 BKN040 09/07 Q1029 PP018=
SPZO Mar2003-070100Z 00000KT 9999 DZ BKN040 SCT08009/07 Q1030 PP006=
SPZO Mar2003-070200Z 00000KT 9999 SCT030 SCT080 10/08 Q1031 PPTRZ=
SPZO Mar2003-070300Z 00000KT 9999 OVC040 10/08 Q1031 PP000=
SPZO Mar2003-070400Z 00000KT 9999 OVC043 09/08 Q1031 PP000=
SPZO Mar2003-070500Z 00000KT 9999 SCT030 BKN043 09/08 Q1031 PP000=
SPZO Mar2003-070600Z 00000KT 9999 BKN040 SCT046 09/08 Q1030 PP000=
SPZO Mar2003-070700Z 00000KT 9999 SCT040 SCT046 09/08 Q1030 PP000=
SPZO Mar2003-070800Z 00000KT 9999 OVC040 09/08 Q1030 PP000=
SPZO Mar2003-070900Z 00000KT 9999 FEW025 OVC040 09/08 Q1029 PP002=
SPZO Mar2003-071000Z 00000KT 9999 FEW025 SCT040 BKN047 09/08 Q1030 PP000=
SPZO Mar2003-071100Z 00000KT 9999 FEW030 SCT040 BKN046 09/08 Q1030 PP000=
SPZO Mar2003-071200Z 00000KT 9999 FEW033 SCT040 SCT050 10/08 Q1031 NOSIG RMK PP000=
SPZO Mar2003-071300Z 00000KT 9999 FEW040 SCT050 14/10 Q1031 NOSIG RMK PP000=
SPZO Mar2003-071400Z VRB02KT 9999 FEW040 SCT050 15/08 Q1032 NOSIG RMK PP000=
SPZO Mar2003-071500Z VRB02KT 9999 SCT040 BKN046 16/08 Q1032 NOSIG RML PP000=
SPZO Mar2003-071600Z VRB02KT 9999 FEW040 BKN046 16/07 Q1031 NOSIG RMK PP000=
SPZO Mar2003-071700Z VRB03KT 9999 FEW040 SCT050 18/07 Q1030 NOSIG RMK PP000=
SPZO Mar2003-071800Z VRB04KT 9999 FEW040 SCT050 18/08 Q1028 NOSIG RMKL
SPZO Mar2003-071900Z 32006KT 250V020 FEW043 SCT060 19/06 Q1027 NOSIG
SPZO Mar2003-072000Z 29008KT 250V020 9999 FEW040TCU SCT050 17/08 Q1026
SPZO Mar2003-072014Z 25009KT 210V290 9999 RA SCT040TCU SCT050 16/08 Q1026 RMK RWY10 24017KT=
SPZO Mar2003-072100Z 25004KT 200V290 9999 SCT043 SCT060 17/08 Q1026
SPZO Mar2003-072200Z VRB02KT 9999 VCRA SCT043 SCT060 17/09 Q1026
SPZO Mar2003-072300Z VRB02KT 9999 SCT050 16/08 Q1026 NOSIG RMK PP000=
SPZO Mar2003-080000Z 00000KT 9999 FEW040 SCT050 15/08 Q1025 PP000=
SPZO Mar2003-080100Z 00000KT 9999 SCT050 13/09 Q1028 PP000=
SPZO Mar2003-080200Z VRB03KT 9999 FEW040 SCT080 12/09 Q1029 PP000=
SPZO Mar2003-080300Z 00000KT 9999 FEW040 SCT050 12/09 Q1030 PP000=
SPZO Mar2003-080400Z 00000KT 8000 RA OVC040 10/07 Q1031 PP040=
SPZO Mar2003-080500Z 00000KT 9999 -RA SCT037 BKN043 10/08 Q1031 PP018=
SPZO Mar2003-080600Z 00000KT 9999 -RA BKN037 SCT043 09/08 Q1031 PP016=
SPZO Mar2003-080700Z 00000KT 9000 RA BKN037 SCT050 09/08 Q1031 PP052=
SPZO Mar2003-080800Z 00000KT 9000 -RA OVC040 09/08 Q1030 PP038=
SPZO Mar2003-080900Z 00000KT 8000 -DZ SCT025 BKN040 09/08 Q1030 PP006=
SPZO Mar2003-081000Z 00000KT 9999 FEW025 SCT040 BKN050 09/08 Q1030 PP000=
SPZO Mar2003-081100Z 00000KT 9999 FEW030 SCT040 BKN050 09/08 Q1030 PP000=
SPZO Mar2003-081200Z 00000KT 9999 FEW037 SCT040 BKN046 10/08 Q1031
SPZO Mar2003-081218Z 00000KT 9000 DZ FEW037 SCT040 BKN046 10/08 Q1
SPZO Mar2003-081300Z VRB02KT 9000 -RA SCT037 BKN046 10/08 Q1032
SPZO Mar2003-081330Z VRB03KT 9000 RERAVCRA SCT037 BKN046 10/08
SPZO Mar2003-081400Z VRB03KT 9000 VCRA SCT037 BKN046 11/07 Q1033 NOSIG
SPZO Mar2003-081434Z 00000KT 6000 -RA FEW033 SCT037 BKN046 11/08 Q1033=
SPZO Mar2003-081500Z 00000KT 8000 -RA SCT037 BKN046 11/08 Q1033
SPZO Mar2003-081536Z VRB03KT 9999 VCRARERA SCT037 BKN046 11/08 Q
SPZO Mar2003-081600Z VRB03KT 9000E VCRA SCT037 BKN046 12/08 Q1033
SPZO Mar2003-081700Z 00000KT 9999 SCT037 SCT050 15/09 Q1032 NOSIG RMK PP000=
SPZO Mar2003-081800Z VRB02KT 9999 SCT040 SCT046 15/08 Q1031 TEMPO
SPZO Mar2003-081900Z 00000KT 9999 SCT040 SCT050 15/08 Q1030 TEMPO VCRA
SPZO Mar2003-082000Z VRB04KT 9999 SCT043 SCT050 17/07 Q1029 NOSIG RMK
SPZO Mar2003-082100Z VRB04KT 9999 SCT043 18/07 Q1027 NOSIG RMK PP000=
SPZO Mar2003-082200Z VRB03KT 9999 SCT043 18/06 Q1027 NOSIG RMK PP000
SPZO Mar2003-082300Z 28007KT 9999 SCT043 16/07 Q1028 NOSIG RMK PP000=
SPZO Mar2003-090000Z 27009KT 9999 BKN040 13/08 Q1029 RMK PP000=
SPZO Mar2003-090100Z 29008KT 9999 BKN040 12/07 Q1029 RMK PP000=
SPZO Mar2003-090200Z 30004KT 260V330 9999 BKN040 11/08 Q1030 PP000=
SPZO Mar2003-090300Z 00000KT 9999 BKN040 10/07 Q1030 RMK PP000=
SPZO Mar2003-090400Z 00000KT 9999 BKN040 09/07 Q1030 RMK PP000=
SPZO Mar2003-090500Z 00000KT 9999 BKN040 09/07 Q1030 RMK PP000=
SPZO Mar2003-090600Z 00000KT 9999 BKN040 08/06 Q1030 RMK PP000=
SPZO Mar2003-090700Z 00000KT 9999 BKN040 07/05 Q1029 RMK PP000=
SPZO Mar2003-090800Z 00000KT 9999 BKN040 07/05 Q1029 RMK PP000=
SPZO Mar2003-090900Z 00000KT 9999 BKN040 08/06 Q1029 RMK PP000=
SPZO Mar2003-091000Z 00000KT 9999 BKN040 08/06 Q1030 RMK PP000=
SPZO Mar2003-091100Z 00000KT 9999 BKN040 08/07 Q1030 RMK PP000=
SPZO Mar2003-091200Z 00000KT 9999 FEW040 09/07 Q1031 NOSIG RMK PP000=
SPZO Mar2003-091300Z 00000KT 9999 FEW040 13/08 Q1031 NOSIG RMK PP000=
SPZO Mar2003-091400Z VRB02KT 9999 FEW040 15/08 Q1031 NOSIG RMK PP000=
SPZO Mar2003-091500Z VRB03KT 9999 FEW040 16/08 Q1030 NOSIG RMK PP000=
SPZO Mar2003-091600Z VRB03KT 9999 SCT043 18/06 Q1029 NOSIG RMK PP000=
SPZO Mar2003-091700Z VRB05KT 9999 SCT050 20/08 Q1028 NOSIG RMK PP000
SPZO Mar2003-091800Z 05005KT 340V140 9999 FEW040TCU SCT050 19/06 Q1027 TEMPO RA RMK PP000 RWY10 35012KT=
SPZO Mar2003-091900Z VRB03KT 9999 FEW040TCU SCT050 19/07 Q1026 TEMPO VCRA RMK PP000 RWY10 31012KT=
SPZO Mar2003-092000Z VRB02KT 9999 FEW040TCU SCT050 19/06 Q1025 TEMPO VCRA RMK PP000=
SPZO Mar2003-092100Z 35009KT 320V030 9999 FEW040 SCT050 20/07 Q1024 NOSIG RMK PP000=
SPZO Mar2003-092200Z 35007KT 300V030 9999 FEW040 SCT050 19/06 Q1024 NOSIG RMK PP000 TMX:21.7=
SPZO Mar2003-092300Z 33007KT 290V010 9999 SCT046 17/07 Q1025 NOSIG RMK PP000=
SPZO Mar2003-100000Z 35006KT 320V020 9999 BKN040 16/08 Q1026 PP000=
SPZO Mar2003-100100Z 10003KT 330V220 9999 BKN040 15/08 Q1027 PP000=
SPZO Mar2003-100200Z 26007KT 8000 -DZ OVC040 14/09 Q1028 RMK PPTRZ=
SPZO Mar2003-100300Z 24003KT 9000 OVC040 13/09 Q1030 REDZ RMK PPTRZ=
SPZO Mar2003-100400Z 14003KT 5000 RA SCT030 BKN040 10/06 Q1031 PP008=
SPZO Mar2003-100500Z 28003KT 5000 +RA SCT030TCU BKN040 09/07 Q1031
SPZO Mar2003-100600Z 29005KT 260V320 9000 SCT030 BKN040 09/07 Q1030
SPZO Mar2003-100700Z 11005KT 9999 FEW030 BKN040 09/07 Q1029 RMK PP000=
SPZO Mar2003-100800Z 08003KT 9999 FEW030 BKN040 08/07 Q1029 RMK PP000=
SPZO Mar2003-100900Z 10003KT 9999 OVC040 08/07 Q1030 RMK PP000=
SPZO Mar2003-101000Z 00000KT 9999 BKN040 SCT050 08/07 Q1030 RMK PP000=
SPZO Mar2003-101100Z 11002KT 9999 SCT040 BKN050 09/07 Q1030 RMK PP000=
SPZO Mar2003-101200Z 00000KT 9999 VCRA SCT040 BKN050 09/07 Q1031 NOSIG RMK PP000 BCBR NW=
SPZO Mar2003-101300Z 00000KT 9999 VCRA SCT040 BKN050 10/08 Q1032 NOSIG RMK PP002 BCBR NE-NW RA EFIMERA=
SPZO Mar2003-101400Z 00000KT 9999 SCT043 BKN050 11/08 Q1032 NOSIG RMK PP000=
SPZO Mar2003-101500Z 00000KT 9999 FEW033 BKN060 14/07 Q1031 NOSIG RMK PP000=
SPZO Mar2003-101600Z VRB03KT 9999 SCT043 17/07 Q1030 NOSIG RMK PP000=
SPZO Mar2003-101700Z VRB02KT 9999 SCT043 19/07 Q1029 NOSIG RMK PP000=
SPZO Mar2003-101800Z VRB05KT 9000E VCRA SCT040TCU SCT050 18/08 Q1027 TEMPO RA RMK PP000 RWY10 31007KT=
SPZO Mar2003-102000Z VRB02KT 9999 SCT043 SCT050 17/07 Q1026 NOSIG RMK PPTRZ=
SPZO Mar2003-102100Z 12007KT 070V170 9999 VCRA FEW043 BKN050 16/08 Q1026 NOSIG RMK PP000=
SPZO Mar2003-102200Z VRB02KT 9999 FEW043 SCT080 15/07 Q1026 NOSIG RMK PP000 TMX: 20.2=
SPZO Mar2003-102300Z VRB02KT 9999 FEW043 SCT050 15/08 Q1027 NOSIG RMK PP000=
SPZO Mar2003-110000Z 00000KT 9999 SCT040 SCT050 13/09 Q1028 PP000=
SPZO Mar2003-110100Z 00000KT 9999 FEW043 SCT100 12/09 Q1029 PP000=
SPZO Mar2003-110200Z 00000KT 9999 FEW040 SCT100 12/09 Q1029 PP000=
SPZO Mar2003-110300Z 27004KT 9999 FEW040 SCT100 11/09 Q1030 PP000=
SPZO Mar2003-110400Z 00000KT 9999 SCT040 SCT080 11/09 Q1031 PP000=
SPZO Mar2003-110500Z 00000KT 9999 SCT043 SCT050 11/09 Q1030 PP000=
SPZO Mar2003-110600Z 00000KT 9999 BKN040 SCT050 11/09 Q1030 PP000=
SPZO Mar2003-110700Z 00000KT 9999 OVC040 10/09 Q1030 PP006=
SPZO Mar2003-110800Z 00000KT 9999 OVC043 09/08 Q1029 PP000=
SPZO Mar2003-110900Z 00000KT 9999 BKN040 SCT080 008/07 Q1029 PP000=
SPZO Mar2003-111000Z 00000KT 9999 SCT040 SCT060 08/07 Q1030 PP000=
SPZO Mar2003-111100Z 00000KT 9999 SCT037 BKN046 09/08 Q1030 PP000=
SPZO Mar2003-111200Z 00000KT 9999 SCT037 BKN046 09/08 Q1031 NOSIG RMK PP000=
SPZO Mar2003-111300Z VRB02KT 9999 VCRA FEW033 SCT040 BKN046 10/08 Q1032 NOSIG RMK PP000=
SPZO Mar2003-111314Z VRB02KT 9000 -RA SCT040 BKN046 11/09 Q1033=
SPZO Mar2003-111400Z 26004KT 9000E DZ SCT040 BKN046 12/09 Q1033 NOSIG RMK PP002 RWY WET BCBR NE=
SPZO Mar2003-111500Z VRB02KT 9999 REDZ FEW033 BKN046 14/07 Q1033 NOSIG RMK PPTRZ=
SPZO Mar2003-111600Z VRB02KT 9999 FEW040 BKN090 16/07 Q1032 NOSIG RMK PP000=
SPZO Mar2003-111700Z 09005KT 030V150 9999 SCT043 SCT100 16/06 Q1031 NOSIG RMK PP000=
SPZO Mar2003-111800Z VRB02KT 9999 FEW040TCU BKN050 18/05 Q1029 TEMPO
SPZO Mar2003-111900Z 15005KT 050V210 9999 FEW040 SCT050 20/08 Q1028
SPZO Mar2003-112000Z VRB03KT 9999 FEW040 SCT050 BKN300 19/06 Q1027
SPZO Mar2003-112100Z 01014KT 340V060 9999 BKN043 SCT300 18/06 Q1026
SPZO Mar2003-112200Z 28011KT 230V310 9999 SCT043 BKN300 16/08 Q1026
SPZO Mar2003-112300Z 28012KT 9999 SCT043 SCT300 14/08 Q1027 NOSIG
SPZO Mar2003-120100Z 29004KT 9999 SCT050 12/07 Q1029 PP000=
SPZO Mar2003-120200Z 00000KT 9999 FEW040 SCT080 12/08 Q1030 PP000=
SPZO Mar2003-120300Z 00000KT 9999 FEW040 SCT050 12/07 Q1031 PP000=
SPZO Mar2003-120400Z 00000KT 9999 FEW040 SCT060 11/08 Q1031 PP000=
SPZO Mar2003-120500Z 00000KT 9999 SCT040 SCT070 11/08 Q1031 PP000=
SPZO Mar2003-120600Z 00000KT 9999 SCT040 SCT070 11/08 Q1031 PP000=
SPZO Mar2003-120700Z 00000KT 9999 BKN040 SCT050 10/09 Q1030 PP000=
SPZO Mar2003-120800Z 00000KT 9999 SCT030 BKN043 11/09 Q1030 PP000=
SPZO Mar2003-120900Z 00000KT 9999 SCT040 SCT050 09/08 Q1930 PP000=
SPZO Mar2003-121000Z 00000KT 9999 BKN040 SCT060 10/08 Q1030 PP000=
SPZO Mar2003-121100Z VRB03KT 9999 BKN040 SCT060 10/08 Q1031 PP000=
SPZO Mar2003-121200Z VRB02KT 9999 SCT040 SCT300 11/08 Q1032 NOSIG RMK PP000=
SPZO Mar2003-121300Z VRB03KT 9999 SCT033 SCT080 13/08 Q1032 NOSIG
SPZO Mar2003-121400Z VRB02KT 9999 SCT037 SCT300 15/07 Q1032 NOSIG
SPZO Mar2003-121500Z 00000KT 9999 FEW040 SCT043 17/08 Q1032 NOSIG
SPZO Mar2003-121600Z VRB03KT 9999 SCT040 SCT080 17/07 Q1031 NOSIG
SPZO Mar2003-121700Z 08004KT 040V210 9999 BKN043 SCT300 18/09 Q1030
SPZO Mar2003-121800Z VRB04KT 9999 BKN043 SCT300 19/07 Q1029 NOSIG
SPZO Mar2003-121900Z 08009KT 040V110 9999 VCSH SCT040 SCT043TCU 15/09
SPZO Mar2003-122000Z VRB01KT 9999 BKN043 SCT300 18/09 Q1027 NOSIG
SPZO Mar2003-122100Z 36008KT 310V050 9999 BKN043 SCT100 19/07 Q1027
SPZO Mar2003-122200Z 01008KT 330V050 9999 VCSH FEW040 BKN043 BKN100
SPZO Mar2003-122300Z 31007KT 270V360 9999 FEW040 BKN043 16/07 Q1027
SPZO Mar2003-130000Z 32006KT 290V010 9999 SCT040 SCT080 15/07 Q1029
SPZO Mar2003-130100Z 08005KT 9999 BKN040 13/08 Q1030 RMK PP000=
SPZO Mar2003-130200Z 10003KT 9999 BKN040 12/07 Q1031 RMK PP000=
SPZO Mar2003-130300Z 00000KT 9999 BKN040 12/08 Q1031 RMK PP000=
SPZO Mar2003-130400Z 00000KT 9999 BKN040 12/08 Q1031 RMK PP000=
SPZO Mar2003-131000Z 27007KT 5000 RA SCT030 BKN040 08/06 Q1031 PP018=
SPZO Mar2003-131030Z 28008KT 6000 -RA SCT030 BKN040 08/06 Q1031=
SPZO Mar2003-131100Z 27004KT 7000 -RA SCT030 BKN040 08/06 Q1031 PP016=
SPZO Mar2003-131132Z 30006KT 8000 -RA FEW030 BKN040 OVC050 08/06 Q1032=
SPZO Mar2003-131200Z 30008KT 270V330 8000 -RA FEW030 BKN040 OVC050
SPZO Mar2003-131300Z VRB03KT 9999 FEW030 SCT040 BKN060 10/07 Q1033
SPZO Mar2003-131310Z VRB03KT 9999 FEW030 SCT040 BKN080 11/06 Q1033=
SPZO Mar2003-131400Z VRB03KT 9999 SCT033 BKN080 12/06 Q1033 NOSIG
SPZO Mar2003-131500Z VRB03KT 9999 SCT037 BKN080 14/06 Q1032 NOSIG
SPZO Mar2003-131600Z VRB02KT 9999 SCT040 SCT100 16/09 Q1032 NOSIG
SPZO Mar2003-131700Z VRB02KT 9999 FEW040 SCT047 17/05 Q1030 NOSIG
SPZO Mar2003-131800Z VRB03KT 9999 FEW040TCU SCT047 19/08 Q1028 TEMPO VCSH RMK PP000=
SPZO Mar2003-131900Z 24011KT 200V270 9999 VCRA FEW040TCU BKN046 16/07 Q1027 TEMPO RA RMK PP000 RWY10 24014KT=
SPZO Mar2003-132000Z VRB03KT 9999 VCRA FEW040TCU BKN046 17/06 Q1026 NOSIG RMK PP000 RWY10 29012KT=
SPZO Mar2003-132100Z 27010KT 9000E VCRA FEW040TCU BKN046 13/08 Q1027 TEMPO RA RMK PP000 RWY10 30016KT=
SPZO Mar2003-132200Z VRB02KT 9999 SCT046 OVC060 14/07 Q1027 NOSIG RMK PP000 TMX: 20.0=
SPZO Mar2003-132300Z VRB01KT 9999 BKN050 13/08 Q1027 NOSIG RMK PP000=
SPZO Mar2003-140000Z 05003KT 9999 BKN040 12/09 Q1028 RMK PP000=
SPZO Mar2003-140100Z 30003KT 9999 BKN040 12/08 Q1029 RMK PP000=
SPZO Mar2003-140200Z VRB02KT 9999 BKN040 SCT080 12/09 Q1030 PP000=
SPZO Mar2003-140300Z 31005KT 260V010 9999 BKN040 SCT070 13/08 Q1030
SPZO Mar2003-140400Z 27007KT 9999 BKN040 11/07 Q1031 RMK PP000=
SPZO Mar2003-140500Z 28006KT 250V330 8000 -DZ BKN040 11/07 Q1031
SPZO Mar2003-140600Z 21003KT 9000 OVC040 10/07 Q1030 REDZ RMK PP002=
SPZO Mar2003-140700Z 00000KT 9999 OVC040 11/08 Q1030 RMK PP000=
SPZO Mar2003-140800Z 00000KT 8000 -DZ OVC040 10/07 Q1029 RMK PPTRZ=
SPZO Mar2003-140900Z 12005KT 100V160 9000 OVC040 09/06 Q1029 REDZ
SPZO Mar2003-141000Z 00000KT 9999 BKN040 SCT050 09/06 Q1030 RMK PP000=
SPZO Mar2003-141100Z 00000KT 9999 SCT040 SCT050 OVC060 09/07 Q1030
SPZO Mar2003-141200Z 00000KT 9999 BKN050 10/07 Q1031 NOSIG RMK PP000=
SPZO Mar2003-141300Z VRB02KT 9999 FEW050 SCT100 13/08 Q1031 NOSIG RMK PP000=
SPZO Mar2003-141400Z VRB03KT 9999 SCT050 14/05 Q1031 NOSIG RMK PP000=
SPZO Mar2003-141500Z VRB03KT 9999 BKN050 16/05 Q1031 NOSIG RMK PP000=
SPZO Mar2003-141600Z 08005KT 050V120 9999 BKN050 17/07 Q1030 NOSIG RMK PP000=
SPZO Mar2003-141700Z VRB03KT 9999 BKN050 19/08 Q1029 NOSIG RMK PP000=
SPZO Mar2003-141800Z 28005KT 240V340 9999 BKN050 19/04 Q1027 NOSIG RMK PP000=
SPZO Mar2003-141900Z VRB05KT 9999 FEW050 BKN100 19/05 Q1026 NOSIG RMK PP000 RWY10 29019KT=
SPZO Mar2003-142000Z VRB05KT 9999 SCT050 21/05 Q1025 NOSIG RMK PP000 RWY10 32012KT=
SPZO Mar2003-142100Z 30008KT 250V360 9999 SCT050 20/06 Q1024 NOSIG RMK PP000=
SPZO Mar2003-142200Z 29012KT 250V330 9999 SCT050 19/07 Q1024 NOSIG RMK PP000 TMX: 21.6=
SPZO Mar2003-142300Z 34009KT 310V040 9999 VCRA SCT040 17/08 Q1025 NOSIG RMK PP000=
SPZO Mar2003-150000Z 33008KT 9999 FEW040 SCT100 15/07 Q1026 PP000=
SPZO Mar2003-150100Z VRB03KT 9999 SCT040 SCT080 14/08 Q1027 PP000=
SPZO Mar2003-150135Z 12009KT 8000 RA SCT037TCU BKN040 09/06 Q1030=
SPZO Mar2003-150200Z VRB03KT 8000 +RA SCT037TCU BKN040 09/06 Q1031 PP024=
SPZO Mar2003-150300Z 09008KT 9999 -RA FEW037TCU OVC040 09/06 Q1031 PP008=
SPZO Mar2003-150400Z 08005KT 9999 OVC040 09/06 Q1031 PP000=
SPZO Mar2003-150500Z 00000KT 9999 SCT030 BKN040 09/07 Q1030 PP000=
SPZO Mar2003-150600Z 00000KT 9999 OVC040 09/07 Q1030 PP000=
SPZO Mar2003-150700Z 00000KT 9999 BKN040 SCT047 10/07 Q1029 PP000=
SPZO Mar2003-150800Z 00000KT 9999 BKN040 SCT070 09/07 Q1029 PP000=
SPZO Mar2003-150900Z 00000KT 9999 SCT030 SCT080 08/07 Q1029 PP000=
SPZO Mar2003-151000Z 00000KT 9999 FEW030 SCT100 09/07 Q1029 PP000=
SPZO Mar2003-151100Z VRB02KT 9999 FEW030 SCT043 BKN300 08/06 Q1030 PP000=
SPZO Mar2003-151200Z 00000KT 9999 FEW040 OVC100 09/07 Q1031 NOSIG RMK PP000=
SPZO Mar2003-151300Z 00000KT 9999 FEW040 BKN090 11/07 Q1032 NOSIG RMK PP000 BCBR NE=
SPZO Mar2003-151400Z VRB01KT 9999 FEW040 BKN080 12/07 Q1032 NOSIG RMK PP000=
SPZO Mar2003-151500Z VRB03KT 9999 SCT040 15/07 Q1032 NOSIG RMK PP000=
SPZO Mar2003-151600Z VRB03KT 9999 SCT043 18/06 Q1031 NOSIG RMK PP000=
SPZO Mar2003-151700Z VRB03KT 9999 SCT050 BKN200 18/04 Q1030 NOSIG RMK PP000=
SPZO Mar2003-151800Z VRB05KT 9999 SCT050 BKN100 19/07 Q1029 NOSIG RMK PP000=
SPZO Mar2003-151900Z 01013KT 330V060 9999 VCSH SCT040 SCT043TCU 17/06
SPZO Mar2003-151912Z 02012KT 340V050 9000 SHRA SCT040 BKN043TCU 13/05 Q1028=
SPZO Mar2003-152000Z 08015KT 050V100 8000 TSRA BKN040 SCT043CB 11/07
SPZO Mar2003-152100Z 34005KT 290V040 9000 RA SCT040 BKN047 11/07 Q1029
SPZO Mar2003-152200Z VRB03KT 9999 FEW040 BKN080 13/07 Q1028 RERA
SPZO Mar2003-152300Z VRB01KT 9999 SCT050 SCT100 11/07 Q1028 NOSIG
SPZO Mar2003-160000Z 00000KT 9999 SCT040 SCT100 11/07 Q1029 PP000=
SPZO Mar2003-160100Z VRB01KT 9999 SCT040 SCT100 11/08 Q1030 PP000=
SPZO Mar2003-160200Z VRB02KT 9999 SCT043 SCT200 10/08 Q1030 PP000=
SPZO Mar2003-160300Z 06004KT 9999 BKN040 SCT100 10/08 Q1031 PP000=
SPZO Mar2003-160400Z 00000KT 9999 BKN040 SCT080 10/08 Q1032 PP000=
SPZO Mar2003-160500Z 00000KT 9999 BKN040 SCT050 09/07 Q1031 PP000=
SPZO Mar2003-160600Z 00000KT 9999 SCT037 BKN040 10/08 Q1031 PP000=
SPZO Mar2003-160700Z 00000KT 8000 -RA FEW037 OVC040 09/08 Q1030 PP004=
SPZO Mar2003-160800Z 00000KT 8000 -RA OVC040 09/08 Q1030 PP020=
SPZO Mar2003-160900Z 00000KT 9999 DZ FEW030 OVC040 10/07 Q1030 PP004=
SPZO Mar2003-161000Z 10004KT 9999 SCT030 SCT050 09/08 Q1030 PP000=
SPZO Mar2003-161100Z VRB02KT 9000E FEW020 SCT040 BKN100 08/07 Q1031 PP000=
SPZO Mar2003-161112Z 00000KT 8000E SCT020 SCT040 BKN300 08/07 Q1031 RMK BR=
SPZO Mar2003-161200Z 25004KT 180V290 9000E FEW025 SCT040 BKN080 09/08
SPZO Mar2003-161221Z 09004KT 060V120 9999 SCT040 BKN080 10/08 Q1032=
SPZO Mar2003-161300Z VRB02KT 9999 SCT040 BKN080 11/08 Q1032 NOSIG
SPZO Mar2003-161400Z VRB02KT 9999 SCT040 SCT100 14/08 Q1033 NOSIG
SPZO Mar2003-161500Z VRB03KT 9999 FEW040 SCT050 16/06 Q1033 NOSIG
SPZO Mar2003-161600Z 10006KT 060V140 9999 SCT040 SCT100 16/08 Q1032
SPZO Mar2003-161700Z VRB05KT 9999 SCT040 SCT080 18/09 Q1031 NOSIG
SPZO Mar2003-161800Z 10007KT 050V140 9999 BKN043 18/08 Q1030 NOSIG
SPZO Mar2003-161900Z 10006KT 070V150 9999 BKN040 SCT300 19/04 Q1028
SPZO Mar2003-162000Z VRB03KT 9999 BKN043 SCT300 20/04 Q1027 NOSIG
SPZO Mar2003-162100Z 28014KT 9999 VCSH BKN043 SCT300 18/08 Q1027
SPZO Mar2003-162128Z 29010KT 9999 VCSH FEW040TCU SCT043TCU BKN100
SPZO Mar2003-162200Z 27012KT 240V300 9999 VCSH FEW040 SCT043TCU BKN100
SPZO Mar2003-162300Z 27009KT 9999 BKN040 SCT043 14/08 Q1028 BECMG
SPZO Mar2003-170000Z 32010KT 9999 SCT040 BKN050 15/06 Q1029 RMK PP000=
SPZO Mar2003-170100Z 11005KT 9999 SCT040 BKN050 12/08 Q1031 RMK PP000=
SPZO Mar2003-170200Z 10003KT 9999 SCT040 BKN050 12/08 Q1032 RMK PP000=
SPZO Mar2003-170300Z 00000KT 9999 SCT040 BKN050 12/08 Q1032 RMK PP000=
SPZO Mar2003-170400Z 09004KT 8000 -RA SCT040 BKN050 11/08 Q1033 PP004=
SPZO Mar2003-170500Z 10003KT 8000 -RA SCT040 BKN050 10/08 Q1032 PP004=
SPZO Mar2003-170600Z 00000KT 8000 -RA SCT040 BKN050 10/09 Q1032 PP002=
SPZO Mar2003-170700Z 00000KT 9000 SCT040 BKN050 10/08 Q1031 RERA
SPZO Mar2003-170800Z 00000KT 9999 SCT030 BKN040 10/08 Q1031 RMK PP000=
SPZO Mar2003-170900Z 00000KT 9999 SCT030 BKN040 10/08 Q1031 RMK PP000=
SPZO Mar2003-171000Z 00000KT 9999 SCT030 BKN040 10/08 Q1031 RMK PP000=
SPZO Mar2003-171100Z 26006KT 230V290 8000 SCT030 BKN040 10/07 Q1031 RMK BR PP000=
SPZO Mar2003-171116Z VRB03KT 9999 SCT020 BKN040 BKN043 10/07 Q1031
SPZO Mar2003-171138Z 29005KT 9999 VCRA SCT025 BKN040 BKN043 10/07
SPZO Mar2003-171200Z 29005KT 260V340 9999 VCRA SCT025 BKN040 BKN043
SPZO Mar2003-171222Z 31005KT 270V010 9999 SCT030 SCT040 BKN043 11/07 Q1032=
SPZO Mar2003-171300Z 29004KT 250V330 9999 SCT030 SCT040 BKN043 11/07
SPZO Mar2003-171400Z VRB01KT 9999 SCT033 BKN043 13/07 Q1033 NOSIG
SPZO Mar2003-171500Z VRB03KT 9999 BKN040 SCT047 14/07 Q1033 NOSIG
SPZO Mar2003-171518Z 08004KT 020V140 9999 VCRA SCT040 BKN050 14/09
SPZO Mar2003-171600Z VRB03KT 9999 VCSH SCT040 BKN060 15/07 Q1032
SPZO Mar2003-171700Z VRB01KT 9999 VCSH BKN040 SCT060 16/06 Q1031
SPZO Mar2003-171800Z VRB04KT 9999 -RA BKN040 SCT060 16/08 Q1030 RESHRA TEMPO FM1815 NSW RMK PPTRZ=
SPZO Mar2003-171820Z 30007KT 250V030 9999 RERAVCRA SCT040 BKN050 15/0 Q1029=
SPZO Mar2003-171900Z 24006KT 200V290 9999 VCRA BKN040 SCT046 15/06 Q1029 NOSIG RMK PPTRZ RWY10 25013KT=
SPZO Mar2003-172000Z 27008KT 220V310 9999 VCRA FEW037TCU SCT040 SCT050 16/07 Q1028 TEMPO RA RMK PP000 RWY10 30013KT=
SPZO Mar2003-172100Z 14004KT 080V180 9999 VCRA SCT040 BKN046 15/08 Q1028 NOSIG RMK PP000 RWY10 36009KT=
SPZO Mar2003-172200Z 12004KT 060V150 9999 FEW040TCU BKN060 15/08 Q1028 TEMPO RA RMK PP000 TMX:17.7=
SPZO Mar2003-172300Z 12004KT 080V150 9999 SCT040 BKN050 13/07 Q1028 NOSIG RMK PP000=
SPZO Mar2003-180000Z 11003KT 9999 OVC040 13/07 Q1029 RMK PP000=
SPZO Mar2003-180100Z 05004KT 9999 OVC040 12/07 Q1030 RMK PP000=
SPZO Mar2003-180200Z 12003KT 9999 OVC040 12/08 Q1031 RMK PP000=
SPZO Mar2003-180300Z 00000KT 9999 OVC040 11/08 Q1031 RMK PP000=
SPZO Mar2003-180400Z 00000KT 9999 OVC040 12/08 Q1031 RMK PP000=
SPZO Mar2003-180500Z 09002KT 9999 OVC040 11/08 Q1031 RMK PP000=
SPZO Mar2003-180600Z 00000KT 9999 OVC040 11/07 Q1030 RMK PP000=
SPZO Mar2003-180700Z 10003KT 9999 OVC040 10/08 Q1029 RMK PP000=
SPZO Mar2003-180800Z 11002KT 9999 OVC040 10/08 Q1029 RMK PP000=
SPZO Mar2003-180900Z 10003KT 9999 OVC040 10/08 Q1028 RMK PP000=
SPZO Mar2003-181000Z 00000KT 9999 OVC040 10/08 Q1029 RMK PP000=
SPZO Mar2003-181100Z 00000KT 9999 OVC040 10/08 Q1029 RMK PP000=
SPZO Mar2003-181200Z VRB02KT 9999 FEW037 SCT040 SCT050 11/09 Q1030 NOSIG RNK PP000=
SPZO Mar2003-181300Z VRB02KT 9999 FEW033 SCT043 SCT050 12/08 Q1031 NOSIG RMK PP000 BCBR NE=
SPZO Mar2003-181400Z 10008KT 070V140 9000E VCRA FEW033 SCT043 SCT060 13/08 Q1031 NOSIG RMK PP000 RWY10 09012KT=
SPZO Mar2003-181500Z 09006KT 060V130 9999 VCRA SCT040 BKN050 13/08 Q1031 NOSIG RMK PP000 RWY10 08011KT=
SPZO Mar2003-181600Z VRB03KT 9999 VCRA SCT040 SCT050 15/07 Q1030 NOSIG RMK PP000=
SPZO Mar2003-181700Z 00000KT 9999 SCT043 SCT050 15/07 Q1029 NOSIG RMK PP002 -RA EFIMERO=
SPZO Mar2003-181800Z 07008KT 9000E VCRA FEW40TCU BKN046 15/08 Q1027 TEMPO RA RMK PP000 RWY10 02007KT=
SPZO Mar2003-181807Z 07008KT 9000 -RA SCT040 SCT046 14/08 Q1027=
SPZO Mar2003-181900Z 26007KT 210V310 9000 VCRA SCT040 BKN046 15/09 Q1026 TEMPO -RA RMK PP002 RWY10 26014KT=
SPZO Mar2003-182000Z 11006KT 090V150 9000 VCRA SCT040 SCT050 15/09 Q1026 NOSIG RMK PP000 RWY10 26008KT=
SPZO Mar2003-182031Z 07007KT 9000 -RA BKN040 SCT046 12/08 Q1026=
SPZO Mar2003-182100Z VRB03KT 9000 -RA BKN040 SCT046 13/07 Q1026 NOSIG RMK PPTRAZ=
SPZO Mar2003-182200Z 17005KT 120V240 9999 VCRA BKN037 SCT043 12/07 Q1027 NOSIG RMK PP002 CLNG BLW 1200M TMX:17.8=
SPZO Mar2003-182300Z 09004KT 060V130 6000 RA BKN033 SCT040 10/07 Q1028 NOSIG RMK PP004 CLNG BLW 1200M=
SPZO Mar2003-190000Z 00000KT 8000 -RA BKN037 SCT046 09/07 Q1029 PP022=
SPZO Mar2003-190100Z VRB02KT 9999 DZ SCT030 BKN046 10/08 Q1029 PP008=
SPZO Mar2003-190200Z 00000KT 9999 FEW030 OVC040 10/08 Q1030 PP002=
SPZO Mar2003-190300Z VRB03KT 9999 SCT030 BKN043 10/08 Q1031 PP000=
SPZO Mar2003-190400Z 00000KT 9999 OVC040 10/07 Q1031 PP000=
SPZO Mar2003-190500Z 00000KT 9999 SCT030 BKN040 10/08 Q1030 PP000=
SPZO Mar2003-190600Z 00000KT 9999 SCT025 BKN040 09/07 Q1030 PP000=
SPZO Mar2003-190700Z 00000KT 9999 SCT037 BKN043 09/08 Q1030 PP000=
SPZO Mar2003-190800Z 00000KT 9999 OVC040 10/08 Q1030 PP000=
SPZO Mar2003-190900Z 00000KT 9999 BKN040 SCT050 09/08 Q1029 PP000=
SPZO Mar2003-191000Z 00000KT 9999 BKN040 SCT050 09/08 Q1030 PP000=
SPZO Mar2003-191100Z VRB03KT 9999 FEW025 SCT040 BKN060 09/08 Q1030 PP000=
SPZO Mar2003-191200Z 00000KT 9999 SCT040 SCT050 10/08 Q1031 NOSIG RMK PP000 BCBR NW=
SPZO Mar2003-191300Z VRB02KT 99999 FEW035 SCT043 12/08 Q1032 NOSIG RMK PP000 BCBR NE=
SPZO Mar2003-191400Z VRB03KT 9999 FEW040 SCT046 14/08 Q1031 NOSIG RMK PP000=
SPZO Mar2003-191500Z 00000KT 9999 SCT040 SCT050 15/07 Q1031 NOSIG RMK PP000 RWY10 06007KT=
SPZO Mar2003-191600Z VRB03KT 9999 FEW040 SCT050 17/06 Q1030 NOSIG RMK PP000=
SPZO Mar2003-191700Z VRB03KT 9999 FEW040TCU SCT050 17/06 Q1029 TEMPO VCRA RMK PP000=
SPZO Mar2003-191800Z 01011KT 340V040 9000 -RA SCT040TCU BKN046 15/07
SPZO Mar2003-191805Z 01014KT 330V070 8000 TSRA SCT040CB BKN047 13/07 Q1029 TEMPO 6000=
SPZO Mar2003-191810Z 36011KT 330V070 7000 +TSRA BKN040CB Q1029 TEMPO FM1820 9000=
SPZO Mar2003-191830Z 26011KT 8000 TSRA BKN040CB SCT047 11/08 Q1030=
SPZO Mar2003-191900Z 22007KT 190V280 7000 RA SCT040CB BKN047 11/08
SPZO Mar2003-192000Z VRB03KT 9000 -RA FEW025 BKN040 BKN047 10/08 Q1030
SPZO Mar2003-192026Z 00000KT RERA=
SPZO Mar2003-192100Z 00000KT 9999 FEW025 SCT040 BKN060 11/08 Q1029
SPZO Mar2003-192200Z 00000KT 9999 FEW025 SCT043 BKN080 12/07 Q1029
SPZO Mar2003-192300Z 00000KT 9999 FEW025 BKN100 11/08 Q1029 NOSIG
SPZO Mar2003-200000Z VRB02KT 9999 FEW037 OVC040 10/06 Q01030 PP000=
SPZO Mar2003-200100Z 00000KT 9999 SCT043 SCT100 09/07 Q1031 PP000=
SPZO Mar2003-200200Z 00000KT 9999 SCT043 SCT100 09/07 Q1031 PP000=
SPZO Mar2003-200300Z 00000KT 9999 SCT040 SCT050 08/06 Q1031 PP000=
SPZO Mar2003-200400Z VRB02KT 9999 FEW040 SCT060 08/06 Q31 PP000=
SPZO Mar2003-200500Z 00000KT 9999 SCT040 SCT080 08/07 Q1031 PP000=
SPZO Mar2003-200600Z 00000KT 9999 BKN040 SCT080 08/07 Q1031 PP000=
SPZO Mar2003-200700Z 00000KT 9999 SCT040 SCT070 09/07 Q1031 PP000=
SPZO Mar2003-200800Z 00000KT 9999 OVC040 09/07 Q1031 P000=
SPZO Mar2003-200900Z VRB02KT 9999 VCSH OVC040 09/08 Q1031 PP002=
SPZO Mar2003-201000Z 00000KT 9999 BKN040 SCT050 09/07 Q1031 PP000=
SPZO Mar2003-201100Z VRB01KT 9999 FEW030 SCT040 BKN050 09/08 Q1031 PP000=
SPZO Mar2003-201200Z VRB01KT 8000 BKN040 SCT047 09/08 Q1032 TEMPO
SPZO Mar2003-201300Z VRB02KT 9000 FEW030 SCT040 BKN047 10/08 Q1033
SPZO Mar2003-201337Z VRB02KT 9000 VCRA FEW030 SCT040 BKN047 12/08 Q1033=
SPZO Mar2003-201400Z VRB02KT 9000 -DZ FEW030 SCT040 BKN047 12/08 Q1033
SPZO Mar2003-201500Z 00000KT 9999 VCRA FEW030 SCT040 BKN047 14/08
SPZO Mar2003-201530Z VRB02KT 9999 SCT037 BKN080 16/09 Q1033=
SPZO Mar2003-201600Z VRB02KT 9999 SCT037 BKN100 16/07 Q1032 NOSIG
SPZO Mar2003-201700Z 00000KT 9999 SCT040 SCT100 17/07 Q1031 NOSIG
SPZO Mar2003-201800Z VRB01KT 9999 VCSH FEW040 SCT043TCU BKN100 17/06 Q1030 TEMPO 9000 -SHRA RMK PP000=
SPZO Mar2003-201900Z VRB03KT 9999 FEW040 SCT047TCU BKN100 15/08 Q1029
SPZO Mar2003-202000Z VRB03KT 9999 FEW040 SCT100 BKN300 17/08 Q1028 NOSIG PP000=
SPZO Mar2003-202100Z VRB02KT 9999 SCT043 BKN300 18/07 Q1027 NOSIG
SPZO Mar2003-202200Z VRB03KT 9999 SCT043 BKN100 18/07 Q1027 NOSIG
SPZO Mar2003-202300Z 11005KT 080V150 9999 SCT040 SCT060 BKN300 15/08
SPZO Mar2003-210000Z 00000KT 9999 OVC050 14/07 Q1029 RMK PP000=
SPZO Mar2003-210100Z 00000KT 9999 OVC050 13/08 Q1030 RMK PP000=
SPZO Mar2003-210200Z 00000KT 9999 OVC050 12/09 Q1032 RMK PP000=
SPZO Mar2003-210300Z 25006KT 170V310 5000 RA SCT040 SCT050 10/06 Q1033 RMK PP018=
SPZO Mar2003-210400Z 29003KT 8000 -RA BKN040 SCT050 09/06 Q1033 PP006=
SPZO Mar2003-210500Z 00000KT 9000 OVC040 10/07 Q1033 RERA RMK PPTRZ=
SPZO Mar2003-210600Z 28003KT 7000 -RA SCT030 BKN040 09/07 Q1033 PP008=
SPZO Mar2003-210700Z 30005KT 8000 SCT030 BKN040 09/06 Q1032 RERA RMK PP002=
SPZO Mar2003-210800Z 00000KT 9999 SCT030 BKN040 09/06 Q1032 RMK PP000=
SPZO Mar2003-210900Z 00000KT 7000 -RA SCT030 BKN040 09/07 Q1032 PP002=
SPZO Mar2003-211000Z 00000KT 7000 -RA SCT030 OVC040 09/06 Q1033 PP002=
SPZO Mar2003-211030Z 00000KT 7000 -RA SCT030 OVC040 09/07 Q1033=
SPZO Mar2003-211100Z 00000KT 7000 -RA SCT030 OVC040 09/07 Q1033 PP002=
SPZO Mar2003-211135Z 00000KT 9999 -DZ SCT025 BKN040 OVC043 09/06
SPZO Mar2003-211200Z 00000KT 9999 SCT025 OVC040 09/06 Q1034 REDZ TEMPO
SPZO Mar2003-211300Z VRB02KT 9999 SCT025 BKN040 BKN043 09/06 Q1034
SPZO Mar2003-211322Z 00000KT 9999 -RA SCT025 BKN040 OVC060 10/06 Q1034=
SPZO Mar2003-211400Z VRB01KT 9999 SCT030 SCT060 OVC080 11/06 Q1034 RERA
SPZO Mar2003-211500Z VRB01KT 9999 SCT033 BKN080 14/07 Q1034 NOSIG
SPZO Mar2003-211600Z VRB03KT 9999 BKN043 SCT050 15/06 Q1033 NOSIG
SPZO Mar2003-211620Z 00000KT 9000 VCSH BKN040 SCT060 15/06 Q1033=
SPZO Mar2003-211700Z VRB02KT 9999 SCT040 SCT300 17/08 Q1032 NOSIG
SPZO Mar2003-211800Z VRB03KT 9999 SCT043 SCT060 17/07 Q1030 NOSIG RMK PP000=
SPZO Mar2003-211900Z VRB03KT 9999 SCT043 SCT050 16/06 Q1029 NOSIG RMK PP000=
SPZO Mar2003-212000Z VRB03KT 9999 SCT043 BKN100 19/07 Q1028 NOSIG RMK PP000=
SPZO Mar2003-212100Z 01010KT 320V070 9999 SCT043 BKN080 17/06 Q1028 TEMPO -RA RMK PP000 RWY19 36012KT=
SPZO Mar2003-212200Z 04006KT 340V110 9999 SCT043 BKN080 16/06 Q1028 NOSIG RMK PP000 TMX:19.0=
SPZO Mar2003-212300Z VRB07KT 9999 FEW040TCU BKN046 15/06 Q1029 TEMPO VCRA RMK PP000=
SPZO Mar2003-220000Z 00000KT 9999 OVC040 14/07 Q1030 RMK PP000=
SPZO Mar2003-220100Z 14004KT 100V220 9999 OVC040 13/06 Q1031 PP000=
SPZO Mar2003-220200Z 00000KT 9999 OVC040 12/05 Q1032 RMK PP000=
SPZO Mar2003-220300Z VRB02KT 9999 OVC040 12/05 Q1033 RMK PP000=
SPZO Mar2003-220400Z VRB02KT 9999 OVC040 11/06 Q1033 RMK PP000=
SPZO Mar2003-220500Z 12003KT 9999 OVC040 10/06 Q1033 RMK PP000=
SPZO Mar2003-220600Z VRB02KT 9999 OVC040 10/06 Q1032 RMK PP000=
SPZO Mar2003-220700Z 00000KT 7000 -RA SCT030 BKN040 10/06 Q1032 PP002=
SPZO Mar2003-220800Z 07003KT 8000 SCT030 BKN040 09/07 Q1031 RERA
SPZO Mar2003-220900Z 00000KT 9999 FEW030 OVC040 09/07 Q1031 RMK PP000=
SPZO Mar2003-221000Z 00000KT 9999 FEW030 OVC040 09/07 Q1031 RMK PP000=
SPZO Mar2003-221100Z 00000KT 9999 BKN040 SCT070 09/07 Q1032 RMK PP000=
SPZO Mar2003-221200Z 00000KT 9999 FEW040 SCT050 11/08 Q1032 NOSIG RMK PP000=
SPZO Mar2003-221227Z VRB02KT 9999 SCT040 SCT046 11/08 Q1032=
SPZO Mar2003-221300Z 00000KT 9999 SCT040 SCT050 13/08 Q1033 NOSIG RMK PP000=
SPZO Mar2003-221400Z VRB02KT 9999 FEW040 BKN046 13/07 Q1033 NOSIG RMK PP000=
SPZO Mar2003-221500Z VRB02KT 9999 SCT040 SCT050 15/07 Q1032 NOSIG RMK PP000=
SPZO Mar2003-221600Z VRB03KT 9999 SCT043 SCT050 16/05 Q1031 NOSIG RMK PP000=
SPZO Mar2003-221700Z VRB03KT 9999 FEW040 BKN050 17/07 Q1030 NOSIG RMK PP000=
SPZO Mar2003-221800Z 02013KT 330V080 9999 BKN050 17/03 Q1029 NOSIG RMK PP000=
SPZO Mar2003-221900Z 02012KT 330V060 9999 SCT050 19/03 Q1028 NOSIG RMK PP000=
SPZO Mar2003-222000Z 02013KT 340V060 9999 SCT050 19/03 Q1027 NOSIG RMK PP000=
SPZO Mar2003-222100Z 02015KT 340V070 9999 SCT050 18/03 Q1027 NOSIG RMK PP000=
SPZO Mar2003-222200Z 02014KT 330V060 9999 SCT050 17/03 Q1027 NOSIG RMK PP000 TMX:19.5=
SPZO Mar2003-222300Z 02012KT 9999 SCT050 15/03 Q1027 NOSIG RMK PP000=
SPZO Mar2003-230000Z 32004KT 9999 FEW040 SCT080 14/03 Q1029 PP000=
SPZO Mar2003-230100Z 00000KT 9999 FEW043 SCT080 12/04 Q1030 PP000=
SPZO Mar2003-230200Z VRB02KT 9999 FEW043 11/04 Q1031 PP000=
SPZO Mar2003-230300Z 36005KT 9999 FEW040 09/04 Q1032 PP000=
SPZO Mar2003-230400Z 03004KT 9999 FEW050 08/05 Q1032 PP000=
SPZO Mar2003-230500Z 00000KT 9999 FEW050 08/05 Q1032 PP000=
SPZO Mar2003-230600Z 00000KT 9999 SKC 06/04 Q1032 PP000=
SPZO Mar2003-230700Z 00000KT 9999 SKC 06/04 Q1031 PP000=
SPZO Mar2003-230800Z 00000KT 9999 SKC 06/04 Q1031 PP000=
SPZO Mar2003-230900Z 00000KT 9999 SKC 05/04 Q1031 PP000=
SPZO Mar2003-231000Z VRB02KT 9999 FEW050 SCT080 05/03 Q1032 PP000=
SPZO Mar2003-231100Z 00000KT 9999 FEW050 SCT080 05/03 Q1032 PP000=
SPZO Mar2003-231200Z VRB01KT 9999 FEW050 08/05 Q1033 NOSIG RMK PP000=
SPZO Mar2003-231300Z 00000KT 9999 FEW050 11/06 Q1033 NOSIG RMK PP000=
SPZO Mar2003-231400Z VRB02KT 9999 FEW050 14/06 Q1033 NOSIG RMK PP000=
SPZO Mar2003-231500Z VRB03KT 9999 SCT050 16/05 Q1032 NOSIG RMK PP000=
SPZO Mar2003-231600Z VRB03KT 9999 SCT050 17/06 Q1032 NOSIG PP000=
SPZO Mar2003-231700Z 05004KT 9999 BKN050 18/08 Q1030 NOSIG PP000=
SPZO Mar2003-231800Z 08006KT 9999 FEW043TCU SCT050 19/07 Q1029 NOSIG PP000=
SPZO Mar2003-231900Z 08006KT 9999 SCT050 20/06 Q1027 NOSIG PP000=
SPZO Mar2003-232000Z VRB03KT 9999 SCT050 20/04 Q1026 NOSIG PP000=
SPZO Mar2003-232100Z VRB03KT 9999 FEW040TCU SCT050 20/04 Q1025 NOSIG
SPZO Mar2003-232200Z 36010KT 9999 FEW040TCU SCT200 19/06 Q1025 NOSIG
SPZO Mar2003-232300Z 34005KT 9999 SCT043 SCT200 16/07 Q1027 NOSIG PP000=
SPZO Mar2003-240000Z 31009KT 9999 FEW043 SCT080 15/07 Q1028 PP000=
SPZO Mar2003-240100Z 31005KT 9999 SCT040 SCT050 15/07 Q1029 PP000=
SPZO Mar2003-240200Z 30008KT 9999 SCT040 SCT080 14/07 Q1030 PP000=
SPZO Mar2003-240300Z 30007KT 9999 SCT040 SCT070 13/07 Q1030 PP000=
SPZO Mar2003-240400Z 00000KT 9999 SCT037 SCT070 13/07 Q1031 PP000=
SPZO Mar2003-240500Z 00000KT 9999 SCT037 SCT070 12/08 Q1030 PP000=
SPZO Mar2003-240600Z 00000KT 9999 BKN040 SCT050 12/07 Q1030 PP000=
SPZO Mar2003-240700Z 00000KT 9999 OVC040 12/08 Q1030 PP000=
SPZO Mar2003-240800Z 00000KT 9999 OVC043 11/07 Q1030 PP000=
SPZO Mar2003-240900Z 00000KT 9999 BKN040 SCT050 10/08 Q1030 PP000=
SPZO Mar2003-241000Z 00000KT 9999 SCT040 SCT050 10/08 Q1030 PP000=
SPZO Mar2003-241100Z 00000KT 9999 SCT040 SCT050 10/08 Q1031 PP000=
SPZO Mar2003-241200Z 00000KT 9000 SCT040 SCT060 12/08 Q1031 TEMPO 9999 RMK PP000=
SPZO Mar2003-241300Z 09004KT 040V120 9999 SCT040 SCT100 13/08 Q1032 NOSIG RMK PP000=
SPZO Mar2003-241400Z 08004KT 360V170 9999 SCT040 16/07 Q1032 NOSIG RMK PP000=
SPZO Mar2003-241500Z VRB04KT 9999 BKN043 17/08 Q1031 NOSIG RMK PP000=
SPZO Mar2003-241600Z 00000KT 9999 SCT043TCU SCT050 18/06 Q1031 NOSIG PP000=
SPZO Mar2003-241700Z 11007KT 080V150 9999 SCT040TCU SCT047 18/08 Q1030 NOSIG PP000=
SPZO Mar2003-241705Z 12008KT 9000 RASH BKN040TCU SCT047 15/08 Q1030 TEMPO 9999=
SPZO Mar2003-241738Z 01009KT 9000 VC-RA FEW040TCU BKN053 16/06 Q1029 RESH=
SPZO Mar2003-241800Z 02011KT 320V050 9000W VC-RA FEW040TCU BKN053
SPZO Mar2003-241822Z 01009KT 340V060 9000 SHRA SCT040TCU SCT050 15/07 Q1029=
SPZO Mar2003-241900Z 28005KT 230V350 9999 FEW040TCU BKN047 14/08 Q1028
SPZO Mar2003-242000Z 28006KT 9999 SCT043 SCT150 15/07 Q1028 NOSIG PP000=
SPZO Mar2003-242100Z 26009KT 9000E VCRA SCT043 BKN060 14/07 Q1028
SPZO Mar2003-242200Z 27006KT 8000E VCRA SCT040 BKN060 14/07 Q1029
SPZO Mar2003-242300Z 02004KT 9999 FEW025 SCT047 BKN060 12/09 Q1029
SPZO Mar2003-250000Z 09004KT 070V140 9999 OVC040 10/08 Q1030 PP000=
SPZO Mar2003-250100Z 05005KT 340V130 5000 RA SCT030 BKN040 09/06 Q1033
SPZO Mar2003-250200Z VRB03KT 4000 +RA SCT030TCU BKN040 08/07 Q1034
SPZO Mar2003-250300Z 28003KT 5000 RA SCT030TCU BKN040 08/07 Q1034
SPZO Mar2003-250400Z 28006KT 7000 -RA SCT030 BKN040 08/07 Q1033 PP012=
SPZO Mar2003-250500Z 07007KT 040V100 8000 FEW030 BKN040 09/07 Q1033
SPZO Mar2003-250600Z 17002KT 9999 FEW030 BKN040 08/06 Q1032 RMK PP000=
SPZO Mar2003-250700Z 11004KT 9999 OVC040 08/06 Q1032 RMK PP000=
SPZO Mar2003-250800Z 00000KT 9999 OVC040 08/06 Q1031 RMK PP000=
SPZO Mar2003-250900Z 00000KT 9999 OVC040 08/06 Q1031 RMK PP000=
SPZO Mar2003-251000Z 00000KT 9999 OVC040 08/07 Q1032 RMK PP000=
SPZO Mar2003-251100Z 00000KT 7000 -DZ SCT030 SCT040 08/07 Q1032 RMK BR PPTRZ=
SPZO Mar2003-251134Z 00000KT 99999 SCT030 SCT040 BKN043 08/07 Q1033=
SPZO Mar2003-251200Z 00000KT 9999 VCRA SCT030 SCT040 BKN050 09/07
SPZO Mar2003-251300Z VRB03KT 9999 SCT030 SCT040 BKN050 09/07 Q1034
SPZO Mar2003-251400Z 09004KT 010V130 9999 SCT037 BKN060 11/07 Q1034
SPZO Mar2003-251500Z VRB02KT 9999 FEW040 BKN080 15/08 Q1034 NOSIG
SPZO Mar2003-251600Z 12004KT 030V190 9999 SCT040 BKN080 15/06 Q1033
SPZO Mar2003-251700Z VRB03KT 9999 SCT040 SCT080 16/06 Q1032 NOSIG
SPZO Mar2003-251800Z VRB02KT 9999 FEW040 SCT047 18/04 Q1030 NOSIG RMK PP000=
SPZO Mar2003-251900Z VRB02KT 9999 FEW040TCU SCT046 18/04 Q1029 TEMPO VCRA RMK PP000 RWY10 16020KT=
SPZO Mar2003-252000Z 14008KT 110V170 9000 -RA SCT040 SCT046 14/07 Q1029 NOSIG RMK PP000=
SPZO Mar2003-252100Z VRB02KT 9999 FEW040 SCT200 15/06 Q1028 NOSIG RMK PPTRZ=
SPZO Mar2003-252200Z VRB02KT 9999 SCT050 14/05 Q1028 NOSIG RMK PP000 TMX:18.4=
SPZO Mar2003-252300Z 00000KT 9999 SCT046 14/06 Q1028 NOSIG RMK PP0000=
SPZO Mar2003-260000Z 18007KT 120V240 9999 BKN040 12/06 Q1030 PP000=
SPZO Mar2003-260100Z VRB02KT 9999 BKN040 11/06 Q1030 RMK PP000=
SPZO Mar2003-260200Z VRB02KT 9999 BKN040 10/07 Q1031 RMK PP000=
SPZO Mar2003-260300Z 00000KT 9999 OVC040 10/07 Q1031 RMK PP000=
SPZO Mar2003-260400Z 00000KT 9999 OVC040 10/07 Q1031 RMK PP000=
SPZO Mar2003-260500Z 00000KT 9999 OVC040 09/07 Q1031 RMK PP000=
SPZO Mar2003-260600Z 00000KT 9999 OVC040 10/07 Q1031 RMK PP000=
SPZO Mar2003-260700Z 00000KT 9999 OVC040 09/07 Q1030 RMK PP000=
SPZO Mar2003-260800Z 00000KT 7000 -DZ OVC040 09/07 Q1030 RMK PP004=
SPZO Mar2003-260900Z 00000KT 7000 RA BKN030 SCT040 09/07 Q1030 PP010=
SPZO Mar2003-261000Z 00000KT 8000 SCT030 SCT040 09/07 Q1030 RERA
SPZO Mar2003-261100Z 10003KT 8000 SCT030 BKN040 09/07 Q1030 RMK BR PP000=
SPZO Mar2003-261132Z 00000KT 9000 VCRA SCT040 SCT046 09/07 Q1
SPZO Mar2003-261200Z 00000KT 9000E VCRA SCT040 SCT050 09/07 Q1031 NOSIG RMK PP000 RWY WET BCBR NE=
SPZO Mar2003-261234Z 10005KT 9000E VCRA FEW035 SCT040 SCT050 1 Q1031 BCBR/NE=
SPZO Mar2003-261300Z 10005KT 060V140 9000E VCRA FEW035 SCT040 SCT046 10/08 Q1031 NOSIG RMK PP000=
SPZO Mar2003-261400Z VRB02KT 9999 VCRA FEW033 SCT040 SCT046 13/08 Q1032 NOSIG RMK PP000=
SPZO Mar2003-261500Z VRB02KT 9999 FEW040 SCT050 15/06 Q1031 NOSIG RMK PP000=
SPZO Mar2003-261600Z VRB03KT 9999 SCT040 SCT050 16/06 Q1030 NOSIG RMK PP000=
SPZO Mar2003-261700Z VRB03KT 9999 SCT040 SCT050 18/04 Q1029 NOSIG PP000=
SPZO Mar2003-261800Z 30004KT 9999 SCT050 19/05 Q1028 NOSIG PP000=
SPZO Mar2003-261900Z 34005KT 9999 SCT050 20/04 Q1026 NOSIG PP000=
SPZO Mar2003-262000Z 30011KT 9999 FEW040 SCT050 18/07 Q1025 NOSIG PP000=
SPZO Mar2003-262010Z 30011KT 9999 RA SCT040 SCT050 15/08 Q1025=
SPZO Mar2003-262100Z 28008KT 240V330 9999 FEW040TCU SCT050 15/09 Q1025 TEMPO VCSH RMK RWY10 320/17KT PP046=
SPZO Mar2003-262200Z 11006KT 9999 -RA FEW040TCU SCT050 13/07 Q1026 NOSIG RMK RWY10 06017KT PP006 TMAX 20.4=
SPZO Mar2003-262300Z 00000KT 9999 FEW040 SCT050 12/07 Q1026 NOSIG PPTRZ=
SPZO Mar2003-270000Z 12004KT 9999 SCT040 11/09 Q1028 PP000=
SPZO Mar2003-270100Z 00000KT 9999 SCT040 11/08 Q1029 PP000=
SPZO Mar2003-270200Z 00000KT 9999 FEW040 SCT050 11/09 Q1029 PP000=
SPZO Mar2003-270300Z 00000KT 9999 SCT037 SCT050 11/09 Q1030 PP000=
SPZO Mar2003-270400Z VRB03KT 9999 FEW037 BKN047 11/09 Q1030 PP000=
SPZO Mar2003-270500Z 00000KT 9999 SCT037 BKN047 11/07 Q1030 PP000=
SPZO Mar2003-270600Z 00000KT 9999 SCT050 SCT060 10/07 Q1029 PP000=
SPZO Mar2003-270700Z 08004KT 9999 SCT037 BKN047 11/07 Q1029 PP000=
SPZO Mar2003-270800Z 07004KT 9999 FEW033 BKN047 10/06 Q1029 PP000=
SPZO Mar2003-270900Z 10005KT 9999 FEW033 BKN047 09/06 Q1029 PP000=
SPZO Mar2003-271000Z VRB03KT 9999 FEW033 BKN043 09/06 Q1030 PP000=
SPZO Mar2003-271100Z 08004KT 9999 FEW033 SCT040 BKN047 09/07 Q1030 PP000=
SPZO Mar2003-271200Z 27002KT 9999 SCT040 SCT050 10/07 Q1031 NOSIG RMK PP000=
SPZO Mar2003-271300Z VRB02KT 9999 FEW037 SCT046 12/07 Q1031 NOSIG RMK PP000=
SPZO Mar2003-271400Z VRB03KT 9999 SCT040 14/06 Q1031 NOSIG RMK PP000=
SPZO Mar2003-271500Z VRB02KT 9999 SCT050 16/07 Q1031 NOSIG RMK PP000=
SPZO Mar2003-271600Z VRB03KT 9999 SCT046 17/04 Q1030 NOSIG RMK PP000=
SPZO Mar2003-271700Z 07004KT 010V140 9999 FEW040 SCT050 17/04 Q1029 NOSIG RMK PP000=
SPZO Mar2003-271800Z VRB02KT 9999 SCT043 SCT050 18/01 Q1028 NOSIG RMK PP000=
SPZO Mar2003-271900Z VRB04KT 9999 SCT043 BKN100 18/03 Q1027 NOSIG
SPZO Mar2003-272000Z VRB02KT 9999 SCT043 OVC100 19/05 Q1026 NOSIG
SPZO Mar2003-272100Z 30007KT 240V340 9999 SCT043 OVC080 18/06 Q1025
SPZO Mar2003-272200Z 01007KT 320V050 9999 BKN043 SCT100 17/07 Q1026
SPZO Mar2003-272300Z 06006KT 330V120 9999 SCT040 BKN043 16/05 Q1026
SPZO Mar2003-280000Z 00000KT 9999 SCT037 BKN047 14/05 Q1028 PP000=
SPZO Mar2003-280100Z 00000KT 9999 SCT037 SCT050 14/05 Q1029 PP000=
SPZO Mar2003-280200Z VRB02KT 9999 BKN037 SCT050 13/05 Q1031 PP000=
SPZO Mar2003-280300Z 00000KT 9999 BKN037 SCT050 12/06 Q1032 PP000=
SPZO Mar2003-280400Z 05007KT 9999 BKN037 SCT047 13/04 Q1032 PP000=
SPZO Mar2003-280500Z VRB02KT 9999 SCT037 BKN047 12/04 Q1032 PP000=
SPZO Mar2003-280600Z 10004KT 9999 SCT037 BKN050 10/05 Q1031 PP000=
SPZO Mar2003-280700Z 00000KT 9999 SCT037 BKN050 10/06 Q1031 PP000=
SPZO Mar2003-280800Z 00000KT 9999 SCT037 BKN050 10/06 Q1030 PP000=
SPZO Mar2003-280900Z 10004KT 9999 FEW037 SCT050 09/07 Q1031 PP000=
SPZO Mar2003-281000Z 00000KT 9999 FEW037 BKN047 09/07 Q1031 PP000=
SPZO Mar2003-281100Z 00000KT 9999 FEW037 BKN047 10/07 Q1032 PP000=
SPZO Mar2003-281200Z 00000KT 9999 FEW037 BKN043 10/07 Q1032 TEMPO FEW040 BKN047 RMK PP000=
SPZO Mar2003-281237Z 00000KT 9999 FEW040 SCT060 BKN300 11/07 Q1033=
SPZO Mar2003-281300Z 00000KT 9999 FEW040 SCT080 BKN300 11/06 Q1033
SPZO Mar2003-281330Z 00000KT 9999 SCT037 BKN100 13/07 Q1034=
SPZO Mar2003-281400Z VRB01KT 9999 FEW030 SCT040 BKN100 13/06 Q1034
SPZO Mar2003-281434Z VRB02KT 9999 BKN040 SCT060 14/05 Q1034=
SPZO Mar2003-281500Z VRB03KT 9999 BKN040 SCT060 14/05 Q1034 NOSIG
SPZO Mar2003-281527Z VRB03KT 9999 BKN040 BKN080 14/06 Q1033=
SPZO Mar2003-281600Z VRB03KT 9999 BKN040 SCT080 16/06 Q1033 NOSIG RMK PP000=
SPZO Mar2003-281700Z VRB03KT 9999 SCT043 SCT060 17/06 Q1032 NOSIG
SPZO Mar2003-281800Z 09005KT 010V160 9999 SCT043 SCT060 17/06 Q1030
SPZO Mar2003-281900Z 05004KT 350V100 9999 VCSH FEW040TCU FEW043TCU
SPZO Mar2003-282000Z 10009KT 080V140 9999 VCSH SCT040 FEW043TCU 15/07
SPZO Mar2003-282100Z 09007KT 060V120 9999 VCSH FEW030 FEW047TCU SCT100
SPZO Mar2003-282125Z 12012KT 080V140 9000 VCSH FEW030 SCT050TCU SCT100
SPZO Mar2003-282200Z 10011KT 070V140 9999 FEW030 SCT050 13/08 Q1029
SPZO Mar2003-282300Z 09008KT 9999 SCT043 SCT300 12/08 Q1029 NOSIG
SPZO Mar2003-290000Z 00000KT 9999 BKN040 11/07 Q1030 RMK PP000=
SPZO Mar2003-290100Z 00000KT 9999 BKN040 10/07 Q1032 RMK PP000=
SPZO Mar2003-290200Z 08002KT 9999 BKN040 10/08 Q1033 RMK PP000=
SPZO Mar2003-290300Z 00000KT 9999 BKN040 10/08 Q1033 RMK PP000=
SPZO Mar2003-290400Z 00000KT 9999 BKN040 10/08 Q1033 RMK PP000=
SPZO Mar2003-290500Z 00000KT 9999 BKN040 10/08 Q1033 RMK PP000=
SPZO Mar2003-290600Z 00000KT 9999 BKN040 10/08 Q1033 RMK PP000=
SPZO Mar2003-290700Z 00000KT 9999 BKN040 10/07 Q1032 RMK PP000=
SPZO Mar2003-290800Z 00000KT 9999 BKN040 10/08 Q1032 RMK PP000=
SPZO Mar2003-290900Z 00000KT 9999 BKN040 10/08 Q1031 RMK PP000=
SPZO Mar2003-291000Z 00000KT 9999 BKN040 10/08 Q1032 RMK PP000=
SPZO Mar2003-291100Z 00000KT 9999 BKN040 SCT080 09/08 Q1032 RMK PP000=
SPZO Mar2003-291200Z VRB03KT 9999 FEW037 BKN043 10/08 Q1033 TEMPO
SPZO Mar2003-291210Z VRB03KT 9000 FEW037 BKN060 11/08 Q1033=
SPZO Mar2003-291300Z VRB03KT 9999 SCT040 BKN080 12/07 Q1034 NOSIG
SPZO Mar2003-291400Z VRB03KT 9999 SCT040 BKN053 13/07 Q1034 NOSIG
SPZO Mar2003-291500Z 10004KT 030V180 9999 SCT040 BKN060 14/07 Q1034
SPZO Mar2003-291600Z VRB02KT 9999 SCT043 SCT060 16/09 Q1033 NOSIG
SPZO Mar2003-291700Z 10005KT 050V150 9999 SCT040 SCT060 17/07 Q1032
SPZO Mar2003-291800Z VRB05KT 9999 VCSH BKN043 SCT300 19/09 Q1030 NOSIG RMK W PP000=
SPZO Mar2003-291900Z 10006KT 060V160 9999 BKN050 18/06 Q1028 NOSIG RMK PP000=
SPZO Mar2003-292000Z 02011KT 330V100 9999 VCRA SCT043 SCT050 17/06 Q1027 RMK PP000=
SPZO Mar2003-292100Z 27009KT 200V320 9999 SCT046 SCT100 17/06 Q1027 NOSIG RMK PP000=
SPZO Mar2003-292200Z 01007KT 330V080 9999 BKN043 17/07 Q1027 NOSIG RMK PP000 TMX: 20.0=
SPZO Mar2003-292300Z 00000KT 9999 VCRA FEW040 SCT050 14/06 Q1028 NOSIG RMK PP000=
SPZO Mar2003-300000Z 24005KT 170V260 9999 BKN040 13/07 Q1029 PP000=
SPZO Mar2003-300100Z 13002KT 9999 BKN040 11/07 Q1031 RMK PP000=
SPZO Mar2003-300200Z 09002KT 9999 BKN040 10/07 Q1031 RMK PP000=
SPZO Mar2003-300300Z 00000KT 9999 BKN040 11/07 Q1032 RMK PP000=
SPZO Mar2003-300400Z 10002KT 9999 BKN040 10/08 Q1032 RMK PP000=
SPZO Mar2003-300500Z 08003KT 9999 BKN040 10/08 Q1032 RMK PP000=
SPZO Mar2003-300600Z 00000KT 9999 BKN040 10/08 Q1031 RMK PP000=
SPZO Mar2003-300700Z 00000KT 9999 BKN040 11/08 Q1030 RMK PP000=
SPZO Mar2003-300800Z 00000KT 9999 BKN040 11/08 Q1030 RMK PP000=
SPZO Mar2003-300900Z 31007KT 280V350 9999 OVC040 11/07 Q1030 PP000=
SPZO Mar2003-301000Z 29002KT 9999 OVC040 10/07 Q1030 RMK PP000=
SPZO Mar2003-301020Z 30005KT 8000 -DZ OVC040 10/07 Q1031=
SPZO Mar2003-301100Z 00000KT 8000 -DZ OVC040 10/07 Q1031 RMK BR PP006=
SPZO Mar2003-301115Z 00000KT 9999 REDZ SCT040 BKN046 10/07 Q1031=
SPZO Mar2003-301200Z 00000KT 9999 SCT043 BKN050 10/08 Q1031 NOSIG RMK PPTRZ RWY WET=
SPZO Mar2003-301300Z 00000KT 9000 DZ FEW033 OVC046 11/07 Q1032 NOSIG RMK PP000 BCBR NE=
SPZO Mar2003-301400Z 00000KT 9999 REDZ FEW033 BKN046 11/08 Q1033 NOSIG RMK PP004 BCBR E-NE=
SPZO Mar2003-301500Z 00000KT 9999 FEW037 SCT100 13/07 Q1032 NOSIG RMK PP000=
SPZO Mar2003-301600Z 06004KT 340V130 9999 SCT037 SCT200 16/07 Q1031 NOSIG PP000=
SPZO Mar2003-301700Z VRB03KT 9999 VCSH SCT037 SCT200 17/07 Q1030 NOSIG PP000=
SPZO Mar2003-301800Z 06004KT 020V120 9999 VCSH SCT040 SCT050 17/08 Q1028 NOSIG PP000=
SPZO Mar2003-301900Z 34008KT 300V020 9999 -RA FEW040TCU BKN050 16/07 Q1027 NOSIG PPTRZ=
SPZO Mar2003-301930Z 26006KT 9999 RERA SCT040 SCT050 15/08 Q1027=
SPZO Mar2003-302000Z 26005KT 9999 VCSH SCT040 SCT070 15/07 Q1026 NOSIG PPTRZ=
SPZO Mar2003-302100Z 33007KT 250V060 9999 VCSH BKN040 SCT050 15/07 Q1026 NOSIG PP000=
SPZO Mar2003-302200Z 31007KT 280V350 9999 BKN043 SCT080 14/07 Q1026 NOSIG PP000 TMAX.17.5=
SPZO Mar2003-302300Z VRB03KT 9999 BKN040 SCT050 13/08 Q1027 NOSIG PP000=
SPZO Mar2003-310000Z 31004KT 9999 BKN043 13/08 Q1028 PP000=
SPZO Mar2003-310100Z 00000KT 9999 BKN040 SCT050 12/08 Q1029 PP000=
SPZO Mar2003-310200Z 00000KT 9999 SCT037 BKN047 12/08 Q1030 PP000=
SPZO Mar2003-310300Z 26006KT 9999 SCT037 BKN047 12/08 Q1031 PP000=
SPZO Mar2003-310400Z 00000KT 9000 -RA SCT030 BKN040 10/07 Q1032 PP008=
SPZO Mar2003-310500Z VRB03KT 9999 DZ FEW030 BKN040 10/08 Q1032 PP002=
SPZO Mar2003-310600Z VRB03KT 8000 RA SCT030 BKN040 09/08 Q1031 PP016=
SPZO Mar2003-310700Z 00000KT 9000 -RA FEW025 BKN040 09/07 Q1030 PP012=
SPZO Mar2003-310800Z 00000KT 9999 FEW025 SCT037 BKN050 09/07 Q1030 RERA PP004=
SPZO Mar2003-310900Z 00000KT 9999 FEW025 BKN040 09/07 Q1030 PP000=
SPZO Mar2003-311000Z 00000KT 9999 FEW025 BKN040 09/07 Q1030 PP000=
SPZO Mar2003-311100Z 00000KT 9999 FEW027 SCT047 08/06 Q1030 PP000=
SPZO Mar2003-311200Z VRB02KT 9999 FEW033 SCT043 SCT050 09/07 Q1031 NOSIG RMK PP000=
SPZO Mar2003-311300Z VRB02KT 8000E FEW037 SCT043 SCT050 11/08 Q1031 BECMG FM14 9999 RMK PP000 BCBR/FU E-NE=
SPZO Mar2003-311400Z 07004KT 360V140 9999 SCT040 SCT050 14/08 Q1032 NOSIG RMK PP000=
SPZO Mar2003-311500Z 10004KT 020V150 9999 SCT040 SCT050 14/05 Q1032 NOSIG RMK PP000=
SPZO Mar2003-311600Z VRB03KT 9999 SCT040 SCT050 14/07 Q1031 NOSIG PP000=
SPZO Mar2003-311700Z VRB02KT 9999 SCT040 SCT080 16/07 Q1030 NOSIG PP000=
SPZO Mar2003-311800Z VRB03KT 9999 VCSH SCT040 SCT080 16/08 Q1029 NOSIG PP000=
SPZO Mar2003-311827Z 36010KT 320V330 9000 -RA SCT040TCU BKN047 Q1028=
SPZO Mar2003-311900Z VRB02KT 9999 VCSH SCT040 SCT050 14/09 Q1028 NOSIG PP002=
SPZO Mar2003-312000Z VRB02KT 9999 VCSH SCT040 SCT050 16/08 Q1027 NOSIG PP000=
SPZO Mar2003-312100Z VRB03KT 9999 SCT040 SCT080 16/08 Q1026 NOSIG PP000=
SPZO Mar2003-312200Z 01007KT 320V050 9999 VCSH SCT040 SCT050 15/07 Q1026 TEMPO -RA PP000 TMAX 17.3=
SPZO Mar2003-312300Z 00000KT 9999 VCSH BKN040 SCT050 13/09 Q1027 RERA TEMPO -RA PP002=
