SPZO Ene2008-010000Z 00000KT 9999 SCT100 12/05 Q1028 RMK PP000=
SPZO Ene2008-010100Z 27004KT 9999 SCT100 09/05 Q1029 RMK PP000=
SPZO Ene2008-010200Z 00000KT 9999 SCT100 09/05 Q1030 RMK PP000=
SPZO Ene2008-010300Z 08002KT 9000 SCT080 08/05 Q1030 RMK PP000=
SPZO Ene2008-010400Z 00000KT 7000 SCT080 08/05 Q1030 RMK PP000=
SPZO Ene2008-010500Z 00000KT 6000 FU SCT080 08/05 Q1030 RMK PP000=
SPZO Ene2008-010600Z 00000KT 6000 FU FEW030 SCT080 07/05 Q1029 RMK PP000=
SPZO Ene2008-010700Z 00000KT 3000 FU SCT030 BKN080 07/04 Q1029 RMK PP000=
SPZO Ene2008-010800Z 00000KT 2000 FU SCT030 BKN080 06/04 Q1028 RMK PP000=
SPZO Ene2008-010900Z 00000KT 1000 FU SCT030 BKN080 06/04 Q1029 RMK PP000=
SPZO Ene2008-011000Z 00000KT 1000 FU SCT030 BKN080 06/04 Q1029 RMK PP000=
SPZO Ene2008-011100Z 00000KT 2000 FU SCT030 BKN080 05/04 Q1030 BCMG FM12 5000 RMK PP000=
SPZO Ene2008-011200Z 00000KT 1400 R28/1300N FU SCT020 BKN070 07/05 Q1030 BECMG 13 5000 RMK PP000=
SPZO Ene2008-011300Z 00000KT 2700 FU SCT020 SCT070 12/06 Q1031 BECMG 14 8000 RMK PP000=
SPZO Ene2008-011344Z 00000KT 8000 SCT030 SCT080 14/04 Q1030 RMK FU=
SPZO Ene2008-011400Z VRB02KT 9000 SCT030 SCT090 14/04 Q1030 BECMG 1430 9999 RMK FU PP000=
SPZO Ene2008-011500Z VRB02KT 9999 SCT040 SCT100 17/06 Q1029 NOSIG RMK PP000=
SPZO Ene2008-011600Z 03005KT 330V090 9999 SCT040 SCT100 18/04 Q1028 TEMPO=
SPZO Ene2008-011610Z 07006KT 330V140 9999 VCSH SCT040 SCT050 18/05 Q1028 RMK WIND RWY 10 27011KT 200V340=
SPZO Ene2008-011700Z 30010KT 260V340 9999 -SHRA VCSH SCT040 BKN050 15/07 Q1028 NOSIG RMK WIND RWY 10 31016G26KT 260V010 PPTRZ=
SPZO Ene2008-011800Z 26012KT 240V330 9999 VCSH SCT040TCU BKN050 14/07 Q1028 TEMPO -RA RMK WIND RWY10 30020KT 260V330 PP002=
SPZO Ene2008-011900Z 31008KT 260V350 -RA FEW043TCU SCT046 BKN070 13/06 Q1027 NOSIG RMK PP002=
SPZO Ene2008-011912Z VRB03KT 9999 VCSH FEW043TCU SCT050 BKN080 13/06 Q1027=
SPZO Ene2008-012000Z 26007KT 240V300 9999 FEW043 SCT050 BKN080 14/06 Q1026 TEMPO VCSH RMK PP000=
SPZO Ene2008-012100Z VRB03KT 9999 SCT050 SCT230 16/05 Q1025 NOSIG RMK PP000=
SPZO Ene2008-012200Z 13004KT 070V180 9999 FEW046 SCT230 17/04 Q1025 NOSIG RMK T.MAX 19.4 PP000=
SPZO Ene2008-012300Z 11005KT 9999 FEW043 BKN230 16/03 Q1025 NOSIG RMK PP000=
SPZO Ene2008-020000Z VRB03KT 9999 FEW050 SCT230 14/04 Q1026 RMK PP000=
SPZO Ene2008-020100Z VRB02KT 9999 SCT050 11/05 Q1028 RMK PP000=
SPZO Ene2008-020200Z 00000KT 9999 BKN050 10/05 Q1029 RMK PP000=
SPZO Ene2008-020300Z 00000KT 9999 BKN050 11/06 Q1030 RMK PP000=
SPZO Ene2008-020400Z 28003KT 9999 BKN050 09/05 Q1029 RMK PP000=
SPZO Ene2008-020500Z VRB02KT 9999 BKN050 09/06 Q1029 RMK PP000=
SPZO Ene2008-020600Z 00000KT 9999 BKN050 09/06 Q1028 RMK PP000=
SPZO Ene2008-020700Z 27002KT 9999 BKN050 09/06 Q1027 RMK PP000=
SPZO Ene2008-020800Z 00000KT 9999 BKN050 10/06 Q1027 RMK PP000=
SPZO Ene2008-020900Z 26002KT 9999 BKN050 10/06 Q1027 RMK PP000=
SPZO Ene2008-021000Z 09003KT 9999 BKN050 09/06 Q1027 RMK PP000=
SPZO Ene2008-021100Z 05003KT 9999 SCT040 SCT050 09/06 Q1028 RMK PP000=
SPZO Ene2008-021200Z 00000KT 9999 FEW036 SCT046 BKN080 11/07 Q1029 NOSIG RMK PP000=
SPZO Ene2008-021300Z VRB01KT 9999 FEW033 SCT043 BKN050 12/06 Q1029 NOSIG RMK PP000=
SPZO Ene2008-021400Z VRB01KT 9999 FEW036 SCT043 BKN050 13/05 Q1029 NOSIG RMK PP000=
SPZO Ene2008-021500Z VRB02KT 9999 FEW036 SCT043 BKN060 14/06 Q1029 NOSIG RMK PP000=
SPZO Ene2008-021600Z 26007KT 210V330 9999 VCSH FEW040TCU SCT043 BKN050 15/06 Q1029 NOSIG RMK WIND RWY10 31018G34KT 250V010 PP000=
SPZO Ene2008-021620Z 28015G22KT 250V330 9000 RA SCT040TCU BKN046 12/06 Q1029 RMK WIND RWY10 31023G37KT 270V020=
SPZO Ene2008-021700Z 26012KT 240V310 9000 -RA FEW036 SCT043TCU BKN046 09/07 Q1029 NOSIG RMK WIND RWY10 30019KT 260V330 PP044=
SPZO Ene2008-021800Z 28008KT 250V340 9999 DZ FEW033 SCT040 BKN060 12/07 Q1029 TEMPO RA RMK WIND RWY10 22012KT 250V010 PP004=
SPZO Ene2008-021900Z 26005KT 210V290 8000 RA FEW033 SCT040 BKN060 10/07 Q1029 TEMPO 7000 RMK WIND RWY10 31004KT 250V350 PP012=
SPZO Ene2008-021909Z 27004KT 6000 RA FEW033 SCT040 BKN046 10/06 Q1029=
SPZO Ene2008-022000Z 00000KT 7000 RA FEW033 SCT040 BKN046 10/07 Q1029 BCMG FM 8000 2100 RMK PP020=
SPZO Ene2008-022100Z VRB03KT 9000 DZ FEW033 SCT040 BKN050 10/06 Q1028 NOSIG RMK WIND RWY10 VRB06KT PP010=
SPZO Ene2008-022200Z 10003KT 050V150 9999 FEW033 SCT040 BKN060 10/06 Q1028 NOSIG RMK WIND RWY10 10009KT 060V150 T.M.16.2 PP000=
SPZO Ene2008-022300Z 07005KT 9999 FEW036 SCT046 BKN080 10/06 Q1028 NOSIG RMK PP000=
SPZO Ene2008-030000Z 07002KT 9999 SCT043 SCT230 09/06 Q1029 RMK PP000=
SPZO Ene2008-030100Z 08002KT 9999 FEW036 08/06 Q1030 RMK PP000=
SPZO Ene2008-030200Z 00000KT 9999 FEW036 SCT100 08/06 Q1031 RMK PP000=
SPZO Ene2008-030300Z 00000KT 9999 SCT040 SCT050 08/06 Q1032 RMK PP000=
SPZO Ene2008-030400Z VRB02KT 9999 SCT040 SCT050 08/06 Q1031 RMK PP000=
SPZO Ene2008-030500Z 07002KT 9999 FEW036 SCT046 07/05 Q1031 RMK PP000=
SPZO Ene2008-030600Z 00000KT 9999 SCT036 BKN046 07/05 Q1030 RMK PP000=
SPZO Ene2008-030700Z 07002KT 9999 BKN040 SCT046 07/05 Q1030 RMK PP000=
SPZO Ene2008-030800Z 00000KT 9999 BKN040 SCT043 07/05 Q1029 RMK PP000=
SPZO Ene2008-030900Z 06003KT 9999 SCT033 BKN043 06/05 Q1029 RMK PP000=
SPZO Ene2008-030922Z 11002KT 9000 SCT020 SCT036 BKN043 07/05 Q1029 RMK CLNG BLW 1200M=
SPZO Ene2008-031000Z 00000KT 9999 SCT020 SCT033 BKN043 07/05 Q1029 RMK CLNG BLW 1200M PP000=
SPZO Ene2008-031100Z 05002KT 9999 SCT020 SCT033 BKN046 08/06 Q1030 NOSIG RMK CLNG BLW 1200M PP000=
SPZO Ene2008-031200Z 09002KT 9000 SCT020 SCT033 BKN046 08/06 Q1031 NOSIG RMK CLNG BLW 1200M PP000=
SPZO Ene2008-031220Z VRB01KT 9999 FEW020 SCT033 BKN050 09/06 Q1031=
SPZO Ene2008-031300Z 06003KT 340V100 9999 FEW025 SCT033 BKN050 10/06 Q1032 BCMG FM1345 SCT036 BKN050 RMK WIND RWY10 VRB02KT PP000=
SPZO Ene2008-031338Z VRB02KT 9999 FEW030 SCT043 BKN060 11/06 Q1032=
SPZO Ene2008-031400Z VRB02KT 9999 FEW030 SCT043 BKN060 11/02 Q1032 NOSIG RMK WIND RWY10 VRB04KT PP000=
SPZO Ene2008-031500Z VRB03KT 9999 FEW036 SCT046 BKN060 13/05 Q1032 NOSIG RMK WIND RWY10 VRB04KT PP000=
SPZO Ene2008-031600Z VRB01KT 9999 SCT036 SCT050 15/05 Q1031 NOSIG RMK=
SPZO Ene2008-031700Z VRB04KT 9999 VCSH FEW036TCU SCT046 SCT050 18/06 Q1029 NOSIG RMK WIND RWY10 VRB03KT PP000=
SPZO Ene2008-031712Z VRB08KT 9000 -SHRA VCSH FEW030TCU SCT040 BKN070 17/06 Q1029 RMK WIND RWY 10 VRB08KT=
SPZO Ene2008-031800Z 26009KT 210V340 9999 VCSH FEW030TCU SCT040 BKN070 17/05 Q1029 RESHRA NOSIG RMK WIND RWY 10 32014G24KT 270V020 PPTRZ=
SPZO Ene2008-031900Z 26005KT 160V300 8000 VCSH SCT030TCU SCT040 BKN070 16/05 Q1028 TEMPO 7000 -RA RMK WIND RWY 10 VRB16KT PP000=
SPZO Ene2008-031910Z 08013KT 7000 VCSH SCT030TCU SCT040 BKN070 12/07 Q1028 RMK WIND RWY 10 11012G22KT 050V150=
SPZO Ene2008-031933Z 10007KT 060V160 8000 -SHRA VCSH SCT030TCU SCT040 BKN070 12/07 Q1029 RMK WIND RWY 10 11016G26KT 050V140=
SPZO Ene2008-032000Z 07006KT 030V140 8000 VCSH SCT030TCU SCT040 BKN060 12/08 Q1029 RESHRA TEMPO -RA RMK WIND RWY 10 05011KT 320V100 PPTRZ=
SPZO Ene2008-032022Z 06006KT 030V090 8000 -RA VCSH SCT030TCU SCT040 BKN060 11/07 Q1029 RMK WIND RWY 10 06010KT 340V140=
SPZO Ene2008-032100Z 07004KT 040V100 9000 -RA VCSH FEW030TCU SCT040 BKN060 11/07 Q1029 NOSIG RMK WIND RWY 10 11010KT 080V140 PP010=
SPZO Ene2008-032105Z 09004KT 9999 FEW040 SCT050 BKN060 11/07 Q1029 RERA RMK WIND RWY 10 10010KT=
SPZO Ene2008-032200Z VRB03KT 9999 FEW040 SCT050 BKN060 12/07 Q1029 NOSIG RMK WIND RWY 10 VRB04KT TMAX 18.2 PP002=
SPZO Ene2008-032300Z 09003KT 9999 SCT050 BKN060 11/07 Q1029 TEMPO VCSH RMK PP000=
SPZO Ene2008-040000Z 07002KT 9999 SCT046 BKN050 10/07 Q1030 RMK PP000=
SPZO Ene2008-040100Z 07003KT 9999 -RA SCT040 BKN050 10/07 Q1031 RMK PP006=
SPZO Ene2008-040200Z 06003KT 9999 SCT040 BKN050 10/08 Q1032 RMK PP002=
SPZO Ene2008-040300Z 00000KT 9000 -RA FEW036 OVC046 10/07 Q1032 RMK PP004=
SPZO Ene2008-040400Z 00000KT 9000 -RA FEW036 OVC 046 10/07 Q1033 RMK PP016=
SPZO Ene2008-040500Z 00000KT 9000 -RA FEW036 OVC046 09/08 Q1033 RMK PP020=
SPZO Ene2008-040600Z 25006KT 210V280 9000 -RA FEW036 OVC046 08/06 Q1032 RMK PP020=
SPZO Ene2008-040700Z 23003KT 200V280 9000 -RA FEW036 OVC046 08/06 Q1032 RMK PP024=
SPZO Ene2008-040800Z 00000KT 9000 -RA FEW036 OVC046 08/06 Q1032 RMK PP012=
SPZO Ene2008-040900Z 00000KT 9000 FEW030 SCT036 BKN040 08/06 Q1031 RMK CLNG BLW 1200M PP000=
SPZO Ene2008-041000Z 00000KT 9000 FEW030 SCT036 BKN040 08/06 Q1031 RMK CLNG BLW 1200M PP000=
SPZO Ene2008-041018Z 00000KT 9000 FEW033 SCT043 BKN046 08/06 Q1032=
SPZO Ene2008-041100Z 05002KT 9999 FEW033 SCT043 BKN046 08/06 Q1032 NOSIG RMK PP000=
SPZO Ene2008-041200Z 00000KT 9999 FEW036 SCT043 BKN046 09/06 Q1033 NOSIG RMK PP000=
SPZO Ene2008-041300Z VRB01KT 9999 FEW030 SCT043 BKN060 11/06 Q1033 NOSIG RMK PP000=
SPZO Ene2008-041400Z VRB02KT 9999 FEW036 SCT043 BKN080 13/07 Q1033 NOSIG RMK PP000=
SPZO Ene2008-041500Z VRB02KT 9999 FEW036 SCT043 BKN100 14/06 Q1033 NOSIG RMK PP000=
SPZO Ene2008-041600Z VRB04KT 9999 SCT043 SCT080 16/07 Q1032 NOSIG RMK PP000=
SPZO Ene2008-041700Z 08006KT 030V130 9999 VCSH FEW040TCU SCT046 BKN080 17/07 Q1031 NOSIG RMK PP000=
SPZO Ene2008-041800Z VRB04KT 9999 VCSH FEW036TCU SCT040 BKN080 17/05 Q1030 NOSIG RMK WIND RWY 10 VRB12KT PP000=
SPZO Ene2008-041900Z 26013KT 9999 FEW036TCU SCT040 BKN080 17/08 Q1029 TEMPO VCSH RMK WIND RWY 10 29017G28KT 260V340 PP000=
SPZO Ene2008-042000Z 35009KT 290V030 9999 FEW036 SCT040 BKN080 18/07 Q1028 NOSIG RMK WIND RWY 10 VRB14G24KT PP000=
SPZO Ene2008-042100Z 36012KT 310V050 9999 FEW040 SCT050 BKN080 17/05 Q1028 TEMPO VCSH RMK WIND RWY 10 VRB19G35KT PP000=
SPZO Ene2008-042200Z 36013KT 290V050 9999 FEW040 SCT050 BKN060 16/05 Q1028 NOSIG RMK TMAX 18.4 PP000=
SPZO Ene2008-042300Z 35010KT 290V060 9999 FEW040 SCT050 BKN060 15/05 Q1029 NOSIG RMK PP000=
SPZO Ene2008-050000Z 03008KT 330V080 9999 SCT046 BKN100 14/04 Q1030 RMK PP000=
SPZO Ene2008-050100Z 26005KT 180V320 9999 FEW046 SCT100 12/05 Q1031 RMK PP000=
SPZO Ene2008-050200Z 26002KT 9999 FEW046 SCT100 11/05 Q1032 RMK PP000=
SPZO Ene2008-050300Z 00000KT 9999 FEW046 BSCT100 11/06 Q1033 RMK PP000=
SPZO Ene2008-050400Z 00000KT 9999 SCT046 SCT100 11/07 Q1033 RMK PP000=
SPZO Ene2008-050500Z 00000KT 9999 SCT043 BKN080 11/07 Q1033 RMK PP000=
SPZO Ene2008-050600Z 00000KT 9999 SCT043 10/07 Q1032 RMK PP000=
SPZO Ene2008-050700Z 00000KT 9999 SCT043 09/06 Q1032 RMK PP000=
SPZO Ene2008-050800Z 00000KT 9999 FEW040 SCT043 09/06 Q1031 RMK PP000=
SPZO Ene2008-050900Z 29002KT 9999 SCT040 BKN050 10/06 Q1031 RMK PP000=
SPZO Ene2008-051000Z 09003KT 9999 SCT040 BKN050 09/07 Q1031 RMK PP000=
SPZO Ene2008-051100Z 06002KT 9999 SCT043 SCT050 09/07 Q1032 NOSIG RMK PP000=
SPZO Ene2008-051200Z 00000KT 9999 SCT040 SCT080 11/07 Q1032 NOSIG RMK=
SPZO Ene2008-051300Z VRB03KT 9999 SCT040 SCT080 13/08 Q1033 NOSIG RMK=
SPZO Ene2008-051400Z VRB04KT 9999 SCT040 SCT080 14/06 Q1033 NOSIG RMK=
SPZO Ene2008-051500Z VRB02KT 9999 BKN040 SCT080 16/05 Q1032 NOSIG RMK=
SPZO Ene2008-051600Z VRB03KT 9999 BKN040 SCT080 17/04 Q1032 NOSIG RMK=
SPZO Ene2008-051700Z VRB04KT 9999 BKN050 SCT080 18/04 Q1030 TEMPO VCSH RMK WIND RWY 10 VRB08KT PP000=
SPZO Ene2008-051800Z 01005KT 300V070 9999 FEW040TCU SCT046 BKN100 19/04 Q1029 TEMPO VCSH RMK WIND RWY10 06016G25KT 360V140 PP000=
SPZO Ene2008-051900Z 34010KT 280V050 9999 FEW040TCU SCT046 BKN100 18/04 Q1028 TEMPO VCSH RMK WIND RWY10 VRB17G40KT PP000=
SPZO Ene2008-052000Z 35010KT 320V030 9999 SCT043 OVC100 18/05 Q1027 NOSIG RMK WIND RWY10 VRB17G36KT PP000=
SPZO Ene2008-052100Z 36008KT 320V030 9999 SCT043 OVC100 17/04 Q1027 NOSIG RMK PP000=
SPZO Ene2008-052200Z VRB06KT 9999 SCT040 OVC080 16/04 Q1028 NOSIG RMK T.MAX 19.0 PP000=
SPZO Ene2008-052300Z 08007KT 9999 FEW036 SCT043 BKN080 14/06 Q1029 NOSIG RMK PP000=
SPZO Ene2008-060000Z VRB03KT 9999 BKN050 SCT100 13/05 Q1030 RMK PP000=
SPZO Ene2008-060100Z 08004KT 040V120 9999 BKN050 SCT100 13/05 Q1031 RMK PP000=
SPZO Ene2008-060200Z VRB02KT 9999 BKN050 SCT100 12/06 Q1032 RMK PP000=
SPZO Ene2008-060300Z 09006KT 9999 BKN050 SCT100 11/06 Q1032 RMK PP000=
SPZO Ene2008-060400Z VRB02KT 9999 BKN050 SCT100 11/06 Q1032 RMK PP000=
SPZO Ene2008-060500Z 00000KT 9999 BKN050 SCT100 11/07 Q1032 RMK PP000=
SPZO Ene2008-060600Z 08002KT 9999 BKN050 SCT100 11/07 Q1031 RMK PP000=
SPZO Ene2008-060700Z 00000KT 9999 BKN050 SCT100 11/07 Q1030 RMK PP000=
SPZO Ene2008-060800Z 09002KT 9999 BKN050 SCT100 10/07 Q1030 RMK PP000=
SPZO Ene2008-060900Z 05003KT 9999 BKN050 SCT060 10/07 Q1030 RMK PP000=
SPZO Ene2008-061000Z 08002KT 9999 FEW030 SCT040 BKN050 10/07 Q1030 RMK PP000=
SPZO Ene2008-061100Z 07002KT 8000 SCT030 SCT040 BKN060 10/07 Q1031 NOSIG RMK HZ PP000=
SPZO Ene2008-061112Z 08003KT 9999 FEW033 SCT040 BKN060 10/07 Q1032=
SPZO Ene2008-061200Z VRB01KT 9999 SCT030 SCT050 11/07 Q1032 NOSIG RMK PP000=
SPZO Ene2008-061300Z VRB04KT 9999 FEW033 SCT050 14/08 Q1033 NOSIG RMK PP000=
SPZO Ene2008-061400Z VRB02KT 9999 FEW040 SCT050 13/06 Q1033 NOSIG RMK PP000=
SPZO Ene2008-061500Z VRB04KT 9999 FEW040 SCT050 15/07 Q1032 NOSIG RMK PP000=
SPZO Ene2008-061600Z 10004KT 030V160 9999 FEW040 SCT050 17/06 Q1031 NOSIG RMK PP000=
SPZO Ene2008-061700Z VRB05KT 9999 FEW043TCU SCT050 17/04 Q1030 TEMPO=
SPZO Ene2008-061800Z 34011KT 270V010 9999 VCSH FEW043TCU SCT050 17/05 Q1029 NOSIG RMK WIND RWY10 32021KT 250V030 PP000=
SPZO Ene2008-061900Z 35005KT 280V020 9999 VCSH FEW043TCU SCT050 18/05 Q1028 NOSIG RMK WIND RWY10 29011KT 250V010 PP000=
SPZO Ene2008-062000Z 33009KT 9999 VCSH FEW043TCU SCT050 18/04 Q1027 NOSIG RMK WIND RWY10 29017G29KT 240V340 PP000=
SPZO Ene2008-062100Z 19006KT 150V240 9999 FEW043TCU SCT050 16/06 Q1027 NOSIG RMK WIND RWY10 VRB05KT PP000=
SPZO Ene2008-062200Z 01006KT 320V070 9999 FEW043TCU SCT050 18/06 Q1027 TEMPO VCSH RMK WIND RWY10 VRB14KT T.MAX.19.2 PP000=
SPZO Ene2008-062300Z 01003KT 9999 FEW043TCU SCT050 16/05 Q1027 NOSIG RMK WIND RWY10 VRB16KT PP000=
SPZO Ene2008-070000Z 07006KT 030V120 9999 BKN040 SCT050 14/05 Q1029 RMK PP000=
SPZO Ene2008-070100Z 07004KT 030V100 9999 FEW043 SCT100 13/06 Q1030 RMK PP000=
SPZO Ene2008-070200Z VRB03KT 9999 FEW050 SCT100 13/06 Q1031 RMK PP000=
SPZO Ene2008-070300Z VRB02KT 9999 FEW050 SCT100 11/05 Q1032 RMK PP000=
SPZO Ene2008-070400Z VRB02KT 9999 FEW050 SCT100 11/05 Q1032 RMK PP000=
SPZO Ene2008-070500Z 00000KT 9999 FEW040 SCT090 10/06 Q1032 RMK PP000=
SPZO Ene2008-070600Z 00000KT 9999 SCT036 SCT080 10/06 Q1031 RMK PP000=
SPZO Ene2008-070700Z VRB02KT 9999 SCT036 SCT080 10/06 Q1031 RMK PP000=
SPZO Ene2008-070800Z 00000KT 9999 SCT036 BKN060 10/06 Q1030 RMK PP000=
SPZO Ene2008-070900Z 00000KT 9999 BKN040 SCT050 09/06 Q1030 RMK PP000=
SPZO Ene2008-071000Z 08004KT 9999 SCT040 SCT080 08/06 Q1031 RMK PP000=
SPZO Ene2008-071100Z VRB01KT 9999 FEW043 SCT100 08/05 Q1031 NOSIG RMK PP000=
SPZO Ene2008-071200Z 00000KT 9999 FEW040 SCT100 11/07 Q1032 NOSIG RMK PP000=
SPZO Ene2008-071300Z 00000KT 9999 SCT040 15/06 Q1032 NOSIG RMK PP000=
SPZO Ene2008-071400Z VRB01KT 9999 SCT043 16/06 Q1032 NOSIG RMK PP000=
SPZO Ene2008-071500Z 00000KT 9999 SCT043 17/07 Q1032 NOSIG RMK MOD WS IN APCH RWY28 PP000=
SPZO Ene2008-071600Z 07009KT 050V120 9999 FEW043TCU SCT050 17/07 Q1031 TEMPO VCSH RMK WIND RWY10 VRB19KT PP000=
SPZO Ene2008-071700Z VRB05KT 9999 VCSH FEW043TCU BKN050 18/04 Q1030 NOOSIG RMK WIND RWY10 VRB09KT PP000=
SPZO Ene2008-071800Z VRB05KT 9999 VCSH FEW040TCU SCT050 19/04 Q1029 NOSIG RMK WIND RWY 10 VRB13G24KT PP000=
SPZO Ene2008-071900Z 08011KT 060V160 9999 VCSH FEW040TCU SCT050 BKN230 19/06 Q1028 NOSIG RMK WIND RWY 10 11022G32KT 040V150 PP000=
SPZO Ene2008-072000Z VRB04KT 9999 VCSH FEW040TCU SCT050 BKN150 20/04 Q1026 NOSIG RMK WIND RWY 10 VRB17G33KT PP000=
SPZO Ene2008-072100Z 02004KT 290V100 9999 FEW040 SCT050 BKN100 19/03 Q1026 NOSIG RMK PP000=
SPZO Ene2008-072200Z VRB04KT 9999 FEW040 SCT050 BKN100 18/05 Q1026 NOSIG RMK TMAX 20.5 PP000=
SPZO Ene2008-072300Z VRB06KT 9999 SCT050 SCT100 17/04 Q1027 NOSIG RMK PP000=
SPZO Ene2008-080000Z 08004KT 010V110 9999 FEW046TCU OVC100 14/05 Q1028 RMK PP000=
SPZO Ene2008-080100Z 07004KT 9999 SCT100 13/05 Q1029 RMK PP000=
SPZO Ene2008-080200Z 16002KT 9999 SCT100 12/05 Q1029 RMK PP000=
SPZO Ene2008-080300Z 07004KT 9999 BKN050 11/06 Q1030 RMK PP000=
SPZO Ene2008-080400Z 00000KT 9999 BKN050 11/05 Q1031 RMK PP000=
SPZO Ene2008-080500Z 08003KT 9999 SCT046 10/06 Q1031 RMK PP000=
SPZO Ene2008-080600Z 00000KT 9999 SCT040 09/06 Q1030 RMK PP000=
SPZO Ene2008-080700Z 00000KT 9999 SCT040 09/06 Q1030 RMK PP000=
SPZO Ene2008-080800Z 00000KT 9999 SCT040 09/05 Q1029 RMK PP000=
SPZO Ene2008-080900Z 07003KT 06V160 9999 SCT040 08/05 Q1029 RMK PP000=
SPZO Ene2008-081000Z 06002KT 9999 FEW036 SCT043 08/06 Q1029 RMK PP000=
SPZO Ene2008-081100Z 07004KT 9999 SCT036 SCT043 08/05 Q1030 RMK PP000=
SPZO Ene2008-081200Z 00000KT 9999 FEW036 BKN230 10/06 Q1031 NOSIG RMK PP000=
SPZO Ene2008-081300Z VRB03KT 9999 FEW036 SCT050 BKN230 12/06 Q1032 NOSIG RMK PP000=
SPZO Ene2008-081400Z VRB03KT 9999 FEW033 SCT050 BKN230 15/06 Q1031 NOSIG RMK PP000=
SPZO Ene2008-081500Z VRB02KT 9999 SCT043 BKN230 16/05 Q1031 NOSIG RMK PP000=
SPZO Ene2008-081600Z 11004KT 050V160 9999 FEW040TCU SCT046 BKN230 17/06 Q1030 NOSIG RMK PP000=
SPZO Ene2008-081700Z VRB02KT 9999 FEW043TCU SCT046 BKN100 18/05 Q1029 NOSIG RMK PP000=
SPZO Ene2008-081800Z VRB05KT 9999 FEW040 SCT050 BKN100 19/05 Q1027 NOSIG RMK WIND RWY 10 VRB08KT PP000=
SPZO Ene2008-081900Z 32010KT 9999 FEW040TCU SCT050 BKN080 20/04 Q1026 TEMPO VCSH RMK WIND RWY 10 28024G37KT 240V330 PP000=
SPZO Ene2008-082000Z 35008KT 300V040 9999 FEW040TCU SCT050 BKN080 18/03 Q1026 TEMPO VCSH RMK WIND RWY 10 28016G29KT 240V350 PP000=
SPZO Ene2008-082100Z 28011KT 240V350 9999 FEW040TCU SCT050 BKN080 17/06 Q1025 NOSIG RMK PP000=
SPZO Ene2008-082200Z 14005KT 070V250 9999 FEW040 SCT050 BKN080 17/05 Q1026 NOSIG RMK TMAX 19.9 PP000=
SPZO Ene2008-082300Z VRB04KT 9999 SCT050 BKN100 16/04 Q1026 NOSIG RMK PP000=
SPZO Ene2008-090000Z 26009KT 210V340 9999 SCT050 BKN100 14/06 Q1027 RMK PP000=
SPZO Ene2008-090100Z 22005KT 160V270 9999 SCT050 BKIN100 14/06 Q1028 RMK PP000=
SPZO Ene2008-090200Z 00000KT 9999 RA SCT040 BKN050 12/07 Q1029 RMK PP006=
SPZO Ene2008-090300Z 22003KT 9999 SCT040 BKN050 11/07 Q1030 RMK PP000=
SPZO Ene2008-090400Z 15002KT 9999 SCT040 BKN050 12/07 Q1031 RMK PP000=
SPZO Ene2008-090500Z 00000KT 9999 SCT040 BKN046 12/06 Q1030 RMK PP000=
SPZO Ene2008-090600Z 00000KT 9999 SCT040 BKN046 12/05 Q1029 RMK PP000=
SPZO Ene2008-090700Z 00000KT 9999 SCT040 BKN046 11/07 Q1028 RMK PP000=
SPZO Ene2008-090800Z 00000KT 9999 SCT040 BKN046 11/06 Q1021 RMK PP000=
SPZO Ene2008-090900Z 00000KT 9999 SCT040 BKN046 11/06 Q1027 RMK PP000=
SPZO Ene2008-091000Z 06002KT 9999 SCT040 BKN046 10/06 Q1027 RMK PP000=
SPZO Ene2008-091100Z 07003KT 9999 SCT040 BKN046 09/06 Q1028 TEMPO VCSH RMK WIND RWY10 10007KT PP000=
SPZO Ene2008-091200Z 00000KT 9999 FEW030 SCT040 BKN050 10/07 Q1029 TEMPO=
SPZO Ene2008-091300Z 00000KT 9000 -DZ FEW030 SCT040 BKN050 11/06 Q1030 NOSIG RMK WIND RWY 10 00000KT PPTRZ=
SPZO Ene2008-091400Z 09004KT 8000 -DZ SCT030 SCT040 BKN050 11/07 Q1030 TEMPO -RA RMK WIND RWY 10 10004KT 030V160 PP002=
SPZO Ene2008-091500Z VRB03KT 9000 VCSH SCT030 SCT040 BKN050 12/07 Q1030 REDZ NOSIG RMK WIND RWY 10 VRB04KT PPTRZ=
SPZO Ene2008-091511Z VRB02KT 8000 -RA SCT030 SCT040 BKN050 13/07 Q1030 RMK WIND RWY 10 VRB09G19KT=
SPZO Ene2008-091600Z 29005KT 240V340 8000 -RA SCT030 SCT040 BKN060 13/09 Q1029 NOSIG RMK WIND RWY 10 VRB06KT PP002=
SPZO Ene2008-091612Z 27006KT 230V350 9000 VCSH SCT030 SCT040 BKN070 14/07 Q1029 RERA RMK WIND RWY 10 VRB09G21KT=
SPZO Ene2008-091700Z 28011KT 230V340 9999 VCSH SCT030 SCT040 BKN070 15/05 Q1029 NOSIG RMK WIND RWY 10 29022G36KT 250V350 PPTRZ=
SPZO Ene2008-091800Z 25011KT 220V320 9999 VCSH FEW040TCU SCT046 BKN070 12/05 Q1029 TEMPO -RA RMK WIND RWY10 27017G26KT 240V300 PP000=
SPZO Ene2008-091825Z 22006KT 170V250 9000 -RA FEW036 SCT043 BKN070 11/06 Q1028=
SPZO Ene2008-091900Z 22004KT 180V270 9000 -RA FEW030 SCT043 BKN070 11/06 Q1028 NOSIG RMK PP016=
SPZO Ene2008-091935Z 09006KT 060V120 9999 FEW030 SCT046 BKN070 11/07 Q1027=
SPZO Ene2008-092000Z 08007KT 9999 FEW030 SCT050 BKN080 12/06 Q1027 NOSIG RMK PP002=
SPZO Ene2008-092100Z 09006KT 040V150 9999 FEW030 OVC080 13/06 Q1025 NOSIG RMK PP000=
SPZO Ene2008-092200Z 09006KT 060V150 9999 FEW036 OVC100 13/06 Q1025 NOSIG RMK T.MAX 16.4 PP000=
SPZO Ene2008-092300Z VRB03KT 9999 SCT050 BKN230 12/07 Q1025 NOSIG RMK PP000=
SPZO Ene2008-100000Z VRB02KT 9999 BKN050 11/07 Q1026 RMK PP000=
SPZO Ene2008-100100Z 00000KT 9999 BKN050 11/07 Q1026 RMK PP000=
SPZO Ene2008-100200Z 07002KT 9999 BKN050 11/07 Q1027 RMK PP000=
SPZO Ene2008-100300Z 00000KT 9999 OVC050 11/08 Q1028 RMK PP000=
SPZO Ene2008-100400Z VRB03KT 9999 OVC050 11/08 Q1027 RMK PP000=
SPZO Ene2008-100500Z 10005KT 070V130 9999 OVC050 10/07 Q1027 RMK PP000=
SPZO Ene2008-100600Z 00000KT 8000 -RA SCT040 BKN050 10/08 Q1026 RMK PP002=
SPZO Ene2008-100700Z 00000KT 8000 -RA FEW030 SCT040 BKN050 10/08 Q1025 RMK PP004=
SPZO Ene2008-100800Z VRB03KT 8000 -RA FEW030 SCT040 BKN050 10/06 Q1025 RMK PP002=
SPZO Ene2008-100900Z 11005KT 070V160 8000 -RA FEW030 SCT040 BKN050 09/07 Q1025 RMK PPTRZ=
SPZO Ene2008-101000Z 00000KT 8000 -RA FEW030 SCT040 BKN050 09/07 Q1026 RMK PP004=
SPZO Ene2008-101100Z 08002KT 8000 -RA SCT030 SCT040 BKN070 09/07 Q1026 NOSIG RMK PP002=
SPZO Ene2008-101115Z 09003KT 9999 -RA SCT030 SCT040 BKN070 09/07 Q1027=
SPZO Ene2008-101200Z VRB02KT 9999 -DZ FEW030 SCT040 BKN070 09/07 Q1027 NOSIG RMK PP002=
SPZO Ene2008-101300Z VRB02KT 9999 FEW033 SCT043 BKN050 11/08 Q1027 NOSIG RMK PP000=
SPZO Ene2008-101400Z VRB02KT 9999 FEW030 SCT043 BKN080 13/08 Q1027 NOSIG RMK PP000=
SPZO Ene2008-101418Z VRB02KT 9999 FEW030 SCT043 BKN046 13/07 Q1027=
SPZO Ene2008-101500Z VRB01KT 9999 VCSH FEW033 SCT043 BKN080 14/08 Q1027 NOSIG RMK PP000=
SPZO Ene2008-101600Z VRB03KT 9999 FEW036 SCT043 BKN080 15/07 Q1026 NOSIG RMK WIND RWY10 30015G24KT 250V010 PP000=
SPZO Ene2008-101700Z 26009KT 240V330 9999 VCSH FEW036 SCT043 BKN080 15/06 Q1025 NOSIG RMK WIND RWY10 29017G28KT 260V360 PP000=
SPZO Ene2008-101800Z 24007KT 180V340 9999 VCSH SCT040 BKN050 15/06 Q1025 TEMPO -RA RMK WIND RWY10 31012KT 250V020 PP000=
SPZO Ene2008-101900Z 08004KT 020V110 9999 RA SCT040 BKN050 11/08 Q1025 NOSIG RMK WIND RWY10 08006KT 360V140 PP010=
SPZO Ene2008-102000Z VRB02KT 9999 VCSH SCT040 BKN050 13/09 Q1024 NOSIG RMK RERA PP002=
SPZO Ene2008-102015Z 25003KT 210V280 9999 RA SCT040 BKN050 13/07 Q1023=
SPZO Ene2008-102100Z 25007KT 220V280 9999 VCSH FEW036 OVC080 13/07 Q1023 NOSIG RMK WIND RWY10 29011KT 230V320 PP002=
SPZO Ene2008-102200Z 28007KT 240V340 9999 VCSH FEW036 OVC080 13/06 Q1023 NOSIG WIND RWY10 31012KT 250V020 T/MAX/15/5 RMK PP000=
SPZO Ene2008-102300Z 19003KT 160V250 9999 RA SCT036 OVC080 13/07 Q1023 NOSIG RMK WIND RWY10 26009KT 220V360 PPTRZ=
SPZO Ene2008-110000Z 00000KT 8000 -RA SCT036 BKN046 10/08 Q1025 RMK PP018=
SPZO Ene2008-110100Z VRB02KT 9999 SCT030 BKN043 10/07 Q1025 RMK PP006=
SPZO Ene2008-110200Z 00000KT 9999 SCT030 BKN046 10/07 Q1026 RMK PP000=
SPZO Ene2008-110300Z 09004KT 9999 SCT033 BKN043 10/08 Q1027 RMK PP000=
SPZO Ene2008-110400Z 00000KT 9999 -RA SCT036 BKN043 09/07 Q1028 RMK PP002=
SPZO Ene2008-110500Z 00000KT 9999 SCT040 BKN050 10/08 Q1026 RMK PP000=
SPZO Ene2008-110600Z 00000KT 9999 -RA SCT040 SCT046 10/08 Q1026 RMK PP002=
SPZO Ene2008-110700Z 07002KT 9999 BKN040 SCT050 09/08 Q1025 RMK PP000=
SPZO Ene2008-110800Z 10003KT 9999 BKN040 SCT050 09/07 Q1025 RMK PP000=
SPZO Ene2008-110900Z 00000KT 9999 SCT030 BKN043 09/08 Q1025 RMK PP000=
SPZO Ene2008-111000Z 09001KT 9000 SCT025 SCT040 BKN046 09/07 Q1025 RMK PP000=
SPZO Ene2008-111030Z 09002KT 8000 -DZ SCT025 SCT036 BKN046 09/07 Q1025 RMK CLNG FLW 1200M=
SPZO Ene2008-111100Z VRB02KT 9999 FEW020 SCT040 BKN070 09/07 Q1025 NOSIG RMK PP002=
SPZO Ene2008-111200Z 00000KT 9999 FEW020 SCT040 BKN046 09/08 Q1026 NOSIG RMK BCBR CDTE SE PP000=
SPZO Ene2008-111300Z 07002KT 9999 DZ FEW020 SCT040 BKN046 10/08 Q1027 NOSIG RMK WIND RWY10 12004KT 080V170 PP000=
SPZO Ene2008-111400Z 00000KT 9000 RA FEW020 SCT036 BKN046 11/07 Q1027 TEMPO 7000 RMK PP002=
SPZO Ene2008-111500Z VRB02KT 9999 FEW036 SCT046 BKN100 13/06 Q1027 RERA NOSIG RMK WIND RWY10 VRB07KT PPTRZ=
SPZO Ene2008-111600Z 06004KT 010V160 9999 FEW036 SCT043 BKN050 14/08 Q1027 NOSIG RMK WIND RWY10 VRB03KT PP000=
SPZO Ene2008-111700Z VRB01KT 9999 VCSH SCT040 BKN050 16/08 Q1026 NOSIG RMK WIND RWY10 12012KT 080V180 PP000=
SPZO Ene2008-111800Z VRB04KT 9999 VCSH SCT040 SCT050 BKN070 16/06 Q1025 NOSIG RMK WIND RWY 10 VRB13G23KT PP000=
SPZO Ene2008-111900Z VRB05KT 9999 VCSH SCT040 SCT050 BKN070 16/05 Q1024 NOSIG RMK WIND RWY 10 VRB12G24KT PP000=
SPZO Ene2008-112000Z VRB03KT 9999 VCSH SCT040 SCT050 BKN070 15/04 Q1024 TEMPO RA RMK WIND RWY 10 VRB14G24KT PP000=
SPZO Ene2008-112100Z VRB07KT 9999 FEW040 SCT050 BKN080 15/05 Q1024 NOSIG RMK WIND RWY 10 VRB15G28KT PP000=
SPZO Ene2008-112200Z 11011KT 060V180 9999 FEW040 SCT050 BKN090 14/04 Q1024 NOSIG RMK TMAX 17.0 PP000=
SPZO Ene2008-112300Z 09012KT 060V140 9999 SCT050 BKN100 12/05 Q1025 NOSIG RMK PP000=
SPZO Ene2008-120000Z 11004KT 050V160 9999 SCT046 BKN080 11/05 Q1026 RMK PP000=
SPZO Ene2008-120100Z 09005KT 9999 SCT046 BKN080 11/04 Q1027 RMK PP000=
SPZO Ene2008-120200Z 00000KT 9999 SCT046 BKN080 11/04 Q1028 RMK PP000=
SPZO Ene2008-120300Z VRB03KT 9999 FEW046 SCT100 11/04 Q1028 RMK PP000=
SPZO Ene2008-120400Z 09004KT 050V160 9999 FEW046 SCT100 10/04 Q1029 RMK PP000=
SPZO Ene2008-120500Z 08002KT 9999 FEW046 SCT100 10/05 Q1028 RMK PP000=
SPZO Ene2008-120600Z VRB03KT 9999 FEW040 SCT100 11/04 Q1028 RMK PP000=
SPZO Ene2008-120700Z 10004KT 050V160 9999 FEW040 SCT100 10/05 Q1027 RMK PP000=
SPZO Ene2008-120800Z 00000KT 9999 FEW030 BKN050 10/05 Q1027 RMK PP000=
SPZO Ene2008-120900Z 00000KT 9999 FEW030 BKN050 09/05 Q1027 RMK PP000=
SPZO Ene2008-121000Z 00000KT 9999 FEW030 SCT043 BKN050 09/06 Q1027 RMK PP000=
SPZO Ene2008-121100Z 00000KT 9999 FEW030 SCT043 09/06 Q1028 NOSIG RMK PP000=
SPZO Ene2008-121200Z 00000KT 9999 FEW036 SCT046 BKN230 10/06 Q1029 NOSIG RMK PP000=
SPZO Ene2008-121300Z VRB01KT 9999 FEW036 SCT046 BKN080 13/06 Q1029 NOSIG RMK PP000=
SPZO Ene2008-121400Z 07006KT 340V160 9999 FEW036 SCT050 BKN230 14/06 Q1029 NOSIG RMK PP000=
SPZO Ene2008-121500Z 08009KT 050V120 9999 FEW036 SCT043 BKN050 14/06 Q1029 TEMPO VCSH RMK PP000=
SPZO Ene2008-121600Z 10007KT 350V160 9999 FEW043TCU BKN050 16/05 Q1029 NOSIG RMK PP000=
SPZO Ene2008-121700Z 12004KT 070V200 9999 FEW040TCU SCT043 BKN050 16/04 Q1028 NOSIG RMK PP000=
SPZO Ene2008-121800Z 22005KT 160V300 9999 VCSH FEW036TCU SCT040 BKN050 18/04 Q1027 NOSIG RMK WIND RWY 10 29015KT 260V330 PP000=
SPZO Ene2008-121900Z 24005KT 200V300 9999 VCSH FEW036TCU SCT040 BKN050 18/07 Q1026 NOSIG RMK WIND RWY 10 VRB05KT PP000=
SPZO Ene2008-122000Z VRB03KT 9999 VCSH FEW036TCU SCT040 BKN050 17/05 Q1025 TEMPO -RA RMK WIND RWY 10 VRB24G40KT PP000=
SPZO Ene2008-122100Z 20008KT 150V250 9999 SCT040 SCT050 16/05 Q1024 NOSIG RMK WIND RWY 10 26009KT 210V340 PP000=
SPZO Ene2008-122200Z 08009KT 040V110 9999 SCT040 SCT050 17/07 Q1024 NOSIG RMK TMAX 19.0 PP000=
SPZO Ene2008-122300Z 34010KT 250V020 9999 SCT040 SCT050 14/06 Q1025 NOSIG RMK PP000=
SPZO Ene2008-130000Z VRB04KT 9999 SCT043 BKN050 13/07 Q1026 RERA RMK PP002=
SPZO Ene2008-130100Z 09003KT 9999 SCT043 BKN050 13/06 Q1027 RMK PP000=
SPZO Ene2008-130200Z 05002KT 9999 SCT043 BKN050 12/07 Q1028 RMK PP000=
SPZO Ene2008-130300Z 09004KT 9999 SCT043 BKN050 12/06 Q1029 RMK PP000=
SPZO Ene2008-130400Z 11002KT 9999 SCT043 BKN050 12/06 Q1029 RMK PP000=
SPZO Ene2008-130500Z 10005KT 020V160 9999 SCT043 BKN050 11/06 Q1029 RMK PP000=
SPZO Ene2008-130600Z 00000KT 9999 SCT043 BKN050 12/06 Q1028 RMK PP000=
SPZO Ene2008-130700Z 23002KT 9999 SCT040 BKN050 11/07 Q1028 RMK PP000=
SPZO Ene2008-130800Z 00000KT 9999 -RA FEW030 BKN046 11/06 Q1027 RMK PP002=
SPZO Ene2008-130900Z VRB01KT 9999 -RA FEW030 BKN046 10/07 Q1028 RMK PP012=
SPZO Ene2008-131000Z 25002KT 9999 -RA FEW030 BKN046 09/06 Q1028 RMK PP012=
SPZO Ene2008-131100Z 00000KT 9999 -RA FEW030 SCT046 BKN080 09/02 Q1029 NOSIG RMK PP004=
SPZO Ene2008-131200Z 00000KT 9999 FEW030 SCT040 BKN070 10/06 Q1030 RERA NOSIG RMK WIND RWY 10 00000KT HZ PPTRZ=
SPZO Ene2008-131300Z 00000KT 9999 FEW030 SCT040 BKN060 11/07 Q1030 NOSIG RMK WIND RWY 10 00000KT HZ PP000=
SPZO Ene2008-131400Z 00000KT 9999 FEW033 SCT040 BKN060 13/07 Q1030 NOSIG RMK WIND RWY 10 00000KT HZ PP000=
SPZO Ene2008-131500Z VRB02KT 9999 FEW036 SCT040 BKN060 17/07 Q1029 NOSIG RMK WIND RWY 10 VRB05KT PP000=
SPZO Ene2008-131600Z VRB03KT 9999 FEW036 SCT040 BKN060 18/07 Q1028 NOSIG RMK WIND RWY 10 VRB10KT PP000=
SPZO Ene2008-131700Z VRB05KT 9999 SCT040 BKN050 19/04 Q1027 NOSIG RMK=
SPZO Ene2008-131800Z VRB03KT 9999 VCSH FEW040TCU SCT043 BKN050 18/06 Q1026 TEMPO -RA RMK WIND RWY10 31015G24KT 250V020 PP000=
SPZO Ene2008-131830Z VRB03KT 9999 -TSRA FEW040CB SCT043 BKN046 13/08 Q1027=
SPZO Ene2008-131900Z VRB04KT 9999 -RA FEW040TCU SCT043 BKN046 13/07 Q1026 NOSIG RMK PP036=
SPZO Ene2008-131920Z 34008KT 310V020 9999 VCSH FEW036 SCT043 BKN070 15/07 Q1026=
SPZO Ene2008-132000Z 36009KT 310V080 9999 VCSH FEW040 SCT046 BKN070 15/07 Q1025 TEMPO -RA RMK PP000=
SPZO Ene2008-132100Z VRB03KT 9999 VCSH FEW040 SCT050 BKN080 14/07 Q1025 NOSIG RMK PP000=
SPZO Ene2008-132200Z 00000KT 9999 SCT050 SCT230 16/06 Q1025 NOSIG RMK T.MAX 19.9 PP000=
SPZO Ene2008-132300Z 07003KT 9999 VCSH FEW036 SCT043 BKN070 15/07 Q1026 NOSIG RMK PP000=
SPZO Ene2008-140000Z 35008KT 320V020 9999 FEW040 SCT050 BKN080 13/07 Q1027 RMK PP000=
SPZO Ene2008-140100Z VRB03KT 8000 RA SCT040 SCT050 11/07 Q1029 RMK PP016=
SPZO Ene2008-140200Z 00000KT 9000 OVC050 11/08 Q1029 RERA RMK PP008=
SPZO Ene2008-140300Z 00000KT 9000 -DZ BKN050 SCT060 11/08 Q1030 RMK PPTRZ=
SPZO Ene2008-140345Z 00000KT 9000 OVC050 11/08 Q1030 REDZ=
SPZO Ene2008-140400Z 00000KT 9999 OVC050 11/08 Q1030 RMK PP002=
SPZO Ene2008-140500Z VRB02KT 9999 OVC050 11/08 Q1030 RMK PP000=
SPZO Ene2008-140600Z 00000KT 8000 -RA SCT033 BKN050 10/08 Q1029 RMK PP006=
SPZO Ene2008-140700Z 00000KT 9999 FEW033 BKN050 10/08 Q1029 RERA RMK PPTRZ=
SPZO Ene2008-140800Z 00000KT 9999 FEW030 BKN050 10/08 Q1028 RMK PP000=
SPZO Ene2008-140900Z 00000KT 9999 FEW033 BKN050 10/08 Q1028 RMK PP000=
SPZO Ene2008-141000Z 06003KT 9999 FEW033 SCT040 BKN050 10/08 Q1029 RMK PP000=
SPZO Ene2008-141100Z 09002KT 9000 -DZ VCSH FEW033 SCT040 BKN050 10/08 Q1030 NOSIG RMK PP002=
SPZO Ene2008-141130Z 00000KT 9999 VCSH SCT033 SCT040 BKN046 10/08 Q1030=
SPZO Ene2008-141200Z 00000KT 9999 VCSH SCT033 SCT040 BKN046 10/08 Q1030 TEMPO -RA RMK PP000=
SPZO Ene2008-141220Z VRB01KT 9999 VCSH SCT033 SCT036 BKN046 11/07 Q1030 RMK CLNG BLW 1200M=
SPZO Ene2008-141300Z VRB01KT 9999 VCSH FEW030 SCT036 BKN046 11/07 Q1030 TEMPO -RA RMK CLNG BLW 1200M PP000=
SPZO Ene2008-141400Z VRB03KT 9999 VCSH FEW030 SCT043 BKN050 12/07 Q1030 TEMPO -RA RMK PP000=
SPZO Ene2008-141410Z VRB03KT 9999 -RA FEW030 SCT040 BKN046 12/08 Q1030 NOSIG=
SPZO Ene2008-141500Z VRB02KT 9999 VCSH FEW030 SCT040 BKN050 13/06 Q1030 NOSIG RMK PPTRZ=
SPZO Ene2008-141600Z VRB03KT 9999 VCSH FEW030 SCT040 BKN050 15/07 Q1029 NOSIG RMK PP000=
SPZO Ene2008-141700Z 09007KT 060V120 9999 VCSH FEW036 SCT043 BKN060 14/06 Q1028 TEMPO -RA WIND RWY10 VRB12KT RMK PP000=
SPZO Ene2008-141800Z 08005KT 040V120 9999 VCSH FEW036 SCT043 BKN050 15/06 Q1028 TEMPO -RA RMK WIND RWY10 11012KT 030V150 PP000=
SPZO Ene2008-141900Z 06003KT 020V120 9999 VCSH FEW036 SCT043 BKN050 15/06 Q1027 NOSIG RMK WIND RWY10 08005KT 020V150 PP000=
SPZO Ene2008-142000Z 05001KT 9999 VCSH SCT046 BKN080 17/05 Q1025 NOSIG RMK WIND RWY10 VRB07KT PP000=
SPZO Ene2008-142100Z VRB06KT 9999 VCSH SCT046 BKN080 15/05 Q1025 TEMPO RA RMK WIND RWY10 VRB18KT PP000=
SPZO Ene2008-142120Z VRB2KT 9999 RA SCT040 BKN050 13/06 Q1026=
SPZO Ene2008-142200Z 18006KT 9999 -RA SCT040 BKN050 13/12 Q1031 NOSIG RMK T.MAX.18.4 PP024=
SPZO Ene2008-142300Z 00000KT 9999 VCSH FEW030 SCT040 BKN060 12/08 Q1026 RERA NOSIG RMK PP004=
SPZO Ene2008-150000Z VRB04KT 9999 -RA BKN040 SCT050 12/08 Q1028 RMK PP002=
SPZO Ene2008-150100Z 09004KT 070V150 9999 BKN040 SCT050 10/08 Q1029 RMK PP000=
SPZO Ene2008-150200Z 00000KT 9000 -RA SCT030 BKN043 11/08 Q1030 RMK PP002=
SPZO Ene2008-150300Z VRB02KT 9999 DZ SCT036 BKN043 11/08 Q1030 RMK PP002=
SPZO Ene2008-150400Z 00000KT 9999 SCT030 BKN043 11/08 Q1030 RMK PP000=
SPZO Ene2008-150500Z 00000KT 9999 OVC040 11/08 Q1029 RMK PP000=
SPZO Ene2008-150600Z 00000KT 9999 SCT030 OVC040 11/07 Q1028 RMK PP000=
SPZO Ene2008-150700Z 00000KT 9999 BKN040 SCT043 10/07 Q1028 RMK PP000=
SPZO Ene2008-150800Z 0902KT 9999 BKN040 SCT046 10/08 Q1027 RMK PP000=
SPZO Ene2008-150900Z 00000KT 9999 SCT036 BKN043 09/07 Q1027 RMK PP000=
SPZO Ene2008-151000Z 00000KT 9999 FEW030 SCT043 BKN050 09/07 Q1028 RMK PP000=
SPZO Ene2008-151100Z 09002KT 9999 FEW036 SCT043 BKN050 09/07 Q1029 NOSIG RMK PP000=
SPZO Ene2008-151200Z 00000KT 9999 FEW030 SCT043 BKN050 10/07 Q1029 NOSIG RMK PP000=
SPZO Ene2008-151300Z VRB01KT 9999 FEW030 SCT043 BKN050 12/07 Q1030 NOSIG RMK WIND RWY10 12003KT PP000=
SPZO Ene2008-151400Z VRB01KT 9999 FEW036 SCT043 BKN050 14/07 Q1030 NOSIG RMK PP000=
SPZO Ene2008-151500Z VRB02KT 9999 SCT040 BKN050 15/06 Q1029 NOSIG RMK=
SPZO Ene2008-151600Z VRB02KT 9999 SCT046 BKN080 16/06 Q1028 NOSIG RMK=
SPZO Ene2008-151700Z 23006KT 300V010 9999 VCSH FEW040TCU SCT046 BKN050 17/05 Q1027 NOSIG RMK WIND RWY10 VRB13KT PP000=
SPZO Ene2008-151800Z VRB07KT 9999 SCT040 SCT050 17/07 Q1026 NOSIG RMK=
SPZO Ene2008-151900Z 01008KT 280V070 9999 SCT040 SCT050 17/05 Q1026 NOSIG RMK WIND RWY 10 06015G28KT 350V120 PP000=
SPZO Ene2008-152000Z 04008KT 340V160 9999 SCT040 SCT050 18/05 Q1025 NOSIG RMK WIND RWY 10 VRB15G33KT PP000=
SPZO Ene2008-152100Z 01005KT 300V070 9999 SCT040 SCT050 16/05 Q1024 NOSIG RMK PP000=
SPZO Ene2008-152200Z 36009KT 320V070 9999 SCT040 SCT050 16/05 Q1025 TEMPO=
SPZO Ene2008-152300Z 36008KT 280V070 9999 SCT040 SCT050 15/04 Q1025 RMK PP000=
SPZO Ene2008-160000Z 17005KT 320V070 9999 SCT040 BKN060 15/05 Q1026 RMK PP000=
SPZO Ene2008-160100Z 10002KT 9999 SCT040 BKN050 13/06 Q1027 RMK PP000=
SPZO Ene2008-160200Z 15002KT 9999 FEW040 SCT100 12/07 Q1028 RMK PP000=
SPZO Ene2008-160300Z 12002KT 9999 FEW040 SCT100 12/07 Q1029 RMK PP000=
SPZO Ene2008-160400Z 06002KT 9999 FEW040 SCT100 11/07 Q1029 RMK PP000=
SPZO Ene2008-160500Z 00000KT 9999 FEW040 SCT100 11/07 Q1028 RMK PP000=
SPZO Ene2008-160600Z 00000KT 9999 FEW040 SCT100 11/07 Q1028 RMK PP000=
SPZO Ene2008-160700Z 00000KT 9999 FEW040 SCT100 10/07 Q1027 RMK PP000=
SPZO Ene2008-160800Z 15003KT 140V220 9999 SCT040 BKN080 10/07 Q1027 RMK PP000=
SPZO Ene2008-160900Z VRB02KT 9999 SCT040 BKN080 10/07 Q1027 RMK PP000=
SPZO Ene2008-161000Z 00000KT 9999 SCT040 BKN080 09/06 Q1028 RMK PP000=
SPZO Ene2008-161100Z 25002KT 9999 SCT040 BKN050 09/06 Q1028 NOSIG RMK PP000=
SPZO Ene2008-161200Z VRB02KT 9999 SCT043 SCT080 12/07 Q1029 NOSIG RMK PP000=
SPZO Ene2008-161300Z VRB02KT 9999 FEW036 SCT043 BKN050 13/06 Q1030 NOSIG RMK PP000=
SPZO Ene2008-161400Z 09004KT 040V150 9999 FEW036 SCT043 BKN050 14/06 Q1030 NOSIG RMK PP000=
SPZO Ene2008-161415Z VRB02KT 9999 -RA VCSH FEW036 SCT043 BKN046 15/06 Q1030=
SPZO Ene2008-161500Z VRB03KT 9999 SCT040 SCT050 14/07 Q1029 TEMPO VCSH RMK PPTRZ=
SPZO Ene2008-161600Z 34008KT 300V020 9999 SCT040 SCT050 16/06 Q1029 TEMPO=
SPZO Ene2008-161700Z VRB03KT 9999 VCSH FEW040TCU SCT050 16/04 Q1028 NOSIG RMK PP002=
SPZO Ene2008-161800Z 14006KT 090V170 9999 SCT050 17/06 Q1027 NOSIG RMK PP000=
SPZO Ene2008-161900Z VRB6KT 9999 VCSH FEW040 SCT050 20/07 Q1025 NOSIG RMK PP000=
SPZO Ene2008-162000Z 35013KT 310V030 9999 FEW043 SCT230 19/04 Q1024 NOSIG RMK PP000=
SPZO Ene2008-162100Z VRB04KT 9999 FEW043 BKBN150 19/04 Q1024 NOSIG RMK RWY10 VRB19KT PP000=
SPZO Ene2008-162200Z 35010KT 310V070 9999 FEW046 BKN200 17/04 Q1024 NOSIG RMK RWY10 VRB19KT TMX/20.5 PP000=
SPZO Ene2008-162300Z VRB01KT 9999 FEW046 BKN100 16/03 Q1024 NOSIG RMK PP000=
SPZO Ene2008-170000Z VRB01KT 9999 SCT046 BKN100 15/04 Q1026 RMK PP000=
SPZO Ene2008-170100Z VRB02KT 9999 SCT040 BKN050 14/06 Q1028 RMK PP000=
SPZO Ene2008-170200Z 00000KT 9999 SCT040 SCT050 11/07 Q1028 RERA RMK PP004=
SPZO Ene2008-170400Z 07003KT 9999 FEW040 SCT050 09/07 Q1029 RMK PP000=
SPZO Ene2008-170500Z 00000KT 9999 FEW040 SCT050 09/07 Q1029 RMK PP000=
SPZO Ene2008-170600Z 00000KT 9999 FEW040 SCT050 08/07 Q1029 RMK PP000=
SPZO Ene2008-170700Z 08005KT 9999 FEW040 07/05 Q1028 RMK PP000=
SPZO Ene2008-170800Z 24002KT 9999 SCT040 SCT050 08/06 Q1028 RMK PP000=
SPZO Ene2008-170900Z 00000KT 9999 SCT040 08/06 Q1028 RMK PP000=
SPZO Ene2008-171000Z 07004KT 9999 FEW040 SCT080 07/05 Q1028 RMK PP000=
SPZO Ene2008-171100Z 00000KT 9999 SCT046 BKN080 07/05 Q1029 NOSIG RMK PP000=
SPZO Ene2008-171200Z 22001KT 9999 SCT046 BKN080 08/06 Q1030 NOSIG RMK PP000=
SPZO Ene2008-171300Z 09004KT 9999 FEW036 SCT050 BKN080 09/07 Q1031 NOSIG RMK PP000=
SPZO Ene2008-171400Z VRB02KT 9999 FEW033 SCT050 BKN080 11/07 Q1031 NOSIG RMK PP000=
SPZO Ene2008-171500Z VRB03KT 9999 SCT036 BKN080 13/06 Q1031 NOSIG RMK PP000=
SPZO Ene2008-171600Z VRB04KT 9999 FEW040 SCT046 BKN080 15/07 Q1030 NOSIG RMK PP000=
SPZO Ene2008-171700Z VRB03KT 9999 SCT043 BKN080 16/06 Q1029 NOSIG RMK PP000=
SPZO Ene2008-171800Z VRB03KT 9999 FEW043 OVC080 17/06 Q1028 NOSIG RMK PP000=
SPZO Ene2008-171900Z VRB03KT 9999 SCT043 BKN100 18/06 Q1026 NOSIG RMK PP000=
SPZO Ene2008-172000Z VRB03KT 9999 SCT043 BKN100 18/04 Q1025 NOSIG RMK PP000=
SPZO Ene2008-172100Z VRB03KT 9999 SCT043 BKN100 19/03 Q1025 NOSIG RMK PP000=
SPZO Ene2008-172200Z VRB02KT 9999 FEW040TCU SCT046 BKN080 19/03 Q1024 NOSIG RMK T.MAX 18.8 PP000=
SPZO Ene2008-172300Z 36008KT 330V060 9999 FEW040TCU SCT046 BKN100 17/05 Q1025 NOSIG RMK PP000=
SPZO Ene2008-180000Z 28009KT 230V340 9999 SCT046 BKN100 16/04 Q1026 RMK PP000=
SPZO Ene2008-180100Z 08006KT 050V120 9999 SCT040 BKN100 13/06 Q1027 RMK PP000=
SPZO Ene2008-180200Z 08004KT 9999 SCT040 BKN050 11/08 Q1029 RMK PP000=
SPZO Ene2008-180300Z 03003KT 020V160 9999 RA SCT040 BKN050 10/08 Q1030 RMK PP010=
SPZO Ene2008-180400Z 29004KT 270V340 9000 -DZ FEW030 OVC040 10/07 Q1030 RMK PP008=
SPZO Ene2008-180500Z 21002KT 9999 FEW030 OVC043 11/07 Q1030 RMK PP000=
SPZO Ene2008-180600Z 10003KT 9999 FEW030 OVC043 10/08 Q1029 RMK PP000=
SPZO Ene2008-180700Z 00000KT 9000 RA FEW020 OVC043 09/08 Q1029 RMK PP018=
SPZO Ene2008-180800Z 00000KT 9000 RA FEW020 OVC043 09/07 Q1029 RMK PP024=
SPZO Ene2008-180900Z 28002KT 9000 RA FEW020 OVC040 08/06 Q1029 RMK CLNG BLW 1200 PP032=
SPZO Ene2008-181000Z 00000KT 9000 -DZ FEW020 OVC040 09/06 Q1029 RMK CLNG BLW 1200M PP006=
SPZO Ene2008-181025Z 00000KT 9999 FEW020 SCT040 BKN046 09/06 Q1030 REDZ=
SPZO Ene2008-181100Z 21001KT 9999 FEW020 SCT043 BKN050 09/06 Q1030 NOSIG RMK PP000=
SPZO Ene2008-181200Z 08002KT 9999 FEW036 SCT043 BKN050 09/07 Q1031 NOSIG RMK PP000=
SPZO Ene2008-181300Z VRB02KT 9999 FEW036 SCT046 BKN080 12/07 Q1031 NOSIG RMK PP000=
SPZO Ene2008-181400Z VRB02KT 9999 FEW040 SCT230 14/05 Q1031 NOSIG RMK PP000=
SPZO Ene2008-181500Z VRB02KT 9999 SCT043 SCT230 16/06 Q1031 NOSIG RMK PP000=
SPZO Ene2008-181600Z VRB04KT 9999 FEW040 SCT050 18/07 Q1029 NOSIG RMK RWY 10 VRB05KT PP000=
SPZO Ene2008-181700Z VRB05KT 9999 FEW043 SCT050 19/05 Q1028 NOSIG RMK=
SPZO Ene2008-181800Z VRB04KT 9999 FEW043 SCT050 20/05 Q1026 NOSIG RMK=
SPZO Ene2008-181900Z 35012KT 310V060 9999 FEW043TCU SCT050 19/04 Q1025 TEMPO VCSH RMK WIND RWY10 VRB16KT PP000=
SPZO Ene2008-182000Z 32008KT 270V010 9999 FEW043 SCT050 20/04 Q1024 NOSIG RMK WIND RWT10 VRB17KT PP000=
SPZO Ene2008-182100Z 34008KT 280V060 9999 FEW043TCU SCT050 20/05 Q1023 NOSIG RMK WIND RWY10 01011KT 310V110 PP000=
SPZO Ene2008-182136Z 05008KT 340V070 9999 RA FEW043TCU SCT050 BKN080 15/07 Q1024=
SPZO Ene2008-182200Z VRB04KT 9999 RA FEW043TCU SCT050 BKN080 16/05 Q1024 BCMG FM2230 NSW RMK WIND RWY10 VRB11KT T.MAX.21.4 PP036=
SPZO Ene2008-182300Z VRB04KT 9999 FEW043TCU SCT050 BKN080 15/08 Q1024 RERA TEMPO VCSH RMK PP016=
SPZO Ene2008-190000Z VRB03KT 9999 OVC040 15/08 Q1026 RMK PP000=
SPZO Ene2008-190100Z VRB03KT 9999 SCT050 14/07 Q1027 RMK PP000=
SPZO Ene2008-190200Z VRB01KT 9999 FEW050 SCT100 14/07 Q1028 RMK PP000=
SPZO Ene2008-190300Z 00000KT 9999 FEW050 SCT100 11/08 Q1028 RMK PP000=
SPZO Ene2008-190400Z 00000KT 9999 FEW050 SCT100 11/07 Q1029 RMK PP000=
SPZO Ene2008-190500Z 00000KT 9999 SCT043 SCT080 11/08 Q1029 RMK PP000=
SPZO Ene2008-190600Z 00000KT 9999 BKN040 SCT050 11/08 Q1028 RMK PP000=
SPZO Ene2008-190700Z 00000KT 9999 SCT036 BKN043 11/08 Q1028 RMK PP000=
SPZO Ene2008-190800Z 00000KT 9999 SCT036 BKN050 12/05 Q1027 RMK PP000=
SPZO Ene2008-190900Z 00000KT 9999 SCT036 BKN043 11/06 Q1027 RMK PP000=
SPZO Ene2008-191000Z 26003KT 9999 BKN040 SCT060 11/06 Q1028 RMK PP000=
SPZO Ene2008-191100Z VRB01KT 9999 VCSH FEW036 SCT043 BKN050 10/07 Q1028 NOSIG RMK PP000=
SPZO Ene2008-191200Z 00000KT 9999 FEW036 SCT046 BKN050 12/06 Q1029 NOSIG RMK PP000=
SPZO Ene2008-191300Z 19002KT 8000 -RA FEW036 SCT046 BKN050 12/06 Q1030 NOSIG RMK PP000=
SPZO Ene2008-191400Z 11006KT 9999 -RA FEW036 SCT043 BKN050 11/07 Q1031 NOSIG RMK WIND RWY10 VRB11KT PP006=
SPZO Ene2008-191420Z 07005KT 030V110 9999 FEW036 SCT043 BKN060 11/08 Q1031=
SPZO Ene2008-191500Z 07005KT 040V130 9999 FEW036 SCT043 BKN060 12/06 Q1031 NOSIG RMK WIND RWY1012010KT 080V150 PP002=
SPZO Ene2008-191600Z VRB05KT 9999 -RA VCSH FEW036 SCT043 BKN080 15/06 Q1030 BECMG FM1640 NSW RMK WIND RWY10 VRB05KT PP000=
SPZO Ene2008-191700Z 00000KT 9999 VCSH FEW036 SCT043 BKN080 15/08 Q1029 RERA NOSIG RMK WIND RWY10 21004KT PP004=
SPZO Ene2008-191800Z 09008KT 050V160 9999 VCSH FEW036TCU SCT046 BKN230 16/09 Q1028 NOSIG RMK PP000=
SPZO Ene2008-191835Z 27006KT 9999 -RA FEW040TCU SCT043 BKN046 15/08 Q1028=
SPZO Ene2008-191900Z VRB04KT 9999 VCSH FEW040 SCT043 BKN046 14/08 Q1027 NOSIG RMK PPTRZ=
SPZO Ene2008-192000Z 36007KT 310V070 9999 VCSH FEW040 SCT043 BKN050 18/06 Q1026 NOSIG RMK PP000=
SPZO Ene2008-192100Z 09011KT 060V120 9999 FEW040 SCT046 BKN080 15/08 Q1025 NOSIG RMK PP000=
SPZO Ene2008-192200Z 10007KT 060V130 9999 FEW043 SCT050 BKN230 15/08 Q1025 NOSIG RMK T.MAX 18.2 PP000=
SPZO Ene2008-192300Z 09005KT 9999 SCT046 BKN080 14/07 Q1026 NOSIG RMK PP000=
SPZO Ene2008-200000Z 08005KT 9999 SCT050 BKN100 13/07 Q1027 RMK PP000=
SPZO Ene2008-200100Z 00000KT 9999 SCT043 BKN100 13/07 Q1028 RMK PP000=
SPZO Ene2008-200200Z 23003KT 9999 SCT043 BKN100 13/08 Q1028 RMK PP000=
SPZO Ene2008-200300Z 09005KT 030V120 9999 SCT040 BKN100 12/08 Q1027 RMK PP000=
SPZO Ene2008-200400Z 00000KT 9999 -RA SCT040 BKN100 12/08 Q1029 RMK PP002=
SPZO Ene2008-200500Z 00000KT 9999 SCT040 BKN050 11/08 Q1029 RMK PP000=
SPZO Ene2008-200600Z 11003KT 070V180 9999 SCT040 BKN050 10/07 Q1029 RERA RMK PP002=
SPZO Ene2008-200700Z 12003KT 090V180 9999 FEW030 SCT040 BKN050 10/07 Q1029 RERA RMK PP002=
SPZO Ene2008-200800Z 06002KT 9999 FEW030 SCT040 BKN050 09/07 Q1028 RMK PP000=
SPZO Ene2008-200900Z 09002KT 040V120 9999 FEW030 SCT040 BKN050 10/08 Q1028 RMK PP000=
SPZO Ene2008-201000Z VRB01KT 9999 FEW030 SCT040 BKN050 10/07 Q1029 RMK PP000=
SPZO Ene2008-201100Z 08003KT 9999 FEW030 SCT040 BKN046 10/08 Q1029 TEMPO=
SPZO Ene2008-201200Z 00000KT 9999 VCSH FEW030 SCT040 BKN043 10/08 Q1030 TEMPO -RA RMK PP004=
SPZO Ene2008-201300Z VRB03KT 9999 VCSH FEW030 SCT043 BKN046 11/08 Q1031 NOSIG RMK PP000=
SPZO Ene2008-201400Z 08004KT 040V120 9999 FEW030 SCT043 BKN080 12/07 Q1031 NOSIG RMK PP000=
SPZO Ene2008-201500Z 08006KT 060V120 9999 VCSH FEW025 SCT040 BKN046 13/08 Q1031 NOSIG RMK PP000=
SPZO Ene2008-201600Z 07005KT 350V110 9999 VCSH FEW030 SCT043 BKN080 14/07 Q1030 NOSIG RMK PP000=
SPZO Ene2008-201700Z VRB04KT 9999 VCSH FEW033 SCT043 BKN080 17/07 Q1029 NOSIG RMK PP000=
SPZO Ene2008-201800Z 35010KT 320V040 9999 VCSH FEW040CB SCT043 BKN046 15/08 Q1028 NOSIG RMK RESHRA PP010=
SPZO Ene2008-201900Z VRB02KT 9999 VCSH FEW040TCU SCT043 BKN050 15/07 Q1028 NOSIG RMK PP006=
SPZO Ene2008-202000Z 06006KT 9999 FEW043 SCT050 BKN080 15/08 Q1027 NOSIG RMK PP000=
SPZO Ene2008-202100Z VRB03KT 9999 FEW040 SCT046 BKN080 16/08 Q1026 NOSIG RMK PP000=
SPZO Ene2008-202200Z VRB02KT 9999 BKN046 SCT100 16/07 Q1025 NOSIG RMK T.MAX 18.0 PP000=
SPZO Ene2008-202300Z VRB01KT 9999 SCT046 SCT100 16/07 Q1026 NOSIG RMK PP000=
SPZO Ene2008-210000Z 27006KT 9999 SCT046 BKN100 13/06 Q1027 RMK PP000=
SPZO Ene2008-210100Z 27009KT 9999 SCT046 BKN100 12/06 Q1028 RMK PP000=
SPZO Ene2008-210200Z 30003KT 9999 SCT046 BKN100 11/06 Q1029 RMK PP000=
SPZO Ene2008-210300Z 26004KT 9999 SCT043 BKN060 12/06 Q1030 RMK PP000=
SPZO Ene2008-210400Z 00000KT 9999 SCT040 BKN050 11/08 Q1030 RMK PP000=
SPZO Ene2008-210500Z 24003KT 9999 SCT040 BKN050 11/04 Q1030 RMK PP000=
SPZO Ene2008-210600Z 24005KT 9999 SCT040 BKN050 12/07 Q1029 RMK PP000=
SPZO Ene2008-210700Z 26007KT 9999 SCT040 BKN050 12/07 Q1029 RMK PP000=
SPZO Ene2008-210800Z 25006KT 9999 SCT040 BKN050 11/07 Q1029 RMK PP000=
SPZO Ene2008-210900Z 28004KT 9999 SCT040 BKN046 11/06 Q1028 RMK PP000=
SPZO Ene2008-211000Z 12003KT 9999 SCT040 BKN046 11/06 Q1029 RMK PP000=
SPZO Ene2008-211100Z 08008KT 030V120 9999 FEW030 SCT040 BKN046 10/06 Q1030 NOSIG RMK PP000=
SPZO Ene2008-211126Z 08009KT 9999 SCT036 BKN043 10/06 Q1030=
SPZO Ene2008-211200Z 09008KT 060V120 9999 FEW030 SCT036 BKN043 10/06 Q1030 NOSIG RMK PP000=
SPZO Ene2008-211300Z 08007KT 050V120 9999 VCSH FEW033 SCT040 BKN046 10/06 Q1031 NOSIG RMK PP000=
SPZO Ene2008-211400Z 08009KT 050V120 9999 VCSH FEW030 SCT046 BKN080 12/07 Q 1031 NOSIG RMK PP000=
SPZO Ene2008-211500Z VRB03KT 9999 FEW036 SCT046 BKN080 13/05 Q1031 NOSIG RMK PP000=
SPZO Ene2008-211600Z VRB02KT 9999 VCSH FEW040 SCT050 16/07 Q1029 NOSIG RMK PP000=
SPZO Ene2008-211700Z 30012KT 260V330 9999 VCSH FEW040TCU SCT043 BKN050 16/06 Q1029 TEMPO -RA RMK WIND RWY10 27017KT 240V330 PP000=
SPZO Ene2008-211800Z VRB03KT 9999 FEW036 SCT043 BKN080 16/07 Q1029 NOSIG RMK PP000=
SPZO Ene2008-211900Z VRB06KT 9999 FEW043TCU SCT046 BKN100 18/07 Q1027 TEMPO VCSH RMK PP000=
SPZO Ene2008-212000Z VRB07KT 9999 VCSH FEW036 SCT046 BKN080 16/06 Q1026 RESHRA NOSIG RMK WIND RWY10 28016KT PP006=
SPZO Ene2008-212100Z 33008KT 250V040 9999 VCSH FEW040TCU SCT043 BKN046 15/08 Q1026 NOSIG RMK PP000=
SPZO Ene2008-212200Z 10004KT 070V160 9999 VCSH BKN046 SCT080 14/08 Q1026 NOSIG RMK T.MAX 17.9 PP000=
SPZO Ene2008-212300Z 08007KT 9999 BKN050 SCT200 13/08 Q1026 NOSIG RMK PP000=
SPZO Ene2008-220000Z 09003KT 050V130 9999 FEW050 SCT200 12/08 Q1027 RMK PP000=
SPZO Ene2008-220100Z 00000KT 9999 SCT050 SCT200 11/07 Q1028 RMK PP000=
SPZO Ene2008-220200Z 05004KT 9999 SCT050 BKN100 11/08 Q1029 RMK PP000=
SPZO Ene2008-220300Z 00000KT 9999 SCT050 BKN100 11/08 Q1029 RMK PP000=
SPZO Ene2008-220400Z 00000KT 9999 SCT043 BKN100 11/08 Q1029 RMK PP000=
SPZO Ene2008-220500Z 00000KT 9999 SCT040 BKN080 11/08 Q1029 RMK PP000=
SPZO Ene2008-220600Z 00000KT 9999 SCT040 BKN050 11/09 Q1028 RMK PP000=
SPZO Ene2008-220700Z 27005KT 9999 SCT040 BKN046 11/07 Q1028 RMK PP000=
SPZO Ene2008-220800Z 00000KT 9999 SCT040 BKN050 11/07 Q1027 RMK PP000=
SPZO Ene2008-220900Z 00000KT 9999 FEW030 SCT040 BKN046 11/07 Q1027 RMK PP000=
SPZO Ene2008-221000Z 26002KT 9000 DZ FEW030 SCT040 BKN046 10/08 Q1028 RMK PP004=
SPZO Ene2008-221030Z 03002KT 9000 VCSH FEW030 SCT036 BKN043 10/08 Q1029 CLNG BLW 1200M=
SPZO Ene2008-221100Z 00000KT 9999 VCSH SCT033 BKN043 10/07 Q1029 RERA NOSIG RMK PPTRZ=
SPZO Ene2008-221200Z VRB02KT 9999 FEW036 SCT043 BKN046 10/07 Q1029 NOSIG RMK PP000=
SPZO Ene2008-221300Z 00000KT 9999 FEW036 SCT043 BKN050 12/07 Q1030 NOSIG RMK PP000=
SPZO Ene2008-221400Z VRB02KT 9999 FEW036 SCT043 BKN050 14/06 Q1030 NOSIG RMK PP000=
SPZO Ene2008-221500Z VRB02KT 9999 VCSH FEW033 SCT043 BKN050 14/06 Q1029 NOSIG RMK PP000=
SPZO Ene2008-221600Z 30009KT 210V360 9999 VCSH FEW036TCU SCT043 BKN050 15/07 Q1029 NOSIG RMK WIND RWY10 30017G30KT 260V020 PP000=
SPZO Ene2008-221700Z VRB03KT 9999 VCSH FEW040TCU SCT043 BKN046 18/07 Q1028 NOSIG RMK PP000=
SPZO Ene2008-221800Z 13003KT 070V190 9999 VCSH FEW040TCU SCT043 BKN080 16/06 Q1028 RERA NOSIG WIND RWY10 VRB06KT RMK PP002=
SPZO Ene2008-221900Z 08008KT 060V160 9999 VCSH FEW040TCU SCT043 BKN060 16/07 Q1027 TEMPO RA RMK WIND RWY10 VRB22KT PP000=
SPZO Ene2008-222000Z VRB02KT 9999 VCSH FEW040TCU SCT043 BKN060 14/05 Q1026 NOSIG RMK RA DE 1940/45 WIND RWY10 VRB06KT PP002=
SPZO Ene2008-222100Z 03008KT 360V080 9999 VCSH FEW040TCU SCT043 BKN060 14/07 Q1025 NOSIG RMK WIND RWY10 VRB08KT PP000=
SPZO Ene2008-222200Z 00000KT 9999 SCT046 BKN080 14/07 Q1025 TEMPO VCSH RMK T.MAX.18.1 PP000=
SPZO Ene2008-222300Z 00000KT 9999 SCT046 BKN080 14/07 Q1025 N0SIG RMK PP000=
SPZO Ene2008-230000Z VRB01KT 9999 FEW046 SCT100 13/07 Q1026 RMK PP000=
SPZO Ene2008-230100Z VRB02KT 9999 FEW050 SCT100 12/07 Q1027 RMK PP000=
SPZO Ene2008-230200Z VRB04KT 9999 DZ SCT036 BKN046 12/07 Q1029 RMK PP000=
SPZO Ene2008-230300Z 19005KT 9999 SCT036 BKN046 11/07 Q1029 RMK PP004=
SPZO Ene2008-230400Z 05002KT 9999 BKN040 SCT050 10/07 Q1029 RMK PP000=
SPZO Ene2008-230500Z 00000KT 9999 FEW036 OVC046 09/07 Q1028 RMK PP000=
SPZO Ene2008-230600Z 08002KT 9999 SCT036 BKN043 09/07 Q1027 RMK PP000=
SPZO Ene2008-230700Z 00000KT 9999 SCT036 BKN046 10/07 Q1027 RMK PP000=
SPZO Ene2008-230800Z 00000KT 9999 SCT030 BKN046 10/07 Q1026 RMK PP000=
SPZO Ene2008-230900Z VRB02KT 9999 -RA SCT036 BKN043 10/07 Q1026 RMK PP002=
SPZO Ene2008-231000Z 11001KT 9999 VCSH SCT036 BKN043 10/08 Q1026 RMK PP002=
SPZO Ene2008-231100Z 08002KT 9999 FEW036 SCT043 BKN046 10/08 Q1027 NOSIG RMK PP000=
SPZO Ene2008-231200Z 00000KT 9999 SCT040 BKN080 10/07 Q1028 NOSIG RMK PP000=
SPZO Ene2008-231300Z 08004KT 030V120 9999 SCT040 BKN050 11/07 Q1028 NOSIG RMK WIND RWY10 12008KT 050V150 PP000=
SPZO Ene2008-231400Z 08003KT 030V140 9999 SCT043 BKN080 14/08 Q1028 NOSIG RMK WIND RWY10 VRB02KT PP000=
SPZO Ene2008-231500Z VRB04KT 9999 SCT046 BKN080 15/07 Q1028 NOSIG RMK=
SPZO Ene2008-231600Z 00000KT 9999 SCT046 BKN080 16/07 Q1027 NOSIG RMK=
SPZO Ene2008-231700Z 07003KT 320V110 9999 VCSH FEW043TCU SCT046 BKN080 16/06 Q1027 NOSIG RMK WIND RWY10 06016KT 340V120 PP000=
SPZO Ene2008-231800Z 30009KT 270V330 9999 VCSH FEW040TCU SCT043 BKN046 12/08 Q1027 RESHRA NOSIG RMK PP026=
SPZO Ene2008-231900Z 34008KT 270V050 9999 -RA FEW040TCU SCT043 BKN050 13/06 Q1026 NOSIG RMK PP006=
SPZO Ene2008-231920Z VRB03KT 9999 VCSH FEW040 SCT046 BKN080 14/07 Q1026=
SPZO Ene2008-232000Z 08011KT 050V120 9999 VCSH FEW040 SCT043 BKN080 15/09 Q1025 NOSIG RMK PPTRZ=
SPZO Ene2008-232100Z 11005KT 9999 -RA SCT040 BKN046 12/07 Q1025 NOSIG RMK PP008=
SPZO Ene2008-232200Z 10005KT 050V130 9999 VCSH SCT030 BKN070 12/08 Q1025 NOSIG RMK T.MAX 16.7 PP004=
SPZO Ene2008-232300Z VRB02KT 9999 FEW036 SCT043 BKN070 12/07 Q1026 NOSIG RMK PP000=
SPZO Ene2008-240000Z 08002KT 9999 SCT046 BKN060 11/07 Q1027 RMK PP000=
SPZO Ene2008-240100Z 09002KT 9999 DZ SCT040 BKN050 10/08 Q1027 RMK PP002=
SPZO Ene2008-240200Z 00000KT 9999 SCT040 BKN050 11/08 Q1028 RMK PP000=
SPZO Ene2008-240300Z 00000KT 9999 SCT040 BKN050 11/08 Q1029 RMK PP000=
SPZO Ene2008-240400Z 00000KT 9999 SCT040 BKN050 11/08 Q1029 RMK PP000=
SPZO Ene2008-240500Z 00000KT 9999 SCT040 BKN050 10/08 Q1028 RMK PP000=
SPZO Ene2008-240600Z 00000KT 9999 SCT036 BKN050 10/08 Q1028 RMK PP000=
SPZO Ene2008-240700Z 09002KT 9999 -DZ SCT036 BKN050 10/08 Q1027 RMK PP002=
SPZO Ene2008-240800Z 09002KT 9999 SCT036 BKN050 10/08 Q1027 RMK PP000=
SPZO Ene2008-240900Z 00000KT 9999 FEW030 SCT036 BKN046 10/08 Q1027 RMK PP000=
SPZO Ene2008-241000Z 00000KT 9999 FEW030 SCT036 BKN046 10/08 Q1027 RMK PP000=
SPZO Ene2008-241100Z VRB01KT 9999 SCT036 BKN080 10/08 Q1028 NOSIG RMK PP000=
SPZO Ene2008-241133Z VRB03KT 9999 FEW030 SCT043 BKN070 10/07 Q1029=
SPZO Ene2008-241200Z VRB03KT 9999 FEW030 SCT043 BKN080 11/07 Q1029 NOSIG RMK PP000=
SPZO Ene2008-241300Z 00000KT 9999 FEW030 SCT046 BKN080 13/06 Q1029 NOSIG RMK PP000=
SPZO Ene2008-241400Z 00000KT 9999 FEW033 SCT046 15/06 Q1029 NOSIG RMK PP000=
SPZO Ene2008-241500Z 00000KT 9999 FEW036 SCT043 BKN080 15/05 Q1029 NOSIG RMK PP000=
SPZO Ene2008-241600Z VRB01KT 9999 VCSH FEW040TCU SCT043 BKN080 16/06 Q1028 TEMPO -RA RMK PP000=
SPZO Ene2008-241700Z VRB03KT 9999 VCSH FEW040TCU BKN046 16/07 Q1027 RESHRA TEMPO -RA RMK PP004=
SPZO Ene2008-241709Z 35009KT 320V040 9000 RA SCT040TCU BKN046 13/07 Q1028=
SPZO Ene2008-241800Z 19006KT 150V240 9999 VCSH FEW036 SCT043 BKN050 14/08 Q1027 NOSIG RMK PP010=
SPZO Ene2008-241900Z VRB03KT 9999 -RA FEW033 SCT043TCU BKN046 15/09 Q1026 NOSIG RMK PP002=
SPZO Ene2008-242000Z 10008KT 060V140 9999 VCSH FEW036 SCT043 BKN050 15/09 Q1026 TEMPO -RA RMK PP002=
SPZO Ene2008-242100Z 07008KT 030V100 9999 VCSH FEW040TCU SCT043 BKN046 15/09 Q1025 TEMPO -RA RMK PP002=
SPZO Ene2008-242200Z 09007KT 060V130 9999 VCSH FEW040TCU BKN046 13/08 Q1025 TEMPO -RA RMK T.MAX 17.8 PP000=
SPZO Ene2008-242300Z 08005KT 9999 VCSH SCT043TCU BKN046 12/09 Q1026 TEMPO -RA RMK PP000=
SPZO Ene2008-250000Z 00000KT 9999 SCT043 BKN100 12/09 Q1027 RMK PP000=
SPZO Ene2008-250100Z 00000KT 9999 SCT043 SCT100 12/09 Q1028 RMK PP000=
SPZO Ene2008-250200Z 00000KT 9999 SCT043 SCT100 12/09 Q1029 RMK PP000=
SPZO Ene2008-250300Z 00000KT 9999 SCT043 SCT100 12/07 Q1029 RMK PP000=
SPZO Ene2008-250400Z 00000KT 9999 SCT040 BKN050 11/08 Q1030 RERA RMK PP004=
SPZO Ene2008-250500Z 00000KT 9999 SCT040 BKN050 11/08 Q1029 RMK PP000=
SPZO Ene2008-250600Z 00000KT 9999 SCT040 BKN050 11/09 Q1029 RMK PP000=
SPZO Ene2008-250700Z 06004KT 9999 SCT040 BKN050 11/09 Q1028 RMK PP000=
SPZO Ene2008-250800Z 00000KT 9999 SCT0/40 BKN050 10/08 Q1028 RMK PP000=
SPZO Ene2008-250900Z 00000KT 9999 SCT040 BKN050 10/08 Q1028 RMK PP000=
SPZO Ene2008-251000Z 00000KT 9999 SCT040 BKN050 11/08 Q1029 RMK PP000=
SPZO Ene2008-251100Z 00000KT 9999 SCT040 SCT050 10/08 Q1029 NOSIG RMK PP000=
SPZO Ene2008-251200Z VRB02KT 9999 FEW036 SCT043 BKN080 11/07 Q1030 NOSIG RMK PP000=
SPZO Ene2008-251300Z 00000KT 9999 FEW030 SCT043 BKN050 12/07 Q1031 NOSIG RMK PP000=
SPZO Ene2008-251400Z VRB02KT 9999 VCSH FEW033 SCT043TCU BKN046 13/08 Q1031 NOSIG RMK PP000=
SPZO Ene2008-251500Z VRB03KT 9999 VCSH FEW036 SCT046 BKN080 14/06 Q1031 NOSIG RMK PP000=
SPZO Ene2008-251600Z VRB03KT 9999 FEW040 SCT050 17/08 Q1029 NOSIG RMK PP000=
SPZO Ene2008-251700Z 09004KT 020V150 9999 VCSH SCT040 SCT050 17/08 Q1028 NOSIG RMK PP000=
SPZO Ene2008-251800Z VRB02KT 9999 VCSH SCT040 SCT050 19/06 Q1027 NOSIG RMK PP000=
SPZO Ene2008-251900Z 26015G24KT 230V290 9999 VCSH SCT043CB BKN046 15/06 Q1027 TEMPO -RA RMK WIND RWY10 27025G36KT 220V300 PP000=
SPZO Ene2008-252000Z VRB03KT 9999 VCSH SCT043TCU BKN050 15/05 Q1027 TEMPO -RA RMK PP000=
SPZO Ene2008-252100Z 08006KT 360V150 9999 VCSH BKN046 SCT080 15/09 Q1027 NOSIG RMK PP000=
SPZO Ene2008-252200Z VRB03KT 9999 VCSH FEW043 SCT080 15/06 Q1027 NOSIG RMK RWY10 VRB06KT TMX/19.7 PP000=
SPZO Ene2008-252300Z 09008KT 9999 SCT050 13/07 Q1027 RMK PP000=
SPZO Ene2008-260000Z 07004KT 9999 SCT050 SCT100 11/07 Q1028 RMK PP000=
SPZO Ene2008-260100Z 00000KT 9999 SCT050 SCT100 11/07 Q1029 RMK PP000=
SPZO Ene2008-260200Z 00000KT 9999 SCT050 SCT100 11/07 Q1030 RMK PP000=
SPZO Ene2008-260300Z 00000KT 9999 SCT050 SCT100 11/08 Q1030 RMK PP000=
SPZO Ene2008-260400Z 00000KT 9999 SCT043 BKN080 11/08 Q1030 RMK PP000=
SPZO Ene2008-260500Z 00000KT 9999 RA SCT040 BKN050 09/07 Q1030 RMK PP032=
SPZO Ene2008-260600Z 00000KT 9999 RA SCT036 BKN046 09/07 Q1030 RMK PP034=
SPZO Ene2008-260700Z 00000KT 9999 RA FEW030 SCT036 BKN046 08/07 Q1030 RMK PP046=
SPZO Ene2008-260800Z 09004KT 9999 RA FEW030 SCT036 BKN046 08/07 Q1030 RMK PP042=
SPZO Ene2008-260900Z 07002KT 9000 RA FEW030 SCT036 BKN046 08/06 Q1030 RMK PP024=
SPZO Ene2008-261000Z 00000KT 9000 RA FEW030 SCT036 BKN046 07/05 Q1031 CLNG BLW 1200M RMK PP036=
SPZO Ene2008-261100Z 12002KT 9000 RA FEW020 SCT033 BKN043 07/05 Q1032 NOSIG RMK CLNG BLW 1200M PP030=
SPZO Ene2008-261200Z VRB02KT 7000 RA FEW025 SCT033 BKN043 06/05 Q1033 NOSIG RMK CLNG BLW 1200M PP032=
SPZO Ene2008-261300Z VRB01KT 9000 RA SCT025 SCT033 BKN043 06/04 Q1034 NOSIG RMK CLNG BLW 1200M PP000=
SPZO Ene2008-261400Z VRB03KT 9999 -RA FEW025 SCT036 BKN070 06/04 Q1033 NOSIG RMK CLNG BLW 1200M PP020=
SPZO Ene2008-261421Z VRB03KT 9999 FEW025 SCT040 BKN070 08/04 Q1033 BCO NIEBLA NE=
SPZO Ene2008-261500Z VRB02KT 9999 FEW030 OVC060 09/04 Q1033 RERA NOSIG RMK RWY10 VRB05KT PP012=
SPZO Ene2008-261600Z VRB03KT 9999 FEW030 SCT050 BKN070 11/05 Q1032 NOSIG RMK PP000=
SPZO Ene2008-261700Z VRB01KT 9999 FEW033 SCT046 BKN080 14/04 Q1031 NOSIG RMK PP000=
SPZO Ene2008-261800Z VRB02KT 9999 SCT046 BKN080 15/04 Q1030 NOSIG RMK=
SPZO Ene2008-261900Z VRB03KT 9999 SCT046 BKN100 17/05 Q1028 NOSIG RMK RWY 10 VRB11KT PP000=
SPZO Ene2008-262000Z VRB04KT 9999 SCT046 BKN100 18/05 Q1027 NOSIG RMK=
SPZO Ene2008-262100Z 24005KT 190V330 9999 SCT046 BKN100 18/07 Q1026 NOSIG RMK WIND RWY10 VRN12KT PP000=
SPZO Ene2008-262200Z 08006KT 060V140 9999 SCT046 BKN100 16/08 Q1025 NOSIG RMK WIND RWY10 VRB09KT T.MAX.18.9 PP000=
SPZO Ene2008-262300Z 08004KT 9999 SCT046 BKN100 15/08 QQ1025 NOSIG RMK=
SPZO Ene2008-270000Z VRB02KT 9999 SCT050 SCT100 13/07 Q1026 RMK PP000=
SPZO Ene2008-270100Z VRB01KT 9999 SCT050 12/08 Q1027 RMK PP000=
SPZO Ene2008-270200Z VRB03KT 9999 SCT046 10/07 Q1028 RMK PP000=
SPZO Ene2008-270300Z 00000KT 9999 FEW040 SCT050 11/08 Q1029 RMK PP000=
SPZO Ene2008-270400Z 17003KT 9999 BKN040 12/06 Q1029 RMK PP000=
SPZO Ene2008-270500Z 07004KT 9999 FEW036 BKN043 11/08 Q1028 RMK PP000=
SPZO Ene2008-270600Z 00000KT 9999 SCT036 SCT043 11/08 Q1027 RMK PP000=
SPZO Ene2008-270700Z VRB03KT 9999 SCT036 SCT046 10/07 Q1026 RMK PP000=
SPZO Ene2008-270800Z 00000KT 9999 SCT036 SCT046 09/07 Q1027 RMK PP000=
SPZO Ene2008-270900Z 06003KT 9999 SCT040 SCT046 09/07 Q1027 RMK PP000=
SPZO Ene2008-271000Z VRB02KT 9999 BKN040 SCT050 10/08 Q1027 RMK PP000=
SPZO Ene2008-271100Z VRB02KT 9999 VCSH BKN040 SCT050 10/08 Q1028 TEMPO -RA RMK PP000=
SPZO Ene2008-271133Z 00000KT 9999 -RA BKN040 SCT050 10/08 Q1028=
SPZO Ene2008-271200Z 00000KT 9999 -RA BKN040 SCT050 10/08 Q1028 NOOSIG RMK PP000=
SPZO Ene2008-271300Z 09003KT 9999 SCT040 BKN046 11/08 Q1029 TEMPO VCSH RMK WIND RWY10 11006KT PP000=
SPZO Ene2008-271400Z 05002KT 9999 SCT036 BKN050 13/09 Q1029 NOSIG RMK PP000=
SPZO Ene2008-271500Z VRB02KT 9999 SCT043 BKN050 14/08 Q1029 TEMPO VCSH RMK RWY 10 VRB05KT PP000=
SPZO Ene2008-271600Z VRB02KT 9999 SCT046 BKN050 16/08 Q1028 NOSIG RMK=
SPZO Ene2008-271700Z VRB02KT 9999 SCT046 BKN050 17/06 Q1027 TEMPO VCSH RMK PP000=
SPZO Ene2008-271800Z 20006KT 150V270 VCSH FEW040CB SCT043 BKN070 13/08 Q1028 RESHRA NOSIG RMK PP002=
SPZO Ene2008-271900Z 23006KT 180V280 9999 VCSH FEW036 SCT050 BKN100 14/08 Q1026 NOSIG RMK PP000=
SPZO Ene2008-272000Z VRB05KT 9999 FEW043 BKN100 15/07 Q1025 NOSIG RMK PP000=
SPZO Ene2008-272100Z 25007KT 220V290 9999 FEW043 BKN100 16/06 Q1024 NOSIG RMK PP000=
SPZO Ene2008-272200Z 27009KT 9999 FEW046 SCT200 15/06 Q1025 NOSIG RMK T.MAX 18.1 PP000=
SPZO Ene2008-272300Z VRB02KT 9999 VCSH SCT040TCU BKN046 15/06 Q1026 TEMPO RA RMK PP000=
SPZO Ene2008-280000Z 12004KT 090V180 9999 RA SCT036 BKN046 10/07 Q1028 RMK PP022=
SPZO Ene2008-280100Z 25006KT 9000 RA SCT036 BKN046 10/07 Q1028 RMK PP030=
SPZO Ene2008-280200Z 03003KT 9000 DZ OVC040 10/08 Q1029 RMK PP004=
SPZO Ene2008-280300Z 10002KT 9000 DZ OVC040 10/08 Q1030 RMK PP004=
SPZO Ene2008-280400Z 09004KT 9000 RA SCT036 BKN046 10/08 Q1030 RMK PP022=
SPZO Ene2008-280500Z 00000KT 9000 RA FEW020 BKN043 09/08 Q1029 RMK PP016=
SPZO Ene2008-280600Z 00000KT 9000 FEW020 BKN043 10/08 Q1028 RMK PP002=
SPZO Ene2008-280700Z 00000KT 9000 FEW020 OVC043 10/08 Q1028 RERA RMK PP002=
SPZO Ene2008-280800Z 00000KT 9000 FEW020 OVC043 09/08 Q1027 RERA RMK PP002=
SPZO Ene2008-280900Z 00000KT 9000 FEW020 SCT036 BKN043 10/08 Q1027 CLNG BLW 1200M RMK PP000=
SPZO Ene2008-281000Z 00000KT 9999 FEW020 SCT033 BKN043 10/08 Q1028 CLNG BLW 1200M RMK PP000=
SPZO Ene2008-281013Z 00000KT 9999 FEW033 SCT040 BKN046 10/08 Q1028=
SPZO Ene2008-281100Z 00000KT 9999 FEW033 SCT040 BKN050 09/08 Q1028 NOSIG RMK PP000=
SPZO Ene2008-281200Z VRB03KT 9999 FEW025 SCT043 BKN050 10/08 Q1029 NOSIG RMK PP000=
SPZO Ene2008-281300Z VRB02KT 9999 SCT025 SCT043 BKN050 11/08 Q1030 NOSIG RMK PP000=
SPZO Ene2008-281400Z 00000KT 9999 FEW030 SCT043 BKN050 12/07 Q1029 NOSIG RMK PP000=
SPZO Ene2008-281500Z 00000KT 9999 VCSH FEW030 SCT043 BKN046 12/07 Q1029 TEMPO -RA RMK PP000=
SPZO Ene2008-281600Z VRB03KT 9999 VCSH FEW040 SCT043 BKN050 14/08 Q1029 RESHRA TEMPO -RA RMK PP002=
SPZO Ene2008-281700Z VRB02KT 9999 FEW036 SCT043 BKN100 16/07 Q1028 TEMPO=
SPZO Ene2008-281800Z 05005KT 360V150 9999 VCSH SCT040 SCT046 16/07 Q1026 NOSIG RMK PP000=
SPZO Ene2008-281900Z VRB02KT 9999 VCSH SCT040 SCT050 19/10 Q1024 NOSIG RMK PP000=
SPZO Ene2008-282000Z 13005KT 080V170 9999 VCSH FEW043TCU SCT050 18/07 Q1024 NOSIG RMK PP000=
SPZO Ene2008-282100Z 11009KT 070V150 9999 -TSRA SCT043CB SCT046 14/09 Q1023 NOSIG RMK PP000=
SPZO Ene2008-282200Z 29004KT 250V350 9999 VCSH SCT040TCU BKN046 13/09 Q1024 NOSIG RMK T.MAX 19.6 PP024=
SPZO Ene2008-282300Z 07010KT 040V110 9000 -RA BKN040 SCT046 12/08 Q1025 NOSIG RMK PP004=
SPZO Ene2008-290000Z 10004KT 070V160 9999 BKN040 SCT046 11/08 Q1026 RMK PP014=
SPZO Ene2008-290100Z 07004KT 9000 SCT040 SCT046 11/08 Q1027 RMK PP000=
SPZO Ene2008-290200Z 09003KT 9000 DZ BKN040 SCT046 10/08 Q1028 RMK PP004=
SPZO Ene2008-290300Z 06002KT 9999 SCT040 BKN046 10/08 Q1029 RMK PP000=
SPZO Ene2008-290400Z 07004KT 9999 SCT040 BKN046 10/08 Q1029 RMK PP000=
SPZO Ene2008-290500Z 08004KT 9999 FEW020 SCT040 BKN046 10/08 Q1028 RMK PP000=
SPZO Ene2008-290600Z 00000KT 9999 FEW020 SCT040 BKN046 10/08 Q1029 RMK PP000=
SPZO Ene2008-290700Z 00000KT 9999 FEW020 SCT040 BKN046 10/08 Q1027 RERA RMK PP002=
SPZO Ene2008-290800Z 00000KT 9999 FEW020 SCT040 BKN046 10/08 Q1027 RMK PP000=
SPZO Ene2008-290900Z 07002KT 9999 SCT040 BKN046 10/07 Q1027 RMK PP000=
SPZO Ene2008-291000Z 00000KT 9999 SCT036 BKN046 10/07 Q1027 RMK PP000=
SPZO Ene2008-291100Z 00000KT 9999 VCSH SCT033 BKN046 10/07 Q1028 TEMPO -RA RMK PP000=
SPZO Ene2008-291200Z VRB03KT 9999 VCSH FEW030 SCT043 BKN050 10/06 Q1029 NOSIG RMK PP000=
SPZO Ene2008-291300Z VRB03KT 9999 FEW033 SCT043 BKN050 11/06 Q1029 TEMPO=
SPZO Ene2008-291400Z 00000KT 9999 VCSH FEW033 SCT043 BKN080 13/07 Q1030 NOSIG RMK PP000=
SPZO Ene2008-291500Z VRB01KT 9999 VCSH FEW033 SCT043 BKN080 13/07 Q1030 TEMPO -RA RMK PP000=
SPZO Ene2008-291600Z VRB02KT 9999 VCSH FEW033 SCT043 BKN230 15/07 Q1029 NOSIG RMK PP000=
SPZO Ene2008-291700Z VRB02KT 9999 VCSH FEW036 SCT043 BKN060 15/06 Q1027 NOSIG RMK PP000=
SPZO Ene2008-291800Z VRB04KT 9999 SCT040 SCT050 18/06 Q1026 TEMPO VCSH RMK RWY10 VRB08KT PP000=
SPZO Ene2008-291900Z VRB06KT 9999 VCSH SCT040 SCT050 20/08 Q1025 NOSIG RMK PP000=
SPZO Ene2008-292000Z 06007KT 350V110 9999 VCSH FEW043TCU SCT050 16/09 Q1024 NOSIG RMK PP000=
SPZO Ene2008-292100Z 08011KT 050V120 9999 VCSH SCT043TCU BKN046 15/08 Q1023 NOSIG RMK PP000=
SPZO Ene2008-292200Z 07007KT 350V090 9999 VCSH SCT040TCU BKN046 13/09 Q1024 TEMPO -RA RMK T.MAX 20.1 PP000=
SPZO Ene2008-292300Z 27008KT 9999 -RA FEW036 SCT043 BKN046 12/08 Q1025 NOSIG RMK PP000=
SPZO Ene2008-300000Z 31003KT 9999 SCT036 BKN043 12/08 Q1026 RMK PP002=
SPZO Ene2008-300100Z 00000KT 9999 SCT036 BKN043 12/08 Q1027 RMK PP000=
SPZO Ene2008-300200Z 00000KT 9999 SCT036 BKN043 12/08 Q1028 RMK PP000=
SPZO Ene2008-300300Z 00000KT 9999 SCT036 BKN043 12/09 Q1028 RMK PP000=
SPZO Ene2008-300400Z VRB02KT 9999 FEW030 SCT036 BKN043 12/09 Q1028 RMK PP000=
SPZO Ene2008-300500Z 11002KT 9999 FEW030 SCT036 BKN043 11/09 Q1028 RERA RMK PP002=
SPZO Ene2008-300600Z 00000KT 9999 FEW030 SCT036 BKN043 11/08 Q1027 RERA RMK PP002=
SPZO Ene2008-300700Z 00000KT 9999 SCT040 BKN046 11/08 Q1029 RMK PP000=
SPZO Ene2008-300800Z 25003KT 9999 RA SCT040 BKN046 10/08 Q1026 RMK PP002=
SPZO Ene2008-300900Z 25002KT 9999 DZ SCT040 BKN046 10/08 Q1026 RMK PP002=
SPZO Ene2008-301000Z 12003KT 020V140 9999 RA SCT040 BKN046 09/08 Q1027 RMK PP020=
SPZO Ene2008-301005Z 09002KT 9000 RA FEW020 SCT033 BKN046 09/08 Q1027 CLNG BLW 1200M=
SPZO Ene2008-301100Z 00000KT 8000 -RA FEW020 SCT033 BKN043 09/08 Q1027 CLNG BLW 1200M BECMG FM1130 9000 SCT036 BKN046 RMK PP013=
SPZO Ene2008-301200Z VRB03KT 9999 -DZ FEW020 SCT036 BKN046 10/08 Q1029 BECMG FM1230 SCT036 BKN046 RMK CLNG BLW 1200M PPTRZ=
SPZO Ene2008-301300Z 06003KT 8000 -DZ VCSH FEW020 SCT033 BKN043 10/08 Q1030 NOSIG RMK CLNG BLW 1200M PP002=
SPZO Ene2008-301400Z VRB03KT 8000 -DZ SCT020 SCT033 BKN043 10/07 Q1030 NOSIG RMK CLNG BLW 1200M PP006=
SPZO Ene2008-301500Z VRB03KT 9000 -RA FEW020 SCT033 BKN043 11/08 Q1030 NOSIG RMK CLNG BLW 1200M PP002=
SPZO Ene2008-301515Z 11004KT 040V150 9999 -DZ FEW030 SCT040 BKN046 12/08 Q1030=
SPZO Ene2008-301600Z VRB03KT 9999 VCSH SCT030 SCT040 BKN050 13/07 Q1029 NOSIG RMK PP000=
SPZO Ene2008-301700Z 08006KT 030V130 9999 VCSH FEW033 SCT043 BKN200 15/09 Q1028 NOSIG RMK PP000=
SPZO Ene2008-301800Z VRB03KT 9999 VCSH SCT040 BKN043 16/07 Q1027 TEMPO RA RMK WIND RWY10 VRB17KT PP000=
SPZO Ene2008-301900Z 26006KT 210V300 9999 VCSH SCT040 BKN046 13/07 Q1027 TEMPO -RA RMK RWY 10 32012KT 270V360 PP000=
SPZO Ene2008-302000Z 00000KT 9999 VCSH SCT040 BKN050 14/06 Q1025 NOSIG RMK WIND RWY10 VRB04KT PP000=
SPZO Ene2008-302100Z VRB01KT 9999 SCT040 SCT050 15/07 Q1024 NOSIG RMK=
SPZO Ene2008-302200Z VRB02KT 9999 SCT040 SCT200 16/07 Q1024 NOSIG RMK=
SPZO Ene2008-302300Z 25002KT 9999 SCT046 SCT200 15/06 Q1024 NOSIG RMK PP000=
SPZO Ene2008-310000Z 25004KT 210V290 9999 BKN040 SCT050 14/07 Q1025 RMK PP000=
SPZO Ene2008-310100Z 00000KT 9999 BKN040 SCT050 13/08 Q1026 RESHRA RMK PP002=
SPZO Ene2008-310200Z 24003KT 9999 SCT043 SCT060 12/08 Q1027 RMK PP000=
SPZO Ene2008-310300Z 27004KT 9999 SCT036 BKN043 12/08 Q1027 RMK PP000=
SPZO Ene2008-310400Z 00000KT 9999 FEW030 OVC043 12/09 Q1027 RMK PP000=
SPZO Ene2008-310500Z 00000KT 9999 SCT030 OVC043 12/09 Q1027 RMK PP000=
SPZO Ene2008-310600Z 27008KT 9999 BKN040 SCT043 12/07 Q1026 RMK PP000=
SPZO Ene2008-310700Z 27012KT 9999 BKN040 SCT046 10/07 Q1026 RMK PP000=
SPZO Ene2008-310800Z 26010KT 9999 RA OVC040 09/06 Q1026 RMK PP004=
SPZO Ene2008-310900Z 26007KT 9999 DZ SCT036 BKN040 09/06 Q1026 RMK PP002=
SPZO Ene2008-311000Z 27007KT 9999 -RA FEW030 SCT036 BKN043 09/06 Q1026 RMK CLNG BLW 1200M PPTRZ=
SPZO Ene2008-311100Z 27006KT 9999 -DZ FEW030 SCT036 BKN043 09/05 Q1027 NOSIG RMK CLNG BLW 1200M PP002=
SPZO Ene2008-311200Z 27007KT 240V340 9999 FEW030 SCT036 BKN046 09/05 Q1028 REDZ BECMG FM1300 SCT036 BKN046 RMK WIND RWY10 29007KT CLNG BLW 1200M PP000=
SPZO Ene2008-311218Z 27008KT 9999 SCT036 BKN046 10/05 Q1028=
SPZO Ene2008-311300Z 28009KT 250V330 9999 SCT036 BKN046 10/05 Q1028 NOSIG RMK WIND RWY10 33008KT 250V020 PP000=
SPZO Ene2008-311400Z 26005KT 200V350 9999 FEW036 SCT040 BKN100 12/06 Q1029 NOSIG RMK WIND RWY10 VRB05KT PP000=
SPZO Ene2008-311500Z 11002KT 9999 SCT040 OVC100 14/07 Q1028 NOSIG RMK=
SPZO Ene2008-311600Z VRB02KT 9999 SCT040 BKN100 15/06 Q1028 TEMPO VCSH RMK WIND RWY10 VRB10KT PP000=
SPZO Ene2008-311700Z 26004KT 230V340 9999 VCSH SCT040 BKN080 15/07 Q1027 TEMPO -RA RMK WIND RWY10 29011KT 250V010 PP000=
SPZO Ene2008-311800Z 32005KT 230V010 9999 SCT046 BKN100 17/05 Q1026 TEMPO=
SPZO Ene2008-311900Z 26004KT 190V340 9999 SCT046 BKN100 18/07 Q1024 NOSIG RMK WIND RWY10 31014KT 240V010 PP000=
SPZO Ene2008-312000Z VRB08KT 9999 SCT046 BKN100 18/05 Q1023 TEMPO VCSH RMK WIND RWY10 26015KT 220V310 PP000=
SPZO Ene2008-312100Z 26008KT 210V290 9999 SCT046 SCT100 17/07 Q1022 TEMPO=
SPZO Ene2008-312200Z 28010KT 250V320 9999 VCSH SCT046 BKN100 17/07 Q1022 NOSIG RMK WIND RWY10 29018KT 250V010 T.MAX.19.3 PP000=
SPZO Ene2008-312300Z 28012KT 250V340 9999 VCSH SCT046 BKN080 16/07 Q1023 NOSIG RMK WIND RWY10 30020KT 260V020 PP000=
SPZO Feb2008-010000Z 27009KT 220V330 9999 SCT040TCU BKN046 15/05 Q1025 RMK PP000=
SPZO Feb2008-010100Z 09004KT 060V140 9999 RA SCT040TCU BKN043 10/07 Q1027 RMK PP006=
SPZO Feb2008-010200Z 04003KT 9000 RA SCT030 BKN043 10/08 Q1029 RMK PP028=
SPZO Feb2008-010300Z 00000KT 9999 RA SCT036 BKN040 10/08 Q1029 RMK PP052=
SPZO Feb2008-010400Z 00000KT 9999 -RA SCT030 BKN043 10/08 Q1030 RMK PP026=
SPZO Feb2008-010500Z 00000KT 9999 OVC040 09/07 Q1029 RMK PP000=
SPZO Feb2008-010600Z 00000KT 9999 SCT030 BKN043 09/07 Q1028 RMK PP000=
SPZO Feb2008-010700Z 00000KT 9999 FEW030 OVC043 09/07 Q1027 RMK PP000=
SPZO Feb2008-010800Z 00000KT 9999 SCT030 BKN043 09/07 Q1027 RMK PP000=
SPZO Feb2008-010900Z 00000KT 9999 SCT036 BKN043 08/07 Q1027 RMK PP000=
SPZO Feb2008-011000Z VRB01KT 9999 SCT025 BKN046 08/07 Q1027 RMK PP000=
SPZO Feb2008-011100Z VRB02KT 9999 FEW033 SCT050 BKN230 07/05 Q1027 NOSIG RMK BCO NIEBLA E PP000=
SPZO Feb2008-011200Z 00000KT 9999 FEW036 SCT050 BKN230 08/06 Q1028 NOSIG RMK PP000=
SPZO Feb2008-011300Z 00000KT 9999 SCT040 SCT200 11/07 Q1029 NOSIG RMK PP000=
SPZO Feb2008-011400Z VRB02KT 9999 SCT046 SCT200 14/06 Q1029 NOSIG RMK=
SPZO Feb2008-011500Z VRB03KT 9999 SCT046 SCT100 14/04 Q1029 NOSIG RMK=
SPZO Feb2008-011600Z VRB03KT 9999 SCT046 BKN100 16/04 Q1028 NOSIG RMK=
SPZO Feb2008-011700Z 23003KT 180V300 9999 SCT046 BKN100 17/06 Q1027 NOSIG RMK PP000=
SPZO Feb2008-011800Z 30005KT 190V300 9999 SCT043 BKN150 18/05 Q1026 NOSIG RMK RWY 10 VRB12KT PP000=
SPZO Feb2008-011900Z VRB02KT 9999 SCT050 OVC230 18/03 Q1024 NOSIG RMK=
SPZO Feb2008-012000Z VRB02KT 9999 SCT050 BKN230 20/04 Q1023 NOSIG RMK=
SPZO Feb2008-012100Z VRB03KT 9999 SCT050 OVC230 20/03 Q1022 NOSIG RMK=
SPZO Feb2008-012200Z 00000KT 9999 SCT050 BKN230 19/04 Q1022 NOSIG RMK=
SPZO Feb2008-012300Z 26010KT 220V290 RMK PP000=
SPZO Feb2008-020000Z 29004KT 260V340 9999 SCT043 SCT080 16/05 Q1024 RMK PP000=
SPZO Feb2008-020100Z 14009KT 120V180 9999 +TSRA SCT043CB BKN046 14/06 Q1025 RMK PP002=
SPZO Feb2008-020200Z 00000KT 9999 SCT040TCU BKN046 11/07 Q1027 RMK PP002=
SPZO Feb2008-020300Z 10004KT 9999 SCT040TCU BKN046 11/08 Q1027 RMK PP000=
SPZO Feb2008-020400Z 23002KT 9999 SCT036 BKN043 11/08 Q1028 RMK PP000=
SPZO Feb2008-020500Z 08003KT 9999 SCT043 SCT046 10/08 Q1027 RMK PP000=
SPZO Feb2008-020600Z 06003KT 9999 SCT036 BKN046 11/08 Q1027 RMK PP000=
SPZO Feb2008-020700Z 00000KT 9999 OVC043 11/07 Q1026 RMK PP000=
SPZO Feb2008-020800Z 09003KT 9999 SCT036 BKN046 10/08 Q1026 RMK PP000=
SPZO Feb2008-020900Z VRB03KT 9999 BKN040 SCT050 10/07 Q1026 RMK PP000=
SPZO Feb2008-021000Z 00000KT 9999 FEW033 SCT043 BKN060 10/07 Q1026 RMK PP000=
SPZO Feb2008-021100Z VRB03KT 9999 FEW033 SCT043 BKN050 10/08 Q1027 NOSIG RMK PP000=
SPZO Feb2008-021200Z 00000KT 9999 FEW036 SCT043 BKN080 11/08 Q1028 NOSIG RMK WIND RWY10 VRB2KT PP000=
SPZO Feb2008-021300Z 07004KT 040V170 9999 FEW036 SCT043 BKN080 13/09 Q1028 TEMPO SCT040 BKN100 RMK PP000=
SPZO Feb2008-021400Z VRB03KT 9999 SCT046 BKN080 16/07 Q1028 NOSIG RMK=
SPZO Feb2008-021500Z VRB02KT 9999 SCT046 SCT100 16/06 Q1027 NOSIG RMK=
SPZO Feb2008-021600Z 00000KT 9999 FEW036 SCT040 BKN230 18/07 Q1027 NOSIG RMK WIND RWY 10 VRB05KT PP000=
SPZO Feb2008-021700Z VRB05KT 9999 SCT046 BKN230 18/07 Q1026 NOSIG RMK=
SPZO Feb2008-021800Z 35004KT 330V090 9999 SCT046 BKN230 19/07 Q1024 NOSIG RMK WIND RWY10 VRB04KT PP000=
SPZO Feb2008-021900Z VRB03KT 9999 SCT046 BKN230 21/04 Q1023 NOSIG RMK=
SPZO Feb2008-022000Z 10011KT 060V150 9000 VCSH FEW040 SCT043CB BKN080 17/07 Q1022 TEMPO 8000 -TSRA RMK WIND RWY10 08015G27KT 330V120 PP000=
SPZO Feb2008-022007Z 12011KT 070V160 8000 +TSRA FEW040 BKN043CB 11/07 Q1023=
SPZO Feb2008-022010Z 12011KT 070V160 8000 +TSRA FEW040 BKN043CB 11/07 Q1023=
SPZO Feb2008-022038Z 27010KT 240V340 8000 +TSRAGR FEW040 BKN043CB 08/05 Q1024=
SPZO Feb2008-022100Z 26010KT 8000 TSRA FEW040 BKN043CB 08/06 Q1024 BECMG FM2120 9999 NSW RMK PP258=
SPZO Feb2008-022114Z 00000KT 9999 SCT040 BKN080 10/07 Q1023=
SPZO Feb2008-022200Z 25005KT 210V300 9999 SCT046 BKN080 12/07 Q1023 NOSIG RMK WIND RWY10 VRB13KT T.MAX.21.6 PP002=
SPZO Feb2008-022300Z 00000KT 9999 SCT100 BKN230 12/08 Q1024 RMK PP000=
SPZO Feb2008-030000Z 00000KT 9999 SCT046 BKN230 11/08 Q1025 RMK PP000=
SPZO Feb2008-030100Z 25004KT 230V290 9999 FEW036 SCT230 09/07 Q1027 RMK PP000=
SPZO Feb2008-030200Z VRB01KT 9999 FEW040 SCT100 09/07 Q1028 RMK PP000=
SPZO Feb2008-030300Z 19002KT 9999 FEW040 SCT050 11/08 Q1029 RMK PP000=
SPZO Feb2008-030400Z 09004KT 9999 -RA SCT036 SCT046 10/07 Q1029 RMK PP004=
SPZO Feb2008-030500Z 09004KT 9999 -RA SCT036 BKN046 10/07 Q1029 RMK PP008=
SPZO Feb2008-030600Z 00000KT 9999 BKN040 SCT046 10/08 Q1028 RMK PP000=
SPZO Feb2008-030700Z 00000KT 9999 -RA SCT036 BKN050 10/08 Q1028 RMK PP002=
SPZO Feb2008-030800Z 00000KT 9999 OVC043 10/08 Q1027 RMK PP000=
SPZO Feb2008-030900Z 00000KT 9999 SCT030 BKN043 09/07 Q1027 RMK PP000=
SPZO Feb2008-031000Z 19001KT 9999 FEW030 SCT040 BKN050 10/08 Q1028 RMK PP000=
SPZO Feb2008-031100Z 00000KT 9999 FEW036 SCT040 BKN046 10/08 Q1029 NOSIG RMK PP000=
SPZO Feb2008-031200Z 00000KT 9999 FEW036 SCT046 BKN080 10/08 Q1029 NOSIG RMK PP000=
SPZO Feb2008-031300Z 00000KT 9999 FEW036 SCT100 BKN230 11/08 Q1030 NOSIG RMK PP000=
SPZO Feb2008-031400Z 07003KT 020V110 9999 SCT040 OVC150 12/07 Q1031 NOSIG RMK WIND RWY10 09007KT 030V140 PP000=
SPZO Feb2008-031500Z VRB02KT 9999 SCT040 OVC150 12/07 Q1031 NOSIG RMK=
SPZO Feb2008-031600Z VRB05KT 9999 VCSH FEW040TCU SCT043 BKN150 13/06 Q1031 NOSIG RMK WIND RWY10 VRB17G30KT PP000=
SPZO Feb2008-031620Z 36010KT 320V040 9999 -RA FEW040TCU SCT043 BKN100 11/05 Q1031 WIND RWY10 VRB11G24KT=
SPZO Feb2008-031700Z 01009KT 310V080 9999 -RA VCSH FEW040 SCT043 BKN150 12/05 Q1031 TEMPO NSW RMK WIND RWY10 VRB14KT PP002=
SPZO Feb2008-031800Z VRB05KT 9999 FEW040 SCT050 OVC230 14/05 Q1030 NOSIG RMK PPTRZ=
SPZO Feb2008-031900Z VRB04KT 9999 SCT043 SCT100 16/07 Q1029 NOSIG RMK PP000=
SPZO Feb2008-032000Z 04010KT 9999 SCT043 SCT100 15/05 Q1028 NOSIG RMK PP000=
SPZO Feb2008-032100Z 03005KT 280V090 9999 VCSH SCT040 SCT080 15/06 Q1027 NOSIG RMK PP000=
SPZO Feb2008-032200Z VRB03KT 9999 VCSH BKN040 SCT080 15/05 Q1028 NOSIG RMK T.MAX 16.9 PP000=
SPZO Feb2008-032300Z 07005KT 9999 BKN040 SCT050 13/05 Q1028 RMK PP000=
SPZO Feb2008-040000Z 02005KT 350V110 9999 SCT040 SCT100 13/05 Q1029 RMK PP000=
SPZO Feb2008-040100Z 00000KT 9999 SCT040 BKN050 12/05 Q1031 RMK PP000=
SPZO Feb2008-040200Z 00000KT 9999 SCT040 BKN050 12/05 Q1031 RMK PP000=
SPZO Feb2008-040300Z VRB04KT 9999 SCT040 BKN050 12/04 Q1032 RMK PP000=
SPZO Feb2008-040400Z VRB02KT 9999 SCT040 BKN050 11/06 Q1033 RMK PP000=
SPZO Feb2008-040500Z 00000KT 9999 SCT040 BKN050 11/06 Q1032 RMK PP000=
SPZO Feb2008-040600Z 00000KT 9999 SCT040 BKN050 11/06 Q1032 RMK PP000=
SPZO Feb2008-040700Z 09003KT 9999 SCT040 BKN050 10/05 Q1032 RMK PP000=
SPZO Feb2008-040800Z 00000KT 9999 SCT040 BKN050 10/05 Q1031 RMK PP000=
SPZO Feb2008-040900Z 00000KT 9999 SCT040 BKN050 09/05 Q1031 RMK PP000=
SPZO Feb2008-041000Z 16002KT 9999 SCT040 BKN050 09/06 Q1031 RMK PP000=
SPZO Feb2008-041100Z 05002KT 9999 VCSH SCT036 SCT050 09/06 Q1032 NOSIG RMK PP000=
SPZO Feb2008-041200Z VRB01KT 9999 VCSH FEW036 SCT043 BKN060 10/06 Q1033 NOSIG RMK PP000=
SPZO Feb2008-041300Z 06004KT 010V120 9999 FEW033 SCT043 BKN080 11/06 Q1033 NOSIG RMK PP000=
SPZO Feb2008-041400Z VRB02KT 9999 FEW036 SCT043 BKN060 13/05 Q1033 NOSIG RMK PP000=
SPZO Feb2008-041500Z VRB03KT 9999 FEW036 SCT050 15/05 Q1033 NOSIG RMK PP000=
SPZO Feb2008-041600Z VRB03KT 9999 FEW040 SCT050 16/05 Q1032 NOSIG RMK PP000=
SPZO Feb2008-041700Z VRB03KT 9999 FEW043 SCT060 16/06 Q1031 NOSIG RMK PP000=
SPZO Feb2008-041800Z VRB03KT 9999 FEW043TCU SCT050 18/05 Q1030 NOSIG RMK WIND RWY10 VRB05KT PP000=
SPZO Feb2008-041900Z 34010KT 310V030 9999 SCT046 19/03 Q1029 NOSIG RMK=
SPZO Feb2008-042000Z 35008KT 290V020 9999 FEW043TCU SCT050 20/04 Q1027 NOSIG RMK WIND RWY10 VRB17KT PP000=
SPZO Feb2008-042100Z 35009KT 310V050 9999 FEW043TCU SCT050 19/05 Q1027 NOSIG RMK WIND RWY10 VRB17KT PP000=
SPZO Feb2008-042200Z 35012KT 320V050 9999 FEW043TCU SCT050 17/05 Q1027 NOSIG RMK WIND RWY10 VRB28G40KT T.MAX.20.3 PP000=
SPZO Feb2008-042300Z 04004KT 360V100 9999 SCT050 14/04 Q1028 NOSIG RMK PP000=
SPZO Feb2008-050000Z VRB02KT 9999 FEW050 13/05 Q1029 RMK PP000=
SPZO Feb2008-050100Z 00000KT 9999 FEW100 12/05 Q1030 RMK PP000=
SPZO Feb2008-050200Z VRB02KT 9999 FEW050 SCT100 11/06 Q1031 RMK PP000=
SPZO Feb2008-050300Z VRB02KT 9999 FEW040 SCT100 10/06 Q1032 RMK PP000=
SPZO Feb2008-050400Z VRB02KT 9999 SCT043 SCT080 11/07 Q1032 RMK PP000=
SPZO Feb2008-050500Z 00000KT 9999 SCT040 SCT070 11/07 Q1032 RMK PP000=
SPZO Feb2008-050600Z 00000KT 9999 SCT040 SCT060 19/07 Q1031 RMK PP000=
SPZO Feb2008-050700Z 00000KT 9000 RA BKN040 SCT046 10/07 Q1031 RMK PP014=
SPZO Feb2008-050800Z 00000KT 9999 SCT036 SCT050 10/07 Q1031 RMK PP000=
SPZO Feb2008-050900Z 00000KT 9999 SCT036 BKN046 10/07 Q1031 RMK PP000=
SPZO Feb2008-051000Z 00000KT 9999 SCT036 BKN046 10/08 Q1031 RMK PP000=
SPZO Feb2008-051100Z 00000KT 9999 FEW040 SCT046 BKN100 10/07 Q1032 NOSIG RMK PP000=
SPZO Feb2008-051200Z VRB01KT 9999 FEW043 BKN100 10/08 Q1033 NOSIG RMK PP000=
SPZO Feb2008-051300Z VRB02KT 9999 SCT043 SCT100 12/06 Q1033 NOSIG RMK=
SPZO Feb2008-051400Z VRB04KT 9999 SCT046 SCT100 15/06 Q1033 NOSIG RMK PP000=
SPZO Feb2008-051500Z VRB01KT 9999 SCT046 16/06 Q1033 NOSIG RMK WIND RWY10 VRB07KT PP000=
SPZO Feb2008-051600Z VRB05KT 9999 SCT046 17/04 Q1032 NOSIG RMK PP000=
SPZO Feb2008-051700Z 24005KT 150V280 9999 SCT050 19/04 Q1031 NOSIG RMK=
SPZO Feb2008-051800Z 35009KT 250V050 9999 SCT050 20/07 Q1029 NOSIG RMK=
SPZO Feb2008-051900Z 01013G23KT 330V070 9999 SCT050 20/04 Q1028 NOSIG RMK WIND RWY10 VRB15G27 PP000=
SPZO Feb2008-052000Z 36011KT 300V080 9999 FEW050 21/04 Q1027 NOSIG RMK PP000=
SPZO Feb2008-052100Z 34012KT 290V040 9999 FEW050 20/03 Q1026 NOSIG RMK VRB21KT PP000=
SPZO Feb2008-052200Z 36008KT 310V030 9999 FEW050 SCT230 19/00 Q1026 NOSIG RMK WIND RWY10 VRB19KT T.MAX.21.1 PP000=
SPZO Feb2008-052300Z VRB04KT 9999 FEW050 SCT230 17/01 Q1028 NOSIG RMK=
SPZO Feb2008-060000Z 36010KT 330V040 9999 FEW043 SCT230 15/02 Q1028 RMK PP000=
SPZO Feb2008-060100Z 06004KT 350V110 9999 FEW050 BKN100 14/03 Q1030 RMK PP000=
SPZO Feb2008-060200Z 36006KT 300V060 9999 SCT050 13/03 Q1032 RMK PP000=
SPZO Feb2008-060300Z VRB03KT 9999 FEW040 SCT080 13/03 Q1032 RMK PP000=
SPZO Feb2008-060400Z 00000KT 9999 SCT036 SCT080 11/05 Q1033 RMK PP000=
SPZO Feb2008-060500Z 00000KT 9999 SCT036 SCT046 11/05 Q1032 RMK PP000=
SPZO Feb2008-060600Z 00000KT 9999 OVC040 11/06 Q1033 RMK PP000=
SPZO Feb2008-060700Z 00000KT 9999 -RA OVC040 11/04 Q1032 RMK PP000=
SPZO Feb2008-060800Z 33007KT 9999 SCT036 BKN043 10/04 Q1032 RMK PP000=
SPZO Feb2008-060900Z 04004KT 9999 SCT036 BKN043 10/04 Q1032 RMK PP000=
SPZO Feb2008-061000Z VRB03KT 9999 FEW040 BKN060 09/04 Q1032 RMK PP000=
SPZO Feb2008-061100Z 08002KT 9999 FEW050 SCT230 08/04 Q1032 NOSIG RMK PP000=
SPZO Feb2008-061200Z 00000KT 9999 FEW050 BKN230 09/05 Q1033 NOSIG RMK PP000=
SPZO Feb2008-061300Z 00000KT 9999 FEW050 OVC230 12/05 Q1034 NOSIG RMK PP000=
SPZO Feb2008-061400Z 00000KT 9999 FEW050 BKN230 13/06 Q1034 NOSIG RMK PP000=
SPZO Feb2008-061500Z 00000KT 9999 FEW050 BKN230 15/06 Q1033 RMK PP000=
SPZO Feb2008-061600Z VRB03KT 9999 FEW050 BKN230 17/05 Q1032 NOSIG RMK=
SPZO Feb2008-061700Z VRB04KT 9999 FEW050 BKN230 19/05 Q1031 NOSIG RMK=
SPZO Feb2008-061800Z VRB04KT 9999 SCT050 SCT230 19/04 Q1029 NOSIG RMK PP000=
SPZO Feb2008-061900Z VRB07KT 9999 SCT050 SCT230 20/03 Q1028 NOSIG RMK=
SPZO Feb2008-062000Z 01008KT 300V080 9999 FEW050 SCT230 20/03 Q1027 NOSIG RMK WIND RWY10 06014KT PP000=
SPZO Feb2008-062100Z 36009KT 310V070 9999 FEW050 SCT230 21/01 Q1026 NOSIG RMK PP000=
SPZO Feb2008-062200Z 35012KT 320V030 9999 FEW050 SCT230 18/02 Q1026 NOSIG RMK T.MAX. 21.1 PP000=
SPZO Feb2008-062300Z 00000KT 9999 FEW050 BKN230 17/01 Q1027 NOSIG RMK PP000=
SPZO Feb2008-070000Z 36009KT 300V040 9999 FEW043 BKN230 15/02 Q1029 RMK PP000=
SPZO Feb2008-070100Z 35010KT 310V020 9999 FEW043 SCT080 13/01 Q1029 RMK PP000=
SPZO Feb2008-070200Z VRB03KT 9999 FEW046 SCT080 13/02 Q1031 RMK PP000=
SPZO Feb2008-070300Z 06004KT 9999 FEW046 SCT080 12/03 Q1032 RMK PP000=
SPZO Feb2008-070400Z 00000KT 9999 SCT043 SCT080 11/04 Q1032 RMK PP000=
SPZO Feb2008-070500Z 00000KT 9999 SCT040 SCT080 10/04 Q1032 RMK PP000=
SPZO Feb2008-070600Z 00000KT 9999 SCT043 07/03 Q1031 RMK PP000=
SPZO Feb2008-070700Z 00000KT 9999 FEW043 SCT230 08/04 Q1031 RMK PP000=
SPZO Feb2008-070800Z 07002KT 9999 SCT036 SCT080 07/04 Q1030 RMK PP000=
SPZO Feb2008-070900Z 00000KT 9999 SCT050 07/04 Q1030 RMK PP000=
SPZO Feb2008-071000Z VRB02KT 9999 FEW050 SCT230 06/03 Q1031 RMK PP000=
SPZO Feb2008-071100Z 00000KT 9999 FEW043 BKN230 06/03 Q1032 NOSIG RMK PP000=
SPZO Feb2008-071200Z 00000KT 9999 FEW050 SCT230 10/04 Q1032 NOSIG RMK PP000=
SPZO Feb2008-071300Z 00000KT 9999 FEW050 SCT230 12/04 Q1033 NOSIG RMK PP000=
SPZO Feb2008-071400Z 00000KT 9999 FEW050 15/04 Q1033 NOSIG RMK PP000=
SPZO Feb2008-071500Z VRB03KT 9999 SCT050 17/03 Q1032 NOSIG RMK WIND RWY10 VRB06KT PP000=
SPZO Feb2008-071600Z VRB03KT 9999 SCT050 18/04 Q1031 NOSIG RMK WIND RWY10 VRB06KT PP000=
SPZO Feb2008-071700Z VRB03KT 9999 SCT050 20/03 Q1030 NOSIG RMK WIND RWY10 VRB07KT PP000=
SPZO Feb2008-071800Z VRB04KT 9999 SCT050 20/04 Q1029 NOSIG RMK PP000=
SPZO Feb2008-071900Z 01011KT 330V060 9999 SCT050 21/04 Q1027 NOSIG RMK PP000=
SPZO Feb2008-072000Z 01011KT 330V070 9999 FEW050 21/03 Q1026 NOSIG RMK PP000=
SPZO Feb2008-072100Z 01013KT 330V040 9999 FEW043 SCT230 21/04 Q1026 NOSIG RMK PP000=
SPZO Feb2008-072200Z 02010KT 330V070 9999 FEW043 SCT100 BKN230 18/01 Q1026 NOSIG RMK T.MAX 21.6 PP000=
SPZO Feb2008-072300Z 04007KT 320V110 9999 SCT046 BKN100 16/02 Q1027 NOSIG RMK PP000=
SPZO Feb2008-080000Z VRB03KT 9999 FEW050 OVC100 15/03 Q1029 RMK PP000=
SPZO Feb2008-080100Z 08002KT 9999 FEW050 OVC100 14/05 Q1030 RMK PP000=
SPZO Feb2008-080200Z VRB04KT 9999 FEW050 OVC199 14/05 Q1031 RMK PP000=
SPZO Feb2008-080300Z 05003KT 9999 FEW050 OVC100 13/06 Q1032 RMK PP000=
SPZO Feb2008-080400Z 00000KT 9999 FEW050 OVC100 13/06 Q1032 RMK PP000=
SPZO Feb2008-080500Z 00000KT 9999 FEW050 BKN100 10/06 Q1032 RMK PP000=
SPZO Feb2008-080600Z 00000KT 9999 FEW050 BKN100 10/05 Q1031 RMK PP000=
SPZO Feb2008-080700Z 00000KT 9999 FEW050 SCT100 09/05 Q1030 RMK PP000=
SPZO Feb2008-080800Z 00000KT 9999 FEW050 SCT100 08/05 Q1030 RMK PP000=
SPZO Feb2008-080900Z 00000KT 9999 FEW050 SCT100 08/04 Q1030 RMK PP000=
SPZO Feb2008-081000Z 00000KT 9999 FEW046 SCT100 07/03 Q1031 RMK PP000=
SPZO Feb2008-081100Z 07004KT 9999 FEW046 OVC100 07/04 Q1031 NOSIG RMK=
SPZO Feb2008-081200Z VRB03KT 9999 SCT043 BKN230 10/05 Q1032 NOSIG RMK PP000=
SPZO Feb2008-081300Z VRB01KT 9999 FEW043 BKN230 12/05 Q1033 NOSIG RMK PP000=
SPZO Feb2008-081400Z VRB03KT 9999 FEW043 BKN230 15/06 Q1032 NOSIG RMK PP000=
SPZO Feb2008-081500Z VRB05KT 9999 SCT046 BKN230 17/04 Q1031 NOSIG RMK PP000=
SPZO Feb2008-081600Z 10004KT 360V150 9999 SCT050 SCT230 19/05 Q1030 NOSIG RMK PP000=
SPZO Feb2008-081700Z VRB05KT 9999 SCT050 SCT230 19/04 Q1029 NOSIG RMK PP000=
SPZO Feb2008-081800Z VRB07KT 9999 SCT050 SCT230 21/05 Q1028 NOSIG RMK=
SPZO Feb2008-081900Z 35008KT 290V060 9999 BKN050 22/01 Q1027 NOSIG RMK RWY10 VRB13KT PP000=
SPZO Feb2008-082000Z 01008KT 310V070 9999 SCT050 22/01 Q1026 NOSIG RMK=
SPZO Feb2008-082100Z 04010KT 300V070 9999 SCT050 SCT230 20/01 Q1025 NOSIG RMK WIND RWY10 VRB14KT PP000=
SPZO Feb2008-082200Z 03011KT 330V100 9999 FEW046TCU BKN230 19/01 Q1025 NOSIG RMK WIND RWY10 VRB13KT T.MAX.22.5 PP000=
SPZO Feb2008-082300Z 06009KT 340V110 9999 FEW046TCU BKN230 17/03 Q1026 NOSIG RMK WIND RWY10 VRB16KT PP000=
SPZO Feb2008-090000Z 08006KT 030V110 9999 SCT043TCU BKN100 15/04 Q1027 RMK PP000=
SPZO Feb2008-090100Z 08002KT 9999 FEW040 SCT230 14/05 Q1028 RMK PP000=
SPZO Feb2008-090200Z 07005KT 9999 FEW043 SCT230 13/05 Q1029 RMK PP000=
SPZO Feb2008-090300Z 09004KT 9999 SCT043 SCT230 12/04 Q1030 RMK PP000=
SPZO Feb2008-090400Z 00000KT 9999 SCT040 SCT080 12/04 Q1031 RMK PP000=
SPZO Feb2008-090500Z 00000KT 9999 SCT040 SCT070 12/04 Q1030 RMK PP000=
SPZO Feb2008-090600Z 00000KT 9999 SCT036 BKN043 11/04 Q1029 RMK PP000=
SPZO Feb2008-090700Z 00000KT 9999 SCT043 09/04 Q1029 RMK PP000=
SPZO Feb2008-090800Z 00000KT 9999 SCT046 09/04 Q1029 RMK PP000=
SPZO Feb2008-090900Z 00000KT 9999 SCT046 08/04 Q1029 RMK PP000=
SPZO Feb2008-091000Z VRB01KT 9999 FEW043 SCT230 07/04 Q1029 RMK PP000=
SPZO Feb2008-091100Z VRB01KT 9999 FEW043 BKN230 06/03 Q1030 NOSIG RMK PP000=
SPZO Feb2008-091200Z 00000KT 9999 FEW050 09/05 Q1030 NOSIG RMK PP000=
SPZO Feb2008-091300Z VRB01KT 9999 FEW050 12/04 Q1031 NOSIG RMK WIND RWY10 VRB03KT PP000=
SPZO Feb2008-091400Z VRB03KT 9999 FEW050 SCT230 14/05 Q1031 NOSIG RMK=
SPZO Feb2008-091500Z VRB03KT 9999 FEW050 SCT230 16/05 Q1030 NOSIG RMK=
SPZO Feb2008-091600Z VRB02KT 9999 SCT050 19/03 Q1029 NOSIG RMK WIND RWY10 10011KT 050V160 PP000=
SPZO Feb2008-091700Z VRB05KT 9999 SCT050 20/08 Q1028 NOSIG RMK WIND RWY10 VRB03KT PP000=
SPZO Feb2008-091800Z 29005KT 190V310 9999 SCT050 20/03 Q1026 NOSIG RMK=
SPZO Feb2008-091900Z 28005KT 210V350 9999 FEW046TCU BKN050 20/05 Q1024 TEMPO=
SPZO Feb2008-091928Z 08018G31KT 340V140 8000 -RA VCSH FEW036 SCT043CB BKN060 17/06 Q1025 WIND RWY10 10035G53KT 080V150=
SPZO Feb2008-091940Z 07026G36KT 8000 SQ +TSRA BKN040CB BKN050 11/06 Q1026 RMK WIND RWY10 11050G73KT 070V140=
SPZO Feb2008-092000Z 09021G33KT 060V120 9000 TSRA VCSH BKN040CB BKN050 11/05 Q1026 BECMG FM2010 9999 NSW RMK WIND RWY10 12035G48KT PP006=
SPZO Feb2008-092028Z 26004KT 230V300 9999 FEW036 SCT060CB BKN100 11/07 Q1026=
SPZO Feb2008-092100Z 25008KT 210V300 9999 FEW036 SCT060TCU BKN100 10/07 Q1027 NOSIG RMK PPTRZ=
SPZO Feb2008-092200Z VRB02KT 9999 FEW036 SCT046 BKN100 11/06 Q1027 NOSIG RMK WIND RWY10 VRB08KT T.MAX.21.9 PP000=
SPZO Feb2008-092300Z VRB03KT 9999 SCT050 BKN100 11/05 Q1028 NOSIG RMK PP000=
SPZO Feb2008-100000Z 00000KT 9999 SCT050 SCT10011/05 Q1029 RMK PP000=
SPZO Feb2008-100100Z 26006KT 240V310 9999 SCT050 SCT100 10/05 Q1029 RMK PP000=
SPZO Feb2008-100200Z VRB03KT 9999 FEW036 OVC040 11/05 Q1031 RMK PP000=
SPZO Feb2008-100300Z 24005KT 9999 SCT036 BKN043 10/06 Q1031 RMK PP000=
SPZO Feb2008-100400Z VRB02KT 9999 OVC040 10/06 Q1031 RMK PP000=
SPZO Feb2008-100500Z 00000KT 9999 FEW036 OVC043 09/05 Q1031 RMK PP000=
SPZO Feb2008-100600Z 00000KT 9999 SCT036 BKN046 09/05 Q1030 RMK PP000=
SPZO Feb2008-100700Z 00000KT 9999 SCT050 07/04 Q1029 RMK PP000=
SPZO Feb2008-100800Z VRB02KT 9999 FEW043 07/05 Q1029 RMK PP000=
SPZO Feb2008-100900Z 00000KT 9999 SCT036 SCT043 07/04 Q1029 RMK PP000=
SPZO Feb2008-101000Z 00000KT 9999 SCT036 BKN043 08/05 Q1029 RMK PP000=
SPZO Feb2008-101100Z 09002KT 9999 SCT036 BKN043 08/06 Q1030 NOSIG RMK PP000=
SPZO Feb2008-101140Z 00000KT 9999 FEW025 SCT036 BKN043 09/05 Q1030=
SPZO Feb2008-101200Z 00000KT 9999 FEW025 SCT036 BKN043 09/06 Q1030 TEMPO=
SPZO Feb2008-101230Z 00000KT 9999 FEW025 SCT036 BKN040 10/06 Q1030 RMK CLNG BLW 1200M=
SPZO Feb2008-101300Z 00000KT 9999 FEW025 SCT036 BKN040 10/06 Q1030 TEMPO FM1320 SCT036 BKN043 RMK CLNG BLW 1200M PP000=
SPZO Feb2008-101325Z 00000KT 9999 FEW030 SCT036 BKN043 11/06 Q1031 TEMPO FM1345 SCT033 SCT040 BKN050 RMK PLAFOND BAJO OROPESA PP000=
SPZO Feb2008-101400Z 00000KT 9999 FEW033 SCT040 BKN050 11/04 Q1031 TEMPO FM1430 SCT040 BKN080 RMK PP000=
SPZO Feb2008-101500Z 00000KT 9999 SCT036 BKN080 14/05 Q1031 NOSIG RMK PP000=
SPZO Feb2008-101537Z 21005KT 130V270 9999 SCT046 15/05 Q1030 RMK WIND RWY10 VRB05KT=
SPZO Feb2008-101600Z VRB03KT 9999 SCT046 15/04 Q1030 NOSIG RMK WIND RWY10 VRB05KT PP000=
SPZO Feb2008-101700Z VRB03KT 9999 SCT046 17/08 Q1029 NOSIG RMK WIND RWY10 VRB06KT PP000=
SPZO Feb2008-101800Z 00000KT 9999 SCT050 19/06 Q1028 NOSIG RMK WIND RWY10 VRB07KT PP000=
SPZO Feb2008-101900Z 01011KT 340V070 9999 FEW046CB SCT050 20/04 Q1026 TEMPO VCSH RMK WIND RWY10 VRB18G35KT PP000=
SPZO Feb2008-102000Z 36013KT 350V050 9999 VCSH FEW043CB BKN100 17/04 Q1026 NOSIG RMK WIND RWY10 VRB18G32KT PP000=
SPZO Feb2008-102100Z 11005KT 070V160 9999 VCSH SCT043CB BKN100 13/06 Q1026 RESHRA NOSIG WIND RWY10 11017KT 080V170 RMK PP010=
SPZO Feb2008-102200Z 10010KT 060V160 9999 SCT043TCU BKN080 13/05 Q1027 NOSIG RMK WIND RWY10 11021KT T.MAX.20.8 PP000=
SPZO Feb2008-102300Z 27007KT 9999 SCT060 BKN230 12/04 Q1027 NOSIG RMK=
SPZO Feb2008-110000Z 16004KT 120V190 9999 FEW050 SCT100 11/04 Q1027 RMK PP000=
SPZO Feb2008-110100Z VRB02KT 9999 FEW043 BKN100 11/05 Q1028 RMK PP000=
SPZO Feb2008-110200Z 27006KT 9999 FEW050 09/05 Q1029 RMK PP000=
SPZO Feb2008-110300Z 00000KT 9999 SCT050 09/05 Q1029 RMK PP000=
SPZO Feb2008-110400Z 00000KT 9999 SCT100 09/05 Q1030 RMK PP000=
SPZO Feb2008-110500Z 00000KT 9999 FEW040 BKN050 09/05 Q1030 RMK PP000=
SPZO Feb2008-110600Z 28003KT 9999 SCT040 07/04 Q1030 RMK PP000=
SPZO Feb2008-110700Z 00000KT 9999 SCT080 07/05 Q1029 RMK PP000=
SPZO Feb2008-110800Z 00000KT 9999 FEW043 06/04 Q1029 RMK PP000=
SPZO Feb2008-110900Z 00000KT 9999 SCT040 SCT050 07/04 Q1029 RMK PP000=
SPZO Feb2008-111000Z 08004KT 040V130 9999 FEW040 SCT200 06/04 Q1029 RMK PP000=
SPZO Feb2008-111100Z 00000KT 9999 FEW040 BKN230 06/04 Q1030 NOSIG RMK PP000=
SPZO Feb2008-111200Z 00000KT 9999 FEW046 BKN230 08/05 Q1030 NOSIG RMK PP000=
SPZO Feb2008-111300Z VRB02KT 9999 SCT046 11/06 Q1031 NOSIG RMK WIND RWY10 VRB05KT PP000=
SPZO Feb2008-111400Z 00000KT 9999 FEW050 14/05 Q1031 NOSIG RMK PP000=
SPZO Feb2008-111500Z VRB02KT 9999 SCT046 16/05 Q1030 NOSIG RMK WIND RWY10 VRB04KT PP000=
SPZO Feb2008-111600Z VRB03KT 9999 SCT046 SCT150 18/05 Q1030 NOSIG RMK=
SPZO Feb2008-111700Z VRB04KT 9999 SCT046 SCT150 19/05 Q1029 NOSIG WIND RWY10 VRB05KT RMK PP000=
SPZO Feb2008-111800Z VRB03KT 9999 FEW043TCU BKN050 18/03 Q1027 TEMPO=
SPZO Feb2008-111900Z VRB05KT 9999 VCSH FEW043TCU SCT050 19/01 Q1026 NOSIG RMK WIND RWY10 27023G38KT 240V330 PP000=
SPZO Feb2008-112000Z 25012KT 170V270 9999 FEW043TCU SCT050 17/04 Q1025 TEMPO VCSH RMK WIND RWY10 29021G34KT 250V340 PP000=
SPZO Feb2008-112100Z 23006KT 170V270 9999 SCT050 17/04 Q1024 NOSIG RMK PP000=
SPZO Feb2008-112200Z VRB07KT 9999 VCSH FEW040TCU BKN046 19/03 Q1024 NOSIG RMK T.MAX 20.6 PP000=
SPZO Feb2008-112300Z VRB06KT 9999 VCSH FEW043TCU BKN070 16/04 Q1025 NOSIG RMK PP000=
SPZO Feb2008-120000Z VRB06KT 9999 SCT040 BKN050 14/04 Q1027 RMK PP000=
SPZO Feb2008-120100Z VRB02KT 9999 SCT040 BKN050 14/03 Q1028 RMK PP000=
SPZO Feb2008-120200Z 05002KT 9999 SCT040 BKN050 12/04 Q1030 RMK PP000=
SPZO Feb2008-120300Z 35002KT 9999 SCT040 BKN050 12/03 Q1030 RMK PP000=
SPZO Feb2008-120400Z 00000KT 9999 SCT040 BKN050 12/04 Q1031 RMK PP000=
SPZO Feb2008-120500Z 11003KT 9999 SCT040 BKN050 12/04 Q1031 RMK PP000=
SPZO Feb2008-120600Z 11008KT 060V180 9999 SCT036 BKN050 10/05 Q1031 RMK PP000=
SPZO Feb2008-120700Z 10005KT 9000 RA SCT036 BKN046 08/06 Q1032 RMK PP024=
SPZO Feb2008-120800Z 22003KT 140V250 9999 FEW025 OVC043 08/05 Q1030 RMK PP010=
SPZO Feb2008-120900Z 00000KT 9000 FEW030 OVC043 08/05 Q1030 RMK PP000=
SPZO Feb2008-121000Z 07002KT 9999 SCT030 BKN043 07/05 Q1030 REDZ RMK PP004=
SPZO Feb2008-121033Z 00000KT 9999 BKN033 SCT043 08/05 Q1030 CLNG BLW 1200M=
SPZO Feb2008-121100Z 09002KT 9999 BKN033 SCT043 07/05 Q1030 CLNG BLW 1200M BCMEG FM1140 SCT036 BKN046 RMK PP000=
SPZO Feb2008-121112Z VRB01KT 9999 FEW033 SCT040 BKN046 08/05 Q1030=
SPZO Feb2008-121200Z 08004KT 9999 FEW030 SCT036 BKN050 08/05 Q1031 BECMG FM1230 SCT036 BKN050 RMK PP000=
SPZO Feb2008-121300Z 00000KT 9999 SCT033 SCT043 BKN060 10/05 Q1032 NOSIG RMK PP000=
SPZO Feb2008-121400Z VRB01KT 9999 FEW033 SCT043 BKN050 11/05 Q1032 NOSIG RMK PP000=
SPZO Feb2008-121500Z VRB02KT 9999 VCSH FEW036 SCT043 BKN050 12/05 Q1032 NOSIG RMK PP000=
SPZO Feb2008-121600Z VRB02KT 9999 FEW036 SCT046 BKN230 15/06 Q1031 NOSIG RMK PP000=
SPZO Feb2008-121700Z 11004KT 030V180 9999 SCT046 SCT080 17/05 Q1030 NOSIG RMK PP000=
SPZO Feb2008-121800Z 00000KT 9999 FEW043TCU SCT046 BKN080 17/05 Q1028 TEMPO VCSH RMK PP000=
SPZO Feb2008-121900Z VRB05KT 9999 VCSH FEW043TCU SCT046 BKN080 17/05 Q1027 NOSIG RMK PP000=
SPZO Feb2008-122000Z 00000KT 9999 FEW043TCU SCT046 BKN080 16/06 Q1026 RERA TEMPO VCSH RMK WIND RWY10 VRB05KT PP002=
SPZO Feb2008-122100Z 25012KT 9999 VCSH FEW043TCU SCT046 BKN080 16/07 Q1025 NOSIG RMK WIND RWY10 30019KT 240V330 PP000=
SPZO Feb2008-122200Z 26011KT 9999 FEW043TCU SCT046 17/07 Q1025 NOSIG RMK WIND RWY10 28015KT 240V340 T.MAX.18.1 PP000=
SPZO Feb2008-122300Z 05005KT 330V110 9999 FEW046 SCT230 15/03 Q1026 NOSIG RMK WIND RWY10 VRB10 PP000=
SPZO Feb2008-130000Z 08006KT 9999 SCT043 12/04 Q1028 RMK PP000=
SPZO Feb2008-130100Z VRB02KT 9999 SCT046 11/05 Q1029 RMK PP000=
SPZO Feb2008-130200Z VRB03KT 9999 SCT043 SCT050 11/05 Q1030 RMK PP000=
SPZO Feb2008-130300Z 00000KT 9999 FEW043 SCT080 11/06 Q1031 RMK PP000=
SPZO Feb2008-130400Z 00000KT 9999 SCT040 SCT080 11/06 Q1031 RMK PP000=
SPZO Feb2008-130500Z 00000KT 9999 SCT040 SCT070 09/05 Q1030 RMK PP000=
SPZO Feb2008-130600Z 00000KT 9999 SCT036 SCT050 08/05 Q1030 RMK PP000=
SPZO Feb2008-130700Z 00000KT 9999 SCT046 09/05 Q1029 RMK PP000=
SPZO Feb2008-130800Z 00000KT 9999 SCT050 09/05 Q1029 RMK PP000=
SPZO Feb2008-130900Z 00000KT 9999 SCT040 SCT050 09/05 Q1029 RMK PP000=
SPZO Feb2008-131000Z 10003KT 9999 FEW043 SCT230 08/05 Q1029 RMK PP000=
SPZO Feb2008-131100Z 09002KT 9999 SCT046 07/05 Q1030 NOSIG RMK PP000=
SPZO Feb2008-131200Z 09002KT 9999 FEW036 SCT046 BKN230 09/05 Q1031 NOSIG RMK PP000=
SPZO Feb2008-131300Z 06003KT 010V090 9999 SCT036 BKN050 09/06 Q1032 NOSIG RMK WIND RWY10 09006KT 050V130 PP000=
SPZO Feb2008-131400Z 06004KT 020V120 9999 SCT040 BKN046 10/06 Q1033 NOSIG RMK WIND RWY10 11005KT 060V130 PP000=
SPZO Feb2008-131500Z VRB02KT 9999 SCT043 BKN050 12/05 Q1032 NOSIG RMK=
SPZO Feb2008-131600Z 00000KT 9999 SCT046 BKN050 14/06 Q1032 NOSIG RMK PP000=
SPZO Feb2008-131700Z VRB03KT 9999 SCT046 BKN080 15/04 Q1031 TEMPO VCSH RMK WIND RWY10 VRB06KT PP000=
SPZO Feb2008-131800Z VRB02KT 9999 SCT046 BKN080 16/03 Q1030 NOSIG RMK=
SPZO Feb2008-131900Z VRB04KT 9999 SCT050 SCT230 17/06 Q1028 NOSIG RMK=
SPZO Feb2008-132000Z VRB03KT 9999 FEW046TCU SCT060 19/04 Q1027 NOSIG RMK WIND RWY10 VRB06KT PP000=
SPZO Feb2008-132100Z VRB07KT 9999 FEW046 SCT060 19/03 Q1026 NOSIG RMK=
SPZO Feb2008-132200Z 34006KT 300V050 9999 FEW046TCU SCT060 18/05 Q1026 NOSIG RMK WIND RWY 10 02011KT T.M. 19.4 PP000=
SPZO Feb2008-132300Z 36008KT 9999 FEW046TCU SCT200 17/05 Q1026 RMK PP000=
SPZO Feb2008-140000Z VRB03KT 9999 SCT043 14/05 Q1027 RMK PP000=
SPZO Feb2008-140100Z 00000KT 9999 FEW050 13/05 Q1028 RMK PP000=
SPZO Feb2008-140200Z VRB01KT 9999 FEW050 11/05 Q1030 RMK PP000=
SPZO Feb2008-140300Z 00000KT 9999 FEW050 SCT100 09/05 Q1030 RMK PP000=
SPZO Feb2008-140400Z 05003KT 9999 SCT043 10/06 Q1031 RMK PP000=
SPZO Feb2008-140500Z 00000KT 9999 FEW040 SCT050 10/06 Q1031 RMK PP000=
SPZO Feb2008-140600Z 00000KT 9999 BKN050 10/06 Q1030 RMK PP000=
SPZO Feb2008-140700Z 00000KT 9999 FEW040 BKN046 10/06 Q1029 RMK PP000=
SPZO Feb2008-140800Z 00000KT 9999 BKN040 SCT100 09/06 Q1030 RMK PP000=
SPZO Feb2008-140900Z 00000KT 9999 SCT050 08/05 Q1030 RMK PP000=
SPZO Feb2008-141000Z 08003KT 9999 SCT040 SCT060 08/05 Q1030 RMK PP000=
SPZO Feb2008-141100Z 00000KT 9999 FEW036 SCT036 SCT043 BKN050 09/06 Q1031 NOSIG RMK PP000=
SPZO Feb2008-141110Z 00000KT 9999 SCT043 09/06 Q1031=
SPZO Feb2008-141200Z 00000KT 9999 FEW050 10/06 Q1031 NOSIG RMK PP000=
SPZO Feb2008-141300Z VRB07KT 9999 FEW050 13/06 Q1032 NOSIG RMK PP000=
SPZO Feb2008-141400Z 00000KT 9999 FEW046 15/05 Q1032 NOSIG RMK PP000=
SPZO Feb2008-141500Z VRB03KT 9999 FEW046 17/06 Q1031 NOSIG RMK WIND RWY10 VRB04KT PP000=
SPZO Feb2008-141600Z 08005KT 340V120 9999 SCT050 18/06 Q1030 NOSIG RMK=
SPZO Feb2008-141700Z VRB04KT 9999 SCT050 19/04 Q1029 NOSIG RMK WIND RWY10 VRB14KT PP000=
SPZO Feb2008-141800Z VRB08KT 9999 SCT050 20/07 Q1028 NOSIG RMK WIND RWY10 VRB05KT PP000=
SPZO Feb2008-141900Z 36010KT 300V050 9999 FEW050 21/03 Q1027 NOSIG RMK=
SPZO Feb2008-142000Z 01009KT 340V060 9999 FEW050 21/04 Q1026 NOSIG RMK=
SPZO Feb2008-142100Z 02008KT 330V100 9999 FEW050 21/02 Q1025 NOSIG RMK=
SPZO Feb2008-142200Z 98998KT 050V120 9999 FEW050 19/04 Q1025 NOSIG RMK=
SPZO Feb2008-142300Z 09008KT 060V150 9999 SCT050 17/04 Q1026 NOSIG RMK=
SPZO Feb2008-150000Z 30007KT 260V350 9999 FEW043 16/05 Q1027 RMK PP000=
SPZO Feb2008-150100Z 05007KT 9999 FEW046 14/05 Q1029 RMK PP000=
SPZO Feb2008-150200Z 00000KT 9999 FEW050 12/05 Q1030 RMK PP000=
SPZO Feb2008-150300Z 00000KT 9999 FEW050 12/05 Q1031 RMK PP000=
SPZO Feb2008-150400Z VRB02KT 9999 FEW050 10/06 Q1031 RMK PP000=
SPZO Feb2008-150500Z VRB02KT 9999 FEW043 SCT080 10/05 Q1031 RMK PP000=
SPZO Feb2008-150600Z VRB02KT 9999 FEW050 SCT100 09/05 Q1030 RMK PP000=
SPZO Feb2008-150700Z VRB02KT 9999 FEW050 SCT100 09/05 Q1030 RMK PP000=
SPZO Feb2008-150800Z 09004KT 9999 FEW050 SCT100 08/05 Q1030 RMK PP000=
SPZO Feb2008-150900Z 09002KT 9999 SCT050 SCT100 08/05 Q1030 RMK PP000=
SPZO Feb2008-151000Z 17002KT 9999 SCT050 SCT100 08/05 Q1030 RMK PP000=
SPZO Feb2008-151100Z 00000KT 9999 FEW050 SCT100 BKN230 07/04 Q1030 BECMG FEW050 BKN230 RMK PP000=
SPZO Feb2008-151200Z 00000KT 9999 FEW040 BKN230 08/05 Q1031 NOSIG RMK PP000=
SPZO Feb2008-151300Z VRB02KT 9999 FEW040 BKN230 12/06 Q1032 NOSIG RMK=
SPZO Feb2008-151400Z 07003KT 020V130 9999 FEW046 BKN230 13/06 Q1032 NOSIG=
SPZO Feb2008-151500Z VRB04KT 9999 SCT046 17/05 Q1031 NOSIG RMK WIND RWY10 VRB05KT PP000=
SPZO Feb2008-151600Z VRB03KT 9999 SCT046 19/06 Q1030 NOSIG RMK WIND RWY10 VRB06KT PP000=
SPZO Feb2008-151700Z VRB03KT 9999 BKN050 18/04 Q1029 NOSIG RMK WIND RWY10 VRB11KT PP000=
SPZO Feb2008-151800Z 09007KT 050V130 9999 FEW040 BKN050 19/04 Q1028 TEMPO=
SPZO Feb2008-151900Z 25004KT 180V320 9999 FEW040 BKN050 20/04 Q1027 NOSIG RMK WIND RWY 10 36012KT 250V060 PP000=
SPZO Feb2008-152000Z VRB04KT 9999 FEW040 SCT050 BKN060 19/06 Q1025 NOSIG RMK WIND RWY 10 VRB25G41KT PP000=
SPZO Feb2008-152100Z VRB07KT 9999 FEW050 SCT060 BKN070 21/06 Q1024 NOSIG RMK PP000=
SPZO Feb2008-152200Z 02008KT 320V070 9999 FEW060 SCT100 20/02 Q1024 NOSIG RMK TMAX 21.9 PP000=
SPZO Feb2008-152300Z 35008KT 320V030 9999 FEW060 SCT100 18/02 Q1025 NOSIG RMK PP000=
SPZO Feb2008-160000Z VRB02KT 9999 FEW050 16/02 Q1026 RMK PP000=
SPZO Feb2008-160100Z 00000KT 9999 FEW050 14/05 Q1027 RMK PP000=
SPZO Feb2008-160200Z 00000KT 9999 FEW050 12/04 Q1028 RMK PP000=
SPZO Feb2008-160300Z 00000KT 9999 FEW050 11/05 Q1029 RMK PP000=
SPZO Feb2008-160400Z 00000KT 9999 SCT050 09/05 Q1030 RMK PP000=
SPZO Feb2008-160500Z 07003KT 9999 SCT050 09/05 Q1029 RMK PP000=
SPZO Feb2008-160600Z 00000KT 9999 FEW050 09/05 Q1028 RMK PP000=
SPZO Feb2008-160700Z 00000KT 9999 FEW040 SCT100 08/05 Q1028 RMK PP000=
SPZO Feb2008-160800Z 00000KT 9999 FEW040 SCT100 07/05 Q1028 RMK PP000=
SPZO Feb2008-160900Z 00000KT 9999 FEW050 SCT100 07/04 Q1028 RMK PP000=
SPZO Feb2008-161000Z 07003KT 9999 FEW040 SCT100 07/04 Q1028 RMK PP000=
SPZO Feb2008-161100Z 00000KT 9999 SCT040 BKN080 07/04 Q1029 NOSIG RMK PP000=
SPZO Feb2008-161200Z 00000KT 8000 SCT040 11/06 Q1030 NOSIG RMK WIND RWY 10 00000KT HZ/FU PP000=
SPZO Feb2008-161300Z 08006KT 050V110 9000 SCT040 12/06 Q1030 NOSIG RMK=
SPZO Feb2008-161400Z VRB03KT 9999 SCT040 16/06 Q1030 NOSIG RMK WIND RWY 10 VRB07KT PP000=
SPZO Feb2008-161500Z VRB03KT 9999 SCT040 17/04 Q1030 NOSIG RMK WIND RWY 10 VRB10KT PP000=
SPZO Feb2008-161600Z VRB03KT 9999 BKN040 17/04 Q1029 TEMPO VCSH RMK WIND RWY 10 VRB06KT PP000=
SPZO Feb2008-161700Z 08014KT 9999 VCSH FEW036TCU BKN040 16/05 Q1029 NOSIG RMK WIND RWY 10 11031G43 080V140 PP000=
SPZO Feb2008-161800Z 08015KT 9999 FEW040TCU BKN050 16/03 Q1028 TEMPO=
SPZO Feb2008-161900Z VRB05KT 9999 VCSH FEW043TCU BKN050 18/03 Q1026 NOSIG RMK VRB21KT PP000=
SPZO Feb2008-162000Z 26016KT 220V310 9999 VCSH SCT043TCU BKN050 15/05 Q1026 TEMPO RA RMK WIND RWY10 29023KT 250V320 PP000=
SPZO Feb2008-162100Z 27013KT 230V300 9999 SCT046 BKN080 15/03 Q1026 TEMPO=
SPZO Feb2008-162200Z 26011KT 230V300 9999 SCT046 BKN080 14/03 Q1026 NOSIG RMK WIND RWY10 27017KT 230V340 T.MAX.18.5 PP000=
SPZO Feb2008-162300Z 27007KT 230V290 9999 VCSH SCT046 BKN080 13/04 Q1026 NOSIG RMK WIND RWY10 29012KT 240V340 PP000=
SPZO Feb2008-170000Z 26006KT 9999 SCT040 SCT080 13/04 Q1027 RMK PP000=
SPZO Feb2008-170100Z 09008KT 050V140 9999 SCT040 SCT080 11/05 Q1028 RMK PP000=
SPZO Feb2008-170200Z 00000KT 9999 BKN040 SCT080 10/05 Q1029 RMK PP000=
SPZO Feb2008-170300Z 00000KT 9999 BKN040 10/05 Q1029 RMK PP000=
SPZO Feb2008-170400Z 00000KT 9999 BKN040 10/05 Q1030 RMK PP000=
SPZO Feb2008-170500Z 00000KT 9999 BKN040 09/06 Q1030 RMK PP000=
SPZO Feb2008-170600Z 28002KT 9999 BKN040 07/05 Q1029 RMK PP000=
SPZO Feb2008-170700Z 08002KT 9999 BKN040 08/05 Q1029 RMK PP000=
SPZO Feb2008-170800Z 09002KT 9999 BKN040 07/04 Q1029 RMK PP000=
SPZO Feb2008-170900Z 00000KT 9999 BKN040 07/03 Q1029 RMK PP000=
SPZO Feb2008-171000Z 27002KT 9999 BKN040 06/03 Q1029 RMK PP000=
SPZO Feb2008-171100Z 00000KT 9999 FEW040 BKN230 06/04 Q1030 RMK PP000=
SPZO Feb2008-171200Z 00000KT 9999 SCT230 08/05 Q1030 NOSIG RMK PP000=
SPZO Feb2008-171300Z 00000KT 9999 FEW046 SCT230 12/05 Q1031 NOSIG RMK PP000=
SPZO Feb2008-171400Z VRB04KT 9999 FEW046 14/05 Q1031 NOSIG RMK WIND RWY10 VRB06KT PP000=
SPZO Feb2008-171500Z VRB02KT 9999 SCT050 16/04 Q1031 NOSIG RMK WIND RWY10 VRB06KT PP000=
SPZO Feb2008-171600Z VRB03KT 9999 SCT050 17/05 Q1030 NOSIG RMK WIND RWY10 VRB03KT PP000=
SPZO Feb2008-171700Z VRB09KT 9999 FEW046 SCT050 17/03 Q1029 NOSIG RMK=
SPZO Feb2008-171800Z 36013KT 290V050 9999 FEW046 SCT050 20/04 Q1028 NOSIG RMK WIND RWY10 30024KT 250V020 PP000=
SPZO Feb2008-171900Z 33008KT 190V360 9999 FEW046 SCT100 18/03 Q1027 NOSIG RMK WIND RWY10 28018KT 240V350 PP000=
SPZO Feb2008-172000Z VRB07KT 9999 FEW050 SCT230 20/02 Q1025 NOSIG RMK=
SPZO Feb2008-172100Z VRB05KT 9999 VCSH SCT046TCU BKN230 17/04 Q1025 NOSIG RMK WIND RWY10 10009KT PP000=
SPZO Feb2008-172200Z 17004KT 080V230 9999 VCSH FEW036 SCT046CB BKN150 16/06 Q1026 NOSIG RMK WIND RWY10 18010KT T.MAX.20.9 PP000=
SPZO Feb2008-172300Z 11008KT 070V160 9999 VCSH SCT046 BKN080 14/06 Q1027 TEMPO -RA RMK PP000=
SPZO Feb2008-180000Z 07006KT 030V110 9999 SCT040 SCT070 13/06 Q1028 RMK PP000=
SPZO Feb2008-180100Z 07003KT 9999 SCT040 SCT070 12/06 Q1029 RMK PP000=
SPZO Feb2008-180200Z VRB02KT 8000 -RA FEW030 SCT040 BKN050 12/06 Q1030 RMK PPTRZ=
SPZO Feb2008-180300Z VRB03KT 9000 SCT040 BKN050 11/06 Q1031 RERA RMK PPTRZ=
SPZO Feb2008-180400Z 07004KT 9999 SCT040 BKN050 11/07 Q1031 RMK PP000=
SPZO Feb2008-180500Z 07009KT 8000 -RA SCT036 SCT040 BKN050 09/07 Q1032 RMK PP006=
SPZO Feb2008-180600Z 00000KT 8000 +RA FEW030TCU SCT040 BKN050 08/06 Q1031 RMK PP036=
SPZO Feb2008-180700Z VRB01KT 9000 FEW030TCU SCT040 BKN050 09/07 Q1031 RERA RMK PPTRZ=
SPZO Feb2008-180800Z 00000KT 9999 SCT040 BKN050 09/06 Q1030 RMK PP000=
SPZO Feb2008-180900Z 00000KT 9999 SCT040 BKN050 09/07 Q1030 RMK PP000=
SPZO Feb2008-181000Z 05002KT 9999 SCT040 BKN050 09/07 Q1031 RMK PP000=
SPZO Feb2008-181034Z 00000KT 9999 FEW025 SCT040 BKN050 09/07 Q1031=
SPZO Feb2008-181100Z 07003KT 9999 FEW025 SCT050 BKN080 09/07 Q1032 NOSIG RMK PP000=
SPZO Feb2008-181200Z 00000KT 9999 FEW025 SCT100 BKN230 09/07 Q1032 NOSIG RMK PP000=
SPZO Feb2008-181231Z 00000KT 9999 FEW030 SCT060 BKN100 10/07 Q1033=
SPZO Feb2008-181300Z 09002KT 9999 SCT030 SCT060 BKN100 10/07 Q1033 NOSIG RMK PP000=
SPZO Feb2008-181400Z VRB01KT 9999 SCT030 SCT100 13/06 Q1033 NOSIG RMK PP000=
SPZO Feb2008-181500Z 00000KT 9999 SCT036 SCT100 13/06 Q1033 NOSIG RMK PP000=
SPZO Feb2008-181600Z 00000KT 9999 SCT040 SCT100 16/04 Q1032 NOSIG RMK PP000=
SPZO Feb2008-181700Z VRB02KT 9999 SCT050 SCT100 18/03 Q1031 NOSIG RMK=
SPZO Feb2008-181800Z 34006KT 300V030 9999 SCT046 BKN100 17/04 Q1030 NOSIG RMK WIND RWY10 VRB11KT PP000=
SPZO Feb2008-181900Z 34003KT 280V070 9999 VCSH FEW046TCU SCT100 18/06 Q1029 NOSIG RMK WIND RWY10 VRB16KT PP000=
SPZO Feb2008-182000Z VRB10KT 9999 SCT050 20/05 Q1027 NOSIG RMK WIND RWY10 VRB19KT PP000=
SPZO Feb2008-182100Z 35010KT 310V060 9999 BKN050 17/04 Q1027 NOSIG RMK=
SPZO Feb2008-182200Z 32006KT 210V360 9999 SCT050 BKN230 18/04 Q1026 NOSIG RMK WIND RWY10 02013KT T.MAX.19.8 PP000=
SPZO Feb2008-182300Z 35008KT 280V020 9999 SCT050 BKN230 17/05 Q1027 NOSIG RMK WIND RWY10 VRB09KT PP000=
SPZO Feb2008-190000Z 02006KT 340V070 9999 SCT050 SCT060 16/06 Q1028 RMK PP000=
SPZO Feb2008-190100Z 25004KT 200V290 8000 RA FEW040 SCT050 BKN060 11/07 Q1030 RMK PP014=
SPZO Feb2008-190200Z VRB02KT 9000 FEW040 SCT050 BKN060 11/08 Q1031 RERA RMK PP002=
SPZO Feb2008-190300Z VRB02KT 9999 OVC050 12/07 Q1032 RMK PP000=
SPZO Feb2008-190400Z VRB03KT 5000 +RA FEW030 SCT040TCU OVC050 10/08 Q1032 RMK PP026=
SPZO Feb2008-190500Z 00000KT 6000 RA FEW030 SCT040TCU OVC050 10/08 Q1032 RMK PP010=
SPZO Feb2008-190600Z 25004KT 5000 +RA SCT030TCU OVC050 09/07 Q1032 RMK PP028=
SPZO Feb2008-190700Z VRB02KT 5000 -RA SCT030 OVC050 09/06 Q1032 RMK PP004=
SPZO Feb2008-190800Z VRB02KT 8000 -RA SCT030 OVC050 09/06 Q1031 RMK PP002=
SPZO Feb2008-190900Z 00000KT 9000 SCT030 OVC050 09/07 Q1031 RERA RMK PPTRZ=
SPZO Feb2008-191000Z 00000KT 9999 FEW030 SCT040 BKN050 09/07 Q1031 RMK PP000=
SPZO Feb2008-191100Z 06002KT 9999 FEW030 SCT040 BKN060 09/07 Q1032 NOSIG RMK PP000=
SPZO Feb2008-191120Z 06002KT 9999 FEW025 SCT036 BKN046 09/07 Q1032=
SPZO Feb2008-191200Z 00000KT 9999 FEW025 SCT043 BKN080 09/07 Q1033 NOSIG RMK PP000=
SPZO Feb2008-191300Z 00000KT 9999 FEW025 SCT043 BKN080 11/07 Q1034 NOSIG RMK PP000=
SPZO Feb2008-191400Z 00000KT 9999 FEW030 SCT043 BKN080 12/06 Q1034 NOSIG RMK PP000=
SPZO Feb2008-191500Z 00000KT 9999 SCT036 OVC150 13/04 Q1034 NOSIG RMK=
SPZO Feb2008-191527Z VRB03KT 9999 VCSH SCT036 BKN100 13/05 Q1034=
SPZO Feb2008-191600Z 02006G20KT 320V110 9999 -RA VCSH SCT036 SCT043 BKN100 12/06 Q1034 TEMPO NSW RMK WIND RWY10 03012KT 320V080 PP002=
SPZO Feb2008-191613Z 34004KT 270V020 9999 FEW036 SCT043 BKN100 13/06 Q1034 WIND RWY10 VRB04KT=
SPZO Feb2008-191700Z 01003KT 270V060 9999 SCT036 BKN100 14/05 Q1033 NOSIG RMK WIND RWY10 VRB05KT PP000=
SPZO Feb2008-191800Z VRB04KT 9999 BKN040 SCT100 15/05 Q1032 NOSIG RMK=
SPZO Feb2008-191900Z VRB02KT 9999 VCSH FEW036 SCT040 BKN070 15/06 Q1031 TEMPO -RA RMK WIND RWY 10 VRB10KT PP000=
SPZO Feb2008-191904Z 35011KT 320V050 8000 -RA VCSH FEW036 SCT040 BKN070 14/06 Q1031 RMK WIND RWY 10 VRB17G31KT=
SPZO Feb2008-191923Z 35008KT 300V080 9000 VCSH FEW036 SCT040 BKN100 14/06 Q1031 RERA RMK WIND RWY 10 VRB08G19KT=
SPZO Feb2008-192000Z 09008KT 060V140 8000 -RA VCSH FEW036 SCT040 BKN070 12/07 Q1031 NOSIG RMK WIND RWY 10 12019KT PP004=
SPZO Feb2008-192100Z 07004KT 020V120 9000 SCT040 SCT080 13/07 Q1030 RERA TEMPO VCSH RMK PP002=
SPZO Feb2008-192200Z VRB02KT 9999 SCT040 SCT090 14/07 Q1029 RMK TMAX 15.9 PP000=
SPZO Feb2008-192300Z VRB02KT 9999 SCT040 SCT100 13/07 Q1030 NOSIG RMK PP000=
SPZO Feb2008-200000Z 12002KT 9999 SCT046 BKN100 12/07 Q1030 RMK PP000=
SPZO Feb2008-200100Z 00000KT 9999 SCT046 BKN100 11/07 Q1031 RMK PP000=
SPZO Feb2008-200200Z 00000KT 9999 SCT046 BKN100 11/07 Q1032 RMK PP000=
SPZO Feb2008-200300Z 00000KT 9999 SCT040 BKN100 11/08 Q1032 RMK PP000=
SPZO Feb2008-200400Z 00000KT 9999 SCT040 BKN100 11/07 Q1030 RMK PP000=
SPZO Feb2008-200500Z 00000KT 9999 SCT040 BKN100 11/08 Q1032 RMK PP000=
SPZO Feb2008-200600Z 00000KT 9999 FEW036 SCT040 BKN050 11/08 Q1031 RMK PP000=
SPZO Feb2008-200700Z 00000KT 9999 SCT036 BKN050 10/08 Q1031 RMK PP000=
SPZO Feb2008-200800Z 08004KT 9999 SCT036 BKN050 10/07 Q1030 RMK PP000=
SPZO Feb2008-200900Z VRB05KT 9999 RA SCT036 BKN043 09/05 Q1031 RMK PP020=
SPZO Feb2008-201000Z 31002KT 9999 SCT036 BKN043 09/06 Q1031 RERA RMK PP004=
SPZO Feb2008-201100Z 00000KT 9999 VCSH FEW036 SCT040 BKN046 08/06 Q1031 NOSIG RMK PP000=
SPZO Feb2008-201200Z 00000KT 9999 FEW030 SCT050 BKN060 09/07 Q1032 TEMPO=
SPZO Feb2008-201300Z 00000KT 9999 FEW030 SCT050 BKN060 12/07 Q1033 SHRA RERA NOSIG RMK WIND RWY 10 00000KT PP002=
SPZO Feb2008-201400Z 00000KT 9999 FEW030 SCT050 BKN070 13/07 Q1033 NOSIG RMK WIND RWY 10 00000KT PP000=
SPZO Feb2008-201500Z VRB02KT 9999 VCSH FEW030 SCT050 BKN070 14/08 Q1033 TEMPO -RA RMK WIND RWY 10 VRB05KT PP000=
SPZO Feb2008-201540Z 29005KT 250V010 8000 -DZ VCSH FEW030 SCT050 BKN070 13/07 Q1032 RMK WIND RWY 10 34006KT 270V030=
SPZO Feb2008-201600Z 32005KT 260V030 9000 VCSH FEW030 SCT050 BKN070 13/07 Q1032 REDZ TEMPO -RA RMK WIND RWY 10 02010KT 280V080 PPTRZ=
SPZO Feb2008-201700Z VRB03KT 9000 -DZ VCSH FEW030 SCT050 BKN070 14/07 Q1031 NOSIG RMK WIND RWY 10 VRB04KT PPTRZ=
SPZO Feb2008-201800Z VRB08KT 9999 SCT046 17/08 Q1029 REDZ NOSIG RMK WIND RWY10 VRB07KT PPTRZ=
SPZO Feb2008-201900Z 35011KT 280V030 9999 SCT046 SCT080 18/06 Q1028 NOSIG RMK WIND RWY10 35014KT 280V080 PP000=
SPZO Feb2008-202000Z 17006KT 110V220 9999 SCT046 BKN050 15/04 Q1028 TEMPO=
SPZO Feb2008-202100Z 08013KT 9999 VCSH SCT046 BKN050 15/08 Q1027 TEMPO -RA RMK WIND RWY10 VRB10KT PP000=
SPZO Feb2008-202200Z 09015KT 070V160 9999 VCSH FEW036 SCT043 BKN050 11/07 Q1028 TEMPO -RA RMK WIND RWY10 11036KT 070V150 T.MAX.19.0 PP000=
SPZO Feb2008-202300Z 09010KT 070V160 9999 VCSH FEW036 SCT043 BKN050 11/06 Q1028 TEMPO -RA RMK WIND RWY10 VRB06KT PP000=
SPZO Feb2008-210000Z 06004KT 9999 OVC050 10/06 Q1028 RMK PP000=
SPZO Feb2008-210100Z VRB02KT 9999 OVC050 09/06 Q1029 RMK PP000=
SPZO Feb2008-210200Z 09003KT 9999 OVC050 09/06 Q1030 RMK PP000=
SPZO Feb2008-210300Z 09002KT 9999 BKN050 09/06 Q1031 RMK PP000=
SPZO Feb2008-210400Z VRB02KT 9999 BKN050 09/06 Q1031 RMK PP000=
SPZO Feb2008-210500Z 00000KT 9999 BKN050 09/08 Q1031 RMK PP000=
SPZO Feb2008-210600Z VRB03KT 9999 BKN050 09/07 Q1030 RMK PP000=
SPZO Feb2008-210700Z 07004KT 9999 BKN050 08/06 Q1029 RMK PP000=
SPZO Feb2008-210800Z 00000KT 9999 BKN050 09/06 Q1029 RMK PP000=
SPZO Feb2008-210900Z 00000KT 9999 BKN050 SCT060 09/06 Q1028 RMK PP000=
SPZO Feb2008-211000Z 00000KT 9999 BKN050 SCT060 09/06 Q1028 RMK PP000=
SPZO Feb2008-211100Z 09002KT 8000 FEW040 SCT050 BKN060 09/07 Q1029 NOSIG RMK HZ FU WIND RWY 10 10003KT PP000=
SPZO Feb2008-211126Z 05002KT 9999 SCT040 BKN060 09/07 Q1029=
SPZO Feb2008-211200Z 12002KT 9999 SCT040 BKN060 09/07 Q1030 NOSIG RMK=
SPZO Feb2008-211300Z 19003KT 090V220 9999 FEW036 SCT040 BKN100 11/07 Q1030 NOSIG RMK WIND RWY10 VRB03KT PP000=
SPZO Feb2008-211400Z 19002KT 9999 FEW036 SCT043 BKN100 13/07 Q1030 NOSIG RMK WIND RWY10 VRB03KT PP000=
SPZO Feb2008-211500Z 00000KT 9999 FEW036 SCT043 BKN120 14/07 Q1030 NOSIG RMK PP000=
SPZO Feb2008-211600Z 09003KT 020V140 9999 VCSH FEW036 SCT043 BKN120 14/07 Q1030 NOSIG RMK WIND RWY10 11011KT 070V180 PP000=
SPZO Feb2008-211631Z VRB02KT 9999 -RA FEW036 SCT043 BKN100 12/06 Q1030=
SPZO Feb2008-211700Z 33004KT 280V360 9999 VCSH FEW035 SCT043 BKN100 12/07 Q1029 NOSIG RMK WIND RWY10 VRB10 PP008=
SPZO Feb2008-211800Z 23005KT 160V300 9999 FEW046 SCT230 17/06 Q1027 NOSIG RMK WIND RWY10 VRB08KT PP000=
SPZO Feb2008-211900Z 35008KT 280V060 9999 FEW050 SCT230 19/05 Q1025 NOSIG RMK WIND RWY10 VRB15G26KT PP000=
SPZO Feb2008-212000Z 36009KT 300V050 9999 FEW050TCU SCT230 19/05 Q1024 NOSIG RMK WIND RWY10 VRB10KT PP000=
SPZO Feb2008-212100Z 06009KT 020V160 9999 VCSH SCT046CB SCT060 17/05 Q1023 NOSIG RMK WIND RWY10 29016KT 260V340 PP000=
SPZO Feb2008-212200Z 11010KT 060V160 9999 VCSH SCT046CB BKN100 13/06 Q1025 NOSIG RMK WIND RWY10 12019KT T.MAX.19.9 PP000=
SPZO Feb2008-212300Z 23006KT 090V250 9999 -RA FEW033TCU SCT046 BKN100 12/06 Q1026 NOSIG RMK WIND RWY10 VRB03KT PPTRZ=
SPZO Feb2008-220000Z 28006KT 250V340 9999 OVC050 12/06 Q1028 RERA RMK PPTRZ=
SPZO Feb2008-220100Z 27011KT 240V320 9999 OVC050 11/05 Q1029 RMK PP000=
SPZO Feb2008-220200Z 26009KT 230V340 8000 -RA SCT040 BKN050 09/05 Q1030 RMK PP002=
SPZO Feb2008-220300Z 26007KT 5000 +RA FEW030TCU BKN040 08/05 Q1031 RMK PP0024=
SPZO Feb2008-220400Z VRB01KT 5000 +RA FEW030TCU BKN040 08/05 Q1031 RMK PP022=
SPZO Feb2008-220500Z 24001KT 5000 RA FEW030TCU BKN040 08/06 Q1030 RMK PP026=
SPZO Feb2008-220600Z 00000KT 5000 RA FEW030TCU BKN040 07/06 Q1030 RMK PP020=
SPZO Feb2008-220700Z 00000KT 5000 -RA FEW030TCU BKN040 07/05 Q1030 RMK PP012=
SPZO Feb2008-220800Z 08003KT 5000 -RA FEW030TCU BKN040 07/05 Q1029 RMK PP010=
SPZO Feb2008-220900Z 08003KT 6000 -RA FEW030TCU BKN040 07/05 Q1029 RMK PP008=
SPZO Feb2008-221000Z 09002KT 6000 -RA FEW030TCU BKN040 07/05 Q1030 RMK PP006=
SPZO Feb2008-221100Z 07001KT 7000 -RA VCSH FEW020 SCT040 BKN060 07/05 Q1030 BECMG 8000 RMK PP004=
SPZO Feb2008-221200Z 00000KT 8000 -DZ VCSH SCT020 SCT040 BKN080 07/05 Q1031 BECMG 9999 NSW RMK PP002=
SPZO Feb2008-221300Z 05002KT 9999 FEW025 SCT040 BKN080 08/05 Q1032 NOSIG RMK PP002=
SPZO Feb2008-221400Z 00000KT 9999 SCT030 OVC080 11/05 Q1032 TEMPO SCT036 BKN 100 RMK PP000=
SPZO Feb2008-221500Z 00000KT 9999 SCT030 OVC150 13/06 Q1031 NOSIG RMK PP000=
SPZO Feb2008-221600Z 08004KT 040V180 9999 VCSH SCT036 SCT100 BKN230 13/06 Q1031 NOSIG RMK WIND RWY10 VRB07KT PP000=
SPZO Feb2008-221700Z VRB03KT 9999 VCSH SCT040 BKN230 15/05 Q1030 NOSIG RMK WIND RWY10 VRB05KT PP000=
SPZO Feb2008-221800Z VRB05KT 9999 VCSH SCT046 BKN230 16/06 Q1029 NOSIG RMK WIND RWY10 28011KT PP000=
SPZO Feb2008-221900Z VRB09KT 9999 VCSH SCT046 BKN200 17/05 Q1027 NOSIG RMK WIND RWY10 VRB02KT PP000=
SPZO Feb2008-222000Z 32009KT 270V340 9999 DZ SCT046 BKN060 14/07 Q1026 NOSIG RMK WIND RWY10 VRB13KT PPTRZ=
SPZO Feb2008-222100Z 27007KT 9999 VCSH FEW043TCU SCT046 BKN060 15/07 Q1026 NOSIG RMK WIND RWY10 VRB07KT PP000=
SPZO Feb2008-222200Z VRB02KT 9999 SCT046TCU SCT200 16/06 Q1026 NOSIG RMK T.MAX.18.5 PP000=
SPZO Feb2008-222300Z 22002KT 9999 SCT043TCU SCT230 14/06 Q1026 NOSIG RMK PP000=
SPZO Feb2008-230000Z VRB03KT 9999 BKN050 12/08 Q1027 RMK PP000=
SPZO Feb2008-230100Z 00000KT 9999 BKN050 11/07 Q1029 RMK PP000=
SPZO Feb2008-230200Z VRB02KT 9999 BKN050 11/08 Q1030 RMK PP000=
SPZO Feb2008-230300Z 07004KT 9999 BKN050 11/09 Q1030 RMK PP000=
SPZO Feb2008-230400Z VRB02KT 8000 -RA FEW040 OVC050 11/09 Q1030 RMK PP008=
SPZO Feb2008-230500Z 00000KT 8000 RA FEW040 OVC050 11/09 Q1030 RMK PP018=
SPZO Feb2008-230600Z VRB01KT 9000 FEW030 OVC040 10/08 Q1030 RERA RMK PP002=
SPZO Feb2008-230700Z VRB03KT 8000 -RA FEW030 OVC040 10/06 Q1030 RMK PP010=
SPZO Feb2008-230800Z VRB02KT 9000 FEW030 OVC040 10/06 Q1030 RERA RMK PP006=
SPZO Feb2008-230900Z VRB02KT 8000 -RA FEW030 OVC040 09/07 Q1030 RMK PP002=
SPZO Feb2008-231000Z 00000KT 9000 FEW030 SCT040 BKN050 10/06 Q1030 RERA RMK PPTRZ=
SPZO Feb2008-231100Z 05002KT 9999 FEW030 SCT040 BKN050 10/07 Q1031 NOSIG RMK PP000=
SPZO Feb2008-231200Z 00000KT 9999 FEW025 SCT040 BKN080 10/07 Q1032 TEMPO FEW030 SCT100 RMK PP000=
SPZO Feb2008-231300Z 00000KT 9999 FEW025 SCT040 BKN100 12/07 Q1032 NOSIG RMK PP000=
SPZO Feb2008-231400Z VRB01KT 9999 SCT030 BKN230 13/06 Q1033 NOSIG RMK=
SPZO Feb2008-231500Z VRB02KT 9999 SCT036 BKN230 15/07 Q1032 NOSIG RMK=
SPZO Feb2008-231600Z 06004KT 340V140 9999 FEW033TCU SCT046 15/07 Q1031 NOSIG RMK PP000=
SPZO Feb2008-231700Z 04003KT 320V090 9999 FEW040TCU SCT050 16/06 Q1030 NOSIG RMK WIND RWY10 31008KT PP000=
SPZO Feb2008-231800Z VRB03KT 9999 VCSH SCT040TCU BKN050 18/07 Q1028 TEMPO -SHRA RMK WIND RWY 10 VRB05KT PP000=
SPZO Feb2008-231806Z 30013KT 250V340 8000 RA VCSH SCT040TCU BKN050 12/07 Q1029 RMK WIND RWY 10 02023KT 200V100=
SPZO Feb2008-231822Z VRB04KT 5000 R28/1000V1500D TSRA FEW030TCU SCT040 BKN050 10/07 Q1029 RMK WIND RWY 10 VRB06KT=
SPZO Feb2008-231840Z VRB03KT 8000 TSRA FEW030CB SCT040 BKN050 12/08 Q1029 RMK WIND RWY 10 VRB08KT=
SPZO Feb2008-231900Z VRB03KT 8000 RA VCSH FEW030CB SCT040 BKN050 12/08 Q1029 BECMG FM20 9999 RMK WIND RWY 10 VRB10KT PP064=
SPZO Feb2008-231911Z 22006KT 160V250 9000 VCSH FEW030TCU SCT040 BKN050 12/08 Q1029 RERA RMK WIND RWY 10 16004KT 120V210=
SPZO Feb2008-232000Z 25004KT 200V350 9000 VCSH FEW030 SCT040 BKN060 15/09 Q1028 NOSIG RMK WIND RWY 10 29006KT 220V030 PPTRZ=
SPZO Feb2008-232100Z 28007KT 250V330 9000 VCSH FEW030 SCT040 BKN060 15/08 Q1027 TEMPO RA RMK PP000=
SPZO Feb2008-232200Z 30005KT 250V340 9999 VCSH FEW030 SCT040 BKN060 15/07 Q1027 TEMPO -RA RMK TMAX 19.0 PP000=
SPZO Feb2008-232300Z 30010KT 9999 FEW030 SCT040 BKN060 14/06 Q1028 NOSIG RMK PP000=
SPZO Feb2008-240000Z 00000KT 9999 VCSH SCT040 BKN050 13/07 Q1029 RMK PP000=
SPZO Feb2008-240100Z 28008KT 9999 SCT040 BKN050 12/08 Q1030 RERA RMK PP004=
SPZO Feb2008-240200Z 28006KT 250V340 9999 SCT040 BKN050 12/07 Q1031 RMK PP000=
SPZO Feb2008-240300Z 26009KT 9999 SCT040 BKN050 12/07 Q1032 RMK PP000=
SPZO Feb2008-240400Z 28006KT 250V330 9999 SCT040 BKN050 12/07 Q1032 RMK PP000=
SPZO Feb2008-240500Z 21002KT 120V270 9999 SCT040 BKN050 12/05 Q1032 RMK PP000=
SPZO Feb2008-240600Z 00000KT 9999 DZ SCT040 BKN050 10/06 Q1032 RMK PP006=
SPZO Feb2008-240700Z 35005KT 9999 DZ SCT040 BKN050 09/06 Q1032 RMK PP014=
SPZO Feb2008-240800Z 00000KT 7000 DZ SCT036 BKN040 09/06 Q1032 RMK PP008=
SPZO Feb2008-240900Z 00000KT 9999 FEW036 SCT040 BKN046 08/06 Q1032 RMK PP008=
SPZO Feb2008-241000Z 07002KT 9999 FEW033 SCT040 BKN046 08/06 Q1032 RMK PP000=
SPZO Feb2008-241100Z 00000KT 9000 SCT030 BKN046 09/07 Q1032 NOSIG RMK PP000=
SPZO Feb2008-241132Z VRB02KT 8000 FEW020 SCT030 BKN040 09/07 Q1033 RMK BR=
SPZO Feb2008-241200Z VRB02KT 8000 FEW020 SCT030 BKN050 09/07 Q1033 NOSIG RMK BR WIND RWY 10 VRB07KT PP000=
SPZO Feb2008-241300Z 00000KT 9000 FEW020 SCT040 BKN060 11/06 Q1034 BECMG FM1330 9999 RMK WIND RWY 10 00000KT BR PP000=
SPZO Feb2008-241400Z VRB02KT 9999 FEW030 SCT040 BKN060 13/06 Q1034 NOSIG RMK WIND RWY 10 VRB05KT PP000=
SPZO Feb2008-241500Z VRB03KT 9999 SCT040 BKN060 15/07 Q1033 NOSIG RMK=
SPZO Feb2008-241600Z VRB04KT 9999 SCT040 SCT060 16/07 Q1032 NOSIG RMK=
SPZO Feb2008-241700Z VRB03KT 9999 SCT040 SCT060 18/08 Q1031 NOSIG RMK=
SPZO Feb2008-241800Z VRB04KT 9999 SCT046 SCT230 19/06 Q1029 NOSIG RMK=
SPZO Feb2008-241900Z VRB04KT 9999 VCSH FEW046TCU SCT050 BKN230 18/07 Q1028 TEMPO RA RMK WIND RWY10 VRB16KT PP000=
SPZO Feb2008-241915Z 02003KT 9999 TSGRRA SCT040CB BKN050 15/09 Q1028=
SPZO Feb2008-242000Z 13008KT 090V250 9999 +TSRA SCT040CB BKN050 09/06 Q1028 NOSIG RMK WIND RWY10 VRB12KT PP216=
SPZO Feb2008-242100Z 10002KT 9999 -RA SCT043TCU BKN050 10/07 Q1028 NOSIG RMK WIND RWY10 10008KT 060V150 PP060=
SPZO Feb2008-242200Z 32002KT 9999 VCSH FEW036 SCT043 BKN100 11/08 Q1028 RERA NOSIG RMK T.MAX.20.3 PP004=
SPZO Feb2008-242300Z 00000KT 9999 SCT040 BKN200 11/08 Q1028 RERA NOSIG RMK PP002=
SPZO Feb2008-250000Z 00000KT 9999 SCT050 SCT060 11/08 Q1029 RMK PP000=
SPZO Feb2008-250100Z VRB02KT 9999 OVC050 11/08 Q1030 RMK PP000=
SPZO Feb2008-250200Z 08002KT 9999 OVC050 11/08 Q1031 RMK PP000=
SPZO Feb2008-250300Z 00000KT 9999 OVC050 11/08 Q1031 RMK PP000=
SPZO Feb2008-250400Z 06004KT 8000 -RA SCT030 OVC050 11/09 Q1031 RMK PP004=
SPZO Feb2008-250500Z 24004KT 5000 +RA SCT030TCU OVC040 09/07 Q1031 RMK PP042=
SPZO Feb2008-250600Z 23004KT 200V270 5000 +RA SCT030TCU OVC040 09/07 Q1030 RMK PP036=
SPZO Feb2008-250700Z 25004KT 210V340 5000 +RA SCT030TCU OVC040 08/06 Q1030 RMK PP032=
SPZO Feb2008-250800Z 23002KT 5000 +RA SCT030TCU OVC040 08/05 Q1030 RMK PP022=
SPZO Feb2008-250900Z 00000KT 5000 -RA FEW020TCU SCT030 OVC040 08/06 Q1030 RMK PP008=
SPZO Feb2008-251000Z 00000KT 6000 -RA FEW020 SCT030 OVC050 08/06 Q1030 RMK PP002=
SPZO Feb2008-251028Z 08002KT 7000 -RA FEW020 SCT030 BKN060 08/06 Q1030=
SPZO Feb2008-251100Z 00000KT 8000 -DZ FEW020 SCT030 BKN060 08/06 Q1030 BECMG FM1130 SCT036 BKN046 RMK PPTRZ=
SPZO Feb2008-251130Z 00000KT 9999 DZVCHS SCT030 BKN046 08/06 Q1031 BCOS BR S/SE=
SPZO Feb2008-251200Z 00000KT 9999 -RA SCT030 BKN046 08/06 Q1031 NOSIG RMK PPTRZ=
SPZO Feb2008-251300Z 00000KT 9999 -DZ VCSH SCT030 BKN046 09/06 Q1031 BECMG FM1330 NSW RMK PP004=
SPZO Feb2008-251400Z 00000KT 9999 FEW025 SCT040 BKN046 11/06 Q1032 NOSIG RMK PP000=
SPZO Feb2008-251500Z VRB01KT 9999 FEW030 SCT040 BKN050 13/05 Q1031 NOSIG RMK PP000=
SPZO Feb2008-251600Z 00000KT 9999 VCSH SCT033 BKN046 14/06 Q1031 NOSIG RMK WIND RWY10 VRB07KT PP000=
SPZO Feb2008-251700Z 09007KT 9999 VCSH SCT036 BKN050 15/08 Q1030 NOSIG RMK WIND RWY10 VRB10KT PP000=
SPZO Feb2008-251800Z 02011KT 330V110 9999 VCSH SCT036 BKN050 15/06 Q1029 TEMPO -RA RMK WIND RWY10 VRB13KT PP000=
SPZO Feb2008-251900Z VRB04KT 9999 SCT036 OVC100 16/06 Q1028 NOSIG RMK=
SPZO Feb2008-252000Z 02007KT 310V110 9999 VCSH FEW040TCU SCT043 BKN230 16/05 Q1027 NOSIG RMK WIND RWY10 09010G21KT 010V140 PP000=
SPZO Feb2008-252100Z VRB04KT 9999 DZ SCT040TCU BKN100 14/07 Q1027 TEMPO NSW RMK WIND RWY10 24012KT PPTRZ=
SPZO Feb2008-252200Z VRB03KT 9999 VCSH FEW040TCU BKN230 14/07 Q1026 NOSIG RMK WIND RWY10 11005KT T.MAX.16.8 PP002=
SPZO Feb2008-252300Z 28009KT 9999 FEW050 SCT230 13/06 Q1026 NOSIG RMK=
SPZO Feb2008-260000Z 24009KT 9999 SCT050 SCT230 12/05 Q1027 RMK PP000=
SPZO Feb2008-260100Z 26005KT 230V340 9999 BKN050 11/05 Q1028 RMK PP000=
SPZO Feb2008-260200Z 26005KT 230V300 9999 BKN050 10/05 Q1029 RMK PP000=
SPZO Feb2008-260300Z 00000KT 9999 BKN050 10/06 Q1030 RMK PP000=
SPZO Feb2008-260400Z 00000KT 9999 BKN050 09/06 Q1030 RMK PP000=
SPZO Feb2008-260500Z 00000KT 9999 BKN050 09/06 Q1030 RMK PP000=
SPZO Feb2008-260600Z 00000KT 9999 BKN050 09/06 Q1029 RMK PP000=
SPZO Feb2008-260700Z 00000KT 9999 BKN050 09/07 Q1028 RMK PP000=
SPZO Feb2008-260800Z 00000KT 9999 BKN050 09/06 Q1028 RMK PP000=
SPZO Feb2008-260900Z 00000KT 9999 BKN050 08/06 Q1027 RMK PP000=
SPZO Feb2008-261000Z 00000KT 9999 BKN050 07/06 Q1028 RMK PP000=
SPZO Feb2008-261100Z 21002KT 9999 SCT050 07/05 Q1028 RMK PP000=
SPZO Feb2008-261200Z VRB02KT 9999 SCT230 08/06 Q1029 NOSIG RMK PP000=
SPZO Feb2008-261300Z 00000KT 9999 FEW036 SCT230 12/06 Q1030 NOSIG RMK PP000=
SPZO Feb2008-261400Z VRB03KT 9999 SCT043 14/06 Q1030 NOSIG RMK PP000=
SPZO Feb2008-261500Z 31005KT 270V340 9999 FEW040 SCT050 BKN080 14/06 Q1030 NOSIG RMK PP000=
SPZO Feb2008-261600Z VRB03KT 9999 FEW046TCU SCT050 BKN080 16/06 Q1029 TEMPO VCSH RMK WIND RWY10 VRB05KT PP000=
SPZO Feb2008-261635Z 27011KT 230V330 9999 RA ST046 BKN080 12/07 Q1029 RMK WIND RWY10 27017KT=
SPZO Feb2008-261700Z 23010KT 160V270 9999 -RA SCT043 BKN080 12/07 Q1029 TEMPO NSW RMK WIND RWY10 VRB08KT PP002=
SPZO Feb2008-261800Z 06008KT 030V150 9999 VCSH SCT046 BKN080 15/09 Q1028 NOSIG RMK WIND RWY10 10010KT 040V150 PP002=
SPZO Feb2008-261900Z 07003KT 360V150 9999 FEW043TCU SCT050 17/07 Q1026 NOSIG RMK WIND RWY10 11010KT PP000=
SPZO Feb2008-262000Z 12006KT 080V220 9999 FEW043TCU SCT050 18/07 Q1025 NOSIG RMK WIND RWY10 VRB09KT PP000=
SPZO Feb2008-262100Z 09005KT 9999 SCT046 SCT230 17/06 Q1024 NOSIG RMK=
SPZO Feb2008-262200Z 26011KT 230V300 9999 SCT050 BKN230 18/06 Q1024 NOSIG RMK WIND RWY10 29017G28KT 250V020 T.MAX.18.5 PP000=
SPZO Feb2008-262300Z 23008KT 160V270 9999 SCT050 BKN230 15/05 Q1025 NOSIG RMK WIND RWY10 25018KT PP000=
SPZO Feb2008-270000Z 24007KT 160V260 9999 BKN050 13/06 Q1026 RMK PP000=
SPZO Feb2008-270100Z 27005KT 9999 BKN050 11/06 Q1027 RMK PP000=
SPZO Feb2008-270200Z 25006KT 9999 BKN050 12/07 Q1028 RMK PP000=
SPZO Feb2008-270300Z VRB03KT 9999 BKN050 11/06 Q1029 RMK PP000=
SPZO Feb2008-270400Z VRB02KT 9999 BKN050 10/07 Q1029 RMK PP000=
SPZO Feb2008-270500Z 08002KT 9999 BKN050 10/07 Q1029 RMK PP000=
SPZO Feb2008-270600Z 00000KT 9999 OVC050 11/07 Q1028 RMK PP000=
SPZO Feb2008-270700Z 00000KT 9999 OVC050 11/07 Q1028 RMK PP000=
SPZO Feb2008-270800Z VRB03KT 9999 OVC050 10/07 Q1028 RMK PP000=
SPZO Feb2008-270900Z VRB03KT 9999 OVC050 10/06 Q1028 RMK PP000=
SPZO Feb2008-271000Z VRB03KT 9999 BKN050 SCT060 09/06 Q1028 RMK PP000=
SPZO Feb2008-271100Z 08004KT 9999 FEW040 SCT050 BKN060 08/06 Q1029 TEMPO SCT036 BKN060 RMK PP000=
SPZO Feb2008-271200Z 00000KT 9999 SCT030 BKN046 09/07 Q1030 NOSIG RMK PP000=
SPZO Feb2008-271300Z 08004KT 020V120 9999 SCT030 BKN100 11/07 Q1030 NOSIG RMK WIND RWY10 VRB03KT PP000=
SPZO Feb2008-271400Z VRB03KT 9999 SCT036 14/07 Q1030 NOSIG RMK WIND RWY10 VRB05KT PP000=
SPZO Feb2008-271500Z VRB03KT 9999 SCT036 SCT100 14/06 Q1030 NOSIG RMK=
SPZO Feb2008-271600Z VRB02KT 9999 VCSH FEW036 SCT043 BKN100 15/06 Q1030 NOSIG RMK WIND RWY10 VRB04KT PP000=
SPZO Feb2008-271700Z 00000KT 9999 FEW040TCU SCT043 BKN080 17/04 Q1029 NOSIG RMK WIND RWY10 18008KT 080V250 PP000=
SPZO Feb2008-271800Z VRB04KT 9999 FEW040TCU SCT050 BKN080 18/06 Q1027 NOSIG RMK WIND RWY 10 VRB05KT PP000=
SPZO Feb2008-271900Z 08009KT 020V120 9999 VCSH SCT040TCU BKN050 17/07 Q1026 TEMPO -RA RMK WIND RWY 10 28014KT 240V340 PP000=
SPZO Feb2008-271924Z 06008KT 340V110 9000 -RA VCSH SCT040TCU BKN050 15/07 Q1026 RMK WIND RWY 10 06013G24KT 340V130=
SPZO Feb2008-272000Z 09007KT 060V160 9999 VCSH SCT040TCU BKN050 13/08 Q1025 RERA NOSIG RMK WIND RWY 10 10011KT 030V130 PP014=
SPZO Feb2008-272100Z VRB02KT 9999 FEW040TCU BKN050 15/08 Q1025 TEMPO=
SPZO Feb2008-272200Z VRB02KT 9999 FEW040 BKN050 15/08 Q1025 NOSIG RMK TMAX 19.5 PP000=
SPZO Feb2008-272300Z VRB02KT 9999 FEW040 BKN050 15/07 Q1026 TEMPO VCSH RMK PP000=
SPZO Feb2008-280000Z 00000KT 9999 SCT040 BKN050 12/08 Q1027 RERA RMK PP018=
SPZO Feb2008-280100Z 00000KT 9999 SCT040 BKN050 12/08 Q1028 RMK PP000=
SPZO Feb2008-280200Z 00000KT 9999 SCT040 BKN050 12/09 Q1029 RERA RMK PP006=
SPZO Feb2008-280300Z 00000KT 9999 SCT040 BKN080 11/08 Q1030 RMK PP000=
SPZO Feb2008-280400Z 00000KT 9999 SCT040 BKN060 11/09 Q1030 RMK PP000=
SPZO Feb2008-280500Z VRB04KT 9999 FEW036 BKN046 11/07 Q1030 RMK PP000=
SPZO Feb2008-280600Z 06004KT 020V110 9000 DZ FEW036 BKN043 10/06 Q1030 RMK PP002=
SPZO Feb2008-280700Z 00000KT 9999 DZ FEW036 BKN043 09/06 Q1030 RMK PP018=
SPZO Feb2008-280800Z 27002KT 9000 RA FEW036 BKN040 09/07 Q1030 CLNG BLW 1200 RMK PP040=
SPZO Feb2008-280900Z 25004KT 8000 RA FEW036 BKN040 08/06 Q1030 CLNG BLW 1200M RMK PP052=
SPZO Feb2008-281000Z 00000KT 8000 RA FEW030 BKN040 07/06 Q1029 CLNG BLW 1200M RMK PP036=
SPZO Feb2008-281031Z 00000KT 9999 -DZ FEW020 SCT036 BKN046 08/06 Q1030=
SPZO Feb2008-281100Z 00000KT 9999 SCT036 BKN050 07/06 Q1030 NOSIG RERA RMK PP006=
SPZO Feb2008-281200Z 00000KT 9000 FEW030 SCT040 BKN050 08/06 Q1030 NOSIG RMK WIND RWY 10 00000KT BR PP000=
SPZO Feb2008-281300Z VRB02KT 9000 FEW030 SCT040 BKN050 09/06 Q1031 BECMG FM1330 9999 RMK WIND RWY 10 VRB03KT BR PP000=
SPZO Feb2008-281400Z VRB03KT 9000 FEW030 SCT040 BKN060 13/07 Q1032 NOSIG RMK WIND RWY 10 VRB06KT BR PP000=
SPZO Feb2008-281500Z 09005KT 050V160 9999 SCT040 BKN080 12/06 Q1031 NOSIG RMK WIND RWY 10 11013KT 070V160 PP000=
SPZO Feb2008-281600Z VRB02KT 9999 SCT040 SCT080 16/06 Q1030 NOSIG RMK=
SPZO Feb2008-281700Z 23005KT 160V280 9999 SCT040 SCT080 17/06 Q1029 NOSIG RMK WIND RWY 10 VRB07KT PP000=
SPZO Feb2008-281800Z VRB06KT 9999 SCT046 SCT230 19/06 Q1027 TEMPO VCSH RMK WIND RWY10 VRB07KT PP000=
SPZO Feb2008-281900Z 32003KT 9999 VCSH SCT046TCU BKN100 18/05 Q1025 NOSIG RMK WIND RWY10 VRB11KT PP000=
SPZO Feb2008-282000Z 26007KT 220V340 9999 VCSH SCT043TCU BKN080 15/07 Q1026 NOSIG RMK WIND RWY10 29019KT 250V330 PP000=
SPZO Feb2008-282100Z 21003KT 160V310 9999 SCT050 BKN100 17/04 Q1025 NOSIG RMK WIND RWY10 VRB09KT PP000=
SPZO Feb2008-282200Z 09006KT 050V120 9999 FEW046TCU SCT050 BKN100 15/08 Q1025 TEMPO VCSH RMK WIND RWY10 10015KT 060V140 T.MAX.19.9 PP000=
SPZO Feb2008-282300Z 11004KT 060V140 9999 VCSH FEW043TCU SCT050 BKN100 14/07 Q1025 RERA DE 2230/45 NOSIG RMK WIND RWY10 11005KT 080V150 PP002=
SPZO Feb2008-290000Z 00000KT 9999 BKN050 SCT100 12/07 Q1026 RMK PP000=
SPZO Feb2008-290100Z 07004KT 020V110 8000 -RA SCT040 BKN050 12/08 Q1028 RMK PP002=
SPZO Feb2008-290200Z 00000KT 8000 -RA FEW040 BKN050 12/08 Q1029 RMK PPTRZ=
SPZO Feb2008-290300Z 10007KT 030V160 8000 RA SCT030TCU BKN050 09/07 Q1031 RMK PP022=
SPZO Feb2008-290400Z 00000KT 8000 +RA SCT030TCU BKN050 09/07 Q1031 RMK PP044=
SPZO Feb2008-290500Z 08002KT 5000 RA SCT030TCU BKN050 09/07 Q1031 RMK PP028=
SPZO Feb2008-290600Z 00000KT 5000 +RA SCT020TCU OVC040 08/06 Q1030 RMK PP044=
SPZO Feb2008-290700Z 07002KT 5000 +RA SCT020TCU OVC040 08/06 Q1030 RMK PP030=
SPZO Feb2008-290800Z 07003KT 5000 RA SCT020TCU OVC040 08/06 Q1029 RMK PP022=
SPZO Feb2008-290900Z 08002KT 6000 RA FEW020TCU OVC040 08/06 Q1029 RMK PP016=
SPZO Feb2008-291000Z 00000KT 7000 -RA FEW020TCU OVC040 07/06 Q1030 RMK PP008=
SPZO Feb2008-291100Z 00000KT 7000 -RA FEW020TCU OVC040 07/06 Q1030 NOSIG RMK PP004=
SPZO Feb2008-291118Z 00000KT 9000 -RA FEW020 SCT033 BKN043 08/06 Q1031 RMK CLING BLW 1200M=
SPZO Feb2008-291200Z 08002KT 8000 RA FEW020 SCT033 BKN043 08/06 Q1031 NOSIG RMK CLNG BLW 1200M WIND RWY10 12005KT PP002=
SPZO Feb2008-291300Z 00000KT 8000 -RA FEW020 SCT033 BKN046 09/07 Q1032 BCMG FM1345 9000 SCT036 BKN046 RMK CLNG BLW 1200M PP012=
SPZO Feb2008-291333Z VRB02KT 9000 -RA SCT036 BKN046 10/07 Q1032 RMK BCFG CDTES NE/S=
SPZO Feb2008-291400Z VRB02KT 9999 DZ SCT033 BKN046 10/07 Q1032 BCMG FM1315 NSW RMK BCOS BR CUAD.NE/W PP000=
SPZO Feb2008-291500Z 00000KT 9999 DZ VCSH FEW025 SCT033 BKN050 12/07 Q1032 NOSIG RMK WIND RWY10 VRB04KT PP002=
SPZO Feb2008-291600Z 24002KT 9999 SCT040 BKN060 14/07 Q1031 REDZ NOSIG RMK PPTRZ=
SPZO Feb2008-291700Z VRB03KT 9999 SCT050 BKN100 15/08 Q1029 NOSIG RMK=
SPZO Feb2008-291800Z VRB03KT 9999 SCT046 BKN100 17/07 Q1027 NOSIG RMK=
SPZO Feb2008-291824Z 25015KT 210V290 9999 4500W VCSH FEW040TCU SCT043CB BKN080 16/08 Q1027 TEMPO FM1830 TL1900 -SHRA=
SPZO Feb2008-291900Z 26012KT 220V320 9999 -RA VCSH FEW040TCU SCT043CB BKN080 13/08 Q1026 TEMPO FM1935 NSW RMK 29022G33KT 250V340 PPTRZ=
SPZO Feb2008-292000Z VRB03KT 9999 VCSH FEW040CTU SCT043 BKN080 14/08 Q1025 NOSIG RMK WIND RWY10 VRB18KT PP006=
SPZO Feb2008-292100Z 21004KT 140V270 9999 -DZ SCT046 BKN080 15/08 Q1025 TEMPO NSW RMK WIND RWY10 VRB08KT PPTRZ=
SPZO Feb2008-292200Z 09010KT 060V120 9999 VCSH SCT043 BKN050 12/08 Q1026 NOSIG RMK WIND RWY10 10025KT T.MAX.18.3 PP000=
SPZO Feb2008-292300Z 09008KT 060V150 9999 DZ VCSH SCT040 BKN050 11/08 Q1027 TEMPO NSW RMK WIND RWY10 10014KT PP002=
SPZO Mar2008-010000Z 08009KT 5000 RA FEW020TCU SCT030 OVC040 10/08 Q1028 RMK PP018=
SPZO Mar2008-010100Z 10005KT 070V140 5000 RA FEW020TCU SCT030 OVC040 10/08 Q1029 RMK PP024=
SPZO Mar2008-010200Z 00000KT 6000 -RA FEW020TCU SCT030 OVC040 09/08 Q1030 RMK PP006=
SPZO Mar2008-010300Z VRB02KT 6000 -RA FEW020TCU SCT030 OVC040 09/07 Q1031 RMK PP006=
SPZO Mar2008-010400Z 00000KT 7000 -RA FEW020TCU SCT030 BKN040 09/07 Q1031 RMK PP002=
SPZO Mar2008-010500Z 25008KT 220V290 8000 FEW020 SCT030 BKN040 09/06 Q1030 RERA RMK PP002=
SPZO Mar2008-010600Z 27006KT 230V340 9999 FEW020 SCT030 BKN040 09/05 Q1029 RMK PP000=
SPZO Mar2008-010700Z 28005KT 9999 FEW020 SCT030 BKN040 09/05 Q1028 RMK PP000=
SPZO Mar2008-010800Z 26008KT 9999 FEW020 SCT030 BKN040 09/05 Q1028 RMK PP000=
SPZO Mar2008-010900Z 00000KT 9999 FEW020 SCT030 BKN040 09/05 Q1027 RMK PP000=
SPZO Mar2008-011000Z 00000KT 9999 FEW030 BKN040 09/06 Q1028 RMK PP000=
SPZO Mar2008-011100Z 00000KT 9999 SCT040 SCT050 09/06 Q1029 NOSIG RMK PP000=
SPZO Mar2008-011200Z 00000KT 9999 SCT046 BKN080 10/07 Q1029 NOSIG RMK PP000=
SPZO Mar2008-011300Z 00000KT 9999 SCT046 BKN230 11/06 Q1030 NOSIG RMK PP000=
SPZO Mar2008-011400Z VRB02KT 9999 FEW040 SCT046 BKN230 12/05 Q1030 NOSIG RMK PP000=
SPZO Mar2008-011500Z 00000KT 9999 SCT043 BKN150 14/07 Q1029 NOSIG RMK=
SPZO Mar2008-011600Z VRB04KT 9999 SCT043 BKN150 15/06 Q1029 NOSIG RMK=
SPZO Mar2008-011700Z VRB03KT 9999 SCT046 BKN150 16/06 Q1028 NOSIG RMK=
SPZO Mar2008-011800Z VRB04KT 9999 SCT050 BKN080 17/06 Q1026 NOSIG RMK PP000=
SPZO Mar2008-011900Z 35010KT 310V050 9999 VCSH FEW040TCU SCT046 BKN100 15/07 Q1025 NOSIG RMK WIND RWY10 VRB17G32KT PP000=
SPZO Mar2008-012000Z 10006KT 070V150 9999 FEW040 SCT150 BKN230 14/07 Q1025 NOSIG RMK WIND RWY10 11012KT 360V160 PP000=
SPZO Mar2008-012100Z 06006KT 9999 FEW040 SCT150 BKN230 14/07 Q1025 NOSIG RMK WIND RWY10 09011KT PP000=
SPZO Mar2008-012200Z 06003KT 360V120 9999 SCT046 BKN230 14/06 Q1025 NOSIG RMK WIND RWY10 09007KT T.MAX.17.3 PP000=
SPZO Mar2008-012300Z 08004KT 060V120 9999 VCSH FEW046TCU OVC200 13/06 Q1025 NOSIG RMK WIND RWY10 10010KT PP000=
SPZO Mar2008-020000Z 00000KT 9999 BKN050 SCT100 12/07 Q1025 RMK PP000=
SPZO Mar2008-020100Z 00000KT 9999 BKN050 SCT100 10/07 Q1027 RMK PP000=
SPZO Mar2008-020200Z VRB02KT 9999 BKN050 SCT090 10/07 Q1028 RMK PP000=
SPZO Mar2008-020300Z 23002KT 9999 BKN050 SCT080 10/08 Q1028 RMK PP000=
SPZO Mar2008-020400Z 09004KT 070V140 5000 -RA SCT040 SCT050 10/08 Q1028 RMK PP002=
SPZO Mar2008-020500Z 00000KT 5000 +RA SCT030TCU SCT040 09/07 Q1028 RMK PP048=
SPZO Mar2008-020600Z 00000KT 5000 RA SCT030TCU BKN040 09/06 Q1028 RMK PP018=
SPZO Mar2008-020700Z 00000KT 6000 RA SCT030TCU BKN040 09/07 Q1027 RMK PP014=
SPZO Mar2008-020800Z 00000KT 7000 -RA SCT030 BKN040 08/06 Q1026 RMK PP004=
SPZO Mar2008-020900Z 00000KT 7000 -RA FEW030 BKN040 09/07 Q1026 RMK PP002=
SPZO Mar2008-021000Z 00000KT 8000 FEW030 BKN040 09/07 Q1026 RERA RMK PPTRZ=
SPZO Mar2008-021100Z 00000KT 9999 SCT030 SCT040 BKN050 09/07 Q1027 TEMPO SCT030 SCT050 BKN080 RMK PP000=
SPZO Mar2008-021200Z VRB02KT 9999 SCT030 SCT040 BKN080 09/07 Q1027 NOSIG RMK WIND RWY10 11004KT PP000=
SPZO Mar2008-021300Z 00000KT 9999 SCT025 SCT040 BKN080 10/07 Q1028 NOSIG RMK PP000=
SPZO Mar2008-021400Z 00000KT 9999 FEW025 SCT040 BKN080 11/07 Q1029 NOSIG RMK PP000=
SPZO Mar2008-021500Z VRB01KT 9999 FEW030 SCT040 BKN100 13/08 Q1028 NOSIG RMK WIND RWY10 VRB02KT PP000=
SPZO Mar2008-021600Z 10004KT 010V110 9999 FEW036 SCT040 BKN100 13/05 Q1028 TEMPO VCSH RMK WIND RWY10 VRB02KT PP000=
SPZO Mar2008-021700Z 09006KT 060V130 9999 VCSH SCT043 OVC150 13/07 Q1027 NOSIG RMK WIND RWY10 VRB06KT PP000=
SPZO Mar2008-021800Z 10004KT 070V140 9999 -DZ VCSH SCT040 OVC100 12/07 Q1027 TEMPO NSW RMK WIND RWY 10 VRB08G19KT PPTRZ=
SPZO Mar2008-021900Z 00000KT 9000 DZ VCSH SCT036 OVC080 11/08 Q1027 NOSIG RMK WIND RWY 10 13006KT 090V170 PP004=
SPZO Mar2008-022000Z 30008KT 250V340 9999 VCSH SCT036 OVC080 12/06 Q1026 REDZ NOSIG RMK WIND RWY 10 VRB02KT PPTRZ=
SPZO Mar2008-022100Z 30005KT 250V360 9999 VCSH SCT033 OVC080 12/06 Q1026 TEMPO -RA RMK PP000=
SPZO Mar2008-022200Z VRB03KT 8000 -DZ VCSH SCT030 OVC070 11/07 Q1026 TEMPO -RA RMK TMAX 13.8 PP002=
SPZO Mar2008-022300Z 06004KT 9000 VCSH SCT033 OVC080 11/07 Q1026 REDZ NOSIG RMK PPTRZ=
SPZO Mar2008-030000Z 08005KT 9999 SCT040 OVC046 10/07 Q1027 RMK PP000=
SPZO Mar2008-030100Z 21002KT 9999 SCT040 BKN046 09/07 Q1028 RMK PP000=
SPZO Mar2008-030200Z 00000KT 9999 SCT040 BKN046 10/07 Q1029 RMK PP000=
SPZO Mar2008-030300Z 00000KT 9999 SCT040 BKN046 10/07 Q1030 RMK PP000=
SPZO Mar2008-030400Z 00000KT 9999 SCT040 BKN046 10/08 Q1030 RMK PP000=
SPZO Mar2008-030500Z 00000KT 9999 SCT040 BKN046 10/07 Q1029 RMK PP000=
SPZO Mar2008-030600Z 00000KT 9999 SCT040 BKN046 09/07 Q1028 RMK PP000=
SPZO Mar2008-030700Z 00000KT 9999 FEW025 SCT040 BKN046 09/07 Q1028 RMK PP000=
SPZO Mar2008-030800Z 000000KT 9999 FEW025 SCT040 BKN046 09/07 Q1027 RMK PP000=
SPZO Mar2008-030900Z 07003KT 9999 FEW025 SCT040 BKN046 09/07 Q1027 RMK PP000=
SPZO Mar2008-031000Z 00000KT 9999 FEW025 SCT040 BKN046 09/07 Q1028 RMK PP000=
SPZO Mar2008-031100Z 00000KT 9999 SCT036 BKN043 09/07 Q1029 NOSIG RMK BCOS.BR CUAD.SW PP000=
SPZO Mar2008-031200Z VRB02KT 9000 SCT030 OVC040 09/08 Q1029 NOSIG RMK=
SPZO Mar2008-031300Z 00000KT 9000 SCT030 SCT040 BKN050 11/08 Q1030 NOSIG RMK WIND RWY 10 00000KT BR PP000=
SPZO Mar2008-031400Z VRB02KT 9000 FEW030 SCT040 BKN050 13/07 Q1030 NOSIG RMK WIND RWY 10 VRB02KT BR PP000=
SPZO Mar2008-031500Z VRB03KT 9999 FEW040 SCT050 BKN060 14/07 Q1030 NOSIG RMK WIND RWY 10 VRB04KT PP000=
SPZO Mar2008-031600Z 08005KT 340V120 9999 FEW040 SCT050 BKN060 15/06 Q1029 NOSIG RMK WIND RWY 10 VRB08KT PP000=
SPZO Mar2008-031700Z VRB03KT 9999 SCT050 BKN060 16/07 Q1028 NOSIG RMK=
SPZO Mar2008-031800Z VRB05KT 9999 FEW046 SCT060 18/05 Q1027 NOSIG RMK=
SPZO Mar2008-031900Z 23013KT 160V280 9999 FEW043TCU SCT046 BKN060 19/07 Q1026 TEMPO VCSH RMK WIND RWY10 24018KT 210V280 PP000=
SPZO Mar2008-032000Z VRB03KT 9999 VCSH FEW043TCU BKN100 17/05 Q1025 NOSIG RMK RWY10 VRB12KT PP000=
SPZO Mar2008-032100Z 35009KT 320V030 9999 FEW043 BKN100 16/06 Q1024 TEMPO=
SPZO Mar2008-032200Z 35008KT 280V030 9999 SCT043 OVC100 15/06 Q1025 NOSIG RMK WIND RWY10 VRB19KT T.MAX.20.1 PP000=
SPZO Mar2008-032300Z 23007KT 290V030 9999 SCT043 OVC100 14/06 Q1026 NOSIG RMK WIND RWY10 VRB13KT PP000=
SPZO Mar2008-040000Z 03006KT 320V090 9999 BKN050 SCT100 14/05 Q1026 RMK PP000=
SPZO Mar2008-040100Z 00000KT 9999 BKN050 SCT100 13/05 Q1028 RMK PP000=
SPZO Mar2008-040200Z 00000KT 9999 BKN050 SCT100 12/06 Q1029 RMK PP000=
SPZO Mar2008-040300Z 00000KT 9999 BKN050 SCT070 12/07 Q1030 RMK PP000=
SPZO Mar2008-040400Z 16005KT 120V200 5000 RA SCT030TCU SCT050 10/06 Q1030 RMK PP016=
SPZO Mar2008-040500Z VRB03KT 5000 +RA SCT030TCU SCT040 09/07 Q1030 RMK PP034=
SPZO Mar2008-040600Z VRB02KT 6000 -RA SCT030TCU BKN040 09/07 Q1029 RMK PP002=
SPZO Mar2008-040700Z 07002KT 8000 SCT030 BKN040 09/07 Q1029 RERA RMK PP002=
SPZO Mar2008-040800Z 00000KT 6000 -RA SCT030 BKN040 09/07 Q1029 RMK PP006=
SPZO Mar2008-040900Z 08004KT 6000 -RA SCT030 BKN040 09/07 Q1029 RMK PPTRZ=
SPZO Mar2008-041000Z 09004KT 7000 -RA FEW030 SCT040 BKN050 08/06 Q1029 RMK PPTRZ=
SPZO Mar2008-041100Z 09004KT 7000 -RA FEW020 SCT040 BKN050 08/06 Q1030 NOSIG RMK BR PP002=
SPZO Mar2008-041115Z 08004KT 7000 -RA FEW025 SCT036 BKN043 08/06 Q1030 CLNG BLW 1200M RMK WIND RWY10 07004KT=
SPZO Mar2008-041200Z 08004KT 050V120 8000 DZ FEW025 SCT036 BKN043 08/06 Q1031 NOSIG RMK CLNG BLW 1200M WIND RWY10 09006KT 360V140 PP010=
SPZO Mar2008-041300Z 24002KT 9000 DZ FEW025 SCT036 BKN043 09/07 Q1031 BCMG FM1340 SCT036 BKN046 RMK CLNG BLW 1200M PP006=
SPZO Mar2008-041326Z 00000KT 9999 VCSH FEW020 SCT036 BKN050 11/07 Q1032 REDZ BCBR CTES NE/SE=
SPZO Mar2008-041400Z VRB03KT 9999 FEW030 SCT036 BKN080 12/07 Q1032 RERA BCMG FM1430 FEW036 SCT043 BKN080 RMK PP000=
SPZO Mar2008-041500Z 11004KT 360V140 9999 FEW036 SCT043 BKN080 14/07 Q1031 NOSIG RMK WIND RWY10 VRB03KT PP000=
SPZO Mar2008-041600Z 10005KT 040V160 9999 VCSH SCT036 BKN050 15/06 Q1031 NOSISG RMK WIND RWY10 12008KT 030V150 PP000=
SPZO Mar2008-041700Z 07002KT 9999 VCSH FEW036TCU SCT040 BKN050 12/07 Q1030 RERA TEMPO -RA RMK WIND RWY10 11016KT 070V150 PP002=
SPZO Mar2008-041710Z 10003KT 070V110 9999 -RA FEW036TCU SCT040 BKN050 12/07 Q1030 RMK WIND RWY10 11016KT 070V150=
SPZO Mar2008-041800Z VRB01KT 9999 SCT040 SCT100 15/09 Q1029 RERA TEMPO=
SPZO Mar2008-041900Z 28006KT 230V330 9999 FEW036TCU SCT043 BKN100 18/08 Q1028 TEMPO VCSH RMK WIND RWY10 32014KT 210V010 PP000=
SPZO Mar2008-042000Z 27015KT 230V300 9999 VCSH FEW040TCU SCT046 BKN100 14/07 Q1027 NOSIG RMK PP000=
SPZO Mar2008-042100Z 25009KT 220V290 9999 VCSH FEW040TCU SCT046 BKN100 14/07 Q1026 NOSIG RMK PP000=
SPZO Mar2008-042200Z 26009KT 9999 FEW040TCU SCT046 BKN100 14/07 Q1026 NOSIG RMK WIND RWY10 28014KT T.MAX.17.9 PP000=
SPZO Mar2008-042300Z 26010KT 9999 VCSH FEW040TCU SCT046 BKN100 13/07 Q1027 NOSIG RMK WIND RWY10 27015KT 240V290 PP000=
SPZO Mar2008-050000Z 26007KT 9999 BKN050 SCT100 12/07 Q1028 RMK PP000=
SPZO Mar2008-050100Z VRB03KT 9999 BKN050 SCT100 11/07 Q1029 RMK PP000=
SPZO Mar2008-050200Z VRB03KT 9999 SCT040 BKN050 11/08 Q1030 RMK PP000=
SPZO Mar2008-050300Z 00000KT 9999 SCT040 BKN050 10/08 Q1030 RMK PP000=
SPZO Mar2008-050400Z 00000KT 9999 SCT040 BKN050 10/06 Q1030 RMK PP000=
SPZO Mar2008-050500Z 00000KT 9999 SCT040 BKN050 10/06 Q1030 RMK PP000=
SPZO Mar2008-050600Z 08006KT 060V120 8000 -RA FEW030 OVC040 09/07 Q1030 RMK PP002=
SPZO Mar2008-050700Z 00000KT 9000 FEW030 OVC040 10/06 Q1029 RERA RMK PPTRZ=
SPZO Mar2008-050800Z 00000KT 9999 FEW030 OVC040 09/06 Q1029 RMK PP000=
SPZO Mar2008-050900Z 00000KT 8000 -RA FEW030 OVC040 09/07 Q1029 RMK PP004=
SPZO Mar2008-051000Z 10002KT 9000 FEW030 OVC040 09/07 Q1029 RERA RMK PPTRZ=
SPZO Mar2008-051100Z 08002KT 9000 -DZ VCSH FEW025 SCT036 BKN043 09/07 Q1029 TEMPO FM1115 TL1200 SCT030 SCT036 BKN043 RMK WIND RWY 10 10004KT PPTRZ=
SPZO Mar2008-051200Z 09002KT 9999 VCSH FEW030 SCT036 BKN046 09/08 Q1030 NOSIG RMK WIND RWY10 11003KT PP000=
SPZO Mar2008-051300Z 07004KT 9999 VCSH FEW030 SCT036 BKN046 10/07 Q1031 TEMPO -DZ RMK WIND RWY10 11008KT PP000=
SPZO Mar2008-051325Z 09003KT 050V120 9999 -RA VCSH SCT020 SCT036 OVC060 10/07 Q1031 RMK CLNG BLW 1200M=
SPZO Mar2008-051400Z VRB02KT 9999 VCSH SCT025 SCT036 OVC060 10/08 Q1031 TEMPO FM1430 FEW025 SCT036 OVC060 RMK CLING BLW 1200M PPTRZ=
SPZO Mar2008-051415Z VRB01KT 9999 -DZ VCSH FEW030 SCT036 BKN060 11/08 Q1031=
SPZO Mar2008-051500Z VRB01KT 9999 SCT030 BKN080 12/07 Q1031 NOSIG RMK=
SPZO Mar2008-051600Z 09007KT 030V140 9999 VCSH FEW030 SCT040 BKN080 14/08 Q1030 NOSIG RMK WIND RWY10 10012KT 040V160 PP000=
SPZO Mar2008-051700Z 06007KT 340V110 9999 VCSH FEW036 SCT040 BKN080 15/09 Q1029 NOSIG RMK WIND RWY10 11014KT 030V160 PP000=
SPZO Mar2008-051800Z VRB05KT 9999 VCSH FEW036TCU SCT040 BKN080 16/08 Q1028 NOSIG RMK WIND RWY10 VRB06KT PP000=
SPZO Mar2008-051900Z 34008KT 250V030 9999 VCSH FEW040 SCT043TCU BKN100 16/07 Q1027 NOSIG RMK WIND RWY10 VRB18G35KT PP000=
SPZO Mar2008-052000Z VRB04KT 9999 VCSH SCT040TCU BKN060 14/09 Q1026 NOSIG RMK WIND RWY10 09015G26KT 020V160 PP000=
SPZO Mar2008-052100Z 01006KT 330V080 9999 VCSH FEW036TCU SCT060 BKN230 15/07 Q1025 NOSIG RMK WIND RWY10 VRB06KT PP000=
SPZO Mar2008-052200Z VRB02KT 9999 FEW036TCU OVC230 15/06 Q1025 NOSIG RMK WIND RWY10 VRB08KT T.MAX.17.2 PP000=
SPZO Mar2008-052300Z VRB05KT 9999 SCT046 OVC230 13/06 Q1025 NOSIG RMK PP000=
SPZO Mar2008-060000Z VRB03KT 9999 BKN050 SCT230 13/06 Q1027 RMK PP000=
SPZO Mar2008-060100Z 00000KT 9999 BKN050 11/06 Q1027 RMK PP000=
SPZO Mar2008-060200Z VRB02KT 9999 BKN050 11/06 Q1029 RMK PP000=
SPZO Mar2008-060300Z 17004KT 140V200 9999 BKN050 12/06 Q1030 RMK PP000=
SPZO Mar2008-060400Z VRB03KT 5000 RA FEW030 SCT040 BKN050 08/06 Q1030 RMK PP026=
SPZO Mar2008-060500Z 05002KT 6000 -RA SCT030 OVC040 08/06 Q1030 RMK PP010=
SPZO Mar2008-060600Z VRB02KT 8000 SCT030 OVC040 08/06 Q1029 RERA RMK PP002=
SPZO Mar2008-060700Z 00000KT 9999 FEW030 OVC040 08/06 Q1028 RMK PP000=
SPZO Mar2008-060800Z 00000KT 9999 FEW030 OVC040 08/06 Q1027 RMK PP000=
SPZO Mar2008-060900Z 10003KT 9999 FEW030 SCT040 BKN050 08/06 Q1027 RMK PP000=
SPZO Mar2008-061000Z 26002KT 9999 FEW030 SCT040 BKN050 08/06 Q1027 RMK PP000=
SPZO Mar2008-061100Z 05003KT 9999 FEW025 SCT036 BKN046 08/06 Q1028 NOSIG RMK PP000=
SPZO Mar2008-061200Z 09003KT 9999 FEW030 SCT040 BKN060 09/06 Q1029 NOSIG RMK WIND RWY10 11006KT PP000=
SPZO Mar2008-061300Z 00000KT 9999 FEW030 SCT040 BKN080 10/07 Q1029 NOSIG RMK PP000=
SPZO Mar2008-061400Z VRB02KT 9999 FEW030 SCT043 BKN100 11/07 Q1029 NOSIG RMK PP000=
SPZO Mar2008-061500Z VRB01KT 9999 SCT043 BKN100 14/07 Q1029 NOSIG RMK=
SPZO Mar2008-061600Z VRB02KT 9999 SCT043 BKN100 15/05 Q1029 NOSIG RMK=
SPZO Mar2008-061700Z 12003KT 040V200 9999 SCT046 SCT100 16/05 Q1027 NOSIG RMK WIND RWY10 VRB05KT PP000=
SPZO Mar2008-061800Z VRB03KT 9999 BKN050 18/07 Q1026 NOSIG RMK WIND RWY 10 VRB10KT PP000=
SPZO Mar2008-061900Z VRB03KT 9999 BKN050 20/07 Q1024 NOSIG RMK WIND RWY 10 VRB10KT PP000=
SPZO Mar2008-062000Z 32005KT 250V040 9999 BKN050 20/06 Q1022 NOSIG RMK=
SPZO Mar2008-062100Z 26010KT 230V290 9999 BKN050 18/05 Q1021 NOSIG RMK PP000=
SPZO Mar2008-062200Z 22005KT 160V250 9999 BKN050 17/05 Q1022 TEMPO VCSH RMK TMAX 20.8 PP000=
SPZO Mar2008-062300Z 32007KT 250V010 9999 VCSH FEW040 BKN050 17/06 Q1022 NOSIG RMK PP000=
SPZO Mar2008-070000Z 09008KT 060V160 8000 TSRA OVC040CB 11/06 Q1024 RMK PPTRZ=
SPZO Mar2008-070100Z 26010KT 210V280 8000 DZ SCT036 OVC040 09/05 Q1026 RMK CLNG BLW 1200M PP004=
SPZO Mar2008-070200Z VRB06KT 8000 -DZ SCT036 OVC040 10/06 Q1028 CLNG BLW 1200M RMK PPTRZ=
SPZO Mar2008-070300Z 16002KT 9999 SCT040 BKN043 10/05 Q1027 RERA RMK PP006=
SPZO Mar2008-070400Z VRB03KT 9999 SCT040 BKN043 10/06 Q1028 RMK PP000=
SPZO Mar2008-070500Z 25004KT 9999 SCT040 BKN043 10/05 Q1028 RMK PP000=
SPZO Mar2008-070600Z 25002KT 9999 SCT040 BKN046 09/05 Q1027 RMK PP000=
SPZO Mar2008-070700Z VRB02KT 9999 SCT040 BKN043 09/06 Q1027 RMK PP000=
SPZO Mar2008-070800Z 28003KT 9999 SCT040 BKN043 09/06 Q1027 RMK PP000=
SPZO Mar2008-070900Z 11002KT 9999 SCT040 BKN046 09/06 Q1027 RMK PP000=
SPZO Mar2008-071000Z 00000KT 9999 -SHRA SCT040 BKN043 09/07 Q1027 RMK PP002=
SPZO Mar2008-071100Z 00000KT 9999 FEW030 SCT040 BKN080 07/05 Q1027 NOSIG RMK PPTRZ=
SPZO Mar2008-071200Z VRB02KT 9999 BKN050 SCT100 08/06 Q1029 NOSIG RMK=
SPZO Mar2008-071300Z VRB02KT 9999 SCT050 SCT100 10/06 Q1029 NOSIG RMK=
SPZO Mar2008-071400Z VRB02KT 9999 SCT050 SCT100 13/05 Q1029 NOSIG RMK=
SPZO Mar2008-071500Z 00000KT 9999 SCT050 SCT080 15/07 Q1029 NOSIG RMK=
SPZO Mar2008-071600Z VRB02KT 9999 SCT050 SCT060 16/06 Q1028 TEMPO -RA RMK WIND RWY 10 VRB05KT PP000=
SPZO Mar2008-071700Z 05004KT 360V110 9999 SCT050 SCT060 16/06 Q1027 TEMPO=
SPZO Mar2008-071800Z VRB04KT 9999 FEW046TCU SCT100 19/04 Q1025 TEMPO=
SPZO Mar2008-071900Z 34015KT 250V010 9999 VCSH SCT046TCU BKN050 16/05 Q1024 TEMPO -RA RMK WIND RWY10 VRB15KT PP000=
SPZO Mar2008-072000Z VRB12KT 9999 VCSH FEW046TCU SCT050 14/04 Q1025 TEMPO RA RMK WIND RWY10 VRB12KT PP000=
SPZO Mar2008-072100Z 25018KT 210V280 9999 VCSH SCT046TCU BKN050 12/06 Q1026 TEMPO -RA RMK WIND RWY10 28013KT 220V340 PP000=
SPZO Mar2008-072200Z 25009KT 180V290 9999 VCSH SCT043 BKN050 12/06 Q1026 RERA TEMPO -RA RMK RA BTN 2130 AND 2135 WIND RWY10 26014KT 220V310 T.MAX.19.4 PP002=
SPZO Mar2008-072300Z 24007KT 210V280 9999 VCSH SCT040 BKN050 11/05 Q1027 NOSIG RMK WIND RWY10 30008KT 240V340 PP000=
SPZO Mar2008-080000Z 28005KT 9999 OVC050 11/06 Q1028 RMK PP000=
SPZO Mar2008-080100Z 08004KT 060V120 8000 -RA FEW030 OVC040 09/07 Q1029 RMK PP002=
SPZO Mar2008-080200Z 08007KT 9000 FEW030 OVC040 09/07 Q1030 RERA RMK PP004=
SPZO Mar2008-080300Z 06005KT 9999 FEW030 OVC040 09/07 Q1030 RMK PP000=
SPZO Mar2008-080400Z 08004KT 9999 FEW030 OVC040 09/07 Q1031 RMK PP000=
SPZO Mar2008-080500Z 00000KT 9999 FEW030 OVC040 09/06 Q1030 RMK PP000=
SPZO Mar2008-080600Z 00000KT 9999 FEW030 OVC040 09/06 Q1030 RMK PP000=
SPZO Mar2008-080700Z VRB03KT 9999 FEW030 OVC040 09/06 Q1029 RMK PP000=
SPZO Mar2008-080800Z 08003KT 9999 FEW030 OVC040 08/06 Q1029 RMK PP000=
SPZO Mar2008-080900Z VRB02KT 9999 FEW030 OVC040 08/06 Q1028 RMK PP000=
SPZO Mar2008-081000Z 00000KT 9999 FEW030 OVC040 08/06 Q1029 RMK PP000=
SPZO Mar2008-081100Z VRB02KT 9999 FEW030 OVC040 08/05 Q1029 NOSIG RMK PP000=
SPZO Mar2008-081127Z 09003KT 060V130 9999 SCT036 BKN050 09/06 Q1030 RMK=
SPZO Mar2008-081200Z 11003KT 070V140 9999 FEW020 SCT036 SCT060 09/06 Q1030 NOSIG RMK WIND RWY10 10005KT 090V160 PP000=
SPZO Mar2008-081300Z 10004KT 030V160 9999 FEW036 SCT036 12/06 Q1031 NOSIG RMK WIND RWY10 13009KT 050V210 PP000=
SPZO Mar2008-081400Z 06004KT 350V120 9999 SCT036TCU SCT050 13/06 Q1031 NOSIG RMK WIND RWY10 VRB06KT PP000=
SPZO Mar2008-081500Z 08004KT 340V120 9999 SCT040TCU BKN050 13/03 Q1031 NOSIG RMK WIND RWY10 15011KT 050V180 PP000=
SPZO Mar2008-081600Z VRB02KT 9999 SCT046TCU BKN050 14/04 Q1031 TEMPO=
SPZO Mar2008-081700Z VRB05KT 9999 FEW046TCU SCT050 16/04 Q1029 NOSIG RMK WIND RWY10 VRB06KT PP000=
SPZO Mar2008-081800Z VRB03KT 9999 FEW043 BKN050 16/04 Q1028 TEMPO VCSH RMK RWY10 VRB06KT PP000=
SPZO Mar2008-081900Z VRB05KT 9999 SCT046 SCT080 16/06 Q1027 NOSIG RMK=
SPZO Mar2008-082000Z 00000KT 9999 FEW046 SCT100 17/03 Q1026 NOSIG RMK PP000=
SPZO Mar2008-082100Z VRB02KT 9999 SCT050 19/02 Q1024 NOSIG RMK WIND RWY10 VRB06KT PP000=
SPZO Mar2008-082200Z VRB02KT 9999 FEW050 18/02 Q1025 NOSIG RMK TMAX 19.5 PP000=
SPZO Mar2008-082300Z 24005KT 210V280 9999 FEW050 16/04 Q1024 NOSIG RMK=
SPZO Mar2008-090000Z 26005KT 220V310 9999 SCT050 12/05 Q1026 RMK PP000=
SPZO Mar2008-090100Z 00000KT 9999 SCT050 13/06 Q1027 RMK PP000=
SPZO Mar2008-090200Z 00000KT 9999 SCT050 12/07 Q1028 RMK PP000=
SPZO Mar2008-090300Z 09003KT 8000 -RA FEW030 OVC040 11/08 Q1029 RMK PP006=
SPZO Mar2008-090400Z 00000KT 9000 FEW030 OVC040 11/08 Q1029 RERA RMK PP002=
SPZO Mar2008-090500Z 00000KT 9999 OVC040 11/08 Q1029 RMK PP000=
SPZO Mar2008-090600Z 24005KT 190V270 9999 OVC040 11/07 Q1029 RMK PP000=
SPZO Mar2008-090700Z VRB03KT 9999 OVC040 11/07 Q1028 RMK PP000=
SPZO Mar2008-090800Z 28005KT 250V340 8000 -RA FEW030 OVC040 11/07 Q1028 RMK PP002=
SPZO Mar2008-090900Z VRB02KT 5000 +RA SCT030TCU OVC040 09/07 Q1029 RMK PP034=
SPZO Mar2008-091000Z 29008KT 8000 SCT030 OVC040 09/06 Q1029 RERA RMK PPTRZ=
SPZO Mar2008-091017Z VRB03KT 9999 SCT040 SCT050 09/06 Q1029=
SPZO Mar2008-091100Z 00000KT 9999 SCT040 BKN060 09/06 Q1029 NOSIG RMK PP000=
SPZO Mar2008-091200Z VRB02KT 9999 SCT036 SCT100 09/07 Q1030 NOSIG RMK PP000=
SPZO Mar2008-091300Z 00000KT 9999 SCT036 BKN230 12/05 Q1030 NOSIG RMK PP000=
SPZO Mar2008-091400Z 00000KT 9999 SCT036 BKN230 13/06 Q1031 NOSIG RMK PP000=
SPZO Mar2008-091415Z 08005KT 050V140 9999 SCT033 SCT040 BKN060 13/07 Q1031=
SPZO Mar2008-091500Z 00000KT 9999 SCT036 BKN050 14/08 Q1031 NOSIG RMK PP000=
SPZO Mar2008-091600Z VRB03KT 9999 SCT040 SCT230 16/06 Q1030 NOSIG RMK=
SPZO Mar2008-091700Z 05003KT 340V130 9999 SCT040 BKN230 16/06 Q1029 NOSIG RMK WIND RWY10 VRB08KT PP000=
SPZO Mar2008-091800Z 23004KT 020V180 9999 SCT046 BKN230 16/06 Q1028 NOSIG RMK WIND RWY10 10009KT 060V140 PP000=
SPZO Mar2008-091900Z 26004KT 160V300 9999 SCT046 BKN230 18/05 Q1027 NOSIG RMK WIND RWY10 VRB06KT PP000=
SPZO Mar2008-092000Z 10010KT 060V160 9999 VCSH FEW046TCU SCT050 BKN230 16/06 Q1026 NOSIG RMK PP000=
SPZO Mar2008-092100Z 09014KT 050V120 9999 FEW046TCU SCT050 BKN230 15/06 Q1026 NOSIG RMK WIND RWY10 10032KT 050V130 PP000=
SPZO Mar2008-092200Z 10012KT 070V140 9999 FEW046 SCT230 15/05 Q1026 NOSIG RMK WIND RWY10 11021KT 070V140 T.MAX.18.7 PP000=
SPZO Mar2008-092300Z 06004KT 360V110 9999 FEW046 SCT230 13/04 Q1027 NOSIG RMK WIND RWY10 VRB07KT PP000=
SPZO Mar2008-100000Z 25008KT 220V280 9999 BKN050 12/06 Q1028 RMK PP000=
SPZO Mar2008-100100Z 27008KT 240V340 9999 BKN050 12/06 Q1029 RMK PP000=
SPZO Mar2008-100200Z 00000KT 9999 BKN050 11/06 Q1029 RMK PP000=
SPZO Mar2008-100300Z VRB02KT 9999 OVC050 11/06 Q1030 RMK PP000=
SPZO Mar2008-100400Z 00000KT 9999 OVC050 11/07 Q1030 RMK PP000=
SPZO Mar2008-100500Z 24004KT 9999 OVC050 11/06 Q1030 RMK PP000=
SPZO Mar2008-100600Z 25004KT 9999 OVC050 10/06 Q1029 RMK PP000=
SPZO Mar2008-100700Z 24005KT 9999 OVC050 10/05 Q1029 RMK PP000=
SPZO Mar2008-100800Z 26005KT 240V340 9999 OVC050 10/05 Q1028 RMK PP000=
SPZO Mar2008-100900Z VRB02KT 9999 OVC050 10/06 Q1028 RMK PP000=
SPZO Mar2008-101000Z 00000KT 9999 BKN050 SCT060 10/06 Q1028 RMK PP000=
SPZO Mar2008-101100Z VRB02KT 9999 BKN050 SCT060 09/07 Q1029 NOSIG RMK PP000=
SPZO Mar2008-101112Z 09002KT 9999 VCSH SCT036 BKN046 10/07 Q1029=
SPZO Mar2008-101133Z 08002KT 9999 -RA SCT036 BKN046 10/07 Q1030 RMK WIND RWY10 10005KT=
SPZO Mar2008-101200Z 08004KT 030V110 9999 VCSH SCT036 BKN046 10/07 Q1030 TEMPO -RA RMK WIND RWY10 11006KT 050V120 PPTRZ=
SPZO Mar2008-101220Z 07002KT 9999 DZ SCT033 BKN046 10/07 Q1030 RMK WIND RWY10 10009KT=
SPZO Mar2008-101300Z 00000KT 9999 VCSH FEW030 BKN046 10/07 Q1031 RERA NOSIG RMK PP004=
SPZO Mar2008-101400Z 22002KT 9999 VCSH FEW030 SCT046 BKN080 12/07 Q1031 NOSIG RMK PP000=
SPZO Mar2008-101500Z 06004KT 340V120 9999 SCT046 BKN100 14/08 Q1031 NOSIG RMK WIND RWY10 VRB08KT PP000=
SPZO Mar2008-101600Z VRB03KT 9999 SCT036 BKN100 16/08 Q1030 NOSIG RMK=
SPZO Mar2008-101700Z VRB09KT 9999 VCSH SCT040TCU BKN050 14/06 Q1030 TEMPO -RA RMK WIND RWY10 VRB13KT PP000=
SPZO Mar2008-101800Z VRB06KT 9000 VCSH FEW033TCU SCT040 BKN050 15/07 Q1028 TEMPO -RA RMK WIND RWY 10 VRB13G24KT PP000=
SPZO Mar2008-101900Z VRB03KT 9000 VCSH FEW033TCU SCT040 BKN050 16/06 Q1027 TEMPO -RA RMK WIND RWY 10 VRB17KT PP000=
SPZO Mar2008-102000Z 24007KT 200V280 9000 VCSH FEW033TCU SCT040 BKN050 16/07 Q1026 NOSIG RMK WIND RWY 10 28015KT 240V320 PP000=
SPZO Mar2008-102100Z 32008KT 250V030 9000 VCSH FEW033TCU SCT040 BKN050 16/06 Q1026 TEMPO -RA RMK PP000=
SPZO Mar2008-102200Z 26009KT 240V340 9999 FEW033 SCT040 BKN050 13/07 Q1026 NOSIG RMK TMAX 16.6 PP000=
SPZO Mar2008-102300Z 26007KT 230V290 9999 FEW033 SCT040 BKN050 12/08 Q1027 TEMPO VCSH RMK PP000=
SPZO Mar2008-110000Z 26007KT 9999 SCT036 BKN050 12/07 Q1027 RMK PP000=
SPZO Mar2008-110100Z 25008KT 240V340 9999 SCT040 BKN050 12/06 Q1028 RMK PP000=
SPZO Mar2008-110200Z 29004KT 9999 SCT040 BKN050 12/06 Q1029 RMK PP000=
SPZO Mar2008-110300Z 08004KT 060V150 9999 SCT040 BKN050 12/06 Q1030 RMK PP000=
SPZO Mar2008-110400Z 07002KT 9999 SCT040 SCT060 11/06 Q1030 RMK PP000=
SPZO Mar2008-110500Z 00000KT 9999 FEW040 SCT050 11/06 Q1030 RMK PP000=
SPZO Mar2008-110600Z 00000KT 9999 FEW040 BKN060 10/06 Q1029 RMK PP000=
SPZO Mar2008-110700Z 19002KT 9999 FEW040 BKN060 10/07 Q1029 RMK PP000=
SPZO Mar2008-110800Z 12003KT 070V210 9999 FEW030 BKN046 11/05 Q1028 RMK PP000=
SPZO Mar2008-110900Z 00000KT 9999 -RA FEW030 BKN043 09/05 Q1028 RMK PP004=
SPZO Mar2008-111000Z VRB02KT 9999 FEW030 BKN043 09/06 Q1028 RERA RMK PP002=
SPZO Mar2008-111100Z 00000KT 9999 SCT036 BKN046 09/06 Q1029 NOSIG RMK PP000=
SPZO Mar2008-111200Z 00000KT 9999 SCT040 SCT050 10/06 Q1030 NOSIG RMK=
SPZO Mar2008-111300Z VRB02KT 9999 SCT040 SCT050 10/06 Q1030 NOSIG RMK=
SPZO Mar2008-111400Z 00000KT 9999 SCT040 SCT050 11/06 Q1031 NOSIG RMK=
SPZO Mar2008-111500Z 00000KT 9999 SCT040 SCT050 12/06 Q1031 TEMPO VCSH RMK WIND RWY 10 00000KT PP000=
SPZO Mar2008-111600Z 00000KT 9999 SCT040 SCT070 13/05 Q1031 TEMPO VCSH RMK WIND RWY 10 00000KT PP000=
SPZO Mar2008-111700Z VRB02KT 9999 SCT040 SCT070 15/06 Q1030 NOSIG RMK=
SPZO Mar2008-111800Z VRB04KT 9999 VCSH SCT040 BKN080 15/06 Q1029 TEMPO -RA RMK WIND RWY10 VRB04KT PP000=
SPZO Mar2008-111900Z 00000KT 9999 SCT040 BKN100 16/06 Q1027 TEMPO VCSH RMK PP000=
SPZO Mar2008-112000Z 26007KT 210V290 9999 VCSH SCT040TCU BKN080 16/07 Q1026 NOSIG RMK WIND RWY10 VRB10KT PP000=
SPZO Mar2008-112100Z VRB02KT 9999 SCT040TCU BKN100 16/06 Q1025 TEMPO=
SPZO Mar2008-112200Z VRB02KT 9999 SCT040TCU BKN100 16/06 Q1024 NOSIG RMK WIND RWY10 VRB05KT T.MAX.17.5 PP000=
SPZO Mar2008-112300Z 34007KT 290V020 9999 SCT040TCU BKN100 15/05 Q1025 NOSIG RMK PP000=
SPZO Mar2008-120000Z 32004KT 270V010 9999 BKN050 SCT100 14/06 Q1026 RMK PP000=
SPZO Mar2008-120100Z 06006KT 9999 OVC050 11/08 Q1028 RMK PP000=
SPZO Mar2008-120200Z 15006KT 100V220 5000 -RA FEW030 OVC040 10/05 Q1029 RMK PPTRZ=
SPZO Mar2008-120300Z 00000KT 6000 -RA FEW020 OVC040 09/06 Q1030 RMK PP004=
SPZO Mar2008-120400Z 31005KT 250V350 9000 FEW020 SCT030 OVC040 09/07 Q1030 RERA RMK PPTRZ=
SPZO Mar2008-120500Z 00000KT 9999 FEW030 OVC040 09/07 Q1030 RMK PP000=
SPZO Mar2008-120600Z 00000KT 9999 OVC040 09/07 Q1029 RMK PP000=
SPZO Mar2008-120700Z 00000KT 9999 OVC040 09/07 Q1028 RMK PP000=
SPZO Mar2008-120800Z 00000KT 9999 OVC040 09/07 Q1028 RMK PP000=
SPZO Mar2008-120900Z 09002KT 9999 OVC040 09/07 Q1028 RMK PP000=
SPZO Mar2008-121000Z VRB02KT 9999 BKN040 SCT046 09/07 Q1028 RMK PP000=
SPZO Mar2008-121100Z 09002KT 8000 VCSH FEW030 SCT040 BKN046 09/07 Q1029 TEMPO 7000 RMK WIND RWY 10 14002KT 100V190 BR PP000=
SPZO Mar2008-121115Z 10003KT 7000 VCSH FEW020 SCT030 BKN040 09/07 Q1030 RMK CLNG BLW 1200M WIND RWY10 10005KT=
SPZO Mar2008-121200Z 06002KT 9000 -RA FEW030 SCT036 BKN046 09/07 Q1030 NOSIG RMK CLNG BLW 1200M WIND RWY10 08004KT PP002=
SPZO Mar2008-121300Z 33004KT 230V010 8000 RA FEW030 SCT036 BKN046 09/06 Q1031 NOSIG RMK PP01 0=
SPZO Mar2008-121336Z 00000KT 9999 FEW033 BKN046 11/07 Q1031 RERA=
SPZO Mar2008-121400Z 00000KT 9999 SCT033 BKN050 11/08 Q1031 NOSIG RMK PP002=
SPZO Mar2008-121500Z 07004KT 350V110 9999 VCSH FEW033 SCT043TCU BKN050 13/06 Q1031 TEMPO -RA RMK PP000=
SPZO Mar2008-121600Z 29005KT 230V340 9999 SCT036 BKN050 15/06 Q1031 TEMPO=
SPZO Mar2008-121700Z VRB08KT 9999 SCT040 BKN100 16/07 Q1030 NOSIG RMK=
SPZO Mar2008-121800Z 31007KT 270V030 9999 SCT040 BKN100 16/04 Q1029 TEMPO=
SPZO Mar2008-121900Z 33009KT 300V050 9999 SCT040 BKN100 16/04 Q1028 NOSIG RMK WIND RWY10 VRB12KT PP000=
SPZO Mar2008-122000Z VRB03KT 9999 SCT040 BKN100 16/04 Q1027 NOSIG RMK=
SPZO Mar2008-122100Z 09013KT 060V160 9999 SCT040 SCT100 15/06 Q1027 NOSIG RMK 10027KT 060V140 PP000=
SPZO Mar2008-122200Z 09007KT 050V150 9999 SCT046 SCT100 16/06 Q1027 NOSIG RMK WIND RWY10 VRB 04KT T.MAX.17.3 PP000=
SPZO Mar2008-122300Z 08007KT 9999 SCT050 13/06 Q1028 NOSIG RMK WIND RWY10 08011KT PP000=
SPZO Mar2008-130000Z VRB02KT 9999 SCT050 12/06 Q1029 RMK PP000=
SPZO Mar2008-130100Z 00000KT 9999 SCT050 11/05 Q1030 RMK PP000=
SPZO Mar2008-130200Z 00000KT 9999 SCT050 10/05 Q1031 RMK PP000=
SPZO Mar2008-130300Z VRB02KT 9999 SCT050 08/05 Q1032 RMK PP000=
SPZO Mar2008-130400Z 00000KT 9999 SCT050 09/05 Q1032 RMK PP000=
SPZO Mar2008-130500Z 00000KT 9999 SCT050 08/05 Q1032 RMK PP000=
SPZO Mar2008-130600Z 00000KT 9999 BKN050 09/06 Q1032 RMK PP000=
SPZO Mar2008-130700Z 08002KT 9999 BKN050 09/06 Q1032 RMK PP000=
SPZO Mar2008-130800Z VRB02KT 9999 BKN050 08/06 Q1031 RMK PP000=
SPZO Mar2008-130900Z 00000KT 9999 BKN050 08/06 Q1031 RMK PP000=
SPZO Mar2008-131000Z 00000KT 9999 OVC050 08/06 Q1031 RMK PP000=
SPZO Mar2008-131100Z VRB02KT 9999 BKN040 SCT100 08/06 Q1032 NOSIG RMK=
SPZO Mar2008-131120Z 15002KT 9999 FEW036 BKN060 08/06 Q1032=
SPZO Mar2008-131200Z 12002KT 9999 FEW036 SCT043 BKN230 08/06 Q1032 NOSIG RMK PP000=
SPZO Mar2008-131300Z 11002KT 9999 FEW036 SCT046 BKN230 10/07 Q1033 NOSIG RMK WIND RWY10 12004KT PP000=
SPZO Mar2008-131400Z 00000KT 9999 FEW036 SCT046 BKN100 13/05 Q1034 NOSIG RMK PP000=
SPZO Mar2008-131500Z VRB02KT 9999 SCT040 BKN100 14/05 Q1033 NOSIG RMK PP000=
SPZO Mar2008-131600Z 00000KT 9999 SCT043 BKN100 15/04 Q1033 NOSIG RMK PP000=
SPZO Mar2008-131700Z VRB02KT 9999 SCT043 BKN100 16/04 Q1032 NOSIG RMK PP000=
SPZO Mar2008-131800Z VRB02KT 9999 SCT046 SCT100 19/04 Q1030 NOSIG RMK=
SPZO Mar2008-131900Z VRB03KT 9999 VCSH SCT046TCU SCT100 19/05 Q1028 NOSIG RMK WIND RWY10 VRB06KT PP000=
SPZO Mar2008-132000Z VRB05KT 9999 VCSH SCT046TCU BKN050 16/05 Q1028 NOSIG RMK WIND RWY10 VRB11KT PP000=
SPZO Mar2008-132100Z 08009KT 050V140 9999 SCT040TCU BKN050 13/07 Q1028 TEMPO -RA RMK WIND RWY10 10016KT 360V110 PP000=
SPZO Mar2008-132200Z 13004KT 060V160 9999 VCSH SCT040 BKN050 11/07 Q1029 NOSIG RMK WIND RWY10 10015KT 060V130 T.MAX.19.8 PP000=
SPZO Mar2008-132300Z 09004KT 060V160 9999 VCSH SCT040 BKN050 11/07 Q1030 NOSIG RMK PP000=
SPZO Mar2008-140000Z 09008KT 060V120 9999 OVC050 10/06 Q1031 RMK PP000=
SPZO Mar2008-140100Z 08006KT 030V110 9999 OVC050 10/06 Q1032 RMK PP000=
SPZO Mar2008-140200Z 08006KT 9999 OVC050 10/06 Q1033 RMK PP000=
SPZO Mar2008-140300Z 09004KT 050V140 9999 OVC050 09/06 Q1033 RMK PP000=
SPZO Mar2008-140400Z 08005KT 8000 -RA FEW030 SCT040 OVC050 09/06 Q1033 RMK PP002=
SPZO Mar2008-140500Z 08006KT 8000 -RA FEW030 SCT040 OVC050 08/06 Q1033 RMK PP002=
SPZO Mar2008-140600Z 07002KT 9000 FEW030 SCT040 OVC050 08/06 Q1032 RERA RMK PP002=
SPZO Mar2008-140700Z 00000LT 8000 -RA FEW020 SCT030 OVC040 08/07 Q1031 RMK PP004=
SPZO Mar2008-140800Z 00000KT 5000 RA FEW020TCU SCT030 OVC040 08/07 Q1031 RMK PP010=
SPZO Mar2008-140900Z 08002KT 5000 -RA SCT020TCU OVC040 08/06 Q1031 RMK PP008=
SPZO Mar2008-141000Z 00000KT 6000 -RA FEW020TCU SCT040 BKN050 08/06 Q1031 RMK PP008=
SPZO Mar2008-141100Z 00000KT 7000 FEW020 SCT040 BKN050 08/06 Q1032 RERA BECMG FM1130 8000 RMK BR PP006=
SPZO Mar2008-141112Z 09002KT 9999 FEW020 SCT036 BKN046 08/06 Q1032 RMK=
SPZO Mar2008-141200Z 09002KT 9999 SCT036 BKN050 08/07 Q1032 NOSIG RMK PP000=
SPZO Mar2008-141300Z 09002KT 9999 SCT036 BKN050 09/06 Q1033 NOSIG RMK PP000=
SPZO Mar2008-141400Z 00000KT 9999 SCT036 BKN050 12/07 Q1033 NOSIG RMK PP000=
SPZO Mar2008-141500Z 00000KT 9999 SCT040 BKN080 14/06 Q1033 NOSIG RMK PP000=
SPZO Mar2008-141600Z VRB02KT 9999 SCT040 NSCT100 14/05 Q1032 NOSIG RMK=
SPZO Mar2008-141700Z 00000KT 9999 SCT040 SCT100 15/06 Q1031 NOSIG RMK=
SPZO Mar2008-141800Z VRB04KT 8000 -RA SCT040 BKN043 11/07 Q1030 TEMPO 7000 RMK RWY10 12010KT PPTRAZ=
SPZO Mar2008-141900Z 15005KT 090V200 6000 -RA SCT036 BKN046 12/07 Q1029 BECMG FM1930 8000 RMK RWY10 13011KT PP010=
SPZO Mar2008-142000Z 09008KT 050V120 7000 -RA SCT033 BKN046 10/07 Q1030 BECMG FM2030 8000 RMK RWY10 11008KT PP010=
SPZO Mar2008-142042Z VRB02KT 9999 DZ 9999 FEW020 SCT040 BKN060 10/07 Q1030=
SPZO Mar2008-142100Z 00000KT 9999 FEW025 SCT040 BKN050 10/07 Q1030 REDZ NOSIG RMK RWY10 VRRB04KT PP008=
SPZO Mar2008-142200Z 00000KT 9999 DZ FEW030 BKN046 10/07 Q1030 NOSIG RMK TMX/16.1 PP002=
SPZO Mar2008-142300Z 30003KT 270V060 9999 SCT040 SCT100 10/07 Q1030 REDZ NOSIG RMK PPTRZ=
SPZO Mar2008-150000Z 09002KT 9999 FEW050 SCT100 09/07 Q1030 RMK PP000=
SPZO Mar2008-150100Z 06002KT 9999 SCT050 08/06 Q1030 RMK PP000=
SPZO Mar2008-150200Z 06002KT 9999 SCT050 08/06 Q1031 RMK PP000=
SPZO Mar2008-150300Z 00000KT 9999 SCT050 07/05 Q1032 RMK PP000=
SPZO Mar2008-150400Z 00000KT 9999 SCT050 06/05 Q1032 RMK PP000=
SPZO Mar2008-150500Z 00000KT 9999 SCT046 06/04 Q1032 RMK PP000=
SPZO Mar2008-150600Z 00000KT 9999 FEW040 SCT046 06/05 Q1031 RMK PP000=
SPZO Mar2008-150700Z 00000KT 9999 FEW040 SCT046 07/05 Q1031 RMK PP000=
SPZO Mar2008-150800Z 05004KT 340V070 9999 FEW040 BKN046 07/06 Q1030 RMK PP000=
SPZO Mar2008-150900Z 00000KT 9999 FEW036 BKN046 07/06 Q1030 RMK PP000=
SPZO Mar2008-151000Z 00000KT 9999 FEW036 BKN046 07/05 Q1031 RMK PP000=
SPZO Mar2008-151100Z 00000KT 9999 SCT036 BKN046 07/05 Q1031 NOSIG RMK BCOS BR CDTE.N/NW PP000=
SPZO Mar2008-151118Z 00000KT 8000 SCT030 SCT040 07/06 Q1032 RMK WIND RWY 10 16004KT 120V190 BR=
SPZO Mar2008-151200Z 00000KT 8000 FEW020 SCT030 BKN040 08/06 Q1032 NOSIG RMK WIND RWY 10 00000KT BR PP000=
SPZO Mar2008-151300Z 00000KT 8000 FEW020 SCT030 BKN060 12/08 Q1033 NOSIG RMK WIND RWY 10 11005KT 360V170 BR PP000=
SPZO Mar2008-151400Z 05005KT 010V080 9999 FEW030 SCT040 BKN060 11/07 Q1033 NOSIG RMK WIND RWY 10 VRB08KT PP000=
SPZO Mar2008-151500Z VRB02KT 9999 FEW040 SCT050 BKN060 13/05 Q1033 NOSIG RMK WIND RWY 10 VRB04KT PP000=
SPZO Mar2008-151600Z VRB02KT 9999 FEW040 SCT050 BKN060 16/03 Q1032 NOSIG RMK WIND RWY 10 VRB07KT PP000=
SPZO Mar2008-151700Z VRB03KT 9999 SCT050 SCT060 18/02 Q1031 NOSIG RMK=
SPZO Mar2008-151800Z 31008KT 250V060 RMK PP000=
SPZO Mar2008-151900Z VRB03KT 9999 SCT050 20/02 Q1027 NOSIG RMK WIND RWY10 VRB11KT PP000=
SPZO Mar2008-152000Z VRB07KT 9999 FEW046TCU SCT050 20/04 Q1026 TEMPO=
SPZO Mar2008-152100Z 24003KT 9999 FEW046TCU SCT050 19/04 Q1026 TEMPO -RA RMK WIND RWY10 VRBL 07KT RMK PP000=
SPZO Mar2008-152200Z 35007KT 300V050 9999 FEW046TCU SCT050 17/06 Q1026 NOSIG RMK WIND RWY 10 VRB09 T. MAX 20.8 PP000=
SPZO Mar2008-152235Z VRB05KT 9999 -TSRA FEW043CB BKN050 14/04 Q1027=
SPZO Mar2008-152300Z VRB02KT 9999 TS VCSH FEW043CB BKLN050 14/04 Q1027 NOSIG RMK PPTRZ=
SPZO Mar2008-160000Z VRB02KT 9999 OVC050 13/06 Q1028 RETSRA RMK PP002=
SPZO Mar2008-160100Z VRB01KT 9999 OVC050 13/05 Q1030 RMK PP000=
SPZO Mar2008-160200Z 10005KT 050V160 9999 BKN050 11/04 Q1031 RMK PP000=
SPZO Mar2008-160300Z 29003KT 9999 BKN050 08/05 Q1031 RMK PP000=
SPZO Mar2008-160400Z 00000KT 9999 BKN050 08/05 Q1032 RMK PP000=
SPZO Mar2008-160500Z 00000KT 9999 SCT050 07/05 Q1031 RMK PP000=
SPZO Mar2008-160600Z 27003KT 9999 SCT050 07/04 Q1031 RMK PP000=
SPZO Mar2008-160700Z 05002KT 9999 FEW050 07/04 Q1031 RMK PP000=
SPZO Mar2008-160800Z 05002KT 9999 FEW050 06/04 Q1031 RMK PP000=
SPZO Mar2008-160900Z 00000KT 9999 FEW050 05/03 Q1031 RMK PP000=
SPZO Mar2008-161000Z 09002KT 9999 FEW050 05/03 Q1031 RMK PP000=
SPZO Mar2008-161100Z 00000KT 9999 FEW046 05/03 Q1032 NOSIG RMK PP000=
SPZO Mar2008-161200Z VRB02KT 9999 SKC 07/04 Q1033 NOSIG RMK PP000=
SPZO Mar2008-161300Z VRB01KT 9999 FEW043 11/05 Q1033 NOSIG RMK PP000=
SPZO Mar2008-161400Z VRB02KT 9999 FEW050 13/06 Q1033 NOSIG RMK PP000=
SPZO Mar2008-161500Z VRB02KT 9999 FEW050 15/03 Q1033 NOSIG RMK PP000=
SPZO Mar2008-161600Z VRB03KT 9999 FEW040 SCT050 17/05 Q1032 NOSIG RMK PP000=
SPZO Mar2008-161700Z VRB04KT 9999 SCT050 19/02 Q1031 NOSIG RMK PP000=
SPZO Mar2008-161800Z VRB04KT 9999 SCT050 20/04 Q1029 NOSIG RMK WIND RWY 10 VRB13KT PP000=
SPZO Mar2008-161900Z VRB04KT 9999 SCT050 20/01 Q1028 NOSIG RMK WIND RWY 10 VRB04KT PP000=
SPZO Mar2008-162000Z VRB04KT 9999 SCT050 21/05 Q1027 NOSIG RMK WIND RWY 10 VRB04KT PP000=
SPZO Mar2008-162100Z 35008KT 250V050 9999 SCT050 21/04 Q1026 NOSIG RMK PP000=
SPZO Mar2008-162200Z 35010KT 320V030 9999 FEW050 19/04 Q1026 NOSIG RMK TMAX 21.8 PP000=
SPZO Mar2008-162300Z 09010KT 9999 FEW050 16/05 Q1027 NOSIG RMK PP000=
SPZO Mar2008-170000Z VRB02KT 9999 SKC 15/05 Q1028 RMK PP000=
SPZO Mar2008-170100Z 09003KT 060V130 9999 SKC 12/06 Q1029 RMK PP000=
SPZO Mar2008-170200Z 00000KT 9999 SKC 11/06 Q1030 RMK PP000=
SPZO Mar2008-170300Z 25004KT 9999 SKC 10/06 Q1031 RMK PP000=
SPZO Mar2008-170400Z 07004KT 9999 SKC 09/06 Q1032 RMK PP000=
SPZO Mar2008-170500Z VRB02KT 9999 FEW060 09/05 Q1032 RMK PP000=
SPZO Mar2008-170600Z 08003KT 9999 FEW060 08/05 Q1031 RMK PP000=
SPZO Mar2008-170700Z 00000KT 9999 SCT050 09/06 Q1031 RMK PP000=
SPZO Mar2008-170800Z 00000KT 9999 FEW050N06/04 Q1031 RMK PP000=
SPZO Mar2008-170900Z 00000KT 9999 FEW050 07/04 Q1031 RMK PP000=
SPZO Mar2008-171000Z 27003KT 210V310 9999 FEW050 06/04 Q1031 RMK PP000=
SPZO Mar2008-171100Z 05002KT 9999 FEW046 SCT230 06/04 Q1031 NOSIG RMK=
SPZO Mar2008-171200Z 10001KT 9999 FEW040 SCT050 08/05 Q1032 NOSIG RMK WIND RWY 10 VRB02KT PP000=
SPZO Mar2008-171216Z 00000KT 9999 SCT040 BKN050 09/06 Q1033 RMK WIND RWY 10 00000KT=
SPZO Mar2008-171300Z 00000KT 9999 SCT040 SCT050 11/06 Q1033 TEMPO SCT050 RMK WIND RWY 10 00000KT PP000=
SPZO Mar2008-171400Z VRB03KT 9999 SCT050 14/07 Q1033 NOSIG RMK WIND RWY 10 VRB05KT PP000=
SPZO Mar2008-171500Z VRB04KT 9999 SCT050 16/03 Q1032 NOSIG RMK WIND RWY 10 VRB04KT PP000=
SPZO Mar2008-171600Z 11004KT 050V170 9999 SCT050 18/02 Q1031 NOSIG RMK 12010KT 050V200 PP000=
SPZO Mar2008-171700Z VRB02KT 9999 SCT050 19/02 Q1030 NOSIG RMK WIND RWY 10 VRB06KT PP000=
SPZO Mar2008-171800Z VRB04KT 9999 SCT050 20/03 Q1028 NOSIG RMK PP000=
SPZO Mar2008-171900Z VRB04KT 9999 SCT050 21/01 Q1027 NOSIG RMK PP000=
SPZO Mar2008-172000Z VRB03KT 9999 SCT050 21/02 Q1025 NOSIG RMK PP000=
SPZO Mar2008-172100Z 00000KT 9999 FEW050 21/01 Q1025 NOSIG RMK PP000=
SPZO Mar2008-172200Z VRB02KT 9999 FEW050 20/01 Q1024 NOSIG RMK T.MAX 21.7 PP000=
SPZO Mar2008-172300Z 08005KT 9999 SKC 17/05 Q1024 NOSIG RMK PP000=
SPZO Mar2008-180000Z 06007KT 020V120 9999 SKC 15/05 Q1026 RMK PP000=
SPZO Mar2008-180100Z VRB06KT 9999 SKC 14/05 Q1028 RMK PP000=
SPZO Mar2008-180200Z 10005KT 060V160 9999 SKC 12/05 Q1030 RMK PP000=
SPZO Mar2008-180300Z 00000KT 9999 FEW050 12/05 Q1030 RMK PP000=
SPZO Mar2008-180400Z 00000KT 9999 FEW050 12/06 Q1031 RMK PP000=
SPZO Mar2008-180500Z VRB02KT 9999 SCT050 12/05 Q1031 RMK PP000=
SPZO Mar2008-180600Z VRB02KT 9999 SCT050 12/05 Q1030 RMK PP000=
SPZO Mar2008-180700Z VRB02KT 9999 SCT050 11/06 Q1029 RMK PP000=
SPZO Mar2008-180800Z VRB02KT 9999 SCT050 09/04 Q1029 RMK PP000=
SPZO Mar2008-180900Z 00000KT 9999 SCT050 08/05 Q1030 RMK PP000=
SPZO Mar2008-181000Z 00000KT 9999 SCT050 07/04 Q1030 RMK PP000=
SPZO Mar2008-181100Z 06004KT 9999 SCT040 SCT050 07/05 Q1031 NOSIG RMK=
SPZO Mar2008-181200Z VRB02KT 9999 FEW036 SCT043 BKN050 08/05 Q1031 NOSIG RMK PP000=
SPZO Mar2008-181300Z 00000KT 9999 VCSH FEW036 SCT043 BKN050 09/06 Q1033 TEMPO NSW RMK PP000=
SPZO Mar2008-181400Z VRB06KT 9999 VCSH SCT043 BKN046 10/05 Q1033 NOSIG RMK PP000=
SPZO Mar2008-181500Z VRB05KT 9999 FEW036 SCT100 13/05 Q1032 NOSIG RMK PP000=
SPZO Mar2008-181600Z 00000KT 9999 SCT040 SCT100 15/04 Q1032 NOSIG RMK PP000=
SPZO Mar2008-181700Z /////KT 9999 SCT046 15/04 Q1031 NOSIG RMK WIND RWY10 06013G26KT 360V150 PP000=
SPZO Mar2008-181712Z /////KT 9999 VCSH SCT046 BKN080 15/05 Q1030 RMK=
SPZO Mar2008-181800Z /////KT 9999 SCT046 SCT100 16/04 Q1030 NOSIG RMK=
SPZO Mar2008-181900Z /////KT 9999 FEW046 SCT300 18/03 Q1028 NOSIG RMK RWY10 VRB15KT PP000=
SPZO Mar2008-182000Z /////KT 9999 FEW046 SCT230 18/02 Q1026 NOSIG RMK=
SPZO Mar2008-182100Z 33011KT 290V010 9999 FEW046 SCT230 18/01 Q1026 NOSIG RMK WIND RWY10 VRB17KT PP000=
SPZO Mar2008-182200Z 36009KT 300V050 9999 FEW050 SCT230 17/01 Q1026 NOSIG RMK WIND RWY10 VRB15KT T.MAX.18.5 PP000=
SPZO Mar2008-182300Z 26013KT 310V040 9999 SCT230 15/02 Q1026 NOSIG RMK=
SPZO Mar2008-190000Z 01012KT 330V040 9999 FEW040 SCT100 13/01 Q1027 RMK PP000=
SPZO Mar2008-190100Z 34006KT 280V030 9999 FEW046 SCT100 13/02 Q1029 RMK PP000=
SPZO Mar2008-190200Z VRB02KT 9999 FEW050 SCT100 11/03 Q1030 RMK PP000=
SPZO Mar2008-190300Z 36004KT 9999 SCT046 SCT100 12/04 Q1030 RMK PP000=
SPZO Mar2008-190400Z 00000KT 9999 SCT040 SCT080 11/04 Q1031 RMK PP000=
SPZO Mar2008-190500Z VRB02KT 9999 SCT040 SCT070 10/04 Q1031 RMK PP000=
SPZO Mar2008-190600Z 00000KT 9999 SCT036 SCT050 10/04 Q1030 RMK PP000=
SPZO Mar2008-190700Z 00000KT 9999 SCT040 SCT046 10/04 Q1029 RMK PP000=
SPZO Mar2008-190800Z 00000KT 9999 FEW040 SCT046 08/05 Q1029 RMK PP000=
SPZO Mar2008-190900Z 00000KT 9999 SCT040 SCT050 09/05 Q1029 RMK PP000=
SPZO Mar2008-191000Z VRB01KT 9999 SCT040 SCT050 08/05 Q1030 RMK PP000=
SPZO Mar2008-191100Z 12002KT 9999 SCT040 SCT050 08/05 Q1030 NOSIG RMK PP000=
SPZO Mar2008-191200Z 06003KT 010V090 9999 SCT046 BKN060 09/05 Q1031 NOSIG RMK WIND RWY10 12005KT PP000=
SPZO Mar2008-191300Z 00000KT 9999 SCT043 BKN050 11/05 Q1031 NOSIG RMK PP000=
SPZO Mar2008-191400Z VRB02KT 9999 SCT040 BKN050 13/05 Q1032 NOSIG RMK PP000=
SPZO Mar2008-191500Z VRB02KT 9999 SCT043 BKN050 14/05 Q1032 TEMPO VCSH RMK WIND RWY10 VRB07KT PP000=
SPZO Mar2008-191600Z VRB04KT 9999 VCSH SCT043 BKN050 15/04 Q1031 NOSIG RMK WIND RWY10 VRB13KT PP000=
SPZO Mar2008-191700Z VRB02KT 9999 VCSH SCT043 BKN050 15/04 Q1030 NOSIG RMK PP000=
SPZO Mar2008-191800Z VRB03KT 9999 SCT040 SCT050 17/04 Q1029 NOSIG RMK WIND RWY 10 VRB13G28KT PP000=
SPZO Mar2008-191900Z 35008KT 290V070 9999 SCT040 SCT050 17/06 Q1027 TEMPO=
SPZO Mar2008-192000Z 08012KT 050V120 9000 VCSH SCT040 SCT050 14/06 Q1027 TEMPO -RA RMK WIND RWY 10 12020G34KT 030V170 PP000=
SPZO Mar2008-192038Z 16006KT 120V200 7000 -RA VCSH FEW030 SCT040 BKN050 13/07 Q1027=
SPZO Mar2008-192100Z VRB05KT 8000 -RA VCSH FEW030 SCT040 BKN050 12/07 Q1027 NOSIG RMK PP018=
SPZO Mar2008-192116Z VRB01KT 9000 VCSH FEW030 SCT040 BKN050 13/07 Q1027 RERA=
SPZO Mar2008-192200Z VRB02KT 9999 SCT040 SCT050 13/06 Q1027 NOSIG RMK TMAX 19.0 PPTRZ=
SPZO Mar2008-192300Z 08004KT 9999 FEW040 SCT050 12/07 Q1028 NOSIG RMK PP000=
SPZO Mar2008-200000Z 11003KT 9999 SCT040 SCT050 12/06 Q1029 RMK PP000=
SPZO Mar2008-200100Z 27003KT 9999 SCT200 10/06 Q1029 RMK PP000=
SPZO Mar2008-200200Z 00000KT 9999 FEW230 09/05 Q1030 RMK PP000=
SPZO Mar2008-200300Z 00000KT 9999 FEW230 08/06 Q1031 RMK PP000=
SPZO Mar2008-200400Z VRB02KT 9999 FEW230 08/05 Q1031 RMK PP000=
SPZO Mar2008-200500Z 08002KT 9999 FEW040 BKN100 07/05 Q1031 RMK PP000=
SPZO Mar2008-200600Z 08003KT 9999 SCT040 BKN100 09/06 Q1031 RMK PP000=
SPZO Mar2008-200700Z 06004KT 050V120 9999 FEW040 08/05 Q1030 RMK PP000=
SPZO Mar2008-200800Z 00000KT 9999 FEW040 07/05 Q1030 RMK PP000=
SPZO Mar2008-200900Z 06002KT 9999 FEW040 06/04 Q1030 RMK PP000=
SPZO Mar2008-201000Z 08002KT 9999 FEW040 05/04 Q1030 RMK PP000=
SPZO Mar2008-201100Z 00000KT 9999 FEW040 05/03 Q1031 NOSIG RMK PP000=
SPZO Mar2008-201200Z 09002KT 9999 SCT046 06/05 Q1032 NOSIG RMK PP000=
SPZO Mar2008-201300Z VRB01KT 9999 FEW040 SCT050 11/05 Q1032 NOSIG RMK PP000=
SPZO Mar2008-201400Z VRB02KT 9999 FEW040 SCT050 14/06 Q1032 NOSIG RMK PP000=
SPZO Mar2008-201500Z VRB02KT 9999 SCT050 16/05 Q1032 NOSIG RMK PP000=
SPZO Mar2008-201600Z VRB04KT 9999 SCT050 17/02 Q1031 NOSIG RMK PP000=
SPZO Mar2008-201700Z 00000KT 9999 SCT050 17/02 Q1030 NOSIG RMK PP000=
SPZO Mar2008-201800Z VRB03KT 9999 SCT050 17/03 Q1029 NOSIG RMK WIND RWY 10 VRB06KT PP000=
SPZO Mar2008-201900Z 36012KT 320V070 9999 SCT050 19/02 Q1027 NOSIG RMK=
SPZO Mar2008-202000Z 35012KT 310V030 9999 SCT050 20/03 Q1026 NOSIG RMK PP000=
SPZO Mar2008-202100Z 36010KT 310V050 9999 FEW050 19/03 Q1026 NOSIG RMK PP000=
SPZO Mar2008-202200Z 01012KT 330V050 9999 FEW050 18/02 Q1026 NOSIG RMK TMAX 19.9 PP000=
SPZO Mar2008-202300Z 36015KT 300V070 9999 FEW050 14/02 Q1027 NOSIG RMK PP000=
SPZO Mar2008-210000Z 00000KT 9999 FEW050 13/02 Q1028 RMK PP000=
SPZO Mar2008-210100Z VRB03KT 9999 FEW100 13/02 Q1030 RMK PP000=
SPZO Mar2008-210200Z VRB02KT 9999 FEW100 10/03 Q1031 RMK PP000=
SPZO Mar2008-210300Z 00000KT 9999 FEW050 BKN100 09/03 Q1032 RMK PP000=
SPZO Mar2008-210400Z 00000KT 9999 SCT050 BKN100 08/03 Q1032 RMK PP000=
SPZO Mar2008-210500Z 00000KT 9999 SCT050 BKN100 08/03 Q1032 RMK PP000=
SPZO Mar2008-210600Z 00000KT 9999 SCT050 BKN100 06/03 Q1032 RMK PP000=
SPZO Mar2008-210700Z 00000KT 9999 SCT050 BKN100 06/03 Q1032 RMK PP000=
SPZO Mar2008-210800Z 00000KT 9999 SCT046 BKN100 06/03 Q1031 RMK PP000=
SPZO Mar2008-210900Z 00000KT 9999 SCT040 BKN100 06/03 Q1031 RMK PP000=
SPZO Mar2008-211000Z 00000KT 9999 SCT040 BKN100 05/03 Q1031 RMK PP000=
SPZO Mar2008-211100Z 00000KT 9999 SCT040 BKN230 05/03 Q1032 NOSIG RMK PP000=
SPZO Mar2008-211200Z 00000KT 9999 SCT050 SCT230 08/04 Q1033 NOSIG RMK=
SPZO Mar2008-211300Z VRB03KT 9999 SCT050 SCT230 10/05 Q1033 NOSIG RMK=
SPZO Mar2008-211400Z VRB02KT 9999 SCT043 BKN150 12/04 Q1034 NOSIG RMK PP000=
SPZO Mar2008-211500Z 02004KT 310V080 9999 BKN050 SCT230 13/03 Q1034 NOSIG RMK WIND RWY 10 VRB18G30KT PP000=
SPZO Mar2008-211600Z 31008KT 240V050 9999 SCT050 SCT230 15/03 Q1033 NOSIG RMK WIND RWY 10 VRB12G22KT PP000=
SPZO Mar2008-211700Z 32006KT 250V060 9999 SCT050 SCT230 16/04 Q1032 NOSIG RMK WIND RWY 10 VRB08KT PP000=
SPZO Mar2008-211800Z VRB04KT 9999 FEW050 BKN230 17/03 Q1030 NOSIG RMK PP000=
SPZO Mar2008-211900Z 32006KT 250V020 9999 FEW050 BKN230 17/02 Q1029 NOSIG RMK PP000=
SPZO Mar2008-212000Z VRB04KT 9999 FEW050 SCT230 19/03 Q1027 NOSIG RMK PP000=
SPZO Mar2008-212100Z VRB03KT 9999 FEW050 19/00 Q1026 NOSIG RMK PP000=
SPZO Mar2008-212200Z 36008KT 320V030 9999 FEW230 18/00 Q1026 NOSIG RMK TMAX 19.3 PP000=
SPZO Mar2008-212300Z 36010KT 330V030 9999 FEW230 16/M02 Q1026 NOSIG RMK PP000=
SPZO Mar2008-220000Z 36014KT 330V040 9999 SKC 14/M02 Q1027 RMK PP000=
SPZO Mar2008-220100Z VRB04KT 9999 SKC 13/M01 Q1029 RMK PP000=
SPZO Mar2008-220200Z VRB02KT 9999 SKC 09/01 Q1030 RMK PP000=
SPZO Mar2008-220300Z 07004KT 9999 FEW050 09/02 Q1031 RMK PP000=
SPZO Mar2008-220400Z 00000KT 9999 FEW050 10/03 Q1031 RMK PP000=
SPZO Mar2008-220500Z VRB01KT 9999 SCT050 10/04 Q1031 RMK PP000=
SPZO Mar2008-220600Z 00000KT 9999 BKN050 10/04 Q1030 RMK PP000=
SPZO Mar2008-220700Z 07005KT 9999 OVC050 09/05 Q1030 RMK PP000=
SPZO Mar2008-220800Z 08003KT 9999 OVC050 08/05 Q1030 RMK PP000=
SPZO Mar2008-220900Z 00000KT 9999 OVC050 08/04 Q1030 RMK PP000=
SPZO Mar2008-221000Z 00000KT 9999 SCT040 SCT050 07/04 Q1030 RMK PP000=
SPZO Mar2008-221024Z 00000KT 9999 FEW040 SCT050 BKN230 07/04 Q1030=
SPZO Mar2008-221100Z VRB02KT 9999 FEW050 BKN230 07/04 Q1031 NOSIG RMK=
SPZO Mar2008-221200Z VRB02KT 9999 FEW060 SCT230 10/05 Q1032 NOSIG RMK PP000=
SPZO Mar2008-221300Z VRB02KT 9999 FEW043 BKN230 13/04 Q1032 NOSIG RMK PP000=
SPZO Mar2008-221400Z VRB03KT 9999 FEW050 SCT230 14/04 Q1032 NOSIG RMK PP000=
SPZO Mar2008-221500Z VRB03KT 9999 SCT050 16/04 Q1032 NOSIG RMK PP000=
SPZO Mar2008-221600Z 09004KT 010V130 9999 SCT050 16/02 Q1031 NOSIG RMK PP000=
SPZO Mar2008-221700Z 36010KT 300V060 9999 SCT050 18/02 Q1030 NOSIG RMK=
SPZO Mar2008-221800Z 25010KT 300V050 9999 SCT050 18/M01 Q1029 NOSIG RMK=
SPZO Mar2008-221900Z 35009KT 300V030 9999 SCT050 19/02 Q1027 NOSIG RMK=
SPZO Mar2008-222000Z VRB10KT 9999 SCT050 19/02 Q1026 NOSIG RMK WIND RWY10 VRB14KT PP000=
SPZO Mar2008-222100Z 01011KT 320V050 9999 SCT050 19/01 Q1025 NOSIG RMK=
SPZO Mar2008-222200Z 36008KT 9999 FEW050 SCT230 18/02 Q1025 NOSIG RMK=
SPZO Mar2008-222300Z 34008KT 9999 FEW050 SCT230 16/03 Q1025 RMK PP000=
SPZO Mar2008-230000Z 03011KT 350V070 9999 FEW050 14/02 Q1028 RMK PP000=
SPZO Mar2008-230100Z VRB02KT 9999 FEW050 12/03 Q1029 RMK PP000=
SPZO Mar2008-230200Z VRB02KT 9999 FEW050 11/03 Q1030 RMK PP000=
SPZO Mar2008-230300Z VRB03KT 9999 FEW050 09/03 Q1031 RMK PP000=
SPZO Mar2008-230400Z 00000KT 9999 FEW050 07/03 Q1031 RMK PP000=
SPZO Mar2008-230500Z VRB03KT 9999 SKC 07/03 Q1031 RMK PP000=
SPZO Mar2008-230600Z 00000KT 9999 SKC 07/03 Q1031 RMK PP000=
SPZO Mar2008-230700Z 00000KT 9999 SKC 06/03 Q1031 RMK PP000=
SPZO Mar2008-230800Z 00000KT 9999 FEW050 SCT100 06/03 Q1031 RMK PP000=
SPZO Mar2008-230900Z 00000KT 9999 FEW050 SCT100 05/02 Q1031 RMK PP000=
SPZO Mar2008-231000Z 07003KT 9999 FEW040 BKN230 05/03 Q1031 RMK PP000=
SPZO Mar2008-231100Z 25002KT 9999 FEW040 SCT050 BKN230 05/03 Q1032 NOSIG RMK PP000=
SPZO Mar2008-231200Z 07002KT 9999 FEW040 SCT050 BKN200 07/04 Q1032 NOSIG RMK PP000=
SPZO Mar2008-231300Z 00000KT 9999 FEW043 BKN230 10/04 Q1033 NOSIG RMK PP000=
SPZO Mar2008-231400Z 00000KT 9999 FEW043 OVC230 13/03 Q1033 NOSIG RMK PP000=
SPZO Mar2008-231500Z 00000KT 9999 SCT043 BKN100 15/04 Q1033 NOSIG RMK PP000=
SPZO Mar2008-231600Z VRB2KT 9999 SCT043 BKN100 15/04 Q1032 TEMPO VCSH RMK PP000=
SPZO Mar2008-231700Z VRB07KT 9999 SCT043 BKN100 17/04 Q1031 TEMPO VCSH RMK WIND RWY10 VRB11KT PP000=
SPZO Mar2008-231800Z 34008KT 280V020 9999 SCT050 SCT100 17/03 Q1029 NOSIG RMK WIND RWY 10 06016G29KT 360V120 PP000=
SPZO Mar2008-231900Z 35009KT 290V030 9999 SCT050 SCT100 19/03 Q1028 NOSIG RMK WIND RWY 10 08009KT 010V170 PP000=
SPZO Mar2008-232000Z 34007KT 260V060 9999 SCT050 SCT100 19/04 Q1027 NOSIG RMK PP000=
SPZO Mar2008-232100Z VRB05KT 9999 SCT050 SCT100 20/02 Q1026 NOSIG RMK PP000=
SPZO Mar2008-232200Z 36008KT 330V070 9999 SCT050 SCT100 17/03 Q1027 NOSIG RMK TMAX 19.7 PP000=
SPZO Mar2008-232300Z VRB03KT 9999 SCT050 SCT100 15/04 Q1028 NOSIG RMK PP000=
SPZO Mar2008-240000Z 03003KT 340V070 9999 SCT046 BKN100 14/04 Q1030 RMK PP000=
SPZO Mar2008-240100Z 00000KT 9999 SCT046 BKN100 13/04 Q1031 RMK PP000=
SPZO Mar2008-240200Z 00000KT 9999 FEW043 SCT100 12/05 Q1031 RMK PP000=
SPZO Mar2008-240300Z 00000KT 9999 SCT100 11/05 Q1032 RMK PP000=
SPZO Mar2008-240400Z 00000KT 9999 SCT100 10/05 Q1033 RMK PP000=
SPZO Mar2008-240500Z 00000KT 9999 SCT050 SCT100 09/05 Q1033 RMK PP000=
SPZO Mar2008-240600Z 00000KT 9999 SCT050 SCT100 09/05 Q1032 RMK PP000=
SPZO Mar2008-240700Z 08002KT 9999 SCT046 BKN100 09/05 Q1032 RMK PP000=
SPZO Mar2008-240800Z 00000KT 9999 SCT046 BKN100 08/05 Q1032 RMK PP000=
SPZO Mar2008-240900Z 00000KT 9999 SCT046 BKN100 09/05 Q1031 RMK PP000=
SPZO Mar2008-241000Z 08003KT 060V140 9999 FEW040 SCT100 07/04 Q1032 RMK PP000=
SPZO Mar2008-241100Z 09002KT 9999 FEW040 07/04 Q1032 NOSIG RMK PP000=
SPZO Mar2008-241200Z VRB02KT 9999 SCT046 SCT060 07/05 Q1033 NOSIG RMK PP000=
SPZO Mar2008-241300Z VRB01KT 9999 FEW036 SCT043 BKN046 11/06 Q1034 NOSIG RMK PP000=
SPZO Mar2008-241400Z VRB01KT 9999 FEW040 SCT046 BKN100 13/06 Q1034 NOSIG RMK PP000=
SPZO Mar2008-241500Z VRB02KT 9999 FEW040 SCT050 BKN100 16/03 Q1034 NOSIG RMK PP000=
SPZO Mar2008-241600Z VRB02KT 9999 FEW043 BKN050 17/06 Q1033 NOSIG RMK RWY10 VRB06KT PP000=
SPZO Mar2008-241700Z 35008KT 260V070 9999 FEW043 SCT100 18/03 Q1032 NOSIG RMK PP000=
SPZO Mar2008-241800Z 01012KT 320V070 9999 VCSH SCT040 SCT100 18/04 Q1030 NOSIG RMK WIND RWY 10 05019G29KT 320V140 PP000=
SPZO Mar2008-241900Z 36008KT 300V070 9999 SCT050 SCT100 19/05 Q1029 NOSIG RMK WIND RWY 10 01015G25KT 310V090 PP000=
SPZO Mar2008-242000Z VRB07KT 9999 SCT050 SCT100 18/03 Q1028 NOSIG RMK=
SPZO Mar2008-242100Z 34010KT 300V030 9999 SCT050 SCT100 19/04 Q1027 NOSIG RMK PP000=
SPZO Mar2008-242200Z 35010KT 320V030 9999 SCT050 17/03 Q1028 NOSIG RMK TMAX 19.2 PP000=
SPZO Mar2008-242300Z 36013KT 320V040 9999 SCT050 15/04 Q1028 NOSIG RMK PP000=
SPZO Mar2008-250000Z 06009KT 360V100 9999 SCT050 SCT100 14/03 Q1030 RMK PP000=
SPZO Mar2008-250100Z 07005KT 340V090 9999 FEW050 SCT100 13/04 Q1031 RMK PP000=
SPZO Mar2008-250200Z 00000KT 9999 SCT050 SCT100 12/05 Q1033 RMK PP000=
SPZO Mar2008-250300Z 00000KT 9999 SCT050 SCT100 13/05 Q1033 RMK PP000=
SPZO Mar2008-250400Z 00000KT 9999 SCT050 BKN100 11/04 Q1033 RMK PP000=
SPZO Mar2008-250500Z 00000KT 9999 SCT050 BKN100 09/05 Q1033 RMK PP000=
SPZO Mar2008-250600Z 00000KT 9999 SCT050 BKN100 09/05 Q1033 RMK PP000=
SPZO Mar2008-250700Z 00000KT 9999 SCT046 BKN100 09/05 Q1032 RMK PP000=
SPZO Mar2008-250800Z 00000KT 9999 SCT040 BKN100 09/05 Q1032 RMK PP000=
SPZO Mar2008-250900Z 00000KT 9999 SCT040 BKN100 09/05 Q1032 RMK PP000=
SPZO Mar2008-251000Z 00000KT 9999 -RA SCT036 BKN040 09/05 Q1033 RMK PPTRZ=
SPZO Mar2008-251100Z 13002KT 9999 -DZ VCSH SCT036 BKN046 09/06 Q1033 NOSIG RMK PP002=
SPZO Mar2008-251133Z 24003KT 9000 VCSH FEW030 SCT040 BKN050 09/07 Q1034 RMK REDZ=
SPZO Mar2008-251200Z VRB03KT 9000 VCSH FEW030 SCT040 BKN050 10/07 Q1034 NOSIG RMK WIND RWY 10 19005KT 140V260 PP004=
SPZO Mar2008-251300Z VRB03KT 9999 FEW030 SCT040 BKN050 11/07 Q1035 NOSIG RMK WIND RWY 10 VRB03KT PP000=
SPZO Mar2008-251400Z VRB02KT 9999 FEW040 SCT050 BKN060 13/06 Q1035 NOSIG RMK WIND RWY 10 VRB04KT PP000=
SPZO Mar2008-251500Z VRB02KT 9999 FEW040 SCT050 BKN060 15/06 Q1034 NOSIG RMK WIND RWY 10 VRB03KT PP000=
SPZO Mar2008-251600Z VRB02KT 9999 SCT050 SCT100 16/06 Q1034 NOSIG RMK=
SPZO Mar2008-251700Z 34004KT 230V030 9999 SCT050 SCT100 17/05 Q1032 NOSIG RMK WIND RWY 10 06011G21KT 360V140 PP000=
SPZO Mar2008-251800Z VRB03KT 9999 FEW043TCU SCT050 BKN100 17/03 Q1031 TEMPO VCSH RMK WIND RWY10 02015KT 330V080 PP000=
SPZO Mar2008-251900Z VRB05KT 9999 SCT050 SCT100 19/07 Q1030 NOSIG RMK=
SPZO Mar2008-252000Z VRB03KT 9999 FEW040TCU SCT050 21/03 Q1029 TEMPO=
SPZO Mar2008-252100Z 19004KT 130V260 9999 FEW043TCU BKN050 19/03 Q1028 TEMPO VCSH RMK RWY10 28011KT PP000=
SPZO Mar2008-252200Z VRB03KT 9999 FEW040 SCT050 20/04 Q1028 NOSIG RMK T.MAX 21.2 PP000=
SPZO Mar2008-252300Z 35007KT 310V020 9999 SCT050 17/05 Q1029 NOSIG RMK PP000=
SPZO Mar2008-260000Z 29008KT 250V340 9999 SCT050 16/04 Q1029 RMK PP000=
SPZO Mar2008-260100Z 35007KT 320V020 9999 SCT050 15/03 Q1031 RMK PP000=
SPZO Mar2008-260200Z 00000KT 9999 SCT050 13/05 Q1031 RMK PP000=
SPZO Mar2008-260300Z 00000KT 9999 SCT050 11/05 Q1032 RMK PP000=
SPZO Mar2008-260400Z 00000KT 9999 SCT050 09/05 Q1032 RMK PP000=
SPZO Mar2008-260500Z 00000KT 9999 SCT050 09/05 Q1032 RMK PP000=
SPZO Mar2008-260600Z VRB02KT 9999 SCT050 08/05 Q1031 RMK PP000=
SPZO Mar2008-260700Z 00000KT 9999 SCT050 09/05 Q1031 RMK PP000=
SPZO Mar2008-260800Z 00000KT 9999 SCT050 08/05 Q1031 RMK PP000=
SPZO Mar2008-260900Z 00000KT 9999 SCT050 07/04 Q1032 RMK PP000=
SPZO Mar2008-261000Z 00000KT 9999 SCT050 07/04 Q1032 RMK PP000=
SPZO Mar2008-261100Z 08003KT 9999 BKN050 07/05 Q1032 NOSIG RMK PP000=
SPZO Mar2008-261200Z 06004KT 9999 FEW043 SCT050 BKN100 08/05 Q1033 NOSIG RMK PP000=
SPZO Mar2008-261300Z VRB02KT 9999 FEW050 BKN100 11/06 Q1033 NOSIG RMK PP000=
SPZO Mar2008-261400Z VRB02KT 9999 FEW043 SCT230 15/05 Q1033 NOSIG RMK PP000=
SPZO Mar2008-261500Z VRB03KT 9999 FEW043 BKN230 17/04 Q1033 NOSIG RMK PP000=
SPZO Mar2008-261600Z VRB03KT 9999 SCT046 SCT230 18/04 Q1031 NOSIG RMK PP000=
SPZO Mar2008-261700Z VRB03KT 9999 SCT046 SCT060 19/04 Q1030 NOSIG RMK=
SPZO Mar2008-261800Z VRB02KT 9999 SCT046 SCT060 20/03 Q1029 NOSIG RMK=
SPZO Mar2008-261900Z VRB03KT 9999 BKN060 22/04 Q1027 NOSIG RMK RWY10 VRB06KT PP000=
SPZO Mar2008-262000Z VRB07KT 9999 SCT050 22/04 Q1026 NOSIG RMK WIND RWY10 VRB20KT PP000=
SPZO Mar2008-262100Z VRB06KT 9999 SCT050 20/04 Q1025 NOSIG RMK WIND RWY10 VRB11KT PP000=
SPZO Mar2008-262200Z 19003KT 110V220 9999 SCT050 19/06 Q1025 TEMPO VCSH RMK WIND RWY10 VRB15KT T.MAX.22.4 PP000=
SPZO Mar2008-262300Z VRB03KT 9999 SCT050 17/04 Q1026 NOSIG RMK WIND RWY10 VRB10KT PP000=
SPZO Mar2008-270000Z 30005KT 9999 FEW050 15/04 Q1027 RMK PP000=
SPZO Mar2008-270100Z 00000KT 9999 FEW050 13/04 Q1029 RMK PP000=
SPZO Mar2008-270200Z 00000KT 9999 FEW050 SCT100 12/05 Q1029 RMK PP000=
SPZO Mar2008-270300Z VRB03KT 9999 FEW040 SCT100 12/05 Q1030 RMK PP000=
SPZO Mar2008-270400Z 00000KT 9999 FEW043 SCT080 11/05 Q1030 RMK PP000=
SPZO Mar2008-270500Z 00000KT 9999 SCT040 SCT050 10/06 Q1030 RMK PP000=
SPZO Mar2008-270600Z 00000KT 9999 SCT040 SCT050 10/06 Q1030 RMK PP000=
SPZO Mar2008-270700Z 00000KT 9999 SCT036 SCT046 10/05 Q1029 RMK PP000=
SPZO Mar2008-270800Z 00000KT 9999 SCT036 BKN046 09/05 Q1029 RMK PP000=
SPZO Mar2008-270900Z 00000KT 9999 BKN040 SCT080 08/05 Q1029 RMK PP000=
SPZO Mar2008-271000Z VRB01KT 9999 SCT043 SCT080 08/05 Q1029 RMK PP000=
SPZO Mar2008-271100Z 00000KT 9999 SCT043 SCT230 07/04 Q1030 NOSIG RMK PP000=
SPZO Mar2008-271200Z 00000KT 9999 SCT040 BKN050 08/05 Q1030 NOSIG RMK PP000=
SPZO Mar2008-271300Z 25003KT 210V290 9999 FEW043 SCT230 12/07 Q1031 NOSIG RMK WIND RWY10 VRB04KT PP000=
SPZO Mar2008-271400Z 06007KT 020V110 9999 FEW043 SCT230 13/07 Q1031 NOSIG RMK RWY10 11016KT 040V140 PP000=
SPZO Mar2008-271500Z 08007KT 040V150 9999 SCT043 SCT230 15/07 Q1031 NOSIG RMK WIND RWY10 09012KT 040V120 PP000=
SPZO Mar2008-271600Z 09005KT 050V120 9999 SCT043 SCT200 17/05 Q1031 NOSIG RMK WIND RWY10 VRB12KT PP000=
SPZO Mar2008-271700Z VRB03KT 9999 SCT043 SCT200 18/04 Q1029 NOSIG RMK=
SPZO Mar2008-271800Z VRB04KT 9999 SCT050 SCT150 19/03 Q1028 NOSIG RMK=
SPZO Mar2008-271900Z 09006KT 040V210 9999 SCT050 SCT150 19/01 Q1026 NOSIG RMK WIND RWY 10 VRB04KT PP000=
SPZO Mar2008-272000Z 08006KT 050V140 9999 SCT050 SCT150 20/03 Q1025 NOSIG RMK WIND RWY 10 VRB08G20KT PP000=
SPZO Mar2008-272100Z VRB02KT 9999 SCT050 SCT150 21/00 Q1024 NOSIG RMK=
SPZO Mar2008-272200Z 09004KT 050V160 9999 SCT050 SCT150 20/03 Q1024 RMK TMAX 20.9 PP000=
SPZO Mar2008-272300Z 26012KT 9999 SCT050 SCT150 16/04 Q1025 NOSIG RMK PP000=
SPZO Mar2008-280000Z 25007KT 230V320 9999 FEW050 SCT230 15/04 Q1026 RMK PP000=
SPZO Mar2008-280100Z 25004KT 230V330 9999 FEW050 13/M00 Q1027 RMK PP000=
SPZO Mar2008-280200Z 25005KT 9999 SKC 11/03 Q1028 RMK PP000=
SPZO Mar2008-280300Z VRB02KT 9999 SKC 09/02 Q1029 RMK PP000=
SPZO Mar2008-280400Z 00000KT 9999 SKC 09/01 Q1029 RMK PP000=
SPZO Mar2008-280500Z 00000KT 9999 SKC 07/03 Q1029 RMK PP000=
SPZO Mar2008-280600Z 00000KT 9999 SKC 06/02 Q1029 RMK PP000=
SPZO Mar2008-280700Z 00000KT 9999 SKC 06/02 Q1029 RMK PP000=
SPZO Mar2008-280800Z 00000KT 9999 SKC 06/03 Q1029 RMK PP000=
SPZO Mar2008-280900Z 00000KT 9999 FEW040 05/02 Q1029 RMK PP000=
SPZO Mar2008-281000Z 00000KT 9999 FEW040 05/02 Q1030 RMK PP000=
SPZO Mar2008-281100Z 04002KT 9999 SCT046 05/02 Q1030 NOSIG RMK PP000=
SPZO Mar2008-281200Z 16002KT 9999 FEW046 SCT230 06/03 Q1030 NOSIG RMK PP000=
SPZO Mar2008-281300Z 06002KT 9999 FEW050 SCT230 09/03 Q1031 NOSIG RMK PP000=
SPZO Mar2008-281400Z VRB02KT 9999 SCT200 13/04 Q1031 NOSIG RMK PP000=
SPZO Mar2008-281500Z 00000KT 9999 SCT200 16/03 Q1030 NOSIG RMK PP000=
SPZO Mar2008-281600Z VRB03KT 9999 FEW050 WCT200 18/02 Q1029 NOSIG RMK PP000=
SPZO Mar2008-281700Z VRB04KT 9999 FEW050 SCT200 21/03 Q1028 NOSIG RMK=
SPZO Mar2008-281800Z 01005KT 290V080 9999 FEW050 SCT150 22/M01 Q1026 RMK WIND RWY 10 VRB11G21KT PP000=
SPZO Mar2008-281900Z 35010KT 300V040 9999 FEW050 SCT150 22/01 Q1025 NOSIG RMK WIND RWY 10 VRB14G24KT PP000=
SPZO Mar2008-282000Z 36011KT 330V030 9999 FEW050 SCT150 21/00 Q1024 NOSIG RMK WIND RWY 10 VRB16G26KT PP000=
SPZO Mar2008-282100Z 36010KT 320V070 9999 FEW050 SCT150 21/M00 Q1024 NOSIG RMK WIND RWY 10 VRB15G29KT PP000=
SPZO Mar2008-282200Z 36012KT 330V030 9999 FEW050 SCT150 19/02 Q1024 NOSIG RMK WIND RWY 10 VRB17G32KT TMAX 22.2 PP000=
SPZO Mar2008-282300Z 36008KT 320V070 9999 FEW050 SCT150 16/03 Q1025 NOSIG RMK PP000=
SPZO Mar2008-290000Z VRB02KT 9999 FEW050 SCT150 14/04 Q1027 RMK PP000=
SPZO Mar2008-290100Z 00000KT 9999 FEW050 13/04 Q1028 RMK PP000=
SPZO Mar2008-290200Z 00000KT 9999 FEW050 11/05 Q1029 RMK PP000=
SPZO Mar2008-290300Z 00000KT 9999 FEW050 11/05 Q1030 RMK PP000=
SPZO Mar2008-290400Z 00000KT 9999 FEW050 08/04 Q1031 RMK PP000=
SPZO Mar2008-290500Z 16003KT 140V220 9999 FEW046 SCT100 09/04 Q1031 RMK PP000=
SPZO Mar2008-290600Z 00000KT 9999 FEW046 SCT100 09/04 Q1030 RMK PP000=
SPZO Mar2008-290700Z 00000KT 9999 FEW046 SCT100 09/04 Q1030 RMK PP000=
SPZO Mar2008-290800Z 00000KT 9999 FEW050 SCT100 09/05 Q1030 RMK PP000=
SPZO Mar2008-290900Z 00000KT 9999 SCT046 BKN100 07/04 Q1029 RMK PP000=
SPZO Mar2008-291000Z 00000KT 9999 SCT040 BKN080 08/05 Q1030 RMK PP000=
SPZO Mar2008-291100Z VRB02KT 9999 FEW043 SCT150 BKN230 08/04 Q1030 NOSIG RMK PP000=
SPZO Mar2008-291200Z 00000KT 9999 FEW050 SCT100 BKN230 07/04 Q1030 NOSIG RMK WIND RWY 10 00000KT PP000=
SPZO Mar2008-291300Z 00000KT 9999 FEW050 SCT100 BKN230 09/05 Q1031 NOSIG RMK WIND RWY 10 13005KT 080V200 HZ/FU PP000=
SPZO Mar2008-291321Z 08003KT 9999 -RA SCT050 OVC100 08/05 Q1032 RMK WIND RWY 10 11006KT 040V150 HZ FU=
SPZO Mar2008-291400Z 08003KT 9000 -RA SCT050 SCT090 BKN100 08/05 Q1033 TEMPO NSW RMK WIND RWY 10 11009KT 080V140 HZ FU PP002=
SPZO Mar2008-291500Z VRB03KT 9999 SCT050 SCT090 BKN100 09/06 Q1033 RERA NOSIG RMK WIND RWY 10 32005KT 260V020 PP004=
SPZO Mar2008-291600Z 08008KT 040V110 9999 SCT050 OVC100 10/07 Q1033 NOSIG RMK WIND RWY 10 VRB07G15KT PP000=
SPZO Mar2008-291700Z 07004KT 020V100 9999 SCT050 SCT100 BKN230 12/06 Q1032 NOSIG RMK WIND RWY 10 05010KT 330V120 PP000=
SPZO Mar2008-291800Z VRB03KT 9999 SCT043 OVC230 14/05 Q1030 NOSIG RMK=
SPZO Mar2008-291900Z VRB03KT 9999 SCT043 OVC230 15/05 Q1029 NOSIG RMK=
SPZO Mar2008-292000Z VRB07KT 9999 SCT043 OVC230 15/04 Q1028 RMK WIND RWY10 VRB12KT PP000=
SPZO Mar2008-292100Z VRB04KT 9999 FEW046 OVC230 16/03 Q1027 NOSIG RMK=
SPZO Mar2008-292200Z VRB03KT 9999 FEW046 BKN230 17/03 Q1027 NOSIG RMK T.MAX.16.8 PP000=
SPZO Mar2008-292300Z 35008KT 9999 FEW046 15/03 Q1028 NOSIG RMK WIND RWY10 VRB08KT PP000=
SPZO Mar2008-300000Z 01005KT 270V080 9999 SCT050 13/03 Q1029 RMK PP000=
SPZO Mar2008-300100Z VRB02KT 9999 SCT050 12/03 Q1030 RMK PP000=
SPZO Mar2008-300200Z VRB03KT 9999 BKN050 12/04 Q1031 RMK PP000=
SPZO Mar2008-300300Z 09013KT 8000 -RA SCT040 BKN050 10/06 Q1032 RMK PP002=
SPZO Mar2008-300400Z VRB03KT 5000 RA SCT040 BKN050 08/06 Q1033 RMK PP018=
SPZO Mar2008-300500Z 07005KT 7000 -RA FEW040 BKN050 08/06 Q1033 RMK PP016=
SPZO Mar2008-300600Z 00000KT 8000 -RA FEW030 SCT040 BKN050 08/06 Q1031 RMK PP004=
SPZO Mar2008-300700Z 00000KT 9000 FEW030 SCT040 BKN050 08/06 Q1031 RERA RMK PPTRZ=
SPZO Mar2008-300800Z 06004KT 9999 FEW030 BKN040 07/05 Q1030 RMK PP000=
SPZO Mar2008-300900Z 09002KT 9999 FEW020 BKN040 07/06 Q1031 RMK PP000=
SPZO Mar2008-301000Z 09002KT 9999 FEW020 BKN040 08/06 Q1031 RMK PP000=
SPZO Mar2008-301100Z 08002KT 9999 FEW015 SCT033 BKN040 08/06 Q1032 NOSIG RMK WIND RWY 10 12005KT 100V150 PP000=
SPZO Mar2008-301200Z 00000KT 9999 FEW020 SCT040 BKN046 08/06 Q1032 NOSIG RMK PP000=
SPZO Mar2008-301300Z VRB02KT 9999 FEW025 SCT043 BKN050 10/06 Q1033 NOSIG RMK PP000=
SPZO Mar2008-301400Z 08003KT 020V130 9999 FEW025 SCT043 BKN100 10/06 Q1033 NOSIG RMK PP000=
SPZO Mar2008-301500Z 00000KT 9999 FEW033 SCT046 BKN100 13/06 Q1033 NOSIG RMK PP000=
SPZO Mar2008-301600Z VRB03KT 9999 FEW036 SCT046 BKN100 15/07 Q1032 NOSIG RMK PP000=
SPZO Mar2008-301700Z 13005KT 070V200 9999 SCT046 SCT100 15/04 Q1031 NOSIG RMK PP000=
SPZO Mar2008-301800Z 09006KT 050V130 9999 SCT046 SCT100 16/06 Q1029 NOSIG RMK WIND RWY10 10015KT PP000=
SPZO Mar2008-301900Z VRB05KT 9999 VCSH SCT046 SCT080 18/07 Q1027 NOSIG RMK WIND RWY10 VRB10KT PP000=
SPZO Mar2008-302000Z VRB03KT 9999 VCSH SCT046 SCT080 15/05 Q1026 NOSIG RMK RERA 1940/45 PP002=
SPZO Mar2008-302100Z 09011KT 9999 VCSH SCT046TCU SCT080 17/07 Q1026 NOSIG RMK WIND RWY10 11026KT 080V140 PP000=
SPZO Mar2008-302200Z 33006KT 9999 SCT046 SCT080 15/04 Q1026 NOSIG RMK=
SPZO Mar2008-302300Z 02006KT 310V070 9999 SCT046 BKN230 14/05 Q1026 NOSIG RMK PP000=
SPZO Mar2008-310000Z VRB01KT 9999 FEW050 SCT230 12/06 Q1027 RMK PP000=
SPZO Mar2008-310100Z 00000KT 9999 SCT046 11/06 Q1028 RMK PP000=
SPZO Mar2008-310200Z 08003KT 9999 SCT043 SCT100 10/06 Q1029 RMK PP000=
SPZO Mar2008-310300Z 00000KT 9999 SCT043 SCT080 11/07 Q1030 RMK PP000=
SPZO Mar2008-310400Z 08008KT 9999 -RA BKN040 SCT080 10/08 Q1030 RMK PP002=
SPZO Mar2008-310500Z 09003KT 9999 -RA BKN040 SCT050 09/08 Q103 RMK PP014=
SPZO Mar2008-310600Z 00000KT 9000 -RA BKN040 SCT046 09/07 Q1030 RMK PP022=
SPZO Mar2008-310700Z 00000KT 9999 DZ SCT030 BKN043 09/07 Q1030 RMK PP036=
SPZO Mar2008-310800Z 00000KT 8000 RA SCT030 BKN040 09/07 Q1030 RMK PP046=
SPZO Mar2008-310900Z 00000KT 9999 -RA SCT036 BKN040 08/06 Q1030 RMK PP014=
SPZO Mar2008-311000Z 00000KT 8000 -RA SCT025 SCT036 BKN040 08/06 Q1030 RMK CLNG BLW 1200M PP012=
SPZO Mar2008-311100Z 00000KT 7000 FEW025 SCT033 BKN040 07/05 Q1031 NOSIG RMK CLNG BLW 1200M PP032=
SPZO Mar2008-311200Z 00000KT 8000 -RA FEW025 SCT030 BKN043 07/05 Q1031 BECMG FM1330 9000 SCT036 BKN046 RMK CLNG BLW 1200M PP020=
SPZO Mar2008-311216Z 00000KT 9000 FEW020 SCT036 BKN050 08/06 Q1032=
SPZO Mar2008-311300Z 00000KT 9999 FEW030 SCT040 BKN080 09/06 Q1032 REDZ NOSIG RMK PP004=
SPZO Mar2008-311400Z VRB03KT 9999 FEW033 BKN046 11/06 Q1032 NOSIG RMK RWY10 VRB06KT PP000=
SPZO Mar2008-311500Z VRB02KT 9999 FEW036 BKN050 13/06 Q1032 NOSIG RMK RWY10 VRB06KT PP000=
SPZO Mar2008-311600Z VRB03KT 9999 FEW040 SCT060 15/06 Q1031 NOSIG RMK=
SPZO Mar2008-311700Z VRB03KT 9999 FEW043 BKN060 17/08 Q1029 NOSIG RMK=
SPZO Mar2008-311800Z VRB02KT 9999 VCSH FEW033 SCT040 BKN050 16/07 Q1028 TEMPO -RA RMK WIND RWY 10 VRB09KT PP000=
SPZO Mar2008-311810Z 07006KT 010V160 8000 -RA VCSH FEW033 SCT040 BKN050 14/07 Q1027 RMK WIND RWY 10 11011KT 040V120=
SPZO Mar2008-311900Z 34005KT 290V030 9000 VCSH FEW033 SCT040 BKN050 15/07 Q1026 RERA NOSIG RMK WIND RWY 10 02010KT 290V090 PP002=
SPZO Mar2008-312000Z 33007KT 250V020 9999 VCSH SCT040 BKN050 16/07 Q1026 NOSIG RMK WIND RWY 10 28020G31KT 250V340 PP000=
SPZO Mar2008-312100Z 25010KT 9999 VCSH FEW040 BKN050 14/06 Q1025 NOSIG RMK PP000=
SPZO Mar2008-312200Z 10011KT 9999 FEW040 BKN050 13/07 Q1025 NOSIG RMK TMAX 17.5 PP000=
SPZO Mar2008-312300Z VRB03KT 9999 BKN050 12/07 Q1026 NOSIG RMK PP000=
