SPZO Dic2010-010000Z 00000KT 9999 SKC 15/04 Q1027 RMK PP000=
SPZO Dic2010-010100Z 00000KT 9999 NSC 13/06 Q1030 RMK PP000=
SPZO Dic2010-010200Z 00000KT 9999 SCT060 13/06 Q1030 RMK PP000=
SPZO Dic2010-010300Z 00000KT 9999 NSC 11/05 Q1031 RMK PP000=
SPZO Dic2010-010400Z 00000KT 9999 NSC 10/05 Q1030 RMK PP000=
SPZO Dic2010-010500Z 00000KT 9999 NSC 09/05 Q1029 RMK PP000=
SPZO Dic2010-010600Z 00000KT 9999 NSC 09/04 Q1029 RMK PP000=
SPZO Dic2010-010700Z 00000KT 9999 NSC 08/05 Q1028 RMK PP000=
SPZO Dic2010-010800Z 00000KT 9999 FEW020 08/04 Q1028 RMK PP000=
SPZO Dic2010-010900Z 00000KT 9999 NSC 07/04 Q1028 RMK PP000=
SPZO Dic2010-011000Z 00000KT 9999 NSC 06/03 Q1028 RMK PP000=
SPZO Dic2010-011100Z 00000KT 9999 SCT230 07/04 Q1029 NOSIG RMK PP000=
SPZO Dic2010-011200Z 00000KT 9000 SCT230 10/05 Q1030 BECMG 9999 RMK HZ PP000=
SPZO Dic2010-011300Z 00000KT 9999 FEW050 SCT230 12/05 Q1030 NOSIG RMK PP000=
SPZO Dic2010-011400Z 00000KT 9999 SCT046 SCT230 15/04 Q1030 NOSIG RMK PP000=
SPZO Dic2010-011500Z VRB02KT 9999 BKN046 SCT230 16/05 Q1029 NOSIG RMK PP000=
SPZO Dic2010-011600Z VRB02KT 9999 SCT050 SCT230 18/04 Q1028 NOSIG RMK PP000=
SPZO Dic2010-011700Z 36003KT 280V040 9999 BKN050 SCT230 19/04 Q1027 NOSIG RMK PP000=
SPZO Dic2010-011800Z 01008KT 300V040 9999 SCT060 SCT230 21/02 Q1026 NOSIG RMK PP000=
SPZO Dic2010-011900Z 01014KT 300V040 9999 SCT050 BKN230 21/02 Q1024 NOSIG RMK PP000=
SPZO Dic2010-012000Z 02006KT 280V040 9999 SCT050 BKN230 22/03 Q1023 NOSIG RMK PP000=
SPZO Dic2010-012100Z 03008KT 300V040 9999 FEW050 SCT230 20/02 Q1023 NOSIG RMK PP000=
SPZO Dic2010-012200Z 04010KT 9999 FEW050 SCT230 19/06 Q1023 NOSIG RMK T.MAX 22.6 PP000=
SPZO Dic2010-012300Z 03003KT 300V040 9999 FEW050 SCT230 18/06 Q1024 NOSIG RMK PP000=
SPZO Dic2010-020000Z 28010KT 9999 SKC 17/08 Q1024 RMK PP000=
SPZO Dic2010-020100Z 00000KT 9999 SKC 16/07 Q1027 RMK PP000=
SPZO Dic2010-020200Z 00000KT 9999 FEW050 15/10 Q1028 RMK PP000=
SPZO Dic2010-020300Z 00000KT 9999 SKC 14/07 Q1029 RMK PP000=
SPZO Dic2010-020400Z 00000KT 9999 SKC 13/08 Q1029 RMK PP000=
SPZO Dic2010-020500Z 00000KT 9999 SKC 12/09 Q1031 RMK PP000=
SPZO Dic2010-020600Z 00000KT 9999 SKC 11/08 Q1027 RMK PP000=
SPZO Dic2010-020700Z 00000KT 9999 SKC 10/08 Q1026 RMK PP000=
SPZO Dic2010-020800Z 00000KT 9999 SKC 09/08 Q1027 RMK PP000=
SPZO Dic2010-020900Z 00000KT 9999 SKC 08/06 Q1026 RMK PP000=
SPZO Dic2010-021000Z 00000KT 9999 BKN043 09/08 Q1027 RMK PP000=
SPZO Dic2010-021100Z 00000KT 9999 FEW036 SCT050 10/08 Q1028 NOSIG RMK PP000=
SPZO Dic2010-021200Z 00000KT 9999 FEW036 SCT043 BKN230 11/06 Q1029 NOSIG RMK PP000=
SPZO Dic2010-021300Z 00000KT 9999 FEW033 SCT050 BKN230 13/07 Q1029 NOSIG RMK PP000=
SPZO Dic2010-021400Z 03003KT 310V040 9999 FEW036 SCT050 BKN230 16/07 Q1029 NOSIG RMK PP000=
SPZO Dic2010-021500Z 02004KT 280V040 9999 FEW040 SCT050 BKN230 18/05 Q1029 NOSIG RMK PP000=
SPZO Dic2010-021600Z 36005KT 280V040 9999 FEW040 SCT050 20/03 Q1027 NOSIG RMK PP000=
SPZO Dic2010-021700Z 03006KT 310V050 9999 FEW043TCU BKN060 21/02 Q1026 NOSIG RMK PP000=
SPZO Dic2010-021800Z 35005KT 280V050 9999 -RA FEW040TCU BKN050 20/07 Q1025 NOSIG RMK PPTRZ=
SPZO Dic2010-021816Z 31007KT 280020 9999 FEW043 SCT060 21/04 Q1024=
SPZO Dic2010-021900Z 30006KT 280V050 9999 FEW043 SCT060 22/05 Q1023 TEMPO=
SPZO Dic2010-022000Z 36010KT 300V050 9999 FEW040CB SCT060 BKN230 21/03 Q1022 TEMPO VCSH RMK PP000=
SPZO Dic2010-022100Z 01009KT 300V050 9999 SCT050 BKN230 20/03 Q1022 NOSIG RMK PP000=
SPZO Dic2010-022200Z 03004KT 300V050 9999 FEW046 BKN200 19/05 Q1023 NOSIG RMK TMAX 22.5 PP000=
SPZO Dic2010-022300Z 36007KT 290V040 9999 FEW040 BKN200 18/05 Q1024 NOSIG RMK PP000=
SPZO Dic2010-030000Z 34003KT 280V040 9999 FEW043 BKN060 16/05 Q1025 RMK PP000=
SPZO Dic2010-030100Z 00000KT 9999 FEW043 BKN060 16/06 Q1026 RMK PP000=
SPZO Dic2010-030200Z 00000KT 9999 SCT050 15/06 Q1027 RMK PP000=
SPZO Dic2010-030300Z VRB02KT 9999 FEW046 12/06 Q1028 RMK PP000=
SPZO Dic2010-030400Z 00000KT 9999 FEW046 12/06 Q1028 RMK PP000=
SPZO Dic2010-030500Z 00000KT 9999 FEW046 SCT200 11/06 Q1028 RMK PP000=
SPZO Dic2010-030600Z 00000KT 9999 FEW043 SCT100 11/06 Q1027 RMK PP000=
SPZO Dic2010-030700Z 00000KT 9999 FEW040 SCT060 11/06 Q1027 RMK PP000=
SPZO Dic2010-030800Z 00000KT 9999 SCT100 10/06 Q1027 RMK PP000=
SPZO Dic2010-030900Z 00000KT 9999 SCT100 10/06 Q1027 RMK PP000=
SPZO Dic2010-031000Z 00000KT 9999 SCT046 BKN050 10/06 Q1028 RMK PP000=
SPZO Dic2010-031100Z 00000KT 9999 FEW036 SCT043 BKN100 10/06 Q1029 NOSIG RMK PP000=
SPZO Dic2010-031200Z 00000KT 9999 FEW036 BKN046 12/07 Q1027 NOSIG RMK PP000=
SPZO Dic2010-031300Z 00000KT 9999 FEW036 BKN050 15/07 Q1030 NOSIG RMK PP000=
SPZO Dic2010-031400Z VRB02KT 9999 SCT046 18/05 Q1029 NOSIG RMK PP000=
SPZO Dic2010-031500Z VRB02KT 9999 SCT046 19/05 Q1029 NOSIG RMK PP000=
SPZO Dic2010-031600Z 02003KT 280V040 9999 BKN050 20/04 Q1027 NOSIG RMK PP000=
SPZO Dic2010-031700Z VRB02KT 9999 BKN050 22/03 Q1026 NOSIG RMK PP000=
SPZO Dic2010-031800Z 36004KT 280V040 9999 BKN060 BKN230 23/03 Q1024 NOSIG RMK PP000=
SPZO Dic2010-031900Z 03011KT 9999 SCT060 BKN230 23/02 Q1023 NOSIG RMK PP000=
SPZO Dic2010-031933Z 02014KT 300V040 9999 FEW060 BKN230 22/02 Q1023=
SPZO Dic2010-032000Z 02007KT 300V040 9999 FEW060 BKN230 22/01 Q1022 NOSIG RMK PP000=
SPZO Dic2010-032100Z 03010G22KT 300V040 9999 FEW043 SCT230 21/01 Q1023 NOSIG RMK PP000=
SPZO Dic2010-032200Z 03006KT 300V040 9999 FEW046 22/02 Q1023 NOSIG RMK TMAX 23.0 PP000=
SPZO Dic2010-032300Z 04008KT 9999 SCT230 18/05 Q1024 NOSIG RMK PP000=
SPZO Dic2010-040000Z 36004KT 300V040 9999 FEW050 17/04 Q1025 RMK PP000=
SPZO Dic2010-040100Z VRB01KT 9999 FEW060 16/05 Q1026 RMK PP000=
SPZO Dic2010-040200Z 00000KT 9999 SCT060 15/06 Q1028 RMK PP000=
SPZO Dic2010-040300Z 00000KT 9999 FEW040 SCT060 15/06 Q1028 RMK PP000=
SPZO Dic2010-040400Z 00000KT 9999 SCT050 13/06 Q1028 RMK PP000=
SPZO Dic2010-040500Z 00000KT 9999 FEW043 SCT080 13/06 Q1028 RMK PP000=
SPZO Dic2010-040600Z 00000KT 9999 FEW040 SCT060 13/06 Q1027 RMK PP000=
SPZO Dic2010-040700Z 00000KT 9999 SCT040 SCT080 13/06 Q1027 RMK PP000=
SPZO Dic2010-040800Z 00000KT 9999 SCT040 SCT080 13/06 Q1027 RMK PP000=
SPZO Dic2010-040900Z 00000KT 9999 SCT036 BKN050 13/07 Q1027 RMK PP000=
SPZO Dic2010-041000Z 00000KT 9999 FEW033 SCT040 BKN046 13/05 Q1028 RMK PP000=
SPZO Dic2010-041100Z VRB02KT 9999 FEW040 SCT080 BKN150 12/06 Q1029 NOSIG RMK PP000=
SPZO Dic2010-041200Z 00000KT 9999 SCT050 BKN230 14/06 Q1029 NOSIG RMK PP000=
SPZO Dic2010-041300Z 00000KT 9999 SCT050 OVC230 15/05 Q1030 NOSIG RMK PP000=
SPZO Dic2010-041400Z 00000KT 9999 SCT060 OVC230 17/05 Q1029 NOSIG RMK PP000=
SPZO Dic2010-041500Z 35005KT 280V040 9999 SCT043 FEW060TCU BKN230 18/03 Q1028 TEMPO VCSH RMK PP000=
SPZO Dic2010-041526Z 01004KT 300V040 9999 SCT043 SCT060 BKN100 17/05 Q1028=
SPZO Dic2010-041600Z 33005KT 280V040 9999 -RA VCSH SCT043 SCT060 BKN100 17/03 Q1028 BECMG NSW RMK PPTRZ=
SPZO Dic2010-041630Z 34005KT 280V040 9999 FEW043 SCT060 BKN230 17/03 Q1027=
SPZO Dic2010-041700Z VRB02KT 9999 FEW043 SCT060 OVC230 19/04 Q1027 NOSIG RMK PPTRZ=
SPZO Dic2010-041732Z VRB02KT 9999 FEW040TCU BKN050 BKN230 19/04 Q1026=
SPZO Dic2010-041800Z 31005KT 280V040 SCT043 SCT053TCU BKN230 19/06 Q1026 TEMPO VCSH RMK PP000=
SPZO Dic2010-041900Z 01016G26KT 300V040 9999 VCSH SCT043 SCT053CB BKN100 17/05 Q1025 NOSIG RMK CB QUAD S PP000=
SPZO Dic2010-042000Z 01015KT 300V040 9999 FEW040 SCT050CB BKN060 15/06 Q1027 TEMPO -RA RMK CB QUAD S PP000=
SPZO Dic2010-042100Z 30007KT 270V040 9999 FEW025 SCT040 BKN050TCU 14/05 Q1027 NOSIG RMK -SHRA 2000/2005 PPTRZ=
SPZO Dic2010-042200Z 31010KT 280V020 9999 -RA FEW040 SCT060 OVC080 12/05 Q1028 NOSIG RMK TMAX 20.0 PPTRZ=
SPZO Dic2010-042300Z 31008KT 9999 FEW040 SCT060 OVC080 12/04 Q1029 RMK PPTRZ=
SPZO Dic2010-050000Z 29009KT 9999 FEW040 SCT060 OVC080 12/04 Q1029 RMK PP000=
SPZO Dic2010-050100Z 29010KT 280V020 8000 DZ FEW040 OVC080 11/06 Q1031 RMK PPTRZ=
SPZO Dic2010-050200Z 28004KT 8000 -RA FEW030 OVC070 10/06 Q1031 RMK PP002=
SPZO Dic2010-050300Z 28006KT 8000 RA FEW030 OVC060 10/06 Q1032 RMK PP008=
SPZO Dic2010-050400Z 00000KT 8000 RA FEW030 OVC060 09/06 Q1032 RMK PP010=
SPZO Dic2010-050500Z 00000KT 8000 -RA FEW025 OVC060 09/06 Q1031 RMK PP008=
SPZO Dic2010-050600Z 00000KT 8000 -RA FEW025 OVC060 09/06 Q1031 RMK PP028=
SPZO Dic2010-050700Z 04004KT 8000 FEW020 SCT036 BKN080 09/07 Q1030 RMK HZ RERA PP000=
SPZO Dic2010-050800Z 03003KT 300V040 8000 FEW020 SCT036 BKN080 09/07 Q1032 RMK HZ PP000=
SPZO Dic2010-050900Z 04004KT 8000 FEW020 SCT036 BKN080 09/06 Q1030 RMK HZ PP000=
SPZO Dic2010-051000Z 00000KT 8000 FEW020 SCT036 BKN080 09/06 Q1030 RMK HZ PP000=
SPZO Dic2010-051012Z 00000KT 9999 FEW025 SCT033 BKN043 09/06 Q1031 RMK CLNG BLW 1200M=
SPZO Dic2010-051100Z 00000KT 9999 FEW030 SCT036 BKN050 09/06 Q1031 BECMG FM1120 SCT036 BKN46 RMK CLNG BLW 1200M PP000=
SPZO Dic2010-051124Z 00000KT 9999 FEW030 SCT036 BKN060 09/06 Q1032=
SPZO Dic2010-051200Z 00000KT 9999 FEW020 SCT036 BKN050 10/06 Q1032 NOSIG RMK PP000=
SPZO Dic2010-051300Z 00000KT 9999 FEW020 SCT040 BKN080 12/05 Q1032 NOSIG RMK PP000=
SPZO Dic2010-051327Z 00000KT 9999 -RA SCT036 BKN046 13/06 Q1032=
SPZO Dic2010-051400Z 03003KT 300V040 9999 -RA FEW030 SCT040 BKN046 12/06 Q1032 BECMG FM1430 NSW RMK PPTRZ=
SPZO Dic2010-051500Z VRB02KT 9999 FEW036 SCT043 13/03 Q1032 RERA NOSIG RMK PPTRZ=
SPZO Dic2010-051600Z VRB02KT 9999 FEW040 BKN050 16/07 Q1031 TEMPO VCSH RMK PP000=
SPZO Dic2010-051700Z 36004KT 280V050 9999 FEW040 BKN050 18/06 Q1029 TEMPO=
SPZO Dic2010-051800Z 35007KT 280V050 9999 SCT043 BKN050 16/05 Q1029 TEMPO=
SPZO Dic2010-051900Z 33008KT 280V020 9999 VCSH SCT040 BKN050 18/04 Q1027 TEMPO RA RMK PP000=
SPZO Dic2010-052000Z 28009KT 9999 SCT043 BKN050 14/07 Q1027 TEMPO VCSH RMK PP000=
SPZO Dic2010-052100Z 28005KT 9999 SCT046 BKN080 14/06 Q1027 TEMPO VCSH RMK PP000=
SPZO Dic2010-052200Z 02005KT 9999 VCSH FEW036 BKN043 15/04 Q1027 NOSIG RMK TMAX 19.3 PP000=
SPZO Dic2010-052300Z 03007KT 9999 VCSH BKN043 14/04 Q1029 NOSIG RMK PP000=
SPZO Dic2010-060000Z 28006KT 9999 BKN040 OVC060 13/04 Q1029 RMK PP000=
SPZO Dic2010-060100Z 04007KT 9999 SCT040 BKN060 12/03 Q1030 RMK PP000=
SPZO Dic2010-060200Z 00000KT 9999 SCT043 BKN050 11/04 Q1031 RMK PP000=
SPZO Dic2010-060300Z 00000KT 9999 SCT043 OVC050 10/04 Q1032 RMK PP000=
SPZO Dic2010-060400Z 00000KT 9999 SCT043 OVC060 10/05 Q1032 RMK PP000=
SPZO Dic2010-060500Z 00000KT 9999 SCT043 OVC050 09/05 Q1032 RMK PP000=
SPZO Dic2010-060600Z 00000KT 9999 SCT040 OVC050 08/04 Q1031 RMK PP000=
SPZO Dic2010-060700Z 00000KT 9999 SCT040 OVC060 08/04 Q1031 RMK PP000=
SPZO Dic2010-060800Z 00000KT 9999 SCT036 OVC050 07/04 Q1031 RMK PP000=
SPZO Dic2010-060900Z 00000KT 9999 FEW036 BKN100 06/03 Q1031 RMK PP000=
SPZO Dic2010-061000Z 00000KT 9999 FEW036 BKN080 06/03 Q1031 RMK PP000=
SPZO Dic2010-061100Z 00000KT 9999 SCT043 BKN100 07/03 Q1032 NOSIG RMK PP000=
SPZO Dic2010-061200Z 00000KT 9999 FEW040 BKN200 10/04 Q1033 NOSIG RMK PP000=
SPZO Dic2010-061300Z 00000KT 9999 FEW050 BKN230 12/04 Q1033 NOSIG RMK PP000=
SPZO Dic2010-061400Z 00000KT 9999 FEW050 SCT230 15/03 Q1033 NOSIG RMK PP000=
SPZO Dic2010-061500Z 00000KT 9999 SCT060 18/02 Q1032 NOSIG RMK PP000=
SPZO Dic2010-061600Z VRB02KT 9999 SCT050 SCT060 18/01 Q1031 NOSIG RMK PP000=
SPZO Dic2010-061700Z 28007KT 280V020 9999 BKN060 20/02 Q1030 NOSIG RMK PP000=
SPZO Dic2010-061800Z 29008KT 9999 FEW043TCU SCT050 21/03 Q1028 TEMPO=
SPZO Dic2010-061900Z 35006KT 300V040 9999 FEW043TCU SCT050 20/03 Q1027 TEMPO VCSH RMK PP000=
SPZO Dic2010-062000Z 03007KT 300V050 9999 FEW046 BKN080 18/04 Q1026 TEMPO=
SPZO Dic2010-062100Z 01013KT 300V040 9999 -RA FEW040CB SCT050 BKN070 17/04 Q1026 RMK PP000=
SPZO Dic2010-062200Z 29008KT 280V040 9999 FEW040TCU SCT046 BKN080 16/06 Q1027 TEMPO VCSH RESHRA RMK T. MAX 21.3 PP006=
SPZO Dic2010-062300Z 28007KT 9999 VCSH SCT043 BKN080 15/07 Q1028 RMK PP000=
SPZO Dic2010-070000Z 29004KT 9999 VCSH SCT043 BKN080 14/07 Q1028 RMK PP000=
SPZO Dic2010-070100Z 00000KT 9999 SCT040 BKN050 14/07 Q1024 RMK PP000=
SPZO Dic2010-070200Z 00000KT 9999 SCT040 BKN050 13/07 Q1030 RMK PP000=
SPZO Dic2010-070300Z 00000KT 9999 SKC 12/07 Q1031 RMK PP000=
SPZO Dic2010-070400Z 00000KT 9999 SCT050 13/06 Q1031 RMK PP000=
SPZO Dic2010-070500Z 00000KT 9999 SCT040 12/04 Q1031 RMK PP000=
SPZO Dic2010-070600Z 00000KT 9999 SCT040 12/05 Q1031 RMK PP000=
SPZO Dic2010-070700Z 00000KT 9999 SCT050 11/05 Q1030 RMK PP000=
SPZO Dic2010-070800Z 00000KT 9999 ST040 SCT050 10/06 Q1030 RMK PP000=
SPZO Dic2010-070900Z 00000KT 9999 STC040 SCT050 10/07 Q1030 RMK PP000=
SPZO Dic2010-071000Z 28004KT 9999 RA SCT030 BKN040 09/05 Q1031 RMK PP010=
SPZO Dic2010-071020Z 29005KT 9999 RA FEW020 SCT033 BKN046 09/05 Q1031 RMK CLNG BLW 1200M=
SPZO Dic2010-071100Z 00000KT 9999 -RA FEW020 SCT033 BKN046 09/09 Q1031 BECMG FM1130 SCT036 BKN046 RMK CLNG BLW 1200M PP000=
SPZO Dic2010-071130Z 00000KT 9999 VCSH FEW020 SCT033 BKN050 09/06 Q1032=
SPZO Dic2010-071200Z 00000KT 9999 VCSH FEW020 SCT036 BKN080 09/06 Q1032 NOSIG RMK PP000=
SPZO Dic2010-071300Z 00000KT 9999 FEW030 SCT043 BKN100 12/06 Q1032 NOSIG RMK PP000=
SPZO Dic2010-071400Z 00000KT 9999 SCT040 SCT100 15/06 Q1032 NOSIG RMK PP000=
SPZO Dic2010-071500Z VRB02KT 9999 FEW040 SCT050 16/05 Q1031 NOSIG RMK PP000=
SPZO Dic2010-071600Z 29004KT 9999 FEW040 SCT050 17/05 Q1030 NOSIG RMK PP000=
SPZO Dic2010-071700Z 29006KT 280V020 9999 FEW043 BKN050 20/05 Q1028 NOSIG RMK PP000=
SPZO Dic2010-071800Z 30005KT 280V020 9999 FEW036 SCT043 BKN080 19/03 Q1027 TEMPO VCSH RMK PP000=
SPZO Dic2010-071900Z 01011KT 300V050 9999 FEW043 SCT043 BKN080 18/04 Q1026 TEMPO VCSH RMK PP000=
SPZO Dic2010-072000Z 35011KT 290V030 9999 SCT040TCU BKN080 17/05 Q1026 TEMPO RA RMK PP000=
SPZO Dic2010-072020Z 01011KT 300V040 9999 RA SCT040TCU BKN080 16/06 Q1026=
SPZO Dic2010-072100Z 28010KT 9999 -RA SCT040TCU BKN080 14/08 Q1027 NOSIG RMK PP002=
SPZO Dic2010-072200Z 28005KT 9999 -RA FEW040 OVC080 13/08 Q1026 BECMG FM2230 NSW RMK TMAX 20.2 PP008=
SPZO Dic2010-072300Z 00000KT 9999 OVC080 14/07 Q1027 RERA NOSIG RMK PP002=
SPZO Dic2010-080000Z 00000KT 9999 OVC060 13/07 Q1028 RMK PP000=
SPZO Dic2010-080100Z 00000KT 9999 BKN060 12/08 Q1029 RMK PP000=
SPZO Dic2010-080200Z 00000KT 9999 FEW050 SCT100 12/08 Q1029 RMK PP000=
SPZO Dic2010-080300Z 00000KT 9999 FEW050 SCT100 12/07 Q1030 RMK PP000=
SPZO Dic2010-080400Z 00000KT 9999 FEW036 BKN046 12/08 Q1030 RMK PP000=
SPZO Dic2010-080500Z 00000KT 9999 FEW036 BKN040 11/08 Q1029 RMK PP000=
SPZO Dic2010-080600Z 00000KT 9999 SCT036 BKN040 12/07 Q1029 RMK PP000=
SPZO Dic2010-080700Z 00000KT 9999 SCT040 BKN046 12/06 Q1028 RMK PP000=
SPZO Dic2010-080800Z 00000KT 9999 BKN036 11/05 Q1028 RMK PP000=
SPZO Dic2010-080900Z 00000KT 9999 SCT040 SCT050 11/05 Q1028 RMK PP000=
SPZO Dic2010-081000Z 28003KT 9999 SCT036 BKN040 10/06 Q1029 RMK PP000=
SPZO Dic2010-081100Z 00000KT 9999 FEW036 BKN043 BKN080 10/05 Q1030 NOSIG RMK PP000=
SPZO Dic2010-081117Z 00000KT 9999 FEW040 BKN230 11/06 Q1030=
SPZO Dic2010-081200Z 00000KT 9999 FEW040 SCT230 12/05 Q1030 NOSIG RMK PP000=
SPZO Dic2010-081300Z 31003KT 280V040 9999 SCT043 14/05 Q1031 NOSIG RMK PP000=
SPZO Dic2010-081400Z VRB02KT 9999 SCT043 SCT060 16/05 Q1031 NOSIG RMK PP000=
SPZO Dic2010-081500Z VRB02KT 9999 SCT043 SCT060 17/04 Q1030 NOSIG RMK PP000=
SPZO Dic2010-081600Z 31003KT 280V040 9999 FEW043 SCT060 18/05 Q1030 NOSIG RMK PP000=
SPZO Dic2010-081700Z 35005KT 280V040 9999 BKN050 20/02 Q1028 NOSIG RMK PP000=
SPZO Dic2010-081800Z 36003KT 280V040 9999 -SHRA SCT043TCU BKN050 19/07 Q1027 BECMG NSW RMK PPTRZ=
SPZO Dic2010-081838Z 28010KT 9999 BKN050 20/04 Q1026=
SPZO Dic2010-081900Z 29008KT 270V040 9999 BKN050 21/04 Q1025 NOSIG RMK PP006=
SPZO Dic2010-082000Z 33009KT 270V030 9999 BKN050 21/04 Q1025 NOSIG RMK PP000=
SPZO Dic2010-082100Z 28013KT 9999 BKN050 SCT230 21/03 Q1024 NOSIG RMK PP000=
SPZO Dic2010-082200Z 35008KT 290V020 9999 FEW050 BKN230 19/03 Q1024 NOSIG RMK TMAX 21.8 PP000=
SPZO Dic2010-082300Z 36008KT 300V040 9999 BKN050 BKN230 18/02 Q1025 NOSIG RMK PP000=
SPZO Dic2010-090000Z 34004KT 9999 SCT050 17/03 Q1026 RMK PP000=
SPZO Dic2010-090100Z 00000KT 9999 FEW040 SCT050 16/03 Q1027 RMK PP000=
SPZO Dic2010-090200Z 00000KT 9999 SCT050 15/04 Q1028 RMK PP000=
SPZO Dic2010-090300Z 00000KT 999 SCT050 13/05 Q1029 RMK PP000=
SPZO Dic2010-090400Z 00000KT 9999 FEW040 SCT050 13/04 Q1024 RMK PP000=
SPZO Dic2010-090500Z 00000KT 9999 FEW040 SCT050 12/04 Q1024 RMK PP000=
SPZO Dic2010-090600Z 00000KT 9999 SCT040 SCT050 12/05 Q1028 RMK PP000=
SPZO Dic2010-090700Z 00000KT 9999 FEW040 SCT050 12/05 Q1028 RMK PP000=
SPZO Dic2010-090800Z 00000KT 9999 SCT040 SCT050 12/05 Q1028 RMK PP000=
SPZO Dic2010-090900Z 00000KT 9999 SCT040 BKN046 12/06 Q1028 RMK PP000=
SPZO Dic2010-091000Z 00000KT 9999 SCT040 BKN046 12/06 Q1028 RMK PP000=
SPZO Dic2010-091100Z 00000KT 9999 SCT040 BKN046 BKN080 12/06 Q1029 BECMG FEW040 SCT060 BKN100 RMK PP000=
SPZO Dic2010-091200Z 04005KT 9999 FEW040 BKN060 BKN100 12/06 Q1029 NOSIG RMK PP000=
SPZO Dic2010-091233Z 04004KT 9999 SCT036 BKN060 BKN100 12/06 Q1030=
SPZO Dic2010-091300Z 03003KT 9999 SCT036 BKN060 BKN100 12/06 Q1030 NOSIG RMK PP000=
SPZO Dic2010-091400Z 00000KT 9999 SCT036 BKN043 OVC060 14/07 Q1030 NOSIG RMK PP000=
SPZO Dic2010-091435Z 00000KT 9999 VCSH SCT036 BKN043 OVC080 14/06 Q1030 TEMPO-RA=
SPZO Dic2010-091500Z 00000KT 9999 VCSH SCT036 BKN043 OVC080 13/07 Q1030 TEMPO -RA RMK PP002=
SPZO Dic2010-091600Z 29007KT 280V020 9999 VCSH SCT036 BKN060 OVC080 14/05 Q1030 NOSIG MK PP000=
SPZO Dic2010-091700Z 28006KT 9999 FEW036 SCT100 OVC230 15/04 Q1029 NOSIG MK PP000=
SPZO Dic2010-091800Z 34005KT 9999 FEW036 SCT100 OVC230 17/04 Q1028 NOSIG RMK PP000=
SPZO Dic2010-091900Z 00000KT 9999 FEW046 SCT050 OVC100 18/04 Q1026 NOSIG RMK PP000=
SPZO Dic2010-092000Z 28008KT 9999 FEW050 BKN230 18/05 Q1024 NOSIG RMK PP000=
SPZO Dic2010-092100Z 29007KT 280V020 9999 FEW050 SCT230 20/04 Q1024 NOSIG RMK PP000=
SPZO Dic2010-092200Z 28011KT 9999 SCT046 18/05 Q1024 RMK TMAX 20.10 PP000=
SPZO Dic2010-092300Z 28012KT 9999 FEW050 SCT200 16/06 Q1025 NOSIG RMK PP000=
SPZO Dic2010-100000Z 28003KT 9999 FEW050 SCT200 15/05 Q1026 RMK PP000=
SPZO Dic2010-100100Z 33008KT 280V030 9999 FEW050 SCT200 13/05 Q1028 RMK PP000=
SPZO Dic2010-100200Z 35005KT 280V050 9999 SCT050 13/05 Q1029 RMK PP000=
SPZO Dic2010-100300Z 00000KT 8000 RA FEW030 OVC120 10/06 Q1031 RMK PP012=
SPZO Dic2010-100400Z 00000KT 8000 RA FEW030 OVC100 09/06 Q1031 RMK PP030=
SPZO Dic2010-100500Z 00000KT 6000 RA SCT025 OVC100 08/06 Q1030 RMK PP046=
SPZO Dic2010-100600Z 29004KT 6000 RA SCT025 OVC100 08/06 Q1029 RMK PP040=
SPZO Dic2010-100700Z 28003KT 8000 -RA SCT025 OVC100 08/05 Q1029 RMK PP004=
SPZO Dic2010-100800Z 00000KT 8000 -RA SCT025 OVC100 08/05 Q1028 RMK PP002=
SPZO Dic2010-100900Z 00000KT 8000 -RA SCT020 OVC100 08/05 Q1028 RMK PP008=
SPZO Dic2010-101000Z 00000KT 8000 RA SCT020 OVC080 08/05 Q1028 RMK PP012=
SPZO Dic2010-101014Z 00000KT 8000 RA FEW020 SCT033 BKN046 08/05 Q1028 RMK CLNG BLW 1200M=
SPZO Dic2010-101100Z 00000KT 9999 VCSH FEW030 SCT036 BKN060 08/06 Q1029 RERA BECMG FM1120 SCT036 BKN050 RMK CLNG BLW 1200M PP004=
SPZO Dic2010-101111Z 00000KT 9999 SCT036 BKN060 08/06 Q1029=
SPZO Dic2010-101200Z 00000KT 9999 FEW033 SCT043 BKN060 09/06 Q1029 NOSIG RMK PP000=
SPZO Dic2010-101300Z 03004KT 9999 FEW033 SCT040 BKN060 11/06 Q1030 NOSIG RMK PP000=
SPZO Dic2010-101400Z 00000KT 9999 FEW036 SCT043 BKN060 13/06 Q1030 NOSIG RMK PP000=
SPZO Dic2010-101500Z 00000KT 9999 FEW033 SCT046 BKN100 14/05 Q1030 NOSIG RMK PP000=
SPZO Dic2010-101600Z 00000KT 9999 SCT046 BKN100 16/06 Q1029 NOSIG RMK PP000=
SPZO Dic2010-101700Z 28006KT 9999 SCT050 18/06 Q1027 NOSIG RMK PP000=
SPZO Dic2010-101800Z 35012KT 300V030 9999 VCSH SCT043TCU BKN050 17/06/Q1025 TEMPO 8000 RA RMK PP000=
SPZO Dic2010-101822Z 31008KT 9999 TSVCSH FEW040CB OVC046 16/07 Q1026=
SPZO Dic2010-101900Z 30004KT 280V020 9000 -RA FEW036CB SCT040 OVC060 14/07 Q1026 NOSIG RMK PP000=
SPZO Dic2010-102000Z 04004KT 9999 -RAVCSH SCT040 BKN060 14/07 Q1026 TEMPO 8000 RMK PP004=
SPZO Dic2010-102100Z 02006KT 300V040 9999 RA FEW043 OVC080 13/07 Q1026 TEMPO 7000 RMK PPTRZ=
SPZO Dic2010-102200Z 00000KT 9999 VCSH FEW033 SCT043 BKN100 11/08 Q1025 RERA NOSIG RMK TMAX 19.5 PP006=
SPZO Dic2010-102300Z 00000KT 9999 FEW043 BKN100 12/08 Q1026 NOSIG RMK PP000=
SPZO Dic2010-110000Z 00000KT 9999 FEW050 OVC200 11/08 Q1026 RMK PP000=
SPZO Dic2010-110100Z 00000KT 9999 BKN230 11/08 Q1027 RMK PP000=
SPZO Dic2010-110200Z 03003KT 9999 BKN230 11/08 Q1028 RMK PP000=
SPZO Dic2010-110300Z 00000KT 9999 -RA FEW036 BKN080 11/08 Q1028 RMK PP004=
SPZO Dic2010-110400Z 00000KT 9999 -RA SCT036 BKN080 11/08 Q1028 RMK PP002=
SPZO Dic2010-110500Z 00000KT 9999 SCT046 BKN080 11/08 Q1028 RMK PP000=
SPZO Dic2010-110600Z 03005KT 9999 -RA SCT040 BKN070 10/08 Q1027 RMK PP004=
SPZO Dic2010-110700Z 04004KT 9999 SCT046 BKN080 10/08 Q1027 RMK PP000=
SPZO Dic2010-110800Z 03003KT 9999 FEW040 BKN100 10/08 Q1027 RMK PP000=
SPZO Dic2010-110900Z VRB02KT 9999 SCT030 BKN060 10/08 Q1027 RMK PP000=
SPZO Dic2010-111000Z 04005KT 9999 SCT036 BKN460 10/07 Q1028 RMK PP000=
SPZO Dic2010-111100Z 04004KT 9999 SCT036 BKN046 10/07 Q1029 NOSIG RMK PP000=
SPZO Dic2010-111200Z VRB02KT 9999 FEW033 SCT040 BKN050 11/06 Q1029 NOSIG RMK PP000=
SPZO Dic2010-111300Z 00000KT 9999 FEW030 SCT043 BKN080 13/06 Q1030 NOSIG RMK PP000=
SPZO Dic2010-111400Z 00000KT 9999 FEW030 SCT050 BKN100 14/07 Q1029 NOSIG RMK PP000=
SPZO Dic2010-111500Z VRB02KT 9999 SCT040 BKN150 16/07 Q1029 NOSIG RMK PP000=
SPZO Dic2010-111600Z VRB02KT 9999 FEW040TCU SCT043 BKN100 18/08 Q1028 TEMPO VCSH RM=
SPZO Dic2010-111700Z 28007KT 9999 SCT043 BKN080 18/06 Q1027 TEMPO VCSH RMK PP000=
SPZO Dic2010-111800Z 03008KT 9999 VCSH FEW040 SCT046 BKN100 16/07 Q1026 NOSIG RMK PP000=
SPZO Dic2010-111828Z 00000KT 9999 VCSH SCT043 SCT050CB BKN100 17/06 Q1025=
SPZO Dic2010-111900Z 32009KT 290V020 9999 4000NW -RA VCSH SCT043 SCT050CB BKN100 16/07 Q1026 BECMG FM2000 NSW RMK PP002=
SPZO Dic2010-112000Z 29005KT 9999 VCSH FEW043 SCT080 BKN230 13/08 Q1026 NOSIG RMK PP002=
SPZO Dic2010-112100Z 28007KT 9999 FEW043 BKN230 15/07 Q1024 NOSIG RMK PP000=
SPZO Dic2010-112200Z 28010KT 9999 FEW050 BKN230 16/07 Q1024 NOSIG RMK T.MAX 19.0 PP000=
SPZO Dic2010-112300Z 30006KT 9999 FEW050 BKN230 15/07 Q1025 NOSIG RMK PP000=
SPZO Dic2010-120000Z 28004KT 9999 SCT050 BKN100 14/07 Q1026 RMK PP000=
SPZO Dic2010-120100Z 00000KT 9999 SCT040 BKN080 14/07 Q1027 RMK PP000=
SPZO Dic2010-120200Z 00000KT 9999 SCT040 SCT050 13/08 Q1027 RMK PP000=
SPZO Dic2010-120300Z 00000KT 9999 SCT040 SCT050 13/08 Q1028 RMK PP002=
SPZO Dic2010-120400Z 00000KT 9999 SCT030 SCT040 13/06 Q1028 RMK PP000=
SPZO Dic2010-120500Z 00000KT 9999 SCT040 SCT050 12/07 Q1028 RMK PP000=
SPZO Dic2010-120600Z 00000KT 9999 SCT030 SCT040 11/08 Q1028 RMK PP002=
SPZO Dic2010-120700Z 00000KT 9999 SCT040 SCT050 11/07 Q1027 RMK PP000=
SPZO Dic2010-120800Z 00000KT 9999 SCT040 SCT050 10/07 Q1027 RMK PP000=
SPZO Dic2010-120900Z 00000KT 9999 SCT040 SCT050 10/06 Q1027 RMK PP000=
SPZO Dic2010-121000Z 00000KT 9999 SCT025 SCT100 OVC230 10/06 Q1028 RMK PP000=
SPZO Dic2010-121039Z 00000KT 9999 SCT030 SCT043 BKN 10/06 Q1028=
SPZO Dic2010-121100Z 00000KT 9999 SCT030 BKN040 BKN060 10/06 Q1028 NOSIG RMK PP000=
SPZO Dic2010-121200Z 00000KT 9999 FEW025 SCT033 OVC040 11/06 Q1029 TEMPO=
SPZO Dic2010-121227Z 9999 -RA VCSH FEW043 BKN060 BKN100 13/07 Q1024 RERA RMK VIS 7000E=
SPZO Dic2010-121300Z 00000KT 9999 FEW030 SCT043 BKN080 12/06 Q1030 NOSIG RMK PP000=
SPZO Dic2010-121400Z 01003KT 300V040 9999 SCT033 BKN230 14/06 Q1030 NOSIG RMK PP000=
SPZO Dic2010-121500Z 30004KT 280V020 9999 FEW040 SCT050 BKN230 16/06 Q1029 NOSIG RMK PP000=
SPZO Dic2010-121600Z 31004KT 280V050 9999 SCT050 OVC230 18/06 Q1028 NOSIG RMK PP000=
SPZO Dic2010-121700Z 30007KT 270V020 9999 SCT050 BKN230 19/06 Q1026 NOSIG RMK PP000=
SPZO Dic2010-121800Z 29008KT 9999 FEW043 SCT060TCU BKN230 21/03 Q1025 TEMPO VCSH RMK PP000=
SPZO Dic2010-121839Z 28011KT 9999 VCSH SCT043 SCT060CB BKN230 19/05 Q1024=
SPZO Dic2010-121900Z 28016KT 9999 TS VCSH FEW043TCU SCT060CB BKN230 19/05 Q1024 TEMPO -RA RMK PP000=
SPZO Dic2010-121927Z 9999 -RA VCSH FEW043 BKN060 BKN100 13/07 Q1024 RERA RMK VIS 7000E=
SPZO Dic2010-121940Z VRB02KT 9999 -RA VCSH FEW060 BKN080 BKN230 13/08 Q1024=
SPZO Dic2010-122000Z VRB01KT 9999 -RA VCSH FEW060 BKN080 BKN230 13/07 Q1024 BECMG NSW RMK PP044=
SPZO Dic2010-122021Z 02005KT 300V040 9999 FEW050 SCT100 BKN230 14/07 Q1023=
SPZO Dic2010-122100Z 04005KT 9999 FEW050 SCT150 BKN230 14/08 Q1023 NOSIG RMK PPTRZ=
SPZO Dic2010-122200Z 03004KT 9999 SCT050 SCT150 15/08 Q1023 NOSIG RMK TMAX 21.3 PP000=
SPZO Dic2010-122300Z 03003KT 9999 VCSH SCT043 BKN100 15/08 Q1023 TEMPO -RA RMK PP000=
SPZO Dic2010-130000Z 30005KT 9999 RA SCT040 BKN060 12/08 Q1025 RMK PP000=
SPZO Dic2010-130100Z 00000KT 8000 TSRA FEW033TCU SCT050CB BKN070 11/09 Q1027 RMK PP022=
SPZO Dic2010-130200Z 03004KT 8000 RA SCT036 BKN050 10/08 Q1029 RMK PP066=
SPZO Dic2010-130300Z 00000KT 8000 RA FEW030 OVC046 10/08 Q1029 RMK PP042=
SPZO Dic2010-130400Z 00000KT 8000 RA FEW030 OVC046 09/06 Q1029 RMK PP034=
SPZO Dic2010-130500Z 03003KT 8000 -RA FEW036 OCV050 08/07 Q1028 RMK PP014=
SPZO Dic2010-130600Z 00000KT 8000 -RA SCT036 BKN046 08/06 Q1027 RMK PP012=
SPZO Dic2010-130700Z 00000KT 8000 -RA SCT036 BKN046 08/06 Q1026 RMK PP002=
SPZO Dic2010-130800Z 00000KT 8000 -RA SCT036 BKN040 08/06 Q1026 RMK PP004=
SPZO Dic2010-130900Z 00000KT 8000 -RA FEW025 SCT036 BKN046 09/07 Q1026 RMK PPTRZ=
SPZO Dic2010-131000Z 00000KT 8000 -RA SCT030 BKN040 09/07 Q1027 RMK PP004=
SPZO Dic2010-131021Z 00000KT 9999 -RA SCT015 SCT030 OVC080 09/07 Q1027 RMK CLNG BLW 1200M=
SPZO Dic2010-131100Z 00000KT 9999 FEW015 SCT040 OVC100 09/07 Q1027 NOSIG RMK PP002=
SPZO Dic2010-131200Z 00000KT 9999 FEW015 BKN040 OVC100 10/08 Q1028 TEMPO SCT020 SCT040 OVC100 RMK PP000=
SPZO Dic2010-131300Z 00000KT 9999 SCT030 BKN060 OVC150 11/08 Q1028 NOSIG RMK PP000=
SPZO Dic2010-131400Z 00000KT 9999 SCT030 BKN150 OVC230 13/07 Q1028 NOSIG RMK PP000=
SPZO Dic2010-131500Z 00000KT 9999 SCT033 SCT150 OVC230 15/05 Q1027 NOSIG RMK PP000=
SPZO Dic2010-131600Z VRB02KT 9999 FEW036 BKN150 OVC230 15/04 Q1027 NOSIG RMK PP000=
SPZO Dic2010-131700Z VRB02KT FEW050 OVC230 16/06 Q1025 NOSIG RMK PP000=
SPZO Dic2010-131800Z 03002KT 9999 FEW043 SCT050 OVC230 17/06 Q1024 NOSIG RMK PP000=
SPZO Dic2010-131900Z 00000KT 9999 SCT430 OVC100 18/06 Q1022 TEMPO VCSH RMK PP000=
SPZO Dic2010-132000Z 30011KT 280V040 9999 SCT043 BKN060 15/07 Q1023 TEMPO -RA RMK PP000=
SPZO Dic2010-132100Z 28009KT 9999 SCT036 OVC100 15/07 Q1023 TEMPO -RA RMK PP000=
SPZO Dic2010-132200Z 28010KT 9999 SCT036 OVC100 13/06 Q1023 TEMPO VCSH RMK TMAX 18.2 PP000=
SPZO Dic2010-132300Z 28010KT 9999 SCT046 OVC060 12/06 Q1025 TEMPO VCSH RMK PP000=
SPZO Dic2010-140000Z 28007KT 9000 -RA FEW036 OVC043 10/07 Q1026 RMK PP010=
SPZO Dic2010-140100Z VRB02KT 8000 RA SCT033 BKN040 10/06 Q1028 RMK PP022=
SPZO Dic2010-140200Z 29005KT 9999 SCT030 BKN046 10/06 Q1028 RMK PP002=
SPZO Dic2010-140300Z 00000KT 9999 OVC040 10/05 Q1027 RMK PP000=
SPZO Dic2010-140400Z 28006KT 9999 SCT033 BKN046 09/05 Q1027 RMK PP000=
SPZO Dic2010-140500Z 03004KT 9999 SCT036 BKN050 09/05 Q1026 RMK PP000=
SPZO Dic2010-140600Z 00000KT 9999 BKN040 SCT050 09/06 Q1026 RMK PP000=
SPZO Dic2010-140700Z 00000KT 9999 SCT030 BKN040 09/06 Q1025 RMK PP000=
SPZO Dic2010-140800Z 00000KT 9999 OVC040 08/06 Q1025 RMK PP000=
SPZO Dic2010-140900Z 00000KT 9999 SCT030 BKN043 08/06 Q1025 RMK PP000=
SPZO Dic2010-141000Z 00000KT 9999 FEW020 SCT040 BKN046 08/06 Q1025 RMK PP000=
SPZO Dic2010-141100Z 00000KT 9999 FEW020 SCT043 BKN100 08/06 Q1026 NOSIG RMK PP000=
SPZO Dic2010-141200Z 00000KT 9000 SCT036 BKN230 10/07 Q1026 NOSIG RMK PP000=
SPZO Dic2010-141300Z 00000KT 9999 SCT040 BKN200 12/05 Q1027 NOSIG RMK PP000=
SPZO Dic2010-141400Z 00000KT 9999 SCT043 BKN230 14/05 Q1027 NOSIG RMK PP000=
SPZO Dic2010-141500Z 00000KT 9999 SCT043 BKN200 16/04 Q1027 NOSIG RMK PP000=
SPZO Dic2010-141600Z 29004KT 280V050 9999 SCT046 OVC230 17/02 Q1026 NOSIG RMK PP000=
SPZO Dic2010-141700Z 30004KT 280V040 9999 SCT046 BKN200 18/04 Q1024 NOSIG RMK PP000=
SPZO Dic2010-141800Z 29006KT 280V020 9999 FEW046 BKN230 19/06 Q1023 NOSIG RMK PP000=
SPZO Dic2010-141900Z 31003KT 280V040 9999 FEW046 BKN230 20/00 Q1021 NOSIG RMK PP000=
SPZO Dic2010-142000Z 30006KT 280V030 9999 FEW050 BKN230 21/02 Q1020 NOSIG RMK PP000=
SPZO Dic2010-142100Z 28014KT 9999 SCT230 20/03 Q1020 NOSIG RMK PP000=
SPZO Dic2010-142200Z 28015KT 9999 SCT230 19/03 Q1020 NOSIG RMK PP000=
SPZO Dic2010-142300Z 28011KT 9999 SCT230 17/04 Q1021 NOSIG RMK TMAX 21.00 PP000=
SPZO Dic2010-150000Z 28006KT 9999 SCT050 SCT230 15/03 Q1022 RMK PP000=
SPZO Dic2010-150100Z 28007KT 9999 SCT180 15/04 Q1023 RMK PP000=
SPZO Dic2010-150200Z 31005KT 280V020 9999 SCT060 14/05 Q1024 RMK PP000=
SPZO Dic2010-150300Z 00000KT 9999 SCT060 13/06 Q1026 RMK PP000=
SPZO Dic2010-150400Z 00000KT 9999 SCT060 12/06 Q1026 RMK PP000=
SPZO Dic2010-150500Z 00000KT 9999 SCT060 12/07 Q1025 RMK PP000=
SPZO Dic2010-150600Z 00000KT 9999 SCT050 11/07 Q1025 RMK PP000=
SPZO Dic2010-150700Z 28005KT 9999 SCT050 11/06 Q1025 RMK PP000=
SPZO Dic2010-150800Z 29005KT 9999 SCT050 11/06 Q1024 RMK PP000=
SPZO Dic2010-150900Z 00000KT 9999 SCT036 BKN050 11/07 Q1024 RMK PP000=
SPZO Dic2010-151000Z 00000KT 9999 FEW030 SCT046 10/07 Q1025 RMK PP000=
SPZO Dic2010-151100Z 00000KT 9000 FEW030 BKN046 10/06 Q1026 BECMG FM1130 9999 RMK HZ QUAD E PP000=
SPZO Dic2010-151200Z VRB02KT 9999 FEW030 BKN046 12/07 Q1027 NOSIG RMK PP000=
SPZO Dic2010-151300Z 03005KT 9999 FEW030 SCT046 12/06 Q1027 NOSIG RMK PP000=
SPZO Dic2010-151400Z 00000KT 9999 FEW040 BKN050 14/05 Q1027 NOSIG RMK PP000=
SPZO Dic2010-151500Z 00000KT 9999 FEW040 BKN060 16/03 Q1027 NOSIG RMK PP000=
SPZO Dic2010-151600Z 34004KT 280V050 9999 FEW040 SCT060 18/06 Q1026 NOSIG RMK PP000=
SPZO Dic2010-151700Z 34003KT 280V040 9999 FEW040 SCT060 19/03 Q1024 NOSIG RMK PP000=
SPZO Dic2010-151800Z 03006KT 280V050 9999 BKN050 21/04 Q1023 NOSIG RMK PP000=
SPZO Dic2010-151900Z 31003KT 280V020 9999 BKN060 21/03 Q1022 NOSIG RMK PP000=
SPZO Dic2010-151937Z 03007KT 290V040 9999 VCSH SCT043 SCT060CB 19/03 Q1021=
SPZO Dic2010-152000Z 01014KT 300V040 9999 -SHRA SCT060CB SCT080 18/07 Q1021 BECMG FM2030 NSW RMK PPTRZ=
SPZO Dic2010-152037Z 35010KT 300V020 9999 FEW050 SCT060CB BKN100 17/05 Q1022=
SPZO Dic2010-152100Z 30007KT 280V020 9999 FEW050 SCT060CB BKN100 17/06 Q1022 NOSIG RMK PP000=
SPZO Dic2010-152200Z 28010KT 280V020 9999 FEW050 SCT060 BKN150 17/06 Q1023 NOSIG RMK TMAX 22.4 PP000=
SPZO Dic2010-152300Z 28012KT 9999 BKN050 BKN100 16/02 Q1024 NOSIG RMK PP000=
SPZO Dic2010-160000Z 35004KT 280V050 9999 SCT050 BKN100 16/03 Q1025 RMK PP002=
SPZO Dic2010-160100Z 00000KT 9999 SCT050 13/04 Q1025 RMK PP000=
SPZO Dic2010-160200Z 03004KT 9999 SKC 12/06 Q1026 RMK PP000=
SPZO Dic2010-160300Z 00000KT 9999 SKC 11/07 Q1026 RMK PP000=
SPZO Dic2010-160400Z 00000KT 9999 SKC 10/05 Q1026 RMK PP000=
SPZO Dic2010-160500Z 00000KT 9999 SKC 09/05 Q1026 RMK PP000=
SPZO Dic2010-160600Z 00000KT 9999 SKC 09/05 Q1025 RMK PP000=
SPZO Dic2010-160700Z 00000KT 9999 SKC 08/05 Q1025 RMK PP000=
SPZO Dic2010-160800Z 00000KT 9999 SKC 07/05 Q1025 RMK PP000=
SPZO Dic2010-160900Z 00000KT 9999 FEW040 SCT060 08/05 Q1026 RMK PP000=
SPZO Dic2010-161000Z 00000KT 9999 FEW020 BKN033 OVC046 08/05 Q1027 RMK CLNG BLW 1200M PP000=
SPZO Dic2010-161100Z 00000KT 9999 FEW020 BKN033 OVC046 09/05 Q1028 BECMG FM1215 FEW030 SCT040 BKN060 RMK CLNG BLW 1200M PP000=
SPZO Dic2010-161200Z 00000KT 9999 FEW020 BKN036 OVC046 10/05 Q1029 BECMG FM1300 FEW025 SCT036 BKN050 RMK CLNG BLW 1200M PP000=
SPZO Dic2010-161300Z 00000KT 9999 FEW030 SCT036 OVC050 10/05 Q1030 NOSIG RMK PP000=
SPZO Dic2010-161400Z 00000KT 9999 FEW036 SCT043 BKN060 12/05 Q1030 BECMG SCT043 BKN100 RMK PP000=
SPZO Dic2010-161500Z 00000KT 9999 FEW036 SCT043 BKN080 13/04 Q1030 NOSIG RMK PP000=
SPZO Dic2010-161600Z 03004KT 9999 FEW036 SCT046 BKN100 14/05 Q1029 NOSIG RMK PP000=
SPZO Dic2010-161700Z 00000KT 9999 SCT043 BKN100 16/04 Q1029 NOSIG RMK PP000=
SPZO Dic2010-161800Z VRB02KT 9999 SCT050 SCT100 18/03 Q1027 NOSIG RMK PP000=
SPZO Dic2010-161900Z VRB02KT 9999 BKN060 19/02 Q1025 NOSIG RMK PP000=
SPZO Dic2010-162000Z 30003KT 280V040 9999 SCT060 20/02 Q1024 NOSIG RMK PP000=
SPZO Dic2010-162100Z 02004KT 300V040 9999 SCT060 20/01 Q1023 NOSIG RMK PP000=
SPZO Dic2010-162200Z VRB02KT 9999 FEW060 20/01 Q1023 NOSIG RMK T.MAX 21.1 PP000=
SPZO Dic2010-162300Z 36006KT 300V040 9999 FEW060 19/02 Q1023 NOSIG RMK PP000=
SPZO Dic2010-170000Z 30008KT 9999 FEW050 17/03 Q1024 RMK PP000=
SPZO Dic2010-170100Z 28010KT 9999 FEW100 15/06 Q1025 RMK PP000=
SPZO Dic2010-170200Z 30010KT 9999 FEW060 15/06 Q1027 RMK PP000=
SPZO Dic2010-170300Z 28013KT 9999 RA SCT036 SCT043 13/08 Q1028 RMK PP044=
SPZO Dic2010-170400Z 28003KT 9999 SCT033 SCT040 11/04 Q1028 RMK PP004=
SPZO Dic2010-170500Z 00000KT 9999 SCT036 SCT043 10/07 Q1027 RMK PP000=
SPZO Dic2010-170600Z 00000KT 9999 SKC 10/07 Q1026 RMK PP000=
SPZO Dic2010-170700Z 00000KT 9999 SKC 09/07 Q1026 RMK PP000=
SPZO Dic2010-170800Z 00000KT 9999 SKC 09/06 Q1026 RMK PP000=
SPZO Dic2010-170900Z 00000KT 9999 SKC 09/06 Q1026 RMK PP000=
SPZO Dic2010-171000Z 29005KT 9999 FEW025 SCT033 BKN043 09/06 Q1027 RMK PP000=
SPZO Dic2010-171100Z 00000KT 9999 FEW025 SCT033 BKN043 10/06 Q1028 NOSIG RMK PP000=
SPZO Dic2010-171200Z 00000KT 9999 FEW030 SCT043 BKN080 11/06 Q1029 BECMG FM1300 SCT040 SCT100 RMK PP000=
SPZO Dic2010-171300Z 00000KT 9999 SCT036 SCT100 13/06 Q1029 NOSIG RMK PP000=
SPZO Dic2010-171400Z 00000KT 9999 FEW040 SCT050 16/06 Q1029 NOSIG RMK PP000=
SPZO Dic2010-171500Z 00000KT 9999 FEW040 SCT050 17/06 Q1028 NOSIG RMK PP000=
SPZO Dic2010-171600Z 31004KT 280V040 9999 SCT050 18/06 Q1027 NOSIG RMK PP000=
SPZO Dic2010-171700Z 29006KT 280V020 9999 SCT060 20/04 Q1025 NOSIG RMK PP000=
SPZO Dic2010-171730Z 31005KT 280V040 9999 FEW043 FEW060CB SCT230 20/04 Q1024=
SPZO Dic2010-171800Z 32004KT 280V040 9999 VCSH FEW043TCU SCT050 BKN150 19/05 Q1024 NOSIG RMK PP000=
SPZO Dic2010-171900Z 28004KT 9999 SCT050 BKN100 19/03 Q1023 NOSIG RMK PP000=
SPZO Dic2010-172000Z 28006KT 280V020 9999 VCSH SCT046 BKN080 20/05 Q1023 NOSIG RMK PP000=
SPZO Dic2010-172100Z 32008KT 280V020 9999 FEW050 SCT100 18/05 Q1022 NOSIG RMK PP000=
SPZO Dic2010-172200Z 36007KT 300V050 9999 FEW050 SCT200 19/03 Q1022 NOSIG RMK TMAX 20.9 PP000=
SPZO Dic2010-172300Z 28012KT 9999 FEW040 BKN100 17/05 Q1023 NOSIG RMK PP000=
SPZO Dic2010-180000Z 28011KT 9999 FEW040 BKN060 16/04 Q1025 RMK PP000=
SPZO Dic2010-180100Z 30005KT 280V020 9000 RA FEW040 OVC070 13/04 Q1027 RMK PP002=
SPZO Dic2010-180200Z 04005KT 9000 RA SCT043 BKN050 11/06 Q1028 RMK PP004=
SPZO Dic2010-180300Z 00000KT 9000 -RA SCT043 BKN046 11/06 Q1029 RMK PPTRZ=
SPZO Dic2010-180400Z 00000KT 9999 FEW040 SCT050 BKN080 11/06 Q1029 RMK PP000=
SPZO Dic2010-180500Z 00000KT 9999 RA FEW040 SCT050 BKN100 11/07 Q1028 RMK PP002=
SPZO Dic2010-180600Z 00000KT 9999 SCT043 BKN060 11/07 Q1027 RMK PP000=
SPZO Dic2010-180700Z 00000KT 9999 SCT040 BKN080 11/07 Q1026 RMK PP000=
SPZO Dic2010-180800Z 00000KT 9999 SCT040 BKN080 11/07 Q1026 RMK PP000=
SPZO Dic2010-180900Z 00000KT 9999 SCT036 BKN100 10/07 Q1025 RMK PP000=
SPZO Dic2010-181000Z 00000KT 9999 SCT036 BKN100 09/06 Q1026 RMK PP000=
SPZO Dic2010-181100Z 00000KT 9999 FEW030 SCT046 BKN100 09/06 Q1027 NOSIG RMK PP000=
SPZO Dic2010-181200Z 00000KT 9999 FEW040 OVC080 10/07 Q1028 NOSIG RMK PP000=
SPZO Dic2010-181300Z 00000KT 9999 FEW030 SCT046 BKN080 12/07 Q1028 NOSIG RMK PP000=
SPZO Dic2010-181400Z VRB02KT 9999 FEW030 SCT046 BKN230 13/06 Q1028 NOSIG RMK PP000=
SPZO Dic2010-181500Z VRB02KT 9999 SCT046 SCT100 16/07 Q1028 NOSIG RMK PP000=
SPZO Dic2010-181600Z VRB02KT 9999 SCT046 BKN230 18/07 Q1026 NOSIG RMK PP000=
SPZO Dic2010-181700Z 01003KT 280V040 9999 SCT050 BKN100 18/04 Q1026 NOSIG RMK PP000=
SPZO Dic2010-181800Z VRB02KT 9999 SCT046 BKN100 19/04 Q1025 NOSIG RMK PP000=
SPZO Dic2010-181900Z 01009KT 300V050 9999 SCT046 BKN100 18/06 Q1024 NOSIG RMK PP000=
SPZO Dic2010-182000Z 32007KT 280V020 9999 FEW050 BKN150 19/04 Q1022 NOSIG RMK PP000=
SPZO Dic2010-182100Z 02004KT 300V040 9999 SCT050 BKN200 19/04 Q1022 NOSIG RMK PP000=
SPZO Dic2010-182200Z 28009KT 9999 FEW050 BKN230 19/04 Q1022 NOSIG RMK TMAX 20.0 PP000=
SPZO Dic2010-182300Z 28011KT 9999 FEW050 SCT230 17/04 Q1022 NOSIG RMK PP000=
SPZO Dic2010-190000Z 29008KT 9999 FEW050 15/06 Q1023 RMK PP000=
SPZO Dic2010-190100Z 28010KT 9999 FEW050 SCT100 14/06 Q1024 RMK PP000=
SPZO Dic2010-190200Z 28008KT 9999 SCT043 BKN100 14/06 Q1025 RMK PP000=
SPZO Dic2010-190300Z 29005KT 8000 TSRA SCT040CB BKN046 12/08 Q1026 RMK PP030=
SPZO Dic2010-190400Z 00000KT 8000 TSRA SCT040CB BKN043 10/08 Q1027 RMK PP082=
SPZO Dic2010-190500Z /////KT 8000 -TSRA SCT040CB BKN043 09/07 Q1027 RMK PP079=
SPZO Dic2010-190600Z 00000KT 9999 -RA SCT033 BKN046 09/06 Q1026 RMK PP007=
SPZO Dic2010-190700Z /////KT 9999 SCT030 BKN046 09/07 Q1026 RMK PP000=
SPZO Dic2010-190800Z /////KT 9999 BKN040 SCT046 09/07 Q1026 RMK PP000=
SPZO Dic2010-190900Z /////KT 9999 BKN040 SCT046 09/07 Q1026 RMK PP000=
SPZO Dic2010-191000Z /////KT 9999 SCT033 SCT046 09/07 Q1026 RMK PP000=
SPZO Dic2010-191100Z /////KT 9999 FEW036 BKN230 09/06 Q1027 NOSIG RMK PP000=
SPZO Dic2010-191200Z /////KT 9999 FEW036 BKN230 10/07 Q1028 NOSIG RMK PP000=
SPZO Dic2010-191233Z /////KT 9999 FEW030 BKN050 12/07 Q1028=
SPZO Dic2010-191300Z /////KT 9999 FEW030 SCT046 BKN200 12/06 Q1028 NOSIG RMK PP000=
SPZO Dic2010-191400Z 27003KT 9999 SCT036 BKN200 16/06 Q1028 NOSIG RMK PP000=
SPZO Dic2010-191500Z 33002KT 9999 SCT043 BKN230 16/04 Q1027 NOSIG RMK PP000=
SPZO Dic2010-191600Z 30004KT 9999 SCT046 BKN230 17/04 Q1027 NOSIG RMK PP000=
SPZO Dic2010-191700Z 03004KT 9999 FEW040 SCT060 19/04 Q1025 NOSIG RMK PP000=
SPZO Dic2010-191800Z 34005KT 9999 FEW050 BKN100 18/03 Q1025 NOSIG RMK PP000=
SPZO Dic2010-191900Z 36012KT 9999 FEW060 SCT230 19/02 Q1024 NOSIG RMK PP000=
SPZO Dic2010-192000Z 35005KT 290V050 9999 SCT060 19/05 Q1022 NOSIG RMK PP000=
SPZO Dic2010-192100Z 33006G18KT 270V030 9999 SCT060 20/02 Q1021 NOSIG RMK PP000=
SPZO Dic2010-192200Z /////KT 9999 FEW060 19/03 Q1021 NOSIG RMK TMAX 20.00 PP000=
SPZO Dic2010-192300Z /////KT 9999 FEW060 19/02 Q1021 NOSIG RMK PP000=
SPZO Dic2010-200000Z /////KT 9999 SCT060 17/05 Q1023 RMK PP000=
SPZO Dic2010-200100Z /////KT 8000 TSRA SCT040CB BKN060 13/07 Q1026 RMK PP038=
SPZO Dic2010-200200Z /////KT 9999 SCT040 BKN060 12/06 Q1027 RMK RERA PP002=
SPZO Dic2010-200300Z /////KT 8000 RA SCT033 BKN046 10/07 Q1028 RMK PP024=
SPZO Dic2010-200400Z /////KT 9999 SCT033 BKN046 10/05 Q1029 RMK PP002=
SPZO Dic2010-200500Z /////KT 9999 SCT033 BKN050 10/06 Q1029 RMK RERA PPTRZ=
SPZO Dic2010-200600Z /////KT 9999 SCT033 BKN050 10/05 Q1028 RMK PP000=
SPZO Dic2010-200700Z /////KT 9999 SCT030 BKN046 09/04 Q1028 RMK PP000=
SPZO Dic2010-200800Z /////KT 9999 SCT030 BKN046 09/05 Q1028 RMK PP000=
SPZO Dic2010-200900Z /////KT 9999 SCT020 OVC080 09/04 Q1028 RMK PP000=
SPZO Dic2010-201000Z /////KT 8000 -RA FEW030 SCT0036 OVC080 09/05 Q1029 RMK PP004=
SPZO Dic2010-201033Z 00000KT 9999 -RA FEW030 BKN036 OVC080 09/06 Q1029 RMK VIS 8000E CLNG BLW 1200M=
SPZO Dic2010-201100Z 00000KT 9000 -RA FEW020 BKN036 OVC080 08/06 Q1030 BECMG 9999 RMK CLNG BLW 1200M PP006=
SPZO Dic2010-201115Z 00000KT 9999 -RA FEW005 SCT020 BKN033 08/06 Q1030 RMK CLNG BLW 1200M=
SPZO Dic2010-201200Z 27004KT 9999 SCT015 SCT033 BKN080 09/05 Q1030 BECMG SCT025 SCT040 BKN080 RMK CLNG BLW 1200M PP006=
SPZO Dic2010-201220Z 00000KT 9999 SCT025 SCT040 OVC080 09/04 Q1031=
SPZO Dic2010-201300Z 04003KT 9999 SCT025 SCT040 OVC080 09/05 Q1031 NOSIG RMK NUB BAJA MAPT DESCENSO B APROX 1000FT PP000=
SPZO Dic2010-201322Z 27004KT 9999 SCT015 SCT043 BKN100 10/05 Q1031 RMK CLD MAPT STAR BRAVO APROX 1300FT=
SPZO Dic2010-201400Z 04010KT 9999 VCSH SCT030 SCT036 BKN060 06/06 Q1032 TEMPO -RA RMK PP000=
SPZO Dic2010-201427Z 03003KT 9999 SCT025 SCT040 BKN080 11/06 Q1031=
SPZO Dic2010-201500Z VRB02KT 9999 SCT030 SCT080 BKN230 12/06 Q1031 NOSIG RMK PP000=
SPZO Dic2010-201600Z 30003KT 9999 SCT033 SCT100 14/05 Q1030 NOSIG RMK PP000=
SPZO Dic2010-201700Z 00000KT 9999 SCT040 SCT100 16/08 Q1029 NOSIG RMK PP000=
SPZO Dic2010-201800Z 36002KT 9999 FEW040 SCT043 BKN100 17/04 Q1028 NOSIG RMK PP000=
SPZO Dic2010-201834Z 28003KT 9999 SCT050 SCT230 18/06 Q1026=
SPZO Dic2010-201900Z 34001KT 9999 SCT043 FEW060TCU BKN230 17/04 Q1026 NOSIG RMK PP000=
SPZO Dic2010-202000Z 30004KT 270V030 9999 SCT043 FEW060TCU 19/04 Q1024 NOSIG RMK PP000=
SPZO Dic2010-202100Z 35013KT 9999 SCT043 BKN060CB 17/04 Q1024 TEMPO -SHRA RMK PP000=
SPZO Dic2010-202200Z /////KT 9999 -RA VCSH BKN060CB SCT100 13/07 Q1025 BECMG NSW RMK TMAX 19.4 PP022=
SPZO Dic2010-202300Z /////KT 9999 SCT060 SCT230 13/07 Q1025 NOSIG RMK PPTRZ=
SPZO Dic2010-210000Z /////KT 9999 BKN050 12/07 Q1027 RMK PP000=
SPZO Dic2010-210100Z /////KT 9999 FEW040 BKN050 11/08 Q1027 RMK PP000=
SPZO Dic2010-210131Z 00000KT 9999 FEW033 SCT080 OVC150 07/03 Q1030=
SPZO Dic2010-210200Z /////KT 9999 FEW040 SCT070 12/08 Q1028 RMK PP000=
SPZO Dic2010-210300Z /////KT 9999 SCT050 BKN100 12/08 Q1028 RMK PP000=
SPZO Dic2010-210400Z /////KT 9999 -TSRA SCT036 BKN060 07/06 Q1030 RMK PP034=
SPZO Dic2010-210500Z /////KT 9999 -RA SCT036 BKN050 09/06 Q1030 RMK PP002=
SPZO Dic2010-210600Z /////KT 9999 -RA FEW030 SCT036 BKN050 09/06 Q1029 RMK PP054=
SPZO Dic2010-210700Z /////KT 9999 -RA FEW030 SCT036 BKN050 09/06 Q1029 RMK PP001=
SPZO Dic2010-210800Z /////KT 9999 FEW036 SCT043 BKN060 08/04 Q1029 RERA RMK PP006=
SPZO Dic2010-210900Z /////KT 9999 -RA FEW036 SCT043 BKN060 07/04 Q1029 RERA RMK PP0016=
SPZO Dic2010-211000Z /////KT 9999 -RA FEW030 SCT033 OVC080 07/04 Q1029 RMK PP0018=
SPZO Dic2010-211031Z 00000KT 9999 FEW033 SCT080 OVC150 07/03 Q1030=
SPZO Dic2010-211100Z 00000KT 9999 FEW030 SCT080 OVC150 07/04 Q1030 NOSIG RMK PPTRZ=
SPZO Dic2010-211131Z 00000KT 9999 FEW033 SCT080 OVC150 07/03 Q1030=
SPZO Dic2010-211200Z 00000KT 9999 -RA FEW030 SCT046 OVC150 08/04 Q1031 BECMG FM1300 NSW RMK PPTRZ=
SPZO Dic2010-211229Z 00000KT 8000 -RA SCT030 SCT040 OVC150 08/04 Q1031 RMK VIS 7000E=
SPZO Dic2010-211300Z 00000KT 8000 -RA SCT020 SCT043 OVC150 08/05 Q1032 TEMPO 7000 RMK PP002=
SPZO Dic2010-211325Z 00000KT 8000 -RA SCT020 SCT036 OVC100 08/05 Q1032 RMK CLNG BLW 1200M=
SPZO Dic2010-211400Z 00000KT 7000 -RA SCT025 SCT033 OVC080 08/05 Q1032 NOSIG RMK MOD RA QUAD E/W CLNG BLW 1200M PP006=
SPZO Dic2010-211500Z 00000KT 8000 -RA SCT025 SCT033 OVC100 09/05 Q1032 BECMG FM1520 FEW025 SCT033 OVC100 RMK CLNG BLW 1200M PP008=
SPZO Dic2010-211525Z 01003KT 8000 3500NE -RA VCSH FEW015 SCT025 OVC100 10/06 Q1032 RMK CLD MAPT START BRAVO APROX 2500FT=
SPZO Dic2010-211600Z 00000KT 8000 -RA VCSH FEW015 SCT025 OVC100 10/05 Q1032 TEMPO SCT025 SCT036 OVC100 RMK VIS 5000NE CLD MAPT START BRAVO APROX 2000FT PP004=
SPZO Dic2010-211700Z 00000KT 9999 SCT030 SCT040 OVC100 11/06 Q1031 TEMPO=
SPZO Dic2010-211800Z 00000KT 9999 -DZ SCT033 SCT043 OVC100 12/06 Q1031 NOSIG RMK PP002=
SPZO Dic2010-211900Z 00000KT 9999 VCSH SCT033 SCT046 BKN230 14/07 Q1029 NOSIG RMK PP000=
SPZO Dic2010-212000Z 34006KT 9999 SCT043 SCT230 14/05 Q1028 NOSIG RMK PP000=
SPZO Dic2010-212100Z 03005KT 9999 FEW040 SCT050 16/07 Q1027 NOSIG RMK PP000=
SPZO Dic2010-212200Z 00000KT 9999 FEW040 SCT050 16/05 Q1027 NOSIG RMK T.MAX 17.0 PP000=
SPZO Dic2010-212300Z 00000KT 9999 FEW040 SCT050 15/05 Q1027 NOSIG RMK PP000=
SPZO Dic2010-220000Z /////KT 9999 FEW040TCU SCT230 13/04 Q1028 RMK PP000=
SPZO Dic2010-220100Z /////KT 9999 FEW050 BKN230 12/05 Q1027 RMK PP000=
SPZO Dic2010-220200Z /////KT 9999 FEW050 BKN230 11/06 Q1030 RMK PP000=
SPZO Dic2010-220300Z /////KT 9999 FEW060 BKN230 11/06 Q1031 RMK PP000=
SPZO Dic2010-220400Z /////KT 9999 FEW020 OVC060 11/06 Q1031 RMK PP000=
SPZO Dic2010-220500Z /////KT 9999 FEW020 OVC230 10/06 Q1030 RMK PP000=
SPZO Dic2010-220600Z /////KT 9999 FEW050 OVC230 10/07 Q1030 RMK PP000=
SPZO Dic2010-220700Z /////KT 9999 FEW050 OVC230 09/06 Q1029 RMK PP000=
SPZO Dic2010-220800Z /////KT 9999 FEW040 BKN060 09/06 Q1030 RMK PP000=
SPZO Dic2010-220900Z /////KT 9999 BKN060 08/06 Q1029 RMK PP000=
SPZO Dic2010-221000Z /////KT 9999 SCT036 SCT050 08/05 Q1029 RMK PP000=
SPZO Dic2010-221100Z 00000KT 9999 FEW036 BKN050 08/06 Q1030 NOSIG RMK PP000=
SPZO Dic2010-221200Z 00000KT 9999 FEW036 SCT043 BKN060 10/06 Q1031 NOSIG RMK PP000=
SPZO Dic2010-221300Z 00000KT 9999 FEW040 SCT043 BKN060 12/05 Q1031 NOSIG RMK PP000=
SPZO Dic2010-221400Z 00000KT 9999 FEW036 SCT046 BKN080 14/06 Q1031 NOSIG RMK PP000=
SPZO Dic2010-221500Z 00000KT 9999 FEW036 SCT043 BKN050 14/05 Q1031 NOSIG RMK PP000=
SPZO Dic2010-221600Z 00000KT 9999 FEW040 SCT043 BKN080 15/05 Q1030 NOSIG RMK PP000=
SPZO Dic2010-221700Z 29005KT 9999 SCT043 BKN100 18/03 Q1029 NOSIG RMK PP000=
SPZO Dic2010-221800Z 01007KT 9999 FEW043 BKN050 18/04 Q1028 NOSIG RMK PP000=
SPZO Dic2010-221900Z 03006KT 9999 FEW043 BKN050 18/05 Q1026 NOSIG RMK PP000=
SPZO Dic2010-222000Z VRB02KT 9999 FEW040TCU SCT046 BKN080 18/05 Q1025 TEMPO VCSH RMK PP000=
SPZO Dic2010-222100Z 03004KT 9999 FEW040TCU SCT046 BKN080 17/05 Q1024 TEMPO VCSH RMK PP000=
SPZO Dic2010-222200Z 27006KT 9999 SCT046 BKN080 16/06 Q1025 TEMPO RA RMK TMAX 18.8 PP000=
SPZO Dic2010-222300Z 05004KT 9999 SCT043 BKN080 15/06 Q1025 NOSIG RMK PP000=
SPZO Dic2010-230000Z /////KT 9999 FEW040 SCT050 14/06 Q1027 RMK PP000=
SPZO Dic2010-230100Z /////KT 9999 FEW040 SCT050 13/07 Q1028 RMK PP000=
SPZO Dic2010-230200Z /////KT 9999 FEW043 SCT080 12/07 Q1029 RMK PP000=
SPZO Dic2010-230300Z /////KT 9999 SCT040 BKN046 12/06 Q1030 RMK PP000=
SPZO Dic2010-230400Z /////KT 9999 SCT046 BKN060 12/06 Q1030 RMK PP000=
SPZO Dic2010-230500Z /////KT 9999 SCT046 BKN060 11/06 Q1029 RMK PP000=
SPZO Dic2010-230600Z /////KT 9999 SCT036 BKN060 11/06 Q1028 RMK PP000=
SPZO Dic2010-230700Z /////KT 9999 FEW040 SCT046 BKN080 11/06 Q1028 RMK PP000=
SPZO Dic2010-230800Z /////KT 9999 FEW033 SCT040 SCT060 11/07 Q1028 RMK PP000=
SPZO Dic2010-230900Z /////KT 9999 SCT033 SCT046 09/06 Q1028 RMK PP000=
SPZO Dic2010-231000Z /////KT 9000 -RA FEW020 SCT033 BKN043 08/06 Q1029 RMK CLNG BLW 1200M PPTRZ=
SPZO Dic2010-231030Z /////KT 7000 RA FEW010 SCT025 BKN040 08/05 Q1030 RMK CLNG BLW 1200M=
SPZO Dic2010-231100Z 04010KT 7000 RA FEW020 SCT030 BKN043 07/05 Q1030 NOSIG RMK CLNG BLW 1200M PP014=
SPZO Dic2010-231200Z 36007KT 5000 RA FEW010 SCT033 BKN043 07/05 Q1031 BECMG FM1230 7000 RMK CLNG BLW 1200M PP012=
SPZO Dic2010-231233Z 06007KT 5000 RA FEW010 SCT025 BKN040 07/05 Q1032 CLNG BLW 1200M=
SPZO Dic2010-231300Z 04006KT 5000 RA FEW007 SCT020 BKN040 07/05 Q1032 NOSIG RMK CLNG BLW 1200M PP012=
SPZO Dic2010-231400Z 03005KT 8000 -RA FEW008 SCT030 BKN043 08/05 Q1032 NOSIG RMK CLNG BLW 1200M PP004=
SPZO Dic2010-231430Z 04004KT 9000 DZ FEW030 SCT036 BKN050 10/06 Q1032 RMK CLNG BLW 1200M=
SPZO Dic2010-231500Z 04003KT 9999 FEW033 SCT036 BKN050 11/06 Q1031 RERA BECMG FM1530 SCT036 BKN050 RMK PPTRZ=
SPZO Dic2010-231530Z VRB02KT 9999 SCT036 BKN060 12/06 Q1031 RMK BCFG QUAD NE=
SPZO Dic2010-231600Z 33004KT 9999 SCT043 SCT060 14/07 Q1030 NOSIG RMK BCFG QUAD NE P000=
SPZO Dic2010-231700Z 04005KT 9999 FEW040 SCT050 15/07 Q1029 NOSIG RMK PP000=
SPZO Dic2010-231800Z 04004KT 9999 FEW040 SCT050 17/09 Q1027 NOSIG RMK PP000=
SPZO Dic2010-231900Z 03003KT 9999 FEW040TCU BKN050 19/06 Q1025 TEMPO=
SPZO Dic2010-232000Z 03013KT 9999 -RA FEW040TCU SCT046 BKN080 16/09 Q1024 NOSIG RMK PP002=
SPZO Dic2010-232100Z 27007KT 9999 VCSH SCT040 BKN080 14/08 Q1024 TEMPO -RA RMK PP046=
SPZO Dic2010-232200Z 29008KT 9999 -RA VCSH SCT040 BKN070 13/09 Q1025 NOSIG RMK TMAX.18.8 PPTRZ=
SPZO Dic2010-232300Z /////KT 9999 VCSH FEW036TCU SCT040 BKN080 13/07 Q1025 NOSIG RMK PP000=
SPZO Dic2010-240000Z /////KT 9999 -RA SCT036 BKN046 12/08 Q1027 RMK PP002=
SPZO Dic2010-240100Z /////KT 9999 SCT040 BKN060 12/07 Q1028 RMK PPTRZ=
SPZO Dic2010-240200Z /////KT 9999 BKN040 SCT050 13/08 Q1029 RMK PP000=
SPZO Dic2010-240300Z /////KT 9000 -RA OVC040 11/07 Q1029 RMK PP004=
SPZO Dic2010-240400Z /////KT 9999 -RA SCT033 BKN040 10/07 Q1030 RMK PP002=
SPZO Dic2010-240500Z /////KT 9999 SCT033 BKN043 09/06 Q1029 RMK PP000=
SPZO Dic2010-240600Z /////KT 9999 BKN040 SCT050 09/07 Q1028 RMK PP000=
SPZO Dic2010-240700Z /////KT 9999 SCT036 BKN043 09/06 Q1027 RMK PP000=
SPZO Dic2010-240800Z /////KT 9999 BKN040 SCT046 09/06 Q1027 RMK PP000=
SPZO Dic2010-240900Z /////KT 9999 BKN040 SCT046 10/06 Q1027 RMK PP000=
SPZO Dic2010-241000Z /////KT 9999 FEW020 SCT040 BKN046 09/07 Q1027 RMK PP000=
SPZO Dic2010-241014Z /////KT 9999 SCT020 SCT036 BKN043 09/07 Q1028 RMK CLNG BLW 1200M=
SPZO Dic2010-241100Z /////KT 9999 VCSH FEW020 SCT036 BKN046 09/07 Q1028 NOSIG RMK CLNG BLW 1200M PP000=
SPZO Dic2010-241126Z 00000KT 9999 DZ VCSH FEW020 SCT036 BKN040 09/07 Q1029 RMK CLNG BLW 1200M=
SPZO Dic2010-241200Z 00000KT 9999 DZ VCSH FEW020 SCT033 OVC046 10/07 Q1029 TEMPO 7000 RMK CLNG BLW 1200M PP002=
SPZO Dic2010-241300Z 03004KT 9999 DZ FEW025 SCT036 OVC060 10/07 Q1030 BECMG FM1330 ECT036 BKN046 RMK CLNG BLW 1200M PP002=
SPZO Dic2010-241331Z 00000KT 9999 FEW030 SCT036 BKN050 12/08 Q1030 RMK BCFG CDTE NE/SE=
SPZO Dic2010-241400Z 03004KT 9999 SCT036 BKN060 12/07 Q1030 REDZ RMK BCFG CDTE NE PPTRZ=
SPZO Dic2010-241500Z 03003KT 9999 SCT040 BKN080 14/08 Q1028 NOSIG RMK PP000=
SPZO Dic2010-241600Z 04005KT 9999 VCSH SCT040 BKN060 15/08 Q1029 NOSIG RMK PP000=
SPZO Dic2010-241700Z 06008KT 9999 VCSH SCT043 BKN080 15/05 Q1028 NOSIG RMK PP000=
SPZO Dic2010-241800Z 29006KT 280V020 9999 SCT040 BKN060 16/07 Q1027 NOSIG RMK PP000=
SPZO Dic2010-241900Z 30007G28KT 9999 VCSH SCT040 SCT050 17/05 Q1026 NOSIG RMK PP000=
SPZO Dic2010-242000Z 27007KT 9999 VCSH BKN043 16/07 Q1025 NOSIG RMK PP000=
SPZO Dic2010-242032Z 27009KT 9999 RA SCT040 BKN050 13/08 Q1026=
SPZO Dic2010-242100Z 27010KT 9999 -RA VCSH SCT040 BKN050 12/07 Q1026 NOSIG RMK PP012=
SPZO Dic2010-242200Z 28003KT 9999 SCT040 BKN050 11/07 Q1026 NOSIG RMK TMAX 17.40 PP012=
SPZO Dic2010-242300Z 00000KT 9999 FEW040 SCT050 11/08 Q1026 TEMPO VCSH RERA RMK PP006=
SPZO Dic2010-250000Z /////KT 9999 FEW036 SCT050 11/07 Q1027 RMK RERA PP018=
SPZO Dic2010-250100Z /////KT 9999 FEW036 SCT050 11/08 Q1028 RMK PP000=
SPZO Dic2010-250200Z /////KT 9999 FEW040 BKN050 10/08 Q1029 RMK PP000=
SPZO Dic2010-250300Z /////KT 9999 SCT040 BKN060 10/08 Q1030 RMK PP000=
SPZO Dic2010-250400Z /////KT 9999 SCT040 BKN060 10/08 Q1029 RMK PP000=
SPZO Dic2010-250500Z /////KT 9999 SCT036 BKN060 10/08 Q1029 RMK PP000=
SPZO Dic2010-250600Z /////KT 5000 FU SCT036 BKN060 10/08 Q1028 RMK PP000=
SPZO Dic2010-250700Z /////KT 5000 FU SCT036 BKN060 10/08 Q1028 RMK PP000=
SPZO Dic2010-250800Z /////KT 5000 FU SCT040 BKN060 10/08 Q1028 RMK PP000=
SPZO Dic2010-250900Z /////KT 5000 FU SCT040 BKN060 09/07 Q1028 RMK PP000=
SPZO Dic2010-251000Z /////KT 5000 FU SCT040 BKN060 10/08 Q1028 RMK PP000=
SPZO Dic2010-251018Z /////KT 3000 FU FEW030 SCT040 BKN046 10/07 Q1029 RMK FU EXTEND ALL QUAD=
SPZO Dic2010-251100Z 00000KT 4000 FU FEW033 SCT040 BKN050 10/08 Q1029 BECMG FM1140 6000 RMK PP000=
SPZO Dic2010-251200Z 00000KT 4000 FU FEW033 SCT040 BKN050 10/07 Q1030 NOSIG RMK PP000=
SPZO Dic2010-251235Z /////KT 5000 FU FEW020 SCT036 BKN050 13/08 Q1030=
SPZO Dic2010-251300Z 00000KT 9000 FEW030 SCT040 BKN050 13/08 Q1030 BECMG FM1330 9999 RMK FU PP000=
SPZO Dic2010-251400Z 29005KT 9999KT FEW030 SCT040 BKN050 14/09 Q1030 TEMPO -RA RMK PP000=
SPZO Dic2010-251500Z 27005KT 9999 VCSH SCT040 BKN050 14/06 Q1030 NOSIG RMK PP012=
SPZO Dic2010-251600Z 30003KT 9999 SCT040 BKN050 15/06 Q1029 TEMPO VCSH RMK PP000=
SPZO Dic2010-251700Z 36008KT 9999 RA SCT040 BKN050 13/06 Q1028 TEMPO 8000 RMK PP006=
SPZO Dic2010-251729Z 32007KT 8000 RA SCT040 BKN046 13/07 Q1028=
SPZO Dic2010-251800Z 34005KT 9000 -RA VCSH FEW030 SCT040 BKN046 12/05 Q1028 NOSIG RMK PP006=
SPZO Dic2010-251900Z 03005KT 9999 VCSH SCT040 OVC080 11/07 Q1028 NOSIG RMK PP002=
SPZO Dic2010-252000Z 33003KT 9999 VCSH SCT043 BKN080 13/07 Q1028 NOSIG RMK PP000=
SPZO Dic2010-252023Z 03005KT 9000 RA FEW036 SCT040 BKN080 13/07 Q1028=
SPZO Dic2010-252100Z 35006KT 9000 RA FEW036 SCT040 BKN080 11/07 Q1028 NOSIG RMK PP012=
SPZO Dic2010-252200Z 00000KT 9999 VCSH SCT040 BKN080 11/06 Q1028 TEMPO -RA RMK TMAX 17.3 PPTRZ=
SPZO Dic2010-252300Z /////KT 9999 FEW043 SCT080 12/07 Q1028 NOSIG RMK PP000=
SPZO Dic2010-260000Z /////KT 9999 FEW043 BKN080 11/07 Q1029 RMK PP000=
SPZO Dic2010-260100Z /////KT 9999 SCT040 BKN070 11/08 Q1030 RMK PP000=
SPZO Dic2010-260200Z /////KT 9999 FEW040 SCT046 BKN080 11/08 Q1031 RMK PP000=
SPZO Dic2010-260300Z /////KT 9999 SCT040 SCT060 11/08 Q1031 RMK PP000=
SPZO Dic2010-260400Z /////KT 9999 SCT036 BKN050 10/08 Q1031 RMK PP000=
SPZO Dic2010-260500Z /////KT 9999 SCT036 BKN050 10/07 Q1030 RMK PP000=
SPZO Dic2010-260600Z /////KT 9999 SCT030 BKN046 10/07 Q1030 RMK PP000=
SPZO Dic2010-260700Z /////KT 9999 FEW030 SCT036 BKN050 10/07 Q1030 RMK PP000=
SPZO Dic2010-260800Z /////KT 9999 -RA FEW030 SCT036 BKN050 09/07 Q1029 RMK PP008=
SPZO Dic2010-260900Z /////KT 9999 -RA FEW030 SCT036 BKN050 09/07 Q1029 RMK PP002=
SPZO Dic2010-261000Z /////KT 9999 FEW030 SCT036 BKN050 09/07 Q1030 RMK PPTRZ=
SPZO Dic2010-261016Z 00000KT 8000 FEW020 SCT033 BKN046 09/07 Q1030 RMK CLNG BLW1200M=
SPZO Dic2010-261100Z 00000KT 9000 FEW030 SCT036 BKN046 09/07 Q1031 BECMG FM1130 SCT036 BKN046 RMK CLNG BLW 1200M PP000=
SPZO Dic2010-261200Z 00000KT 9999 FEW020 SCT036 BKN046 10/08 Q1031 BECMG FM1220 SCT036 BKN046 RMK CLNG BLW 1200M PP000=
SPZO Dic2010-261230Z 00000KT 9999 FEW030 SCT036 BKN050 10/07 Q1032 RMK CLNG BLW 1200M=
SPZO Dic2010-261300Z 00000KT 9999 SCT036 BKN050 11/07 Q1032 NOSIG RMK BCFG QUAD NE/SE PP000=
SPZO Dic2010-261400Z VRB02KT 9999 FEW030 SCT040 BKN080 12/06 Q1032 NOSIG RMK BCFG QUAD NE/SE PP000=
SPZO Dic2010-261500Z 00000KT 9999 FEW033 SCT043 BKN060 14/07 Q1031 NOSIG RMK PP000=
SPZO Dic2010-261600Z 03005KT 9999 SCT043 BKN060 16/07 Q1030 NOSIG RMK PP000=
SPZO Dic2010-261700Z 28012KT 9999 VCSH SCT043 BKN050 16/06 Q1029 NOSIG RMK PP000=
SPZO Dic2010-261800Z 36008KT 9000 -RA SCT040 BKN050 13/07 Q1029 TEMPO 7000 RMK PP004=
SPZO Dic2010-261900Z 29002KT 9999 -RA FEW033 SCT040 BKN050 12/08 Q1029 TEMPO 8000 RMK PP016=
SPZO Dic2010-262000Z 29001KT 9999 FEW036 SCT080 BKN230 14/07 Q1027 NOSIG RMK PP000=
SPZO Dic2010-262100Z 32001KT 9999 FEW036 SCT050 BKN230 17/06 Q1026 NOSIG RMK PP000=
SPZO Dic2010-262200Z 00000KT 9999 SCT050 SCT230 17/05 Q1026 NOSIG RMK T.MAX 17.3 PP000=
SPZO Dic2010-262300Z 00000KT 9999 FEW050 BKN230 15/07 Q1026 NOSIG RMK PP000=
SPZO Dic2010-270000Z /////KT 9999 FEW050 BKN230 14/08 Q1028 RMK PP000=
SPZO Dic2010-270100Z /////KT 9999 FEW050 BKN230 13/07 Q1028 RMK PP000=
SPZO Dic2010-270200Z /////KT 9999 FEW050 SCT230 13/08 Q1029 RMK PP000=
SPZO Dic2010-270300Z /////KT 9999 TSRA FEW040CB SCT050 BKN060 11/08 Q1029 RMK PP006=
SPZO Dic2010-270400Z /////KT 9999 FEW036 SCT040 BKN050 10/07 Q1031 RMK PP004=
SPZO Dic2010-270500Z /////KT 9999 RA FEW033 SCT040 BKN050 09/06 Q1031 RMK PP028=
SPZO Dic2010-270600Z /////KT 9999 RA FEW033 SCT040 BKN050 08/06 Q1031 RMK PP026=
SPZO Dic2010-270700Z /////KT 9999 +RA FEW015 SCT020 BKN040 07/05 Q1030 RMK CLNG BLW 1200M PP110=
SPZO Dic2010-270800Z /////KT 9999 RA FEW015 SCT020 BKN040 07/05 Q1030 RMK CLNG BLW 1200M PP030=
SPZO Dic2010-270900Z /////KT 9999 RA FEW015 SCT020 BKN040 07/05 Q1030 RMK CLNG BLW 1200M PP026=
SPZO Dic2010-271000Z /////KT 5000 -RA FEW010 SCT020 BKN050 07/05 Q1030 RMK CLNG BLW 1200M PP014=
SPZO Dic2010-271100Z 00000KT 5000 -RA FEW015 SCT020 BKN043 07/05 Q1031 NOSIG RMK CLNG BLW 1200M PP008=
SPZO Dic2010-271200Z 00000KT 7000 -RA FEW020 SCT030 BKN043 07/05 Q1032 NOSIG RMK CLNG BLW 1200M PP006=
SPZO Dic2010-271300Z 04004KT 7000 -DZ SCT020 SCT033 BKN046 07/05 Q1032 NOSIG RMK CLNG BLW 1200M PP002=
SPZO Dic2010-271400Z 03004KT 8000 SCT020 SCT036 BKN080 08/05 Q1033 BECMG FM1430 SCT036 BKN050 RMK CLNG BLW 1200M PPTRZ=
SPZO Dic2010-271412Z 03003KT 9000 SCT020 SCT040 BKN080 09/05 Q1033=
SPZO Dic2010-271500Z 03003KT 9999 FEW030 SCT043 BKN080 11/05 Q1032 NOSIG RMK PP000=
SPZO Dic2010-271600Z 02003KT 9999 FEW030 SCT046 BKN100 13/06 Q1031 NOSIG RMK PP000=
SPZO Dic2010-271700Z 00000KT 9999 FEW036 SCT050 15/07 Q1030 TEMPO VCSH RMK PP000=
SPZO Dic2010-271800Z /////KT 9999 VCSH FEW040 BKN043 16/07 Q1028 TEMPO RA RMK PP000=
SPZO Dic2010-271820Z /////KT 9999 VCSH SCT043TCU SCT100 16/07 Q1027=
SPZO Dic2010-271900Z /////KT 9999 VCSH SCT046 FEW060CB SCT100 16/06 Q1027 NOSIG RMK -SHRA BTN 1815/1820 PP002=
SPZO Dic2010-272000Z /////KT 9999 FEW043 FEW060TCU BKN100 15/07 Q1026 NOSIG RMK PP000=
SPZO Dic2010-272100Z 04007KT 9999 SCT050 SCT230 17/07 Q1025 NOSIG RMK PP000=
SPZO Dic2010-272200Z 04006KT 9999 FEW060CB SCT043 BKN230 15/06 Q1025 TEMPO -SHRA RMK TMAX 17.3 PP000=
SPZO Dic2010-272300Z 27008KT 9999 -RA VCSH SCT060CB BKN050 13/07 Q1026 BECMG NSW RMK PPTRZ=
SPZO Dic2010-280000Z /////KT 9999 -RA VCSH SCT040CB BKN050 11/07 Q1027 RMK PP002=
SPZO Dic2010-280100Z /////KT 9999 SCT046 BKN080 12/07 Q1028 RMK PPTRZ=
SPZO Dic2010-280200Z /////KT 9999 BKN043 13/08 Q1028 RMK PP000=
SPZO Dic2010-280300Z /////KT 9999 FEW036 SCT043 12/08 Q1029 RMK PP000=
SPZO Dic2010-280400Z /////KT 9999 RA SCT030 BKN040 11/08 Q1029 RMK PP014=
SPZO Dic2010-280500Z /////KT 9999 SCT040 BKN050 12/08 Q1028 RMK PPTRZ=
SPZO Dic2010-280600Z /////KT 9999 SCT036 OVC050 12/09 Q1028 RMK PP000=
SPZO Dic2010-280700Z /////KT 9999 FEW033 SCT036 BKN046 11/05 Q1027 RMK PP000=
SPZO Dic2010-280800Z /////KT 9000 RA FEW030 SCT036 BKN050 09/06 Q1028 RMK PP028=
SPZO Dic2010-280900Z /////KT 9000 RA FEW030 SCT036 BKN050 08/06 Q1029 RMK PP026=
SPZO Dic2010-281000Z /////KT 9999 -RA FEW015 SCT036 BKN080 08/06 Q1029 RMK PP010=
SPZO Dic2010-281023Z 00000KT 9000 -RA FEW015 SCT036 OVC080 08/06 Q1029 RMK CLNG BLW 1200M=
SPZO Dic2010-281100Z VRB02KT 9999 SCT015 SCT036 OVC100 09/06 Q1030 BECMG FM1130 SCT020 SCT040 OVC100 RMK CLNG BLW 1200M PP004=
SPZO Dic2010-281122Z 00000KT 9999 SCT015 SCT040 OVC080 09/06 Q1030=
SPZO Dic2010-281200Z 03003KT 9999 FEW015 SCT030 OVC080 09/06 Q1030 BECMG FM1300 FEW020 SCT040 OVC100 RMK PP000=
SPZO Dic2010-281300Z 04003KT 9999 SCT025 SCT040 OVC100 10/06 Q1031 NOSIG RMK PP000=
SPZO Dic2010-281400Z 00000KT 9999 SCT025 SCT060 BKN100 11/06 Q1031 NOSIG RMK PP000=
SPZO Dic2010-281500Z 00000KT 9999 SCT030 BKN100 13/06 Q1031 NOSIG RMK PP000=
SPZO Dic2010-281600Z 00000KT 9999 SCT036 SCT230 16/08 Q1029 NOSIG RMK PP000=
SPZO Dic2010-281628Z 03003KT 9999 FEW036TCU SCT043 16/05 Q1029=
SPZO Dic2010-281700Z 03003KT 9999 FEW040TCU SCT043 BKN100 17/06 Q1029 TEMPO VCSH RMK PP000=
SPZO Dic2010-281800Z 34004KT 300V010 9999 -RA VCSH FEW036TCU SCT043 BKN080 13/06 Q1029 BECMG NSW RMK PPTRZ=
SPZO Dic2010-281900Z /////KT 9999 FEW036 SCT043 BKN150 14/07 Q1027 NOSIG RMK PP002=
SPZO Dic2010-282000Z /////KT 9999 SCT060 SCT230 17/08 Q1026 NOSIG RMK PP000=
SPZO Dic2010-282100Z /////KT 9999 VCSH FEW040TCU SCT080 BKN230 16/05 Q1025 NOSIG RMK PP000=
SPZO Dic2010-282200Z /////KT 9999 FEW040 SCT080 BKN230 NOSIG RMK TMAX 17.7 PP000=
SPZO Dic2010-282300Z /////KT 9999 SCT050 BKN080 14/07 Q1025 NOSIG RMK PP000=
SPZO Dic2010-290000Z /////KT 9999 BKN040 SCT050 14/06 Q1026 RMK PP000=
SPZO Dic2010-290100Z /////KT 9999 BKN043 SCT050 14/07 Q1027 RMK PP000=
SPZO Dic2010-290200Z /////KT 9999 BKN043 SCT060 13/07 Q1028 RMK PP000=
SPZO Dic2010-290300Z /////KT 9999 SCT036 BKN043 13/08 Q1028 RMK PP000=
SPZO Dic2010-290400Z /////KT 9999 FEW036 OVC043 11/08 Q1028 RMK PP000=
SPZO Dic2010-290500Z /////KT 8000 -RA OVC040 10/08 Q1028 RMK PP020=
SPZO Dic2010-290600Z /////KT 8000 -RA SCT033 BKN04010/08 Q1028 RMK PP038=
SPZO Dic2010-290700Z /////KT 9999 SCT036 BKN046 10/07 Q1027 RMK PP004=
SPZO Dic2010-290800Z /////KT 9999 -RA SCT030 BKN040 09/07 Q1027 RMK PP008=
SPZO Dic2010-290900Z /////KT 9999 SCT030 BKN040 09/07 Q1026 RMK PP004=
SPZO Dic2010-291000Z /////KT 9999 -DZ FEW020 SCT040 BKN046 09/07 Q1027 RMK PPTRZ=
SPZO Dic2010-291100Z /////KT 9999 SCT020 SCT040 BKN100 09/07 Q1027 NOSIG RMK PP000=
SPZO Dic2010-291134Z /////KT 9999 SCT020 SCT040 BKN060 10/07 Q1028=
SPZO Dic2010-291200Z /////KT 9999 SCT020 SCT040 BKN060 10/07 Q1028 NOSIG RMK PP000=
SPZO Dic2010-291300Z /////KT 9999 FEW020 SCT036 BKN060 11/07 Q1029 NOSIG RMK PP000=
SPZO Dic2010-291400Z /////KT 9999 SCT025 SCT043 BKN080 12/06 Q1029 NOSIG RMK PP000=
SPZO Dic2010-291500Z /////KT 9999 SCT036 OVC100 13/07 Q1029 NOSIG RMK PP000=
SPZO Dic2010-291600Z /////KT 9999 SCT036 OVC080 14/06 Q1029 NOSIG RMK PP000=
SPZO Dic2010-291700Z /////KT 9999 SCT036 SCT100 BKN230 15/05 Q1028 TEMPO=
SPZO Dic2010-291800Z /////KT 9999 FEW040 SCT043 16/05 Q1027 NOSIG RMK PP000=
SPZO Dic2010-291900Z /////KT 9999 BKN043 18/07 Q1025 NOSIG RMK PP000=
SPZO Dic2010-292000Z /////KT 9999 VCSH FEW036TCU SCT043 BKN080 16/08 Q1024 TEMPO RA RMK PP000=
SPZO Dic2010-292100Z /////KT 9999 VCSH SCT040 BKN080 15/06 Q1024 NOSIG RMK PP000=
SPZO Dic2010-292200Z /////KT 9999 SCT040 BKN080 15/08 Q1024 NOSIG RMK TMAX 18.8 PP000=
SPZO Dic2010-292300Z /////KT 9999 BKN050 14/08 Q1024 NOSIG RMK PP000=
SPZO Dic2010-300000Z /////KT 9999 BKN050 14/06 Q1025 RMK PP000=
SPZO Dic2010-300100Z /////KT 9999 SCT050 13/07 Q1026 RMK PP000=
SPZO Dic2010-300200Z /////KT 9999 BKN050 13/08 Q1027 RMK PP000=
SPZO Dic2010-300300Z /////KT 9999 BKN050 12/08 Q1028 RMK PP000=
SPZO Dic2010-300400Z /////KT 8000 RA SCT036 BKN050 11/07 Q1029 RMK PP010=
SPZO Dic2010-300500Z /////KT 8000 RA SCT036 BKN050 10/07 Q1028 RMK PP010=
SPZO Dic2010-300600Z /////KT 8000 RA SCT033 BKN050 09/07 Q1028 RMK PP014=
SPZO Dic2010-300700Z /////KT 8000 RA SCT033 BKN050 09/07 Q1027 RMK PP012=
SPZO Dic2010-300800Z /////KT 8000 -RA SCT030 BKN050 09/07 Q1027 RMK PP002=
SPZO Dic2010-300900Z /////KT 8000 DZ FEW025 SCT040 BKN046 09/07 Q1027 RMK PPTRZ=
SPZO Dic2010-301000Z /////KT 6000 DZ FEW025 SCT0040 BKN046 09/07 Q1027 RMK HZ PPTRZ=
SPZO Dic2010-301020Z /////KT 9000 FEW020 SCT040 BKN046 09/07 Q1027=
SPZO Dic2010-301100Z /////KT 9999 FEW020 SCT040 BKN050 09/07 Q1027 REDZ NOSIG RMK PP000=
SPZO Dic2010-301121Z /////KT 9000 DZ FEW020 SCT040 BKN050 09/07 Q1028=
SPZO Dic2010-301200Z /////KT 9999 FEW020 SCT040 BKN046 09/07 Q1028 REDZ NOSIG RMK PPTRZ=
SPZO Dic2010-301300Z /////KT 9999 FEW030 SCT040 BKN046 10/07 Q1029 NOSIG RMK PP000=
SPZO Dic2010-301400Z /////KT 9999 FEW030 SCT040 BKN100 12/07 Q1029 NOSIG RMK PP000=
SPZO Dic2010-301500Z /////KT 9999 SCT040 BKN100 13/07 Q1028 NOSIG RMK PP000=
SPZO Dic2010-301600Z /////KT 9999 SCT040 SCT200 16/08 Q1028 NOSIG RMK PP000=
SPZO Dic2010-301700Z /////KT 9999 FEW040 BKN050 18/07 Q1026 NOSIG RMK PP000=
SPZO Dic2010-301800Z /////KT 9999 SCT040 SCT050 17/06 Q1025 TEMPO VCSH RMK PP000=
SPZO Dic2010-301900Z /////KT 9999 FEW036 SCT046TCU BKN080 20/07 Q1023 NOSIG RMK PP000=
SPZO Dic2010-301944Z /////KT -RAGR 9999 SCT040TCU BKN046 17/07 Q1022=
SPZO Dic2010-302000Z /////KT 9999 VCSH SCT040TCU BKN050 17/07 Q1022 TEMPO RA RMK PPTRZ=
SPZO Dic2010-302100Z /////KT 9999 VCSH SCT040TCU BKN050 16/07 Q1022 TEMPO -RA RMK PP000=
SPZO Dic2010-302200Z /////KT 9999 SCT040 BKN080 16/06 Q1022 NOSIG RMK TMAX 19.8 PP000=
SPZO Dic2010-302300Z /////KT 9999 FEW046 BKN100 16/08 Q1023 NOSIG RMK PP000=
SPZO Dic2010-310000Z /////KT 9999 FEW050 BKN230 14/09 Q1024 RMK PP000=
SPZO Dic2010-310100Z /////KT 9999 BKN230 12/06 Q1026 RMK PP000=
SPZO Dic2010-310200Z /////KT 9999 SCT050 BKN080 13/05 Q1026 RMK PP000=
SPZO Dic2010-310300Z /////KT 9999 SCT050 BKN100 13/05 Q1026 RMK PP000=
SPZO Dic2010-310400Z /////KT 9999 SCT046 BKN100 12/05 Q1026 RMK PP000=
SPZO Dic2010-310500Z /////KT 9999 FEW046 BKN100 11/06 Q1025 RMK PP000=
SPZO Dic2010-310600Z /////KT 9999 SCT040 BKN080 11/06 Q1024 RMK PP000=
SPZO Dic2010-310700Z /////KT 9999 SCT040 BKN080 10/07 Q1024 RMK PP000=
SPZO Dic2010-310800Z /////KT 9999 FEW033 SCT040 BKN080 10/06 Q1024 RMK PP000=
SPZO Dic2010-310900Z /////KT 9999 FEW033 SCT040 BKN100 10/06 Q1024 RMK PP000=
SPZO Dic2010-311000Z /////KT 9999 FEW033 SCT040 BKN100 10/06 Q1024 RMK PP000=
SPZO Dic2010-311100Z /////KT 9999 SCT046 BKN080 10/07 Q1025 NOSIG RMK PP000=
SPZO Dic2010-311200Z /////KT 9999 SCT046 BKN080 11/07 Q1026 NOSIG RMK PP000=
SPZO Dic2010-311300Z /////KT 9999 SCT046 BKN200 13/06 Q1026 NOSIG RMK PP000=
SPZO Dic2010-311400Z /////KT 9999 SCT040 BKN180 15/05 Q1027 NOSIG RMK PP000=
SPZO Dic2010-311500Z /////KT 9999 SCT043 BKN060 16/06 Q1026 NOSIG RMK PP000=
SPZO Dic2010-311600Z /////KT 9999 SCT043 BKN060 17/06 Q1026 NOSIG RMK PP000=
SPZO Dic2010-311700Z /////KT 9999 SCT043 BKN100 18/05 Q1024 NOSIG RMK PP000=
SPZO Dic2010-311800Z /////KT 9999 SCT046 BKN100 19/05 Q1024 NOSIG RMK PP000=
SPZO Dic2010-311900Z /////KT 9999 SCT050 OVC230 18/05 Q1022 NOSIG RMK PP000=
SPZO Dic2010-312000Z /////KT 9999 SCT050 OVC230 19/06 Q1021 NOSIG RMK PP000=
SPZO Dic2010-312100Z /////KT 9999 FEW060 FEW080CB BKN230 19/07 Q1021 NOSIG RMK PP000=
SPZO Dic2010-312200Z /////KT 9999 SCT060 BKN230 17/07 Q1022 NOSIG RMK TMAX 17.5 PP000=
SPZO Dic2010-312300Z /////KT 9999 FEW040 BKN050 15/07 Q1023 NOSIG RMK PP000=
SPZO Ene2011-010000Z /////KT 9999 FEW040 BKN050 14/06 Q1024 RMK PP000=
SPZO Ene2011-010100Z /////KT 9999 SKC 14/06 Q1025 RMK PP000=
SPZO Ene2011-010200Z /////KT 9999 SKC 13/05 Q1030 RMK PP000=
SPZO Ene2011-010300Z /////KT 9999 SKC 12/06 Q1029 RMK PP000=
SPZO Ene2011-010400Z /////KT 9999 FEW040 SCT050 12/05 Q1028 RMK PP000=
SPZO Ene2011-010500Z /////KT 9999 8000 FU SCT040 SCT050 11/07 Q1028 RMK PP000=
SPZO Ene2011-010600Z /////KT 5000 TSRA SCT040CB SCT050 11/07 Q1026 RMK PP002=
SPZO Ene2011-010700Z /////KT 6000 SCT040 BKN050 10/07 Q1026 RMK PP008=
SPZO Ene2011-010800Z /////KT 8000 SCT040 BKN050 10/07 Q1025 RMK PP006=
SPZO Ene2011-010900Z /////KT 8000 SCT040 BKN050 10/07 Q1025 RMK PP000=
SPZO Ene2011-011000Z /////KT 5000 FU SCT030 BKN040 10/07 Q1026 RMK PP000=
SPZO Ene2011-011028Z 8000 FEW025 SCT040 BKN100 10/07 Q1027 RMK FU=
SPZO Ene2011-011100Z /////KT 9000 FEW033 SCT040 BKN100 10/07 Q1027 BECMG FM1130 9999 RMK PP000=
SPZO Ene2011-011200Z /////KT 8000 FEW033 SCT230 11/07 Q1028 BECMG FM1230 9999 RMK PP000=
SPZO Ene2011-011300Z /////KT 9999 FEW033 SCT050 13/08 Q1028 NOSIG RMK PP000=
SPZO Ene2011-011400Z /////KT 9999 FEW040 SCT050 15/05 Q1027 NOSIG RMK PP000=
SPZO Ene2011-011500Z /////KT 9999 FEW040 SCT050 17/05 Q1027 NOSIG RMK PP000=
SPZO Ene2011-011600Z /////KT 9999 FEW040 SCT050 18/06 Q1026 NOSIG RMK PP000=
SPZO Ene2011-011700Z /////KT 9999 FEW043 SCT060 19/06 Q1025 NOSIG RMK PP000=
SPZO Ene2011-011800Z /////KT 9999 FEW043 SCT050 21/06 Q1023 NOSIG RMK PP000=
SPZO Ene2011-011900Z /////KT 9999 SCT043 BKN080 20/03 Q1022 NOSIG RMK PP000=
SPZO Ene2011-012000Z /////KT 9999 VCSH SCT043 BKN080 19/05 Q1022 TEMPO RA RMK PP000=
SPZO Ene2011-012100Z /////KT 9999 SCT043 OVC080 17/06 Q1022 NOSIG RMK PP000=
SPZO Ene2011-012200Z /////KT 9999 SCT046 BKN080 16/07 Q1022 NOSIG RMK TMAX.21.2 PP000=
SPZO Ene2011-012300Z /////KT 9999 FEW046 BKN080 15/06 Q1023 NOSIG RMK PP000=
SPZO Ene2011-020000Z /////KT 9999 FEW040 BKN050 15/06 Q1024 RMK PP000=
SPZO Ene2011-020100Z /////KT 9999 SCT043 BKN050 14/06 Q1025 RMK PP000=
SPZO Ene2011-020200Z /////KT 9999 SCT046 SCT080 14/07 Q1026 RMK PP000=
SPZO Ene2011-020300Z /////KT 9999 SCT046 SCT080 13/07 Q1027 RMK PP000=
SPZO Ene2011-020400Z /////KT 9999 FEW043 BKN050 13/07 Q1027 RMK PP000=
SPZO Ene2011-020500Z /////KT 9999 FEW050 SCT060 12/06 Q1027 RMK PP000=
SPZO Ene2011-020600Z /////KT 9999 FEW046 BKN060 12/06 Q1026 RMK PP000=
SPZO Ene2011-020700Z /////KT 9999 FEW040 BKN060 12/06 Q1025 RMK PP000=
SPZO Ene2011-020800Z /////KT 9999 BKN050 11/06 Q1025 RMK PP000=
SPZO Ene2011-020900Z /////KT 9999 FEW043 SCT050 11/06 Q1025 RMK PP000=
SPZO Ene2011-021000Z /////KT 9999 FEW033 BKN046 10/06 Q1025 RMK PP000=
SPZO Ene2011-021100Z /////KT 9999 FEW036 BKN050 10/06 Q1026 NOSIG RMK PP000=
SPZO Ene2011-021200Z /////KT 9999 SCT043 SCT200 12/06 Q1027 NOSIG RMK PP000=
SPZO Ene2011-021300Z /////KT 9999 SCT043 SCT050 14/04 Q1027 NOSIG RMK PP000=
SPZO Ene2011-021400Z /////KT 9999 SCT043 SCT050 15/05 Q1027 NOSIG RMK PP000=
SPZO Ene2011-021500Z /////KT 9999 FEW043 BKN050 18/05 Q1027 NOSIG RMK PP000=
SPZO Ene2011-021600Z /////KT 9999 FEW046 BKN060 17/06 Q1026 NOSIG RMK PP000=
SPZO Ene2011-021700Z /////KT 9999 FEW043 SCT050 19/06 Q1025 NOSIG RMK PP000=
SPZO Ene2011-021800Z /////KT 9999 FEW040 SCT060 18/06 Q1024 NOSIG RMK PP000=
SPZO Ene2011-021900Z /////KT 9999 FEW046 BKN200 19/05 Q1023 NOSIG RMK PP000=
SPZO Ene2011-022000Z /////KT 9999 FEW040TCU BKN100 18/05 Q1022 TEMPO=
SPZO Ene2011-022100Z /////KT 9999 -RA SCT040TCU BKN050 17/04 Q1022 NOSIG RMK PPTRZ=
SPZO Ene2011-022200Z /////KT 9999 VCSH SCT040 BKN050 16/06 Q1023 RERA NOSIG RMK TMAX 19.7 PPTRZ=
SPZO Ene2011-022300Z /////KT 9999 FEW046 OVC080 13/07 Q1023 NOSIG PP000=
SPZO Ene2011-030000Z /////KT 9999 SCT043 BKN080 13/05 Q1024 RMK PP000=
SPZO Ene2011-030100Z /////KT 9999 SCT050 SCT230 12/05 Q1025 RMK PP000=
SPZO Ene2011-030200Z /////KT 9999 FEW050 SCT100 12/05 Q1025 RMK PP000=
SPZO Ene2011-030300Z /////KT 9999 SCT043 SCT080 11/06 Q1027 RMK PP000=
SPZO Ene2011-030400Z /////KT 9999 SCT040 SCT080 10/06 Q1027 RMK PP000=
SPZO Ene2011-030500Z /////KT 9999 SCT043 SCT060 11/06 Q1026 RMK PP000=
SPZO Ene2011-030600Z /////KT 9999 FEW050 SCT100 10/06 Q1025 RMK PP000=
SPZO Ene2011-030700Z /////KT 9999 SCT033 BKN046 10/06 Q1025 RMK PP000=
SPZO Ene2011-030800Z /////KT 9999 SCT033 BKN043 09/06 Q1025 RMK PP000=
SPZO Ene2011-030900Z /////KT 9999 SCT033 BKN043 09/05 Q1025 RMK PP000=
SPZO Ene2011-031000Z /////KT 9999 FEW020 SCT033 BKN043 09/06 Q1025 RMK PP000=
SPZO Ene2011-031100Z /////KT 9999 FEW033 SCT040 BKN060 09/06 Q1026 NOSIG RMK PP000=
SPZO Ene2011-031200Z /////KT 9999 FEW036 BKN050 10/06 Q1027 NOSIG RMK PP000=
SPZO Ene2011-031300Z /////KT 9999 SCT046 13/07 Q1027 NOSIG RMK PP000=
SPZO Ene2011-031400Z /////KT 9999 SCT046 16/06 Q1027 NOSIG RMK PP000=
SPZO Ene2011-031500Z /////KT 9999 SCT050 19/03 Q1026 NOSIG RMK PP000=
SPZO Ene2011-031600Z /////KT 9999 BKN050 18/06 Q1025 NOSIG RMK PP000=
SPZO Ene2011-031700Z /////KT 9999 -RA SCT040TCU BKN060 16/03 Q1025 NOSIG RMK PP004=
SPZO Ene2011-031800Z /////KT 9999 SCT043 20/04 Q1023 NOSIG RMK PP000=
SPZO Ene2011-031900Z /////KT 9999 -RA VCSH FEW040 BKN043 17/05 Q1023 NOSIG RMK PP00=
SPZO Ene2011-032000Z /////KT 9999 FEW040TCU BKN050 20/05 Q1021 TEMPO VCSH RMK PP008=
SPZO Ene2011-032100Z /////KT 9999 SCT040TCU SCT230 20/05 Q1021 TEMPO RA RMK PP000=
SPZO Ene2011-032200Z /////KT 9999 FEW043 BKN100 19/05 Q1021 NOSIG RMK PP000=
SPZO Ene2011-032300Z /////KT 9999 FEW043 BKN100 18/06 Q1021 TEMPO VCSH RMK PP000=
SPZO Ene2011-040000Z /////KT 9999 FEW043 BKN100 16/07 Q1022 RMK PP000=
SPZO Ene2011-040100Z /////KT 9999 FEW043 BKN080 15/06 Q1024 RMK PP000=
SPZO Ene2011-040200Z /////KT 9999 FEW043 BKN080 15/06 Q1025 RMK PP000=
SPZO Ene2011-040300Z /////KT 9000 -TSRA SCT040CB BKN080 14/06 Q1026 RMK PPTRZ=
SPZO Ene2011-040400Z /////KT 9999 SCT040 SCT080 13/06 Q1027 RMK PP000=
SPZO Ene2011-040500Z /////KT 9999 SCT040 BKN080 13/04 Q1026 RMK PP000=
SPZO Ene2011-040600Z /////KT 9999 FEW040 SCT060 12/05 Q1026 RMK PP000=
SPZO Ene2011-040700Z /////KT 9999 SCT050 11/05 Q1026 RMK PP000=
SPZO Ene2011-040800Z /////KT 9999 BKN050 11/05 Q1026 RMK PP000=
SPZO Ene2011-040900Z /////KT 8000 -RA FEW036 BKN060 11/06 Q1026 RMK PP002=
SPZO Ene2011-041000Z /////KT 8000 -RA FEW030 SCT040 BKN046 10/06 Q1027 RMK PP004=
SPZO Ene2011-041100Z /////KT 9999 FEW033 SCT043 BKN080 09/06 Q1027 RERA NOSIG RMK PP002=
SPZO Ene2011-041200Z /////KT 9999 FEW033 SCT043 BKN080 11/07 Q1028 NOSIG RMK PP000=
SPZO Ene2011-041300Z /////KT 9999 SCT036 SCT230 13/07 Q1028 NOSIG RMK PP000=
SPZO Ene2011-041400Z /////KT 9999 SCT043 15/05 Q1028 NOSIG RMK PP000=
SPZO Ene2011-041500Z /////KT 9999 BKN043 17/06 Q1028 NOSIG RMK PP000=
SPZO Ene2011-041600Z /////KT 9999 SCT043 SCT230 18/05 Q1027 NOSIG RMK PP000=
SPZO Ene2011-041700Z /////KT 9999 SCT043 SCT230 19/05 Q1026 NOSIG RMK PP000=
SPZO Ene2011-041800Z /////KT 9999 FEW043TCU BKN050 19/05 Q1024 TEMPO=
SPZO Ene2011-041900Z /////KT 9999 FEW040TCU SCT050 BKN070 16/06 Q1024 RERA NOSIG RMK PP002=
SPZO Ene2011-042000Z /////KT 9999 VCSH FEW040 SCT050 BKN080 20/05 Q1024 NOSIG RMK PP000=
SPZO Ene2011-042100Z /////KT 9999 VCSH SCT046 BKN080 20/05 Q1022 NOSIG RMK PP000=
SPZO Ene2011-042200Z /////KT 9999 VCSH SCT046 BKN080 18/04 Q1023 NOSIG RMK TMAX 20.4 PP000=
SPZO Ene2011-042300Z /////KT 9999 FEW050 OVC080 16/03 Q1024 TEMPO VCSH RMK PP000=
SPZO Ene2011-050000Z /////KT 9999 SCT050 OVC100 16/04 Q1024 RMK PP000=
SPZO Ene2011-050100Z /////KT 9999 SCT050 OVC230 15/04 Q1026 RMK PP000=
SPZO Ene2011-050200Z /////KT 9999 OVC230 14/05 Q1025 RMK PP000=
SPZO Ene2011-050300Z /////KT 9999 OVC230 13/05 Q1027 RMK PP000=
SPZO Ene2011-050400Z /////KT 9999 SKC 12/05 Q1027 RMK PP000=
SPZO Ene2011-050500Z /////KT 9999 SKC 11/06 Q1027 RMK PP000=
SPZO Ene2011-050600Z /////KT 9999 SKC 11/06 Q1027 RMK PP000=
SPZO Ene2011-050700Z /////KT 9999 BKN080 11/06 Q1026 RMK PP000=
SPZO Ene2011-050800Z /////KT 9999 BKN080 11/06 Q1026 RMK PP000=
SPZO Ene2011-050900Z /////KT 9999 FEW040 BKN080 10/05 Q1026 RMK PP000=
SPZO Ene2011-051000Z /////KT 9999 SCT036 BKN050 10/05 Q1025 RMK PP000=
SPZO Ene2011-051100Z /////KT 9999 FEW036 SCT050 10/05 Q1025 NOSIG RMK PP000=
SPZO Ene2011-051200Z /////KT 9999 SCT040 SCT150 12/06 Q1028 NOSIG RMK PP000=
SPZO Ene2011-051300Z /////KT 9999 SCT040 SCT150 14/06 Q1029 NOSIG RMK PP000=
SPZO Ene2011-051400Z /////KT 9999 SCT040 SCT230 16/05 Q1028 NOSIG RMK PP000=
SPZO Ene2011-051500Z /////KT 9999 SCT040 SCT230 18/04 Q1028 NOSIG RMK PP000=
SPZO Ene2011-051600Z /////KT 9999 SCT040 SCT230 19/04 Q1027 NOSIG RMK PP000=
SPZO Ene2011-051700Z /////KT 9999 BKN040 20/03 Q1026 NOSIG RMK PP000=
SPZO Ene2011-051800Z /////KT 9999 BKN046 SCT230 20/04 Q1025 NOSIG RMK PP000=
SPZO Ene2011-051900Z /////KT 9999 SCT046 SCT230 21/03 Q1024 NOSIG RMK PP000=
SPZO Ene2011-052000Z /////KT 9999 FEW046 BKN200 20/03 Q1023 NOSIG RMK PP000=
SPZO Ene2011-052100Z /////KT 9999 FEW046 BKN200 19/03 Q1023 NOSIG RMK PP000=
SPZO Ene2011-052200Z /////KT 9999 FEW046 BKN230 18/03 Q1023 NOSIG RMK TMAX 21.4 PP000=
SPZO Ene2011-052300Z /////KT 9999 FEW046 BKN230 17/04 Q1024 NOSIG RMK PP000=
SPZO Ene2011-060000Z /////KT 9999 FEW040 16/05 Q1025 RMK PP000=
SPZO Ene2011-060100Z /////KT 9999 SKC 15/05 Q1027 RMK PP000=
SPZO Ene2011-060200Z /////KT 9999 SKC 13/06 Q1028 RMK PP000=
SPZO Ene2011-060300Z /////KT 9999 SKC 14/06 Q1028 RMK PP000=
SPZO Ene2011-060400Z /////KT 9999 BKN060 13/06 Q1029 RMK PP000=
SPZO Ene2011-060500Z /////KT 9999 BKN050 12/06 Q1028 RMK PP000=
SPZO Ene2011-060600Z /////KT 9999 BKN050 12/06 Q1028 RMK PP000=
SPZO Ene2011-060700Z /////KT 9999 SCT050 12/06 Q1028 RMK PP000=
SPZO Ene2011-060800Z /////KT 9999 SCT050 11/05 Q1027 RMK PP000=
SPZO Ene2011-060900Z /////KT 9999 SCT050 11/07 Q1027 RMK PP000=
SPZO Ene2011-061000Z /////KT 9999 SCT050 11/06 Q1028 RMK PP000=
SPZO Ene2011-061100Z /////KT 9999 FEW036 BKN080 09/06 Q1028 NOSIG RMK PP000=
SPZO Ene2011-061200Z /////KT 9999 FEW036 SCT043 BKN080 12/06 Q1029 NOSIG RMK PP000=
SPZO Ene2011-061300Z /////KT 9999 FEW036 SCT043 BKN200 14/05 Q1029 NOSIG RMK PP000=
SPZO Ene2011-061400Z /////KT 9999 SCT043 BKN230 16/04 Q1029 NOSIG RMK PP000=
SPZO Ene2011-061500Z /////KT 9999 BKN043 SCT230 18/04 Q1029 NOSIG RMK PP000=
SPZO Ene2011-061600Z /////KT 9999 BKN046 SCT230 19/03 Q1029 NOSIG RMK PP000=
SPZO Ene2011-061700Z /////KT 9999 SCT046 SCT230 19/03 Q1027 NOSIG RMK PP000=
SPZO Ene2011-061800Z /////KT 9999 SCT043 BKN230 18/03 Q1027 NOSIG RMK PP000=
SPZO Ene2011-061900Z /////KT 9999 SCT043 BKN230 20/03 Q1025 NOSIG RMK PP000=
SPZO Ene2011-062000Z /////KT 9999 SCT046 BKN230 19/03 Q1024 NOSIG RMK PP000=
SPZO Ene2011-062100Z /////KT 9999 FEW046 BKN230 18/03 Q1024 NOSIG RMK PP000=
SPZO Ene2011-062200Z /////KT 9999 FEW046 BKN230 18/03 Q1024 NOSIG RMK TMAX 20.6 PP000=
SPZO Ene2011-062300Z /////KT 9999 FEW043 BKN230 17/04 Q1025 NOSIG RMK PP000=
SPZO Ene2011-070000Z /////KT 9999 SCT050 15/04 Q1027 RMK PP000=
SPZO Ene2011-070100Z /////KT 9999 SCT050 14/04 Q1028 RMK PP000=
SPZO Ene2011-070200Z /////KT 9999 SCT050 13/04 Q1029 RMK PP000=
SPZO Ene2011-070300Z /////KT 9999 BKN050 14/04 Q1030 RMK PP000=
SPZO Ene2011-070400Z /////KT 9999 BKN050 13/04 Q1030 RMK PP000=
SPZO Ene2011-070500Z /////KT 9999 BKN050 13/04 Q1029 RMK PP000=
SPZO Ene2011-070600Z /////KT 9999 BKN050 12/04 Q1028 RMK PP000=
SPZO Ene2011-070700Z /////KT 9999 BKN050 11/06 Q1028 RMK PP000=
SPZO Ene2011-070800Z /////KT 9999 BKN050 11/06 Q1027 RMK PP000=
SPZO Ene2011-070900Z /////KT 9999 OVC050 11/06 Q1027 RMK PP000=
SPZO Ene2011-071000Z /////KT 9999 OVC050 11/06 Q1028 RMK PP000=
SPZO Ene2011-071100Z /////KT 9999 BKN050 SCT070 11/05 Q1028 NOSIG RMK PP000=
SPZO Ene2011-071200Z /////KT 9999 SCT046 OVC080 11/06 Q1029 NOSIG RMK PP000=
SPZO Ene2011-071300Z /////KT 9999 FEW036 OVC080 12/05 Q1029 NOSIG RMK PP000=
SPZO Ene2011-071400Z /////KT 9999 FEW043 OVC080 13/05 Q1029 NOSIG RMK PP000=
SPZO Ene2011-071500Z /////KT 9999 FEW043 OVC080 13/05 Q1029 TEMPO VCSH RMK PP000=
SPZO Ene2011-071600Z /////KT 9000 +DZ VCSH FEW030 OVC046 13/06 Q1029 TEMPO 7000 RA RMK PPTRZ=
SPZO Ene2011-071700Z /////KT 9000 -RA FEW030 SCT040 OVC060 13/07 Q1029 NOSIG RMK PP002=
SPZO Ene2011-071800Z 29002KT 9999 FEW036 SCT040 OVC080 15/06 Q1028 TEMPO=
SPZO Ene2011-071900Z 34007KT 9999 SCT040 BKN100 16/05 Q1026 NOSIG RMK PP000=
SPZO Ene2011-072000Z 35007KT 280V020 9999 VCSH SCT040 BKN060 16/05 Q1024 TEMPO -RA RMK PP000=
SPZO Ene2011-072100Z 28008KT 9999 BKN043 OVC080 15/06 Q1024 TEMPO -RA RMK PP000=
SPZO Ene2011-072200Z /////KT 9999 SCT046 BKN060 14/06 Q1024 NOSIG RMK TMAX 16.6 PP000=
SPZO Ene2011-072300Z /////KT 9999 FEW046 BKN200 15/04 Q1024 NOSIG RMK PP000=
SPZO Ene2011-080000Z 04006KT 9999 FEW046 BKN050 15/03 Q1026 RMK PP000=
SPZO Ene2011-080100Z 02007KT 300V040 9999 FEW046 SCT060 14/03 Q1027 RMK PP000=
SPZO Ene2011-080200Z 01004KT 280V040 9999 SCT060 13/04 Q1028 RMK PP000=
SPZO Ene2011-080300Z 00000KT 9999 FEW050 12/04 Q1029 RMK PP000=
SPZO Ene2011-080400Z 00000KT 9999 SCT050 11/05 Q1029 RMK PP000=
SPZO Ene2011-080500Z 00000KT 9999 SCT050 10/05 Q1028 RMK PP000=
SPZO Ene2011-080600Z 00000KT 9999 FEW043 SCT060 11/05 Q1028 RMK PP000=
SPZO Ene2011-080700Z 00000KT 9999 SCT040 SCT046 10/05 Q1027 RMK PP000=
SPZO Ene2011-080800Z 00000KT 9999 FEW036 BKN046 10/06 Q1027 RMK PP000=
SPZO Ene2011-080900Z 04004KT 9999 FEW036 BKN043 10/06 Q1027 RMK PP000=
SPZO Ene2011-081000Z 00000KT 9999 FEW036 BKN040 10/06 Q1028 RMK PP000=
SPZO Ene2011-081100Z 00000KT 9999 FEW036 BKN043 10/06 Q1029 NOSIG RMK PP000=
SPZO Ene2011-081200Z 00000KT 9999 FEW036 BKN046 11/06 Q1030 NOSIG RMK PP000=
SPZO Ene2011-081300Z 00000KT 9999 FEW036 SCT046 BKN070 13/06 Q1030 NOSIG RMK PP000=
SPZO Ene2011-081400Z VRB02KT 9999 FEW036 SCT046 BKN070 14/05 Q1030 NOSIG RMK PP000=
SPZO Ene2011-081500Z 03004KT 9999 SCT040 BKN060 15/06 Q1030 NOSIG RMK PP000=
SPZO Ene2011-081600Z 00000KT 9999 SCT046 BKN060 17/06 Q1029 NOSIG RMK PP000=
SPZO Ene2011-081700Z 03004KT 9999 SCT046 BKN060 18/06 Q1028 NOSIG RMK PP000=
SPZO Ene2011-081800Z 01011KT 9999 BKN046 18/04 Q1027 NOSIG RMK PP000=
SPZO Ene2011-081900Z 03009KT 9999 BKN046 19/03 Q1025 NOSIG RMK PP000=
SPZO Ene2011-082000Z 01008G19KT 280V050 9999 SCT050 19/04 Q1024 NOSIG RMK PP000=
SPZO Ene2011-082100Z 01009KT 9999 SCT050 20/03 Q1024 NOSIG RMK PP000=
SPZO Ene2011-082200Z 01011KT 300V040 9999 FEW036 SCT230 18/02 Q1024 NOSIG RMK TMAX 19.9 PP000=
SPZO Ene2011-082300Z 02011KT 300V040 9999 FEW036 SCT230 16/03 Q1025 NOSIG RMK PP000=
SPZO Ene2011-090000Z 01005KT 300V050 9999 SCT040 SCT230 15/03 Q1027 RMK PP000=
SPZO Ene2011-090100Z 00000KT 9999 SCT040 SCT100 14/03 Q1028 RMK PP000=
SPZO Ene2011-090200Z 03005KT 300V050 9999 SCT036 SCT080 15/04 Q1029 RMK PP000=
SPZO Ene2011-090300Z 02003KT 300V040 9999 SCT036 SCT080 13/06 Q1029 RMK PP000=
SPZO Ene2011-090400Z 00000KT 9999 SCT040 BKN080 12/05 Q1030 RMK PP000=
SPZO Ene2011-090500Z 00000KT 9999 SCT040 BKN080 12/05 Q1030 RMK PP000=
SPZO Ene2011-090600Z 00000KT 9999 SCT040 BKN080 12/05 Q1029 RMK PP000=
SPZO Ene2011-090700Z 00000KT 9999 SCT036 SCT060 11/06 Q1029 RMK PP000=
SPZO Ene2011-090800Z 00000KT 9999 SCT036 SCT060 11/05 Q1028 RMK PP000=
SPZO Ene2011-090900Z 00000KT 9999 SCT036 SCT060 11/05 Q1028 RMK PP000=
SPZO Ene2011-091000Z 03004KT 9999 FEW033 SCT040 BKN046 11/06 Q1029 RMK PP000=
SPZO Ene2011-091100Z 00000KT 9999 FEW036 SCT040 BKN046 11/06 Q1030 NOSIG RMK PP000=
SPZO Ene2011-091200Z 00000KT 9999 FEW036 SCT040 BKN046 11/06 Q1030 NOSIG RMK PP000=
SPZO Ene2011-091300Z 00000KT 9999 FEW036 SCT043 BKN050 12/05 Q1031 NOISG RMK PP000=
SPZO Ene2011-091400Z 00000KT 9999 FEW036 SCT043 BKN060 14/06 Q1031 REDZ TEMPO VCSH RMK PPTRZ=
SPZO Ene2011-091500Z 00000KT 9999 SCT040 BKN060 16/05 Q1031 NOSIG RMK PP000=
SPZO Ene2011-091600Z 00000KT 9999 FEW036 BKN060 17/05 Q1030 NOSIG RMK PP000=
SPZO Ene2011-091700Z 02005KT 280V040 9999 FEW043 BKN050 18/06 Q1029 NOSIG RMK PP000=
SPZO Ene2011-091800Z 00000KT 9999 BKN050 19/03 Q1027 NOSIG RMK PP000=
SPZO Ene2011-091900Z 03005KT 9999 BKN050 20/05 Q1026 NOSIG RMK PP000=
SPZO Ene2011-092000Z 02008KT 300V050 9999 VCSH BKN050 20/03 Q1024 NOSIG RMK PP000=
SPZO Ene2011-092100Z 01014KT 300V040 9999 VCSH BKN050 SCT070 18/03 Q1024 NOSIG RMK PP000=
SPZO Ene2011-092200Z 33004KT 280V050 9999 VCSH BKN050 SCT070 17/02 Q1026 NOSIG RMK TMAX 21.5 PP000=
SPZO Ene2011-092300Z 04011KT 9999 BKN050 SCT070 16/04 Q1027 NOSIG RMK PP000=
SPZO Ene2011-100000Z 04008KT 9999 SCT050 BKN100 15/04 Q1028 RMK PP000=
SPZO Ene2011-100100Z 04004KT 9999 SCT050 BKN100 14/04 Q1029 RMK PP000=
SPZO Ene2011-100200Z 01003KT 9999 SCT050 BKN230 14/05 Q1030 RMK PP000=
SPZO Ene2011-100300Z 00000KT 9999 SCT060 BKN230 13/05 Q1031 RMK PP000=
SPZO Ene2011-100400Z 00000KT 9999 SCT046 BKN100 12/05 Q1031 RMK PP000=
SPZO Ene2011-100500Z 00000KT 9999 SCT046 BKN100 12/05 Q1030 RMK PP000=
SPZO Ene2011-100600Z 00000KT 9999 SCT046 BKN100 12/06 Q1030 RMK PP000=
SPZO Ene2011-100700Z 00000KT 9999 SCT040 BKN080 12/06 Q1030 RMK PP000=
SPZO Ene2011-100800Z 00000KT 9999 SCT040 BKN060 11/06 Q1029 RMK PP000=
SPZO Ene2011-100900Z 00000KT 9999 SCT040 SCT080 11/06 Q1029 RMK PP000=
SPZO Ene2011-101000Z 00000KT 9999 FEW036 SCT040 BKN200 11/06 Q1030 RMK PP000=
SPZO Ene2011-101100Z 00000KT 9999 FEW036 BKN200 10/06 Q1030 NOSIG RMK PP000=
SPZO Ene2011-101200Z 00000KT 9999 SCT040 SCT070 11/06 Q1031 NOSIG RMK PP000=
SPZO Ene2011-101300Z 00000KT 9999 BKN040 SCT070 12/06 Q1032 NOSIG RMK PP000=
SPZO Ene2011-101400Z 00000KT 9999 BKN040 SCT060 14/06 Q1031 NOSIG RMK PP000=
SPZO Ene2011-101500Z 00000KT 9999 SCT040 SCT060 15/05 Q1031 NOSIG RMK PP000=
SPZO Ene2011-101600Z VRB03KT 9999 SCT050 SCT060 17/04 Q1030 NOSIG RMK PP000=
SPZO Ene2011-101700Z 00000KT 9999 SCT050 SCT060 18/03 Q1029 NOSIG RMK PP000=
SPZO Ene2011-101800Z 29003KT 280V040 9999 SCT050 BKN080 19/03 Q1027 TEMPO=
SPZO Ene2011-101900Z 03010KT 9999 VCSH FEW050TCU SCT060 BKN080 20/06 Q1026 TEMPO -RA RMK PP000=
SPZO Ene2011-102000Z VRB02KT 9999 VCSH SCT046 SCT080 16/07 Q1025 RERA NOSIG RMK PP078=
SPZO Ene2011-102100Z 29004KT 9999 FEW046 SCT200 19/03 Q1024 TEMPO VCSH RMK PP000=
SPZO Ene2011-102200Z 00000KT 9999 VCSH SCT046 BKN200 19/03 Q1024 NOSIG RMK TMAX 20.8 PP000=
SPZO Ene2011-102300Z 01008KT 9999 SCT046 BKN200 16/06 Q1025 NOSIG RMK PP000=
SPZO Ene2011-110000Z 33008KT 9999 SCT040 BKN060 15/05 Q1026 RMK PP000=
SPZO Ene2011-110100Z 30007KT 9999 SCT040 BKN060 15/06 Q1027 RMK PP000=
SPZO Ene2011-110200Z 28007KT 9999 -RA SCT040 BKN050 13/07 Q1028 RMK PP006=
SPZO Ene2011-110300Z 28003KT 9999 SCT040 BKN050 14/06 Q1028 RMK PP000=
SPZO Ene2011-110400Z 00000KT 9999 SCT040 BKN050 13/07 Q1028 RMK PP000=
SPZO Ene2011-110500Z 30009G21KT 280V040 9999 SCT030TCU BKN040 11/05 Q1029 RMK PP020=
SPZO Ene2011-110600Z 00000KT 9999 RA SCT030 BKN036 09/06 Q1030 CLNG BLW 1200M RMK PP040=
SPZO Ene2011-110700Z 00000KT 9999 RA SCT030 BKN036 08/05 Q1029 CLNG BLW 1200M RMK PP050=
SPZO Ene2011-110800Z 00000KT 9999 RA FEW020 SCT030 BKN036 07/04 Q1059 CLNG BLW 1200M RMK PP052=
SPZO Ene2011-110900Z 00000KT 9999 RA FEW020 SCT030 BKN036 06/04 Q1029 CLNG BLW 1200M RMK PP026=
SPZO Ene2011-111000Z 28006KT 9999 RA FEW020 SCT030 BKN040 06/03 Q1030 CLNG BLW 1200M RMK PP010=
SPZO Ene2011-111100Z 00000KT 7000 -RA FEW020 SCT030 BKN043 06/03 Q1030 TEMPO 5000 RMK CLNG BLW 1200M PP002=
SPZO Ene2011-111200Z 00000KT 6000 RA FEW010 SCT030 OVC043 06/03 Q1032 NOSIG RMK CLNG BLW 1200M PP016=
SPZO Ene2011-111300Z 00000KT 6000 RA FEW010 SCT030 OVC043 06/03 Q1032 NOSIG RMK CLNG BLW 1200M PP018=
SPZO Ene2011-111400Z 00000KT 9999 DZ VCSH FEW020 SCT036 OVC043 07/04 Q1032 BECMG FM1440 SCT036 BKN046 RMK CLNG BLW 1200M PP004=
SPZO Ene2011-111500Z 00000KT 9999 FEW020 SCT036 OVC050 08/04 Q1032 NOSIG RMK PPTRZ=
SPZO Ene2011-111600Z 00000KT 9999 FEW030 SCT036 OVC050 10/05 Q1031 NOSIG RMK PP000=
SPZO Ene2011-111700Z 00000KT 9999 FEW036 SCT040 BKN060 12/04 Q1030 NOSIG RMK PP000=
SPZO Ene2011-111800Z 29003KT 270V040 9999 FEW036 SCT040 BKN060 13/04 Q1029 TEMPO VCSH RMK PP000=
SPZO Ene2011-111900Z VRB02KT 9999 FEW040 SCT043 BKN200 15/06 Q1027 NOSIG RMK PP000=
SPZO Ene2011-112000Z 33003KT 270V040 9999 BKN046 17/05 Q1025 NOSIG RMK PP000=
SPZO Ene2011-112100Z 00000KT 9999 SCT046 BKN200 17/07 Q1024 NOSIG RMK PP000=
SPZO Ene2011-112200Z 29005KT 9999 SCT050 SCT230 18/05 Q1024 NOSIG RMK TMAX  17.8 PP000=
SPZO Ene2011-112300Z 28006KT 9999 FEW046 BKN230 17/05 Q1024 NOSIG RMK PP000=
SPZO Ene2011-120000Z 00000KT 9999 SCT050 15/06 Q1025 RMK PP000=
SPZO Ene2011-120100Z 00000KT 9999 SCT050 13/07 Q1026 RMK PP000=
SPZO Ene2011-120200Z 29006KT 9999 SCT050 13/07 Q1027 RMK PP000=
SPZO Ene2011-120300Z 00000KT 9999 SCT050 11/07 Q1028 RMK PP000=
SPZO Ene2011-120400Z 00000KT 9999 SCT050 11/07 Q1028 RMK PP000=
SPZO Ene2011-120500Z 03002KT 9999 SCT050 10/07 Q1027 RMK PP000=
SPZO Ene2011-120600Z 0000O0KT 9999 SCT050 10/07 Q1027 RMK PP000=
SPZO Ene2011-120800Z 00000KT 9999 BKN050 10/07 Q1026 RMK PP000=
SPZO Ene2011-120900Z 00000KT 9999 BKN050 10/07 Q1026 RMK PP000=
SPZO Ene2011-121000Z 00000KT 9999 BKN050 10/07 Q1027 RMK PP000=
SPZO Ene2011-121100Z 00000KT 9999 FEW040 BKN050 10/07 Q1028 NOSIG RMK PP000=
SPZO Ene2011-121200Z 00000KT 9999 FEW036 BKN046 11/07 Q1028 NOSIG RMK PP000=
SPZO Ene2011-121300Z 00000KT 9999 FEW036 SCT050 13/08 Q1029 NOSIG RMK PP000=
SPZO Ene2011-121400Z 00000KT 9999 FEW036 SCT046 15/06 Q1029 NOSIG RMK PP000=
SPZO Ene2011-121500Z VRB02KT 9999 BKN040 SCT230 17/05 Q1028 NOSIG RMK PP000=
SPZO Ene2011-121600Z VRB02KT 9999 FEW040 BKN046 18/05 Q1028 NOSIG RMK PP000=
SPZO Ene2011-121700Z 00000KT 9999 FEW036 BKN046 19/05 Q1027 TEMPO VCSH RMK PP000=
SPZO Ene2011-121800Z 29012KT 9999 VCSH FEW036TCU BKN046 17/08 Q1026 TEMPO RA RMK PP000=
SPZO Ene2011-121900Z 28004KT 280V040 9999 FEW036 BKN050 19/09 Q1024 TEMPO=
SPZO Ene2011-122000Z 35008KT 290V020 9999 FEW036 BKN050 18/06 Q1023 TEMPO=
SPZO Ene2011-122100Z 28017KT 9999 VCSH FEW036 SCT050 19/07 Q1023 NOSIG RMK PP000=
SPZO Ene2011-122200Z 28011KT 9999 VCSH SCT040 BKN100 17/06 Q1024 NOSIG TMAX 21/1 RMK PP000=
SPZO Ene2011-122300Z 29007KT 9999 FEW043 BKN100 16/07 Q1024 NOSIG RMK PP000=
SPZO Ene2011-130000Z 28008KT 9999 FEW040 SCT050 15/07 Q1025 RMK PP000=
SPZO Ene2011-130100Z 29006KT 9999 FEW043 SCT060 14/08 Q1027 RMK PP000=
SPZO Ene2011-130200Z 29006KT 9999 BKN060 15/08 Q1028 RMK PP000=
SPZO Ene2011-130300Z 28007KT 9000 -RA FEW036 BKN046 14/08 Q1028 RMK PP000=
SPZO Ene2011-130400Z 04006G26KT 8000 RA SCT030 BKN043 08/07 Q1030 RMK PP062=
SPZO Ene2011-130500Z 03004KT 8000 -RA SCT036 OVC043 09/07 Q1030 RMK PP016=
SPZO Ene2011-130600Z 03007KT 8000 -RA FEW020 SCT030 BKN040 09/07 Q1029 RMK PP002=
SPZO Ene2011-130700Z 03007KT 8000 -RA SCT033 BKN043 09/06 Q1028 RMK PP006=
SPZO Ene2011-130800Z 04006KT 8000 -RA SCT033 BKN043 08/05 Q1028 RMK PP004=
SPZO Ene2011-130900Z 03004KT 9000 SCT033 BKN040 08/05 Q1028 RMK PPTRZ=
SPZO Ene2011-131000Z 00000KT 9999 FEW025 SCT040 BKN050 08/05 Q1028 RMK PP000=
SPZO Ene2011-131100Z 00000KT 9999 SCT036 BKN046 08/05 Q1029 TEMPO VCSH RMK PP000=
SPZO Ene2011-131200Z 00000KT 9999 FEW020 SCT036 BKN050 09/06 Q1030 NOSIG RMK PP000=
SPZO Ene2011-131300Z 00000KT 9999 SCT040 BKN046 10/05 Q1030 NOSIG RMK BCFG CDTE NE PP000=
SPZO Ene2011-131400Z 00000KT 9999 SCT040 BKN050 12/05 Q1030 NOSIG RMK BCFG CDTE NE PP000=
SPZO Ene2011-131500Z 00000KT 9999 SCT040 OVC050 13/06 Q1030 TEMPO VCSH RMK BCFG CDTE NE PP000=
SPZO Ene2011-131600Z 00000KT 9999 FEW036 SCT040 BKN060 15/05 Q1029 NOSIG RMK PP000=
SPZO Ene2011-131700Z VRB02KT 9999 VCSH FEW036 SCT043 BKN060 17/07 Q1028 NOSIG RMK PP000=
SPZO Ene2011-131800Z 03005KT 9999 FEW036TCU SCT043 BKN060 15/08 Q1027 TEMPO VCSH RMK PP000=
SPZO Ene2011-131900Z 04005KT 9999 VCSH FEW036 SCT043 BKN060 16/07 Q1026 TEMPO -RA RMK PP000=
SPZO Ene2011-132000Z 36008KT 9999 VCSH FEW036 SCT043 BKN050 15/07 Q1025 TEMPO -RA RMK PP000=
SPZO Ene2011-132100Z 01006KT 9999 -RA FEW030TCU SCT040 BKN050 14/08 Q1025 TEMPO 8000 RMK PPTRZ=
SPZO Ene2011-132200Z 03007KT 6000 -RA VCSH FEW030TCU SCT040 BKN046 13/08 Q1026 BECMG FM2240 8000 RMK TMAX 17.9 PP006=
SPZO Ene2011-132300Z 03007KT 9000 RA FEW030TCU SCT040 BKN050 10/07 Q1028 NOSIG RMK PP024=
SPZO Ene2011-140000Z 00000KT 8000 -RA FEW030 SCT040 BKN050 10/07 Q1029 RMK PP008=
SPZO Ene2011-140100Z 00000KT 8000 -RA FEW030 SCT040 BKN050 10/07 Q1030 RMK PP002=
SPZO Ene2011-140200Z 00000KT 8000 FEW025 SCT040 BKN060 10/07 Q1030 RMK BR RERA PP002=
SPZO Ene2011-140300Z 00000KT 9999 FEW025 SCT040 BKN060 10/08 Q1030 RMK PP000=
SPZO Ene2011-140400Z 04005KT 9999 FEW030 SCT040 BKN060 10/07 Q1030 RMK PP000=
SPZO Ene2011-140500Z 00000KT 9999 FEW030 SCT040 BKN060 10/07 Q1030 RMK PP000=
SPZO Ene2011-140600Z 04005KT 9999 FEW030 SCT040 BKN060 09/07 Q1029 RMK PP000=
SPZO Ene2011-140700Z 00000KT 9999 FEW020 BKN060 09/07 Q1029 RMK PP000=
SPZO Ene2011-140800Z 00000KT 9999 FEW020 SCT033 BKN050 09/07 Q1028 RMK PP000=
SPZO Ene2011-140900Z 00000KT 9999 FEW020 SCT033 BKN046 10/07 Q1028 RMK PP000=
SPZO Ene2011-141000Z 04003KT 9999 FEW020 SCT030 OVC046 09/07 Q1029 RMK CLNG BLW 1200M PP000=
SPZO Ene2011-141100Z 00000KT 9999 FEW015 SCT036 BKN046 09/07 Q1030 BECMG FM1140 SCT036 BKN050 RMK PP000=
SPZO Ene2011-141200Z 00000KT 9999 FEW020 SCT040 BKN050 10/07 Q1030 NOSIG RMK PP000=
SPZO Ene2011-141300Z 00000KT 9999 FEW033 SCT040 12/07 Q1030 NOSIG RMK PP000=
SPZO Ene2011-141400Z 03003KT 9999 SCT033 14/06 Q1030 NOSIG RMK PP000=
SPZO Ene2011-141500Z 01003KT 9999 SCT036 17/05 Q1030 NOSIG RMK PP000=
SPZO Ene2011-141600Z 03005KT 9999 SCT036 17/05 Q1029 NOSIG RMK PP000=
SPZO Ene2011-141700Z 34003KT 9999 BKN050 18/06 Q1029 NOSIG RMK PP000=
SPZO Ene2011-141800Z VRB03KT 9999 BKN050 20/04 Q1027 NOSIG RMK PP000=
SPZO Ene2011-141900Z 29010KT 280V020 9999 VCSH BKN050 20/07 Q1025 NOSIG RMK PP000=
SPZO Ene2011-142000Z 28013KT 9999 VCSH BKN050 19/06 Q1024 TEMPO RA RMK PP000=
SPZO Ene2011-142100Z 04010KT 8000 -RA VCSH BKN050 SCT060 14/08 Q1025 NOSIG RMK PP004=
SPZO Ene2011-142200Z VRB03KT 9000 BKN050 14/08 Q1026 RERA TEMPO VCSH RMK TMAX 20.6 PP004=
SPZO Ene2011-142300Z 00000KT 9999 BKN050 14/07 Q1026 NOSIG RMK PP000=
SPZO Ene2011-150000Z 00000KT 9999 SCT050 14/07 Q1027 RMK PP000=
SPZO Ene2011-150100Z 00000KT 9999 SCT050 13/09 Q1028 RMK PP000=
SPZO Ene2011-150200Z 00000KT 9999 BKN060 12/09 Q1029 RMK PP000=
SPZO Ene2011-150300Z 00000KT 9999 -RA FEW040 BKN060 13/08 Q1030 RMK PP002=
SPZO Ene2011-150400Z 00000KT 9999 FEW046 BKN060 12/08 Q1029 RMK PP000=
SPZO Ene2011-150500Z 00000KT 9999 SCT046 BKN060 12/09 Q1028 RMK PP000=
SPZO Ene2011-150600Z 00000KT 9999 SCT046 BKN080 12/08 Q1028 RMK PP000=
SPZO Ene2011-150700Z 00000KT 9999 SCT040 BKN080 11/08 Q1028 RMK PP000=
SPZO Ene2011-150800Z 00000KT 9999 RA SCT030 BKN046 10/08 Q1028 RMK PP028=
SPZO Ene2011-150900Z 00000KT 9999 RA SCT030 BKN046 10/08 Q1028 RMK PP028=
SPZO Ene2011-151000Z 28003KT 8000 -RA FEW020 SCT030 BKN043 08/05 Q1031 RMK CLNG BLW 1200M PP001=
SPZO Ene2011-151100Z 00000KT 9999 FEW030 SCT036 BKN046 08/05 Q1031 RERA BECMG FM1140 SCT036 BKN046 RMK CLNG BLW 1200M PP010=
SPZO Ene2011-151200Z 00000KT 9999 FEW010 SCT040 BKN050 09/05 Q1032 NOSIG RMK PP000=
SPZO Ene2011-151300Z 00000KT 9999 FEW020 SCT050 BKN060 12/05 Q1032 NOSIG RMK PP000=
SPZO Ene2011-151400Z 00000KT 9999 FEW030 SCT050 BKN060 13/05 Q1032 NOSIG RMK PP000=
SPZO Ene2011-151500Z 00000KT 9999 FEW033 SCT050 BKN070 16/07 Q1032 NOSIG RMK PP000=
SPZO Ene2011-151600Z VRB02KT 9999 FEW040 SCT050 BKN070 16/09 Q1031 NOSIG RMK PP000=
SPZO Ene2011-151700Z VRB02KT 9999 FEW040 SCT050 BKN070 18/06 Q1030 NOSIG RMK PP000=
SPZO Ene2011-151800Z VRB02KT 9999 SCT043 BKN060 19/06 Q1029 NOSIG RMK PP000=
SPZO Ene2011-151900Z 29004KT 270V020 9999 SCT046 BKN080 20/08 Q1027 NOSIG RMK PP000=
SPZO Ene2011-152000Z 29007KT 280V020 9999 FEW046TCU BKN060 19/06 Q1025 TEMPO VCSH RMK PP000=
SPZO Ene2011-152100Z 29005KT 270V020 9999 SCT046 SCT080 20/04 Q1025 TEMPO=
SPZO Ene2011-152200Z 36009KT 300V040 9999 TSRA FEW036CB BKN043 OVC080 15/05 Q1026 NOSIG RMK TMAX 20.7 PP002=
SPZO Ene2011-152300Z 28005KT 9999 FEW046 BKN070 15/07 Q1026 RERA NOSIG RMK PPTRZ=
SPZO Ene2011-160000Z 00000KT 9999 FEW040 14/07 Q1027 RMK PP000=
SPZO Ene2011-160100Z 00000KT 9999 FEW040 14/07 Q1028 RMK PP000=
SPZO Ene2011-160200Z 00000KT 9999 SKC 12/07 Q1029 RMK PP000=
SPZO Ene2011-160300Z 00000KT 9999 SKC 11/08 Q1029 RMK PP000=
SPZO Ene2011-160400Z 00000KT 9999 SKC 11/07 Q1029RMK PP000=
SPZO Ene2011-160500Z 00000KT 9999 SKC 10/07 Q1028 RMK PP000=
SPZO Ene2011-160600Z 00000KT 9999 SKC 10/07 Q1028 RMK PP000=
SPZO Ene2011-160700Z 00000KT 9999 SCT050 10/07 Q1028 RMK PP000=
SPZO Ene2011-160800Z 00000KT 9999 SCT050 10/07 Q1027 RMK PP000=
SPZO Ene2011-160900Z 00000KT 9999 SCT050 10/07 Q1027 RMK PP000=
SPZO Ene2011-161000Z 00000KT 9999 SCT033 BKN046 10/07 Q1028 RMK PP000=
SPZO Ene2011-161100Z 00000KT 9999 SCT036 BKN046 10/07 Q1029 RMK PP000=
SPZO Ene2011-161200Z 00000KT 9999 SCT036 BKN080 10/07 Q1030 NOSIG RMK PP000=
SPZO Ene2011-161300Z 00000KT 9999 SCT040 OVC060 12/07 Q1031 NOSIG RMK PP000=
SPZO Ene2011-161400Z VRB02KT 9999 FEW036 SCT043 BKN100 14/07 Q1031 NOSIG RMK PP000=
SPZO Ene2011-161500Z VRB02KT 9999 SCT040 BKN200 16/06 Q1030 NOSIG RMK PP000=
SPZO Ene2011-161600Z 00000KT 9999 SCT043 BKN080 18/06 Q1029 NOSIG RMK PP000=
SPZO Ene2011-161700Z VRB02KT 9999 SCT043 SCT230 19/06 Q1028 NOSIG RMK PP000=
SPZO Ene2011-161800Z 30003KT 280V040 9999 BKN050 21/04 Q1026 NOSIG RMK PP000=
SPZO Ene2011-161900Z 03003KT 280V040 9999 BKN050 SCT080 21/05 Q1025 TEMPO=
SPZO Ene2011-162000Z 36003KT 280V040 9999 FEW046 BKN230 21/03 Q1023 NOSIG RMK PP000=
SPZO Ene2011-162100Z 30004KT 280V020 9999 SCT046 BKN100 20/04 Q1023 TEMPO=
SPZO Ene2011-162200Z 03003KT 300V040 9999 VCSH FEW046 BKN080 20/06 Q1023 NOSIG RMK TMAX.22.3 PP000=
SPZO Ene2011-162300Z 04011KT 9999 VCSH BKN046 OVC080 18/06 Q1025 TEMPO RA RMK PP000=
SPZO Ene2011-170000Z 00000KT 9000 BKN050 SCT090 14/05 Q1025 RERA RMK PP004=
SPZO Ene2011-170100Z 00000KT 9999 BKN050 SCT100 13/07 Q1026 RMK PP000=
SPZO Ene2011-170200Z 00000KT 9999 BKN050 SCT100 12/06 Q1028 RMK PP000=
SPZO Ene2011-170300Z 00000KT 9999 BKN050 11/06 Q1029 RMK PP000=
SPZO Ene2011-170400Z 28003KT 9999 BKN050 10/06 Q1029 RMK PP000=
SPZO Ene2011-170500Z 00000KT 9999 BKN050 10/06 Q1028 RMK PP000=
SPZO Ene2011-170600Z 00000KT 9999 BKN050 09/06 Q1028 RMK PP000=
SPZO Ene2011-170700Z 00000KT 9999 BKN050 09/06 Q1028 RMK PP000=
SPZO Ene2011-170800Z 00000KT 9999 BKN050 08/06 Q1028 RMK PP000=
SPZO Ene2011-170900Z 00000KT 9999 SCT050 07/05 Q1028 RMK PP000=
SPZO Ene2011-171000Z 00000KT 9999 FEW050 07/05 Q1029 RMK PP000=
SPZO Ene2011-171100Z 00000KT 9999 FEW050 SCT230 07/05 Q1030 RERA NOSIG RMK PP002=
SPZO Ene2011-171200Z 00000KT 9999 SCT230 10/06 Q1030 NOSIG RMK PP000=
SPZO Ene2011-171300Z 00000KT 9999 FEW040 13/07 Q1031 NOSIG RMK PP000=
SPZO Ene2011-171400Z 00000KT 9999 FEW040 16/06 Q1030 NOSIG RMK PP000=
SPZO Ene2011-171500Z 03003KT 300V040 9999 FEW040 18/05 Q1029 NOSIG RMK PP000=
SPZO Ene2011-171600Z 00000KT 9999 FEW040 SCT230 20/05 Q1028 NOSIG RMK PP000=
SPZO Ene2011-171700Z 33004KT 280V040 9999 SCT050 SCT230 20/04 Q1028 RMK PP000=
SPZO Ene2011-171800Z 35004KT 280V040 9999 SCT050 SCT230 23/02 Q1026 NOSIG RMK PP000=
SPZO Ene2011-171900Z 31004KT 280V040 9999 SCT050 SCT230 23/03 Q1025 NOSIG RMK PP000=
SPZO Ene2011-172000Z 01011G21KT 300V040 9999 VCSH FEW046 SCT230 23/M02 Q1023 NOSIG RMK PP000=
SPZO Ene2011-172100Z 01011KT 300V040 9999 VCSH FEW040 BKN060 21/M02 Q1023 TEMPO-RA RMK PP000=
SPZO Ene2011-172200Z 03009G19KT 300V040 9999 VCSH FEW040 BKN060 19/M01 Q1024 TEMPO-RA RMK TMAX 23.5 PP000=
SPZO Ene2011-172300Z 01006KT 300V040 9999 VCSH OVC060 18/01 Q1024 NOSIG RMK PP000=
SPZO Ene2011-180000Z 00000KT 9999 FEW040 BKN046 17/04 Q1025 RMK PP000=
SPZO Ene2011-180100Z VRB02KT 9999 FEW043 BKN060 16/06 Q1027 RMK PP000=
SPZO Ene2011-180200Z 03005KT 9999 SCT043 SCT060 15/07 Q1028 RMK PP000=
SPZO Ene2011-180300Z 03003KT 9999 FEW040 SCT050 14/07 Q1029 RMK PP000=
SPZO Ene2011-180400Z 00000KT 9999 SCT050 13/07 Q1029 RMK PP000=
SPZO Ene2011-180500Z 03003KT 300V040 9999 FEW046 SCT070 12/07 Q1028 RMK PP000=
SPZO Ene2011-180600Z VRB02KT 9999 FEW043 SCT080 12/07 Q1028 RMK PP000=
SPZO Ene2011-180700Z 00000KT 9999 FEW043 SCT060 12/07 Q1027 RMK PP000=
SPZO Ene2011-180800Z VRB02KT 9999 FEW043 SCT060 11/07 Q1027 RMK PP000=
SPZO Ene2011-180900Z 00000KT 9999 FEW046 SCT050 10/07 Q1027 RMK PP000=
SPZO Ene2011-181000Z 00000KT 9999 FEW036 SCT050 10/07 Q1028 RMK PP000=
SPZO Ene2011-181100Z 00000KT 9999 SCT036 OVC080 10/07 Q1029 NOSIG RMK PP000=
SPZO Ene2011-181200Z 00000KT 9999 SCT046 BKN080 11/07 Q1030 NOSIG RMK PP000=
SPZO Ene2011-181300Z VRB02KT 9999 SCT036 BKN230 14/07 Q1030 NOSIG RMK PP000=
SPZO Ene2011-181400Z 03003KT 9999 SCT036 BKN230 15/07 Q1030 NOSIG RMK PP000=
SPZO Ene2011-181500Z 01003KT 290V040 9999 SCT040 BKN230 17/07 Q1029 NOSIG RMK PP000=
SPZO Ene2011-181600Z 03003KT 300V040 9999 SCT050 BKN100 20/07 Q1028 NOSIG RMK PP000=
SPZO Ene2011-181700Z 28005KT 9999 SCT046 BKN200 20/05 Q1028 NOSIG RMK PP000=
SPZO Ene2011-181800Z 33003KT 9999 SCT043 BKN080 21/05 Q1027 NOSIG RMK PP000=
SPZO Ene2011-181900Z 35011KT 9999 SCT040 BKN060 20/06 Q1026 TEMPO VCSH RMK PP000=
SPZO Ene2011-182000Z 00000KT 9999 TS VCSH SCT046CB BKN080 18/06 Q1025 TEMPO RA RMK PP000=
SPZO Ene2011-182100Z 32003KT 280V030 9999 RA FEW036TCU SCT050 BKN080 13/09 Q1026 NO=
SPZO Ene2011-182200Z 00000KT 9999 VCSH SCT050 OVC080 14/06 Q1026 NOSIG RMK TMAX 20 PP002=
SPZO Ene2011-182300Z 03004KT 300V040 9999 VCSH FEW046 BKN080 14/09 Q1027 NOSIG RMK PP000=
SPZO Ene2011-190000Z VRB02KT 9999 VCSH SCT050 BKN080 14/06 Q1026 RMK PP000=
SPZO Ene2011-190100Z 00000KT 9999 SCT050 SCT080 13/07 Q1027 RMK PP000=
SPZO Ene2011-190200Z 00000KT 9999 SCT050 SCT080 12/07 Q1029 RMK PP000=
SPZO Ene2011-190300Z 00000KT 9999 FEW050 SCT080 11/06 Q1029 RMK PP000=
SPZO Ene2011-190400Z 00000KT 9999 SCT050 10/07 Q1029 RMK PP000=
SPZO Ene2011-190500Z 00000KT 9999 SCT050 BKN080 10/07 Q1028 RMK PP000=
SPZO Ene2011-190600Z 03003KT 9999 SCT050 BKN080 10/07 Q1028 RMK PP000=
SPZO Ene2011-190700Z 00000KT 9999 SCT050 BKN080 10/07 Q1027 RMK PP000=
SPZO Ene2011-190800Z 00000KT 9999 SCT040 BKN060 10/07 Q1027 PP000=
SPZO Ene2011-190900Z 00000KT 9999 SCT040 BKN060 10/07 Q1027 PP000=
SPZO Ene2011-191000Z 00000KT 9999 SCT040 BKN060 10/07 Q1027 RMK PP000=
SPZO Ene2011-191020Z 00000KT 8000 FEW036 SCT040 BKN046 10/07 Q1027=
SPZO Ene2011-191100Z 00000KT 8000 FEW025 SCT043 BKN060 10/07 Q1031 NOSIG RMK HZ/FU PP000=
SPZO Ene2011-191200Z 00000KT 8000 FEW036 SCT043 BKN050 11/07 Q1023 RMK HZ/FU BECMG FM 1230 9999 PP000=
SPZO Ene2011-191235Z 00000KT 9999 FEW036 SCT046 BKN100 13/07 Q1029=
SPZO Ene2011-191300Z 00000KT 9999 FEW036 SCT046 BKN100 15/07 Q1029 NOSIG RMK PP000=
SPZO Ene2011-191400Z 28007KT 9999 SCT036 BKN100 16/06 Q1029 NOSIG RMK PP000=
SPZO Ene2011-191500Z 33003KT 9999 SCT040 SCT230 17/07 Q1028 NOSIG RMK PP000=
SPZO Ene2011-191600Z 32003KT 9999 SCT040 BKN080 17/07 Q1028 NOSIG RMK PP000=
SPZO Ene2011-191700Z 32006G17KT 9999 VCSH SCT040 BKN050 18/06 Q1027 RERA NOSIG RMK PPTRZ=
SPZO Ene2011-191800Z 30012KT 8000 -RA VCSH SCT030 SCT040 BKN050 12/06 Q1028 TEMPO 6000 RMK PP010=
SPZO Ene2011-191900Z 04005KT 8000 -RA VCSH SCT030 SCT040 BKN050 11/09 Q1028 NOSIG RMK PP006=
SPZO Ene2011-192000Z 00000KT 9000 -DZ VCSH FEW030 SCT040 BKN050 12/08 Q1027 TEMPO -RA RMK PP006=
SPZO Ene2011-192100Z 03005KT 9000 VCSH FEW030 SCT040 BKN050 13/08 Q1027 REDZ NOSIG RMK PPTRZ=
SPZO Ene2011-192200Z 00000KT 9999 SCT040 BKN050 11/07 Q1027 TEMPO VCSH RMK TMAX //// PP000=
SPZO Ene2011-192300Z 00000KT 9999 FEW040 SCT050 BKN070 12/08 Q1026 RERA NOSIG RMK PP004=
SPZO Ene2011-200000Z 00000KT 9999 SCT050 BKN200 12/08 Q1026 RMK PP000=
SPZO Ene2011-200100Z 00000KT 9999 SCT050 BKN200 11/08 Q1028 RMK PP000=
SPZO Ene2011-200200Z 00000KT 9999 SCT050 BKN200 10/08 Q1029 RMK PP000=
SPZO Ene2011-200300Z 00000KT 9999 SCT050 BKN200 09/07 Q1029 RMK PP000=
SPZO Ene2011-200400Z 00000KT 9999 SCT046 BKN150 09/07 Q1029 RMK PP000=
SPZO Ene2011-200500Z 00000KT 9999 SCT046 BKN230 09/07 Q1028 RMK PP000=
SPZO Ene2011-200600Z 00000KT 9999 SCT040 BKN230 09/07 Q1027 RMK PP000=
SPZO Ene2011-200700Z 00000KT 9999 SCT040 BKN200 09/07 Q1027 RMK PP000=
SPZO Ene2011-200800Z 00000KT 9999 SCT036 BKN080 09/07 Q1026 RMK PP000=
SPZO Ene2011-200900Z 00000KT 9999 SCT030 BKN060 09/06 Q1027 RMK PP000=
SPZO Ene2011-201000Z 03003KT 9999 FEW020 SCT030 BKN046 09/06 Q1027 RMK CLNG BLW 1200M PP000=
SPZO Ene2011-201100Z 00000KT 9999 FEW015 SCT030 OVC046 09/06 Q1028 NOSIG RMK CLNG BLW 1200M PP000=
SPZO Ene2011-201200Z 00000KT 9999 SCT015 SCT025 OVC040 09/06 Q1028 NOSIG RMK CLNG BLW 1200M PP000=
SPZO Ene2011-201300Z 00000KT 9999 FEW015 SCT025 OVC040 10/06 Q1029 BECMG FM1340 SCT036 BKN046 RMK CLNG BLW 1200M PP000=
SPZO Ene2011-201400Z 00000KT 9999 FEW017 SCT025 OVC040 11/06 Q1029 NOSIG RMK PP000=
SPZO Ene2011-201500Z 00000KT 9999 SCT040 SCT050 BKN230 13/08 Q1028 NOSIG RMK PP000=
SPZO Ene2011-201600Z 03004KT 300V050 9999 FEW040 SCT050 BKN230 16/09 Q1027 NOSIG RMK PP000=
SPZO Ene2011-201700Z 03004KT 300V050 9999 FEW040 SCT050 BKN230 18/06 Q1025 NOSIG RMK PP000=
SPZO Ene2011-201800Z 00000KT 9999 SCT050 BKN230 20/06 Q1024 NOSIG RMK PP000=
SPZO Ene2011-201900Z 03006KT 300V040 9999 FEW040TCU SCT050 20/03 Q1023 TEMPO -RA RMK PP000=
SPZO Ene2011-202000Z 36013KT 300V030 9999 SCT046 SCT230 20/03 Q1022 NOSIG RMK PP000=
SPZO Ene2011-202100Z 01012KT 300V050 9999 FEW046 SCT230 20/03 Q1021 NOSIG RMK PP000=
SPZO Ene2011-202200Z 01008KT 300V050 9999 FEW050 SCT230 20/03 Q1020 NOSIG RMK TMAX 21.4 PP000=
SPZO Ene2011-202300Z 01009KT 300V040 9999 FEW050 BKN230 18/05 Q1021 NOSIG RMK PP000=
SPZO Ene2011-210000Z 00000KT 9999 FEW050 16/06 Q1022 RMK PP000=
SPZO Ene2011-210100Z 00000KT 9999 SKC 15/06 Q1024 RMK PP000=
SPZO Ene2011-210200Z 00000KT 9999 FEW060 14/06 Q1025 RMK PP000=
SPZO Ene2011-210300Z 00000KT 9999 SCT080 14/06 Q1026 RMK PP000=
SPZO Ene2011-210400Z 00000KT 9999 SCT080 14/05 Q1027 RMK PP000=
SPZO Ene2011-210500Z 00000KT 9999 SCT050 14/03 Q1026 RMK PP000=
SPZO Ene2011-210600Z 00000KT 9999 SCT060 13/02 Q1026 RMK PP000=
SPZO Ene2011-210700Z 00000KT 9999 SCT060 13/03 Q1026 RMK PP000=
SPZO Ene2011-210800Z 00000KT 9999 SCT230 13/04 Q1026 RMK PP000=
SPZO Ene2011-210900Z 00000KT 9999 SCT230 10/04 Q1026 RMK PP000=
SPZO Ene2011-211000Z 00000KT 9999 FEW036 OVC230 10/04 Q1026 RMK PP000=
SPZO Ene2011-211100Z 00000KT 9999 SCT040 OVC100 09/04 Q1026 NOSIG RMK PP000=
SPZO Ene2011-211200Z 00000KT 9999 FEW040 SCT060 OVC100 10/05 Q1027 NOSIG RMK PP000=
SPZO Ene2011-211300Z 00000KT 9999 SCT046 BKN200 13/05 Q1028 NOSIG RMK PP000=
SPZO Ene2011-211400Z 00000KT 9999 FEW043 BKN150 14/05 Q1028 NOSIG RMK PP000=
SPZO Ene2011-211500Z 00000KT 9999 SCT040 BKN100 17/03 Q1028 NOSIG RMK PP000=
SPZO Ene2011-211600Z 31004KT 280V040 9999 SCT046 OVC080 17/03 Q1027 NOSIG RMK PP000=
SPZO Ene2011-211700Z 34005KT 290V050 9999 SCT043 BKN080 18/03 Q1026 NOSIG RMK PP000=
SPZO Ene2011-211800Z 03009KT 9999 VCSH SCT043TCU BKN080 17/03 Q1025 TEMPO RA RMK PP000=
SPZO Ene2011-211900Z 35007KT 270V040 9999 VCSH SCT043TCU SCT080 19/04 Q1023 TEMPO RA RMK PP000=
SPZO Ene2011-212000Z 03008KT 300V040 9999 SCT046 BKN080 18/04 Q1023 TEMPO=
SPZO Ene2011-212100Z 34004KT 280V040 9999 FEW040 BKN080 16/04 Q1022 NOSIG RMK PP000=
SPZO Ene2011-212200Z 04009KT 9999 FEW043 BKN230 16/05 Q1023 NOSIG RMK PP000=
SPZO Ene2011-212300Z 04008KT 9999 FEW040 SCT080 15/05 Q1024 NOSIG RMK PP000=
SPZO Ene2011-220000Z 04003KT 9999 BKN050 13/05 Q1025 RMK PP000=
SPZO Ene2011-220100Z 03004KT 9999 BKN050 13/05 Q1026 RMK PP000=
SPZO Ene2011-220200Z 04004KT 9999 BKN050 13/06 Q1027 RMK PP000=
SPZO Ene2011-220300Z VRB03KT 8000 -RA SCT040 BKN050 11/07 Q1027 RMK PP008=
SPZO Ene2011-220400Z 00000KT 9000 OVC050 11/07 Q1027 RERA RMK PPTRZ=
SPZO Ene2011-220500Z VRB02KT 9999 OVC050 11/07 Q1026 RMK PP000=
SPZO Ene2011-220600Z 04005KT 9999 OVC050 10/07 Q1026 RMK PP000=
SPZO Ene2011-220700Z VRB02KT 9999 OVC050 10/07 Q1025 RMK PP000=
SPZO Ene2011-220800Z 00000KT 9999 OVC050 10/07 Q1025 RMK PP000=
SPZO Ene2011-220900Z 00000KT 9999 OVC050 10/07 Q1025 RMK PP000=
SPZO Ene2011-221000Z 00000KT 9999 SCT040 BKN050 10/07 Q1026 RMK PP000=
SPZO Ene2011-221100Z 00000KT 9000 -RA FEW020 SCT030 BKN040 10/07 Q1027 TEMPO FEW020 SCT036 RMK PPTRZ=
SPZO Ene2011-221200Z 28004KT 9000 VCSH FEW020 SCT040 BKN046 10/06 Q1027 RERA TEMPO 8000 RMK PPTRZ=
SPZO Ene2011-221300Z 00000KT 9999 FEW020 BKN046 13/06 Q1028 NOSIG RMK PP000=
SPZO Ene2011-221400Z 00000KT 9999 FEW030 SCT043 BKN050 14/07 Q1028 NOSIG RMK PP000=
SPZO Ene2011-221500Z 00000KT 9999 FEW036 BKN050 16/06 Q1027 NOSIG RMK PP000=
SPZO Ene2011-221600Z 34003KT 280V040 9999 SCT043 BKN050 16/06 Q1026 NOSIG RMK PP000=
SPZO Ene2011-221700Z 02004KT 280V050 9999 VCSH SCT043 BKN050 17/04 Q1026 TEMPO 8000 -RA RMK PP000=
SPZO Ene2011-221800Z 02005KT 290V040 9999 BKN046 19/03 Q1024 RERA NOSIG RMK PP002=
SPZO Ene2011-221900Z 02005KT 290V040 9999 SCT043 BKN050 19/03 Q1023 TEMPO=
SPZO Ene2011-222000Z 03008KT 9999 FEW040TCU SCT043 BKN060 19/06 Q1022 TEMPO VCSH RMK PP000=
SPZO Ene2011-222100Z 03007KT 310V040 9999 SCT046 BKN050 17/04 Q1022 TEMPO=
SPZO Ene2011-222200Z 04010KT 9999 VCSH SCT043 BKN050 16/06 Q1023 NOSIG RMK TMAX 19.8 PP000=
SPZO Ene2011-222300Z 04010KT 9999 SCT043 BKN050 15/05 Q1024 NOSIG RMK PP000=
SPZO Ene2011-230000Z 04009KT 9999 FEW036TCU SCT046 BKN050 14/05 Q1025 RMK PP000=
SPZO Ene2011-230100Z 03004KT 9999 FEW046 SCT060 13/05 Q1026 RMK PP000=
SPZO Ene2011-230200Z 04005KT 300V040 9999 FEW043 SCT050 13/05 Q1027 RMK PP000=
SPZO Ene2011-230300Z 00000KT 9999 FEW040 BKN050 12/05 Q1028 RMK PP000=
SPZO Ene2011-230400Z 00000KT 9999 FEW040 BKN046 12/05 Q1028 RMK PP000=
SPZO Ene2011-230500Z 00000KT 9999 FEW040 BKN046 11/06 Q1028 RMK PP000=
SPZO Ene2011-230600Z 00000KT 9999 FEW040 BKN046 11/06 Q1027 RMK PP000=
SPZO Ene2011-230700Z 00000KT 9999 SCT036 BKN043 11/06 Q1027 RMK PP000=
SPZO Ene2011-230800Z 00000KT 9999 SCT033 BKN043 11/06 Q1027 RMK PP000=
SPZO Ene2011-230900Z 03004KT 9999 SCT033 BKN043 11/06 Q1026 RMK PP000=
SPZO Ene2011-231000Z 00000KT 9999 SCT033 BKN043 11/06 Q1027 RMK PP000=
SPZO Ene2011-231100Z 00000KT 9999 VCSH FEW025 SCT036 BKN046 11/05 Q1028 NOSIG RMK PP000=
SPZO Ene2011-231200Z 00000KT 9999 FEW036 SCT043 BKN060 12/06 Q1029 NOSIG RMK PP000=
SPZO Ene2011-231300Z VRB02KT 9999 FEW036 BKN046 13/06 Q1029 NOSIG RMK PP000=
SPZO Ene2011-231400Z 00000KT 9999 FEW036 BKN043 13/05 Q1029 NOSIG RMK PP000=
SPZO Ene2011-231500Z 00000KT 9999 FEW040 SCT046 BKN060 15/06 Q1029 NOSIG RMK PP000=
SPZO Ene2011-231600Z 33004KT 300V040 9999 SCT040 BKN060 16/05 Q1028 NOSIG RMK PP000=
SPZO Ene2011-231700Z 35003KT 300V040 9999 SCT043 BKN050 18/05 Q1027 NOSIG RMK PP000=
SPZO Ene2011-231800Z 01008KT 9999 SCT043 SCT050 17/04 Q1026 RMK PP000=
SPZO Ene2011-231900Z 34008KT 9999 SCT040 BKN050 18/04 Q1025 NOSIG RMK PP000=
SPZO Ene2011-232000Z 01012KT 300V050 9999 SCT043 BKN050 17/03 Q1025 TEMPO=
SPZO Ene2011-232100Z 03007KT 9999 SCT043 BKN060 16/04 Q1024 TEMPO VCSH RMK PP000=
SPZO Ene2011-232200Z 03005KT 9999 SCT040 BKN050 15/04 Q1025 TEMPO VCSH RMK TMAX 20.1 PP000=
SPZO Ene2011-232300Z 04008KT 9999 SCT040 BKN050 14/05 Q1026 TEMPO VCSH RMK PP000=
SPZO Ene2011-240000Z 04008KT 9999 SCT040 BKN050 13/06 Q1027 RMK PP000=
SPZO Ene2011-240100Z 03006KT 9999 SCT040 BKN050 12/06 Q1028 RMK PP000=
SPZO Ene2011-240200Z 04005KT 9999 SCT040 BKN060 12/05 Q1029 RMK PP000=
SPZO Ene2011-240300Z 04005KT 9999 SCT040 BKN060 11/06 Q1029 RMK PP000=
SPZO Ene2011-240400Z 04008KT 9999 -RA SCT040 BKN060 11/06 Q1029 RMK PPTRZ=
SPZO Ene2011-240500Z 04006KT 8000 -RA FEW030 SCT040 BKN050 09/07 Q1029 RMK PP006=
SPZO Ene2011-240600Z 00000KT 8000 -RA FEW030 SCT040 BKN050 09/07 Q1028 RMK PP002=
SPZO Ene2011-240700Z 00000KT 9000 FEW030 SCT036 BKN050 09/07 Q1028 RMK RERA PPTRZ=
SPZO Ene2011-240800Z 00000KT 9999 FEW030 SCT036 BKN050 09/07 Q1027 RMK PP000=
SPZO Ene2011-240900Z 00000KT 9999 FEW025 SCT033 BKN043 09/07 Q1028 RMK PP000=
SPZO Ene2011-241000Z 00000KT 9999 FEW025 SCT036 BKN046 10/07 Q1027 RMK PP000=
SPZO Ene2011-241100Z 00000KT 9000 VCSH FEW020 SCT033 BKN043 09/07 Q1028 TEMPO -RA RMK CLNG BLW 1200M PP000=
SPZO Ene2011-241200Z 00000KT 9999 FEW030 SCT036 BKN046 10/07 Q1029 RERA BECMG FM1230 SCT033 BKN046 RMK CLNG BLW 1200M PP002=
SPZO Ene2011-241231Z 00000KT 9999 FEW020 SCT036 BKN046 11/07 Q1029=
SPZO Ene2011-241300Z 00000KT 9999 FEW030 SCT036 BKN046 11/07 Q1029 NOSIG RMK PP000=
SPZO Ene2011-241400Z 00000KT 9999 FEW030 SCT036 BKN050 13/07 Q1029 NOSIG RMK PP000=
SPZO Ene2011-241500Z 00000KT 9999 FEW030 SCT040 BKN050 14/08 Q1029 TEMPO -RA RMK PP000=
SPZO Ene2011-241600Z 30003KT 280V040 9999 FEW033 SCT040 BKN050 15/07 Q1028 NOSIG RMK PP000=
SPZO Ene2011-241700Z 01004KT 9999 VCSH FEW040CTU SCT043 BKN050 15/06 Q1027 TEMPO -RA RMK PP000=
SPZO Ene2011-241800Z 03010KT 7000 -RA VCSH SCT010TCU SCT020 OVC040 12/08 Q1026 BECMG FM1830 9000 RMK CLNG BLW 1200M PP008=
SPZO Ene2011-241900Z 03004KT 8000 VCSH FEW010TCU SCT030 BKN040 12/08 Q1026 TEMPO RA RMK PP006=
SPZO Ene2011-242000Z 03006KT 7000 VCSH FEW010TCU SCT030 BKN040 12/08 Q1025 TEMPO RA BECMG FM2030 9000 RMK PP000=
SPZO Ene2011-242100Z 03004KT 7000 RA VCSH FEW010TCU SCT030 BKN040 10/08 Q1026 NOSIG RMK PP024=
SPZO Ene2011-242200Z 00000KT 9999 FEW030 SCT040 BKN050 10/08 Q1026 RERA TEMPO VCSH RMK TMAX /// PP006=
SPZO Ene2011-242300Z 00000KT 9999 SCT040 BKN050 11/07 Q1026 NOSIG RMK PP000=
SPZO Ene2011-250000Z 00000KT 9999 SCT046 BKN050 11/07 Q1027 RMK PP000=
SPZO Ene2011-250100Z 00000KT 9999 -RA SCT030 OVC046 10/08 Q1028 RMK PP002=
SPZO Ene2011-250200Z 00000KT 9999 -RA SCT033 OVC046 10/07 Q1028 RMK PP006=
SPZO Ene2011-250300Z 00000KT 9999 SCT030 OVC046 10/07 Q1029 RERA RMK PP002=
SPZO Ene2011-250400Z 00000KT 9999 SCT036 BKN050 10/07 Q1029 RMK PP000=
SPZO Ene2011-250500Z 00000KT 9999 -RA FEW030 SCT040 BKN050 09/06 Q1028 RMKPPTRZ=
SPZO Ene2011-250600Z 00000KT 9999 FEW025 SCT036 OVC050 10/07 Q1028 RMK PP000=
SPZO Ene2011-250700Z 00000KT 9999 -RA FEW025 SCT030 OVC046 09/07 Q1027 RMK PP022=
SPZO Ene2011-250800Z 00000KT 9999 -RA FEW025 SCT030 OVC046 09/07 Q1027 RMK PP014=
SPZO Ene2011-250900Z 00000KT 9999 FEW030 SCT036 OVC050 08/05 Q1028 RERA RMK PP010=
SPZO Ene2011-251000Z 00000KT 8000 -RA FEW020 SCT030 BKN040 08/05 Q1028 RMK CLNG BLW 1200M PP002=
SPZO Ene2011-251100Z 03003KT 9000 -RA FEW020 SCT030 BKN043 08/06 Q1029 NOSIG RMK CLNG BLW 1200M=
SPZO Ene2011-251200Z 00000KT 7000 -RA VCSH SCT010 SCT030 OVC040 08/06 Q1030 NOSIG RMK CLNG BLW 1200M=
SPZO Ene2011-251300Z 00000KT 6000 -RA VCSH SCT010 SCT030 OVC043 09/06 Q1031 BECMG RMK CLNG BLW 1200M=
SPZO Ene2011-251400Z 00000KT 9000 SCT030 SCT040 BKN050 11/05 Q1031 NOSIG RMK PP002=
SPZO Ene2011-251500Z 00000KT 9999 FEW030 SCT040 BKN050 13/06 Q1030 NOSIG RMK PP000=
SPZO Ene2011-251600Z 00000KT 9999 SCT040 SCT050 14/06 Q1029 NOSIG RMK PP000=
SPZO Ene2011-251700Z 00000KT 9999 SCT040 SCT050 16/08 Q1028 NOSIG RMK PP000=
SPZO Ene2011-251800Z 02006KT 300V040 9999 FEW040 BKN050 16/07 Q1026 TEMPO=
SPZO Ene2011-251900Z 03009KT 9999 VCSH FEW040 BKN050 16/07 Q1025 NOSIG RMK PP000=
SPZO Ene2011-252000Z VRB02KT 9999 -RA VCSH FEW040TCU BKN050 15/08 Q1025 NOSIG RMK PP002=
SPZO Ene2011-252100Z 03006KT 280V050 9999 BKN040 SCT080 15/08 Q1024 TEMPO=
SPZO Ene2011-252200Z 04006KT 9999 VCSH FEW040TCU SCT043 BKN050 14/08 Q1025 NOSIG RMK TMAX /// PP000=
SPZO Ene2011-252300Z 36005KT 300V050 9999 VCSH BKN040 OVC050 14/07 Q1025 NOSIG RMK PP000=
SPZO Ene2011-260000Z 04008KT 9999 FEW030 OVC050 13/08 Q1026 RMK PP000=
SPZO Ene2011-260100Z 03007KT 9999 FEW040 OVC060 12/06 Q1028 RMK PP000=
SPZO Ene2011-260200Z 04007KT 9999 SCT040 BKN080 11/06 Q1029 RMK PP000=
SPZO Ene2011-260300Z 04006KT 9999 SCT040 BKN050 11/07 Q1029 RMK PP000=
SPZO Ene2011-260400Z 00000KT 9999 SCT040 BKN050 11/07 Q1029 RMK PP000=
SPZO Ene2011-260500Z 00000KT 9999 SCT030 BKN040 10/07 Q1029 RMK PP000=
SPZO Ene2011-260600Z 00000KT 9999 SCT030 BKN040 10/07 Q1029 RMK PP000=
SPZO Ene2011-260700Z 00000KT 9999 SCT040 BKN050 10/07 Q1028 RMK PP000=
SPZO Ene2011-260800Z 00000KT 9999 SCT040 BKN050 10/07 Q1028 RMK PP000=
SPZO Ene2011-260900Z 00000KT 9999 SCT040 BKN050 10/07 Q1028 RMK PP000=
SPZO Ene2011-261000Z 00000KT 9999 FEW040 SCT050 10/05 Q1028 RMK PP000=
SPZO Ene2011-261100Z 00000KT 9999 FEW036 BKN046 09/06 Q1029 NOSIG RMK PP000=
SPZO Ene2011-261200Z 00000KT 9999 FEW036 SCT043 BKN050 10/06 Q1030 NOSIG RMK PP000=
SPZO Ene2011-261300Z 00000KT 9999 FEW036 SCT043 BKN060 12/06 Q1031 NOSIG RMK PP000=
SPZO Ene2011-261400Z 00000KT 9999 FEW036 SCT043 BKN060 13/05 Q1031 NOSIG RMK PP000=
SPZO Ene2011-261500Z 00000KT 9999 FEW036 SCT050 BKN080 14/05 Q1030 NOSIG RMK PP000=
SPZO Ene2011-261600Z 00000KT 9999 BKN043 SCT050 16/05 Q1029 NOSIG RMK PP000=
SPZO Ene2011-261700Z 00000KT 9999 VCSH SCT043 BKN080 17/05 Q1028 NOSIG RMK PP000=
SPZO Ene2011-261800Z 04011KT 9999 VCSH SCT043 BKN080 15/07 Q1029 TEMPO -RA RMK PP000=
SPZO Ene2011-261900Z 03003KT 290V040 9999 VCSH SCT040 BKN080 17/08 Q1026 TEMPO -RA RMK PP000=
SPZO Ene2011-262000Z 35004KT 290V030 9999 VCSH SCT040 BKN080 17/06 Q1025 TEMPO -RA RMK PP000=
SPZO Ene2011-262100Z 28013KT 9999 VCSH FEW040 SCT050 BKN080 15/06 Q1025 NOSIG RMK PP000=
SPZO Ene2011-262200Z 28015KT 9999 SCT043 BKN100 14/06 Q1025 NOSIG RMK TMAX /// PP000=
SPZO Ene2011-262300Z 29009KT 9999 SCT046 BKN100 14/06 Q1026 NOSIG RMK PP000=
SPZO Ene2011-270000Z 28007KT 9999 OVC050 14/07 Q1026 RERA RMK PP002=
SPZO Ene2011-270100Z 28004KT 9999 OVC050 14/07 Q1027 RMK PP000=
SPZO Ene2011-270300Z 00000KT 9999 OVC050 13/07 Q1029 RMK PP000=
SPZO Ene2011-270400Z 30004KT 5000 +RA SCT020TCU SCT040 BKN050 10/08 Q1029 RMK PP052=
SPZO Ene2011-270500Z 00000KT 6000 RA FEW020TCU SCT040 BKN050 10/07 Q1029 RMK PP014=
SPZO Ene2011-270600Z 00000KT 6000 -RA FEW020TCU SCT040 OVC050 10/07 Q1028 RMK PP006=
SPZO Ene2011-270700Z 00000KT 7000 FEW020 SCT040 OVC050 10/08 Q1027 RERA RMK PP002=
SPZO Ene2011-270800Z 00000KT 9999 FEW020 SCT040 OVC050 10/08 Q1027 RMK PP000=
SPZO Ene2011-270900Z 00000KT 9999 FEW020 SCT040 OVC050 11/08 Q1027 RMK PP000=
SPZO Ene2011-271000Z 00000KT 9999 FEW020 SCT040 BKN050 10/08 Q1027 RMK PP000=
SPZO Ene2011-271100Z 00000KT 8000 VCSH FEW020 SCT040 BKN050 11/06 Q1027 RERA NOSIG RMK PPTRZ=
SPZO Ene2011-271200Z 00000KT 9000 -RAVCSH FEW030 SCT040 BKN046 11/06 Q1028 TEMPO 8000 SCT036 BKN046 RMK PPTRZ=
SPZO Ene2011-271300Z 00000KT 9999 VCSH FEW030 SCT040 BKN046 11/07 Q1029 RERA NOSIG RMK PPTRZ=
SPZO Ene2011-271400Z 04006KT 9000 -RAVCSH FEW020 SCT036 BKN050 11/07 Q1030 TEMPO 8000 RMK PPTRZ=
SPZO Ene2011-271500Z 04008KT 8000 -RA FEW025 SCT033 BKN046 10/07 Q1030 BECMG FM1540 SCT036 BKN046 RMK CLNG BLW 1200M PP002=
SPZO Ene2011-271600Z 04008KT 8000 -RA FEW030 SCT036 BKN050 10/07 Q1030 BECMG FM1630 SCT036 BKN046 RMK CLNG BLW 1200M PP008=
SPZO Ene2011-271700Z 03004KT 9000 -RAVCSH FEW020 SCT036 OVC046 10/06 Q1030 NOSIG RMK PP004=
SPZO Ene2011-271800Z VRB02KT 9999 FEW030 SCT040 BKN200 13/06 Q1028 RERA NOSIG RMK PPTRZ=
SPZO Ene2011-271900Z VRB02KT 9999 FEW036 SCT046 BKN200 17/07 Q1026 NOSIG RMK PP000=
SPZO Ene2011-272000Z 02005KT 300V040 9999 SCT040 BKN200 17/06 Q1025 RERA TEMPO VCSH=
SPZO Ene2011-272100Z 36006KT 290V040 9999 SCT046 SCT200 16/04 Q1024 NOSIG RMK PP000=
SPZO Ene2011-272200Z 36008KT 290V040 9999 SCT046 SCT220 16/04 Q1024 NOSIG RMK TMAX /// PP000=
SPZO Ene2011-272300Z 36006KT 290V040 9999 SCT046 SCT200 15/04 Q1025 NOSIG RMK PP000=
SPZO Ene2011-280000Z 36006KT 300V050 9999 SCT043 BKN080 14/03 Q1026 RMK PP000=
SPZO Ene2011-280100Z 04003KT 9999 FEW043 BKN050 14/04 Q1027 RMK PP000=
SPZO Ene2011-280200Z 01007KT 300V050 9999 FEW043 BKN050 13/04 Q1028 RMK PP000=
SPZO Ene2011-280300Z 30004KT 280V020 9999 FEW040 BKN050 13/05 Q1029 RMK PP000=
SPZO Ene2011-280400Z 00000KT 9999 FEW040 BKN046 12/06 Q1029 RMK PP000=
SPZO Ene2011-280500Z 00000KT 9999 FEW040 BKN046 12/07 Q1029 RMK PP000=
SPZO Ene2011-280600Z 00000KT 9999 FEW036 SCT050 11/06 Q1028 RMK PP000=
SPZO Ene2011-280700Z 00000KT 9999 FEW036 SCT046 11/06 Q1028 RMK PP000=
SPZO Ene2011-280800Z 00000KT 9999 -RA SCT030 BKN043 11/05 Q1027 RMK PP002=
SPZO Ene2011-280900Z 04003KT 9999 FEW036 BKN046 10/07 Q1027 RMK PPTRZ=
SPZO Ene2011-281000Z 00000KT 9999 FEW033 BKN046 10/06 Q1028 RMK PP000=
SPZO Ene2011-281100Z 00000KT 9999 FEW036 BKN046 10/06 Q1029 NOSIG RMK PP000=
SPZO Ene2011-281200Z 00000KT 9999 FEW036 SCT046 BKN200 11/06 Q1030 NOSIG RMK PP000=
SPZO Ene2011-281300Z 00000KT 9999 FEW036 SCT046 14/06 Q1030 NOSIG RMK PP000=
SPZO Ene2011-281400Z 03004KT 9999 FEW036 SCT046 13/05 Q1030 NOSIG RMK PP000=
SPZO Ene2011-281500Z 02003KT 300V040 9999 BKN050 15/04 Q1030 NOSIG RMK PP000=
SPZO Ene2011-281600Z 00000KT 9999 FEW040 BKN046 15/04 Q1030 NOSIG RMK PP000=
SPZO Ene2011-281623Z 02009KT 300V050 9999 -RA VCSH FEW040 BKN046 14/06 Q1030=
SPZO Ene2011-281700Z 00000KT 9999 FEW040 BKN050 17/05 Q1029 TEMPO VCSH RMK PP000=
SPZO Ene2011-281800Z 02004KT 280V040 9999 BKN050 18/04 Q1028 NOSIG RMK PP000=
SPZO Ene2011-281900Z 02011KT 290V040 9999 VCSH FEW040 SCT050 18/06 Q1027 NOSIG RMK PP000=
SPZO Ene2011-282000Z 02012KT 9999 FEW040TCU SCT050 18/05 Q1026 NOSIG RMK PP000=
SPZO Ene2011-282100Z 02011G21KT 300V040 9999 FEW040TCU SCT050 17/03 Q1025 NOSIG RMK=
SPZO Ene2011-282200Z 02008KT 300V040 9999 FEW040 SCT200 17/03 Q1025 NOSIG RMK PP000=
SPZO Ene2011-282300Z 01005KT 9999 FEW040 BKN050 15/04 Q1026 NOSIG RMK PP000=
SPZO Ene2011-290000Z 02003KT 300V040 9999 FEW040 BKN050 14/04 Q1027 RMK PP000=
SPZO Ene2011-290100Z 30003KT 270V020 9999 SCT040 SCT050 13/04 Q1029 RMK PP000=
SPZO Ene2011-290200Z VRB02KT 9999 SCT040 SCT060 12/05 Q1029 RMK PP000=
SPZO Ene2011-290300Z 00000KT 9999 SCT040 BKN060 12/06 Q1031 RMK PP000=
SPZO Ene2011-290400Z 00000KT 9999 SCT040 BKN050 12/05 Q1030 RMK PP000=
SPZO Ene2011-290500Z 00000KT 9999 SCT040 BKN050 12/06 Q1030 RMK PP000=
SPZO Ene2011-290600Z 02005KT 290V050 9999 SCT040 BKN050 12/05 Q1030 RMK PP000=
SPZO Ene2011-290700Z 03005KT 9999 SCT040 BKN050 10/05 Q1030 RMK PP000=
SPZO Ene2011-290800Z 03004KT 300V040 9999 SCT040 BKN050 09/04 Q1030 RMK PP000=
SPZO Ene2011-290900Z 03004KT 300V040 9999 FEW036 SCT040 BKN060 09/04 Q1030 RMK PP000=
SPZO Ene2011-291000Z 00000KT 9999 FEW033 SCT040 BKN060 09/04 Q1030 RMK PP000=
SPZO Ene2011-291030Z 04003KT 9999 SCT036 BKN043 09/04 Q1031=
SPZO Ene2011-291100Z 00000KT 9999 SCT036 BKN043 09/04 Q1032 NOSIG RMK PP000=
SPZO Ene2011-291200Z 00000KT 9999 FEW036 OVC050 09/04 Q1033 NOSIG RMK PP000=
SPZO Ene2011-291300Z 00000KT 9999 FEW036 OVC050 11/05 Q1033 NOSIG RMK PP000=
SPZO Ene2011-291400Z 00000KT 9999 FEW030 SCT036 BKN050 12/04 Q1033 NOSIG RMK PP000=
SPZO Ene2011-291428Z 00000KT 9999 FEW036 SCT046 BKN060 14/05 Q1033=
SPZO Ene2011-291500Z 00000KT 9999 FEW030 SCT046 BKN060 15/07 Q1033 NOSIG RMK PP000=
SPZO Ene2011-291600Z 02003KT 290V040 9999 SCT040 SCT080 15/05 Q1032 NOSIG RMK PP000=
SPZO Ene2011-291700Z 30004KT 280V040 9999 VCSH FEW040CTU BKN060 17/04 Q1031 NOSIG RMK PP000=
SPZO Ene2011-291716Z 01005KT 300V050 8000 -RA VCSH FEW040TCU BKN060 14/07 Q1031=
SPZO Ene2011-291800Z 30004KT 280V020 9000 VCSH FEW040TCU BKN050 17/04 Q1030 RERA TEMPO 9000 RMK PP004=
SPZO Ene2011-291900Z 04013KT 9000 VCSH FEW040TCU BKN050 16/07 Q1029 TEMPO 8000 RMK PP000=
SPZO Ene2011-292000Z 03010KT 9000 VCSH FEW040TCU BKN050 15/07 Q1028 NOSIG RMK PP000=
SPZO Ene2011-292100Z 03008KT 9999 FEW040 SCT050 BKN070 15/06 Q1027 NOSIG RMK PP000=
SPZO Ene2011-292200Z 04008KT 9999 FEW040 SCT050 BKN070 15/06 Q1028 TEMPO -RA RMK TMAX /// PP000=
SPZO Ene2011-292300Z 03007KT 9999 FEW040 SCT050 BKN070 15/06 Q1029 TEMPO=
SPZO Ene2011-300000Z 04007KT 9999 FEW040 SCT050 BKN080 13/05 Q1030 RMK PP000=
SPZO Ene2011-300100Z 00000KT 9999 SCT040 BKN060 13/05 Q1032 RMK PP000=
SPZO Ene2011-300200Z 03003KT 9999 SCT043 BKN080 12/05 Q1033 RMK PP000=
SPZO Ene2011-300300Z 04007KT 9999 SCT036 BKN050 11/06 Q1033 RMK PP000=
SPZO Ene2011-300400Z 03003KT 9999 SCT036 OVC050 10/06 Q1033 RMK PP000=
SPZO Ene2011-300500Z 03003KT 300V040 9999 SCT036 OVC050 10/06 Q1033 RMK PP000=
SPZO Ene2011-300600Z 00000KT 9999 SCT036 OVC050 10/06 Q1032 RMK PP000=
SPZO Ene2011-300700Z 00000KT 9999 SCT040 BKN070 10/06 Q1031 RMK PP000=
SPZO Ene2011-300800Z 00000KT 9999 SCT040 BKN070 10/06 Q1031 RMK PP000=
SPZO Ene2011-300900Z 00000KT 9999 FEW036 SCT043 BKN050 10/06 Q1031 RMK PP000=
SPZO Ene2011-301000Z 03004KT 300V040 9999 -RA FEW025 SCT036 BKN046 09/07 Q1031 RMK PP002=
SPZO Ene2011-301025Z 00000KT 7000 RA FEW020 SCT033 BKN046 09/07 Q1032 RMK CLNG BLW 1200M=
SPZO Ene2011-301100Z 00000KT 8000 RA FEW020 SCT030 OVC043 09/07 Q1032 NOSIG RMK CLNG BLW 1200M PP022=
SPZO Ene2011-301200Z 00000KT 6000 -RA VCSH SCT010 SCT030 OVC040 09/07 Q1033 NOSIG RMK PP012=
SPZO Ene2011-301300Z 00000KT 6000 -RA VCSH SCT010 SCT030 OVC040 09/07 Q1034 NOSIG RMK CLNG BLW 1200M PP010=
SPZO Ene2011-301330Z 28005KT 7000 VCSH FEW015 SCT030 BKN043 11/06 Q1034 RERA RMK CLNG BLW 1200M=
SPZO Ene2011-301400Z 00000KT 8000 FEW020 SCT033 BKN050 12/05 Q1034 NOSIG RMK PP000=
SPZO Ene2011-301500Z 00000KT 9999 SCT033 BKN050 13/05 Q1033 NOSIG RMK PP000=
SPZO Ene2011-301600Z 00000KT 9999 SCT036 BKN050 16/07 Q1033 NOSIG RMK PP000=
SPZO Ene2011-301700Z 00000KT 9999 FEW040 SCT050 BKN060 16/07 Q1032 NOSIG RMK PP000=
SPZO Ene2011-301800Z 01007KT 300V040 9999 BKN046 OVC230 17/05 Q1030 NOSIG RMK PP000=
SPZO Ene2011-301900Z 36010KT 300V040 9999 SCT046 BKN200 18/04 Q1029 TEMPO=
SPZO Ene2011-302000Z 02007KT 300V040 9999 SCT046 BKN200 16/04 Q1028 TEMPO=
SPZO Ene2011-302100Z 03007KT 9999 SCT046 BKN100 17/04 Q1027 TEMPO VCSH RMK PP000=
SPZO Ene2011-302200Z 01010KT 300V040 9999 VCSH SCT046 BKN080 16/04 Q1028 NOSIG RMK TMAX /// PP000=
SPZO Ene2011-302300Z 03007KT 9999 VCSH SCT046 BKN200 15/05 Q1028 NOSIG RMK PP000=
SPZO Ene2011-310000Z 00000KT 9999 SCT040 BKN230 14/06 Q1029 RMK PP000=
SPZO Ene2011-310100Z 00000KT 9999 SCT040 BKN060 13/06 Q1030 RMK PP000=
SPZO Ene2011-310200Z 00000KT 9999 SCT040 BKN060 13/06 Q1031 RMK PP000=
SPZO Ene2011-310300Z 00000KT 9999 SCT040 BKN060 13/04 Q1032 RMK PP000=
SPZO Ene2011-310400Z 00000KT 9999 SCT040 BKN050 12/04 Q1033 RMK PP000=
SPZO Ene2011-310500Z 00000KT 9999 SCT040 BKN050 12/05 Q1032 RMK PP000=
SPZO Ene2011-310600Z 00000KT 9999 SCT040 BKN050 18/05 Q1031 RMK PP000=
SPZO Ene2011-310700Z 00000KT 9999 SCT040 BKN050 10/04 Q1030 RMK PP000=
SPZO Ene2011-310800Z 00000KT 9999 SCT040 BKN050 10/04 Q1060 RMK PP000=
SPZO Ene2011-310900Z 00000KT 9999 SCT040 BKN050 10/05 Q1030 RMK PP000=
SPZO Ene2011-311000Z 00000KT 9999 SCT040 08/05 Q1030 RMK PP000=
SPZO Ene2011-311030Z 00000KT FEW033 BKN043 08/05 Q1031=
SPZO Ene2011-311100Z 00000KT 9999 FEW030 SCT050 OVC060 08/05 Q1031 NOCIG RMK PP000=
SPZO Ene2011-311200Z 00000KT 9999 SCT043 BKN060 10/05 Q1032 NOSIG RMK PP000=
SPZO Ene2011-311300Z 00000KT 9999 SCT046 BKN080 12/05 Q1033 NOSIG RMK PP000=
SPZO Ene2011-311400Z 04003KT 9999 FEW036 SCT046 BKN080 13/05 Q1033 NOSIG RMK PP000=
SPZO Ene2011-311500Z 36003KT 280V040 9999 VCSH FEW033 SCT043 OVC050 13/05 Q1033 TEMPO -RA RMK PP000=
SPZO Ene2011-311600Z 03004KT 300V040 9999 VCSH FEW036 SCT046 BKN050 15/05 Q1032 NOSIG RMK PP000=
SPZO Ene2011-311700Z 03007KT 9999 SCT046 BKN050 16/05 Q1031 NOSIG RMK PP000=
SPZO Ene2011-311800Z 01009KT 300V040 9999 SCT046 BKN080 18/05 Q1029 NOSIG RMK PP000=
SPZO Ene2011-311900Z 01012G22KT 300V040 9999 SCT046 BKN080 18/04 Q1028 NOSIG RMK PP000=
SPZO Ene2011-312000Z 36014KT 300V050 9999 SCT043 BKN080 16/05 Q1028 NOSIG RMK PP000=
SPZO Ene2011-312100Z 01004KT 280V040 9999 SCT043 BKN080 15/03 Q1028 NOSIG RMK PP000=
SPZO Ene2011-312200Z 04010KT 9999 SCT040 BKN100 16/04 Q1027 NOSIG RMK TMAX. /// PP000=
SPZO Ene2011-312300Z 04010KT 9999 FEW043 SCT080 14/05 Q1028 NOSIG RMK PP000=
SPZO Feb2011-010000Z 03005KT 310V050 9999 BKN050 13/04 Q1029 RMK PP000=
SPZO Feb2011-010100Z VRB03KT 9999 BKN050 12/04 Q1030 RMK PP000=
SPZO Feb2011-010200Z VRB01KT 9999 BKN050 12/05 Q1031 RMK PP000=
SPZO Feb2011-010300Z 00000KT 9999 BKN050 10/05 Q1031 RMK PP000=
SPZO Feb2011-010400Z 00000KT 9999 BKN050 10/04 Q1032 RMK PP000=
SPZO Feb2011-010500Z 00000KT 9999 BKN050 09/05 Q1031 RMK PP000=
SPZO Feb2011-010600Z 00000KT 9999 BKN050 10/05 Q1031 RMK PP000=
SPZO Feb2011-010700Z 00000KT 9999 BKN050 09/05 Q1030 RMK PP000=
SPZO Feb2011-010800Z 00000KT 9999 BKN050 08/05 Q1030 RMK PP000=
SPZO Feb2011-010900Z 00000KT 9999 SCT050 SCT060 08/05 Q1030 RMK PP000=
SPZO Feb2011-011000Z 00000KT 9999 SCT050 SCT060 08/05 Q1031 RMK PP000=
SPZO Feb2011-011040Z 00000KT 8000 -RA VCSH FEW040 SCT050 BKN060 08/05 Q1031=
SPZO Feb2011-011100Z 00000KT 8000 -RA VCSH FEW040 SCT050 BKN060 08/05 Q1031 NOSIG RMK PPTRZ=
SPZO Feb2011-011200Z 00000KT 9000 -RA FEW036 SCT046 BKN100 09/06 Q1032 BECMG FM1240 NSW RMK PP004=
SPZO Feb2011-011300Z 00000KT 9999 FEW036 BKN200 12/05 Q1033 RERA NOSIG RMK PP002=
SPZO Feb2011-011400Z 03003KT 300V040 9999 FEW036 SCT046 BKN100 14/06 Q1033 NOSIG RMK PP000=
SPZO Feb2011-011500Z 00000KT 9999 FEW043 SCT050 BKN200 15/06 Q1033 NOSIG RMK PP000=
SPZO Feb2011-011600Z 03003KT 300V040 9999 FEW043 SCT046 BKN080 16/05 Q1032 NOSIG RMK PP000=
SPZO Feb2011-011700Z 29007KT 9999 VCSH BKN043 16/06 Q1031 NOSIG RMK PP000=
SPZO Feb2011-011800Z 04007KT 9999 VCSH FEW040 BKN046 16/05 Q1030 NOSIG RMK PP000=
SPZO Feb2011-011900Z 32007KT 290V040 9999 SCT046 SCT230 17/08 Q1028 NOSIG RMK PP000=
SPZO Feb2011-012000Z 28014KT 9999 VCSH FEW043TCU BKN050 17/06 Q1027 NOSIG RMK PP000=
SPZO Feb2011-012012Z 28017KT 9000 SHRA SCT060TCU BKN100 14/07 Q1028 BECMG FM2030 9999 NSW=
SPZO Feb2011-012100Z 28006KT 9999 VCSH FEW043TCU SCT046 BKN100 13/08 Q1027 NOSIG RMK PP012=
SPZO Feb2011-012200Z 00000KT 9999 SCT043 BKN100 14/06 Q1027 NOSIG RMK TMAX 19.1 PP000=
SPZO Feb2011-012300Z 04010KT 9999 SCT040 BKN100 13/07 Q1028 NOSIG RMK PP000=
SPZO Feb2011-020000Z 03004KT 9999 SCT043 BKN080 12/06 Q1029 RMK PP000=
SPZO Feb2011-020100Z 03004KT 9999 SCT043 BKN080 12/07 Q1030 RERA RMK PP002=
SPZO Feb2011-020200Z 00000KT 9999 FEW040 BKN060 12/07 Q1031 RMK PP000=
SPZO Feb2011-020300Z 03004KT 9999 SCT043 SCT050 12/07 Q1032 RMK PP000=
SPZO Feb2011-020400Z 03003KT 9999 SCT040 SCT050 11/07 Q1032 RMK PP000=
SPZO Feb2011-020500Z 00000KT 9999 SCT040 SCT050 11/08 Q1032 RMK PP000=
SPZO Feb2011-020600Z 00000KT 9999 -RA SCT043 BKN070 10/07 Q1031 RMK PP002=
SPZO Feb2011-020700Z 04005KT 9999 -RA FEW036 SCT043 BKN050 10/07 Q1031 RMK PP002=
SPZO Feb2011-020800Z 00000KT 9999 SCT040 SCT080 10/07 Q1030 RMK PP000=
SPZO Feb2011-020900Z 00000KT 9999 SCT040 SCT080 10/06 Q1030 RMK PP000=
SPZO Feb2011-021000Z 00000KT 9999 SCT036 BKN060 10/06 Q1031 RMK PP000=
SPZO Feb2011-021100Z 00000KT 9999 SCT036 OVC046 10/07 Q1031 NOSIG RMK PP000=
SPZO Feb2011-021200Z 00000KT 9999 FEW020 SCT033 OVC040 10/06 Q1032 TEMPO -DZ RMK PP000=
SPZO Feb2011-021237Z 00000KT 8000 SCT020 SCT040 OVC043 10/07 Q1033=
SPZO Feb2011-021300Z 00000KT 9999 FEW020 SCT033 BKN046 11/07 Q1033 NOSIG RMK PP000=
SPZO Feb2011-021327Z 00000KT 9999 SCT020 SCT033 OVC060 11/07 Q1033 RMK CLNG BLW 1200M=
SPZO Feb2011-021400Z 04004KT 9999 SCT020 SCT036 BKN080 11/07 Q1033 BECMG FM1500 SCT020 SCT040 BKN100 RMK CLNG BLW 1200M PPTRZ=
SPZO Feb2011-021415Z 04004KT 9999 SCT020 SCT043 BKN100 12/07 Q1033=
SPZO Feb2011-021500Z 00000KT 9999 FEW030 SCT036 BKN100 14/07 Q1033 NOSIG RMK PP000=
SPZO Feb2011-021600Z VRB02KT 9999 FEW033 SCT043 BKN230 16/06 Q1032 NOSIG RMK PP000=
SPZO Feb2011-021700Z 03005KT 9999 FEW033 SCT043 BKN230 17/07 Q1031 NOSIG RMK PP000=
SPZO Feb2011-021800Z VRB02KT 9999 SCT050 BKN230 18/06 Q1029 NOSIG RMK PP000=
SPZO Feb2011-021900Z 00000KT 9999 SCT043 SCT050TCU 20/03 Q1028 TEMPO=
SPZO Feb2011-021939Z 29013KT 9999 TS VCSH BKN050CB SCT080 17/05 Q1027=
SPZO Feb2011-022000Z 28007KT 9999 TS VCSH SCT050TCU SCT060CB 16/05 Q1028 BECMG FM2015 NSW RMK PP000=
SPZO Feb2011-022100Z 00000KT 9999 VCSH FEW040 SCT060 BKN100 13/07 Q1027 RERA NOSIG RMK PP026=
SPZO Feb2011-022200Z 00000KT 9999 FEW050 SCT100 BKN230 14/07 Q1028 NOSIG RMK TMAX 20.3 PP000=
SPZO Feb2011-022300Z 00000KT 9999 SCT050 BKN230 13/07 Q1029 NOSIG RMK PP000=
SPZO Feb2011-030000Z 04011KT 9999 SCT050 BKN230 10/06 Q1030 RMK PP000=
SPZO Feb2011-030100Z VRB02KT 8000 -RA SCT040 BKN060 10/06 Q1031 RMK PPTRZ=
SPZO Feb2011-030200Z 02004KT 300V050 9999 SCT040 BKN060 10/06 Q1032 RMK RERA PPTRZ=
SPZO Feb2011-030300Z 00000KT 9999 SCT040 BKN060 10/07 Q1033 RMK PP000=
SPZO Feb2011-030400Z 00000KT 9999 SCT036 BKN060 10/07 Q1033 RMK PP000=
SPZO Feb2011-030500Z 00000KT 9999 SCT036 BKN060 10/07 Q1032 RMK PP000=
SPZO Feb2011-030600Z 00000KT 9999 SCT036 BKN060 10/07 Q1031 RMK PP000=
SPZO Feb2011-030700Z 00000KT 9999 SCT036 BKN060 10/07 Q1030 RMK PP000=
SPZO Feb2011-030800Z 00000KT 9999 FEW030 SCT036 BKN060 10/07 Q1030 RMK PP000=
SPZO Feb2011-030900Z 00000KT 9999 FEW030 SCT036 BKN060 10/07 Q1030 RMK PP000=
SPZO Feb2011-031000Z 00000KT 9999 FEW030 SCT036 BKN060 10/06 Q1030 RMK PP000=
SPZO Feb2011-031100Z 00000KT 9999 FEW050 SCT100 BKN230 09/07 Q1031 NOSIG RMK PP000=
SPZO Feb2011-031200Z 00000KT 9999 FEW100 BKN230 10/06 Q1032 NOSIG RMK PP000=
SPZO Feb2011-031300Z 00000KT 9999 SCT036 BKN230 12/06 Q1032 NOSIG RMK PP000=
SPZO Feb2011-031400Z 00000KT 9999 SCT036 BKN230 14/06 Q1032 NOSIG RMK PP000=
SPZO Feb2011-031500Z VRB01KT 9999 SCT036 BKN230 15/05 Q1031 NOSIG RMK PP000=
SPZO Feb2011-031600Z 02003KT 280V040 9999 SCT036 BKN230 18/08 Q1030 NOSIG RMK PP000=
SPZO Feb2011-031700Z 03007KT 9999 VCSH FEW040TCU BKN053 17/05 Q1029 NOSIG RMK PP000=
SPZO Feb2011-031800Z 36008KT 300V050 9999 VCSH FEW040TCU BKN050 18/05 Q1028 NOSIG RMK PP000=
SPZO Feb2011-031900Z 35009KT 300V030 9999 BKN050 18/04 Q1027 NOSIG RMK PP000=
SPZO Feb2011-032000Z 31007KT 280V040 9999 BKN050 SCT230 20/03 Q1025 NOSIG RMK PP000=
SPZO Feb2011-032100Z 28014KT 9999 BKN050 SCT230 19/04 Q1024 NOSIG RMK PP000=
SPZO Feb2011-032200Z 28009KT 9999 VCSH BKN050 SCT100 19/07 Q1024 NOSIG RMK TMAX 20.1 PP000=
SPZO Feb2011-032300Z 04006KT 9999 SCT050 SCT060 15/08 Q1025 NOSIG RMK PP000=
SPZO Feb2011-040000Z 00000KT 9999 SCT060 BKN230 15/08 Q1026 RMK PP000=
SPZO Feb2011-040100Z 29006KT 9999 SCT050 BKN200 15/07 Q1027 RMK PP000=
SPZO Feb2011-040200Z 29003KT 9999 SCT050 BKN150 14/07 Q1028 RMK PP000=
SPZO Feb2011-040300Z 00000KT 9999 SCT060 14/07 Q1029 RMK PP000=
SPZO Feb2011-040400Z 00000KT 9999 SCT060 13/07 Q1029 RMK PP000=
SPZO Feb2011-040500Z 29005KT 9999 SCT060 13/07 Q1029 RMK PP000=
SPZO Feb2011-040600Z 29005KT 9999 SET040 SCT060 13/07 Q1029 RMK PP000=
SPZO Feb2011-040700Z 29005KT 9999 SCT030 BKN046 12/08 Q1028 RMK PP000=
SPZO Feb2011-040800Z 04004KT 8000 +RA FEW030 SCT043 BKN046 09/08 Q1028 RMK PP158=
SPZO Feb2011-040900Z 29003KT 8000 RA FEW030 SCT043 BKN046 09/08 Q1028 RMK PP082=
SPZO Feb2011-041000Z 30005KT 8000 RA FEW030 SCT036 BKN046 09/07 Q1029 RMK CLNG BLW 1200M PP038=
SPZO Feb2011-041100Z 00000KT 9999 -RA FEW020 SCT036 BKN046 09/08 Q1029 NOSIG RMK CLNG BLW 1200M=
SPZO Feb2011-041130Z 00000KT 9999 DZ FEW025 SCT036 BKN046 09/07 Q1031=
SPZO Feb2011-041200Z 00000KT 9000 -RA FEW020 SCT036 BKN043 09/07 Q1030 TEMPO 7000 RMK PP004=
SPZO Feb2011-041300Z 04003KT 9999 FEW020 SCT036 BKN046 10/07 Q1031 NOSIG RMK PP004=
SPZO Feb2011-041400Z 04009KT 9999 FEW025 SCT036 BKN070 10/07 Q1031 NOSIG RMK PP000=
SPZO Feb2011-041500Z 04008KT 9999 FEW030 SCT043 BKN100 11/07 Q1031 TEMPO=
SPZO Feb2011-041600Z 00000KT 9999 FEW030 SCT046 BKN100 13/07 Q1030 NOSIG RMK PP000=
SPZO Feb2011-041700Z 01004KT 9999 FEW036 BKN230 16/08 Q1029 NOSIG RMK PP000=
SPZO Feb2011-041800Z VRB02KT 9999 SCT040 BKN200 17/09 Q1027 NOSIG RMK PP000=
SPZO Feb2011-041900Z 03004KT 280V050 9999 SCT043 BKN200 18/06 Q1024 TEMPO=
SPZO Feb2011-042000Z 04006KT 9999 TS VCSH FEW040CB BKN046 OVC080 18/06 Q1023 TEMPO -RA RMK PP000=
SPZO Feb2011-042100Z 29014KT 9999 VCSH SCT043 BKN100 17/07 Q1023 NOSIG RMK PP000=
SPZO Feb2011-042200Z 29012KT 9999 SCT046 OVC080 15/08 Q1024 TEMPO VCSH RMK TMAX 19.4 PP000=
SPZO Feb2011-042300Z 29009KT 9999 FEW043 OVC080 15/07 Q1024 NOSIG RMK PP000=
SPZO Feb2011-050000Z 28006KT 9999 FEW050 OVC100 14/08 Q1025 RMK PP000=
SPZO Feb2011-050100Z 26007KT 9999 FEW050 OVC080 14/07 Q1026 RMK PP000=
SPZO Feb2011-050200Z 26005KT 9999 FEW060 13/07 Q1026 RMK PP000=
SPZO Feb2011-050300Z 00000KT 9999 SKC 11/08 Q1027 RMK PP000=
SPZO Feb2011-050400Z 00000KT 9999 SCT050 11/08 Q1027 RMK PP000=
SPZO Feb2011-050500Z 00000KT 9999 SCT036 BKN050 11/07 Q1027 RMK PP000=
SPZO Feb2011-050600Z 00000KT 9999 SCT036 BKN050 11/07 Q1027 RMK PP000=
SPZO Feb2011-050700Z 00000KT 9999 SCT036 BKN050 12/08 Q1026 RMK PP000=
SPZO Feb2011-050800Z 00000KT 9999 SCT043 BKN070 11/08 Q1026 RMK PP000=
SPZO Feb2011-050900Z 00000KT 9999 SCT046 BKN080 11/08 Q1026 RMK PP000=
SPZO Feb2011-051000Z 00000KT 9999 SCT033 BKN050 10/08 Q1026 RMK PP000=
SPZO Feb2011-051100Z 00000KT 9999 -RA FEW030 SCT036 OVC043 11/08 Q1027 NOSIG RMK PPTRZ=
SPZO Feb2011-051200Z 00000KT 9999 FEW030 SCT040 OVC046 11/07 Q1028 RERA NOSIG RMK PP004=
SPZO Feb2011-051300Z 00000KT 9999 FEW030 SCT040 OVC046 12/08 Q1029 NOSIG RMK PP000=
SPZO Feb2011-051400Z 04005KT 9999 VCSH FEW030 SCT046 OVC080 13/08 Q1029 RMK PP000=
SPZO Feb2011-051500Z VRB02KT 9999 SCT046 OVC080 14/07 Q1029 NOSIG RMK PP000=
SPZO Feb2011-051600Z VRB02KT 9999 SCT046 OVC100 17/08 Q1028 NOSIG RMK PP000=
SPZO Feb2011-051700Z 33006KT 280V050 9999 VCSH FEW040TCU SCT043 OVC080 17/07 Q1027 TEMPO -RA RMK PP000=
SPZO Feb2011-051720Z 31013KT 290V020 9000 +TSRA FEW036 SCT040CB OVC046 10/05 Q1028=
SPZO Feb2011-051738Z 28004KT 6000 RA FEW030 SCT036TCU BKN046 10/07 Q1028=
SPZO Feb2011-051800Z 30004KT 280V020 8000 RA FEW030 SCT040 BKN046 10/07 Q1028 NOSIG RMK PP098=
SPZO Feb2011-051821Z 36004KT 300V040 8000 -RA VCSH FEW030 SCT060 OVC080 10/07 Q1028=
SPZO Feb2011-051900Z 00000KT 9999 FEW030 SCT060 OVC080 11/07 Q1027 NOSIG RMK PP008=
SPZO Feb2011-052000Z 00000KT 9999 -RA FEW020 SCT043 OVC080 12/07 Q1026 NOSIG RMK PPTRZ=
SPZO Feb2011-052100Z 04007KT 9999 FEW030 SCT100 OVC230 12/08 Q1026 NOSIG RMK PP002=
SPZO Feb2011-052200Z 03005KT 300V050 9999 FEW030 SCT080 OVC230 12/07 Q1025 RMK TMAX.17.8 PP000=
SPZO Feb2011-052300Z 00000KT 9999 FEW030 OVC100 12/08 Q1025 NOSIG RMK PP000=
SPZO Feb2011-060000Z 00000KT 9999 FEW036 BKN100 11/07 Q1026 RMK PP000=
SPZO Feb2011-060100Z 00000KT 9999 SCT036 SCT080 10/08 Q1027 RMK PP000=
SPZO Feb2011-060200Z 00000KT 9999 SCT040 BKN080 10/08 Q1028 RMK PP000=
SPZO Feb2011-060300Z 00000KT 9999 SCT040 BKN050 10/08 Q1028 RMK PP000=
SPZO Feb2011-060400Z 00000KT 9999 SCT043 BKN080 10/08 Q1028 RMK PP000=
SPZO Feb2011-060500Z 00000KT 9999 BKN040 SCT050 10/08 Q1027 RMK PP000=
SPZO Feb2011-060600Z 00000KT 9999 BKN043 SCT050 10/08 Q1027 RMK PP000=
SPZO Feb2011-060700Z 00000KT 9999 SCT043 SCT060 10/08 Q1026 RMK PP000=
SPZO Feb2011-060800Z 00000KT 9999 SCT036 BKN043 10/08 Q1026 RMK PP000=
SPZO Feb2011-060900Z 00000KT 9999 FEW020 SCT036 BKN043 10/08 Q1025 RMK PP000=
SPZO Feb2011-061000Z 00000KT 9000 -RA FEW020 SCT036 BKN043 10/08 Q1026 RMK CLNG BLW 1200M PPTRZ=
SPZO Feb2011-061100Z VRB02KT 8000 -RA FEW010 SCT033 BKN040 10/07 Q1027 NOSIG RMK CLNG BLW 1200M PP002=
SPZO Feb2011-061200Z 28005KT 9999 -RA FEW020 SCT030 OVC043 10/07 Q1028 NOSIG RMK CLNG BLW 1200M PP002=
SPZO Feb2011-061300Z 03005KT 300V050 8000 -RA FEW025 SCT033 OVC080 10/08 Q1029 BECMG FM1400 9999 SCT033 OVC080 RMK CLNG BLW 1200M PP002=
SPZO Feb2011-061323Z 03003KT 6000 -RA VCSH FEW020 SCT033 OVC080 10/08 Q1029 RMK CLNG BLW 1200M=
SPZO Feb2011-061400Z 04003KT 5000 RA VCSH SCT020 SCT033 OVC060 10/08 Q1030 BECMG 7000 RMK CLNG BLW 1200M=
SPZO Feb2011-061435Z 04003KT 7000 3000W -RA VCSH FEW015 SCT030 OVC080 10/08 Q1030 RMK CLNG BLW 1200M=
SPZO Feb2011-061500Z 03003KT 7000 3000W -RA VCSH FEW015 SCT030 OVC080 10/08 Q1030 NOSIG RMK CLNG BLW 1200M PP004=
SPZO Feb2011-061600Z 00000KT 9000 FEW020 SCT030 OVC100 11/07 Q1030 BECMG 9999 RMK PP006=
SPZO Feb2011-061700Z 00000KT 9000 -RA VCSH FEW020 SCT030 OVC100 13/07 Q1029 TEMPO 8000 RMK CLD STAR BRAVO APROX 3000FT PP002=
SPZO Feb2011-061800Z 04002KT 9999 -RA FEW030 SCT036 OVC150 13/08 Q1029 NOSIG RMK PP004=
SPZO Feb2011-061900Z 00000KT 9999 SCT030 OVC230 14/07 Q1028 NOSIG RMK PPTRZ=
SPZO Feb2011-062000Z 03005KT 9999 VCSH SCT036 FEW040TCU BKN230 15/07 Q1027 NOSIG RMK PP000=
SPZO Feb2011-062100Z 02005KT 300V040 9999 FEW030 BKN043 BKN230 15/06 Q1026 NOSIG RMK PP000=
SPZO Feb2011-062200Z 00000KT 9999 SCT050 BKN230 15/06 Q1026 NOSIG RMK TMAX 15.9 PP000=
SPZO Feb2011-062300Z 00000KT 9999 BKN050 BKN230 14/06 Q1027 NOSIG RMK -SHRA BTN 2215/2220 PP002=
SPZO Feb2011-070000Z 00000KT 9999 SCT040 SCT050 13/07 Q1027 RMK PP000=
SPZO Feb2011-070100Z 00000KT 9999 FEW036 SCT046 12/07 Q1028 RMK PP000=
SPZO Feb2011-070200Z VRB02KT 9999 FEW036 SCT046 11/06 Q1029 RMK PP000=
SPZO Feb2011-070300Z 29005KT 9999 FEW040 BKN050 10/06 Q1030 RMK PP000=
SPZO Feb2011-070400Z 29003KT 9999 FEW043 BKN050 11/05 Q1030 RMK PP000=
SPZO Feb2011-070500Z 00000KT 9999 FEW046 BKN080 10/06 Q1030 RMK PP000=
SPZO Feb2011-070600Z 00000KT 9999 SCT046 SCT060 09/07 Q1030 RMK PP000=
SPZO Feb2011-070700Z 00000KT 9999 SCT046 SCT060 09/07 Q1029 RMK PP000=
SPZO Feb2011-070800Z 00000KT 9999 SCT040 BKN050 09/07 Q1029 RMK PP000=
SPZO Feb2011-070900Z 00000KT 9999 SCT040 BKN050 09/07 Q1029 RMK PP000=
SPZO Feb2011-071000Z 00000KT 9999 FEW030 BKN050 09/06 Q1030 RMK PP000=
SPZO Feb2011-071100Z 00000KT 9999 FEW040 SCT080 BKN230 09/07 Q1030 NOSIG RMK PP000=
SPZO Feb2011-071200Z 00000KT 9999 BKN100 OVC230 10/07 Q1031 NOSIG RMK PP000=
SPZO Feb2011-071300Z 00000KT 9999 FEW040 SCT100 BKN230 13/07 Q1031 NOSIG RMK PP000=
SPZO Feb2011-071400Z 00000KT 9999 SCT036 BKN230 14/06 Q1031 NOSIG RMK PP000=
SPZO Feb2011-071500Z 00000KT 9999 SCT040 SCT100 BKN230 16/04 Q1031 NOSIG RMK PP000=
SPZO Feb2011-071600Z VRB02KT 9999 FEW036 SCT046 BKN080 17/06 Q1030 NOSIG RMK PP000=
SPZO Feb2011-071700Z VRB01KT 9999 SCT046 SCT100 18/04 Q1029 NOSIG RMK PP000=
SPZO Feb2011-071800Z 01007KT 300V030 9999 VCSH SCT043 FEW060TCU SCT100 17/07 Q1028 NOSIG RMK PP000=
SPZO Feb2011-071900Z 28004KT 9999 VCSH SCT050 BKN100 19/07 Q1027 NOSIG RMK PP002=
SPZO Feb2011-072000Z 02006KT 300V040 9999 SCT043 SCT080 18/04 Q1025 TEMPO=
SPZO Feb2011-072100Z 32007KT 280V040 9999 FEW036 SCT060 18/06 Q1025 TEMPO -RA RMK PP000=
SPZO Feb2011-072200Z 28008KT 9999 -RA BKN036 SCT100 16/08 Q1025 NOSIG RMK TMAX 19.8 PPTRZ=
SPZO Feb2011-072300Z 00000KT 8000 RA FEW036CB BKN040 OVC050 12/09 Q1027 NOSIG RMK PP028=
SPZO Feb2011-080000Z 00000KT 8000 -RA FEW036 BKN040 OVC050 12/08 Q1028 RMK PP006=
SPZO Feb2011-080100Z 04004KT 8000 -RA FEW036 SCT040 OVC060 11/09 Q1029 RMK PP002=
SPZO Feb2011-080200Z 00000KT 9999 FEW033 SCT040 OVC060 11/09 Q1030 RMK RERA PP002=
SPZO Feb2011-080300Z 00000KT 8000 -RA FEW033 SCT040 OVC060 11/09 Q1030 RMK PP004=
SPZO Feb2011-080400Z 00000KT 8000 -RA FEW030 SCT036 OVC060 11/08 Q1030 RMK PP008=
SPZO Feb2011-080500Z 00000KT 8000 -RA FEW030 SCT036 OVC060 11/08 Q1030 RMK PP004=
SPZO Feb2011-080600Z 00000KT 8000 -RA FEW030 SCT036 OVC060 10/08 Q1030 RMK PP002=
SPZO Feb2011-080700Z 00000KT 9000 -RA FEW030 SCT033 OVC060 11/08 Q1029 RMK PPTRZ=
SPZO Feb2011-080800Z 01004KT 300V050 8000 -RA FEW030 SCT036 OVC060 10/07 Q1030 RMK PP008=
SPZO Feb2011-080900Z 35003KT 280V040 8000 -RA FEW025 SCT033 OVC050 09/07 Q1030 RMK =
SPZO Feb2011-081000Z 03004KT 8000 -RA FEW020 SCT033 OVC046 08/06 Q1030 RMK CLNG BLW 1200M PP012=
SPZO Feb2011-081100Z 00000KT 9000 -RA FEW015 SCT030 OVC043 08/06 Q1031 NOSIG RMK CLNG BLW 1200M PP004=
SPZO Feb2011-081200Z 00000KT 9000 -RA FEW015 SCT033 OVC046 08/06 Q1031 NOSIG RMK CLNG BLW 1200M PP006=
SPZO Feb2011-081300Z 00000KT 9000 FEW020 SCT036 OVC046 09/07 Q1032=
SPZO Feb2011-081400Z 00000KT 9000 DZ FEW020 SCT033 OVC046 10/07 Q1032 NOSIG RMK PPTRZ=
SPZO Feb2011-081500Z 00000KT 9000 -RA FEW015 SCT033 OVC046 10/06 Q1033 NOSIG RMK CLNG BLW 1200M PP002=
SPZO Feb2011-081600Z 03004KT 9000 VCSH FEW020 SCT036 OVC046 11/06 Q1032 RERA BECMG FM1640 9999 SCT036 BKN046 RMK CLNG BLW 1200M PPTRZ=
SPZO Feb2011-081630Z 00000KT 9999 FEW030 SCT040 BKN050 12/06 Q1032=
SPZO Feb2011-081700Z 00000KT 9999 FEW025 SCT040 OVC060 12/06 Q1032 TEMPO=
SPZO Feb2011-081800Z 00000KT 9999 FEW030 SCT043 BKN080 14/06 Q1031 NOSIG RMK PP000=
SPZO Feb2011-081900Z 00000KT 9999 VCSH FEW030 SCT043 BKN050 14/05 Q1029 TEMPO -RA RMK PP000=
SPZO Feb2011-082000Z 00000KT 9999 VCSH FEW036 SCT043 BKN050 14/07 Q1029 RESHRA TEMPO -RA RMK PP004=
SPZO Feb2011-082022Z 00000KT 9999 -RA FEW036 SCT040 BKN046 13/06 Q1028=
SPZO Feb2011-082100Z 29005KT 9999 VCSH FEW033 SCT043 BKN080 13/08 Q1028 NOSIG RMK PPTRZ=
SPZO Feb2011-082200Z 00000KT 9999 FEW030 SCT040 BKN080 13/06 Q1027 TEMPO=
SPZO Feb2011-082300Z 00000KT 9999 FEW036 BKN046 13/06 Q1028 NOSIG RMK PP000=
SPZO Feb2011-090000Z 00000KT 9999 FEW046 BKN080 13/08 Q1028 RMK PP000=
SPZO Feb2011-090100Z 00000KT 9999 FEW050 11/08 Q1029 RMK PP000=
SPZO Feb2011-090200Z 00000KT 9999 SCT040 11/08 Q1030 RMK PP000=
SPZO Feb2011-090300Z 00000KT 9999 SCT036 BKN046 10/07 Q1030 RMK PP000=
SPZO Feb2011-090400Z 00000KT 9999 SCT036 BKN040 10/08 Q1030 RMK PP000=
SPZO Feb2011-090500Z 00000KT 9999 SCT036 BKN046 10/08 Q1030 RMK PP000=
SPZO Feb2011-090600Z 00000KT 9999 SCT066 BKN080 10/08 Q1030 RMK PP000=
SPZO Feb2011-090700Z 00000KT 9999 SCT036 BKN060 10/08 Q1029 RMK PP000=
SPZO Feb2011-090800Z 00000KT 9999 SCT040 BKN060 10/08 Q1029 RMK PP000=
SPZO Feb2011-090900Z 00000KT 9999 SCT046 BKN080 10/08 Q1029 RMK PP000 
SPZO Feb2011-091000Z 00000KT 9999 SCT036 BKN060 10/08 Q1029 RMK PP000=
SPZO Feb2011-091100Z 00000KT 9999 SCT036 BKN050 10/08 Q1029 NOSIG RMK PP000=
SPZO Feb2011-091200Z 00000KT 9999 FEW033 SCT046 BKN060 10/08 Q1030 NOSIG RMK PP000=
SPZO Feb2011-091300Z 00000KT 9999 FEW030 SCT046 BKN080 12/08 Q1031 NOSIG RMK PP000=
SPZO Feb2011-091400Z 00000KT 9999 FEW030 SCT050 BKN230 15/08 Q1031 NOSIG RMK PP000=
SPZO Feb2011-091500Z 00000KT 9999 FEW036 SCT046 BKN230 17/07 Q1030 NOSIG RMK PP000=
SPZO Feb2011-091600Z 00000KT 9999 SCT050 SCT230 17/06 Q1029 NOSIG RMK PP000=
SPZO Feb2011-091700Z 36004KT 300V030 9999 FEW 040 SCT050 18/06 Q1028 NOSIG RMK PP000=
SPZO Feb2011-091800Z 32010KT 280V020 9999 VCSH FEW040TCU BKN046 17/06 Q1027 TEMPO RA RMK PP000=
SPZO Feb2011-091900Z 35004KT 280V050 9999 VCSH FEW040 FEW060TCU BKN230 17/06 Q1026 NOSIG RMK PP000=
SPZO Feb2011-092000Z 03010KT 9999 VCSH SCT043TCU BKN060 16/08 Q1025 NOSIG RMK PP000=
SPZO Feb2011-092100Z 00000KT 9999 VCSH FEW040 BKN060 15/07 Q1025 NOSIG RMK -SHRA BTN 2005/2010 PP006=
SPZO Feb2011-092200Z 00000KT 9999 SCT043 BKN060 15/07 Q1026 NOSIG RMK TMAX 19.9 PP000=
SPZO Feb2011-092300Z 00000KT 9999 FEW043 BKN080 12/07 Q1026 NOSIG RMK -RA BTN 2210/2220 PP002=
SPZO Feb2011-100000Z 00000KT 9999 BKN080 11/08 Q1027 RMK PP000=
SPZO Feb2011-100100Z 00000KT 9999 FEW050 11/08 Q1028 RMK PP000=
SPZO Feb2011-100200Z 00000KT 9999 FEW050 11/08 Q1028 RMK PP000=
SPZO Feb2011-100300Z 00000KT 9999 FEW036 BKN050 11/08 Q1029 RMK PP000=
SPZO Feb2011-100400Z 04006KT 9999 RA SCT033 BKN043 09/07 Q1030 RMK PP030=
SPZO Feb2011-100500Z 00000KT 9999 RA FEW030 SCT036 BKN046 09/07 Q1030 RMK PP050=
SPZO Feb2011-100600Z 00000KT 9999 RA FEW030 SCT033 BKN043 09/06 Q1029 RMK PP036=
SPZO Feb2011-100700Z 00000KT 9000 RA FEW030 SCT033 BKN043 08/06 Q1028 RMK PP020=
SPZO Feb2011-100800Z 00000KT 9999 -RA FEW020 SCT036 BKN046 08/07 Q1027 RMK PP016=
SPZO Feb2011-100900Z 04003KT 9999 -RA FEW015 SCT030 BKN043 08/07 Q1027 RERA RMK PP001=
SPZO Feb2011-101000Z 00000KT 9999 FEW015 SCT033 OVC060 09/07 Q1025 RMK PPTRZ=
SPZO Feb2011-101100Z 00000KT 9999 -RA FEW015 SCT033 OVC070 09/06 Q1027 NOSIG RMK PP002=
SPZO Feb2011-101200Z 00000KT 9999 -RA FEW015 SCT033 OVC070 09/07 Q1028 NOSIG RMK PP004=
SPZO Feb2011-101300Z 00000KT 9999 -RA SCT020 SCT060 OVC100 09/07 Q1029 BECMG NSW RMK PP002=
SPZO Feb2011-101400Z VRB01KT 9999 FEW020 SCT036 OVC080 10/07 Q1029 NOSIG RMK PP000=
SPZO Feb2011-101500Z 00000KT 9999 SCT025 BKN043 BKN100 11/07 Q1029 NOSIG RMK PP000=
SPZO Feb2011-101600Z VRB02KT 9999 SCT030 SCT043 BKN080 13/07 Q1029 NOSIG RMK PP000=
SPZO Feb2011-101700Z 03006KT 9999 VCSH SCT030 SCT043 BKN100 14/08 Q1028 NOSIG RMK PP000=
SPZO Feb2011-101800Z 04007KT 9999 VCSH SCT036TCU SCT043 BKN100 14/07 Q1027 TEMPO -RA RMK PP000=
SPZO Feb2011-101836Z 28008KT 9999 -RA VCSH FEW030 SCT033 BKN050 13/08 Q1027=
SPZO Feb2011-101900Z 29008KT 9999 -RA VCSH FEW030 SCT033 BKN060 12/08 Q1026 NOSIG RMK PPTRZ=
SPZO Feb2011-102000Z 28005KT 9000 -RA VCSH FEW030 SCT043 OVC070 12/07 Q1026 NOSIG RMK PP004=
SPZO Feb2011-102100Z 00000KT 9000 -RA VCSH FEW030 SCT043 OVC070 12/08 Q1026 NOSIG RMK PP004=
SPZO Feb2011-102200Z 00000KT 9999 -RA VCSH FEW030 SCT043 OVC100 12/07 Q1025 NOSIG RMK TMAX 14.4 PPTRZ=
SPZO Feb2011-102300Z 00000KT 9999 FEW030 SCT040 BKN230 12/07 Q1026 NOSIG RMK PP002=
SPZO Feb2011-110000Z 00000KT 9999 DZ FEW020 SCT036 BKN046 11/08 Q1027 RMK PP000=
SPZO Feb2011-110100Z 00000KT 9999 SCT033 SCT050 11/08 Q1028 RMK PP004=
SPZO Feb2011-110200Z 00000KT 9999 SCT036 BKN043 11/09 Q1029 RMK PP000=
SPZO Feb2011-110300Z 00000KT 9999 SCT040 BKN080 11/09 Q1029 RMK PP000=
SPZO Feb2011-110400Z 00000KT 9999 SCT040 SCT080 11/09 Q1029 RMK PP000=
SPZO Feb2011-110500Z 00000KT 9999 SCT040 SCT100 10/08 Q1029 RMK PP000=
SPZO Feb2011-110600Z 00000KT 9999 BKN040 SCT080 10/08 Q1028 RMK PP000=
SPZO Feb2011-110700Z 00000KT 9999 SCT030 BKN043 10/08 Q1028 RMK PP000=
SPZO Feb2011-110800Z 00000KT 9999 BKN040 SCT050 10/08 Q1027 RMK PP000=
SPZO Feb2011-110900Z 00000KT 9000 -RA FE020 OVC040 10/08 Q1028 RMK PP010=
SPZO Feb2011-111000Z 00000KT 9000 -RA FEW020 SCT033 BKN043 10/08 Q1028 RMK CLNG BLW 1200M PP012=
SPZO Feb2011-111100Z 00000KT 9000 -RA FEW020 SCT036 BKN043 09/07 Q1029 BECMG FM1230 FEW025 SCT036 BKN080 RMK CLNG BLW 1200M PP008=
SPZO Feb2011-111200Z 00000KT 9999 FEW020 SCT036 BKN070 09/07 Q1030 BECMG FM1300 FEW RMK CLNG BLW 1200M=
SPZO Feb2011-111300Z 00000KT 9999 SCT025 SCT043 BKN100 11/06 Q1030 NOSIG RMK PP000=
SPZO Feb2011-111400Z 00000KT 9999 SCT030 BKN080 13/05 Q1030 NOSIG RMK PP000=
SPZO Feb2011-111500Z 00000KT 9999 SCT036 BKN080 15/06 Q1030 NOSIG RMK PP000=
SPZO Feb2011-111600Z 03004KT 300V050 9999 SCT040 BKN060 16/07 Q1029 NOSIG RMK PP000=
SPZO Feb2011-111700Z VRB02KT 9999 VCSH SCT043 SCT080 17/06 Q1028 NOSIG RMK PP000=
SPZO Feb2011-111800Z 04010KT 9999 VCSH SCT043TCU BKN060 15/08 Q1027 TEMPO -SHRA RMK PP000=
SPZO Feb2011-111820Z 04006KT 9999 VCSH FEW033 SCT040TCU BKN060 15/09 Q1026=
SPZO Feb2011-111900Z 03006KT 9999 VCSH FEW036 SCT040 BKN050 16/08 Q1026 TEMPO -RA RMK PP000=
SPZO Feb2011-111939Z 02004KT 300V040 9999 -RA VCSH FEW033 SCT040 BKN050 14/08 Q1026=
SPZO Feb2011-112000Z 03003KT 9999 -RA VCSH FEW036 SCT040 BKN050 14/08 Q1026 NOSIG RMK PP006=
SPZO Feb2011-112100Z 29005KT 280V010 9999 RA FEW030 SCT036 BKN046 12/09 Q1026 NOSIG RMK PP008=
SPZO Feb2011-112200Z 28003KT 9999 VCSH FEW033 BKN046 12/08 Q1025 NOSIG RMK TMAX 18.8 PP008=
SPZO Feb2011-112300Z 28004KT 9999 SCT050 BKN100 12/08 Q1026 NOSIG RMK PP000=
SPZO Feb2011-120000Z 00000KT 9999 FEW040 BKN050 BKN100 12/09 Q1027 RMK PP000=
SPZO Feb2011-120100Z 00000KT 9999 FEW040 BKN080 12/09 Q1028 RMK PP000=
SPZO Feb2011-120200Z 03004KT 9999 FEW036 BKN046 12/09 Q1030 RMK PP000=
SPZO Feb2011-120300Z 04006KT 8000 RA SCT033 OVC046 08/06 Q1032 RMK PP064=
SPZO Feb2011-120400Z 29005KT 8000 RA SCT030 OVC040 08/06 Q1032 RMK PP020=
SPZO Feb2011-120500Z 00000KT 8000 RA FEW033 SCT043 BKN050 08/06 Q1032 RMK PP022=
SPZO Feb2011-120600Z 28005KT 9000 FEW033 SCT043 BKN050 08/06 Q1030 RMK PP010=
SPZO Feb2011-120700Z 00000KT 9000 SCT030 BKN040 09/05 Q1030 RMK PP000=
SPZO Feb2011-120800Z 03003KT 9999 SCT033 BKN040 08/06 Q1030 RMK PP000=
SPZO Feb2011-120900Z 00000KT 9999 FEW025 SCT033 BKN043 08/06 Q1030 RMK PP000=
SPZO Feb2011-121000Z 00000KT 9999 SCT033 BKN050 09/06 Q1030 RMK PP000=
SPZO Feb2011-121025Z 00000KT 9999 SCT036 BKN043 08/06 Q1031=
SPZO Feb2011-121100Z 00000KT 9999 SCT033 OVC046 08/06 Q1031 NOSIG RMK PP000=
SPZO Feb2011-121200Z 00000KT 9999 FEW033 SCT040 BKN050 09/06 Q1032 NOSIG RMK PP000=
SPZO Feb2011-121300Z 00000KT 9999 FEW033 SCT040 BKN050 11/06 Q1032 NOSIG RMK PP000=
SPZO Feb2011-121400Z 00000KT 9999 FEW033 SCT046 BKN060 13/06 Q1033 NOSIG RMK PP000=
SPZO Feb2011-121500Z VRB02KT 9999 FEW036 SCT080 15/06 Q1032 NOSIG RMK PP000=
SPZO Feb2011-121600Z 30003KT 280V030 9999 FEW036 BKN050 17/06 Q1031 NOSIG RMK PP000=
SPZO Feb2011-121700Z 03004KT 290V050 9999 FEW040 SCT050 18/06 Q1030 NOSIG RMK PP000=
SPZO Feb2011-121800Z 30005KT 280V040 9999 SCT050 19/06 Q1029 NOSIG RMK PP000=
SPZO Feb2011-121900Z 28009KT 9999 SCT050 20/06 Q1027 NOSIG RMK PP000=
SPZO Feb2011-122000Z 28011KT 9999 SCT050 21/07 Q1025 NOSIG RMK PP000=
SPZO Feb2011-122100Z 28012KT 9999 FEW036TCU BKN50 20/07 Q1024 TEMPO VCSH RMK PP000=
SPZO Feb2011-122200Z 28008KT 9999 SCT040 BKN050 18/07 Q1025 TEMPO VCSH RMK TMAX 21.2 PP000=
SPZO Feb2011-122300Z 36006KT 300V040 9999 -RA SCT040 BKN050 17/07 Q1026 NOSIG RMK PPTRZ=
SPZO Feb2011-130000Z VRB02KT 8000 -RA FEW033 SCT040 BKN060 14/09 Q1027 RMK PP014=
SPZO Feb2011-130100Z 03005KT 8000 TS SCT040CB OVC060 13/09 Q1028 RMK PPTRZ=
SPZO Feb2011-130200Z 03010KT 8000 -TSRA SCT040CB OVC060 11/07 Q1029 RMK PP002=
SPZO Feb2011-130300Z 28013KT 8000 -TSRA SCT040CB OVC060 10/07 Q1030 RMK PP004=
SPZO Feb2011-130400Z 31003KT 270V020 8000 -RA SCT033 OVC060 11/07 Q1031 RMK PP002=
SPZO Feb2011-130500Z 28006KT 8000 -RA SCT033 OVC060 11/07 Q1030 RMK PP002=
SPZO Feb2011-130600Z 03005KT 310V050 9999 SCT033 OVC060 10/06 Q1031 RMK RERA PPTRZ=
SPZO Feb2011-130700Z 00000KT 9999 SCT033 OVC060 09/06 Q1030 RMK PP000=
SPZO Feb2011-130800Z 00000KT 8000 -RA SCT033 OVC060 08/06 Q1030 RMK PP012=
SPZO Feb2011-130900Z 29005KT 8000 -RA FEW025 SCT033 OVC060 08/06 Q1030 RMK CLNG BLW 1200M PP016=
SPZO Feb2011-131000Z 29006KT 8000 FEW025 SCT033 OVC050 09/05 Q1030 RMK CLNG BLW 1200M PPTRZ=
SPZO Feb2011-131100Z 28005KT 9999 -RA FEW020 SCT033 BKN043 09/05 Q1030 NOSIG RMK CLNG BLW 1200M PPTRZ=
SPZO Feb2011-131129Z 29006KT 9999 FEW030 SCT043 OVC080 09/05 Q1030=
SPZO Feb2011-131200Z 00000KT 9999 FEW025 SCT040 BKN100 09/05 Q1031 RERA NOSIG RMK PPTRZ=
SPZO Feb2011-131300Z 00000KT 9999 FEW030 SCT046 BKN080 11/06 Q1032 NOSIG RMK PP000=
SPZO Feb2011-131400Z 00000KT 9999 FEW036 BKN060 12/05 Q1032 NOSIG RMK PP000=
SPZO Feb2011-131500Z 03003KT 280V040 9999 SCT046 15/06 Q1031 NOSIG RMK PP000=
SPZO Feb2011-131600Z 03003KT 300V040 9999 SCT046 16/06 Q1030 NOSIG RMK PP000=
SPZO Feb2011-131700Z 00000KT 9999 SCT046 17/05 Q1029 NOSIG RMK PP000=
SPZO Feb2011-131800Z 00000KT 9999 FEW040 SCT050 19/06 Q1027 NOSIG RMK PP000=
SPZO Feb2011-131900Z 28008KT 9999 SCT060 SCT100 18/06 Q1026 NOSIG RMK PP000=
SPZO Feb2011-132000Z 28010KT 9999 SCT060 SCT230 19/05 Q1025 NOSIG RMK PP000=
SPZO Feb2011-132100Z 28014KT 9999 SCT060 SCT230 19/07 Q1024 NOSIG RMK PP000=
SPZO Feb2011-132200Z 28012KT 9999 SCT060 SCT230 18/06 Q1024 NOSIG RMK TMAX 19.5 PP000=
SPZO Feb2011-132300Z 00000KT 9999 FEW050 SCT230 17/05 Q1025 NOSIG RMK PP000=
SPZO Feb2011-140000Z 04005KT 9999 SCT230 14/07 Q1026 RMK PP000=
SPZO Feb2011-140100Z 00000KT 9999 BKN200 13/07 Q1027 RMK PP000=
SPZO Feb2011-140200Z 04007KT 9999 RA FEW036 BKN060 11/07 Q1030 RMK PP026=
SPZO Feb2011-140300Z 00000KT 9999 RA FEW036 SCT046 BKN050 10/07 Q1031 RMK PP038=
SPZO Feb2011-140400Z 29003KT 9999 -RA FEW036 SCT040 BKN060 09/07 Q1032 RMK PP024=
SPZO Feb2011-140500Z 00000KT 9999 -RA FEW036 SCT040 BKN050 09/07 Q1031 RMK PP020=
SPZO Feb2011-140600Z 00000KT 9999 -RA FEW033 SCT036 BKN046 09/07 Q1030 RMK PP028=
SPZO Feb2011-140700Z 00000KT 9999 -RA FEW033 SCT036 BKN046 09/07 Q1030 RMK PP012=
SPZO Feb2011-140800Z 00000KT 9999 -RA FEW030 SCT036 BKN046 08/07 Q1030 RMK PP006=
SPZO Feb2011-140900Z 00000KT 9999 FEW030 SCT036 BKN046 08/07 Q1029 RERA RMK PPTRZ=
SPZO Feb2011-141000Z 00000KT 9999 FEW030 SCT036 BKN046 09/06 Q1030 RMK PP000=
SPZO Feb2011-141040Z 00000KT 9999 FEW020 SCT036 BKN050 09/07 Q1030 RMK CLNG BLW 1200M=
SPZO Feb2011-141100Z 00000KT 9999 FEW020 SCT036 BKN050 09/07 Q1030 RMK CLNG BLW 1200M=
SPZO Feb2011-141200Z 00000KT 9999 FEW033 SCT043 BKN080 10/06 Q1030 BECMG FEW036 SCT050 OVC100 RMK PP000=
SPZO Feb2011-141300Z 00000KT 9999 FEW030 SCT050 OVC100 10/06 Q1031 NOSIG RMK PP000=
SPZO Feb2011-141400Z 03002KT 9999 FEW030 SCT100 OVC150 11/05 Q1032 NOSIG RMK PP000=
SPZO Feb2011-141500Z 03003KT 9999 FEW030 SCT060 OVC150 12/06 Q1032 NOSIG RMK PP000=
SPZO Feb2011-141600Z 03003KT 9999 FEW030 BKN060 BKN100 12/05 Q1031 NOSIG RMK PP000=
SPZO Feb2011-141700Z 04008KT 9999 VCSH FEW036 BKN060 BKN100 12/07 Q1031 NOSIG RMK PP000=
SPZO Feb2011-141727Z 04006KT 9999 VCSH SCT030 SCT043 BKN060 13/07 Q1030=
SPZO Feb2011-141800Z 03004KT 9999 VCSH SCT030 BKN043 12/07 Q1030 TEMPO -RA RMK PP000=
SPZO Feb2011-141900Z 28005KT 9999 VCSH SCT036 SCT043 BKN060 13/08 Q1029 NOSIG RMK PP000=
SPZO Feb2011-142000Z 28008KT 9999 SCT030 SCT040 BKN060 12/08 Q1029 TEMPO=
SPZO Feb2011-142100Z 00000KT 9999 FEW033TCU SCT046 BKN080 13/07 Q1028 TEMPO VCSH RMK PP000=
SPZO Feb2011-142200Z 00000KT 9999 SCT036 BKN060 14/06 Q1028 NOSIG RMK TMAX 14.3 PP000=
SPZO Feb2011-142300Z 04003KT 9999 VCSH FEW036 SCT040 BKN080 13/05 Q1029 NOSIG RMK PP000=
SPZO Feb2011-150000Z 00000KT 9999 SCT036 BKN050 12/06 Q1029 RMK PP000=
SPZO Feb2011-150100Z 00000KT 9999 SCT040 BKN050 12/05 Q1030 RMK PP000=
SPZO Feb2011-150200Z 00000KT 9999 SCT040 BKN050 12/04 Q1030 RMK PP000=
SPZO Feb2011-150300Z 00000KT 9999 SCT040 BKN050 11/04 Q1029 RMK PP000=
SPZO Feb2011-150400Z 00000KT 9999 SCT050 BKN060 11/04 Q1029 RMK PP000=
SPZO Feb2011-150500Z 00000KT 9999 SCT040 BKN060 10/06 Q1032 RMK PP000=
SPZO Feb2011-150600Z 00000KT 9999 SCT040 BKN050 10/06 Q1030 RMK PP000=
SPZO Feb2011-150700Z 00000KT 9999 SCT040 10/30 Q1030 RMK PP000=
SPZO Feb2011-150800Z 00000KT 9999 SCT040 10/05 Q1029 RMK PP000=
SPZO Feb2011-150900Z 00000KT 9999 SCT050 10/05 Q1029 RMK PP000=
SPZO Feb2011-151000Z 00000KT 9999 SCT050 BKN230 09/05 Q1029 RMK PP000=
SPZO Feb2011-151100Z 00000KT 9999 FEW050 OVC080 09/06 Q1030 NOSIG RMK PP000=
SPZO Feb2011-151200Z 00000KT 9999 FEW040 BKN100 10/06 Q1031 NOSIG RMK PP000=
SPZO Feb2011-151300Z 00000KT 9999 FEW036 SCT100 BKN230 12/05 Q1031 NOSIG RMK PP000=
SPZO Feb2011-151400Z 03002KT 9999 VCSH FEW036 SCT046 BKN080 13/06 Q1032 NOSIG RMK PP000=
SPZO Feb2011-151500Z 00000KT 9999 FEW036 BKN080 14/04 Q1031 NOSIG RMK PP000=
SPZO Feb2011-151600Z 00000KT 9999 SCT040 SCT080 16/06 Q1030 NOSIG RMK PP000=
SPZO Feb2011-151700Z 03004KT 300V050 9999 VCSH FEW036 BKN080 16/04 Q1030 NOSIG RMK PP000=
SPZO Feb2011-151728Z 00000KT 9999 VCSH FEW040 SCT043 BKN080 16/04 Q1029=
SPZO Feb2011-151800Z 03006KT 9999 VCSH SCT043 SCT050TCU BKN080 16/07 Q1029 NOSIG RMK PP000=
SPZO Feb2011-151900Z 02004KT 300V050 9999 VCSH SCT043 BKN060 15/05 Q1028 NOSIG RMK PP000=
SPZO Feb2011-152000Z 28009KT 9999 -RA FEW036 SCT040 BKN060 11/07 Q1028 NOSIG RMK PPTRZ=
SPZO Feb2011-152100Z 28008KT 9999 RA FEW033 SCT043 OVC050 11/07 Q1028 NOSIG RMK PP006=
SPZO Feb2011-152200Z VRB02KT 9999 VCSH FEW033 SCT040 BKN100 13/07 Q1027 RERA NOSIG RMK TMAX.16.8 PP000=
SPZO Feb2011-152300Z 00000KT 9999 SCT046 BKN060 13/07 Q1028 NOSIG RMK PP000=
SPZO Feb2011-160000Z 29005KT 9999 BKN046 SCT100 12/07 Q1028 RMK PP000=
SPZO Feb2011-160100Z 29004KT 9999 SCT043 SCT060 12/07 Q1029 RMK PP000=
SPZO Feb2011-160200Z 29006KT 9999 SCT046 SCT100 12/07 Q1030 RMK PP000=
SPZO Feb2011-160300Z 00000KT 9999 SCT043 SCT080 11/07 Q1031 RMK PP000=
SPZO Feb2011-160400Z 00000KT 9999 BKN043 SCT080 11/07 Q1031 RMK PP000=
SPZO Feb2011-160500Z 00000KT 9999 BKN046 SCT080 11/07 Q1030 RMK PP000=
SPZO Feb2011-160600Z 00000KT 9999 SCT043 SCT050 11/07 Q1030 RMK PP000=
SPZO Feb2011-160700Z 00000KT 9999 SCT040 BKN050 10/07 Q1029 RMK PP000=
SPZO Feb2011-160800Z 28005KT 9999 BKN040 SCT046 11/07 Q1029 RMK PP000=
SPZO Feb2011-160900Z 00000KT 9999 FEW020 SCT033 BKN043 10/06 Q1029 RMK PP000=
SPZO Feb2011-161000Z 04003KT 9000 FEW020 SCT036 BKN043 09/07 Q1030 RMK CLNG BLW 1200M PP006=
SPZO Feb2011-161100Z 00000KT 9999 -RA FEW020 SCT036 BKN070 09/06 Q1030 BECMG FM1120 FEW020 SCT040 BKN080 RMK CNLG BLW 1200M PP004=
SPZO Feb2011-161115Z 00000KT 9999 -RA FEW036 SCT043 OVC080 09/06 Q1030=
SPZO Feb2011-161200Z 00000KT 9999 -RA FEW036 SCT043 OVC080 09/06 Q1031 NOSIG RMK PP004=
SPZO Feb2011-161300Z 00000KT 9999 -RA FEW025 SCT050 OVC080 10/06 Q1032 BECMG FM1415 NSW RMK PP006=
SPZO Feb2011-161400Z 00000KT 9999 FEW030 SCT080 BKN150 12/07 Q1032 NOSIG RMK PP002=
SPZO Feb2011-161500Z VRB02KT 9999 SCT036 BKN150 14/06 Q1032 NOSIG RMK PP000=
SPZO Feb2011-161600Z VRB02KT 9999 SCT050 SCT150 16/07 Q1031 NOSIG RMK PP000=
SPZO Feb2011-161700Z VRB02KT 9999 SCT050 SCT080 18/07 Q1030 NOSIG RMK PP000=
SPZO Feb2011-161800Z 29004KT 280V020 9999 SCT050 18/07 Q1028 NOSIG RMK PP000=
SPZO Feb2011-161900Z 00000KT 9999 FEW043 SCT060TCU 20/04 Q1026 TEMPO=
SPZO Feb2011-162000Z 36009KT 300V040 9999 VCSH FEW043 BKN060TCU 17/06 Q1025 TEMPO -SHRA RMK PP000=
SPZO Feb2011-162023Z 04007KT 310V040 9999 -RA FEW040 SCT050CB BKN060 16/07 Q1025=
SPZO Feb2011-162100Z 36010KT 300V030 9999 -RA VCSH FEW040 SCT053CB BKN080 15/07 Q1026 BECMG NSW RMK PP0TRZ=
SPZO Feb2011-162200Z 29008KT 9999 SCT060 BKN080 13/07 Q1026 RMK TMAX 20.2 PPTRZ=
SPZO Feb2011-162300Z 30003KT 9999 SCT060 SCT080 14/06 Q1026 NOSIG RMK PP000=
SPZO Feb2011-170000Z 34004KT 300V020 9999 FEW040 BKN070 14/07 Q1027 RMK PP000=
SPZO Feb2011-170100Z 32004KT 280V040 9000 -RA SCT040 BKN080 12/07 Q1029 RMK PP004=
SPZO Feb2011-170200Z 00000KT 9999 SCT043 BKN100 11/07 Q1029 RMK PP000=
SPZO Feb2011-170300Z 00000KT 9999 FEW040 SCT150 11/08 Q1030 RMK PP000=
SPZO Feb2011-170400Z 00000KT 9999 FEW036 SCT046 BKN080 11/08 Q1030 RMK PP000=
SPZO Feb2011-170500Z 00000KT 9999 FEW036 SCT050 BKN060 11/08 Q1030 RMK PP000=
SPZO Feb2011-170600Z 00000KT 9999 FEW036 SCT046 BKN080 11/08 Q1030 RMK PP000=
SPZO Feb2011-170700Z 28005KT 9999 SCT036 OVC046 11/07 Q1029 RMK PP000=
SPZO Feb2011-170800Z 00000KT 9999 SCT040 OVC046 11/06 Q1029 RMK PP000=
SPZO Feb2011-170900Z 00000KT 9999 FEW033 SCT043 BKN080 11/06 Q1029 RMK PP000=
SPZO Feb2011-171000Z 00000KT 9999 FEW036 SCT043 BKN080 10/08 Q1029 RMK PP000=
SPZO Feb2011-171100Z 00000KT 9999 FEW020 SCT043 BKN100 10/08 Q1030 NOSIG RMK PP000=
SPZO Feb2011-171200Z 00000KT 9999 SCT043 SCT060 10/07 Q1031 NOSIG RMK PP000=
SPZO Feb2011-171300Z 00000KT 9999 FEW030 SCT080 13/07 Q1031 NOSIG RMK PP000=
SPZO Feb2011-171400Z 00000KT 9999 SCT040 SCT080 16/05 Q1031 NOSIG RMK PP000=
SPZO Feb2011-171428Z 02003KT 300V040 9999 SCT040 BKN080 14/05 Q1031=
SPZO Feb2011-171500Z 03002KT 9999 FEW036 SCT043 BKN060 14/06 Q1031 NOSIG RMK PP000=
SPZO Feb2011-171600Z 03008KT 9999 VCSH FEW040TCU SCT043 BKN080 15/06 Q1031 NOSIG RMK PP000=
SPZO Feb2011-171700Z 00000KT 9999 FEW040 BKN060 17/06 Q1030 NOSIG RMK PP000=
SPZO Feb2011-171735Z 34008KT 280V040 9999 VCSH SCT040 SCT046TCU 18/07 Q1028=
SPZO Feb2011-171800Z 04010KT 9999 VCSH SCT046TCU SCT060 15/07 Q1028 NOSIG RMK PP000=
SPZO Feb2011-171900Z 03008KT 300V040 9999 SCT043 SCT230 16/08 Q1027 NOSIG RMK -SHRA BTN 1=
SPZO Feb2011-172000Z 00000KT 9999 SCT043 SCT230 20/09 Q1025 NOSIG RMK PP000=
SPZO Feb2011-172100Z 04006KT 9999 BKN060 18/08 Q1024 NOSIG RMK PP000=
SPZO Feb2011-172200Z 03004KT 9999 FEW040 BKN060 18/05 Q1024 NOSIG RMK PP000=
SPZO Feb2011-172300Z 30005KT 9999 SCT040 BKN080 15/08 Q1026 RMK PP000=
SPZO Feb2011-180000Z 34005KT 300V050 9999 SCT040 BKN080 15/06 Q1027 RMK PP000=
SPZO Feb2011-180100Z 31003KT 270V040 9999 SCT046 BKN080 14/06 Q1028 RMK PP000=
SPZO Feb2011-180200Z 00000KT 9999 SCT046 BKN080 14/06 Q1029 RMK PP000=
SPZO Feb2011-180300Z 03004KT 9999 SCT046 BKN080 13/05 Q1030 RMK PP000=
SPZO Feb2011-180400Z 04015KT 8000 -RA SCT046 BKN100 11/06 Q1031 RMK PP002=
SPZO Feb2011-180500Z 29006KT 8000 RA FEW033 SCT040 OVC050 09/07 Q1031 RMK PP040=
SPZO Feb2011-180600Z 00000KT 8000 -RA FEW033 SCT046 OVC080 09/07 Q1030 RMK PP010=
SPZO Feb2011-180700Z 00000KT 9999 FEW033 SCT040 BKN080 09/07 Q1030 RMK RERA PPTRZ=
SPZO Feb2011-180800Z 00000KT 9999 FEW030 SCT040 BKN080 09/07 Q1029 RMK PP000=
SPZO Feb2011-180900Z 00000KT 9999 FEW030 SCT040 BKN080 09/07 Q1029 RMK PP000=
SPZO Feb2011-181000Z 00000KT 9999 FEW030 SCT036 BKN060 10/07 Q1029 RMK PP000=
SPZO Feb2011-181100Z 00000KT 9999 FEW020 SCT036 BKN046 09/07 Q1030 NOSIG RMK PP000=
SPZO Feb2011-181200Z 00000KT 9999 FEW020 SCT040 BKN060 10/07 Q1030 BECMG FEW030 SCT043 OVC100 RMK PP000=
SPZO Feb2011-181300Z 00000KT 9999 SCT030 SCT100 OVC150 11/07 Q1030 NOSIG RMK PP000=
SPZO Feb2011-181400Z 00000KT 9999 SCT030 OVC080 12/06 Q1031 NOSIG RMK PP000=
SPZO Feb2011-181410Z 00000KT 9999 FEW030 SCT043 OVC100 12/06 Q1031=
SPZO Feb2011-181500Z 00000KT 9999 FEW033 SCT046 BKN100 13/07 Q1031 NOSIG RMK PP000=
SPZO Feb2011-181600Z 03003KT 9999 VCSH FEW030 SCT040 OVC100 14/07 Q1030 NOSIG RMK V=
SPZO Feb2011-181605Z 03010KT 9999 -RA VCSH SCT036 SCT043 OVC080 12/07 Q1031 RMK VIS 8000E=
SPZO Feb2011-181636Z 00000KT 8000 -RA VCSH FEW033 SCT043 OVC080 12/07 Q1030=
SPZO Feb2011-181700Z 00000KT 9999 -RA VCSH FEW033 SCT043 OVC080 12/07 Q1030 BECMG N=
SPZO Feb2011-181800Z VRB02KT 9999 SCT033 OVC100 15/08 Q1029 NOSIG RMK PP000=
SPZO Feb2011-181900Z 00000KT 9999 FEW033 SCT043 BKN230 16/06 Q1027 NOSIG RMK PP000=
SPZO Feb2011-182000Z 03007KT 9999 FEW036 SCT043TCU BKN230 16/06 Q1026 TEMPO VCSH RMK PP000=
SPZO Feb2011-182100Z 04008KT 9999 SCT046 OVC100 15/05 Q1026 NOSIG RMK PP000=
SPZO Feb2011-182200Z 04010KT 9999 FEW050 OVC230 13/06 Q1026 NOSIG RMK T.MAX 16.5 PP000=
SPZO Feb2011-182300Z 04008KT 9999 SCT043 SCT230 13/06 Q1027 NOSIG RMK PP000=
SPZO Feb2011-190000Z /////KT 9999 SCT036 BKN230 12/06 Q1027 RMK PP000=
SPZO Feb2011-190100Z 00000KT 9999 SCT040 BKN050 12/06 Q1028 RMK PP000=
SPZO Feb2011-190200Z /////KT 9999 SCT040 BKN050 12/07 Q1029 RMK PP000=
SPZO Feb2011-190300Z 00000KT 9999 -RA SCT010 BKN040 11/07 Q1030 RMK PPTRZ=
SPZO Feb2011-190400Z 00000KT 9999 SCT030 OVC040 10/07 Q1030 RMK PP004=
SPZO Feb2011-190500Z 00000KT 9999 SCT030 OVC040 10/07 Q1029 RMK PP000=
SPZO Feb2011-190600Z 00000KT 9999 SCT040 OVC050 10/08 Q1028 RMK PP000=
SPZO Feb2011-190700Z 00000KT 9999 SCT030 OVC040 11/08 Q1027 RMK PP000=
SPZO Feb2011-190800Z 00000KT 9999 SCT030 OVC040 10/08 Q1027 RMK PP000=
SPZO Feb2011-190900Z 00000KT 9999 SCT040 BKN060 10/08 Q1027 RMK PP000=
SPZO Feb2011-191000Z 00000KT 9999 -RA VCSH FEW015 SCT033 OVC070 09/08 Q1027 RMK PP014=
SPZO Feb2011-191020Z 04004KT 7000 -RA VCSH FEW015 SCT033 OVC070 09/08 Q1028=
SPZO Feb2011-191042Z 03004KT 7000 -RA VCSH FEW015 SCT033 OVC070 09/08 Q1028 RMK CLNG BLW 1200M=
SPZO Feb2011-191100Z 03003KT 8000 3000W -RA VCSH FEW015 SCT033 OVC060 09/07 Q1028 NOSIG RMK CLNG BLW 1200M PP012=
SPZO Feb2011-191200Z 00000KT 9000 -RA VCSH FEW005 BKN010 OVC060 10/08 Q1029 NOSIG RMK CLNG BLW 1200M PP002=
SPZO Feb2011-191300Z 00000KT 9000 -RA VCSH SCT015 BKN036 OVC070 10/07 Q1030 NOSIG RMK CLNG BLW 1200M PPTRZ=
SPZO Feb2011-191330Z 00000KT 9999 -RA SCT030 SCT040 BKN100 11/07 Q1030 BECMG FM1400 NSW SCT030 SCT046 BKN230=
SPZO Feb2011-191400Z 00000KT 9999 SCT030 SCT043 BKN230 12/07 Q1030 NOSIG RMK PP002=
SPZO Feb2011-191500Z 00000KT 9999 VCSH FEW033 SCT046 BKN100 14/06 Q1029 NOSIG RMK PP000=
SPZO Feb2011-191525Z 29005KT 280V040 9999 VCSH SCT033 BKN046 14/08 Q1029=
SPZO Feb2011-191600Z 28005KT 9999 VCSH SCT036 BKN046 13/07 Q1029 -SHRA BTN 1525/35 TEMPO -RA RMK PPTRZ=
SPZO Feb2011-191610Z 28010KT 8000 -RA VCSH SCT033 SCT043 BKN060 12/08 Q1029 TEMPO 7000=
SPZO Feb2011-191630Z 28006KT 9999 VCSH SCT033 SCT046 BKN080 12/08 Q1028=
SPZO Feb2011-191700Z 33003KT 280V040 9999 VCSH SCT033 SCT050 BKN080 13/08 Q1028 NOSIG RMK PP004=
SPZO Feb2011-191800Z 34003KT 280V040 9999 SCT036 BKN046 15/08 Q1026 TEMPO=
SPZO Feb2011-191828Z 28010KT 9999 FEW036 SCT043 BKN080 16/08 Q1026=
SPZO Feb2011-191900Z 29006KT 280V020 9999 FEW033 BKN043 16/06 Q1025 NOSIG RMK PP000=
SPZO Feb2011-192000Z 28015KT 9999 SCT040 SCT050CB BKN100 15/08 Q1024 TEMPO VCSH RMK CB QUAD SE PP000=
SPZO Feb2011-192100Z 29012KT 9999 FEW036 BKN050 BKN080 13/08 Q1024 NOSIG RMK PP000=
SPZO Feb2011-192200Z 28011KT 9999 VCSH FEW036 SCT050TCU BKN070 13/07 Q1025 NOSIG RMK TMAX 16.8 PP000=
SPZO Feb2011-192300Z VRB01KT 9999 -RA SCT040 SCT046 BKN070 11/08 Q1026 TEMPO FM00 NSW RMK PP006=
SPZO Feb2011-200000Z 00000KT 9999 SCT030 OVC060 11/08 Q1026 RMK PP000=
SPZO Feb2011-200100Z 00000KT 9999 -RA SCT030 OVC060 12/07 Q1028 RMK PP006=
SPZO Feb2011-200200Z 00000KT 9999 -RA SCT040 OVC050 11/08 Q1028 RMK PP012=
SPZO Feb2011-200300Z 00000KT 9999 RA SCT030 OVC040 10/07 Q1029 RMK PP024=
SPZO Feb2011-200400Z 00000KT 9999 -RA SCT030 OVC040 10/08 Q1029 RMK PP004=
SPZO Feb2011-200500Z 00000KT 9999 -RA SCT030 OVC040 09/07 Q1029 RMK PP006=
SPZO Feb2011-200600Z 00000KT 9999 -RA SCT030 OVC040 09/07 Q1028 RMK PP008=
SPZO Feb2011-200700Z 00000KT 9999 SCT040 OVC050 09/07 Q1028 RMK PP000=
SPZO Feb2011-200800Z 00000KT 9999 -RA SCT040 OVC050 09/07 Q1027 RMK PP004=
SPZO Feb2011-200900Z 00000KT 9999 SCT040 OVC060 09/07 Q1027 RMK PP000=
SPZO Feb2011-201000Z 00000KT 9999 FEW015 SCT036 BKN080 09/07 Q1027 RMK=
SPZO Feb2011-201033Z 04005KT 9999 SCT015 SCT036 BKN060 09/07 Q1028 RMK CLNG BLW 1200M=
SPZO Feb2011-201100Z 00000KT 9999 SCT015 SCT036 OVC070 08/06 Q1028 NOSIG RMK CLNG BLW 1200M PP000=
SPZO Feb2011-201200Z 04006KT 9999 -DZ FEW015 BKN030 OVC070 08/06 Q1029 BECMG FM1300 NSW FEW020 SCT036 OVC070 RMK CLNG BLW 1200M PP002=
SPZO Feb2011-201300Z 04004KT 9999 4000W VCSH FEW020 SCT033 OVC070 10/06 Q1030 BECMG RMK CLNG BLW 1200M=
SPZO Feb2011-201328Z 04002KT 9999 FEW025 SCT036 OVC100 11/07 Q1030=
SPZO Feb2011-201400Z 04005KT 9999 SCT030 SCT080 BKN230 11/05 Q1030 NOSIG RMK PP000=
SPZO Feb2011-201443Z 00000KT 9999 VCSH SCT030 SCT043 BKN100 12/05 Q1030=
SPZO Feb2011-201500Z VRB02KT 9999 VCSH SCT030 SCT060 BKN100 13/05 Q1030 NOSIG RMK PP000=
SPZO Feb2011-201600Z 00000KT 9999 VCSH SCT033 SCT060 BKN100 14/06 Q1029 TEMPO -SHRA RMK VIS 8000E PP000=
SPZO Feb2011-201620Z 04005KT 300V040 9999 -RA VCSH SCT033 SCT060 BKN100 13/07 Q1029 RMK VIS 8000E=
SPZO Feb2011-201632Z 00000KT 8000 -RA VCSH SCT033 OVC080 12/07 Q1029 TEMPO 7000=
SPZO Feb2011-201645Z 31003KT 280V040 9999 4000E -RA VCSH FEW033 SCT060CB BKN100 11/07 Q1028=
SPZO Feb2011-201700Z 30004KT 280V020 9999 FEW033 BKN100 12/08 Q1028 NOSIG RMK PP010=
SPZO Feb2011-201729Z 28006KT 9999 SCT036 15/08 Q1027=
SPZO Feb2011-201800Z 34003KT 270V040 9999 VCSH SCT036 SCT080 16/07 Q1026 NOSIG RMK PP000=
SPZO Feb2011-201815Z 36007KT 290V030 8000 -RA SCT036 SCT050TCU BKN060 14/08 Q1026=
SPZO Feb2011-201829Z 02006KT 300V050 8000 -RA VCSH SCT036 SCT050CB BKN100 13/07 Q1026 RMK VIS 5000 ENE=
SPZO Feb2011-201840Z 03004KT 7000 -RA VCSH SCT036 SCT050CB BKN080 13/08 Q1026=
SPZO Feb2011-201930Z VRB02KT 9999 -RA VCSH FEW030 SCT060 OVC100 12/09 Q1026 BECMG FM2015 NSW=
SPZO Feb2011-202000Z VRB02KT 9999 FEW030 SCT080 BKN230 13/09 Q1025 NOSIG RMK PP006=
SPZO Feb2011-202027Z 00000KT 9999 VCSH SCT036 FEW050TCU BKN100 14/07 Q1025=
SPZO Feb2011-202100Z 00000KT 9000 -RA VCSH FEW036 SCT050TCU BKN100 14/08 Q1024 TEMPO 7000 RMK VIS 8000 E PPTRZ=
SPZO Feb2011-202200Z 00000KT 9999 -RA VCSH FEW036 SCT050 BKN08 12/09 Q1025 NOSIG RMK TMAX 16.4 PP002=
SPZO Feb2011-202300Z 31007KT 280V020 9999 BKN043 SCT080 12/08 Q1026 NOSIG RMK PP004=
SPZO Feb2011-210000Z 28005KT 9999 -RA SCT036 BKN043 12/07 Q1026 RMK PP000=
SPZO Feb2011-210100Z 04005KT 300V040 9999 BKN043 SCT080 12/07 Q1027 RMK PPTRZ=
SPZO Feb2011-210200Z 03003KT 300V040 9000 -RA SCT033 BKN040 10/08 Q1028 RMK PP004=
SPZO Feb2011-210300Z 00000KT 9000 -RA BKN040 SCT046 10/08 Q1029 RMK PP004=
SPZO Feb2011-210400Z 00000KT 8000 -RA OVC040 10/08 Q1030 RMK PP018=
SPZO Feb2011-210500Z 00000KT 9999 BKN040 SCT046 09/06 Q1029 RMK PP006=
SPZO Feb2011-210600Z 00000KT 9999 SCT030 BKN043 09/06 Q1029 RMK PP002=
SPZO Feb2011-210700Z 00000KT 9999 BKN043 SCT100 09/06 Q1028 RMK PP000=
SPZO Feb2011-210800Z 00000KT 9999 BKN043 SCT050 09/06 Q1028 RMK PP000=
SPZO Feb2011-210900Z 00000KT 9999 BKN046 SCT100 09/06 Q1028 RMK PP000=
SPZO Feb2011-211000Z 00000KT 9999 FEW036 SCT043 BKN100 09/06 Q1028 RMK PP000=
SPZO Feb2011-211100Z 00000KT 9999 FEW036 SCT046 BKN080 09/06 Q1029 NOSIG RMK PP000=
SPZO Feb2011-211200Z 00000KT 9999 FEW040 SCT080 BKN150 09/07 Q1029 NOSIG RMK PP000=
SPZO Feb2011-211220Z 00000KT 9999 FEW030 SCT050 BKNO80 10/07 Q1030=
SPZO Feb2011-211300Z 00000KT 9999 FEW030 SCT100 BKN230 12/07 Q1029 NOSIG RMK PP000=
SPZO Feb2011-211338Z 00000KT 9999 FEW030 SCT040 BKN100 12/05 Q1030=
SPZO Feb2011-211400Z 00000KT 9999 FEW030 SCT040 BKN100 12/05 Q1030 NOSIG RMK PP000=
SPZO Feb2011-211421Z 00000KT 9999 FEW030 SCT043 BKN060 12/06 Q1030=
SPZO Feb2011-211500Z VRB02KT 9999 FEW030 SCT043 BKN060 13/06 Q1030 NOSIG RMK PP000=
SPZO Feb2011-211600Z 28003KT 9999 SCT040 SCT100 16/06 Q1029 NOSIG RMK PP000=
SPZO Feb2011-211700Z 29005KT 9999 SCT050 SCT100 17/10 Q1028 NOSIG RMK PP000=
SPZO Feb2011-211800Z /////KT 9999 FEW043 SCT053CB BKN100 18/06 Q1026 TEMPO VCSH RMK CB QUAD SE PP000=
SPZO Feb2011-211900Z /////KT 9999 4000W VCSH SCT043 SCT053CB BKN100 14/08 Q1026 NOSIG RMK PP000=
SPZO Feb2011-211927Z /////KT 9999 VCSH FEW036 BKN053TCU BKN100 14/06 Q1026=
SPZO Feb2011-211937Z /////KT 9999 -RA VCSH FEW036 BKN053TCU BKN100 14/06 Q1026 RMK 7000E=
SPZO Feb2011-212000Z /////KT 9000 -RA VCSH FEW036 BKN053CB BKN100 13/07 Q1026 BECMG FM2020 9999 RMK VIS 6000E CB QUAD E PPTRZ=
SPZO Feb2011-212008Z /////KT 8000 -RA VCSH FEW030 SCT036TCU BKN060CB 12/08 Q1027 RMK VIS 7000 E=
SPZO Feb2011-212028Z /////KT 8000 -RA VCSH FEW020 SCT036 OVC070 10/08 Q1027 RMK VIS 7000E=
SPZO Feb2011-212100Z /////KT 9000 -RA VCSH FEW020 SCT060 OVC080 10/08 Q1027 RERA BE=
SPZO Feb2011-212200Z /////KT 9999 SCT015 SCT040 OVC080 10/07 Q1027 NOSIG RMK TMAX 18.1 PP022=
SPZO Feb2011-212300Z /////KT 9999 FEW015 SCT040 OVC100 11/07 Q1027 NOSIG RMK PP000=
SPZO Feb2011-220000Z /////KT 9999 FEW020 SCT040 BKN080 11/07 Q1028 RMK PP000=
SPZO Feb2011-220100Z /////KT 9999 SCT040 BKN080 10/08 Q1029 RMK PP000=
SPZO Feb2011-220200Z /////KT 9999 FEW025 SCT040 BKN070 10/08 Q1030 RMK PP000=
SPZO Feb2011-220300Z /////KT 9999 FEW030 SCT043 BKN070 10/07 Q1030 RMK PP000=
SPZO Feb2011-220400Z /////KT 9999 FEW036 SCT050 BKN100 10/08 Q1030 RMK PP000=
SPZO Feb2011-220500Z /////KT 9999 SCT050 BKN080 10/08 Q1030 RMK PP000=
SPZO Feb2011-220600Z /////KT 9999 SCT043 BKN060 10/08 Q1029 RMK PP000=
SPZO Feb2011-220700Z /////KT 9999 SCT040 OVC050 10/08 Q1029 RMK PP000=
SPZO Feb2011-220800Z /////KT 9999 FEW033 SCT043 BKN050 10/08 Q1028 RMK PP000=
SPZO Feb2011-220900Z /////KT 9999 FEW020 SCT040 BKN050 10/08 Q1028 RMK PP000=
SPZO Feb2011-221000Z /////KT 9999 FEW015 SCT043 BKN070 10/08 Q1028 RMK PP000=
SPZO Feb2011-221025Z /////KT 9999 FEW025 SCT036 BKN043 10/08 Q1030 RMK CLNG BLW 1200M=
SPZO Feb2011-221035Z /////KT 9999 -DZ FEW015 SCT033 BKN060 10/07 Q1029 RMK CLNG BLW 1200M=
SPZO Feb2011-221100Z /////KT 9999 -DZ FEW010 SCT033 BKN060 10/07 Q1029 NOSIG RMK CLNG BLW 1200M=
SPZO Feb2011-221200Z /////KT 9999 FEW015 BKN033 BKN060 10/07 Q1030 BECMG FM1300 FEW CLNG BLW 1200M=
SPZO Feb2011-221225Z /////KT 9999 FEW025 SCT036 BKN043 10/08 Q1030 RMK CLNG BLW 1200M=
SPZO Feb2011-221300Z /////KT 9999 SCT025 SCT040 BKN060 11/08 Q1030 NOSIG RMK PP000=
SPZO Feb2011-221400Z /////KT 9999 SCT025 SCT043 BKN080 13/08 Q1030 RMK PP000=
SPZO Feb2011-221410Z /////KT 9999 -RA VCSH SCT025 SCT043 BKN080 13/08 Q1030 RMK VIS 8000E=
SPZO Feb2011-221500Z /////KT 9999 -RA VCSH SCT030 SCT043 BKN100 16/08 Q1030 NOSIG RMK PP000=
SPZO Feb2011-221600Z /////KT 9999 -RA VCSH SCT030 SCT053 BKN100 13/08 Q1029 NOSIG RMK VIS 8000E PP002=
SPZO Feb2011-221700Z 00000KT 9999 -RA VCSH SCT033 SCT060 OVC100 13/07 Q1029 NOSIG RMK PP006=
SPZO Feb2011-221705Z 00000KT 9999 -RA VCSH SCT030 SCT043TCU OVC080 13/08 Q1029 RMK 7000E=
SPZO Feb2011-221800Z /////KT 9999 -RA VCSH SCT033 SCT043TCU OVC080 12/07 Q1028 NOSIG RMK PP006=
SPZO Feb2011-221900Z /////KT 8000 -RA VCSH FEW025 BKN033 BKN060 13/08 Q1028 NOSIG RMK CLNG BLW 1200M PP002=
SPZO Feb2011-221917Z /////KT 9999 SCT030 SCT040 BKN080 12/09 Q1027=
SPZO Feb2011-221947Z /////KT 8000 -RA VCSH FEW025 BKN033 BKN060 13/08 Q1028 TEMPO 7000 RMK CLNG BLW 1200M=
SPZO Feb2011-222000Z /////KT 9999 VCSH FEW030 SCT043 BKN100 14/09 Q1027 NOSIG RMK PP002=
SPZO Feb2011-222100Z /////KT 9999 VCSH SCT043 BKN100 15/10 Q1026 NOSIG RMK PP000=
SPZO Feb2011-222200Z /////KT 9999 FEW030 SCT043 BKN080 13/08 Q1026 NOSIG RMK PP000=
SPZO Feb2011-222300Z /////KT 9999 FEW030 SCT050 BKN080 12/08 Q1027 NOSIG RMK PP000=
SPZO Feb2011-230000Z /////KT 9999 FEW030 SCT050 BKN080 11/08 Q1028 RMK PP000=
SPZO Feb2011-230100Z /////KT 9999 FEW036 SCT050 BKN080 10/08 Q1029 RMK PP000=
SPZO Feb2011-230200Z /////KT 9999 FEW030 SCT050 BKN080 11/08 Q1029 RMK PP000=
SPZO Feb2011-230300Z /////KT 9999 FEW030 SCT050 BKN080 11/08 Q1030 RMK PP000=
SPZO Feb2011-230400Z /////KT 9999 -DZ FEW030 SCT050 BKN080 11/08 Q1030 RMK PPTRZ=
SPZO Feb2011-230500Z /////KT 9999 -RA FEW030 SCT050 BKN080 10/08 Q1029 RMK PP002=
SPZO Feb2011-230600Z /////KT 8000 -RA FEW025 SCT046 BKN060 10/08 Q1029 RMK PP002=
SPZO Feb2011-230700Z /////KT 8000 -RA FEW025 SCT046 BKN060 10/08 Q1028 RMK PP002=
SPZO Feb2011-230800Z /////KT 8000 -RA FEW025 SCT046 BKN060 10/08 Q1028 RMK PP004=
SPZO Feb2011-230900Z /////KT 8000 -RA FEW020 SCT036 OVC046 09/07 Q1028 RMK CLNG BLW 1200M PP020=
SPZO Feb2011-231000Z /////KT 7000 -RA FEW020 SCT036 OVC046 09/08 Q1028 RMK CLNG BLW 1200M PP008=
SPZO Feb2011-231030Z /////KT 9999 -RA FEW015 SCT036 OVC080 09/07 Q1028 RMK CLNG BLW 1200M=
SPZO Feb2011-231100Z /////KT 8000 -RA VCSH FEW015 BKN036 OVC080 09/07 Q1028 NOSIG RMK VIS 7000E CLNG BLW 1200M PP004=
SPZO Feb2011-231200Z /////KT 5000 RA VCSH FEW020 SCT033 OVC080 09/08 Q1029 TEMPO FM1200 TL1220 4000 RMK CLNG BLW 1200M PP012=
SPZO Feb2011-231221Z /////KT 6000 -RA VCSH FEW020 SCT036 OVC080 10/08 Q1029 BECMG FM1240 8000 CLNG BLW 1200M=
SPZO Feb2011-231300Z /////KT 9999 VCSH FEW020 SCT040 BKN100 10/07 Q1029 BECMG FEW025 SCT046 BKN100 RMK PP006=
SPZO Feb2011-231400Z /////KT 9999 VCSH SCT030 SCT080 BKN230 12/07 Q1029 NOSIG RMK PP000=
SPZO Feb2011-231500Z /////KT 9999 VCSH SCT030 SCT046 BKN100 13/08 Q1029 NOSIG RMK PP000=
SPZO Feb2011-231600Z /////KT 9999 VCSH SCT033 FEW040TCU BKN100 14/06 Q1029 NOSIG RMK PP000=
SPZO Feb2011-231700Z /////KT 9999 VCSH FEW036 SCT043 BKN100 14/08 Q1027 NOSIG RMK PP000=
SPZO Feb2011-231800Z /////KT 9999 VCSH FEW036 SCT043TCU BKN100 16/07 Q1026 NOSIG RMK PP000=
SPZO Feb2011-231900Z /////KT 9999 VCSH FEW036 SCT046 BKN100 16/07 Q1025 NOSIG RMK PP000=
SPZO Feb2011-232000Z 26007KT 9999 -SHRA FEW036 SCT043TCU BKN100 15/08 Q1024 BECMG N=
SPZO Feb2011-232100Z /////KT 9999 VCSH FEW040 SCT046TCU BKN060 16/05 Q1024 TEMPO -SHRA RMK WIND RWY10 31006KT 240V030 PPTRZ=
SPZO Feb2011-232200Z /////KT 7000 RA VCSH FEW030 SCT040TCU BKN046 11/08 Q1025 NOSIG RMK WIND RWY10 04005KT 010V090 T.MAX 16.5 PP012=
SPZO Feb2011-232300Z /////KT 7000 -RA FEW030 SCT040 BKN046 11/08 Q1025 NOSIG RMK PP014=
SPZO Feb2011-240000Z /////KT 6000 -RA VCSH FEW015 SCT030 OVC060 11/08 Q1026 RMK PP004=
SPZO Feb2011-240100Z /////KT 7000 SCT030 OVC060 11/08 Q1027 RMK PP000=
SPZO Feb2011-240200Z /////KT 8000 SCT040 BKN050 11/08 Q1027 RMK PP000=
SPZO Feb2011-240300Z /////KT 8000 SCT040 BKN050 10/08 Q1028 RMK PP000=
SPZO Feb2011-240400Z /////KT 8000 -RA VCSH SCT030 OVC040 10/08 Q1028 RMK PP008=
SPZO Feb2011-240500Z /////KT 8000 -RA VCSH SCT030 OVC040 10/08 Q1028 RMK PP010=
SPZO Feb2011-240600Z /////KT 8000 RA VCSH SCT020 OVC040 09/07 Q1028 RMK PP040=
SPZO Feb2011-240700Z /////KT 8000 RA VCSH SCT020 OVC030 09/07 Q1027 RMK PP028=
SPZO Feb2011-240800Z /////KT 8000 RA VCSH SCT020 OVC036 09/07 Q1027 RMK CLNG BLW 1200M PP020=
SPZO Feb2011-241000Z /////KT 8000 -RA VCSH FEW020 SCT036 BKN080 08/05 Q1027 RMK CLNG BLW 1200M=
SPZO Feb2011-241100Z /////KT 7000 -RA VCSH FEW015 SCT036 OVC080 08/05 Q1028 BECMG 9999 CLNG BLW 1200M=
SPZO Feb2011-241200Z /////KT 7000 -RA VCSH SCT015 SCT033 OVC080 08/06 Q1029 TEMPO 8000 RMK CLNG BLW 1200M WIND RWY10 VRB02KT PP012=
SPZO Feb2011-241230Z /////KT 8000 -RA VCSH FEW008 BKN036 OVC080 08/06 Q1030 RMK CLNG BLW 1200M=
SPZO Feb2011-241300Z /////KT 8000 -RA VCSH FEW010 BKN036 OVC080 08/05 Q1030 BECMG 9000 RMK CLNG BLW 1200M WIND RWY10 08003KT 060V120 PP014=
SPZO Feb2011-241400Z /////KT 9000 -RA VCSH SCT015 SCT036 OVC080 08/05 Q1031 BECMG FM1420 NSW SCT020 SCT043 OVC080 RMK CLNG BLW 1200M WIND RWY10 08003KT 060V120 PP006=
SPZO Feb2011-241420Z /////KT 9000 -RA VCSH FEW020 SCT036 OVC060 09/06 Q1031 RMK CLNG BLW 12200M=
SPZO Feb2011-241432Z /////KT 9000 -RA SCT020 SCT040 OVC050 09/06 Q1031=
SPZO Feb2011-241500Z /////KT 9999 VCSH FEW025 SCT036 OVC080 10/05 Q1031 NOSIG RMK WIND RWY10 00000KT PP002=
SPZO Feb2011-241540Z /////KT 9999 VCSH SCT030 SCT040 OVC080 12/05 Q1030=
SPZO Feb2011-241600Z /////KT 9999 VCSH SCT030 SCT040 BKN080 13/06 Q1030 NOSIG RMK WIND RWY10 VRB02KT PP000=
SPZO Feb2011-241700Z /////KT 9999 FEW033 SCT043 BKN100 14/07 Q1029 NOSIG RMK WIND RWY10 00000KT PP000=
SPZO Feb2011-241800Z /////KT 9999 FEW030 SCT040 BKN080 14/06 Q1028 NOSIG RMK WIND RWY10 36001KT PP000=
SPZO Feb2011-241900Z /////KT 9999 FEW036 SCT046 BKN080 15/06 Q1026 NOSIG RMK WIND RWY10 35003KT PP000=
SPZO Feb2011-242000Z /////KT 9999 FEW040 SCT053 BKN100 15/06 Q1025 NOSIG RMK WIND RWY10 VRB02KT PP000=
SPZO Feb2011-242100Z /////KT 9999 FEW036 BKN050 BKN080 16/05 Q1024 NOSIG RMK WIND RWY10 VRB02KT PP000=
SPZO Feb2011-242200Z /////KT 9999 FEW036 BKN060 BKN080 15/06 Q1024 NOSIG RMK WIND RWY10 29005KT TMAX 16.3 PP000=
SPZO Feb2011-242300Z /////KT 9999 FEW030 SCT040 BKN080 13/08 Q1025 NOSIG RMK WIND RWY10 27008KT PP000=
SPZO Feb2011-250000Z /////KT 9999 -RA VCSH FEW040TCU OVC060 12/07 Q1026 RMK PP004=
SPZO Feb2011-250100Z /////KT 9999 FEW040 OVC060 12/08 Q1027 RMK PP000=
SPZO Feb2011-250200Z /////KT 9999 SCT040 OVC080 12/07 Q1028 RMK PP000=
SPZO Feb2011-250300Z /////KT 9999 SCT040 BKN060 12/06 Q1029 RMK PP000=
SPZO Feb2011-250400Z /////KT 9999 SCT040 BKN060 12/07 Q1029 RMK PP000=
SPZO Feb2011-250500Z /////KT 9999 SCT040 BKN060 12/07 Q1029 RMK PP000=
SPZO Feb2011-250600Z /////KT 9999 SCT040 BKN050 11/08 Q1028 RMK PP000=
SPZO Feb2011-250700Z /////KT 9999 SCT040 BKN050 11/09 Q1028 RMK PP000=
SPZO Feb2011-250800Z /////KT 9999 SCT040 BKN050 11/07 Q1027 RMK PP000=
SPZO Feb2011-250900Z /////KT 9999 SCT040 BKN080 11/07 Q1027 RMK PP000=
SPZO Feb2011-251000Z /////KT 9999 FEW030 SCT043 BKN100 11/08 Q1028 RMK PP000=
SPZO Feb2011-251100Z /////KT 9999 FEW020 SCT030 BKN043 10/07 Q1028 NOSIG RMK PP000=
SPZO Feb2011-251200Z 00000KT 9999 FEW040 SCT060 BKN080 11/07 Q1030 NOSIG RMK WIND RWY10 00000KT PP000=
SPZO Feb2011-251232Z 00000KT 9999 SCT030 SCT060 BKN100 12/07 Q1030=
SPZO Feb2011-251300Z 00000KT 9999 SCT030 SCT060 BKN080 12/07 Q1030 NOSIG RMK WIND RWY10 00000KT PP000=
SPZO Feb2011-251333Z 00000KT 9999 FEW030 SCT036 BKN060 13/07 Q1031=
SPZO Feb2011-251400Z 00000KT 9999 FEW030 SCT036 BKN060 12/07 Q1031 NOSIG RMK WIND RWY10 VRB02KT PP000=
SPZO Feb2011-251500Z 00000KT 9999 FEW036 BKN050 BKN080 13/06 Q1031 TEMPO=
SPZO Feb2011-251600Z 00000KT 9999 VCSH FEW030 SCT043 BKN100 14/06 Q1031 NOSIG RMK WIND RWY10 23003KT PP000=
SPZO Feb2011-251700Z 01002KT 9999 VCSH FEW040TCU SCT043 BKN100 16/08 Q1030 NOSIG RMK WIND RWY10 VRB02KT PP000=
SPZO Feb2011-251725Z 30007KT 9999 VCSH FEW036 SCT043TCU BKN060 13/08 Q1029 TEMPO -SHRA=
SPZO Feb2011-251800Z 25004KT 9999 VCSH FEW040TCU SCT043 BKN080 14/07 Q1029 NOSIG RMK -SHRA BTN 1730/1740 WIND RWY10 00000KT PP002=
SPZO Feb2011-251900Z 29005KT 9999 FEW040TCU SCT043 BKN230 17/06 Q1027 TEMPO VCSH RMK WIND RWY10 23004KT PP000=
SPZO Feb2011-251914Z 24005KT 9999 FEW040TCU BKN050 BKN230 16/07 Q1027=
SPZO Feb2011-252000Z 00000KT 9999 FEW043TCU BKN050 16/06 Q1026 TEMPO=
SPZO Feb2011-252100Z 09009KT 9999 FEW040 SCT046TCU BKN060 16/07 Q1025 TEMPO -SHRA RMK WIND RWY10 060006KT PP000=
SPZO Feb2011-252200Z /////KT 9999 VCSH FEW040 SCT046TCU BKN060 15/08 Q1025 NOSIG RMK TMAX. 17.6 WIND RWY10 /////KT PP000=
SPZO Feb2011-252300Z /////KT 9999 FEW043TCU BKN050 17/08 Q1026 NOSIG RMK WIND RWY10 /////KT PP000=
SPZO Feb2011-260000Z /////KT 9999 FEW040 SCT046 13/07 Q1028 RMK PP000=
SPZO Feb2011-260100Z /////KT 9999 FEW040 SCT100 11/06 Q1029 RMK PP000=
SPZO Feb2011-260200Z /////KT 9999 SCT040 SCT100 1106 Q1030 RMK PP000=
SPZO Feb2011-260300Z /////KT 9999 SCT040 SCT100 10/06 Q1031 RMK PP000=
SPZO Feb2011-260400Z /////KT 9999 BKN040 SCT080 10/06 Q1031 RMK PP000=
SPZO Feb2011-260500Z /////KT 9999 SCT050 09/06 Q1031 RMK PP000=
SPZO Feb2011-260600Z /////KT 9999 SCT050 08/05 Q1030 RMK PP000=
SPZO Feb2011-260700Z /////KT 9999 SCT040 SCT100 08/06 Q1029 RMK PP000=
SPZO Feb2011-260800Z /////KT 9999 SCT043 SCT100 0705 Q1029 RMK PP000=
SPZO Feb2011-260900Z /////KT 9999 SCT040 SCT080 07/05 Q1029 RMK PP000=
SPZO Feb2011-261000Z /////KT 9999 SCT040 SCT060 07/05 Q1030 RMK PP000=
SPZO Feb2011-261100Z 00000KT 9000 SCT036 BKN046 07/05 Q1030 BECMG 9999 RMK WIND RWY10 08002KT PP000=
SPZO Feb2011-261200Z 00000KT 9999 SCT043 BKN060 08/06 Q1031 NOSIG RMK=
SPZO Feb2011-261300Z 09005KT 9999 FEW030 SCT080 BKN230 10/07 Q1031 NOSIG RMK WIND RWY10 VRB02KT PP000=
SPZO Feb2011-261400Z 10004KT 9999 SCT033 SCT080 BKN230 12/06 Q1032 NOSIG RMK WIND RWY10 09005KT PP000=
SPZO Feb2011-261411Z 00000KT 9999 SCT033 BKN080 12/06 Q1032=
SPZO Feb2011-261500Z 00000KT 9999 SCT033 BKN080 15/06 Q1031 NOSIG RMK=
SPZO Feb2011-261600Z 00000KT 9999 SCT040 SCT080 15/05 Q1030 NOSIG RMK=
SPZO Feb2011-261700Z 30005KT 9999 SCT043 BKN080 16/06 Q1029 NOSIG RMK=
SPZO Feb2011-261800Z 34007KT 9999 FEW030 SCT043 BKN080 17/06 Q1028 NOSIG RMK WIND RWY10 27008KT PP000=
SPZO Feb2011-261900Z 30009KT 9999 SCT043 FEW060CB SCT100 18/05 Q1027 TEMPO VCSH RMK WIND RWY10 33009KT PP000=
SPZO Feb2011-262000Z 02007KT 9999 SCT046 BKN100 16/06 Q1026 NOSIG RMK=
SPZO Feb2011-262100Z 03005KT 9999 BKN050 18/06 Q1025 NOSIG RMK WIND RWY10 31006KT PP000=
SPZO Feb2011-262200Z 26011KT 9999 SCT060 SCT230 18/05 Q1025 NOSIG RMK TMAX 18.9  WI=
SPZO Feb2011-262300Z 27009KT 9999 SCT050 SCT230 16/06 Q1026 NOSIG RMK=
SPZO Feb2011-270000Z /////KT 9999 SCT046 SCT200 14/07 Q1027 RMK PP000=
SPZO Feb2011-270100Z /////KT 9999 SCT050 SCT230 13/07 Q1028 RMK PP000=
SPZO Feb2011-270200Z /////KT 9999 FEW050 SCT150 13/07 Q1029 RMK PP000=
SPZO Feb2011-270300Z /////KT 9999 FEW050 SCT100 13/06 Q1030 RMK PP000=
SPZO Feb2011-270400Z /////KT 9999 FEW040 BKN080 12/06 Q1030 RMK PP000=
SPZO Feb2011-270500Z /////KT 9999 -RA SCT036 BKN046 12/07 Q1029 RMK PPTRZ=
SPZO Feb2011-270600Z /////KT 9999 RA FEW033 SCT040 BKN046 09/05 Q1030 RMK PP026=
SPZO Feb2011-270700Z /////KT 9000 RA FEW025 SCT036 BKN040 08/07 Q1031 RMK PP056=
SPZO Feb2011-270800Z /////KT 9999 RA FEW025 SCT036 BKN040 07/04 Q1030 RMK PP058=
SPZO Feb2011-270900Z /////KT 9999 RA FEW020 SCT030 BKN043 06/04 Q1030 RMK PP036=
SPZO Feb2011-271000Z /////KT 9999 RA FEW025 SCT033 BKN046 07/04 Q1030 RMK PP002=
SPZO Feb2011-271030Z /////KT 9999 -RA FEW015 SCT036 OVC070 07/04 Q1030=
SPZO Feb2011-271100Z /////KT 9999 -RA FEW015 SCT043 OVC070 07/04 Q1031 NOSIG RMK WIND RWY10 /////KT PP004=
SPZO Feb2011-271200Z 00000KT 9999 -RA FEW020 SCT043 OVC080 07/04 Q1031 NOSIG RMK WIND RWY10 00000KT PP004=
SPZO Feb2011-271300Z 00000KT 9999 -RA FEW025 SCT043 OVC080 08/05 Q1032 NOSIG RMK WIND RWY10 00000KT PPTRZ=
SPZO Feb2011-271400Z 27005KT 9999 FEW025 OVC100 09/04 Q1033 NOSIG RMK=
SPZO Feb2011-271500Z 27005KT 9999 FEW030 SCT043 OVC100 10/05 Q1033 NOSIG RMK WIND RWY10 29003KT PP000=
SPZO Feb2011-271600Z 00000KT 9999 SCT030 OVC100 10/05 Q1032 TEMPO VCSH RMK WIND RWY10 00000KT PP000=
SPZO Feb2011-271624Z 28003KT 9999 -RA FEW030 SCT040 OVC100 11/05 Q1032=
SPZO Feb2011-271700Z 00000KT 9999 -RA FEW030 SCT040 OVC100 11/06 Q1032 NOSIG RMK WIND RWY10 00000KT PPTRZ=
SPZO Feb2011-271800Z 24003KT 160V320 9999 SCT033 SCT043 OVC100 12/06 Q1030 NOSIG RMK WIND RWY10 27003KT 180V290 PP000=
SPZO Feb2011-271900Z 00000KT 9999 SCT036 SCT043 OVC100 13/06 Q1029 TEMPO=
SPZO Feb2011-272000Z 32002KT 9999 FEW036 SCT043 BKN230 14/06 Q1028 NOSIG RMK WIND RWY10 16002KT PP000=
SPZO Feb2011-272100Z VRB03KT 9999 SCT043 BKN230 15/06 Q1027 NOSIG RMK WIND RWY10 VRB02KT PP000=
SPZO Feb2011-272200Z 08005KT 9999 SCT050 SCT100 14/07 Q1027 NOSIG RMK=
SPZO Feb2011-272300Z 00000KT 9999 SCT043 BKN060 14/06 Q1027 NOSIG RMK=
SPZO Feb2011-280000Z /////KT 9999 SCT043 BKN060 13/07 Q1028 RMK PP000=
SPZO Feb2011-280100Z /////KT 9999 SCT040 BKN060 12/07 Q1029 RMK PP000=
SPZO Feb2011-280200Z /////KT 8000 -RA SCT040 BKN060 11/07 Q1030 RMK PP008=
SPZO Feb2011-280300Z /////KT 8000 -RA FEW036 SCT043 BKN060 10/08 Q1031 RMK PP006=
SPZO Feb2011-280400Z /////KT 8000 -RA FEW036 SCT043 BKN060 10/08 Q1031 RMK PP004=
SPZO Feb2011-280500Z /////KT 8000 -RA FEW030 SCT040 BKN060 10/08 Q1030 RMK PP004=
SPZO Feb2011-280600Z /////KT 8000 -RA FEW030 SCT040 BKN060 10/08 Q1030 RMK PPTRZ=
SPZO Feb2011-280700Z /////KT 8000 -RA FEW030 SCT036 OVC060 10/08 Q1030 RMK PPTRZ=
SPZO Feb2011-280800Z /////KT 9999 FEW030 SCT036 OVC060 10/07 Q1030 RMK RERA PPTRZ=
SPZO Feb2011-280900Z /////KT 8000 -RA FEW025 SCT036 OVC060 10/07 Q1029 RMK CLNG BLW 1200M PP004=
SPZO Feb2011-281000Z /////KT 9999 FEW020 SCT036 OVC060 10/07 Q1030 RMK CLNG BLW 1200M PPTRZ=
SPZO Feb2011-281100Z 00000KT 9999 FEW025 BKN043 BKN080 10/07 Q1030 NOSIG RMK WIND R=
SPZO Feb2011-281200Z 00000KT 9999 FEW060 BKN080 10/07 Q1031 BECMG FEW060 SCT080 RMK WIND RWY10 00000KT PP000=
SPZO Feb2011-281300Z 00000KT 9999 FEW036 SCT100 13/05 Q1031 NOSIG RMK=
SPZO Feb2011-281400Z 00000KT 9999 SCT036 15/07 Q1031 NOSIG RMK WIND RWY10 00000KT PP000=
SPZO Feb2011-281500Z 12002KT 9999 BKN043 SCT080 15/06 Q1031 NOSIG RMK=
SPZO Feb2011-281600Z 09001KT 9999 FEW040 SCT046 BKN080 15/05 Q1030 NOSIG RMK WIND RWY10 06002KT PP000=
SPZO Feb2011-281700Z 27002KT 9999 SCT043 BKN080 17/06 Q1029 NOSIG RMK=
SPZO Feb2011-281800Z 00000KT 9999 SCT043 SCT100 18/07 Q1028 NOSIG RMK=
SPZO Feb2011-281900Z 10003KT 9999 SCT050 19/05 Q1026 NOSIG RMK WIND RWY10 36004KT PP000=
SPZO Feb2011-282000Z 22005KT 9999 SCT060 SCT230 20/05 Q1024 NOSIG RMK=
SPZO Feb2011-282100Z 25007KT 9999 SCT060 SCT230 21/06 Q1024 NOSIG RMK=
SPZO Feb2011-282200Z 10007KT 9999 FEW050 SCT100 BKN230 19/06 Q1023 NOSIG RMK WIND RWY10 32006KT T.MAX 20.9 PP000=
SPZO Feb2011-282300Z 06006KT 9999 FEW040TCU SCT050 BKN230 16/08 Q1024 NOSIG RMK WIND RWY10 32003KT PP000=
SPZO Mar2011-010000Z /////KT 9999 SCT050 BKN230 15/07 Q1026 RMK WIND RWY10 /////KT PP000=
SPZO Mar2011-010100Z /////KT 9999 SCT046 BKN100 14/07 Q1026 RMK WIND RWY10 /////KT PP000=
SPZO Mar2011-010200Z /////KT 9999 RA FEW030 SCT046 BKN050 09/06 Q1029 RMK WIND RWY10 /////KT PP054=
SPZO Mar2011-010300Z /////KT 9999 +RA SCT030 OVC046 09/07 Q1030 RMK WIND RWY10 /////KT PP076=
SPZO Mar2011-010400Z /////KT 9999 -RA SCT033 OVC046 08/07 Q1031 RMK RWY=
SPZO Mar2011-010500Z /////KT 9999 -RA SCT033 OVC046 09/07 Q1030 RMK WIND RWY10 /////KT PP026=
SPZO Mar2011-010600Z /////KT 9999 -RA FEW025 SCT033 OVC043 09/08 Q1029 RMK WIND RWY10 /////KT PPTRZ=
SPZO Mar2011-010700Z /////KT 9999 SCT030 OVC046 10/08 Q1028 RMK WIND RWY10 /////KT PP000=
SPZO Mar2011-010800Z /////KT 9999 FEW025 SCT036 OVC046 10/07 Q1028 RMK=
SPZO Mar2011-010900Z /////KT 9999 FEW040 SCT060 BKN0100 09/06 Q1028 RMK=
SPZO Mar2011-011000Z /////KT 9999 FEW030 SCT036 BKN080 09/07 Q1028 RMK=
SPZO Mar2011-011100Z 00000KT 9999 FEW020 SCT036 BKN046 09/07 Q1029 NOSIG RMK WIND RWY10 12003KT PP000=
SPZO Mar2011-011200Z 00000KT 9999 FEW020 SCT046 BKN080 10/07 Q1029 NOSIG RMK WIND RWY10 00000KT PP000=
SPZO Mar2011-011300Z 00000KT 9999 FEW030 SCT043 BKN060 11/06 Q1030 NOSIG RMK WIND RWY10 09001KT PP000=
SPZO Mar2011-011400Z 00000KT 9999 FEW020 SCT046 BKN080 12/06 Q1030 NOSIG RMK WIND RWY10 09003KT PP000=
SPZO Mar2011-011500Z 00000KT 9999 VCSH FEW030 SCT046 BKN080 13/05 Q1030 NOSIG RMK WIND RWY10 34001KT PP000=
SPZO Mar2011-011600Z 07003KT 9999 VCSH FEW036 SCT046 BKN080 15/07 Q1029 NOSIG RMK WIND RWY10 11003KT PP000=
SPZO Mar2011-011700Z 13005KT 9999 VCSH FEW036 BKN060 16/06 Q1028 NOSIG RMK WIND RWY10 08003KT PP000=
SPZO Mar2011-011800Z 00000KT 9999 SCT043 SCT050 17/08 Q1027 NOSIG RMK PP000=
SPZO Mar2011-011900Z 00000KT 9999 FEW040 SCT046 19/05 Q1025 NOSIG RMK PP000=
SPZO Mar2011-012000Z 34006KT 9999 VCSH SCT046TCU BKN053 17/06 Q1024 NOSIG RMK PP000=
SPZO Mar2011-012020Z 21009KT 9999 -TSRA VCSH BKN043 SCT060CB 15/08 Q1025=
SPZO Mar2011-012040Z 00000KT 8000 TSRA VCSH SCT043 BKN060CB 11/08 Q1025=
SPZO Mar2011-012100Z 03004KT 9000 -TSRA VCSH FEW043 SCT060CB BKN100 10/07 Q1025 BECMG NSW RMK PP082=
SPZO Mar2011-012200Z 00000KT 9999 SCT060 BKN100 11/09 Q1025 NOSIG RMK TMAX 19.2 PP006=
SPZO Mar2011-012300Z 00000KT 9999 FEW030 SCT046 BKN100 12/08 Q1026 NOSIG RMK PP000=
SPZO Mar2011-020000Z /////KT 9999 SCT040 SCT080 11/08 Q1026 RMK PP000=
SPZO Mar2011-020100Z /////KT 9999 SCT040 SCT080 11/08 Q1027 RMK PP000=
SPZO Mar2011-020200Z /////KT 9999 SCT040 SCT080 10/08 Q1028 RMK PP000=
SPZO Mar2011-020300Z /////KT 9999 SCT040 SCT080 10/08 Q1028 RMK PP000=
SPZO Mar2011-020400Z /////KT 9999 SCT040 SCT080 11/08 Q1029 RMK PP000=
SPZO Mar2011-020500Z /////KT 9999 SCT040 SCT080 10/08 Q1028 RMK=
SPZO Mar2011-020600Z /////KT 9999 -RA SCT040TCU SCT080 10/08 Q1028 RMK PP002=
SPZO Mar2011-020700Z /////KT 9999 SCT040 SCT080 11/08 Q1027 RMK PP000=
SPZO Mar2011-020800Z /////KT 9999 SCT040 SCT080 10/08 Q1027 RMK PP000=
SPZO Mar2011-020900Z /////KT 9999 SCT040 SCT080 10/08 Q1027 RMK PP000=
SPZO Mar2011-021000Z /////KT -RA 9999 FEW020 OVC050 10/08 Q1027 RMK PPTRZ=
SPZO Mar2011-021037Z /////KT 9999 -RA VCSH FEW025 SCT033 BKN043 09/07 Q1028 RMK CLNG BLW 1200M=
SPZO Mar2011-021100Z 00000KT 9999 -RA FEW030 SCT036 BKN046 09/07 Q1028 BECMG NSW SCT036 BKN050 RMK PP018=
SPZO Mar2011-021135Z 00000KT 9999 FEW036 BKN050 09/07 Q1028=
SPZO Mar2011-021200Z 00000KT 9999 SCT050 BKN080 10/07 Q1028 NOSIG RMK PPTRZ=
SPZO Mar2011-021300Z 00000KT 9999 FEW036 SCT050 BKN080 11/07 Q1029 NOSIG RMK PP000=
SPZO Mar2011-021400Z 00000KT 9999 SCT033 BKN100 13/07 Q1029 NOSIG RMK PP000=
SPZO Mar2011-021500Z 03003KT 9999 SCT046 BKN080 14/06 Q1029 NOSIG RMK PP000=
SPZO Mar2011-021600Z 36002KT 9999 SCT046 BKN080 16/05 Q1028 NOSIG RMK PP000=
SPZO Mar2011-021700Z 28007KT 9999 SCT046 SCT080 19/07 Q1026 NOSIG RMK PP000=
SPZO Mar2011-021800Z 36007KT 9999 SCT050 SCT100 19/05 Q1024 NOSIG RMK PP000=
SPZO Mar2011-021819Z 36008KT 9999 FEW043 SCT050 BKN080 18/07 Q1024=
SPZO Mar2011-021837Z 33008KT 9999 -SHRA BKN050TCU SCT080 17/06 Q1024=
SPZO Mar2011-021900Z 36005KT 9999 -TSRA VCSH SCT043CB BKN050TCU 16/08 Q1024 BECMG FM2030 NSW RMK PPTRZ=
SPZO Mar2011-021915Z 10007KT 8000 -TSRA VCSH SCT043 BKN050TCU 14/09 Q1024=
SPZO Mar2011-022000Z 11006KT 9999 TS VCSH SCT046CB SCT060TCU BKN080 12/08 Q1025 BECMG FM2030 NSW RMK PP006=
SPZO Mar2011-022030Z 30001KT 9999 FEW060 SCT080 BKN100 13/06 Q1024=
SPZO Mar2011-022100Z 27005KT 9999 FEW060 SCT080 BKN100 13/07 Q1024 NOSIG RMK PP000=
SPZO Mar2011-022200Z 10004KT 9999 FEW046 SCT080 BKN230 14/08 Q1024 NOSIG RMK T MAX. 19.5 PP000=
SPZO Mar2011-022300Z 00000KT 9999 FEW036 SCT080 OVC230 13/07 Q1025 NOSIG RMK PP000=
SPZO Mar2011-030000Z /////KT 9999 SCT040 BKN100 11/06 Q1026 RMK PP000=
SPZO Mar2011-030100Z /////KT 9999 SCT043 SCT230 11/07 Q1026 RMK PP000=
SPZO Mar2011-030200Z /////KT 9999 SCT050 SCT100 10/07 Q1028 RMK PP000=
SPZO Mar2011-030300Z /////KT 9999 SCT043 SCT100 10/06 Q1028 RMK PP000=
SPZO Mar2011-030400Z /////KT 9999 SCT050 SCT100 09/07 Q1028 RMK PP000=
SPZO Mar2011-030500Z /////KT 9999 BKN043 SCT060 09/07 Q1028 RMK PP000=
SPZO Mar2011-030600Z /////KT 9999 BKN040 SCT080 09/07 Q1027 RMK PP000=
SPZO Mar2011-030700Z /////KT 9999 BKN043 SCT060 09/07 Q1027 RMK PP000=
SPZO Mar2011-030800Z /////KT 9999 -RA BKN040 SCT046 09/07 Q1027 RMK PP006=
SPZO Mar2011-030900Z /////KT 9999 FEW020 SCT040 BKN046 09/06 Q1026 RMK PP000=
SPZO Mar2011-031000Z /////KT 9999 FEW020 SCT043 BKN230 08/07 Q1027 RMK PP000=
SPZO Mar2011-031030Z 00000KT 9999 SCT020 SCT043 BKN100 08/06 Q1027=
SPZO Mar2011-031200Z 00000KT 9000 FEW020 BKN050 BKN080 09/07 Q1028 BECMG 9999 RMK PP000=
SPZO Mar2011-031229Z 00000KT 9000 VCSH FEW020 SCT040 BKN050 09/07 Q1029=
SPZO Mar2011-031240Z 00000KT 7000 -RA VCSH FEW020 SCT043 OVC060 09/07 Q1029=
SPZO Mar2011-031300Z 06003KT 5000 -RA VCSH FEW020 SCT043 OVC060 09/07 Q1029 BECMG FM1330 8000 RMK PP006=
SPZO Mar2011-031336Z 00000KT 8000 VCSH SCT020 SCT043 BKN080 11/08 Q1030=
SPZO Mar2011-031408Z 00000KT 7000 VCSH FEW020 SCT043 BKN070 11/07 Q1030 BECMG FM1440 9000=
SPZO Mar2011-031427Z 00000KT 8000 VCSH FEW020 SCT043 BKN070 11/08 Q1030=
SPZO Mar2011-031515Z 09005KT 9999 VCSH SCT030 BKN080 11/08 Q1029 BECMG SCT030 SCT046 BKN080=
SPZO Mar2011-031600Z 09008KT 9999 VCSH FEW030 SCT046 BKN100 12/08 Q1029 NOSIG RMK PPTRZ=
SPZO Mar2011-031622Z 06006KT 8000 -RA VCSH FEW030 SCT046TCU BKN100 12/08 Q1029 TEMPO 7000=
SPZO Mar2011-031640Z 09007KT 9999 -RA VCSH FEW030 SCT060 BKN100 12/08 Q1029 BECMG NSW=
SPZO Mar2011-031700Z 09008KT 9999 FEW030 SCT060 BKN100 13/09 Q1028 TEMPO VCSH RMK P=
SPZO Mar2011-031800Z 04002KT 9999 SCT036 SCT100 16/09 Q1027 NOSIG RMK PP000=
SPZO Mar2011-031900Z 09011KT 060V140 9999 SCT040 SCT100 16/09 Q1026 NOSIG RMK PP000=
SPZO Mar2011-032000Z 00000KT 9999 VCSH SCT046 SCT080 15/06 Q1025 NOSIG RMK PP000=
SPZO Mar2011-032100Z 27015KT 9999 FEW043TCU BKN050 15/07 Q1024 TEMPO=
SPZO Mar2011-032200Z 26011KT 9999 FEW030 SCT046TCU BKN060 14/08 Q1025 TEMPO VCSH RMK TMAX 16.5 PP000=
SPZO Mar2011-032300Z 21004KT 9999 SCT046 BKN060 13/08 Q1026 NOSIG RMK PP000=
SPZO Mar2011-040000Z /////KT 9999 SCT036 BKN050 13/06 Q1027 RMK PP000=
SPZO Mar2011-040100Z /////KT 9999 SCT040 BKN050 12/07 Q1028 RMK PP000=
SPZO Mar2011-040200Z /////KT 9999 FEW036 BKN046 11/07 Q1029 RMK PP000=
SPZO Mar2011-040300Z /////KT 9999 FEW033 SCT060 11/06 Q1030 RMK PP000=
SPZO Mar2011-040400Z /////KT 9999 SCT043 SCT060 11/06 Q1030 RMK PP000=
SPZO Mar2011-040500Z /////KT 9999 SCT030 BKN046 10/06 Q1030 RMK PP000=
SPZO Mar2011-040600Z /////KT 9999 SCT036 BKN043 10/07 Q1029 RMK PP000=
SPZO Mar2011-040700Z /////KT 9999 FEW036 SCT043 BKN050 10/07 Q1028 RMK PP000=
SPZO Mar2011-040800Z /////KT 9999 SCT040 BKN070 10/06 Q1028 RMK PP000=
SPZO Mar2011-040900Z /////KT 9999 SCT040 BKN060 10/06 Q1028 RMK PP000=
SPZO Mar2011-041000Z /////KT 9999 FEW030 SCT040 BKN050 10/06 Q1028 RMK PP000=
SPZO Mar2011-041100Z 00000KT 9999 FEW030 SCT043 BKN080 10/07 Q1029 BECMG FEW030 BKN050 RMK PP000=
SPZO Mar2011-041200Z 00000KT 9999 FEW030 BKN046 10/07 Q1030 NOSIG RMK PP000=
SPZO Mar2011-041300Z 00000KT 9999 SCT036 BKN050 12/07 Q1030 BECMG FEW036 BKN060 RMK PP000=
SPZO Mar2011-041400Z VRB02KT 9999 FEW036 BKN060 13/06 Q1031 NOSIG RMK PP000=
SPZO Mar2011-041500Z 10005KT 9999 FEW036 SCT046 BKN080 13/06 Q1031 NOSIG RMK PP000=
SPZO Mar2011-041600Z 18001KT 9999 SCT040 BKN060 15/04 Q1030 NOSIG RMK PP000=
SPZO Mar2011-041700Z 12003KT 9999 FEW040 BKN080 16/05 Q1030 NOSIG RMK PP000=
SPZO Mar2011-041727Z 25004KT 9999 FEW043 SCT050 17/04 Q1029=
SPZO Mar2011-041800Z 01003KT 9999 FEW043TCU SCT050 18/05 Q1028 NOSIG RMK PP000=
SPZO Mar2011-041900Z VRB02KT 9999 FEW040 SCT050 18/04 Q1027 NOSIG RMK PP000=
SPZO Mar2011-042000Z 08010KT 040V110 9999 FEW043 SCT050 18/08 Q1025 NOSIG RMK PP000=
SPZO Mar2011-042100Z 10007KT 080V140 9999 BKN050 17/06 Q1024 NOSIG RMK PP000=
SPZO Mar2011-042200Z /////KT 9999 BKN050 SCT230 16/05 Q1024 NOSIG RMK TMAX 18.9 PP000=
SPZO Mar2011-042300Z /////KT 9999 BKN050 SCT230 15/05 Q1026 RMK PP000=
SPZO Mar2011-050000Z /////KT 9999 SCT050 SCT230 13/06 Q1027 RMK PP000=
SPZO Mar2011-050100Z /////KT 9999 SCT050 SCT100 13/05 Q1028 RMK PP000=
SPZO Mar2011-050200Z /////KT 9999 SCT050 SCT080 11/06 Q1029 RMK PP000=
SPZO Mar2011-050300Z /////KT 9999 SCT050 BKN080 11/07 Q1030 RMK PP000=
SPZO Mar2011-050400Z /////KT 9999 SCT050 BKN080 11/06 Q1030 RMK PP000=
SPZO Mar2011-050500Z /////KT 9999 SCT050 BKN070 10/07 Q1030 RMK PP000=
SPZO Mar2011-050600Z /////KT 9999 SCT050 BKN070 11/06 Q1030 RMK PP000=
SPZO Mar2011-050700Z /////KT 9999 SCT040 BKN070 11/06 Q1030 RMK PP000=
SPZO Mar2011-050800Z /////KT 9999 SCT040 BKN070 11/06 Q1029 RMK PP000=
SPZO Mar2011-050900Z /////KT 9999 SCT033 BKN070 11/06 Q1029 RMK PP000=
SPZO Mar2011-051000Z /////KT 9999 FEW025 SCT036 BKN070 10/06 Q1029 RMK PP000=
SPZO Mar2011-051100Z 10002KT 9999 FEW030 SCT036 BKN060 10/07 Q1030 NOSIG RMK PP000=
SPZO Mar2011-051200Z 06007KT 9999 FEW020 SCT040 BKN060 09/06 Q1031 NOSIG RMK PP000=
SPZO Mar2011-051235Z 09005KT 060V130 9999 SCT040 BKN080 11/06 Q1031=
SPZO Mar2011-051300Z 07005KT 9999 SCT040 BKN080 12/07 Q1031 NOSIG RMK PP000=
SPZO Mar2011-051400Z 10003KT 0501V150 9999 SCT040 BKN080 12/05 Q1032 NOSIG RMK PP000=
SPZO Mar2011-051500Z 00000KT 9999 FEW030 SCT046 14/05 Q1031 NOSIG RMK PP000=
SPZO Mar2011-051600Z 10007KT 060V120 9999 FEW043 SCT060 BKN080 14/05 Q1030 NOSIG RMK PP000=
SPZO Mar2011-051700Z 10005KT 060V120 9999 FEW030 SCT060 BKN080 15/07 Q1030 NOSIG RMK PP000=
SPZO Mar2011-051800Z 02005KT 9999 SCT050 BKN100 17/06 Q1028 NOSIG RMK PP000=
SPZO Mar2011-051900Z 17005KT 9999 SCT060 SCT230 18/05 Q1026 NOSIG RMK PP000=
SPZO Mar2011-052000Z 18003KT 9999 SCT043 SCT060 19/04 Q1025 NOSIG RMK PP000=
SPZO Mar2011-052100Z 28015KT 9999 VCSH FEW040TCU SCT050 BKN080 17/06 Q1024 NOSIG RMK PP000=
SPZO Mar2011-052200Z 29011KT 9999 VCSH FEW033 SCT043TCU BKN050 16/05 Q1024 NOSIG RMK T.MAX 19.4 PP000=
SPZO Mar2011-052300Z 34005KT 9999 VCSH FEW033 SCT043 BKN060 15/07 Q1025 NOSIG RMK PP000=
SPZO Mar2011-060000Z /////KT 9999 FEW030 BKN050 12/07 Q1026 RMK PP000=
SPZO Mar2011-060100Z /////KT 9999 SCT040 BKN080 12/07 Q1028 RMK PP000=
SPZO Mar2011-060200Z /////KT 9999 SCT040 BKN060 12/07 Q1029 RMK PP000=
SPZO Mar2011-060300Z /////KT 9999 -RA SCT033 OVC060 11/08 Q1030 RMK PPTRZ=
SPZO Mar2011-060400Z /////KT 9999 RA SCT036 OVC046 09/08 Q1031 RMK PP070=
SPZO Mar2011-060500Z /////KT 9999 -RA SCT033 OVC046 09/06 Q1031 RMK PP016=
SPZO Mar2011-060600Z /////KT 9999 -RA SCT033 OVC046 08/06 Q1030 RMK PP012=
SPZO Mar2011-060700Z /////KT 9999 SCT033 OVC046 08/06 Q1030 RERA RMK PP002=
SPZO Mar2011-060800Z /////KT 9999 SCT033 OVC046 08/05 Q1029 RMK PP000=
SPZO Mar2011-060900Z /////KT 9999 -RA FEW025 SCT033 OVC046 08/05 Q1029 RMK PP002=
SPZO Mar2011-061000Z /////KT 9999 -RA SCT036 OVC070 08/05 Q1029 RMK PP004=
SPZO Mar2011-061100Z 28003KT 240V300 9999 -RA FEW025 SCT043 BKN080 08/05 Q1029 NOSIG RMK PP004=
SPZO Mar2011-061200Z 26003KT 9999 FEW030 SCT043 BKN100 08/04 Q1030 NOSIG RMK PPTRZ=
SPZO Mar2011-061300Z 00000KT 9999 FEW030 SCT043 OVC080 10/04 Q1030 RMK PP000=
SPZO Mar2011-061400Z 00000KT 9999 FEW036 SCT043 BKN100 13/06 Q1031 NOSIG RMK PP000=
SPZO Mar2011-061500Z VRB02KT 9999 FEW036 SCT043 BKN060 13/04 Q1030 NOSIG RMK PP000=
SPZO Mar2011-061600Z 00000KT 9999 FEW036 SCT046 BKN080 14/05 Q1030 NOSIG RMK PP000=
SPZO Mar2011-061700Z 00000KT 9999 FEW036 SCT046 BKN100 16/05 Q1028 NOSIG RMK PP000=
SPZO Mar2011-061800Z 00000KT 9999 FEW040 SCT050 BKN060 18/06 Q1027 NOSIG RMK PP000=
SPZO Mar2011-061900Z 00000KT 9999 FEW040 SCT050 BKN070 18/05 Q1025 NOSIG RMK PP000=
SPZO Mar2011-062000Z 36007KT 9999 FEW043TCU BKN053 18/08 Q1024 NOSIG RMK PP000=
SPZO Mar2011-062100Z 34005KT 9999 VCSH FEW040TCU SCT050 BKN060 17/06 Q1023 NOSIG RMK PP000=
SPZO Mar2011-062200Z 03003KT 9999 VCSH FEW040TCU SCT050 BKN060 15/06 Q1024 NOSIG RMK TMAX 18.9 PP000=
SPZO Mar2011-062211Z 03003KT 9000 -RA VCSH FEW040TCU SCT050 BKN060 14/07 Q1025=
SPZO Mar2011-062226Z 03003KT 9999 -TSRA VCSH BKN040 SCT050CB 12/07 Q1025 RMK VIS 7000E=
SPZO Mar2011-062300Z 08003KT 9000 3000W -TSRA VCSH FEW030 SCT046CB BKN060 10/06 Q1026 BECMG -RA RMK PP016=
SPZO Mar2011-070000Z /////KT 9999 -RA FEW025 SCT040 BKN050 11/07 Q1027 RMK PP006=
SPZO Mar2011-070100Z /////KT 9999 FEW030 SCT040 BKN050 11/08 Q1028 RMK PP000=
SPZO Mar2011-070200Z /////KT 9999 FEW030 SCT040 BKN050 11/08 Q1028 RMK PP000=
SPZO Mar2011-070300Z /////KT 9999 FEW040 SCT050 BKN060 10/08 Q1029 RMK PP000=
SPZO Mar2011-070400Z /////KT 9999 -RA FEW030 SCT040 BKN050 11/08 Q1030 RMK PP002=
SPZO Mar2011-070500Z /////KT 9999 -RA FEW030 SCT040 BKN050 10/07 Q1029 RMK PP002=
SPZO Mar2011-070600Z /////KT 9999 -RA FEW030 SCT040 BKN050 10/06 Q1029 RMK PP002=
SPZO Mar2011-070700Z /////KT 9999 -RA FEW060 SCT040 BKN050 10/05 Q1028 RMK PP002=
SPZO Mar2011-070800Z /////KT 9999 FEW030 SCT040 BKN050 09/07 Q1027 RMK PP000=
SPZO Mar2011-070900Z /////KT 9999 FEW030 SCT040 BKN050 09/06 Q1027 RMK PP000=
SPZO Mar2011-071000Z /////KT 9999 SKC 09/07 Q1027 RMK PP000=
SPZO Mar2011-071100Z 00000KT 9999 SCT060 07/05 Q1028 NOSIG RMK PP000=
SPZO Mar2011-071200Z 00000KT 9999 FEW060 BKN100 08/05 Q1029 NOSIG RMK PP000=
SPZO Mar2011-071300Z 00000KT 9999 FEW043 BKN100 12/05 Q1029 NOSIG RMK PP000=
SPZO Mar2011-071400Z 00000KT 9999 FEW043 BKN100 14/05 Q1029 NOSIG RMK PP000=
SPZO Mar2011-071500Z 00000KT 9999 SCT046 BKN100 16/05 Q1029 NOSIG RMK PP000=
SPZO Mar2011-071600Z 08002KT 9999 SCT046 SCT060 16/04 Q1028 NOSIG RMK PP000=
SPZO Mar2011-071700Z 29003KT 9999 SCT046 SCT060 17/06 Q1027 NOSIG RMK PP000=
SPZO Mar2011-071800Z 00000KT 9999 SCT050 SCT100 18/03 Q1026 NOSIG RMK PP000=
SPZO Mar2011-071900Z 36003KT 9999 SCT046 FEW060TCU 19/05 Q1025 NOSIG RMK PP000=
SPZO Mar2011-072000Z 10012KT 9999 BKN060 18/07 Q1024 NOSIG RMK PP000=
SPZO Mar2011-072100Z 09013KT 9999 BKN060 17/07 Q1023 NOSIG RMK PP000=
SPZO Mar2011-072200Z 08008KT 050V120 9999 VCSH SCT043TCU BKN050 15/07 Q1024 NOSIG RMK T MAX. 19.1 PP000=
SPZO Mar2011-072300Z 23010KT 9999 -RA SCT043 BKN080 11/06 Q1025 NOSIG RMK PP008=
SPZO Mar2011-080000Z /////KT 9000 -RA SCT040 BKN046 10/07 Q1027 RMK PP006=
SPZO Mar2011-080100Z /////KT 9999 SCT030 BKN046 10/07 Q1027 RMK PP004=
SPZO Mar2011-080200Z /////KT 9999 SCT040 SCT100 10/08 Q1028 RMK PP000=
SPZO Mar2011-080300Z /////KT 9999 SCT043 SCT100 09/07 Q1028 RMK PP000=
SPZO Mar2011-080400Z /////KT 9999 SCT040 SCT080 09/07 Q1029 RMK PP000=
SPZO Mar2011-080500Z /////KT 9999 SCT043 SCT100 09/07 Q1028 RMK PP000=
SPZO Mar2011-080600Z /////KT 9999 SCT040 SCT080 09/07 Q1028 RMK PP000=
SPZO Mar2011-080700Z /////KT 9999 BKN043 SCT080 10/07 Q1027 RMK PP000=
SPZO Mar2011-080800Z /////KT 9999 BKN040 SCT050 09/07 Q1027 RMK PP000=
SPZO Mar2011-080900Z /////KT 9999 BKN040 SCT046 10/08 Q1027 RMK PP000=
SPZO Mar2011-081000Z /////KT 9999 FEW030 SCT040 BKN046 10/08 Q1027 RMK PP000=
SPZO Mar2011-081100Z 00000KT 9999 FEW036 SCT043 BKN080 10/08 Q1028 NOSIG RMK VIS 7000E PP000=
SPZO Mar2011-081200Z VRB02KT 9000 FEW030 SCT043 BKN060 10/08 Q1029 NOSIG RMK VIS 6000E BR PP000=
SPZO Mar2011-081217Z 00000KT 9000 FEW030 SCT043 BKN080 10/08 Q1029 RMK BR=
SPZO Mar2011-081300Z 00000KT 9999 FEW030 BKN043 BKN080 11/07 Q1030 NOSIG RMK PP000=
SPZO Mar2011-081400Z 00000KT 9999 SCT033 BKN043 12/07 Q1030 NOSIG RMK PP000=
SPZO Mar2011-081500Z 12004KT 9999 SCT036 SCT230 14/07 Q1030 NOSIG RMK PP000=
SPZO Mar2011-081600Z 09004KT 9999 FEW036 SCT060 BKN230 16/06 Q1029 NOSIG RMK PP000=
SPZO Mar2011-081700Z /////KT 9999 BKN046 BKN230 16/06 Q1029 NOSIG RMK PP000=
SPZO Mar2011-081800Z 30004KT 9999 SCT046 BKN060 17/04 Q1028 NOSIG RMK PP000=
SPZO Mar2011-081900Z 04005KT 9999 FEW040 SCT 046 BKN080 17/06 Q1027 NOSIG RMK PP000=
SPZO Mar2011-082000Z 35006KT 320V020 9999 FEW040 SCT046 BKN080 15/04 Q1027 NOSIG RMK PP000=
SPZO Mar2011-082100Z 00000KT 9999 FEW036 SCT046 BKN080 16/05 Q1027 NOSIG RMK PP000=
SPZO Mar2011-082200Z 00000KT 9999 FEW040TCU SCT046 BKN100 15/05 Q1027 NOSIG RMK TM 17.7 PP000=
SPZO Mar2011-082300Z 00000KT 9999 FEW040TCU SCT046 BKN100 14/04 Q1027 NOSIG RMK PP000=
SPZO Mar2011-090000Z /////KT 9999 BKN050 12/04 Q1029 RMK PP000=
SPZO Mar2011-090100Z /////KT 9999 BKN050 11/05 Q1030 RMK PP000=
SPZO Mar2011-090200Z /////KT 9999 BKN050 10/05 Q1031 RMK PP000=
SPZO Mar2011-090300Z /////KT 9999 BKN050 09/06 Q1032 RMK PP000=
SPZO Mar2011-090400Z /////KT 9999 BKN050 09/06 Q1031 RMK PP000=
SPZO Mar2011-090500Z /////KT 9999 BKN050 08/05 Q1031 RMK PP000=
SPZO Mar2011-090600Z /////KT 9999 BKN050 08/05 Q1030 RMK PP000=
SPZO Mar2011-090700Z /////KT 9999 BKN050 08/05 Q1030 RMK PP000=
SPZO Mar2011-090800Z /////KT 9999 BKN050 08/05 Q1029 RMK PP000=
SPZO Mar2011-090900Z /////KT 9999 BKN050 08/05 Q1029 RMK PP000=
SPZO Mar2011-091000Z /////KT 9999 SCT050 SCT060 08/06 Q1030 RMK PP000=
SPZO Mar2011-091100Z 00000KT 9999 FEW036 BKN060 08/06 Q1030 NOSIG RMK PP000=
SPZO Mar2011-091200Z 00000KT 9999 SCT046 BKN060 09/05 Q1031 NOSIG RMK PP000=
SPZO Mar2011-091224Z 00000KT 9999 FEW030 BKN080 10/06 Q1031=
SPZO Mar2011-091300Z 00000KT 9999 FEW030 BKN100 12/06 Q1031 NOSIG RMK PP000=
SPZO Mar2011-091400Z 00000KT 9999 FEW040 BKN100 14/05 Q1032 NOSIG RMK PP000=
SPZO Mar2011-091500Z 00000KT 9999 SCT040 BKN080 15/05 Q1031 NOSIG RMK PP000=
SPZO Mar2011-091600Z 00000KT 9999 SCT046 SCT100 17/06 Q1030 NOSIG RMK PP000=
SPZO Mar2011-091700Z 09003KT 9999 SCT050 18/04 Q1029 NOSIG RMK PP000=
SPZO Mar2011-091800Z 31009KT 280V340 9999 BKN050 19/06 Q1028 NOSIG RMK PP000=
SPZO Mar2011-091900Z 24009KT 9999 FEW043 SCT050TCU BKN070 16/05 Q1027 NOSIG RMK PP000=
SPZO Mar2011-092000Z 26012KT 220V290 9999 BKN050 19/06 Q1026 NOSIG RMK PP000=
SPZO Mar2011-092100Z 30006KT 9999 BKN050 16/05 Q1025 NOSIG RMK PP000=
SPZO Mar2011-092200Z 26011KT 9999 BKN050 17/06 Q1025 NOSIG RMK TMAX 19.4 PP000=
SPZO Mar2011-092300Z /////KT 9999 BKN050 15/06 Q1026 NOSIG RMK PP000=
SPZO Mar2011-100000Z /////KT 9999 BKN050 14/07 Q1027 RMK PP000=
SPZO Mar2011-100100Z /////KT 9999 SCT040 SCT060 14/06 Q1027 RMK PP000=
SPZO Mar2011-100200Z /////KT 9999 SCT040 SCT070 12/07 Q1028 RMK PP000=
SPZO Mar2011-100300Z /////KT 9999 -RA SCT040 BKN060 11/06 Q1030 RMK PP008=
SPZO Mar2011-100400Z /////KT 8000 -RA FEW033 SCT040 BKN060 09/07 Q1030 RMK PP038=
SPZO Mar2011-100500Z /////KT 8000 -RA FEW025 SCT040 BKN060 09/06 Q1030 RMK PP014=
SPZO Mar2011-100600Z /////KT 8000 RA FEW025 SCT040 BKN060 09/07 Q1030 RMK PP032=
SPZO Mar2011-100700Z /////KT 8000 RA FEW020 SCT033 BKN050 09/07 Q1029 RMK PP036=
SPZO Mar2011-100800Z /////KT 6000 RA FEW020 SCT033 BKN046 08/06 Q1029 RMK CLNG BLW 1200M PP032=
SPZO Mar2011-100900Z /////KT 6000 RA FEW015 SCT033 BKN046 08/06 Q1029 RMK CLNG BLW 1200M PP034=
SPZO Mar2011-101000Z /////KT 8000 -RA FEW025 SCT036 BKN050 08/06 Q1029 RMK CLNG BLW 1200M PP018=
SPZO Mar2011-101036Z 26004KT 9999 -RA FEW025 SCT036 OVC080 07/04 Q1030 BECMG FM1100 FEW025 SCT043 RMK CLNG BLW 1200M=
SPZO Mar2011-101100Z 00000KT 9999 -RA FEW025 SCT036 OVC080 07/04 Q1030 NOSIG RMK PP006=
SPZO Mar2011-101200Z 29004KT 9999 -RA FEW025 SCT036 OVC080 08/04 Q1031 BECMG NSW RMK PPTRZ=
SPZO Mar2011-101300Z 27006KT 9999 -RA SCT030 SCT040 OVC080 08/05 Q1031 NOSIG RMK PPTRZ=
SPZO Mar2011-101400Z 00000KT 9999 FEW030 SCT060 OVC100 10/04 Q1032 NOSIG RMK PPTRZ=
SPZO Mar2011-101500Z 00000KT 9999 FEW030 SCT100 BKN230 12/06 Q1031 NOSIG RMK PP000=
SPZO Mar2011-101600Z 00000KT 9999 SCT036 BKN100 15/06 Q1031 NOSIG RMK PP000=
SPZO Mar2011-101700Z 05001KT 9999 FEW036 SCT043 BKN100 15/06 Q1029 NOSIG RMK PP000=
SPZO Mar2011-101800Z /////KT 9999 FEW036 SCT046 BKN100 17/07 Q1028 NOSIG RMK PP000=
SPZO Mar2011-101900Z /////KT 9999 VCSH FEW036 SCT043 BKN080 17/07 Q1026 NOSIG RMK PP000=
SPZO Mar2011-101937Z /////KT 9999 VCSH FEW036 SCT043TCU BKN080 15/07 Q1026=
SPZO Mar2011-102000Z /////KT 9999 VCSH FEW036 SCT043CB BKN050 14/07 Q1026 TEMPO -SHRA RMK PP000=
SPZO Mar2011-102021Z /////KT 9000 -RA VCSH FEW033 SCT043CB BKN050 12/07 Q1027=
SPZO Mar2011-102100Z /////KT 9999 -RA VCSH FEW036 SCT043 BKN080 11/08 Q1027 BECMG NSW RMK PP014=
SPZO Mar2011-102200Z /////KT 9999 FEW046 SCT080 BKN230 12/08 Q1026 NOSIG RMK T.MAX 18.5 PPTRZ=
SPZO Mar2011-102300Z /////KT 9999 SCT046 SCT100 12/07 Q1027 NOSIG RMK PP000=
SPZO Mar2011-110000Z /////KT 9999 BKN100 12/07 Q1027 RMK PP000=
SPZO Mar2011-110100Z /////KT 9999 BKN150 11/06 Q1028 RMK PP000=
SPZO Mar2011-110200Z /////KT 9999 BKN100 11/07 Q1029 RMK PP000=
SPZO Mar2011-110300Z /////KT 9999 SCT050 BKN100 10/08 Q1030 RMK PP000=
SPZO Mar2011-110400Z /////KT 9999 RA SCT036 BKN046 10/08 Q1031 RMK PP030=
SPZO Mar2011-110500Z /////KT 9999 RA SCT032 BKN046 09/06 Q1031 RMK PP038=
SPZO Mar2011-110600Z /////KT 9999 -RA SCT033 BKN046 07/02 Q1031 RMK PP014=
SPZO Mar2011-110700Z /////KT 9999 SCT033 OVC046 07/03 Q1030 RMK PPTRZ=
SPZO Mar2011-110800Z /////KT 9999 SCT033 BKN046 07/03 Q1029 RMK PP000=
SPZO Mar2011-110900Z /////KT 9999 FEW025 SCT036 BKN046 07/04 Q1029 RMK PP000=
SPZO Mar2011-111000Z /////KT 9999 SCT036 BKN050 07/04 Q1029 RMK PP000=
SPZO Mar2011-111042Z /////KT 9999 FEW015 SCT036 BKN046 08/06 Q1029=
SPZO Mar2011-111100Z 00000KT 9999 FEW036 BKN046 BKN080 07/04 Q1029 NOSIG RMK PP000=
SPZO Mar2011-111200Z 11002KT 9999 FEW036 SCT046 OVC100 08/04 Q1030 NOSIG RMK PP000=
SPZO Mar2011-111300Z 07003KT 9999 FEW036 SCT043 OVC100 09/04 Q1031 NOSIG RMK PP000=
SPZO Mar2011-111324Z 00000KT 9999 SCT030 SCT100 14/08 Q1031=
SPZO Mar2011-111400Z 06002KT 9999 FEW033 SCT046 OVC100 11/03 Q1031 NOSIG RMK PP000=
SPZO Mar2011-111500Z 00000KT 9999 FEW036 SCT046 OVC100 12/04 Q1030 NOSIG RMK PP000=
SPZO Mar2011-111600Z 08002KT 9999 FEW036 SCT046 BKN100 13/05 Q1029 NOSIG RMK PP000=
SPZO Mar2011-111700Z 00000KT 9999 FEW036 SCT046 OVC100 15/07 Q1028 NOSIG RMK PP000=
SPZO Mar2011-111800Z 33003KT 9999 FEW036 BKN043 BKN080 15/05 Q1026 TEMPO=
SPZO Mar2011-111900Z 06003KT 9999 FEW036 BKN046 BKN080 15/05 Q1026 TEMPO=
SPZO Mar2011-112000Z 12006KT 9999 FEW040 BKN046 BKN080 16/05 Q1024 NOSIG RMK PP000=
SPZO Mar2011-112100Z 10012KT 060V130 9999 VCSH FEW030 SCT046TCU BKN060 13/08 Q1025 NOSIG RMK PPTRZ=
SPZO Mar2011-112200Z 09010KT 9999 VCSH FEW030 SCT046TCU BKN060 12/07 Q1025 NOSIG RMK TMAX 16.6 PP000=
SPZO Mar2011-112300Z 07007KT 9999 FEW030 SCT040 BKN050 10/07 Q1027 NOSIG RMK PP000=
SPZO Mar2011-120000Z /////KT 9999 SCT040 BKN050 10/07 Q1028 RMK PP000=
SPZO Mar2011-120100Z /////KT 9999 SCT040 SCT050 10/07 Q1029 RMK PP000=
SPZO Mar2011-120200Z /////KT 9999 -RA SCT040 BKN050 10/07 Q1030RMK PP002=
SPZO Mar2011-120300Z /////KT 9999 SCT040 BKN050 10/07 Q1030 RMK PP000=
SPZO Mar2011-120400Z /////KT 9999 SCT040 BKN050 10/07 Q1030 RMK PP000=
SPZO Mar2011-120500Z /////KT 9999 SCT040 BKN050 09/06 Q1030 RMK PP000=
SPZO Mar2011-120600Z /////KT 9999 SCT040 BKN050 09/06 Q1029 RMK PP000=
SPZO Mar2011-120700Z /////KT 9999 SCT040 BKN050 09/07 Q1029 RMK PP000=
SPZO Mar2011-120800Z /////KT 9999 SCT040 BKN050 08/06 Q1028 RMK PP000=
SPZO Mar2011-120900Z /////KT 9999 SCT040 BKN050 08/06 Q1028 RMK PP000=
SPZO Mar2011-121000Z /////KT 9999 FEW020 SCT050 BKN080 08/06 Q1028 RMK PP000=
SPZO Mar2011-121100Z 00000KT 9999 FEW015 SCT036 BKN046 08/06 Q1029 NOSIG RMK PP000=
SPZO Mar2011-121200Z 00000KT 9999 FEW010 SCT030 BKN040 09/07 Q1030 BECMG FEW030 SCT043 BKN060 RMK PP000=
SPZO Mar2011-121300Z 00000KT 9999 SCT020 SCT060 BKN080 11/06 Q1030 BECMG SCT030 BKN100 RMK PP000=
SPZO Mar2011-121324Z 00000KT 9999 SCT030 SCT100 14/08 Q1031=
SPZO Mar2011-121400Z 00000KT 9999 SCT030 SCT090 13/06 Q1031 NOSIG RMK PP000=
SPZO Mar2011-121500Z VRB01KT 9999 FEW030 SCT043 BKN080 14/06 Q1030 NOSIG RMK PP000=
SPZO Mar2011-121600Z 03005KT 330V080 9999 VCSH SCT043 FEW050TCU BKN080 14/07 Q1030 NOSIG RMK -SHRA BTN 1545-1550 PP002=
SPZO Mar2011-121700Z 04003KT 9999 VCSH SCT040 FEW050TCU BKN080 14/06 Q1029 TEMPO -SHRA RMK VIS 8000E PP000=
SPZO Mar2011-121715Z 00000KT 9999 -RA VCSH SCT040 SCT060TCU BKN080 11/07 Q1029=
SPZO Mar2011-121800Z 00000KT 9999 VCSH FEW043 FEW060TCU BKN080 13/07 Q1028 RESHRA NOSIG RMK PP028=
SPZO Mar2011-121900Z 12007KT 9999 VCSH FEW036 SCT060TCU BKN080 13/08 Q1027 TEMPO -SHRA RMK PP000=
SPZO Mar2011-122000Z 12004KT 9999 SCT046 BKN100 17/05 Q1026 TEMPO VCSH RMK -SHRA BTN 1920/1925 PP004=
SPZO Mar2011-122035Z 06012KT 9999 VCSH FEW030 SCT060TCU BKN080 15/07 Q1029 TEMPO -SHRA RMK VIS 8000E=
SPZO Mar2011-122100Z 11011KT 9999 -SHRA FEW030 SCT060TCU BKN080 13/07 Q1026 BECMG NSW RMK PP004=
SPZO Mar2011-122200Z 33005KT 9999 FEW040 BKN100 12/07 Q1026 NOSIG RMK TMAX 16.5 PP004=
SPZO Mar2011-122300Z 00000KT 9999 SCT043 BKN100 11/08 Q1026 NOSIG RMK PP000=
SPZO Mar2011-130000Z /////KT 9999 SCT040 BKN100 11/08 Q1027 RMK PP000=
SPZO Mar2011-130100Z /////KT 9999 FEW050 SCT080 11/08 Q1028 RMK PP000=
SPZO Mar2011-130200Z /////KT 9999 SCT043 SCT080 11/08 Q1029 RMK PP000=
SPZO Mar2011-130300Z /////KT 9999 SCT040 BKN050 11/08 Q1029 RMK PP000=
SPZO Mar2011-130400Z /////KT 9999 BKN043 SCT080 10/08 Q129 RMK PP000=
SPZO Mar2011-130500Z /////KT 9999 BKN043 SCT060 10/08 Q1029 RMK PP000=
SPZO Mar2011-130600Z /////KT 9999 BKN043 SCT100 10/08 Q1028 RMK PP000=
SPZO Mar2011-130700Z /////KT 9999 BKN040 SCT060 10/08 Q1028 RMK PP000=
SPZO Mar2011-130800Z /////KT 9999 SCT040 SCT100 10/08 Q1028 RMK PP000=
SPZO Mar2011-130900Z /////KT 9999 SCT040 SCT100 09/07 Q1028 RMK PP000=
SPZO Mar2011-131000Z /////KT 9999 FEW020 SCT043 BKN230 08/06 Q1028 RMK PP000=
SPZO Mar2011-131100Z 00000KT 9999 FEW036 SCT043 BKN230 08/06 Q1029 NOSIG RMK PP000=
SPZO Mar2011-131200Z 00000KT 9999 SCT040 SCT080 11/07 Q1030 NOSIG RMK PP000=
SPZO Mar2011-131300Z 09002KT 9999 SCT036 12/08 Q1030 NOSIG RMK PP000=
SPZO Mar2011-131400Z 00000KT 9999 SCT036 SCT080 15/07 Q1030 NOSIG RMK PP000=
SPZO Mar2011-131500Z 06002KT 9999 SCT040 SCT060 14/06 Q1030 NOSIG RMK PP000=
SPZO Mar2011-131600Z 10005KT 9999 SCT043 SCT080 17/08 Q1029 NOSIG RMK PP000=
SPZO Mar2011-131700Z 06004KT 9999 VCSH SCT043 SCT060 17/07 Q1028 NOSIG RMK PP000=
SPZO Mar2011-131800Z 00000KT 9999 FEW043 SCT060 BKN080 18/06 Q1026 NOSIG RMK PP000=
SPZO Mar2011-131900Z 27005KT 200V010 9999 SCT050 BKN100 18/07 Q1025 NOSIG RMK PP000=
SPZO Mar2011-132000Z VRB07KT 9999 SCT043 BKN150 17/05 Q1024 NOSIG RMK PP000=
SPZO Mar2011-132100Z 32005KT 220V340 9999 SCT050 BKN130 16/04000 Q1024 NOSIG RMK PP000=
SPZO Mar2011-132200Z 34008KT 9999 SCT050 BKN150 16/04 Q1025 NOSIG RMK TMAX 19.4 PP000=
SPZO Mar2011-132300Z 31006KT 9999 SCT050 BKN200 16/04 Q1025 NOSIG RMK PP000=
SPZO Mar2011-140000Z /////KT 9999 BKN050 13/06 Q1026 RMK PP000=
SPZO Mar2011-140100Z /////KT 9999 BKN050 11/07 Q1028 RMK PP000=
SPZO Mar2011-140200Z /////KT 9999 BKN050 11/06 Q1029 RMK PP000=
SPZO Mar2011-140300Z /////KT 9999 BKN050 09/06 Q1030 RMK PP000=
SPZO Mar2011-140400Z /////KT 9999 BKN050 09/06 Q1030 RMK PP000=
SPZO Mar2011-140500Z /////KT 9999 BKN050 09/06 Q1029 RMK PP000=
SPZO Mar2011-140600Z /////KT 9999 BKN050 09/07 Q1029 RMK PP000=
SPZO Mar2011-140700Z /////KT 9999 BKN050 09/07 Q1029 RMK PP000=
SPZO Mar2011-140800Z /////KT 9999 BKN050 09/07 Q1028 RMK PP000=
SPZO Mar2011-140900Z /////KT 9999 SCT050 SCT060 09/06 Q1028 RMK PP000=
SPZO Mar2011-141000Z /////KT 9999 SCT050 SCT060 09/06 Q1028 RMK PP000=
SPZO Mar2011-141100Z 00000KT 9999 SCT050 SCT060 08/06 Q1029 NOSIG RMK PP000=
SPZO Mar2011-141200Z 00000KT 9999 SCT040 BKN080 09/06 Q1030 NOSIG RMK PP000=
SPZO Mar2011-141300Z 00000KT 9999 FEW030 BKN060 12/07 Q1030 NOSIG RMK PP000=
SPZO Mar2011-141400Z 07005KT 060V120 9999 SCT036 13/07 Q1031 NOSIG RMK PP000=
SPZO Mar2011-141500Z 09006KT 9999 SCT050 15/05 Q1030 NOSIG RMK PP000=
SPZO Mar2011-141600Z 12004KT 9999 SCT050 SCT230 17/04 Q1029 NOSIG RMK PP000=
SPZO Mar2011-141700Z 30005KT 9999 FEW043 BKN060 18/05 Q1028 NOSIG RMK PP000=
SPZO Mar2011-141800Z 28007KT 9999 FEW043 SCT050 BKN230 18/05 Q1026 TEMPO=
SPZO Mar2011-141900Z 24005KT 9999 VCSH FEW043 SCT050TCU BKN100 16/05 Q1025 NOSIG RMK PP000=
SPZO Mar2011-141917Z 27015KT 9999 -RA VCSH FEW043 BKN050TCU BKN080 13/08 Q1025=
SPZO Mar2011-142000Z 29006KT 250V320 9999 FEW043 BKN050TCU BKN080 13/06 Q1025 TEMPO -SHRA RMK PP012=
SPZO Mar2011-142100Z 10003KT 060V160 9999 SCT060 OVC100 13/08 Q1025 RMK PP000=
SPZO Mar2011-142200Z 09005KT 9999 SCT050 OVC150 13/07 Q1026 RMK TMAX 18.5 PP000=
SPZO Mar2011-142300Z 00000KT 9999 FEW040 SCT043 OVC150 13/08 Q1027 NOSIG RMK PP000=
SPZO Mar2011-150000Z /////KT 9999 -RA FEW036 SCT043 OVC080 12/07 Q1028 RMK PPTRZ=
SPZO Mar2011-150100Z /////KT 9999 FEW036 SCT043 BKN080 11/08 Q1028 RMK RERA PPTRZ=
SPZO Mar2011-150200Z /////KT 9999 SCT043 BKN080 11/08 Q1029 RMK PP000=
SPZO Mar2011-150300Z /////KT 9999 SCT043 BKN080 11/08 Q1029 RMK PP000=
SPZO Mar2011-150400Z /////KT 9999 SCT043 BKN080 11/07 Q1029 RMK PP000=
SPZO Mar2011-150500Z /////KT 9999 SCT043 BKN080 11/07 Q1028 RMK PP000=
SPZO Mar2011-150600Z /////KT 9999 SCT043 BKN080 11/06 Q1028 RMK PP000=
SPZO Mar2011-150700Z /////KT 9999 SCT043 BKN080 11/07 Q1027 RMK PP000=
SPZO Mar2011-150800Z /////KT 9999 SCT043 SCT080 10/07 Q1027 RMK PP000=
SPZO Mar2011-150900Z /////KT 9999 SCT043 SCT080 08/06 Q1027 RMK PP000=
SPZO Mar2011-151000Z /////KT 9999 FEW030 SCT040 BKN080 08/06 Q1028 RMK PP000=
SPZO Mar2011-151100Z 00000KT 9999 SCT046 BKN080 09/06 Q1028 NOSIG RMK PP000=
SPZO Mar2011-151200Z 00000KT 9999 SCT043 BKN060 09/06 Q1029 NOSIG RMK PP000=
SPZO Mar2011-151300Z 00000KT 9999 BKN043 SCT060 11/06 Q1030 NOSIG RMK PP000=
SPZO Mar2011-151400Z 09003KT 9999 FEW033 BKN060 13/07 Q1030 NOSIG RMK PP000=
SPZO Mar2011-151500Z 05003KT 360V080 9999 VCSH FEW033 SCT046 BKN080 14/05 Q1030 RMK=
SPZO Mar2011-151506Z 33005KT 210V030 9999 -SHRA FEW033 SCT046TCU BKN080 13/05 Q1030=
SPZO Mar2011-151529Z 33003KT 9999 FEW036 SCT046 BKN060 14/06 Q1030=
SPZO Mar2011-151600Z 00000KT 9999 FEW036 SCT046 BKN080 15/06 Q1029 TEMPO=
SPZO Mar2011-151700Z 36011KT 9999 VCSH FEW030 SCT046TCU BKN060 15/07 Q1029 TEMPO -SHRA RMK VIS 8000E PP000=
SPZO Mar2011-151718Z 31003KT 9999 -SHRA FEW030 SCT046 BKN080 12/07 Q1029=
SPZO Mar2011-151800Z 00000KT 9999 FEW036 SCT050 BKN080 15/08 Q1028 NOSIG RMK PP008=
SPZO Mar2011-151900Z 00000KT 9999 FEW036 SCT046TCU BKN080 16/05 Q1027 TEMPO VCSH RMK PP000=
SPZO Mar2011-152000Z 35010KT 9999 -SHRA FEW036 SCT043TCU BKN050 13/07 Q1026 BECMG FM2030 NSW RMK PP014=
SPZO Mar2011-152030Z 07010KT 9999 FEW036 SCT046 BKN060 13/08 Q1026=
SPZO Mar2011-152100Z 28009KT 9999 VCSH FEW036 SCT046 BKN060 14/07 Q1026 NOSIG RMK PP002=
SPZO Mar2011-152200Z 27009KT 9999 FEW036 SCT043 BKN050 14/07 Q1026 NOSIG RMK T.MAX 17.9 PP000=
SPZO Mar2011-152300Z /////KT 9999 VCSH FEW036 SCT043 BKN060 12/07 Q1027 NOSIG RMK PP000=
SPZO Mar2011-160000Z /////KT 9999 FEW036 SCT040 BKN070 11/07 Q1028 RMK PP000=
SPZO Mar2011-160100Z /////KT 9999 BKN150 11/08 Q1029 RMK PP000=
SPZO Mar2011-160200Z /////KT 9999 SCT150 10/07 Q1030 RMK PP000=
SPZO Mar2011-160300Z /////KT 9999 BKN100 10/07 Q1030 RMK PP000=
SPZO Mar2011-160400Z /////KT 9999 -RA SCT040 BKN080 10/07 Q1030 RMK PPTRZ=
SPZO Mar2011-160500Z /////KT 9999 SCT036 BKN060 10/07 Q1030 RMK PP000=
SPZO Mar2011-160600Z /////KT 9999 SCT036 BKN060 10/07 Q1030 RMK PP000=
SPZO Mar2011-160700Z /////KT 9999 SCT046 BKN080 10/07 Q1029 RMK PP000=
SPZO Mar2011-160800Z /////KT 9999 SCT046 BKN100 10/07 Q1028 RMK PP000=
SPZO Mar2011-160900Z /////KT 9999 SCT046 BKN100 09/07 Q1029 RMK PP000=
SPZO Mar2011-161000Z /////KT 9999 SCT036 BKN060 09/07 Q1029 RMK PP000=
SPZO Mar2011-161043Z 00000KT 9999 -DZ VCSH FEW030 SCT033 BKN043 10/07 Q1030 RMK VIS 7000E=
SPZO Mar2011-161120Z 00000KT 8000 -RA VCSH FEW020 SCT036 BKN043 10/08 Q1030 TEMPO 7000 RMK VIS 7000E=
SPZO Mar2011-161143Z 00000KT 9999 -DZ VCSH FEW030 SCT033 BKN043 10/07 Q1030 RMK VIS 7000E=
SPZO Mar2011-161200Z 00000KT 9999 VCSH FEW015 SCT043 BKN080 10/08 Q1031 NOSIG RMK PP008=
SPZO Mar2011-161300Z 00000KT 9999 FEW030 SCT046 BKN080 14/08 Q1031 NOSIG RMK PP000=
SPZO Mar2011-161400Z 12003KT 9999 FEW030 SCT043 BKN060 13/07 Q1031 NOSIG RMK PP000=
SPZO Mar2011-161500Z 06003KT 9999 FEW036 SCT043 BKN080 14/07 Q1031 TEMPO=
SPZO Mar2011-161600Z 33003KT 9999 VCSH FEW036 SCT046 BKN080 16/07 Q1031 NOSIG RMK PP000=
SPZO Mar2011-161700Z 23005KT 9999 SCT036 SCT100 15/07 Q1030 NOSIG RMK PP000=
SPZO Mar2011-161800Z 35004KT 330V120 9999 SCT043 SCT100 19/04 Q1028 NOSIG RMK PP000=
SPZO Mar2011-161900Z 04008KT 330V080 9999 FEW040 SCT060 17/06 Q1027 NOSIG RMK PP000=
SPZO Mar2011-162000Z 33009KT 260V020 9999 FEW040 SCT050 19/07 Q1025 NOSIG RMK PP000=
SPZO Mar2011-162100Z 36009KT 310V070 9999 FEW040 SCT050 19/07 Q1025 NOSIG RMK PP000=
SPZO Mar2011-162200Z /////KT 9999 VCSH SCT043 FEW050TCU 17/06 Q1025 NOSIG RMK TMAX 20.0 PP000=
SPZO Mar2011-162300Z /////KT 9999 FEW040 BKN050 17/06 Q1026 NOSIG RMK PP000=
SPZO Mar2011-170000Z /////KT 9999 SCT040 16/05 Q1027 RMK PP000=
SPZO Mar2011-170100Z /////KT 9999 SCT040 14/06 Q1028 RMK PP000=
SPZO Mar2011-170200Z /////KT 9999 SCT040 14/06 Q1028 RMK PP000=
SPZO Mar2011-170300Z /////KT 9999 SCT040 SCT050 12/07 Q1030 RMK PP000=
SPZO Mar2011-170400Z /////KT 9999 SCT040 SCT050 12/07 Q1030 RMK PP000=
SPZO Mar2011-170500Z /////KT 9999 SCT040 SCT050 11/07 Q1030 RMK PP000=
SPZO Mar2011-170600Z /////KT 9999 SCT040 SCT050 11/08 Q1029 RMK PP000=
SPZO Mar2011-170700Z /////KT 9999 SCT040 SCT050 11/07 Q1029 RMK PP000=
SPZO Mar2011-170800Z /////KT 9999 SCT040 SCT050 10/08 Q1029 RMK PP000=
SPZO Mar2011-170900Z /////KT 9999 SCT040 SCT050 10/07 Q1029 RMK PP000=
SPZO Mar2011-171000Z /////KT 9999 SCT040 SCT050 11/07 Q1029 RMK PP000=
SPZO Mar2011-171100Z /////KT 9999 FEW040 SCT043 BKN080 10/07 Q1030 NOSIG RMK PP000=
SPZO Mar2011-171200Z 00000KT 9999 FEW030 SCT043 BKN080 11/07 Q1031 NOSIG RMK PP000=
SPZO Mar2011-171300Z 00000KT 9999 SCT033 BKN100 13/06 Q1032 NOSIG RMK PP000=
SPZO Mar2011-171400Z 09003KT 9999 SCT036 SCT230 15/06 Q1032 NOSIG RMK PP000=
SPZO Mar2011-171500Z 08002KT 9999 FEW040 SCT050 16/05 Q1031 NOSIG RMK PP000=
SPZO Mar2011-171600Z 15002KT 9999 FEW040 BKN050 19/04 Q1030 NOSIG RMK PP000=
SPZO Mar2011-171700Z 07006KT 9999 SCT050 SCT080 18/04 Q1029 NOSIG RMK PP000=
SPZO Mar2011-171800Z 06005KT 9999 FEW040 SCT060 21/08 Q1027 NOSIG RMK PP000=
SPZO Mar2011-171900Z 09005KT 9999 FEW040 BKN060 19/06 Q1026 NOSIG RMK PP000=
SPZO Mar2011-172000Z 27005KT 220V300 9999 SCT050 SCT230 18/08 Q1025 NOSIG RMK PP000=
SPZO Mar2011-172100Z 33005KT 9999 SCT050 BKN230 19/05 Q1024 NOSIG RMK PP000=
SPZO Mar2011-172200Z 03007KT 9999 VCSH FEW043 SCT050TCU BKN230 19/08 Q1024 NOSIG RMK TMAX.20.6 PP000=
SPZO Mar2011-172300Z 19010KT 9999 SCT043 BKN100 15/09 Q1025 RERA NOSIG RMK PP058=
SPZO Mar2011-180000Z /////KT 9999 SCT046 SCT100 13/10 Q1026 RMK PP000=
SPZO Mar2011-180100Z /////KT 9999 SCT043 SCT060 13/09 Q1028 RMK PP000=
SPZO Mar2011-180200Z /////KT 9999 SCT046 SCT080 13/10 Q1029 RMK PP000=
SPZO Mar2011-180300Z /////KT 9999 SCT043 SCT080 12/09 Q1030 RMK PP000=
SPZO Mar2011-180400Z /////KT 9999 FEW050 SCT08011/08 Q1030 RMK PP000=
SPZO Mar2011-180500Z /////KT 9999 BKN043 SCT060 10/08 Q1030 RMK PP000=
SPZO Mar2011-180600Z /////KT 9999 BKN040 SCT050 11/08 Q1029 RMK PP000=
SPZO Mar2011-180700Z /////KT 9999 BKN040 SCT046 10/08 Q1029 RMK PP000=
SPZO Mar2011-180800Z /////KT 9999 OVC040 11/08 Q1029 RERA RMK PP004=
SPZO Mar2011-180900Z /////KT 9999 FEW020 SCT036 BKN043 10/08 Q1029 RMK PP000=
SPZO Mar2011-181000Z /////KT 9999 FEW020 SCT040 BKN046 10/07 Q1029 RMK PP000=
SPZO Mar2011-181100Z 00000KT 9999 FEW020 SCT043 BKN080 11/07 Q1030 NOSIG RMK PP000=
SPZO Mar2011-181200Z 24003KT 9999 FEW030 SCT043 OVC100 11/07 Q1031 NOSIG RMK PP000=
SPZO Mar2011-181300Z 00000KT 9999 FEW030 SCT100 OVC230 12/06 Q1032 NOSIG RMK PP000=
SPZO Mar2011-181400Z 00000KT 9999 SCT040 OVC230 14/06 Q1032 NOSIG RMK PP000=
SPZO Mar2011-181500Z 00000KT 9999 SCT046 BKN230 15/06 Q1032 NOSIG RMK PP000=
SPZO Mar2011-181600Z 00000KT 9999 SCT050 BKN230 17/05 Q1031 NOSIG RMK PP000=
SPZO Mar2011-181700Z 00000KT 9999 SCT050 OVC230 18/06 Q1030 NOSIG RMK PP000=
SPZO Mar2011-181800Z 08005KT 9999 BKN050 OVC230 17/07 Q1029 NOSIG RMK PP000=
SPZO Mar2011-181900Z 32007KT 9999 BKN050 OVC230 19/03 Q1027 NOSIG RMK PP000=
SPZO Mar2011-182000Z 34009KT 9999 BKN050 BKN230 19/03 Q1026 NOSIG RMK PP000=
SPZO Mar2011-182100Z 36009KT 9999 SCT050 BKN230 19/03 Q1025 NOSIG RMK PP000=
SPZO Mar2011-182200Z 35008KT 320V030 9999 FEW050 BKN230 18/04 Q1026 NOSIG RMK PP000=
SPZO Mar2011-182300Z 28008KT 9999 FEW050 BKN230 15/04 Q1027 NOSIG RMK PP000=
SPZO Mar2011-190000Z /////KT 9999 SCT050 14/06 Q1028 RMK PP000=
SPZO Mar2011-190100Z /////KT 9999 BKN050 12/07 Q1029 RMK PP000=
SPZO Mar2011-190200Z /////KT 9999 BKN050 12/07 Q1031 RMK PP000=
SPZO Mar2011-190300Z /////KT 9999 BKN050 11/07 Q1032 RMK PP000=
SPZO Mar2011-190400Z /////KT 9999 BKN050 12/07 Q1032 RMK PP000=
SPZO Mar2011-190500Z /////KT 9999 BKN050 11/07 Q1031 RMK PP000=
SPZO Mar2011-190600Z /////KT 9999 BKN050 11/08 Q1030 RMK PP000=
SPZO Mar2011-190700Z /////KT 9999 BKN050 11/07 Q1030 RMK PP000=
SPZO Mar2011-190800Z /////KT 9999 BKN050 10/07 Q1030 RMK PP000=
SPZO Mar2011-190900Z /////KT 9999 SCT050 SCT060 10/08 Q1030 RMK PP000=
SPZO Mar2011-191000Z /////KT 9000 -DZ SCT050 SCT060 10/08 Q1030 RMK PP002=
SPZO Mar2011-191039Z /////KT 9999 SCT050 SCT060 10/07 Q1030 REDZ=
SPZO Mar2011-191100Z 00000KT 9999 SCT060 BKN100 10/07 Q1030 NOSIG RMK PPTRZ=
SPZO Mar2011-191200Z 00000KT 9999 FEW060 SCT1000 BKN2300 10/08 Q10314 NOSIG RMK PP000=
SPZO Mar2011-191300Z 00000KT 9999 FEW046 OVC230 13/06 Q1032 NOSIG RMK PP000=
SPZO Mar2011-191400Z 00000KT 9999 FEW050 BKN230 14/06 Q1032 NOSIG RMK PP000=
SPZO Mar2011-191500Z 00000KT 9999 SCT046 BKN230 16/04 Q1032 NOSIG RMK PP000=
SPZO Mar2011-191600Z 03003KT 9999 SCT046 BKN230 17/05 Q1031 NOSIG RMK PP000=
SPZO Mar2011-191700Z 02009KT 9999 SCT050 BKN230 18/04 Q1030 NOSIG RMK PP000=
SPZO Mar2011-191800Z 01005KT 9999 SCT050 SCT230 19/03 Q1029 NOSIG RMK PP000=
SPZO Mar2011-191900Z 01009KT 9999 SCT043 BKN080 19/05 Q1027 NOSIG RMK PP000=
SPZO Mar2011-192000Z 36013KT 330V030 9999 FEW040 BKN230 18/04 Q1026 TEMPO RA RMK PP000=
SPZO Mar2011-192100Z 02014KT 9999 FEW036 OVC100 16/04 Q1026 TEMPO RA RMK PP000=
SPZO Mar2011-192200Z 04010KT 9999 FEW036 OVC100 16/04 Q1026 NOSIG RMK T MAX 19.3 PP000=
SPZO Mar2011-192300Z /////KT 9999 OVC100 15/05 Q1027 NOSIG RMK PP000=
SPZO Mar2011-200000Z /////KT 9999 FEW046 OVC100 13/05 Q1028 RMK PP000=
SPZO Mar2011-200100Z /////KT 9999 SCT046 BKN100 13/05 Q1029 RMK PP000=
SPZO Mar2011-200200Z /////KT 9999 SCT050 BKN100 13/06 Q1030 RMK PP000=
SPZO Mar2011-200300Z /////KT 9999 SCT050 BKN080 12/07 Q1031 RMK PP000=
SPZO Mar2011-200400Z /////KT 9999 SCT050 BKN080 11/07 Q1031 RMK PP000=
SPZO Mar2011-200500Z /////KT 9999 SCT050 BKN080 11/07 Q1031 RMK PP000=
SPZO Mar2011-200600Z /////KT 9999 SCT040 SCT080 11/07 Q1031 RMK PP000=
SPZO Mar2011-200700Z /////KT 9999 SCT040 BKN060 11/06 Q1030 RMK PP000=
SPZO Mar2011-200800Z /////KT 9999 SCT040 BKN060 10/06 Q1030 RMK RERA PP002=
SPZO Mar2011-200900Z /////KT 9999 SCT040 BKN060 10/06 Q1030 RMK PP000=
SPZO Mar2011-201000Z /////KT 9999 SCT040 BKN060 11/07 Q1030 RMK PP000=
SPZO Mar2011-201100Z 11003KT 9999 FEW033 SCT050 OVC080 10/07 Q1031 NOSIG RMK PP000=
SPZO Mar2011-201127Z 09004KT 9999 MIFG FEW020 SCT036 OVC080 10/07 Q1031=
SPZO Mar2011-201200Z 00000KT 9999 MIFG FEW020 SCT043 OVC080 10/07 Q1031 NOSIG RMK PP000=
SPZO Mar2011-201300Z 00000KT 9999 FEW020 SCT040 BKN080 12/06 Q1032 NOSIG RMK PP000=
SPZO Mar2011-201400Z 09006KT 9999 FEW020 SCT036 BKN100 14/07 Q1032 NOSIG RMK PP000=
SPZO Mar2011-201500Z 09007KT 9999 SCT040 BKN080 15/07 Q1032 NOSIG RMK PP000=
SPZO Mar2011-201600Z 06005KT 9999 VCSH FEW040 SCT050 BKN080 15/06 Q1032 NOSIG RMK PP000=
SPZO Mar2011-201700Z 00000KT 9999 SCT050 BKN080 16/06 Q1031 NOSIG RMK PP000=
SPZO Mar2011-201800Z 00000KT 9999 SCT046 SCT100 17/06 Q1029 NOSIG RMK PP000=
SPZO Mar2011-201900Z 30003KT 9999 VCSH FEW040 SCT050 BKN100 19/05 Q1028 NOSIG RMK PP000=
SPZO Mar2011-202000Z 36011KT 9999 VCSH FEW040TCU SCT046 BKN080 18/04 Q1027 TEMPO -RA RMK PP000=
SPZO Mar2011-202100Z 36009KT 9999 SCT046 BKN100 18/06 Q1026 TEMPO -RA RMK PP000=
SPZO Mar2011-202200Z 33008KT 9999 SCT043TCU BKN080 17/05 Q1026 NOSIG RMK T.MAX 19.2 PP000=
SPZO Mar2011-202300Z /////KT 9999 VCSH FEW040TCU SCT046 BKN070 16/06 Q1027 RMK PP000=
SPZO Mar2011-210000Z /////KT 9999 FEW036 BKN060 14/07 Q1028 RMK PP000=
SPZO Mar2011-210100Z /////KT 9999 SCT050 BKN230 13/07 Q1028 RMK PP000=
SPZO Mar2011-210200Z /////KT 9999 SCT080 12/07 Q1029 RMK PP000=
SPZO Mar2011-210300Z /////KT 9999 BKN080 12/07 Q1030 RMK PP000=
SPZO Mar2011-210400Z /////KT 9999 BKN050 12/07 Q1030 RMK PP000=
SPZO Mar2011-210500Z /////KT 9999 BKN050 11/08 Q1030 RMK PP000=
SPZO Mar2011-210600Z /////KT 9999 SCT050 BKN080 11/08 Q1029 RMK PP000=
SPZO Mar2011-210700Z /////KT 9999 SCT040 BKN100 11/07 Q1029 RMK PP000=
SPZO Mar2011-210800Z /////KT 9999 SCT036 BKN050 11/07 Q1029 RERA RMK PP004=
SPZO Mar2011-210900Z /////KT 9999 FEW030 SCT036 BKN050 11/08 Q1028 RMK PP000=
SPZO Mar2011-211000Z 00000KT 9999 VCSH FEW030 SCT036 BKN046 10/08 Q1029 RMK PP000=
SPZO Mar2011-211200Z 00000KT 9999 FEW020 SCT043 BKN080 11/08 Q1030 NOSIG RMK PP010=
SPZO Mar2011-211300Z 00000KT 9999 FEW030 SCT046 BKN230 14/07 Q1030 NOSIG RMK PP000=
SPZO Mar2011-211400Z 05004KT 9999 FEW036 SCT050 14/07 Q1030 NOSIG RMK PP000=
SPZO Mar2011-211500Z 05003KT 9999 FEW036 BKN050 15/08 Q1030 NOSIG RMK PP000=
SPZO Mar2011-211600Z 00000KT 9999 FEW036 BKN050 15/07 Q1030 TEMPO -RA RMK PP000=
SPZO Mar2011-211700Z 29002KT 9999 FEW040 SCT060 17/07 Q1029 NOSIG RMK PP000=
SPZO Mar2011-211800Z 11002KT 9999 VCSH SCT030 BKN050 18/04 Q1027 NOSIG RMK PP000=
SPZO Mar2011-211900Z 03005KT 9999 VCSH SCT040 BKN050 18/05 Q1026 NOSIG RMK PP000=
SPZO Mar2011-212000Z 25005KT 210V300 9999 VCSH FEW040 BKN053 18/05 Q1025 NOSIG RMK PP000=
SPZO Mar2011-212100Z 00000KT 9999 BKN050 SCT230 16/06 Q1024 NOSIG RMK PP000=
SPZO Mar2011-212200Z 27008KT 9999 SCT050 SCT100 16/06 Q1024 NOSIG RMK -SHRA BTN 2115-2120 TMAX 18.7 PP004=
SPZO Mar2011-212300Z /////KT 9999 SCT050 SCT100 15/07 Q1025 NOSIG RMK PP000=
SPZO Mar2011-220000Z /////KT 9999 SCT040 SCT050 15/07 Q1026 RMK PP000=
SPZO Mar2011-220100Z /////KT 9999 SCT040 SCT050 14/06 Q1027 RMK PP000=
SPZO Mar2011-220200Z /////KT 9999 -RA SCT040TCU SCT046 13/07 Q1028 RMK PP028=
SPZO Mar2011-220300Z /////KT 9999 RA SCT040 SCT043 11/08 Q1029 RMK PP040=
SPZO Mar2011-220400Z /////KT 9999 RA SCT040 SCT050 10/08 Q1030 RMK PP014=
SPZO Mar2011-220500Z /////KT 9999 RA FEW030 BKN040 09/06 Q1030 RMK PP018=
SPZO Mar2011-220600Z /////KT 9999 -RA FEW030 BKN040 08/06 Q1029 RMK PP006=
SPZO Mar2011-220700Z /////KT 9999 FEW030 BKN040 08/06 Q1029 RMK PPTRZ=
SPZO Mar2011-220800Z /////KT 9999 -RA SCT030 SCT040 08/06 Q1028 RMK PP002=
SPZO Mar2011-220900Z /////KT 9999 -RA SCT030 SCT040 08/06 Q1028 RMK PP002=
SPZO Mar2011-221000Z /////KT 9999 SCT020 BKN043 08/06 Q1028 RMK PPTRZ=
SPZO Mar2011-221100Z 00000KT 9999 VCSH FEW020 SCT033 OVC080 08/06 Q1029 NOSIG RMK PP000=
SPZO Mar2011-221132Z 00000KT 9000 VCSH FEW010 SCT020 OVC040 09/06 Q1029=
SPZO Mar2011-221200Z 00000KT 9999 VCSH FEW020 SCT033 OVC046 09/07 Q1030 TEMPO FM121=
SPZO Mar2011-221300Z 00000KT 9999 FEW025 SCT036 BKN060 11/07 Q1030 BECMG FEW030 SCT040 BKN080 RMK PP000=
SPZO Mar2011-221400Z 00000KT 9999 FEW030 SCT040 BKN080 12/05 Q1030 NOSIG RMK PP000=
SPZO Mar2011-221500Z VRB01KT 9999 FEW030 SCT043 BKN080 13/07 Q1030 NOSIG RMK PP000=
SPZO Mar2011-221600Z 09002KT 9999 FEW036 SCT046 BKN080 14/08 Q1030 NOSIG RMK PP000=
SPZO Mar2011-221700Z 05004KT 010V120 9999 VCSH FEW036 BKN046 15/08 Q1029 NOSIG RMK PP000=
SPZO Mar2011-221800Z 27005KT 9999 FEW033 SCT046 BKN080 16/08 Q1028 NOSIG RMK PP000=
SPZO Mar2011-221900Z 29008KT 9999 VCSH FEW043 SCT050 17/08 Q1026 NOSIG RMK PP000=
SPZO Mar2011-222000Z 32005KT 9999 SCT050 SCT080 18/06 Q1025 NOSIG RMK PP000=
SPZO Mar2011-222100Z 32003KT 9999 SCT050 SCT080 18/06 Q1024 NOSIG RMK PP000=
SPZO Mar2011-222200Z 30009KT 9999 FEW040 SCT050 BKN100 17/06 Q1024 NOSIG RMK TMAX. 19.1 PP000=
SPZO Mar2011-222300Z 28004KT 9999 FEW040 SCT050 BKN100 16/08 Q1024 NOSIG RMK PP000=
SPZO Mar2011-230000Z /////KT 9999 BKN040 SCT050 14/07 Q1026 RMK PP000=
SPZO Mar2011-230100Z /////KT 9999 BKN040 SCT046 14/08 Q1027 RMK PP000=
SPZO Mar2011-230200Z /////KT 9999 SCT046 SCT080 14/08 Q1028 RMK PP000=
SPZO Mar2011-230300Z /////KT 9999 SCT043 SCT080 13/09 Q1029 RMK PP000=
SPZO Mar2011-230400Z /////KT 9999 SCT043 SCT060 12/08 Q1029 RMK PP000=
SPZO Mar2011-230500Z /////KT 9999 SCT036 BKN043 12/07 Q1029 RMK PP000=
SPZO Mar2011-230600Z /////KT 9999 BKN040 SCT060 12/06 Q1029 RMK PP000=
SPZO Mar2011-230700Z /////KT 9999 BKN043 SCT060 11/06 Q1029 RMK PP000=
SPZO Mar2011-230800Z /////KT 9999 SCT043 SCT060 11/06 Q1029 RMK PP000=
SPZO Mar2011-230900Z /////KT 9000 -RA BKN040 SCT046 10/07 Q1029 RMK PP002=
SPZO Mar2011-231000Z /////KT 9999 FEW033 SCT040 BKN046 10/06 Q1029 RMK PP000=
SPZO Mar2011-231100Z /////KT 9999 VCSH FEW030 SCT036 BKN080 10/07 Q1030 TEMPO FEW030 SCT036 BKN060 RMK PP000=
SPZO Mar2011-231200Z 00000KT 9999 VCSH FEW033 SCT040 BKN060 10/08 Q1030 NOSIG RMK -SHRA BTN 1115/1120 PP002=
SPZO Mar2011-231300Z 08004KT 9999 FEW036 SCT043 BKN080 11/07 Q1031 NOSIG RMK PP000=
SPZO Mar2011-231400Z 10003KT 9999 FEW030 SCT043 BKN070 12/06 Q1031 NOSIG RMK PP000=
SPZO Mar2011-231500Z 09006KT 9999 SCT036 SCT100 15/08 Q1031 NOSIG RMK PP000=
SPZO Mar2011-231600Z 08007KT 9999 SCT040 SCT100 14/06 Q1030 NOSIG RMK PP000=
SPZO Mar2011-231700Z 31002KT 9999 SCT046 SCT100 17/07 Q1029 NOSIG RMK PP000=
SPZO Mar2011-231800Z 02005KT 9999 VCSH BKN050 18/05 Q1028 NOSIG RMK PP000=
SPZO Mar2011-231900Z 09008KT 9999 VCSH FEW046 BKN080 17/07 Q1027 NOSIG RMK PP000=
SPZO Mar2011-232000Z 11007KT 9999 VCSH SCT060 17/06 Q1025 NOSIG RMK PP000=
SPZO Mar2011-232100Z 17002KT 9999 FEW046 SCT230 18/04 Q1025 NOSIG RMK PP000=
SPZO Mar2011-232200Z 34004KT 9999 FEW040 SCT230 18/06 Q1025 NOSIG RMK TMAX 18.4 PP000=
SPZO Mar2011-232300Z /////KT 9999 SCT050 16/03 Q1025 NOSIG RMK PP000=
SPZO Mar2011-240000Z /////KT 9999 BKN050 15/06 Q1027 RMK PP000=
SPZO Mar2011-240100Z /////KT 9999 BKN050 14/07 Q1028 RMK PP000=
SPZO Mar2011-240200Z /////KT 9999 BKN050 13/07 Q1029 RMK PP000=
SPZO Mar2011-240300Z /////KT 9999 BKN050 13/06 Q1030 RMK PP000=
SPZO Mar2011-240400Z /////KT 9999 BKN050 13/07 Q1030 RMK PP000=
SPZO Mar2011-240500Z /////KT 9999 BKN050 12/06 Q1030 RMK PP000=
SPZO Mar2011-240600Z /////KT 9999 BKN050 12/05 Q1029 RMK PP000=
SPZO Mar2011-240700Z /////KT 9999 BKN050 10/06 Q1029 RMK PP000=
SPZO Mar2011-240800Z /////KT 9999 BKN050 09/06 Q1029 RMK PP000=
SPZO Mar2011-240900Z /////KT 9999 SCT050 09/06 Q1029 RMK PP000=
SPZO Mar2011-241000Z /////KT 9999 SCT050 08/05 Q1029 RMK PP000=
SPZO Mar2011-241035Z /////KT 9999 SCT050 08/05 Q1030=
SPZO Mar2011-241100Z 00000KT 9999 FEW050 08/05 Q1030 NOSIG RMK PP000=
SPZO Mar2011-241200Z 00000KT 9999 FEW230 10/06 Q1031 NOSIG RMK PP000=
SPZO Mar2011-241300Z 00000KT 9999 FEW046 13/05 Q1031 NOSIG RMK PP000=
SPZO Mar2011-241400Z 36002KT 9999 FEW040 15/06 Q1032 NOSIG RMK PP000=
SPZO Mar2011-241500Z 03002KT 340V070 9999 SCT046 16/06 Q1031 NOSIG RMK PP000=
SPZO Mar2011-241600Z VRB02KT 9999 SCT050 17/05 Q1031 NOSIG RMK PP000=
SPZO Mar2011-241700Z VRB02KT 9999 SCT050 18/05 Q1029 NOSIG RMK PP000=
SPZO Mar2011-241800Z 35003KT 9999 SCT050 19/03 Q1028 NOSIG RMK PP000=
SPZO Mar2011-241900Z 28004KT 210V350 9999 SCT050 21/07 Q1026 NOSIG RMK PP000=
SPZO Mar2011-242000Z 36011KT 9999 FEW050 SCT230 21/04 Q1025 NOSIG RMK PP000=
SPZO Mar2011-242100Z 02010KT 9999 FEW040TCU SCT050 BKN100 19/05 Q1025 TEMPO -RA RMK PP000=
SPZO Mar2011-242200Z 02011KT 9999 FEW040 OVC080 17/05 Q1026 TEMPO -RA RMK TMAX 21.0 PP000=
SPZO Mar2011-242300Z /////KT 9999 SCT050 OVC080 15/04 Q1027 TEMPO -RA RMK PP000=
SPZO Mar2011-250000Z /////KT 9999 SCT050 OVC080 13/03 Q1030 RMK PP000=
SPZO Mar2011-250100Z /////KT 9999 SCT050 OVC080 12/03 Q1031 RMK PP000=
SPZO Mar2011-250200Z /////KT 9999 SCT050 BKN100 12/03 Q1031 RMK PP000=
SPZO Mar2011-250300Z /////KT 9999 SCT040 BKN100 12/04 Q1032 RMK PP000=
SPZO Mar2011-250400Z /////KT 9999 SCT040 BKN060 12/04 Q1032 RMK PP000=
SPZO Mar2011-250500Z /////KT 9999 SCT040 BKN060 11/05 Q1032 RMK PP000=
SPZO Mar2011-250600Z /////KT 9999 SCT040 BKN060 11/05 Q1031 RMK PP000=
SPZO Mar2011-250700Z /////KT 9999 SCT040 SCT060 11/05 Q1031 RMK PP000=
SPZO Mar2011-250800Z /////KT 9999 SCT040 BKN060 11/06 Q1031 RMK PP000=
SPZO Mar2011-250900Z /////KT 9999 FEW036 SCT046 BKN080 10/06 Q1031 RMK PP000=
SPZO Mar2011-251000Z /////KT 9999 FEW036 SCT046 BKN080 10/06 Q1031 RMK PP000=
SPZO Mar2011-251100Z 00000KT 9999 SCT046 BKN080 09/06 Q1031 NOSIG RMK PP000=
SPZO Mar2011-251200Z 00000KT 9999 SCT060 OVC080 09/06 Q1032 NOSIG RMK PP000=
SPZO Mar2011-251300Z 00000KT 9999 FEW020 SCT050 OVC080 11/06 Q1033 NOSIG RMK PP000=
SPZO Mar2011-251400Z 00000KT 9999 FEW030 SCT046 BKN080 13/06 Q1033 NOSIG RMK PP000=
SPZO Mar2011-251500Z 00000KT 9999 SCT050 BKN080 14/05 Q1033 NOSIG RMK PP000=
SPZO Mar2011-251600Z 05004KT 360V090 9999 FEW050 BKN080 15/04 Q1033 NOSIG RMK PP000=
SPZO Mar2011-251700Z 17003KT 9999 SCT050 17/06 Q1031 NOSIG RMK PP000=
SPZO Mar2011-251800Z VRB02KT 9999 FEW040 SCT050 18/06 Q1030 NOSIG RMK PP000=
SPZO Mar2011-251900Z 24002KT 9999 FEW040 SCT060 18/05 Q1028 NOSIG RMK PP000=
SPZO Mar2011-252000Z 32010KT 9999 SCT060 21/04 Q1027 NOSIG RMK PP000=
SPZO Mar2011-252100Z 29008KT 9999 SCT060 20/04 1026 NOSIG RMK PP000=
SPZO Mar2011-252200Z 27013KT 9999 FEW040 SCT060 17/06 Q1026 NOSIG RMK T.MAX 20.6 PP000=
SPZO Mar2011-252300Z 29007KT 9999 SCT050 SCT230 16/06 Q1027 NOSIG RMK PP000=
SPZO Mar2011-260000Z /////KT 9999 SCT080 15/07 Q1028 RMK PP000=
SPZO Mar2011-260100Z /////KT 9999 BKN080 14/07 Q1029 RMK PP000=
SPZO Mar2011-260200Z /////KT 9999 FEW046 BKN070 13/078 Q1030 RMK PP000=
SPZO Mar2011-260300Z /////KT 9999 FEW046 BKN080 13/09 Q1030 RMK PP000=
SPZO Mar2011-260400Z /////KT 9999 FEW040 BKN060 13/02 Q1031 RMK PP000=
SPZO Mar2011-260500Z /////KT 9999 SCT036 BKN060 11/07 Q1031 RMK PP000=
SPZO Mar2011-260600Z /////KT 9999 -RA SCT036 BKN060 10/07 Q1030 RMK PP014=
SPZO Mar2011-260800Z /////KT 9999 -RA FEW030 SCT036 BKN050 10/07 Q1030 RMK PP016=
SPZO Mar2011-260900Z /////KT 9999 -RA FEW025 SCT036 BKN046 09/07 Q1030 RMK PP006=
SPZO Mar2011-261000Z /////KT 9000 -RA FEW020 SCT036 BKN060 09/07 Q1030 RMK PP016=
SPZO Mar2011-261100Z 00000KT 9999 -RA FEW020 SCT036 BKN080 09/07 Q1030 BECMG NSW RMK PP006=
SPZO Mar2011-261200Z 00000KT 9999 FEW020 SCT046 BKN080 10/07 Q1031 NOSIG RMK PP002=
SPZO Mar2011-261300Z 00000KT 9999 FEW030 BKN100 12/07 Q1032 NOSIG RMK PP000=
SPZO Mar2011-261400Z 00000KT 9999 FEW036 SCT043 BKN100 13/06 Q1032 NOSIG RMK PP000=
SPZO Mar2011-261500Z 09004KT 9999 FEW036 SCT060 15/05 Q1032 NOSIG RMK PP000=
SPZO Mar2011-261600Z 09004KT 9999 SCT043 BKN080 15/07 Q1031 NOSIG RMK PP000=
SPZO Mar2011-261700Z 00000KT 9999 FEW040 SCT060 17/06 Q1030 NOSIG RMK PP000=
SPZO Mar2011-261800Z 09007KT 9999 VCSH SCT040 BKN060 16/07 Q1028 NOSIG RMK PP000=
SPZO Mar2011-261900Z 12003KT 9999 VCSH FEW040TCU SCT046 BKN100 16/06 Q1027 NOSIG RMK PP000=
SPZO Mar2011-262000Z 27012KT 9999 SCT046 SCT230 15/07 Q1027 NOSIG RMK PP000=
SPZO Mar2011-262100Z 00000KT 9999 VCSH SCT046 BKN060 14/08 Q1027 NOSIG RMK PP000=
SPZO Mar2011-262200Z 25005KT 9999 VCSH BKN050 15/06 Q1027 NOSIG RMK TMAX 17.7 PP000=
SPZO Mar2011-262300Z 24004KT 9999 SCT050 BKN100 14/06 Q1027 NOSIG RMK PP000=
SPZO Mar2011-270000Z /////KT 9999 SCT040 BKN080 13/06 Q1028 RMK PP000=
SPZO Mar2011-270100Z /////KT 9999 SCT040 BKN080 13/07 Q1029 RMK PP000=
SPZO Mar2011-270200Z /////KT 9999 SCT040 BKN100 12/08 Q1030 RMK PP000=
SPZO Mar2011-270300Z /////KT 9999 SCT040 BKN100 11/08 Q1031 RMK PP000=
SPZO Mar2011-270400Z /////KT 9999 SCT040 BKN050 11/08 Q1031 RMK PP000=
SPZO Mar2011-270500Z /////KT 9999 SCT040 BKN100 11/03 Q1030 RMK PP000=
SPZO Mar2011-270600Z /////KT 9999 SCT040 BKN050 11/08 Q1029 RMK PP000=
SPZO Mar2011-270700Z /////KT 9999 SCT040 BKN050 11/08 Q1028 RMK PP000=
SPZO Mar2011-270800Z /////KT 9999 SCT040 BKN050 10/09 Q1028 RMK PP000=
SPZO Mar2011-270900Z /////KT 9999 SCT040 BKN050 10/08 Q1028 RMK PP000=
SPZO Mar2011-271000Z /////KT 9999 SCT020 SCT050 10/08 Q1029 RMK PP000=
SPZO Mar2011-271010Z 14006KT 7000 -RA VCSH FEW015 SCT036 OVC070 11/07 Q1029=
SPZO Mar2011-271100Z 34003KT 5000 RA VCSH SCT020 SCT033 OVC060 08/07 Q1030 NOSIG RMK CLNG BLW 1200M PP040=
SPZO Mar2011-271135Z 00000KT 6000 -RA VCSH FEW010 SCT025 OVC060 08/06 Q1031 RMK CLNG BLW 1200M=
SPZO Mar2011-271145Z 00000KT 9000 -RA VCSH FEW020 SCT060 OVC080 08/06 Q1032=
SPZO Mar2011-271245Z 00000KT 9000 -RA VCSH FEW020 SCT060 OVC080 08/06 Q1032=
SPZO Mar2011-271300Z 00000KT 9000 -RA VCSH FEW020 SCT050 OVC070 08/06 Q1032 NOSIG RMK PP026=
SPZO Mar2011-271400Z 00000KT 9000 -RA VCSH FEW020 SCT050 OVC070 09/06 Q1033 TEMPO 8000 RMK PP030=
SPZO Mar2011-271417Z 00000KT 8000 -RA VCSH FEW020 SCT050 OVC070 09/06 Q1033=
SPZO Mar2011-271500Z 00000KT 8000 -RA VCSH FEW020 SCT050 OVC070 09/07 Q1033 NOSIG RMK PP022=
SPZO Mar2011-271600Z 00000KT 9999 -RA FEW025 SCT050 OVC070 10/07 Q1032 NOSIG RMK PP010=
SPZO Mar2011-271700Z 28003KT 9999 -RA FEW030 SCT050 OVC100 13/08 Q1031 BECMG NSW RMK PP002=
SPZO Mar2011-271715Z 33003KT 9999 FEW036 SCT100 BKN230 13/08 Q1030=
SPZO Mar2011-271800Z 00000KT 9999 SCT036 BKN230 16/08 Q1029 Q1029 NOSIG RMK PP000=
SPZO Mar2011-271835Z /////KT 9999 FEW036CB SCT043 15/06 Q1028=
SPZO Mar2011-271900Z /////KT 9999 VCSH SCT036TCU SCT046 15/07 Q1028 TEMPO -RA RMK PP000=
SPZO Mar2011-272000Z 00000KT 9999 VCSH FEW033 SCT036TCU BKN100 14/07 Q1027 TEMPO -RA RMK PP000=
SPZO Mar2011-272100Z 00000KT 9999 VCSH FEW033TCU SCT046 BKN080 17/05 Q1027 TEMPO -RA RMK PP000=
SPZO Mar2011-272200Z 12002KT 9999 -RA VCSH SCT046 BKN080 14/07 Q1027 NOSIG RMK TMAX. 17.2 PP000=
SPZO Mar2011-272300Z 00000KT 9999 -RA SCT043 BKN100 12/08 Q1028 NOSIG RMK PP008=
SPZO Mar2011-280000Z /////KT 9999 SCT030 BKN050 12/08 Q1029 RMK PPTRZ=
SPZO Mar2011-280100Z /////KT 9999 -RA VCSH SCT030 BKN050 11/08 Q1031 RMK PP004=
SPZO Mar2011-280200Z /////KT 9999 RA SCT030 BKN050 10/08 Q1032 RMK PP018=
SPZO Mar2011-280300Z /////KT 9999 RA FEW020 SCT030 BKN060 10/08 Q1032 RMK PP010=
SPZO Mar2011-280400Z /////KT 9999 -RA FEW020 SCT030 BKN080 10/08 Q1032 RMK CLNG BLW 1200M PP006=
SPZO Mar2011-280500Z /////KT 9999 SCT030 OVC080 10/08 Q1032 RMK PPTRZ=
SPZO Mar2011-280600Z /////KT 9999 RA SCT030 OVC060 09/08 Q1032 RMK PP022=
SPZO Mar2011-280700Z /////KT 9999 RA SCT030 OVC060 09/07 Q1031 RMK PP024=
SPZO Mar2011-280800Z /////KT 9999 SCT020 SCT030 OVC080 09/07 Q1031 RMK CLNG BLW 1200M PP008=
SPZO Mar2011-280900Z /////KT 9999 SCT020 SCT030 OVC080 09/07 Q1030 RMK PP002=
SPZO Mar2011-281000Z /////KT 9999 FEW015 SCT036 BKN060 09/07 Q1031 RMK PP000=
SPZO Mar2011-281100Z /////KT 8000 MIFG SCT015 SCT046 OVC060 09/07 Q1031 NOSIG RMK PP000=
SPZO Mar2011-281200Z 00000KT 9999 3500N MIFG FEW020 SCT046 BKN080 09/07 Q1032 NOSIG RMK PP000=
SPZO Mar2011-281300Z 00000KT 9999 FEW030 SCT046 BKN100 11/08 Q1033 NOSIG RMK PP000=
SPZO Mar2011-281400Z 00000KT 9999 FEW030 SCT043 BKN230 13/07 Q1033 NOSIG RMK PP000=
SPZO Mar2011-281500Z 23003KT 9999 FEW046 SCT060 BKN230 16/07 Q1033 NOSIG RMK PP000=
SPZO Mar2011-281600Z 15003KT 9999 SCT046 BKN230 17/05 Q1032 NOSIG RMK PP000=
SPZO Mar2011-281700Z 00000KT 9999 SCT043 BKN230 18/05 Q1031 NOSIG RMK PP000=
SPZO Mar2011-281800Z 00000KT 9999 SCT040TCU BKN060 17/07 Q1029 TEMPO -RA RMK PP000=
SPZO Mar2011-281828Z 01012KT 330V030 9999 -RA VCSH SCT040 FEW036CB BKN050 17/07 Q1029=
SPZO Mar2011-281900Z 11007KT 9999 VCSH SCT040 BKN080 13/08 Q1029 TEMPO -RA RMK PP004=
SPZO Mar2011-282000Z 08005KT 9999 SCT046 BKN100 14/09 Q1028 TEMPO -RA RMK PP000=
SPZO Mar2011-282100Z 26008KT 9999 VCSH SCT046 BKN080 15/07 Q1028 TEMPO -RA RMK PP000=
SPZO Mar2011-282200Z 03002KT 9999 -RA FEW040 BKN080 13/08 Q1028 NOSIG RMK TMAX 18.6 PP000=
SPZO Mar2011-282300Z /////KT 9999 FEW040 BKN230 13/08 Q1029 NOSIG RMK PP000=
SPZO Mar2011-290000Z /////KT 9999 BKN050 11/09 Q1029 RMK PP000=
SPZO Mar2011-290100Z /////KT 9999 BKN050 11/08 Q1030 RMK PP000=
SPZO Mar2011-290200Z /////KT 9999 BKN050 11/08 Q1031 RMK PP000=
SPZO Mar2011-290300Z /////KT 9999 BKN050 10/08 Q1032 RMK PP000=
SPZO Mar2011-290400Z /////KT 9999 BKN050 10/08 Q1032 RMK PP000=
SPZO Mar2011-290500Z /////KT 9999 BKN050 10/08 Q1031 RMK PP000=
SPZO Mar2011-290600Z /////KT 9999 BKN050 10/08 Q1031 RMK PP000=
SPZO Mar2011-290700Z /////KT 9999 BKN050 10/08 Q1030 RMK PP000=
SPZO Mar2011-290800Z /////KT 9999 BKN050 10/08 Q1030 RMK PP000=
SPZO Mar2011-290900Z /////KT 9999 BKN050 10/08 Q1030 RMK PP000=
SPZO Mar2011-291000Z /////KT 9999 FEW040 SCT050 10/08 Q1030 RMK PP000=
SPZO Mar2011-291030Z /////KT 9999 SCT040 SCT050 09/07 Q1031=
SPZO Mar2011-291100Z 03010KT 9000 -RA FEW020 SCT040 BKN050 09/07 Q1031 TEMPO VCSH RMK PPTRZ=
SPZO Mar2011-291125Z 00000KT 8000 -RA FEW015 SCT030 BKN046 09/07 Q1032 RMK CLNG BLW 1200M=
SPZO Mar2011-291214Z 06005KT 040V100 9000 FEW010 SCT033 OVC050 09/07 Q1033 RMK CLNG BLW 1200M=
SPZO Mar2011-291300Z 09008KT 9999 -RA FEW015 SCT033 OVC050 09/06 Q1034 NOSIG RMK CLN BLW 1200M PP004=
SPZO Mar2011-291400Z 07005KT 9999 -RA VCSH FEW020 SCT043 OVC060 10/07 Q1035 NOSIG RMK PPTRZ=
SPZO Mar2011-291500Z 09005KT 9999 -RA FEW030 SCT046 OVC060 11/07 Q1035 NOSIG RMK PPTRZ=
SPZO Mar2011-291600Z 00000KT 9999 -RA SCT036 BKN100 13/08 Q1034 NOSIG RMK PP006=
SPZO Mar2011-291700Z 06003KT 9999 SCT036 BKN080 15/07 Q1032 NOSIG RMK PP000=
SPZO Mar2011-291800Z 29005KT 9999 SCT050 17/07 Q1031 NOSIG RMK PP000=
SPZO Mar2011-291900Z 26013KT 9999 FEW046 SCT060 18/08 Q1029 NOSIG RMK PP000=
SPZO Mar2011-292000Z 29009KT 9999 SCT043 SCT060TCU 17/06 Q1028 NOSIG RMK PP000=
SPZO Mar2011-292100Z 21007KT 9999 VCSH SCT043 SCT060TCU 16/08 Q1028 NOSIG RMK PP000=
SPZO Mar2011-292200Z 22005KT 9999 -RA VCSH SCT043 BKN060 15/06 Q1029 NOSIG RMK TMAX 18.2 PPTRZ=
SPZO Mar2011-292300Z /////KT 9999 -RA VCSH SCT043CB BKN080 13/07 Q1030 BECMG NSW RMK PP004=
SPZO Mar2011-300000Z /////KT 9999 -RA FEW030 SCT046 BKN060 11/08 Q1031 RMK PP012=
SPZO Mar2011-300100Z /////KT 8000 -RA FEW030 SCT046 BKN060 10/08 Q1033 RMK PP012=
SPZO Mar2011-300200Z /////KT 8000 -RA FEW030 SCT046 BKN060 10/08 Q1033 RMK PP020=
SPZO Mar2011-300300Z /////KT 8000 -RA FEW030 SCT043 OVC060 09/08 Q1034 RMK PP024=
SPZO Mar2011-300400Z /////KT 8000 -RA FEW025 SCT043 OVC060 10/07 Q1034 RMK PP006=
SPZO Mar2011-300500Z /////KT 8000 -RA FEW025 SCT040 OVC060 10/08 Q1033 RMK PP002=
SPZO Mar2011-300600Z /////KT 9999 FEW025 SCT036 OVC060 10/08 Q1032 RMK RERA PPTRZ=
SPZO Mar2011-300700Z /////KT 9999 FEW025 SCT036 OVC060 10/06 Q1031 RMK PP000=
SPZO Mar2011-300800Z /////KT 9999 FEW025 SCT036 OVC060 10/06 Q1031 RMK CLNG BLW 1200M PP000=
SPZO Mar2011-300900Z /////KT 9999 FEW025 SCT036 OVC060 10/07 Q1030 RMK CLNG BLW 1200M PP000=
SPZO Mar2011-301000Z /////KT 9999 FEW025 SCT036 OVC060 10/07 Q1031 RMK CLNG BLW 1200 PP000=
SPZO Mar2011-301100Z 00000KT 9999 VCSH FEW020 SCT036 OVC070 10/07 Q1032 NOSIG RMK PP000=
SPZO Mar2011-301137Z 00000KT 9999 FEW020 SCT036 OVC043 10/06 Q1032 TEMPO FM1200 FEW020 BKN036 OVC043=
SPZO Mar2011-301200Z 00000KT 9999 -DZ VCSH FEW020 SCT036 OVC043 10/06 Q1032 TEMPO FEW020 BKN036 OVC043 RMK PPTRZ=
SPZO Mar2011-301222Z 00000KT 9999 VCSH FEW020 BKN036 OVC043 10/06 Q1033 RMK CLNG BLW 1200M=
SPZO Mar2011-301300Z 00000KT 9999 VCSH FEW020 SCT036 OVC043 11/06 Q1033 NOSIG RMK VIS 5000E CLNG BLW 1200M PP000=
SPZO Mar2011-301307Z 10005KT 9999 VCSH FEW008 BKN030 OVC043 10/07 Q1033 RMK VIS 5000E CLNG BLW 1200M=
SPZO Mar2011-301400Z 00000KT 9999 -RA VCSH FEW015 BKN036 OVC043 10/07 Q1034 TEMPO 8000 RMK CLNG BLW 1200M PPTRZ=
SPZO Mar2011-301500Z 00000KT 7000 VCSH SCT025 SCT040 BKN046 11/08 Q1034 TEMPO 9000 RMK PPTRZ=
SPZO Mar2011-301525Z 00000KT 9000 VCSH FEW030 SCT036 OVC043 10/08 Q1034 TEMPO FEW025 BKN036 OVC043=
SPZO Mar2011-301600Z 00000KT 9999 FEW020 SCT036 BKN043 11/07 Q1033 TEMPO=
SPZO Mar2011-301612Z 00000KT 9999 FEW025 SCT040 BKN070 12/07 Q1033=
SPZO Mar2011-301700Z 00000KT 9999 FEW030 SCT043 OVC080 13/08 Q1033 NOSIG RMK PP000=
SPZO Mar2011-301800Z 10010KT 9999 VCSH FEW030 SCT043 OVC080 13/08 Q1032 TEMPO -DZ RMK PP000=
SPZO Mar2011-301900Z 09006KT 9999 VCSH FEW030 SCT043 OVC100 12/07 Q1031 NOSIG RMK PPTRZ=
SPZO Mar2011-302000Z 11004KT 9999 FEW030 SCT100 BKN230 14/07 Q1029 NOSIG RMK PP000=
SPZO Mar2011-302100Z 10006KT 9999 FEW043 SCT100 BKN230 15/06 Q1029 NOSIG RMK PP000=
SPZO Mar2011-302200Z 09005KT 9999 SCT046 BKN230 13/08 Q1029 NOSIG RMK T.MAX 15.2 PP000=
SPZO Mar2011-302300Z 12003KT 9999 BKN046 SCT230 13/07 Q1029 NOSIG RMK PP000=
SPZO Mar2011-310000Z /////KT 9999 SCT040 BKN230 12/08 Q1030 RMK PP000=
SPZO Mar2011-310100Z /////KT 9999 FEW050 11/08 Q1031 RMK PP000=
SPZO Mar2011-310200Z /////KT 9999 FEW060 10/07 Q1032 RMK PP000=
SPZO Mar2011-310300Z /////KT 9999 FEW050 09/07 Q1032 RMK PP000=
SPZO Mar2011-310400Z /////KT 9999 FEW050 08/06 Q1033 RMK PP000=
SPZO Mar2011-310500Z /////KT 9999 SCT100 09/07 Q1032 RMK PP000=
SPZO Mar2011-310600Z /////KT 9999 SCT100 09/07 Q1032 RMK PP000=
SPZO Mar2011-310700Z /////KT 9999 SCT100 08/06 Q1031 RMK PP000=
SPZO Mar2011-310800Z /////KT 9999 SCT040 SCT080 08/06 Q1031 RMK PP000=
SPZO Mar2011-310900Z /////KT 9999 BKN100 07/06 Q1030 RMK PP000=
SPZO Mar2011-311000Z /////KT 9999 FEW025 07/06 Q1031 RMK PP000=
SPZO Mar2011-311100Z 00000KT 9999 BKN230 06/05 Q1031 NOSIG RMK PP000=
SPZO Mar2011-311200Z 00000KT 9999 FEW040 BKN230 08/05 Q1031 NOSIG RMK VIS 8000E HZ PP000=
SPZO Mar2011-311300Z 00000KT 9999 FEW040 BKN230 11/06 Q1032 NOSIG RMK PP000=
SPZO Mar2011-311400Z 06003KT 9999 FEW040 SCT050 BKN230 14/07 Q1033 NOSIG RMK PP000=
SPZO Mar2011-311500Z 04003KT 9999 FEW040 SCT050 BKN230 15/05 Q1032 NOSIG RMK PP000=
SPZO Mar2011-311600Z 09004KT 9999 SCT050 SCT230 17/06 Q1032 NOSIG RMK PP000=
SPZO Mar2011-311700Z 13002KT 9999 SCT050 SCT080 17/05 Q1030 NOSIG RMK PP000=
SPZO Mar2011-311800Z 00000KT 9999 FEW043 SCT050 20/06 Q1029 NOSIG RMK PP000=
SPZO Mar2011-311900Z 27011KT 9999 SCT050 SCT230 19/07 Q1027 NOSIG RMK PP000=
SPZO Mar2011-312000Z 35009KT 330V020 9999 SCT050 SCT150 19/05 Q1026 NOSIG RMK PP000=
SPZO Mar2011-312100Z 36005KT 9999 SCT050 SCT150 20/07 Q1025 NOSIG RMK PP000=
SPZO Mar2011-312200Z 12007KT 9999 SCT050 SCT100 17/07 Q1026 NOSIG RMK TMAX 20.2 PP000=
SPZO Mar2011-312300Z /////KT 9999 SCT050 SCT060 16/07 Q1027 NOSIG RMK PP000=
