SPZO Ene2005-010000Z 34005KT 9999 SCT050 SCT060 17/06 Q1027 RMK PP000=
SPZO Ene2005-010100Z 35010KT 9999 SCT037 SCT050 16/07 Q1028 RMK PP000=
SPZO Ene2005-010200Z 35004KT 9999 SCT037 SCT050 16/06 Q1029 RMK PP000=
SPZO Ene2005-010300Z 00000KT 9999 -RA BKN037 SCT050 12/09 Q1030 RMK PP010=
SPZO Ene2005-010400Z 00000KT 9999 BKN050 11/08 Q1031 RMK PP000=
SPZO Ene2005-010500Z 00000KT 9999 SCT050 11/07 Q1031 RMK PP000=
SPZO Ene2005-010600Z VRB02KT 8000 BKN040 11/08 Q1031 RMK PP000=
SPZO Ene2005-010700Z 25004KT 8000 RA BKN040 11/08 Q1030 RMK PP010=
SPZO Ene2005-010800Z 00000K 6000 SCT040 10/07 Q1029 RMK FU PP0004=
SPZO Ene2005-010900Z 00000KT 6000 BKN040 10/08 Q1029 RMK PP000=
SPZO Ene2005-011000Z 00000KT 6000 BKN040 10/08 Q1030 RMK PP000=
SPZO Ene2005-011100Z 00000KT 6000 FEW037 SCT043 10/08 Q1031 RMK FU PP000=
SPZO Ene2005-011200Z VRB02KT 6000 -DZ SCT033 BKN043 11/08 Q1032 TEMPO 7000 NSW RMK FU PP002=
SPZO Ene2005-011228Z 28009KT 8000E SCT033 SCT040 BKN060 13/08 Q1032 REDZ RMK FU=
SPZO Ene2005-011300Z 28008KT 250V350 9999 SCT033 SCT040 BKN080 14/07 Q1032 NOSIG RMK PP002=
SPZO Ene2005-011400Z 26008KT 9999 SCT033 SCT040 BKN060 15/07 Q1032 NOSIG RMK PP000=
SPZO Ene2005-011500Z VRB06KT 9999 SCT037 SCT060 17/06 Q1032 NOSIG RMK PP000=
SPZO Ene2005-011600Z VRB02KT 9999 SCT040 SCT060 17/07 Q1031 NOSIG RMK PP000=
SPZO Ene2005-011700Z VRB02KT 9999 SCT040 SCT060 18/08 Q1030 NOSIG RMK PP000=
SPZO Ene2005-011800Z 10009KT 9999 SCT043 BKN080 17/06 Q1029 NOSIG RMK PP000=
SPZO Ene2005-011900Z VRB02KT 9999 SCT043 SCT050 19/07 Q1028 NOSIG RMK PP000 RWY10 13009KT=
SPZO Ene2005-012000Z 01008KT 340V080 9999 FEW046 BKN080 18/06 Q1027 TEMPO VCSH RMK PP000 RWY10 03014G26KT=
SPZO Ene2005-012100Z 32008KT 260V010 9999 SCT046 SCT060 18/07 Q1027 NOSIG RMK PP000 RWY10 29026G39KT=
SPZO Ene2005-012200Z 27012KT 9999 FEW046 BKN100 16/07 Q1026 NOSIG RMK PP000 RWY10 28017KT TMX:19.4=
SPZO Ene2005-012300Z 27008KT 9999 FEW046 SCT200 15/07 Q1027 NOSIG RMK PP000 RWY10 27012KT=
SPZO Ene2005-020000Z 24009KT 9999 FEW050 14/06 Q1028 RMK PP000=
SPZO Ene2005-020100Z 00000KT 9999 SKC 13/06 Q1029 RMK PP000=
SPZO Ene2005-020200Z 00000KT 9999 FEW050 12/07 Q1030 RMK PP000=
SPZO Ene2005-020300Z 00000KT 9999 SCT050 11/07 Q1031 RMK PP000=
SPZO Ene2005-020400Z 00000KT 9999 BKN040 12/08 Q1031 RMK PP000=
SPZO Ene2005-020500Z 00000KT 9999 FEW033 BKN043 12/08 Q1031 RMK PP000=
SPZO Ene2005-020600Z 00000KT 9999 FEW030 BKN040 13/07 Q1031 RMK PP000=
SPZO Ene2005-020700Z 21004KT 9999 FEW030 SCT040 BKN060 13/05 Q1030 RMK PP000=
SPZO Ene2005-020800Z 27006KT 9999 FEW033 BKN043 12/05 Q1030 RMK PP000=
SPZO Ene2005-020900Z 00000KT 9999 FEW033 BKN043 12/04 Q1030 RMK PP000=
SPZO Ene2005-021000Z 00000KT 9999 FEW033 BKN047 11/05 Q1030 RMK PP000=
SPZO Ene2005-021100Z 00000KT 9999 FEW037 BKN043 12/05 Q1031 RMK PP000=
SPZO Ene2005-021200Z 10004KT 080V170 9999 FEW043 SCT050 11/07 Q1032 NOSIG RMK PP000 RWY10 10007KT=
SPZO Ene2005-021300Z VRB02KT 9999 FEW036 BKN050 13/07 Q1032 NOSIG RMK PP000=
SPZO Ene2005-021400Z VRB02KT 9999 SCT040 15/04 Q1032 NOSIG RMK PP000=
SPZO Ene2005-021500Z 06005KT 340V110 9999 SCT043 SCT200 17/05 Q1031 NOSIG RMK PP000 RWY10 19007KT=
SPZO Ene2005-021600Z VRB03KT 9999 FEW043 BKN120 18/06 Q1030 NOSIG RMK PP000=
SPZO Ene2005-021700Z VRB03KT 9999 FEW046 BKN120 20/06 Q1029 NOSIG RMK PP000=
SPZO Ene2005-021800Z 01007KT 270V080 9999 FEW046 BKN120 20/06 Q1027 NOSIG RMK PP000 04007KT=
SPZO Ene2005-021900Z VRB05KT 9999 FEW046 BKN120 20/05 Q1026 NOSIG RMK PP000 RWY10 33007KT=
SPZO Ene2005-022000Z 28014KT 9999 SCT046 SCT100 20/07 Q1025 TEMPO VCSH RMK PP000 RWY10 30018G29KT=
SPZO Ene2005-022100Z VRB05KT 9999 -RA SCT040TCU SCT050 17/09 Q1025 BECMG FM2140 NSW RMK PPPTRZ RWY10 29013KT=
SPZO Ene2005-022200Z VRB02KT 9999 -RA SCT043 BKN050 13/09 Q1027 BECMG FM2230 NSW RMK PP034 TMX:20.7=
SPZO Ene2005-022217Z 26003KT 9999 RERA SCT040 BKN050 14/09 Q1027=
SPZO Ene2005-022300Z VRB02KT 9999 SCT043 BKN060 14/09 Q1027 NOSIG RMK PP000=
SPZO Ene2005-030000Z 10005KT 9999 BKN040 SCT046 13/10 Q1028 RMK PP000=
SPZO Ene2005-030010Z 19009KT 8000 +RA BKN037 SCT046 13/08 Q1029=
SPZO Ene2005-030100Z 29005KT 9999 -RA SCT037TCU BKN043 12/07 Q1031 RMK PP036=
SPZO Ene2005-030200Z VRB03KT 9999 -RA SCT030 BKN043 11/07 Q1032 RMK PP018=
SPZO Ene2005-030300Z 28008KT 9999 SCT030 BKN040 10/07 Q1032 RMK PPTRZ=
SPZO Ene2005-030400Z 28007KT 9999 -RA SCT025 BKN043 10/07 Q1031 RMK PP004=
SPZO Ene2005-030500Z VRB02KT 9999 OVC040 11/07 Q1030 RMK PP000=
SPZO Ene2005-030600Z 00000KT 9999 SCT030 BKN040 10/07 Q1030 RMK PP000=
SPZO Ene2005-030700Z 00000KT 9999 -RA BKN037 SCT046 10/08 Q1028 RMK PP002=
SPZO Ene2005-030800Z 00000KT 8000 -RA OVC040 10/07 Q1028 RMK PP014=
SPZO Ene2005-030900Z 00000KT 8000 -RA SCT030 BKN040 10/08 Q1028 RMK PP020=
SPZO Ene2005-031000Z VRB02KT 9000 -RA FEW025 SCT037 BKN043 10/08 Q1029 RMK CLNG BLW 1200M PP018=
SPZO Ene2005-031030Z VRB02KT 9000 -RA FEW025 SCT040 BKN046 09/08 Q1029=
SPZO Ene2005-031100Z VRB03KT 9000 -RA FEW025 SCT040 BKN050 10/08 Q1029
SPZO Ene2005-031200Z VRB02KT 9999 -RA FEW036 SCT043 BKN050 10/08 Q1030 NOSIG RMK PP002 BCBR CDTES NW-SE=
SPZO Ene2005-031300Z 00000KT 9000E -RA FEW036 SCT040 BKN046 10/08 Q1031 NISIG RMK PP004 BCBR TECHO BAJO CDTE E=
SPZO Ene2005-031400Z 00000KT 8000E -RA FEW033 SCT043 BKN050 11/08 Q1031 NOSIG RMK PP006 BCBR NE TECHO BAJO CDTE E=
SPZO Ene2005-031423Z VRB01KT 6000 RA FEW020 SCT040 BKN050 11/09 Q1031 RMK BCBR TECHO BAJO CDTE E =
SPZO Ene2005-031500Z VRB01KT 7000E RA FEW020 SCT040 BKN046 11/08 Q1031 BECMG FM1540 9000 RMK PP008 BCBR TECHO BAJO CDTE E=
SPZO Ene2005-031538Z VRB02KT 8000E -RA FEW030 SCT040 BKN046 12/09 Q1031 RMK TECHO BAJO CDTE E=
SPZO Ene2005-031600Z VRB02KT 9000E -RA FEW030 SCT040 BKN046 12/08 Q1031 NOSIG RMK PP004 TECHO BAJO CDTE E=
SPZO Ene2005-031700Z VRB03KT 9999 DZ FEW030 SCT040 BKN050 14/07 Q1030 NOSIG RMK PP002 RWY10 04009G22KT TECHO BAJO CDTE E=
SPZO Ene2005-031724Z VRB06KT 9999 REDZ FEW033 SCT040 BKN050 15/07 Q1030 RMK RWY10 04014G24KT=
SPZO Ene2005-031800Z 09007KT 070V170 9999 FEW033 SCT043 BKN050 13/09 Q1030 TEMPO VCSH RMK PPTRZ RWY10 05015G27KT=
SPZO Ene2005-031815Z 09008KT 9999 SCT033 SCT040 BKN047 13/08 Q1029=
SPZO Ene2005-031900Z 10008KT 080V180 9999 SCT037 BKN100 OVC300 14/09 Q1029 NOSIG RMK PP000=
SPZO Ene2005-032000Z 10007KT 070V180 9999 SCT040 BKN100 14/07 Q1027 NOSIG RMK PP000=
SPZO Ene2005-032100Z 10010KT 9999 FEW030 BKN043 BKN060 13/07 Q1027 NOSIG RMK PP000=
SPZO Ene2005-032200Z 08004KT 360V110 9999 SCT037 SCT080 14/06 Q1027 NOSIG RMK PP000 TMAX 15.2=
SPZO Ene2005-032300Z 00000KT 9999 SCT037 SCT043 14/06 Q1028 NOSIG RMK PP000=
SPZO Ene2005-040000Z VRB02KT 9999 BKN040 SCT046 12/08 Q1028 RMK PP000=
SPZO Ene2005-040100Z 27004KT 9999 SCT040 SCT050 12/08 Q1029 RMK PP000=
SPZO Ene2005-040200Z VRB03KT 9999 SCT040 SCT070 12/07 Q1030 RMK PP000=
SPZO Ene2005-040300Z 27004KT 9999 SCT040 SCT080 12/07 Q1030 RMK PP000=
SPZO Ene2005-040400Z VRB03KT 9999 SCT040 SCT070 11/07 Q1030 RMK PP000=
SPZO Ene2005-040500Z VRB02KT 9999 BKN043 10/08 Q1030 RMK PP000=
SPZO Ene2005-040600Z 00000KT 9999 FEW040 BKN046 10/08 Q1029 RMK PP000=
SPZO Ene2005-040700Z 00000KT 9999 SCT050 09/07 Q1029 RMK PP000=
SPZO Ene2005-040800Z 00000KT 9999 OVC040 09/07 Q1029 RMK PP000=
SPZO Ene2005-040900Z 00000KT 9999 BKN040 SCT046 08/07 Q1029 RMK PP000=
SPZO Ene2005-041000Z VRB01KT 9999 SCT040 SCT050 09/07 Q1029 RMK PP000=
SPZO Ene2005-041030Z VRB02KT 9999 FEW037 SCT200 08/06 Q1030=
SPZO Ene2005-041100Z 08004KT 9999 FEW037 SCT200 07/06 Q1030 RMK PP000=
SPZO Ene2005-041132Z 00000KT 8000E FEW030 SCT060 0 7000E RMK BR=
SPZO Ene2005-041200Z 00000KT 9000E FEW030 SCT060 09/08 Q1031 BECMG 9999 RMK BR PP000=
SPZO Ene2005-041300Z 00000KT 9999 FEW030 SCT060 13/07 Q1032 NOSIG RMK PP000=
SPZO Ene2005-041400Z 07003KT 340V110 9999 FEW030 SCT043 15/07 Q1031 NOSIG RMK PP000=
SPZO Ene2005-041500Z 00000KT 9999 FEW030 SCT043 17/07 Q1031 NOSIG RMK PP000=
SPZO Ene2005-041600Z VRB03KT 9999 FEW040 BKN047 18/06 Q1030 NOSIG RMK PP000=
SPZO Ene2005-041700Z VRB05KT 9999 FEW040 SCT043 19/04 Q1029 NOSIG RMK PP000=
SPZO Ene2005-041800Z VRB04KT 9999 SCT043 20/08 Q1028 NOSIG RMK PP000=
SPZO Ene2005-041900Z 01010KT 340V080 9999 BKN043 20/04 Q1026 NOSIG RMK PP000=
SPZO Ene2005-042000Z 01009KT 280V080 9999 SCT043TCU SCT047 19/05 Q1025 NOSIG RMK PP000=
SPZO Ene2005-042100Z 18009KT 160V260 9999 FEW040 BKN047TCU BKN080 16/06 Q1026 TEMPO -SHRA RMK PP000=
SPZO Ene2005-042118Z VRB06KT 8000 -RA VCSH SCT037 BKN047TCU 14/07 Q1027=
SPZO Ene2005-042200Z 32006KT 270V350 9999 -RA VCSH FEW030 BKN047TCU
SPZO Ene2005-042300Z 00000KT 9999 SCT043 BKN100 13/08 Q1027 RERA NOSIG RMK PP002=
SPZO Ene2005-050000Z 09002KT 9999 OVC050 12/08 Q1028 RMK PP000=
SPZO Ene2005-050100Z 00000KT 9999 OVC050 12/09 Q1029 RMK PP000=
SPZO Ene2005-050200Z 00000KT 9999 OVC050 12/08 Q1030 RMK PP000=
SPZO Ene2005-050300Z 00000KT 9999 OVC050 11/08 Q1031 RMK PP000=
SPZO Ene2005-050400Z 13003KT 9999 OVC050 11/08 Q1031 RMK PP000=
SPZO Ene2005-050500Z 12007KT 080V170 5000 +RA BKN040 SCT050 09/07 Q1032 RMK PP028=
SPZO Ene2005-050600Z 00000KT 7000 RA SCT040 BKN050 09/07 Q1031 RMK PP016=
SPZO Ene2005-050700Z 00000KT 9000 FEW040 BKN050 09/07 Q1029 RERA RMK PP002=
SPZO Ene2005-050800Z 00000KT 9999 FEW040 BKN050 09/07 Q1030 RMK PP000=
SPZO Ene2005-050900Z 00000KT 9999 OVC05 09/07 Q1029 RMK PP000=
SPZO Ene2005-051000Z 10002KT 9999 BKN050 SCT100 07/06 Q1030 RMK PP000=
SPZO Ene2005-051035Z 00000KT 9999 SCT050 SCT100 08/06 Q1030=
SPZO Ene2005-051100Z 00000KT 9999 SCT050 08/06 Q1031 RMK PP000=
SPZO Ene2005-051200Z 00000KT 9999 FEW025 11/07 Q1031 NOSIG RMK PP000=
SPZO Ene2005-051300Z 00000KT 9999 FEW030 13/08 Q1032 NOSIG RMK PP000=
SPZO Ene2005-051400Z VRB03KT 9999 SCT040 14/07 Q1032 NOSIG RMK PP000=
SPZO Ene2005-051500Z 00000KT 9999 SCT043 17/06 Q1031 NOSIG RMK PP000=
SPZO Ene2005-051600Z VRB02KT 9999 SCT043 18/03 Q1030 NOSIG RMK PP000=
SPZO Ene2005-051700Z VRB03KT 9999 SCT047 19/02 Q1029 NOSIG RMK PP000=
SPZO Ene2005-051800Z VRB06KT 9999 SCT050 20/05 Q1028 NOSIG RMK PP000=
SPZO Ene2005-051900Z VRB03KT 9999 SCT050 21/02 Q1027 NOSIG RMK PP000 RWY10 18010KT=
SPZO Ene2005-052000Z VRB02KT 9999 SCT050 21/02 Q1025 NOSIG RMK PP000 RWY10 01012KT=
SPZO Ene2005-052100Z VRB04KT 9999 SCT050 20/03 Q1024 NOSIG RMK PP000 RWY10 07011KT=
SPZO Ene2005-052200Z 02005KT 290V080 9999 FEW050 20/03 Q1024 NOSIG RMK PP000 RWY10 06009KT TMX:22.0=
SPZO Ene2005-052300Z 36006KT 9999 FEW050 19/03 Q1024 RMK PP000 RWY10 02008KT=
SPZO Ene2005-060000Z 00000KT 9999 SKC 17/05 Q1025 RMK PP000=
SPZO Ene2005-060100Z 00000KT 9999 SKC 15/06 Q1026 RMK PP000=
SPZO Ene2005-060200Z 00000KT 9999 SKC 15/06 Q1027 RMK PP000=
SPZO Ene2005-060300Z 00000KT 9999 SKC 12/07 Q1028 RMK PP000=
SPZO Ene2005-060400Z 00000KT 9999 SKC 11/07 Q1028 RMK PP000=
SPZO Ene2005-060500Z 00000KT 9999 SKC 11/07 Q1028 RMK PP000=
SPZO Ene2005-060600Z 00000KT 9999 SKC 10/07 Q1028 RMK PP000=
SPZO Ene2005-060700Z 00000KT 9999 SKC 09/07 Q1028 RMK PP000=
SPZO Ene2005-060800Z 00000KT 9999 SKC 09/06 Q1028 RMK PP000=
SPZO Ene2005-060900Z 00000KT 9999 FEW100 08/06 Q1028 RMK PP000=
SPZO Ene2005-061000Z 00000KT 9999 SCT100 08/06 Q1028 RMK PP000=
SPZO Ene2005-061100Z 00000KT 9999 FEW050 08/06 Q1029 RMK PP000=
SPZO Ene2005-061200Z 00000KT 9999 SCT050 12/07 Q1030 NOSIG RMK PP000=
SPZO Ene2005-061300Z 00000KT 9999 SCT043 15/07 Q1030 NOSIG RMK PP000=
SPZO Ene2005-061400Z 06004KT 350V110 9999 SCT046 16/06 Q1031 NOSIG RMK PP000=
SPZO Ene2005-061500Z VRB04KT 9999 SCT050 18/06 Q1030 NOSIG RMK PP000 RWY10 06013KT=
SPZO Ene2005-061600Z VRB05KT 9999 SCT050 19/04 Q1029 NOSIG RMK PP000 RWY10 05012KT=
SPZO Ene2005-061700Z VRB05KT 9999 SCT050 20/03 Q1028 NOSIG RMK PP000 RWY10 36010G22KT=
SPZO Ene2005-061800Z 06010KT 350V090 9999 SCT050 21/03 Q1027 NOSIG RMK PP000 RWY10 03012G23KT=
SPZO Ene2005-061900Z 01008KT 30V080 9999 SCT050 21/03 Q1026 NOSIG RMK PP000 RWY10 01017G29KT=
SPZO Ene2005-062000Z 01011KT 340V080 9999 SCT050 21/03 Q1025 NOSIG RMK PP000 RWY10 36014G24KT=
SPZO Ene2005-062100Z 36008KT 340V080 9999 FEW046 SCT060 20/03 Q1024 NOSIG RMK PP000 RWY10 03013G29KT=
SPZO Ene2005-062200Z 01011KT 350V080 9999 SCT100 20/03 Q1024 NOSIG RMK PP000 RWY10 02016KT TMX:21.7=
SPZO Ene2005-062300Z 03008KT 340V110 9999 SCT050 18/03 Q1025 NOSIG RMK PP000 RWY19 03016G29KT=
SPZO Ene2005-070000Z 01011KT 9999 BKN050 16/04 Q025 RMK PP000=
SPZO Ene2005-070100Z VRB02KT 9999 SCT100 15/05 Q1027 RMK PP000=
SPZO Ene2005-070200Z 06005KT 9999 FEW040 SCT080 14/05 Q1029 RMK PP000=
SPZO Ene2005-070300Z 07005KT 9999 SCT040 SCT080 15/05 Q1029 RMK PP000=
SPZO Ene2005-070400Z VRB02KT 9999 FEW040 SCT070 14/06 Q1029 RMK PP000=
SPZO Ene2005-070500Z VRB02KT 9999 FEW043 SCT100 13/06 Q1029 RMK PP000=
SPZO Ene2005-070600Z 07007KT 9999 SCT043 SCT050 12/07 Q1029 RMK PP000=
SPZO Ene2005-070700Z VRB02KT 9999 FEW040 SCT050 12/06 Q1029 RMK PP000=
SPZO Ene2005-070800Z 00000KT 9999 FEW040 SCT050 11/06 Q1028 RMK PP000=
SPZO Ene2005-070900Z 00000KT 9999 FEW040 SCT080 10/06 Q1028 RMK PP000=
SPZO Ene2005-071000Z VRB01KT 9999 SCT050 SCT200 09/06 Q1029 RMK PP000=
SPZO Ene2005-071100Z 00000KT 9999 SCT050 SCT080 09/05 Q1030 RMK PP000=
SPZO Ene2005-071200Z 00000KT 9999 FEW043 BKN060 10/07 Q1031 NOSIG RMK PP000=
SPZO Ene2005-071300Z 35008KT 250V020 9999 FEW043 BKN100 13/04 Q1032 NOSIG RMK PP000=
SPZO Ene2005-071400Z 35013KT 340V070 9999 FEW040 BKN046 14/04 Q1033 NOSIG RMK PP000 RWY10 02016G38KT=
SPZO Ene2005-071500Z VRB08KT 9999 FEW043 BKN100 15/03 Q1032 NOSIG RMK PP000 01016G30KT=
SPZO Ene2005-071600Z VRB06KT 9999 FEW043 OVC100 17/03 Q1031 NOSIG RMK PP000 RWY10 VRB07KT=
SPZO Ene2005-071700Z 36009KT 340V080 9999 SCT046 SCT060 18/04 Q1031 NOSIG RMK PP000 RWY10 03016G30KT=
SPZO Ene2005-071800Z 02008KT 340V080 9999 BKN050 18/03 Q1030 NOSIG RMK PP000 RWY10 02011G28KT=
SPZO Ene2005-071900Z 36010KT 270V080 9999 SCT043 20/03 Q1028 NOSIG RMK PP000=
SPZO Ene2005-072000Z 01009KT 340V080 9999 FEW043 SCT080 18/01 Q1027 NOSIG RMK PP000=
SPZO Ene2005-072100Z 01011KT 340V080 9999 FEW060 19/02 Q1026 NOSIG RMK PP000=
SPZO Ene2005-072200Z 36012KT 340V080 9999 FEW060 18/01 Q1026 NOSIG RMK PP000 TMAX 19.9=
SPZO Ene2005-072300Z 01012KT 340V080 9999 FEW300 17/M01 Q1026 NOSIG RMK PP000=
SPZO Ene2005-080000Z 06010KT 9999 FEW050 15/01 Q1028 RMK PP000=
SPZO Ene2005-080100Z 10004KT 9999 SCT040 SCT050 14/02 Q1028 RMK PP000=
SPZO Ene2005-080200Z VRB03KT 9999 SCT080 13/02 Q1030 RMK PP000=
SPZO Ene2005-080300Z 30004KT 9999 SCT100 14/03 Q1031 RMK PP000=
SPZO Ene2005-080400Z 26004KT 9999 FEW040 SCT080 13/04 Q1031 RMK PP000=
SPZO Ene2005-080500Z 28006KT 9999 FEW043 SCT080 13/05 Q1031 RMK PP000=
SPZO Ene2005-080600Z 27009KT 9999 SCT043 12/05 Q1030 RMK PP000=
SPZO Ene2005-080700Z 27006KT 9999 FEW040 SCT050 12/06 Q1030 RMK PP000=
SPZO Ene2005-080800Z 10007KT 9999 FEW043 SCT050 10/07 Q1030 RMK PP000=
SPZO Ene2005-080900Z 09007KT 9999 SCT040 SCT050 10/07 Q1030 RMK PP000=
SPZO Ene2005-081000Z 10007KT 9999 VCRA FEW025 SCT040 BKN043 10/07 Q1031 RMK PP000=
SPZO Ene2005-081030Z VRB03KT 9999 -DZ FEW025 SCT040 BKN043 10/05 Q1032=
SPZO Ene2005-081100Z VRB02KT 9999 FEW025 SCT040 BKN043 10/05 Q1032 RMK PPTRZ=
SPZO Ene2005-081200Z 09003KT 070V180 9999 VCSH FEW025 SCT043 BKN060 10/06 Q1033 NOSIG RMK PP000=
SPZO Ene2005-081300Z 17003KT 080V200 9999 FEW030 SCT043 BKN080 12/06 Q1033 NOSG RMK PP000=
SPZO Ene2005-081400Z 00000KT 9999 FEW033 BKN080 15/05 Q1033 NOSIG RMK PP000=
SPZO Ene2005-081500Z VRB03KT 9999 SCT033 BKN100 16/04 Q1033 NOSIG RMK PP000=
SPZO Ene2005-081600Z 28005KT 190V350 9999 SCT040 BKN100 18/02 Q1032 NOSIG RMK PP000=
SPZO Ene2005-081700Z 21008KT 180V340 9999 SCT040 BKN100 19/05 Q1030 V NOSIG RMK PP000=
SPZO Ene2005-081800Z VRB02KT 9999 SCT040 BKN080 20/04 Q1029 NOSIG RMK PP000=
SPZO Ene2005-081900Z VRB04KT 9999 SCT043 BKN080 22/04 Q1027 NOSIG RMK PP000=
SPZO Ene2005-082000Z VRB06KT 9999 SCT043 SCT100 21/03 Q1026 NOSIG RMK PP000=
SPZO Ene2005-082100Z 02009KT 340V080 9999 SCT043 SCT100 21/05 Q1025
SPZO Ene2005-082136Z 36008KT 340V080 9999 SHRA SCT043TCU SCT060 19/05
SPZO Ene2005-082200Z 36007KT 270V020 9999 -SHRA SCT043TCU SCT080 18/06 Q1025 TEMPO NSW RMK PPTRZ TMAX22.3=
SPZO Ene2005-082300Z 00000KT 9999 FEW040 BKN043 17/06 Q1026 RESHRA NOSIG RMK PPTRZ=
SPZO Ene2005-090000Z 10011KT 9999 BKN050 16/06 Q1028 RMK PP000=
SPZO Ene2005-090100Z 11010KT 080V170 9999 BKN050 14/05 Q1029 RMK PP000=
SPZO Ene2005-090200Z 27008KT 9999 BKN050 13/07 Q1030 RMK PP000=
SPZO Ene2005-090300Z 00000KT 9999 BKN050 13/07 Q1030 RMK PP000=
SPZO Ene2005-090400Z 10004KT 090V170 9999 BKN050 12/06 Q1030 RMK PP000=
SPZO Ene2005-090500Z 00000KT 9999 BKN050 12/06 Q1030 RMK PP000=
SPZO Ene2005-090600Z 00000KT 9999 BKN050 12/07 Q1029 RMK PP000=
SPZO Ene2005-090700Z 28005KT 250V350 9999 BKN050 12/07 Q1029 RMK PP000=
SPZO Ene2005-090800Z 27002KT 5000 RA SCT040 BKN050 11/08 Q1029 RMK PP018=
SPZO Ene2005-090900Z 27002KT 5000 RA SCT040 SCT050 10/08 Q1030 RMK PP016=
SPZO Ene2005-091000Z 00000KT 6000 RA SCT040 BKN050 10/08 Q1030 RMK PP028=
SPZO Ene2005-091100Z 19002KT 7000 RA FEW030 SCT040 BKN050 09/07 Q1031 RMK PP040=
SPZO Ene2005-091200Z 00000KT 7000 RA VCSH FEW025 SCT033 OVC047 09/06 Q1032 NOSIG RMK PP032=
SPZO Ene2005-091300Z 08002KT 7000 RA VCSH FEW025 SCT037 OVC050 09/07 Q1033 TEMPO 8000 RMK PP016=
SPZO Ene2005-091339Z 14001KT 080V200 7000 -RA VCSH FEW020 SCT033 OVC060 09/07 Q1034=
SPZO Ene2005-091400Z 00000KT 7000 -RA VCSH FEW020 SCT033 OVC060 09/06 Q1034 TEMPO 8000 RMK NS AL E PP012=
SPZO Ene2005-091425Z 00000KT 9000 -RA VCSH FEW020 SCT033 OVC060 09/07 Q1033=
SPZO Ene2005-091500Z 28003KT 250V360 9999 -DZ FEW030 SCT060 OVC080 10/07 Q1033 TEMPO NSW RMK PP012=
SPZO Ene2005-091600Z VRB04KT 9999 FEW030 SCT060 OVC100 13/08 Q1032 REDZ NOSIG RMK PPTRZ=
SPZO Ene2005-091700Z VRB02KT 9999 FEW033 SCT060 BKN100 15/10 Q1031 NOSIG RMK PP000 BIRDS HAZARD RWY 10/28=
SPZO Ene2005-091800Z VRB04KT 9999 FEW033 BKN100 17/08 Q1029 NOSIG RMK PP000 BIRDS HAZARD RWY 10/28=
SPZO Ene2005-091900Z VRB04KT 9999 BKN050 18/06 Q1027 TEMPO VCSH RMK PP000 RWY10 09006KT=
SPZO Ene2005-092000Z 28005KT 9999 FEW043 BKN050 18/05 Q1026 NOSIG RMK PP000=
SPZO Ene2005-092100Z 35007KT 9999 FEW043 BKN050 18/06 Q1025 NOSIG RMK PP000 RWY10 02014G24KT=
SPZO Ene2005-092128Z 36006KT 340V080 9999 -RATS SCT043CB BKN050 17/06 Q1025=
SPZO Ene2005-092200Z 28012KT 360V350 9999 RA SCT043 BKN050 14/08 Q1026 NOSIG RMK PPTRZ TMX:18.9=
SPZO Ene2005-092300Z VRB02KT 9999 RERA FEW043 BKN060 14/09 Q1025 NOSIG RMK PP006=
SPZO Ene2005-100000Z 09002KT 9999 -RA SCT040 BKN050 13/08 Q1027 RMK PP004=
SPZO Ene2005-100100Z 09005KT 8000 FEW040 BKN050 13/09 Q1028 RERA RMK PP002=
SPZO Ene2005-100200Z 00000KT 9999 FEW040 BKN050 12/08 Q1029 RMK PP000=
SPZO Ene2005-100300Z 00000KT 9999 BKN050 12/07 Q1029 RMK PP000=
SPZO Ene2005-100400Z 10004KT 9999 BKN050 11/09 Q1030 RMK PP000=
SPZO Ene2005-100500Z 10005KT 080V170 7000 RA BKN040 SCT050 10/08 Q1030 RMK PP010=
SPZO Ene2005-100600Z 00000KT 7000 -RA SCT040 BKN050 10/08 Q1029 RMK PP004=
SPZO Ene2005-100700Z 00000KT 7000 +RA SCT030 SCT040 BKN050 09/08 Q1029 RMK PP036=
SPZO Ene2005-100800Z 00000KT 7000 RA SCT030 SCT040 BKN050 09/08 Q1029 RMK PP024=
SPZO Ene2005-100900Z 00000KT 6000 -RA SCT030 SCT040 BKN050 09/08 Q1029 RMK PP006=
SPZO Ene2005-101000Z 00000KT 7000 -RA SCT030 SCT040 BKN050 09/07 Q1029 RMK PP002=
SPZO Ene2005-101022Z 00000KT 8000 FEW030 SCT040 BKN050 09/07 Q1029 RERA=
SPZO Ene2005-101100Z 00000KT 9000 FEW030 SCT040 BKN050 09/07 Q1030 RMK PPTRZ=
SPZO Ene2005-101128Z VRB02KT 9999 FEW036 BKN050 10/07 Q1030=
SPZO Ene2005-101200Z 00000KT 9999 FEW036 SCT050 10/08 Q1030 NOSIG RMK PP000=
SPZO Ene2005-101300Z VRB02KT 9999 FEW036 BKN046 14/07 Q1030 NOSIG RMK PP000=
SPZO Ene2005-101332Z VRB02KT 9999 -RA FEW036 BKN046 14/07 Q1030=
SPZO Ene2005-101400Z VRB02KT 9999 RERA FEW036 BKN046 15/08 Q1030 NOSIG RMK PP000=
SPZO Ene2005-101442Z VRB02KT 9999 RA FEW36 BKN046 15/08 Q1
SPZO Ene2005-101500Z 27005KT 190V360 9999 RERA FEW036 SCT050 14/08 Q1030 NOSIG RMK PPTRZ=
SPZO Ene2005-101600Z VRB02KT 9999 FEW040 BKN046 16/08 Q1029 TEMPO VCRA RMK PP000 RA CDTE NE=
SPZO Ene2005-101700Z 17005KT 100V260 9999 FEW040TCU BKN046 17/08 Q1029 TEMPO VCRA RMK RA CDTES SW-SE=
SPZO Ene2005-101800Z 29006KT 190V350 9999 FEW040 BKN046 16/06 Q1028 TEMPO VCRA RMK PP000 RA CDTE NE =
SPZO Ene2005-101900Z 11007KT 070V170 9999 FEW040 BKN046 18/06 Q1026 TEMPO VCRA RNK PP000 RWY10 VRB07KT RA CDTES SW-SE=
SPZO Ene2005-101942Z 28014KT 250V350 9999 -RA FEW040 BKN046 13/09 Q1026=
SPZO Ene2005-102000Z 28011KT 250V350 9999 -RA SCT040 BKN046 12/09 Q1026 NOSIG RMK PP018=
SPZO Ene2005-102035Z 27010KT 9999 DZ SCT040 BKN060 13/09 Q1026=
SPZO Ene2005-102100Z 10005KT 9999 REDZ SCT040 BKN060 13/08 Q1026 NOSIG RMK PP004 RWY0 12008KT=
SPZO Ene2005-102200Z VRB03KT 9999 DZ SCT040 BKN050 12/08 Q1026 NOSIG RMK PP000 TMX:18.2=
SPZO Ene2005-102300Z 00000KT 9999 DZ SCT043 BKN100 12/08 Q1026 NOSIG RMK PP004=
SPZO Ene2005-110000Z 00000KT 9999 BKN043 SCT080 12/08 Q1027 RMK PP000=
SPZO Ene2005-110100Z 00000KT 9999 BKN043 SCT100 12/09 Q1028 RMK PP000=
SPZO Ene2005-110200Z VRB03KT 9999 SCT040 SCT060 11/09 Q1029 RMK PP000=
SPZO Ene2005-110300Z VRB02KT 9999 SCT040 SCT070 11/08 Q1029 RMK PP002=
SPZO Ene2005-110400Z 00000KT 9999 SCT043 SCT070 11/08 Q1030 RMK PP000=
SPZO Ene2005-110500Z 00000KT 9999 -RA OVC040 11/08 Q1029 RMK PP002=
SPZO Ene2005-110600Z 00000KT 9999 OVC040 10/08 Q1029 RMK PP000=
SPZO Ene2005-110700Z VRB03KT 9999 FEW030 OVC040 10/07 Q1029 RMK PP000=
SPZO Ene2005-110800Z 26006KT 9999 BKN040 SCT050 10/06 Q1029 RMK PP002=
SPZO Ene2005-110900Z VRB02KT 9999 -RA SCT030 BKN040 09/07 Q1028 RMK PP008=
SPZO Ene2005-111000Z VRB02KT 9999 FEW025 SCT040 BKN043 09/07 Q1029 RMK PPTRZ=
SPZO Ene2005-111100Z VRB03KT 9000 VCRA FEW030 SCT040 BKN046 09/07 Q1029 PP000=
SPZO Ene2005-111132Z 08002KT 9999 FEW036 BKN046 10/07 Q1030=
SPZO Ene2005-111200Z VRB02KT 9999 FEW036 BKN046 12/07 Q1030 NOSIG RMK PP000=
SPZO Ene2005-111300Z VRB02KT 9999 FEW036 BKN046 12/07 Q1031 NOSIG RMK PP000=
SPZO Ene2005-111400Z VRB03KT 9999 FEW036 BKN046 14/07 Q1031 NOSIG RMK PP000=
SPZO Ene2005-111500Z VRB03KT 9999 FEW040 BKN050 16/07 Q1030 NOSIG RMK PP000=
SPZO Ene2005-111600Z 28006KT 250V350 9999 DZ FEW040 BKN046 15/06 Q1029 BECMG FM1630 NSW RMK PPTRZ RWY10 20008KT=
SPZO Ene2005-111700Z VRB02KT 9999 DZ SCT040 SCT050 17/07 Q1029 NOSIG RMK PPTRZ=
SPZO Ene2005-111710Z 34012KT 9999 RA SCT040 SCT046 13/09 Q1029=
SPZO Ene2005-111800Z VRB03KT 9999 RERA SCT046 SCT120 15/08 Q1028 NOSIG RMK PP004 RWY10 14010KT RA CDTE E=
SPZO Ene2005-111900Z 09003KT 9999 FEW037 BKN043 BKN100 15/08 Q1027 TEMPO VCSH RMK PP000=
SPZO Ene2005-112000Z 08002KT 360V110 9999 FEW040 BKN100 16/07 Q1026 NOSIG RMK PP000=
SPZO Ene2005-112100Z 08004KT 360V110 9999 FEW040 BKN100 16/08 Q1025 NOSIG RKM PP000=
SPZO Ene2005-112200Z 10007KT 070V170 9999 FEW040 BKN100 Q1025 NOSIG RMK PP000 TMAX 17.6=
SPZO Ene2005-112300Z 10004KT 050V170 9999 BKN043 SCT100 15/08 Q1026 NOSIG RMK PP000=
SPZO Ene2005-120000Z VRB01KT 9999 BKN040 SCT080 15/07 Q1027 RMK PP000=
SPZO Ene2005-120100Z 01004KT 9999 BKN040 SCT060 14/06 Q1028 RMK PP000=
SPZO Ene2005-120200Z 10005KT 9999 SCT040 SCT050 13/07 Q1029 RMK PP000=
SPZO Ene2005-120300Z 10005KT 9999 BKN040 SCT050 12/07 Q1030 RMK PP000=
SPZO Ene2005-120400Z 27008KT 9999 -RA BKN037 SCT046 12/08 Q1030 RMK PP002=
SPZO Ene2005-120500Z 00000KT 9999 OVC040 11/08 Q1030 RMK PP002=
SPZO Ene2005-120600Z 00000KT 9999 FEW030 OVC040 11/08 Q1030 RMK PP000=
SPZO Ene2005-120700Z 10004KT 9999 SCT030 SCT043 10/07 Q1029 RMK PP000=
SPZO Ene2005-120800Z VRB01KT 9999 SCT040 BKN043 10/08 Q1029 RMK PP000=
SPZO Ene2005-120900Z VRB02KT 9999 BKN040 SCT050 11/08 Q1029 RMK PP000=
SPZO Ene2005-121000Z VRB02KT 9999 FEW025 SCT040 BKN046 10/08 Q1030 RMK PP000=
SPZO Ene2005-121100Z VRB02KT 9999 FEW030 SCT040 BKN050 10/08 Q1030 RMK PP000=
SPZO Ene2005-121200Z 00000KT 9999 FEW025 SCT047 BKN300 11/08 Q1031 NOSIG RMK PP000=
SPZO Ene2005-121230Z 00000KT 9999 FEW025 SCT060 BKN100 12/07 Q103
SPZO Ene2005-121300Z 00000KT 9999 FEW030 SCT060 BKN100 13/08 Q1031 NOSIG RMK PP000=
SPZO Ene2005-121400Z 00000KT 9999 SCT037 SCT060 15/06 Q1031 NOSIG RMK PP000=
SPZO Ene2005-121500Z VRB03KT 9999 SCT037 SCT060 17/07 Q1031 NOSIG RMK PP000=
SPZO Ene2005-121600Z VRB02KT 9999 VCSH SCT040 BKN060 16/06 Q1030 NOSIG RMK PP000=
SPZO Ene2005-121700Z VRB05KT 9999 SCT043 SCT080 18/04 Q1030 NOSIG RMK PP000=
SPZO Ene2005-121800Z 10014KT 070V180 9999 SCT043 SCT060 19/08 Q1029
SPZO Ene2005-121900Z 10013KT 090V180 9999 SCT043 SCT060 17/06 Q1028
SPZO Ene2005-122000Z 09007KT 070V170 9999 FEW033 SCT043 19/06 Q1026 NOSIG RMK PP000=
SPZO Ene2005-122100Z VRB05KT 9999 SCT033TCU SCT043 20/05 Q1025 NOSIG RMK PP000=
SPZO Ene2005-122130Z 27012KT 9999 FEW033TCU BKN043TCU 17/07 Q1026 RMK RWY10 29020G31KT 250V340=
SPZO Ene2005-122200Z 28011KT 250V350 9999 SCT033 SCT043TCU 16/07 Q1026 NOSIG RMK PP000 TMAX 20.4=
SPZO Ene2005-122300Z 29005KT 270V350 9999 SCT043TCU 16/06 Q1026 NOSIG RMK PP000=
SPZO Ene2005-130000Z 24002KT 9999 SCT050 15/07 Q1027 RMK PP000=
SPZO Ene2005-130100Z 00000KT 9999 BKN050 13/08 Q1029 RMK PP000=
SPZO Ene2005-130200Z 00000KT 9999 BKN050 13/07 Q1030 RMK PP000=
SPZO Ene2005-130300Z 11002KT 9999 SCT050 12/08 Q1031 RMK PP000=
SPZO Ene2005-130400Z 00000KT 9999 SCT050 11/08 Q1031 RMK PP000=
SPZO Ene2005-130500Z 00000KT 9999 SCT050 10/07 Q1031 RMK PP000=
SPZO Ene2005-130600Z 00000KT 9999 SCT050 10/08 Q1030 RMK PP000=
SPZO Ene2005-130700Z 00000KT 9999 SCT050 10/08 Q1030 RMK PP000=
SPZO Ene2005-130800Z 08002KT 9999 SCT050 10/08 Q1029 RMK PP000=
SPZO Ene2005-130900Z 00000KT 9999 SCT050 10/08 Q1030 RMK PP000=
SPZO Ene2005-131000Z 00000KT 9999 BKN050 10/08 Q1030 RMK PP000=
SPZO Ene2005-131028Z 10003KT 8000 BKN040 SCT050 10/08 Q1031=
SPZO Ene2005-131100Z 10006KT 070V170 7000 VCSH FEW030 SCT040 BKN050 10/08 Q1031 RMK CUAD E PP000=
SPZO Ene2005-131110Z 11006KT 080V170 7000 -RA VCSH FEW020 BKN037 BKN047 10/08 Q1032 RMK CLNG BLW 1200M=
SPZO Ene2005-131200Z 10003KT 080V170 8000 -RA FEW020 BKN037 BKN053 09/07 Q1032 TEMPO FM1230 9999 NSW SCT037 RMKCLNG 1200M PP018=
SPZO Ene2005-131225Z 00000KT 9999 FEW020 SCT037 BKN053 10/07 Q1033 RERA=
SPZO Ene2005-131300Z 00000KT 9999 FEW025 SCT037 BKN053 11/07 Q1033 NOSIG RMK PPTRZ=
SPZO Ene2005-131400Z 00000KT 9999 FEW030 SCT037 BKN043 13/08 Q1033 NOSIG RMK PP000=
SPZO Ene2005-131436Z 00000KT 9999 FEW033 SCT100 16/08 Q1033=
SPZO Ene2005-131500Z VRB02KT 9999 SCT033 SCT080 17/09 Q1032 NOSIG RMK PP000=
SPZO Ene2005-131600Z VRB02KT 9999 SCT037 SCT080 17/07 Q1031 NOSIG RMK PP000=
SPZO Ene2005-131700Z VRB05KT 9999 FEW043 SCT047 19/08 Q1029 NOSIG RMK PP000=
SPZO Ene2005-131800Z VRB04KT 9999 BKN043 SCT060 21/05 Q1028 NOSIG RMK PP000=
SPZO Ene2005-131900Z 11005KT 090V190 9999 FEW040 BKN046 19/08 Q1026 TEMPO VCSH RMK PP000 RA CDTE E=
SPZO Ene2005-132000Z 07010KT 360V110 9999 SCT040 BKN050 17/07 Q1026 TEMPO VCRA RMK RWY10 03014G27KT RA CDTES SW-SE=
SPZO Ene2005-132100Z 28011KT 9999 SCT040TCU BKN050 15/08 Q1027 TEMPO VCRA RMK PP000 RWY10 27016KT RA CDTE W=
SPZO Ene2005-132113Z 27009KT 9999 -RA SCT040 BKN050 15/08 Q1027=
SPZO Ene2005-132200Z 29006KT 250V350 9999 -RATS FEW040CB BKN050 14/09 Q1027 NOSIG RMK PP002 TMX:21.0=
SPZO Ene2005-132300Z 00000KT 9999 RERA FEW036 BKN060 14/08 Q1027 NOSIG RMK PP002=
SPZO Ene2005-140000Z 00000KT 9999 OVC050 13/08 Q1029 RMK PP000=
SPZO Ene2005-140100Z 00000KT 9999 OVC050 14/09 Q1030 RMK PP000=
SPZO Ene2005-140200Z VRB05KT 9999 OVC050 13/06 Q1031 RMK PP000=
SPZO Ene2005-140300Z 26006KT 9999 OVC050 12/06 Q1032 RMK PP000=
SPZO Ene2005-140400Z 00000KT 9999 OVC050 11/06 Q1033 RMK PP000=
SPZO Ene2005-140500Z 00000KT 6000 -RA BKN040 SCT050 11/06 Q1032 RMK PP004=
SPZO Ene2005-140600Z 00000KT 6000 RA SCT040 SCT050 10/06 Q1032 RMK PP010=
SPZO Ene2005-140700Z 00000KT 5000 RA SCT040 BKN050 09/07 Q1031 RMK PP012=
SPZO Ene2005-140800Z 00000KT 5000 -RA SCT040 BKN050 09/07 Q1030 RMK PP006=
SPZO Ene2005-140900Z 00000KT 6000 -RA SCT040 BKN050 09/07 Q1030 RMK PP004=
SPZO Ene2005-141000Z 00000KT 7000 -RA FEW030 SCT040 BKN050 09/07 Q1030 RMK PP008=
SPZO Ene2005-141100Z 10003KT 7000 -RA SCT030 SCT040 BKN050 09/07 Q1031 RMK PP004=
SPZO Ene2005-141130Z VRB02KT 8000 RERA FEW020 SCT035 BKN043 09/07 Q1033 CLNG BLW 1200M=
SPZO Ene2005-141200Z 10002KT 9999 FEW025 SCT040 BKN046 09/07 Q1032 NOSIG RMK PPTRZ BCBR CDTE E=
SPZO Ene2005-141300Z VRB02KT 9999 FEW030 SCT040 BKN046 11/08 Q1032 NOSIG RMK PP000 BCBR CDTE NE=
SPZO Ene2005-141400Z VRB02KT 9999 FEW036 SCT043 13/07 Q1032 NOSIG RMK PP000=
SPZO Ene2005-141500Z VRB03KT 9999 FEW040 SCT060 16/08 Q1031 NOSIG RMK PP000=
SPZO Ene2005-141600Z VRB03KT 9999 FEW040 BKN046 18/08 Q1030 NOSIG RMK PP000 RWY10 13006KT HAZARD BIRD TWY C=
SPZO Ene2005-141700Z 10008KT 070V170 9999 -RA FEW040TCU BKN046 17/07 NOSIG Q1030 RMK PPTRZ=
SPZO Ene2005-141800Z VRB02KT 9999 RERA FEW043 BKN046 16/06 Q1029 NOSIG RMK PPTRZ RWY10 35006KT RA CDTE W=
SPZO Ene2005-141900Z 28010KT 9999 FEW043 BKN050 16/08 Q1027 NOSIG RMK PP000 RWY10 30014G24KT=
SPZO Ene2005-142000Z 27010KT 9999 RA SCT040TCU BKN050 16/08 Q1027 BECMG FM2040 NSW RMK PPTRZ RWY10 30014G24KT=
SPZO Ene2005-142016Z 29007KT 270V350 9999 RERA SCT043 BKN050 14/08 Q1027 RWY10 31012KT=
SPZO Ene2005-142100Z 29006KT 250V350 9999 FEW043 BKN090 15/07 Q1026 NOSIG RMK PP012 RWY10 31014G26=
SPZO Ene2005-142200Z 28008KT 250V350 9999 FEW046 OVC100 15/08 Q1026 NOSIG RMK PP000 28011G25KT TMX:18.7=
SPZO Ene2005-142228Z 24011KT 160V290 9999 RA SCT043TCU BKN050 13/06 Q1027=
SPZO Ene2005-142300Z 28014KT 260V350 8000 RATS SCT040CB BKN046 10/07 Q1028 NOSIG RMK PP030=
SPZO Ene2005-150000Z 29012KT 9000 -RA OVC040 11/07 Q1027 RMK PP010=
SPZO Ene2005-150100Z 00000KT 9999 BKN040 SCT070 10/07 Q1028 RMK PP002=
SPZO Ene2005-150200Z 00000KT 9999 SCT040 SCT080 10/08 Q1029 RMK PP000=
SPZO Ene2005-150300Z 00000KT 9999 BKN040 SCT080 10/08 Q1029 RMK PP000=
SPZO Ene2005-150400Z VRB02KT 9999 SCT030 BKN040 10/08 Q1029 RMK PP000=
SPZO Ene2005-150500Z VRB02KT 9999 FEW030 OVC040 10/08 Q1028 RMK PP000=
SPZO Ene2005-150600Z VRB03KT 9999 OVC040 09/07 Q1027 RMK PP000=
SPZO Ene2005-150700Z VRB02KT 9999 SCT040 SCT050 09/07 Q1027 RMK PP000=
SPZO Ene2005-150800Z 00000KT 9999 SCT040 SCT046 09/07 Q1027 RMK PP000=
SPZO Ene2005-150900Z VRB03KT 9999 SCT030 SCT070 08/06 Q1027 RMK PP000=
SPZO Ene2005-151000Z VRB01KT 9999 BKN043 SCT070 08/06 Q1028 RMK PP000=
SPZO Ene2005-151025Z VRB01KT 9999 SCT043 BKN070 08/06 Q1028=
SPZO Ene2005-151100Z 00000KT 9999 SCT043 BKN080 08/07 Q1029 RMK PP000=
SPZO Ene2005-151200Z 27002KT 9999 FEW046 OVC090 09/07 Q1030 NOSIG MRK PP000=
SPZO Ene2005-151300Z 00000KT 9999 OVC090 12/08 Q1030 NOSIG RMK PP000=
SPZO Ene2005-151400Z VRB02KT 9999 FEW046 OVC100 16/07 Q1030 NOSIG RMK PP000=
SPZO Ene2005-151500Z VRB03KT 9999 FEW046 BKN200 16/05 Q1029 NOSIG RK PP000=
SPZO Ene2005-151600Z VRB04KT 9999 FEW046 BKN200 17/05 Q1029 NOSIG RMK PP000 RWY10 26006KT HALO OVER HEAVEN =
SPZO Ene2005-151700Z VRB07KT 9999 FEW046 SCT200 20/05 Q1028 NOSIG RMK PP000 RWY10 17009KT HALO AROUND THE SUN=
SPZO Ene2005-151800Z 17007KT 090V260 9999 SCT046 SCT120 19/04 Q1027 NOSIG RMK PP000=
SPZO Ene2005-151900Z 17008KT 090V200 9999 SCT043 SCT300 19/01 Q1025 NOSIG RMK PP000=
SPZO Ene2005-152000Z VRB05KT 9999 SCT043 SCT300 20/04 Q1024 NOSIG RKM PP000=
SPZO Ene2005-152100Z VRB04KT 9999 SCT043 BKN300 21/03 Q1023 NOSIG RMK PP000=
SPZO Ene2005-152200Z 18004KT 160V260 9999 SCT060 BKN300 20/04 Q1023 NOSIG RMK PP000 TMAX 21.4=
SPZO Ene2005-152300Z 31009KT 270V020 9999 SCT043 BKN100 18/05 Q1024 NOSIG RMK PP000=
SPZO Ene2005-160000Z 29007KT 270V350 9999 OVC050 17/06 Q1024 RMK PP000=
SPZO Ene2005-160100Z 00000KT 9999 OVC050 15/08 Q1025 RMK PP000=
SPZO Ene2005-160200Z 00000KT 9999 OVC050 14/09 Q1026 RMK PP000=
SPZO Ene2005-160300Z VRB02KT 9999 SCT040 BKN050 14/06 Q1028 RMK PP000=
SPZO Ene2005-160400Z VRB02KT 9999 BKN040 SCT050 13/08 Q1027 RMK PP000=
SPZO Ene2005-160500Z 00000KT 9999 OVC040 13/08 Q1027 RMK PP000=
SPZO Ene2005-160600Z 00000KT 9999 OVC040 13/08 Q1027 RMK PP000=
SPZO Ene2005-160700Z VRB02KT 9999 OVC040 12/09 Q1026 RMK PP000=
SPZO Ene2005-160800Z 08002KT 9999 SCT040 SCT050 12/09 Q1026 RMK PP000=
SPZO Ene2005-160900Z 00000KT 9999 SCT040 BKN050 11/09 Q1026 RMK PP000=
SPZO Ene2005-161000Z 08003KT 9999 FEW040 BKN050 11/08 Q1027 RMK PP000=
SPZO Ene2005-161100Z 00000KT 9999 FEW040 SCT050 BKN060 11/06 Q1027 RMK PP000=
SPZO Ene2005-161132Z VRB01KT 9999 FEW033 SCT060 OVC100 11/07 Q1028=
SPZO Ene2005-161200Z 00000KT 9999 FEW040 SCT080 OVC100 12/07 Q1028 NOSIG RMK PP000=
SPZO Ene2005-161300Z VRB01KT 9999 FEW040 SCT080 OVC100 13/07 Q1029 NOSIG RMK PP000=
SPZO Ene2005-161400Z 10003KT 070V170 9999 FEW040 OVC100 14/05 Q1028 NOSIG RMK PP000=
SPZO Ene2005-161500Z 00000KT 9999 FEW043 OVC100 15/02 Q1029 NOSIG RMK PP000=
SPZO Ene2005-161600Z 00000KT 9999 FEW043 OVC100 15/02 Q1029 NOSIG RMK PP000=
SPZO Ene2005-161700Z 17006KT 090V260 9999 FEW060 OVC100 16/01 Q1028 NOSIG RMK PP000=
SPZO Ene2005-161800Z 11008KT 070V170 9999 FEW060 OVC150 16/01 Q1028 NOSIG RMK PP000=
SPZO Ene2005-161900Z 18004KT 090V260 9999 FEW060 OVC150 16/M01 Q1027 NOSIG RMK PP000=
SPZO Ene2005-162000Z VRB03KT 9999 FEW060 OVC150 16/02 Q1026 NOSIG RMK PP000=
SPZO Ene2005-162100Z 09004KT 070V170 9999 FEW060 OVC150 16/00 Q1025 NOSIG RMK PP000=
SPZO Ene2005-162200Z 08002KT 360V110 9999 SCT060 OVC150 16/02 Q1026 NOSIG RMK PP000 TMAX 16.9=
SPZO Ene2005-162300Z 27002KT 9999 BKN070 OVC100 15/03 Q1026 NOSIG RKM PP000=
SPZO Ene2005-170000Z 00000KT 9999 OVC060 14/04 Q1027 RMK PP000=
SPZO Ene2005-170100Z 00000KT 9999 OVC060 13/05 Q1028 RMK PP000=
SPZO Ene2005-170200Z 00000KT 9999 OVC060 12/06 Q1028 RMK PP000=
SPZO Ene2005-170300Z 07003KT 9999 OVC060 10/06 Q1029 RMK PP000=
SPZO Ene2005-170400Z 26002KT 9999 OVC060 10/06 Q1029 RMK PP000=
SPZO Ene2005-170500Z 28002KT 9999 OVC060 10/06 Q1029 RMK PP000=
SPZO Ene2005-170600Z 10002KT 9999 OVC060 10/07 Q1028 RMK PP000=
SPZO Ene2005-170700Z 00000KT 9999 OVC060 10/07 Q1027 RMK PP000=
SPZO Ene2005-170800Z 00000KT 9999 OVC060 09/06 Q1027 RMK PP000=
SPZO Ene2005-170900Z 00000KT 9999 OVC060 09/06 Q1027 RMK PP000=
SPZO Ene2005-171000Z 00000KT 9999 BKN060 SCT100 09/06 Q1027 RMK PP000=
SPZO Ene2005-171100Z 00000KT 9999 BKN050 SCT100 09/06 Q1028 RMK PP000=
SPZO Ene2005-171200Z 00000KT 9999 FEW040 SCT046 11/07 Q1028 NOSIG RMK PP000=
SPZO Ene2005-171300Z VRB03KT 9999 FEW040 BKN050 14/06 Q1029 NOSIG RMK PP000 RWY10 29013KT=
SPZO Ene2005-171400Z VRB02KT 9999 FEW040 SCT050 16/06 Q1029 NOSIG RMK PP000 17005KT=
SPZO Ene2005-171500Z VRB03KT 9999 SCT050 17/04 Q1029 NOSIG RMK PP000 RWY10 15007KT=
SPZO Ene2005-171600Z VRB04KT 9999 BKN050 19/06 Q1028 NOSIG RMK PP000 RWY10 23006KT=
SPZO Ene2005-171700Z VRB05KT 9999 FEW043 BKN050 18/04 Q1027 NOSIG RMK PP000 RWY10 12007KT=
SPZO Ene2005-171800Z VRB03KT 9999 FEW043 BKN050 19/06 Q1025 NOSIG RMK PP000=
SPZO Ene2005-171900Z 10004KT 9999 FEW046 BKN060 18/03 Q1025 NOSIG RMK PP000 RWY10 12005KT=
SPZO Ene2005-172000Z 29010KT 27V350 9999 FEW050 BKN070 19/05 Q1024 RMK RWY10 30018 260V340 PP000=
SPZO Ene2005-172100Z 28009KT 250V310 9999 SCT053 BKN070 20/04 Q1023 RMK RWY10 30015G22KT PP000=
SPZO Ene2005-172200Z 29015KT 9999 SCT050 SCT150 19/05 Q1023 RMK PP000 TMAX 20.8=
SPZO Ene2005-172300Z 29011KT 9999 FEW050 SCT200 17/06 Q1024 RMK PP000=
SPZO Ene2005-180000Z 10011KT 060V170 9999 SCT050 SCT100 14/08 Q1026 RMK PP000=
SPZO Ene2005-180015Z 09012KT 060V140 5000 RA SCT040 SCT050 11/09 Q1027=
SPZO Ene2005-180100Z VRB04KT 5000 +RA SCT030 SCT040 BKN050 11/08 Q1028 RMK PP070=
SPZO Ene2005-180105Z 12002KT 090V150 8000 FEW030 SCT040 BKN050 Q1028 RERA=
SPZO Ene2005-180200Z 10008KT 5000 RA FEW030 SCT040 BKN050 10/08 Q1029 RMK PP018=
SPZO Ene2005-180300Z VRB02KT 5000 +RA FEW030 SCT040 BKN050 10/08 Q1030 RMK PP044=
SPZO Ene2005-180400Z 09002KT 6000 RA FEW030 OVC040 10/08 Q1030 RMK PP014=
SPZO Ene2005-180500Z 28002KT 5000 +RA SCT030 OVC040 09/07 Q1030 RMK PP028=
SPZO Ene2005-180600Z 00000KT 8000 FEW030 OVC040 09/07 Q1029 RERA RMK PP008=
SPZO Ene2005-180700Z 08003KT 9999 FEW030 OVC040 10/08 Q1029 RMK PP000=
SPZO Ene2005-180800Z 00000KT 8000 -RA FEW030 OVC040 09/07 Q1028 RMK PPTRZ=
SPZO Ene2005-180900Z 08002KT 9000 FEW030 SCT040 BKN050 09/07 Q1029 RERA RMK PP002=
SPZO Ene2005-181000Z 07002KT 9999 FEW030 SCT040 BKN050 09/08 Q1029 RMK PP000=
SPZO Ene2005-181015Z 09002KT 8000 -RA FEW030 SCT040 BKN050 09/08 Q1029=
SPZO Ene2005-181030Z 10002KT 7000 -RABR FEW030 SCT040 BKN050 09/07 Q1029=
SPZO Ene2005-181100Z VRB03KT 9000 SCT040 SCT050 BKN060 09/08 Q1029 RERA RMK BR AL E PP002=
SPZO Ene2005-181132Z VRB03KT 9999 FEW030 BKN050 10/07 Q1030=
SPZO Ene2005-181200Z VRB02KT 9999 FEW030 BKN050 10/08 Q1030 NOSIG RMK PP000=
SPZO Ene2005-181300Z 00000KT 9999 FEW033 BKN050 12/08 Q1031 NOSIG RMK PP000=
SPZO Ene2005-181400Z VRB02KT 9999 FEW036 SCT050 14/06 Q1031 NOSIG RMK PP000=
SPZO Ene2005-181500Z VRB02KT 9999 SCT050 17/07 Q1030 NOSIG RMK PP000=
SPZO Ene2005-181600Z VRB05KT 9999 SCT050 18/04 Q1029 NOSIG RMK PP000=
SPZO Ene2005-181700Z VRB05KT 9999 FEW050 19/03 Q1028 NOSIG RMK PP000 RWY10 04015KT=
SPZO Ene2005-181800Z VRB05KT 9999 FEW050 20/M01 Q1027 NOSIG RMK PP000 RWY10 01010G22KT=
SPZO Ene2005-181900Z VRB05 9999 FEW050 21/M01 Q1026 NOSIG RMK PP000 RWY10 34008KT=
SPZO Ene2005-182000Z VRB04KT 9999 SCT050 21/M02 Q1024 RMK PP000=
SPZO Ene2005-182100Z 33005KT 260V020 9999 SCT050 21/02 Q1024 RMK PP000=
SPZO Ene2005-182200Z 34012KT 270V010 9999 SCT050 18/04 Q1024 RMK PP000 TMAX 21.8=
SPZO Ene2005-182300Z 01008KT 330V060 9999 SCT050 16/04 Q1025 RMK PP000=
SPZO Ene2005-190000Z 34008KT 9999 SCT040 SCT050 15/06 Q1026 RMK PP000=
SPZO Ene2005-190100Z 34009KT 9999 FEW040 SCT080 14/06 Q1027 RMK PP000=
SPZO Ene2005-190200Z VRB02KT 9999 FW040 BKN080 14/06 Q1028 RMK PP000=
SPZO Ene2005-190300Z VRB03KT 9999 SCT040 SCT080 13/03 Q1029 RMK PP000=
SPZO Ene2005-190400Z VRB02KT 9999 SCT040 SCT070 13/04 Q1029 RMK PP000=
SPZO Ene2005-190500Z 00000KT 9999 SCT040 SCT070 12/05 Q1028 RMK PP000=
SPZO Ene2005-190600Z 00000KT 9999 BKN040 SCT050 11/06 Q1028 RMK PP000=
SPZO Ene2005-190700Z 28006KT 9999 OVC040 12/06 Q1028 RMK PP000=
SPZO Ene2005-190800Z 00000KT 9999 OVC043 12/07 Q1028 RMK PP000=
SPZO Ene2005-190900Z 10005KT 9999 BKN040 SCT050 11/06 Q1028 RMK PP000=
SPZO Ene2005-191000Z 10006KT 9999 SCT040 SCT060 10/06 Q1028 RMK PP000=
SPZO Ene2005-191025Z 09005KT 9999 BKN040 SCT050 10/06 Q1028=
SPZO Ene2005-191100Z VRB01KT 9999 SCT040 SCT050 10/06 Q1029 RMK PP000=
SPZO Ene2005-191200Z VRB02KT 9999 FEW036 BKN050 11/06 Q1029 NOSIG RMK PP000=
SPZO Ene2005-191300Z VRB02KT 9999 FEW040 SCT050 15/07 Q1030 NOSIG RMK PP000=
SPZO Ene2005-191400Z VRB02KT 9999 FEW040 BKN060 15/07 Q1030 NOSIG RMK PP000=
SPZO Ene2005-191600Z VRB02KT 9999 FEW046 BKN060 19/05 Q1028 NOSIG RMK PP000=
SPZO Ene2005-191700Z VRB03KT 9999 FEW046 SCT050 20/06 Q1027 NOSIG RMK PP000 RWY10 06009KT=
SPZO Ene2005-191800Z VRB02KT 9999 FEW046 SCT050 22/03 Q1025 NOSIG RMK PP000 RWY10 18007KT=
SPZO Ene2005-191842Z 34011KT 9999 RATS SCT040CB SCT046 16/07 Q1025=
SPZO Ene2005-191900Z 35015KT 9999 RATS SCT040CB BKN046 13/05 Q1025 BECMG FM1930 NSW RMK PP014 RWY10 36016G29KT=
SPZO Ene2005-191935Z VRB05KT 9999 -RA SCT040 SCT046 15/08 Q1025=
SPZO Ene2005-192000Z 17005KT 120V260 9999 RERA FEW040 SCT046 15/08 Q1025 NOSIG RMK PP006 RWY10 15012KT=
SPZO Ene2005-192100Z 10010KT 070V130 9999 FEW040 SCT046 17/06 Q1024 NOSIG RMK PP000 RWY10 11007KT=
SPZO Ene2005-192200Z 10005KT 9999 BKN046 17/06 Q1024 TEMPO RA RMK PP000 RWY10 09005KT TMX:22.2=
SPZO Ene2005-192300Z VRB02KT 9999 SCT046 15/06 Q1024 NOSIG RMK PP000=
SPZO Ene2005-200000Z 09004KT 9999 SCT050 13/06 Q1025 RMK PP000=
SPZO Ene2005-200100Z 00000KT 9999 SCT050 13/07 Q1027 RMK PP000=
SPZO Ene2005-200200Z 29004KT 9999 FEW040 SCT080 11/07 Q1028 RMK PP000=
SPZO Ene2005-200300Z VRB02KT 9999 FEW040 SCT050 11/07 Q1029 RMK PP000=
SPZO Ene2005-200400Z VRB01KT 9999 FEW043 SCT050 12/08 Q1029 RMK PP000=
SPZO Ene2005-200500Z 00000KT 9999 SCT040 SCT050 12/08 Q1029 RMK PP000=
SPZO Ene2005-200600Z 00000KT 9999 SCT040 SCT050 12/08 Q1029 RMK PP000=
SPZO Ene2005-200700Z 28008KT 9999 -RA OVC040 11/08 Q1028 RMK PP006=
SPZO Ene2005-200800Z 36006KT 9999 -RA OVC040 10/07 Q1028 RMK PP004=
SPZO Ene2005-200900Z VRB03KT 9999 BKN040 SCT070 10/07 Q1028 RMK PP000=
SPZO Ene2005-201000Z VRB02KT 9999 SCT040 SCT050 09/07 Q1029 RMK PP000=
SPZO Ene2005-201100Z VRB03KT 9999 FEW040 SCT050 08/06 Q1029 RMK PP000=
SPZO Ene2005-201200Z 27004KT 9999 FEW040 BKN050 09/07 Q1030 NOSIG RMK PP000=
SPZO Ene2005-201300Z 00000KT 9999 BKN050 13/07 Q1030 NOSIG RMK PP000=
SPZO Ene2005-201400Z VRB02KT 9999 FEW040 SCT200 16/06 Q1030 NOSIG RMK PP000=
SPZO Ene2005-201500Z VRB02KT 9999 SCT040 SCT120 17/08 Q1029 NOSG RMK PP000=
SPZO Ene2005-201600Z VRB03KT 9999 SCT046 SCT120 17/05 Q1028 NOSIG RMK PP000=
SPZO Ene2005-201700Z 01012KT 340V080 9999 FEW036 SCT040 BKN046 15/05 Q1028 TEMPO RA RMK PP000 RWY10 02015G29KT 2017 CDTES NW-NE=
SPZO Ene2005-201800Z 18005KT 090V260 9999 SCT043 BKN050 16/04 Q1028 NOSIG RMK PP000 16009KT=
SPZO Ene2005-201900Z VRB02KT 9999 FEW046 OVC090 18/04 Q1027 NOSIG RMK PP000=
SPZO Ene2005-202000Z VRB02KT 9999 FEW046 OVC090 18/04 Q1025 NOSIG RMK PP000 RWY10 12011KT=
SPZO Ene2005-202100Z VRB04KT 9999 FEW046 OVC090 18/04 Q1024 NOSIG RMK PP000 RWY10 14008KT=
SPZO Ene2005-202200Z 10011KT 070V170 9999 SCT046 BKN050 16/05 Q1024 NOSIG RMK PP000 RWY10 11015G27KT RA CDTE NE TMX:18.0=
SPZO Ene2005-202300Z 36007KT 340V080 9999 -RA SCT046 BKN050 16/06 Q1025 NOSIG RMK PPTRZ RWY10 02009G19KT=
SPZO Ene2005-210000Z VRB02KT 9999 FEW043 BKN090 14/06 Q1026 NOSIG RMK PP000=
SPZO Ene2005-210100Z VRB04KT 99999 FEW043 BKN100 13/06 Q1028 RMK PP000=
SPZO Ene2005-210200Z 00000KT 9999 FEW043 BKN200 12/06 Q1028 RMK PP000 HALO AROUND MOON=
SPZO Ene2005-210300Z 00000KT 9999 FEW043 BKN200 12/07 Q1029 RMK PP000=
SPZO Ene2005-210400Z 00000KT 9999 FEW043 BKN200 11/07 Q1029 RMK PP000=
SPZO Ene2005-210500Z 00000KT 9999 FEW040 SCT200 11/07 Q1029 RMK PP000=
SPZO Ene2005-210600Z 00000KT 9999 SCT030 SCT040 11/07 Q1029 RMK PP000=
SPZO Ene2005-210700Z 00000KT 9999 SCT033 BKN043 11/07 Q1028 RMK PP000=
SPZO Ene2005-210800Z 10004KT 9999 SCT037 BKN043 10/07 Q1028 RMK PP000=
SPZO Ene2005-210900Z 00000KT 9999 FEW030 BKN040 10/07 Q1028 RMK PP000=
SPZO Ene2005-211000Z 00000KT 9999 SCT030 SCT050 10/07 Q1029 RMK PP000=
SPZO Ene2005-211100Z 00000KT 9999 SCT033 SCT050 10/07 Q1029 RMK PP000=
SPZO Ene2005-211200Z 00000KT 9999 FEW036 SCT046 BKN100 11/07 Q1030 NOSIG RMK PP000=
SPZO Ene2005-211300Z VRB02KT 9999 SCT043 BKN100 13/07 Q1031 NOSIG RMK PP000 BCBR CDTE NE=
SPZO Ene2005-211400Z VRB02KT 9999 SCT043 SCT100 14/07 Q1031 NOSIG RMK PP000=
SPZO Ene2005-211500Z VRB02KT 9999 SCT050 17/05 Q1031 NOSIG RMK PP000=
SPZO Ene2005-211600Z VRB04KT 9999 SCT050 18/03 Q1030 NOSIG RMK PP000 RWY10 08008KT=
SPZO Ene2005-211700Z VRB03KT 9999 BKN050 20/02 Q1029 NOSIG RMK PP000 RWY10 23005KT=
SPZO Ene2005-211800Z VRB03KT 9999 BKN050 20/02 Q1027 NOSIG RMK PP000 RWY10 36005KT=
SPZO Ene2005-211900Z VRB05KT 9999 BKN050 21/01 Q1026 NOSIG RMK PP000=
SPZO Ene2005-212000Z 00000KT 9999 SCT050 SCT200 21/02 Q1025 RMK RWY10 27010KT PP000=
SPZO Ene2005-212100Z 01020KT 9999 FEW050 SCT200 19/05 Q1024 RMK RWY10 36008KT PP000=
SPZO Ene2005-212200Z 11009KT 9999 SKC 18/06 Q1024 RMK PP000 TMAX 23.2=
SPZO Ene2005-212300Z 10010KT 9999 SKC 16/06 Q1024 RMK PP000=
SPZO Ene2005-220000Z 09007KT 9999 SKC 14/06 Q1026 RMK PP000=
SPZO Ene2005-220100Z 12004KT 9999 SKC 13/06 Q1027 RMK PP000=
SPZO Ene2005-220200Z 10007KT 9999 SKC 12/05 Q1028 RMK PP000=
SPZO Ene2005-220300Z 00000KT 9999 SKC 11/05 Q1029 RMK PP000=
SPZO Ene2005-220400Z 00000KT 9999 SKC 10/05 Q1030 RMK PP000=
SPZO Ene2005-220500Z 00000KT 9999 SKC 09/06 Q1029 RMK PP000=
SPZO Ene2005-220600Z 00000KT 9999 FEW040 09/06 Q1029 RMK PP000=
SPZO Ene2005-220700Z 00000KT 9999 SKC 08/05 Q1028 RMK PP000=
SPZO Ene2005-220800Z 00000KT 9999 FEW040 07/05 Q1028 RMK PP000=
SPZO Ene2005-220900Z 00000KT 9999 SKC 07/04 Q1029 RMK PP000=
SPZO Ene2005-221000Z 00000KT 9999 SKC 07/05 Q1029 RMK PP000=
SPZO Ene2005-221100Z 00000KT 9999 SCT200 06/05 Q1030 RMK HZ PP000=
SPZO Ene2005-221200Z 00000KT 9999 FEW040 BKN200 08/06 Q1031 NOSIG RMK PP000=
SPZO Ene2005-221300Z VRB02KT 9999 FEW040 SCT200 12/07 Q1031 NOSIG RMK PP000=
SPZO Ene2005-221400Z VRB02KT 9999 SCT046 15/06 Q1032 NOSIG RMK PP000=
SPZO Ene2005-221500Z VRB02KT 9999 FEW050 SCT200 18/06 Q1031 NOSIG RMK PP000=
SPZO Ene2005-221600Z VRB05KT 9999 SCT050 19/03 Q1030 NOSIG RMK PP000 RWY10 13007KT=
SPZO Ene2005-221700Z VRB03KT 9999 SCT050 21/M02 Q1029 NOSIG RMK PP000 RWY10 16011KT=
SPZO Ene2005-221800Z VRB05KT 9999 SCT050 21/00 Q1028 NOSIG RMK PP000 RWY10 21005G21KT=
SPZO Ene2005-221900Z VRB04KT 9999 SCT050 22/M03 Q1027 NOSIG RMK RWY10 36008G19KT PP000=
SPZO Ene2005-222000Z VRB04KT 9999 SCT050 23/M06 Q1025 RMK WIND RWY10 28014G27KT PP000=
SPZO Ene2005-222100Z 21006KT 110V280 9999 SCT050 SCT100 23/M07 Q1025 RMK WIND RWY10 27006G15KT 220V320 PP000=
SPZO Ene2005-222200Z 36009KT 9999 SCT050 21/02 Q1024 RMK PP000 TMAX 23.7=
SPZO Ene2005-222300Z 36008KT 340V080 9999 SCT050 19/05 Q1025 RMK PP000=
SPZO Ene2005-230000Z VRB02KT 9999 FEW050 SCT300 16/06 Q1027 RMK PP000=
SPZO Ene2005-230100Z VRB02KT 9999 FEW050 14/06 Q1029 RMK PP000=
SPZO Ene2005-230200Z 09005KT 9999 FEW050 12/06 Q1030 RMK PP000=
SPZO Ene2005-230300Z VRB03KT 9999 SKC 12/06 Q1030 RMK PP000=
SPZO Ene2005-230400Z 00000KT 9999 SCT100 11/07 Q1031 RMK PP000=
SPZO Ene2005-230500Z 00000KT 9999 SCT100 11/06 Q1031 RMK PP000=
SPZO Ene2005-230600Z 00000KT 9999 FEW050 09/06 Q1030 RMK PP000=
SPZO Ene2005-230700Z 00000KT 9999 SKC 09/05 Q1030 RMK PP000=
SPZO Ene2005-230800Z 00000KT 9999 FEW200 08/05 Q1030 RMK PP000=
SPZO Ene2005-230900Z 00000KT 9999 FEW040 07/05 Q1030 RMK PP000=
SPZO Ene2005-231000Z 00000KT 9999 FEW050 07/05 Q1030 RMK PP000=
SPZO Ene2005-231030Z VRB01KT 9999 FEW037 SCT050 07/05 Q1031=
SPZO Ene2005-231100Z VRB01KT 9999 FEW037 SCT050 07/05 Q1031 RMK PP000=
SPZO Ene2005-231200Z 08002KT 9999 FEW040 11/06 Q1032 NOSIG RMK PP000=
SPZO Ene2005-231300Z VRB02KT 9999 FEW040 14/06 Q1032 NOSIG RMK PP000=
SPZO Ene2005-231400Z 12004KT 090V170 9999 FEW040 SCT046 15/06 Q1032 NOSIG RMK PP000=
SPZO Ene2005-231500Z VRB02KT 9999 FEW043 BKN050 17/06 Q1032 NOSIG RMK PP000=
SPZO Ene2005-231600Z VRB02KT 9999 BKN050 18/05 Q1031 NOSIG RMK PP000=
SPZO Ene2005-231700Z VRB03KT 9999 FEW043 BKN050 19/05 Q1029 NOSIG RMK PP000 RWY10 VRB07KT RA CDTE NE=
SPZO Ene2005-231800Z 16011KT 090V200 9999 SCT043 BKN050 17/06 Q1029 NOSIG RMK PP000 RWY10 13025G39KT RA CDTE W/NE=
SPZO Ene2005-231900Z VRB04KT 9999 FEW043 BKN050 17/05 Q1028 NOSIG RMK PP000=
SPZO Ene2005-232000Z VRB03KT 9999 SCT050 SCT080 19/05 Q1026 RMK PP000=
SPZO Ene2005-232100Z VRB03KT 9999 SCT050 SCT080 21/05 Q1025 RMK PP000=
SPZO Ene2005-232200Z 01009KT 340V080 9999 SCT050 SCT080 19/05 Q1025 RMK PP000 TMAX 21.3=
SPZO Ene2005-232300Z 01008KT 340V080 9999 SCT050 SCT080 17/06 Q1026 RMK PP000=
SPZO Ene2005-240000Z 06005KT 9999 SCT050 SCT080 16/06 Q1027 RMK PP000=
SPZO Ene2005-240100Z 00000KT 9999 FEW050 SCT080 14/07 Q1028 RMK PP000=
SPZO Ene2005-240200Z VRB03KT 9999 FEW040 SCT070 14/07 Q1029 RMK PP000=
SPZO Ene2005-240300Z 10005KT 9999 FEW040 BKN070 13/07 Q1031 RMK PP000=
SPZO Ene2005-240400Z VRB03KT 9999 BKN080 13/07 Q1031 RMK PP000=
SPZO Ene2005-240500Z VRB02KT 9999 SCT040 SCT070 11/07 Q1030 RMK PP000=
SPZO Ene2005-240600Z VRB03KT 9999 SCT040 SCT080 10/06 Q1030 RMK PP000=
SPZO Ene2005-240700Z VRB02KT 9999 SCT070 10/07 Q1029 RMK PP000=
SPZO Ene2005-240800Z 00000KT 9999 FEW040 SCT070 10/07 Q1028 RMK PP000=
SPZO Ene2005-240900Z VRB03KT 9999 SCT040 SCT080 10/07 Q1028 RMK PP000=
SPZO Ene2005-241000Z 00000KT 9999 SCT040 SCT080 10/07 Q1028 RMK PP000=
SPZO Ene2005-241100Z 00000KT 9999 BKN043 SCT080 10/07 Q1029 RMK PP000=
SPZO Ene2005-241200Z 10003KT 9999 SCT043 OVC090 10/07 Q1030 NOSIG RMK PP000 RWY10 12008KT=
SPZO Ene2005-241300Z VRB02KT 9999 FEW046 OVC080 11/07 Q1031 NOSIG RMK PP000=
SPZO Ene2005-241400Z VRB03KT 9999 FEW036 SCT043 BKN060 14/07 Q1031 NOSIG RMK PP000=
SPZO Ene2005-241500Z VRB02KT 9999 SCT043 BKN060 15/07 Q1031 NOSIG RMK PP000 RWY10 10008KT=
SPZO Ene2005-241600Z 09004KT 9999 SCT043 BKN050 17/08 Q1030 NOSIG RMK PP000 RWY10 11007KT=
SPZO Ene2005-241700Z 13004KT 070V200 9999 FEW043 BKN050 18/05 Q1029 NOSIG RMK PP000 RWY10 12005KT=
SPZO Ene2005-241800Z 01014KT 340V080 9999 SCT043 BKN050 15/07 Q1029 TEMPO VCSH RMK PP000 RWY10 02018G34KT=
SPZO Ene2005-241900Z 28015KT 260V350 9999 SCT043 BKN050 17/06 Q1028 NOSIG RMK PP000 RWY10 29021G34KT=
SPZO Ene2005-241920Z 27015KT 250V360 9999 VCRA SCT040 SCT050 15/06 Q1028=
SPZO Ene2005-242000Z 28015KT 9999 VCRA SCT040 SCT050 15/06 Q1028 RMK RWY10 29024KT PP000=
SPZO Ene2005-242100Z 28011KT 9999 VCRA FEW037 SCT040 BKN050 14/06 Q1028 RMK RWY 28017KT PP000=
SPZO Ene2005-242115Z 28008KT 250V350 9999 -RA BKN040 SCT070 14/07 Q1028 RMK RWY10 28018KT=
SPZO Ene2005-242125Z 28008KT 9999 VCRA BKN040 SCT080 14/08 Q1028=
SPZO Ene2005-242200Z 28010KT 240V360 9999 VCRA BKN040 SCT050 14/07 Q1028 RMK PP002 TMAX 18.3=
SPZO Ene2005-242300Z 26012KT 9999 BKN040 SCT050 13/06 Q1028 RMK PP002=
SPZO Ene2005-250000Z 28005KT 9999 OVC050 12/06 Q1029 RMK PP000=
SPZO Ene2005-250100Z 12003KT 9999 OVC050 11/07 Q1029 RMK PP000=
SPZO Ene2005-250200Z 00000KT 9999 OVC050 11/07 Q1030 RMK PP000=
SPZO Ene2005-250300Z 00000KT 9999 OVC050 10/07 Q1030 RMK PP000=
SPZO Ene2005-250400Z 00000KT 9999 BKN050 09/06 Q1030 RMK PP000=
SPZO Ene2005-250500Z 00000KT 9999 BKN050 08/06 Q1030 RMK PP000=
SPZO Ene2005-250600Z 00000KT 9999 BKN050 08/06 Q1030 RMK PP000=
SPZO Ene2005-250700Z 00000KT 9999 SCT050 06/05 Q1029 RMK PP000=
SPZO Ene2005-250800Z 00000KT 9999 SCT050 07/05 Q1029 RMK PP000=
SPZO Ene2005-250900Z 00000KT 9999 SCT050 07/05 Q1029 RMK PP000=
SPZO Ene2005-251000Z 00000KT 9999 SCT050 07/05 Q1029 RMK PP000=
SPZO Ene2005-251100Z 00000KT 9999 SCT050 06/05 Q1030 RMK PP000=
SPZO Ene2005-251200Z VRB01KT 9000E FEW040 SCT120 09/06 Q1031 NOSIG RMK PP000=
SPZO Ene2005-251300Z VRB02KT 9999 FEW040 SCT200 12/07 Q1031 NOSIG RMK PP000=
SPZO Ene2005-251400Z 06004KT 360V110 9999 FEW040 SCT300 14/07 Q1031 NOSIG RMK PP000=
SPZO Ene2005-251500Z VRB02KT 9999 FEW040 BKN300 17/05 Q1031 NOSIG RMK PP000 RWY10 VRB06KT=
SPZO Ene2005-251600Z VRB02KT 9999 FEW043 SCT050 19/05 Q1030 NOSIG RMK PP000 RWY10 11006G16KT=
SPZO Ene2005-251700Z VRB03KT 9999 BKN050 20/07 Q1028 NOSIG RMK PP000 RWY10 VRB06KT=
SPZO Ene2005-251800Z 01009KT 340V080 9999 SCT043 SCT050 18/05 Q1027 TEMPO VCRA RMK PP000 RWY10 34013KT RA CDTE NE=
SPZO Ene2005-251900Z 36008KT 340V080 9999 SCT043 BKN060 18/06 Q1027 NOSIG RMK PP000 RWY10 35010G21KT=
SPZO Ene2005-252000Z 31005KT 250V360 9999 FEW050 SCT070 BKN200 19/05 Q1026 RMK RWY10 31007KT PP000=
SPZO Ene2005-252100Z 03005KT 9999 SCT050 BKN150 19/04 Q1025 RMK PP000=
SPZO Ene2005-252200Z 11020KT 9999 FEW050 SCT080 BKN200 17/06 Q1025 RMK PP000 TMAX 20.5=
SPZO Ene2005-252300Z 10005KT 9999 FEW050 BKN200 16/07 Q1025 RMK PP000=
SPZO Ene2005-260000Z 00000KT 9999 BKN050 SCT100 15/06 Q1026 RMK PP000=
SPZO Ene2005-260100Z 00000KT 9999 BKN050 14/06 Q1027 RMK PP000=
SPZO Ene2005-260200Z 00000KT 9999 BKN050 13/06 Q1029 RMK PP000=
SPZO Ene2005-260300Z 27004KT 9999 BKN050 13/06 Q1029 RMK PP000=
SPZO Ene2005-260400Z 16004KT 090V260 9999 BKN050 13/06 Q1030 RMK PP000=
SPZO Ene2005-260500Z 07002KT 350V110 9999 BKN050 11/07 Q1030 RMK PP000=
SPZO Ene2005-260600Z 21003KT 160V260 5000 +RA SCT030 SCT040 BKN050 10/08 Q1030 RMK PP026=
SPZO Ene2005-260700Z 11006KT 080V140 6000 -RA FEW030 SCT040 BKN050 10/08 Q1029 RMK PP006=
SPZO Ene2005-260800Z 12002KT 090V150 6000 -RA FEW030 SCT040 BKN050 10/08 Q1029 RMK PP004=
SPZO Ene2005-260900Z 00000KT 7000 -RA FEW030 SCT040 BKN050 10/08 Q1029 RMK PPTRZ=
SPZO Ene2005-261000Z 00000KT 7000 -RA FEW030 SCT040 BKN050 10/08 Q1029 RMK PPTRZ=
SPZO Ene2005-261100Z 11003KT 090V170 9000 FEW030 SCT040 BKN050 10/08 Q1030 RMK PP002=
SPZO Ene2005-261200Z VRB02KT 9999 FEW030 SCT040 BKN050 10/08 Q1031 NOSIGR RMK PP000=
SPZO Ene2005-261300Z VRB02KT 9999 FEW033 SCT043 BKN090 11/08 Q1031 NOSIG RMK PP000=
SPZO Ene2005-261400Z VRB02KT 9999 FEW035 BKN090 13/07 Q1032 NOSIG RMK PP000=
SPZO Ene2005-261500Z VRB02KT 9999 SCT043 16/08 Q1031 NOSIG RMK PP000 RWY10 06006KT=
SPZO Ene2005-261600Z VRB02KT 9999 BKN046 19/06 Q1030 NOSIG RMK PP000 RWY10 09006KT=
SPZO Ene2005-261700Z VRB03KT 9999 FEW043 BKN050 19/08 Q1029 NOSIG RMK PP000 RWY10 24015KT=
SPZO Ene2005-261800Z 28010KT 250V350 9999 FEW043 BKN060 20/09 Q1028 NOSIG RMK PP000=
SPZO Ene2005-261900Z 01009KT 270V080 9999 -RA FEW043 SCT046 BKN060 17/07 Q1027 TEMPO VCRA RMK PP000 RWY10 34009KT=
SPZO Ene2005-262000Z 35008KT 270V020 9000 BKN050 SCT070 18/05 Q1027 RERA RMK PPTRZ=
SPZO Ene2005-262100Z 35007KT 270V020 9999 BKN050 SCT070 18/05 Q1026 RMK PP000=
SPZO Ene2005-262200Z 36010KT 340V080 9999 BKN050 SCT070 16/06 Q1026 RMK PP000 TMAX 20.9=
SPZO Ene2005-262300Z 00000KT 9999 BKN050 SCT100 15/06 Q1027 RMK PP000=
SPZO Ene2005-270000Z VRB03KT 9999 BKN040 SCT060 14/06 Q1O29 RMK PP000=
SPZO Ene2005-270100Z VRB03KT 9999 FEW043 SCT100 12/06 Q1030 RMK PP000=
SPZO Ene2005-270200Z 11004KT 9999 BKN040 SCT050 12/07 Q1031 RMK PP000=
SPZO Ene2005-270300Z 07009KT 9999 RA OVC040 12/06 Q1031 RMK PP024=
SPZO Ene2005-270400Z 00000KT 9999 -RA BKN040 SCT070 09/07 Q1034 RMK PP032=
SPZO Ene2005-270500Z 00000KT 9999 -RA OVC040 09/07 Q1033 RMK PP016=
SPZO Ene2005-270600Z 00000KT 9999 BKN040 SCT046 09/07 Q1032 RMK PP002=
SPZO Ene2005-270700Z VRB02KT 9999 OVC040 09/07 Q1031 RMK PP000=
SPZO Ene2005-270800Z VRB03KT 9999 SCT040 SCT080 09/07 Q1030 RMK PP000=
SPZO Ene2005-270900Z 00000KT 9999 BKN040 SCT070 09/06 Q1030 RMK PP000=
SPZO Ene2005-271000Z VRB03KT 9999 FEW030 SCT070 08/06 Q1030 RMK PP000=
SPZO Ene2005-271100Z 00000KT 9999 SCT030 SCT070 08/06 Q1031 RMK PP000=
SPZO Ene2005-271127Z VRB02KT 9000E FEW036 SCT050 09/07 Q1031 RMK BCBR CDTE E=
SPZO Ene2005-271200Z 09002KT 9999 FEW030 SCT043 10/07 Q1031 NOSIG RMK PP000 BCBR CDTE E=
SPZO Ene2005-271300Z VRB02KT 9999 FEW036 SCT046 12/07 Q1032 NOSIG RMK PP000=
SPZO Ene2005-271400Z VRB03KT 9999 FEW036 SCT046 14/06 Q1032 NOSIG RMK PP000 VRB06KT=
SPZO Ene2005-271500Z VRB03KT 9999 SCT046 15/05 Q1031 NOSIG RMK PP000=
SPZO Ene2005-271600Z VRB04KT 9999 SCT050 17/07 Q1031 NOSIG RMK PP000 RWY10 VRB06KT=
SPZO Ene2005-271700Z VRB03KT 9999 SCT050 19/04 Q1030 NOSIG RMK PP000 RWY10 12012KT=
SPZO Ene2005-271800Z 17004KT 090V200 9999 SCT050 20/06 Q1028 NOSIG RMK PP000 RWY10 13011KT=
SPZO Ene2005-271900Z VRB04KT 9999 SCT050 21/04 Q1026 NOSIG RMK PP000 RWY10 10008KT=
SPZO Ene2005-272000Z VRB03KT 9999 SCT050 22/02 Q1024 RMK PP000=
SPZO Ene2005-272100Z 10006KT 070V170 BKN050 19/03 Q1024 RMK PP000=
SPZO Ene2005-272200Z 13008KT 090V180 9999 BKN050 18/07 Q1025 RMK PP000 TMAX 22.7=
SPZO Ene2005-272300Z 10007KT 9999 BKN050 16/08 Q1025 RMK PP000=
SPZO Ene2005-280000Z VRB03KT 9999 BKN050 14/07 Q1026 RMK PP000=
SPZO Ene2005-280100Z 000000KT 9999 BKN050 14/08 Q1017 RMK PP000=
SPZO Ene2005-280200Z 00000KT 9999 FEW040 SCT080 14/08 Q1028 RMK PP000=
SPZO Ene2005-280300Z VRB03KT 9999 FEW040 SCT080 13/08 Q1029 RMK PP000=
SPZO Ene2005-280400Z VRB03KT 9999 BKN050 13/08 Q1030 RMK PP000=
SPZO Ene2005-280500Z 00000KT 9999 SCT040 SCT080 12/08 Q1029 RMK PP000=
SPZO Ene2005-280600Z 00000KT 9999 SCT043 SCT080 11/09 Q1029 RMK PP000=
SPZO Ene2005-280700Z 00000KT 9999 BKN040 11/08 Q1029 RMK PP000=
SPZO Ene2005-280800Z 00000KT 9999 FEW040 BKN050 10/08 Q1029 RMK PP000=
SPZO Ene2005-280900Z 00000KT 9999 BKN040 SCT050 10/08 Q1028 RMK PP000=
SPZO Ene2005-281000Z VRB02KT 9999 SCT040 SCT060 10/08 Q1029 RMK PP000=
SPZO Ene2005-281030Z VRB01KT 9999 BKN040 SCT050 10/08 Q1029 RMK PP000
SPZO Ene2005-281100Z VRB02KT 9999 FEW037 SCT040 BKN046 10/08 Q1029 RMK PP000=
SPZO Ene2005-281200Z 00000KT 9999 FEW036 SCT040 BKN050 11/09 Q1030 NOSIG RMK PP000=
SPZO Ene2005-281300Z 00000KT 9999 FEW036 SCT040 SCT050 13/09 Q1031 NOSIG RMK PP000=
SPZO Ene2005-281400Z VRB03KT 9999 SCT046 16/07 Q1030 NOSIG RMK PP000=
SPZO Ene2005-281500Z 09004KT 360V170 9999 SCT046 17/07 Q1030 NOSIG RMK PP000=
SPZO Ene2005-281600Z VRB03KT 9999 SCT050 19/06 Q1029 NOSIG RMK PP000
SPZO Ene2005-281700Z VRB03KT 9999 SCT050 21/06 Q1027 NOSIG RMK PPP000
SPZO Ene2005-281800Z VRB03KT 9999 SCT046 SCT060 21/04 Q1026 NOSIG RMK PP000 RWY10 36007G17KT=
SPZO Ene2005-281900Z 30014KT 260V350 9999 TS FEW043TCU BKN050 20/06 Q1025 TEMPO VCRA RMK PP000 RAY10 24018KT=
SPZO Ene2005-282000Z 28007KT 180V290 9999 RA BKN040 SCT046 16/06 Q1025 RMK PP004=
SPZO Ene2005-282020Z 10012KT 030V180 9999 VCRA BKN040 SCT050 Q1025 RMK RWY10 10027KT=
SPZO Ene2005-282100Z 15005KT 060V180 9999 -RA BKN040 SCT046 13/09 Q1025 RMK PP006=
SPZO Ene2005-282105Z VRB02KT 9999 RERA SCT040 SCT050 14/09 Q1025=
SPZO Ene2005-282200Z VRB02KT 250V360 9999 SCT043 SCT100 16/08 Q1024 RMK PP002 TMAX 21.8=
SPZO Ene2005-282300Z 00000KT 9999 FEW050 SCT200 16/07 Q1024 RMK PP000=
SPZO Ene2005-290000Z 07002KT 360V170 9999 SCT050 SCT100 15/09 Q1025 RMK PP000=
SPZO Ene2005-290100Z 21003KT 180V260 9999 BKN050 14/09 Q1026 RMK PP000=
SPZO Ene2005-290200Z 10002KT 070V130 9999 BKN050 12/09 Q1027 RMK PP000=
SPZO Ene2005-290300Z 00000KT 9999 BKN050 12/09 Q1028 RMK PP000=
SPZO Ene2005-290400Z 33007KT 270V350 9999 OVC050 12/06 Q1028 RMK PP000=
SPZO Ene2005-290500Z 25003KT 220V280 9999 OVC050 12/07 Q1028 RMK PP000=
SPZO Ene2005-290600Z VRB03KT 9999 OVC050 12/07 Q1028 RMK PP000=
SPZO Ene2005-290700Z 25008KT 180V280 8000 -RA SCT040 BKN050 11/07 Q1027 RMK PPTRZ=
SPZO Ene2005-290800Z 28004KT 250V350 9000 FEW040 BKN050 11/07 Q1027 RERA RMK PPTRZ=
SPZO Ene2005-290900Z 27002KT 9999 FEW040 BKN050 10/07 Q1027 RMK PP000=
SPZO Ene2005-291000Z 00000KT 9999 OVC050 10/07 Q1027 RMK PP000=
SPZO Ene2005-291100Z 00000KT 9999 BKN050 SCT100 09/07 Q1028 RMK PP000=
SPZO Ene2005-291200Z 00000KT 9999 BKN043 SCT080 10/08 Q1029 NOSIG RMK PP000=
SPZO Ene2005-291300Z 00000KT 9999 FEW036 SCT043 BKN100 13/07 Q1029 NOSIG RMK PP000=
SPZO Ene2005-291400Z VRB02KT 9999 SCT046 SCT100 14/08 Q1029 NOSIG RMK PP000=
SPZO Ene2005-291500Z VRB02KT 9999 SCT046 SCT100 16/08 Q1029 NOSIG RMK PP000=
SPZO Ene2005-291600Z VRB03KT 9999 SCT050 SCT200 18/07 Q1028 NOSIG RMK PP000=
SPZO Ene2005-291700Z VRB04KT 9999 SCT043 SCT050 20/05 Q1027 NOSIG RMK PP000 RWY10 36009KT=
SPZO Ene2005-291800Z VRB02KT 9999 SCT046 SCT050 19/04 Q1025 TEMPO VCSH RMK PP000 RWY10 27009G21KT=
SPZO Ene2005-291836Z 06012KT 360V090 9000 TSRA SCT040CB SCT046 16/07 Q1025=
SPZO Ene2005-291900Z 01009KT 340V080 9999 TSRA SCT040CB SCT050 15/07 Q1025 BECMG FM1920 NSW RMK PP016 RWY10
SPZO Ene2005-292000Z VRB02KT 9999 FEW043 SCT050 16/07 Q1024 NOSIG RMK PP002 RWY10 13004KT=
SPZO Ene2005-292100Z VRB03KT 9999 FEW043 SCT090 18/06 Q1023 NOSIG RMK PP000=
SPZO Ene2005-292200Z VRB02KT 9999 FEW046 SCT100 20/05 Q1023 NOSIG RMK PP000 RWY10 29006KT TMX:20.9=
SPZO Ene2005-292300Z VRB02KT 9999 FEW046 SCT200 18/05 Q1023 NOSIG RMK PP000=
SPZO Ene2005-300000Z 08004KT 360V110 9999 SCT050 SCT100 13/07 Q1024 RMK PP000=
SPZO Ene2005-300100Z 00000KT 9999 SCT050 SCT100 13/08 Q1026 RMK PP000=
SPZO Ene2005-300200Z 00000KT 9999 BKN050 12/08 Q1026 RMK PP000=
SPZO Ene2005-300300Z 00000KT 9999 BKN050 13/09 Q1027 RMK PP000=
SPZO Ene2005-300400Z 00000KT 9999 BKN050 12/08 Q1027 RMK PP000=
SPZO Ene2005-300500Z 24004KT 9999 BKN050 12/05 Q1027 RMK PP000=
SPZO Ene2005-300600Z 27004KT 9999 BKN050 11/06 Q1027 RMK PP000=
SPZO Ene2005-300700Z 26004KT 9999 BKN050 12/06 Q1026 RMK PP000=
SPZO Ene2005-300800Z 00000KT 9999 BKN050 10/06 Q1026 RMK PP000=
SPZO Ene2005-300900Z 00000KT 9999 BKN050 09/06 Q1025 RMK PP000=
SPZO Ene2005-301000Z 00000KT 9999 BKN050 07/04 Q1026 RMK PP000=
SPZO Ene2005-301100Z 00000KT 9999 SCT050 08/06 Q1027 RMK PP000=
SPZO Ene2005-301200Z 00000KT 9999 BKN100 08/06 Q1028 NOSIG RMK PP000=
SPZO Ene2005-301300Z 00000KT 9999 FEW046 BKN100 11/07 Q1028 NOSIG RMK PP000=
SPZO Ene2005-301400Z VRB02KT 9999 FEW040 BKN120 13/06 Q1028 NOSIG RMK PP000=
SPZO Ene2005-301500Z VRB02KT 9999 FEW043 SCT120 16/05 Q1028 NOSIG RMK PP000=
SPZO Ene2005-301600Z VRB03KT 9999 FEW040 BKN120 16/06 Q1028 NOSIG RMK PP000=
SPZO Ene2005-301700Z VRB02KT 9999 FEW046 BKN200 17/04 Q1026 NOSIG RMK PP000=
SPZO Ene2005-301800Z VRB02KT 9999 FEW046 BKN200 18/06 Q1025 NOSIG RMK PP000 RWY10 17006KT=
SPZO Ene2005-301900Z VRB02KT 9999 SCT046 SCT200 20/07 Q1023 NOSIG RMK PP000 RWY10 15006KT=
SPZO Ene2005-302000Z VRB06KT 9999 SCT050 SCT100 21/05 Q1022 RMK PP000=
SPZO Ene2005-302100Z 10007KT 070V170 9999 SCT050 SCT080 20/05 Q1021 RMK PP000=
SPZO Ene2005-302200Z 10014KT 360V170 9999 BKN050 16/04 Q1022 RMK PP000 TMAX 21.2=
SPZO Ene2005-302300Z VRB02KT 9999 BKN050 15/06 Q1022 RMK PP000=
SPZO Ene2005-310000Z 10004KT 9999 BKN050 SCT100 14/06 Q1023 RMK PP000=
SPZO Ene2005-310100Z 00000KT 9999 FEW050 SCT100 13/07 Q1025 RMK PP000=
SPZO Ene2005-310200Z 00000KT 9999 BKN040 SCT070 14/06 Q1026 RMK PP000=
SPZO Ene2005-310300Z VRB03KT 9999 SCT043 SCT080 12/08 Q1027 RMK PP000=
SPZO Ene2005-310400Z 10006KT 9999 SCT040 SCT070 12/08 Q1028 RMK PP000=
SPZO Ene2005-310500Z 00000KT 9999 -RA OVC040 11/08 Q1028 RMK PP002=
SPZO Ene2005-310600Z 00000KT 9999 BKN040 SCT046 11/08 Q1028 RMK PP008=
SPZO Ene2005-310700Z 00000KT 9999 BKN040 SCT050 10/08 Q1027 RMK PP002=
SPZO Ene2005-310800Z VRB03KT 9999 BKN037 SCT046 09/07 Q1027 RMK PP000=
SPZO Ene2005-310900Z 00000KT 9999 SCT030 BKN040 10/08 Q1027 RMK PP000=
SPZO Ene2005-311000Z VRB02KT 9999 FEW025 SCT040 BKN050 10/07 Q027 RMK PP000=
SPZO Ene2005-311100Z VRB02KT 9999 SCT037 SCT070 09/07 Q1028 RMK PP000=
SPZO Ene2005-311200Z 00000KT 9999 FEW036 SCT050 12/07 Q1028 NOSIG RMK PP000=
SPZO Ene2005-311300Z VRB01KT 9999 FEW036 SCT046 15/08 Q1028 NOSIG RMK PP000=
SPZO Ene2005-311400Z VRB03KT 9999 FEW036 SCT050 14/06 Q1028 NOSIG RMK PP000=
SPZO Ene2005-311500Z 06004KT 9999 FEW036 BKN050 15/07 Q1028 NOSIG RMK PP000=
SPZO Ene2005-311600Z 08007KT 360V110 9999 FEW036 BKN046 15/06 Q1028 TEMPO VCRA RMK PP000 RA CDTE E=
SPZO Ene2005-311700Z 18005KT 090V260 9999 FEW043 SCT050 17/07 Q1027 NOSIG RMK PP000 RWY10 04005KT=
SPZO Ene2005-311800Z 36006KT 270V020 9999 FEW043TCU BKN050 19/06 Q1026 TEMPO VCSH RMK PP000 RWY10 08016G28KT=
SPZO Ene2005-311900Z VRB02KT 9999 FEW043TCU BKN050 19/05 Q1025 TEMPO VCSH RMK PP000 RWY10 VRB06KT=
SPZO Ene2005-312000Z 27014KT 9999 SCT040 SCT050 17/06 Q1024 RMK PP000=
SPZO Ene2005-312100Z 27008KT 9999 SCT040 SCT050 19/05 Q1023 RMK PP000=
SPZO Ene2005-312200Z 26011KT 9999 BKN050 16/06 Q1024 RMK PP000 TMAX 20.6=
SPZO Ene2005-312300Z 29007KT 250V360 9999 BKN050 15/06 Q1024 RMK PP000=
SPZO Feb2005-010000Z 28004KT 9999 BKN050 13/06 Q1026 RMK PP000=
SPZO Feb2005-010100Z VRB03KT 9999 FEW040 SCT050 12/07 Q1027 RMK PP000=
SPZO Feb2005-010200Z VRB01KT 9999 FEW040 SCT100 12/07 Q1028 RMK PP000=
SPZO Feb2005-010300Z 00000KT 9999 FEW040 SCT100 11/07 Q1028 RMK PP000=
SPZO Feb2005-010400Z 00000KT 9999 SCT040 SCT080 11/07 Q1029 RMK PP000=
SPZO Feb2005-010500Z 00000KT 9999 SCT037 SCT070 11/07 Q1028 RMK PP000=
SPZO Feb2005-010600Z 00000KT 9999 BKN040 SCT046 11/08 Q1028 RMK PP000=
SPZO Feb2005-010700Z VRB02KT 9999 OVC040 11/08 Q1027 RMK PP000=
SPZO Feb2005-010800Z 00000KT 9999 OVC043 11/08 Q1027 RMK PP000=
SPZO Feb2005-010900Z 00000KT 9999 FEW030 SCT050 10/08 Q1027 RMK PP000=
SPZO Feb2005-011000Z VRB03KT 9999 FEW030 SCT100 09/06 Q1027 RMK PP000=
SPZO Feb2005-011025Z 00000KT 9999 SCT040 SCT050 09/07 Q1027=
SPZO Feb2005-011100Z 00000KT 9999 FEW040 BKN050 09/07 Q1028 RMK PP000=
SPZO Feb2005-011200Z 00000KT 9999 SCT040 BKN080 10/08 Q1029 NOSIG RMK PP000=
SPZO Feb2005-011300Z 00000KT 9999 FEW030 SCT100 BKN300 13/07 Q1029 NOSIG RMK PP000=
SPZO Feb2005-011400Z VRB02KT 9999 SCT033 BKN300 15/07 Q1029 NOSIG RMK PP000=
SPZO Feb2005-011500Z VRB03KT 9999 SCT037 SCT100 BKN300 16/07 Q1029 NOSIG RMK PP000=
SPZO Feb2005-011600Z 27006KT 190V350 9999 FEW037 BKN047 17/07 Q1029 NOSIG RMK PP000=
SPZO Feb2005-011700Z VRB03KT 9999 SCT043 BKN100 18/07 Q1027 NOSIG RMK PP000=
SPZO Feb2005-011800Z VRB03KT 9999 VCSH FEW037 BKN043 18/05 Q1026
SPZO Feb2005-011900Z VRB09KT 9999 VCSH FEW037 BKN043TCU 16/06 Q1026
SPZO Feb2005-012000Z 25007KT 180V270 9999 RA VCSH FEW037 BKN043TCU
SPZO Feb2005-012100Z 00000KT 9999 FEW037 SCT043 BKN060 12/08 Q1025
SPZO Feb2005-012200Z 00000KT 9999 VCSH FEW037 SCT043 BKN080 14/08
SPZO Feb2005-012300Z 00000KT 9999 SCT043 BKN100 14/07 Q1025 NOSIG
SPZO Feb2005-020000Z 00000KT 9999 SCT050 SCT100 12/08 Q1026 RMK PP000=
SPZO Feb2005-020100Z 00000KT 9999 BKN050 SCT100 11/09 Q1027 RMK PP000=
SPZO Feb2005-020200Z 00000KT 9999 BKN050 12/09 Q1028 RMK PP000=
SPZO Feb2005-020300Z 00000KT 9999 BKN050 12/08 Q1029 RMK PP000=
SPZO Feb2005-020400Z 28008KT 260V350 7000 RA SCT040 BKN050 11/08 Q1029 RMK PP010=
SPZO Feb2005-020500Z 31005KT 270V010 5000 +RA SCT030 SCT040 BKN050 10/08 Q1029 RMK PP044=
SPZO Feb2005-020600Z 28002KT 250V360 5000 +RA SCT030 SCT040 BKN050 10/08 Q1029 RMK PP030=
SPZO Feb2005-020700Z 00000KT 6000 RA FEW030 SCT040 BKN050 09/08 Q1028 RMK PP022=
SPZO Feb2005-020800Z 00000KT 7000 -RA FEW030 SCT040 BKN050 09/08 Q1028 RMK PP006=
SPZO Feb2005-020900Z 00000KT 7000 -RA FEW030 SCT040 BKN050 09/08 Q1028 RMK PP002=
SPZO Feb2005-021000Z 10002KT 7000 -RA FEW030 SCT040 BKN050 09/07 Q1028 RMK PP006=
SPZO Feb2005-021100Z 00000KT 7000 -RA FEW020 SCT040 BKN050 08/07 Q1029 RMK PP010=
SPZO Feb2005-021142Z 00000KT 9000 -RA FEW020 SCT030 OVC080 09/07 Q1030=
SPZO Feb2005-021200Z 00000KT 8000 -RA VCSH FEW020 SCT030 OVC080 09/07
SPZO Feb2005-021300Z 00000KT 9000E -DZ FEW025 SCT030 BKN047 11/07
SPZO Feb2005-021400Z 08002KT 360V110 9999 VCSH SCT030 SCT043 BKN060
SPZO Feb2005-021500Z 07004KT 340V110 9999 SCT033 BKN060 14/08 Q1030
SPZO Feb2005-021600Z 00000KT 9999 SCT033 BKN060 15/07 Q1029 NOSIG
SPZO Feb2005-021625Z 09004KT 070V180 9999 VCSH SCT037 BKN043 15/07 Q1029=
SPZO Feb2005-021700Z VRB02KT 9999 SCT037 BKN047 15/07 Q1028 NOSIG
SPZO Feb2005-021800Z 01004KT 270V080 9999 VCSH SCT037 BKN046 16/07 Q1027 NOSIG RMK PP000=
SPZO Feb2005-021900Z 11009KT 080V170 9000 VCRA FEW036 SCT046 BKN050 13/09 Q1026=
SPZO Feb2005-022000Z 08005KT 360V110 9000 -RA FEW036 SCT040 BKN046 13/09 Q1026 NOSIG RMK PPTRZ=
SPZO Feb2005-022100Z VRB03KT 9999 RERA SCT040 BKN046 13/08 Q1025 NOSIG RMK PP002=
SPZO Feb2005-022200Z VRB01KT 9999 FEW040 BKN050 14/09 Q1025 NOSIG MK PP000 TMX:16.4=
SPZO Feb2005-022300Z VRB02KT 9999 FEW043 BKN050 13/09 Q1026 NOSIG RMK PP000=
SPZO Feb2005-030000Z 15003KT 090V200 9999 OVC050 13/07 Q1027 RMK PP000=
SPZO Feb2005-030100Z 16004KT 090V190 9999 OVC050 13/06 Q1028 RMK PP000=
SPZO Feb2005-030200Z 08003KT 020V140 9999 OVC050 12/06 Q1029
SPZO Feb2005-030300Z 00000KT 9999 OVC050 11/06 Q1030 RMK PP000=
SPZO Feb2005-030400Z 00000KT 9999 BKN050 11/06 Q1030 RMK PP000=
SPZO Feb2005-030500Z 00000KT 9999 BKN050 10/06 Q1030 RMK PP000=
SPZO Feb2005-030600Z 00000KT 9999 BKN050 11/06 Q1030 RMK PP000=
SPZO Feb2005-030700Z 00000KT 9999 BKN050 09/07 Q1029 RMK PP000=
SPZO Feb2005-030800Z 00000KT 9999 BKN050 09/07 Q1029 RMK PP000=
SPZO Feb2005-030900Z 00000KT 9999 BKN050 09/06 Q1029 RMK PP000=
SPZO Feb2005-031000Z 00000KT 9999 BKN050 09/07 Q1030 RMK PP000=
SPZO Feb2005-031100Z 00000KT 9999 BKN050 09/07 Q1030 RMK PP000=
SPZO Feb2005-031200Z 00000KT 9999 FEW040 BKN060 10/07 Q1031 NOSIG RMK PP000=
SPZO Feb2005-031300Z VRB01KT 9999 FEW040 BKN060 13/06 Q1032 NOSIG RMK PP000=
SPZO Feb2005-031400Z 08004KT 360V170 9999 FEW040 SCT050 15/07 Q1032 NOSIG RMK PP000 RWY10 13008KT=
SPZO Feb2005-031500Z VRB05KT 9999 FEW043 BKN050 16/06 Q1031 NOSIG RMK PP000 RWY10 10008KT=
SPZO Feb2005-031600Z VRB03KT 9999 BKN050 17/06 Q1030 NOSIG RMK PP000 RWY10 28004KT=
SPZO Feb2005-031700Z VRB04KT 9999 BKN050 19/05 Q1029 NOSIG RMK PP000 RWY10 28004KT=
SPZO Feb2005-031800Z VRB02KT 9999 BKN050 19/06 Q1028 NOSIG RMK PP000 RWY10 31007G17KT=
SPZO Feb2005-031900Z 28007KT 9999 BKN050 21/05 Q1026 NOSIG RMK PP000 RWY10 30014G24KT=
SPZO Feb2005-032000Z 27008KT 200V290 9999 BKN050 19/07 Q1025 NOSIG RMK PP000 RWY10 30018G33KT=
SPZO Feb2005-032100Z 31006KT 260V110 9999 FEW043 BKN050 21/07 Q1025 TEMPO VCRA RMK PP000 RWY10 29015G25KT=
SPZO Feb2005-032106Z 08008KT 9999 -RATS FEW043CB BKN046 15/08 Q1026=
SPZO Feb2005-032200Z 13006KT 080V180 9999 -RATS SCT043CB SCT046 14/07 Q1036 NOSIG RMK PP036 TMX:21.3=
SPZO Feb2005-032222Z 15006KT 090V200 9999 RERA FEW043TCU SCT050 14/07 Q1026=
SPZO Feb2005-032300Z VRB04KT 9999 FEW043TCU SCT050 14/09 Q1027 TEMPO VCSH RMK PP004=
SPZO Feb2005-040000Z 00000KT 9999 SCT040 SCT050 13/09 Q1027 RMK PP000=
SPZO Feb2005-040100Z 00000KT 9999 FEW040 SCT050 12/09 Q1028 RMK PP000=
SPZO Feb2005-040200Z VRB03KT 9999 FEW040 BKN050 10/08 Q1029 RMK PP000=
SPZO Feb2005-040300Z VRB02KT 9999 BKN050 10/08 Q1030 RMK PP000=
SPZO Feb2005-040400Z VRB03KT 9999 SCT040 SCT050 10/07 Q1031 RMK PP000=
SPZO Feb2005-040500Z 00000KT 9999 BKN040 SCT046 11/06 Q1030 RMK PP000=
SPZO Feb2005-040600Z 27005KT 9999 OVC040 10/07 Q1030 RMK PP000=
SPZO Feb2005-040700Z 28004KT 9999 FEW040 OVC040 10/06 Q1030 RMK PP000=
SPZO Feb2005-040800Z 00000KT 9999 SCT030 BKN040 09/07 Q1030 RMK PP000=
SPZO Feb2005-040900Z 00000KT 9999 SCT040 SCT070 09/06 Q1030 RMK PP000=
SPZO Feb2005-041000Z VRB01KT 9999 SCT040 SCT080 09/06 Q1030 RMK PP000=
SPZO Feb2005-041100Z 00000KT 9999 SCT040 SCT070 09/06 Q1031 RMK PP000=
SPZO Feb2005-041200Z 00000KT 9999 FEW040 BKN046 13/07 Q1032 NOSIG RMK PP000=
SPZO Feb2005-041300Z VRB02KT 9999 FEW043 BKN050 13/06 Q1032 NOSIG RMK PP000=
SPZO Feb2005-041400Z VRB02KT 9999 BKN050 15/05 Q1032 NOSIG RMK PP000=
SPZO Feb2005-041500Z VRB02KT 9999 BKN050 17/05 Q1032 NOSIG RMK PP000=
SPZO Feb2005-041600Z VRB02KT 9999 BKN050 17/04 Q1031 NOSIG RMK PP000=
SPZO Feb2005-041700Z VRB06KT 9999 BKN050 18/04 Q1030 NOSIG RMK PP000 RWY10 06013G23KT=
SPZO Feb2005-041800Z VRB04KT 9999 BKN050 19/03 Q1029 NOSIG RMK PP000 RWY10 06007KT=
SPZO Feb2005-041900Z 36011KT 340V080 9999 FEW050 20/03 Q1028 NOSIG RMK PP000=
SPZO Feb2005-042000Z 02010KT 340V080 9999 FEW050 20/02 Q1027 NOSIG RMK PP000=
SPZO Feb2005-042100Z 02010KT 340V080 9999 FEW050 20/03 Q1026 NOSIG RMK PP000=
SPZO Feb2005-042200Z 03011KT 350V080 9999 FEW050 18/03 Q1026 NOSIG RMK PP000 TMAX 20.9=
SPZO Feb2005-042300Z 02012KT 340V080 9999 FEW050 16/04 Q1027 NOSIG RMK PP000=
SPZO Feb2005-050000Z 06004KT 9999 FEW050 14/03 Q1029 RMK PP000=
SPZO Feb2005-050100Z VRB02KT 9999 FEW050 12/04 Q1030 RMK PP000=
SPZO Feb2005-050200Z VRB01KT 9999 SKC 12/04 Q1031 RMK PP000=
SPZO Feb2005-050300Z VRB02KT 9999 SKC 09/05 Q1033 RMK PP000=
SPZO Feb2005-050400Z 00000KT 9999 SKC 09/05 Q1033 RMK PP000=
SPZO Feb2005-050500Z 00000KT 9999 SKC 08/05 Q1032 RMK PP000=
SPZO Feb2005-050600Z 00000KT 9999 SKC 08/05 Q1032 RMK PP000=
SPZO Feb2005-050700Z 00000KT 9999 SKC 07/05 Q1031 RMK PP000=
SPZO Feb2005-050800Z 00000KT 9999 SKC 06/04 Q1031 RMK PP000=
SPZO Feb2005-050900Z 00000KT 9999 SKC 06/04 Q1031 RMK PP000=
SPZO Feb2005-051000Z 00000KT 9999 FEW040 05/04 Q1031 RMK PP000=
SPZO Feb2005-051100Z 00000KT 9999 FEW040 05/03 Q1032 RMK PP000=
SPZO Feb2005-051200Z 00000KT 9000 FEW047 09/05 Q1032 BECMG 9999 RMK HZ PP000=
SPZO Feb2005-051300Z VRB01KT 9999 FEW047 12/05 Q1033 NOSIG RMK PP000=
SPZO Feb2005-051400Z VRB04KT 9999 FEW043 14/05 Q1033 NOSIG RMK PP000=
SPZO Feb2005-051500Z VRB03KT 9999 SCT047 17/05 Q1033 NOSIG RMK PP000=
SPZO Feb2005-051600Z VRB04KT 9999 SCT047 18/04 Q1032 NOSIG RMK PP000=
SPZO Feb2005-051700Z VRB06KT 9999 SCT047 19/04 Q1031 NOSIG RMK PP000=
SPZO Feb2005-051800Z VRB07KT 9999 FEW043 SCT047 20/01 Q1030 NOSIG
SPZO Feb2005-051900Z 36011KT 340V080 9999 FEW043 SCT047 20/05 Q1028
SPZO Feb2005-052000Z 01012KT 340V080 9999 FEW040 SCT047 20/06 Q1028
SPZO Feb2005-052100Z 01013KT 340V080 9999 FEW043TCU SCT047 18/04
SPZO Feb2005-052200Z 36008KT 340V080 9999 FEW043 SCT060 17/05 Q1027
SPZO Feb2005-052300Z 35003KT 250V020 9999 FEW040 BKN047 16/06 Q1027
SPZO Feb2005-060000Z 08005KT 360V150 9999 BKN050 14/05 Q1029
SPZO Feb2005-060100Z 00000KT 9999 BKN050 14/05 Q1030 RMK PP000=
SPZO Feb2005-060200Z 10005KT 070V170 9999 BKN050 12/05 Q1031 RMK PP000=
SPZO Feb2005-060300Z 00000KT 9999 BKN050 12/06 Q1032 RMK PP000=
SPZO Feb2005-060400Z 00000KT 9999 BKN050 11/06 Q1032 RMK PP000=
SPZO Feb2005-060500Z 27005KT 9999 BKN050 09/06 Q1032 RMK PP000=
SPZO Feb2005-060600Z 28004KT 270V350 9999 BKN050 09/05 Q1031 RMK PP000=
SPZO Feb2005-060700Z 00000KT 9999 BKN050 09/06 Q1031 RMK PP000=
SPZO Feb2005-060800Z 00000KT 9999 BKN050 09/06 Q1031 RMK PP000=
SPZO Feb2005-060900Z 00000KT 9999 OVC050 10/06 Q1030 RMK PP000=
SPZO Feb2005-061000Z 00000KT 9999 OVC050 10/06 Q1031 RMK PP000=
SPZO Feb2005-061020Z 00000KT 9999 BKN050 09/06 Q1031=
SPZO Feb2005-061100Z 00000KT 9999 SCT050 08/05 Q1031 RMK PP000=
SPZO Feb2005-061128Z 00000KT 8000E FEW040 SCT060 08/05 Q1032 RMK HZ=
SPZO Feb2005-061138Z 00000KT 8000E SCT033 SCT050 09/06 Q1032 RMK HZ=
SPZO Feb2005-061200Z 00000KT 8000E FEW030 SCT037 BKN047 09/06 Q1032
SPZO Feb2005-061229Z 00000KT 9000E SCT037 SCT060 11/07 Q1032 RKM HZ=
SPZO Feb2005-061300Z 00000KT 9999 SCT037 14/07 Q1033 NOSIG RMK PP000=
SPZO Feb2005-061400Z VRB03KT 9999 FEW037 SCT043 15/06 Q1033 NOSIG
SPZO Feb2005-061500Z VRB04KT 9999 FEW040 SCT043 17/05 Q1032 NOSIG
SPZO Feb2005-061600Z VRB03KT 9999 FEW043 SCT047 18/04 Q1032 NOSIG
SPZO Feb2005-061700Z VRB02KT 9999 BKN043 18/04 Q1030 NOSIG RMK PP000=
SPZO Feb2005-061800Z 00000KT 9999 FEW043 SCT047 20/03 Q1029 NOSIG RMK PP000=
SPZO Feb2005-061900Z VRB04KT 9999 FEW043TCU BKN050 20/04 Q1027 TEMPO RA RMK PP000 RWY10 34017G30KT=
SPZO Feb2005-062000Z 03008KT 340V100 9999 BKN050 20/03 Q1026 NOSIG RMK PP000 RWY10 04015KT=
SPZO Feb2005-062100Z 27008KT 180V350 9999 BKN050 20/03 Q1025 NOSIG RMK PP000 RWY10 29019KT=
SPZO Feb2005-062200Z 28010KT 250V350 9999 SCT050 20/04 Q1025 NOSIG RMK PP000 RWY10 29016G26KT TMX:21.8=
SPZO Feb2005-062300Z 28009KT 270V350 9999 FEW050 19/04 Q1026 NOSIG RMK PP000 RWY10 32015G26KT=
SPZO Feb2005-070000Z 31006KT 260V020 9999 SCT050 17/06 Q1027 RMK PP000=
SPZO Feb2005-070100Z 36006KT 320V080 9999 SCT050 15/06 Q1029 RMK PP000=
SPZO Feb2005-070200Z 05003KT 340V110 9999 SCT050 13/07 Q1030
SPZO Feb2005-070300Z 00000KT 9999 SCT050 12/07 Q1031 RMK PP000=
SPZO Feb2005-070400Z 00000KT 9999 SCT050 10/07 Q1031 RMK PP000=
SPZO Feb2005-070500Z 00000KT 9999 SCT050 11/07 Q1031 RMK PP000=
SPZO Feb2005-070600Z 00000KT 9999 SCT050 11/08 Q1030 RMK PP000=
SPZO Feb2005-070700Z 00000KT 9999 BKN050 11/07 Q1030 RMK PP000=
SPZO Feb2005-070800Z 00000KT 9999 BKN050 11/07 Q1029 RMK PP000=
SPZO Feb2005-070900Z 10009KT 080V170 9999 BKN050 09/06 Q1030
SPZO Feb2005-071000Z 10007KT 080V170 9999 OVC050 09/06 Q1030
SPZO Feb2005-071100Z 00000KT 9999 BKN050 SCT080 09/06 Q1031 RMK PP000=
SPZO Feb2005-071200Z VRB02KT 9999 FEW040 SCT050 11/06 Q1031 NOSIG RMK PP000=
SPZO Feb2005-071300Z VRB02KT 9999 FEW040 BKN050 13/06 Q1032 NOSIG RMK PP000=
SPZO Feb2005-071400Z VRB03KT 9999 FEW043 BKN050 14/05 Q1032 NOSIG RMK PP000=
SPZO Feb2005-071500Z VRB01KT 9999 FEW043 BKN050 16/04 Q1031 NOSIG RMK PP000 RWY10 11008KT=
SPZO Feb2005-071600Z VRB04KT 9999 FEW043 SCT050 18/04 Q1031 NOSIG RMK PP000 RWY10 13013KT=
SPZO Feb2005-071700Z 09008KT 070V170 9999 FEW043 BKN050 17/04 Q1030 TEMPO VCRA RMK PP000 RWY10 10015KT=
SPZO Feb2005-071800Z 28019KT 9999 SCT043 BKN050 12/06 Q1030 NOSIG RMK PP000 RWY10 28024G34KT RA CDTE NW-E=
SPZO Feb2005-071809Z 26013KT 9999 -RA SCT043 BKN050 12/07 Q1030 RMK RWY10 26022G34KT=
SPZO Feb2005-071900Z 26008KT 9999 -RA FEW036 BKN050 12/07 Q1030 NOSIG RMK PP008 RWY10 25010G20KT=
SPZO Feb2005-072000Z VRB04KT 9999 RERA SCT043 SCT080 15/07 Q1029 NOSIG RMK PPTRZ RA CDTE E=
SPZO Feb2005-072100Z VRB02KT 9999 FEW043 SCT050 17/05 Q1028 NOSIG RMK PP000=
SPZO Feb2005-072200Z 02006KT 340V080 9999 BKN046 17/05 Q1027 NOSIG RMK PP000 RWY10 26007G18KT TMX:18.4=
SPZO Feb2005-072300Z 27007KT 9999 SCT046 16/06 Q1027 NOSIG RMK PP000 RWY10 29016KT=
SPZO Feb2005-080000Z 28008KT 9999 FEW050 13/06 Q1028 RMK PP000=
SPZO Feb2005-080100Z VRB03KT 9999 FEW040 SCT080 12/07 Q1029 RMK PP000=
SPZO Feb2005-080200Z 00000KT 9999 FEW050 11/07 Q1030 RMK PP000=
SPZO Feb2005-080300Z VRB03KT 9999 FEW040 SCT050 11/07 Q1031 RMK PP000=
SPZO Feb2005-080400Z 00000KT 9999 SCT040 SCT070 12/08 Q1031 RMK PP000=
SPZO Feb2005-080500Z VRB02KT 9999 BKN040 SCT046 11/08 Q1030 RMK PP000=
SPZO Feb2005-080600Z 28012KT 9999 -RA BKN040 SCT046 11/06 Q1030 RMK PP004=
SPZO Feb2005-080700Z 00000KT 9000 RA OVC040 09/07 Q1030 RMK PP074=
SPZO Feb2005-080800Z 09004KT 9999 -RA SCT030 BKN040 08/07 Q1030 RMK PP012=
SPZO Feb2005-080900Z 07004KT 9999 SCT030 BKN040 09/07 Q1030 RMK PPTRZ=
SPZO Feb2005-081000Z 10005KT 9999 SCT030 BKN043 08/06 Q1030 RMK PP000=
SPZO Feb2005-081030Z VRB03KT 9999 FEW030 SCT040 BKN046 08/06 Q1030=
SPZO Feb2005-081100Z VRB03KT 9999 FEW030 SCT040 BKN046 08/06 Q1030 RMK PP000=
SPZO Feb2005-081200Z VRB02KT 9999 FEW030 SCT040 BKN046 09/07 Q1031 NOSIG RMK PP000=
SPZO Feb2005-081300Z VRB02KT 9999 FEW033 BKN050 11/06 Q1031 NOSIG RMK PP000=
SPZO Feb2005-081400Z VRB02KT 9999 FEW036 SCT050 13/06 Q1031 NOSIG RMK PP000 RWY10 13006KT=
SPZO Feb2005-081500Z VRB03KT 9999 FEW040 BKN050 14/05 Q1031 NOSIG RMK PP000 RWY10 10008KT=
SPZO Feb2005-081600Z VRB06KT 7000E DZ FEW036 BKN050 15/06 Q1031 NOSIG RMK PPTRZ CLOSED FOR VISIBILITY=
SPZO Feb2005-081614Z 11008KT 070V170 9000E REDZ FEW036 SCT050 15/07 Q1030 RMK RWY10 11016KT=
SPZO Feb2005-081700Z 07009KT 360V110 9000 RA FEW036 BKN046 15/07 Q1030 NOSIG RMK PP002 RWY10 31016KT=
SPZO Feb2005-081800Z VRB02KT 9999 RERA FEW036 SCT046 15/05 Q1030 NOSIG RMK PPTRZ=
SPZO Feb2005-081900Z VRB02KT 9999 SCT040 SCT060 17/07 Q1028 NOSIG RMK PP000=
SPZO Feb2005-082000Z 01008KT 340V080 9999 SCT043 SCT060 17/07 Q1026 NOSIG RMK PP000=
SPZO Feb2005-082100Z VRB05KT 9999 FEW040 SCT043 18/06 Q1025 NOSIG RMK PP000=
SPZO Feb2005-082200Z VRB06KT 9999 SCT043 SCT047 18/06 Q1024 NOSIG RMK PP000 TMAX 19.1=
SPZO Feb2005-082300Z 35007KT 310V010 9999 BKN040 SCT043 17/06 Q1026 NOSIG RMK PP000=
SPZO Feb2005-082315Z 26011KT 9999 -RA BKN040 SCT043 15/08 Q1026=
SPZO Feb2005-090000Z 25010KT 9000 RA BKN040 SCT046 13/08 Q1027 RMK PP014=
SPZO Feb2005-090100Z 14004KT 9999 SCT040 SCT050 12/08 Q1029 RMK PP002=
SPZO Feb2005-090200Z VRB02KT 9999 SCT040 SCT070 11/09 Q1029 RMK PP000=
SPZO Feb2005-090300Z 00000KT 9999 SCT040 SCT050 11/08 Q1030 RMK PP000=
SPZO Feb2005-090400Z 00000KT 9999 FEW030 BKN043 12/06 Q1031 RMK PP000=
SPZO Feb2005-090500Z 00000KT 9999 SCT030 BKN046 12/08 Q1030 RMK PP000=
SPZO Feb2005-090600Z 00000KT 9999 BKN040 SCT050 11/06 Q1030 RMK PP000=
SPZO Feb2005-090700Z 00000KT 9999 SCT043 BKN043 11/06 Q1030 RMK PP000=
SPZO Feb2005-090800Z 08004KT 9999 OVC040 11/08 Q1029 RMK PP000=
SPZO Feb2005-090900Z 00000KT 9999 SCT030 BKN043 11/06 Q1030 RMK PP000=
SPZO Feb2005-091000Z 26004KT 8000 RA FEW025 SCT037 BKN043 09/07 Q1030 RMK CLNG BLW 1200M PP012=
SPZO Feb2005-091020Z VRB03KT 9999 -RA FEW030 SCT037 BKN043 09/07 Q1030 RMK CLNG BLW 1200M=
SPZO Feb2005-091100Z 00000KT 9999 VCRA BKN040 SCT046 09/07 Q1031 RMK PP010=
SPZO Feb2005-091200Z 00000KT 9999 FEW025 BKN043 BKN060 10/07 Q1032 NOSIG RMK PP000=
SPZO Feb2005-091300Z 00000KT 9999 FEW025 SCT043 BKN080 12/08 Q1032 NOSIG RMK PP000=
SPZO Feb2005-091400Z VRB01KT 9999 FEW030 SCT043 OVC080 14/07 Q1032 NOSIG RMK PP000=
SPZO Feb2005-091500Z VRB02KT 9999 FEW030 BKN043 BKN080 15/06 Q1032 TEMPO VCSH RMK PP000=
SPZO Feb2005-091600Z 10004KT 360V170 9999 FEW030 BKN043 16/08 Q1031 NOSIG RMK PP000=
SPZO Feb2005-091700Z VRB02KT 9999 VCSH FEW033CB SCT043 BKN080 17/06 Q1030 NOSIG RMK PP000=
SPZO Feb2005-091800Z 30006KT 260V010 9999 FEW033 SCT043 BKN080 17/07
SPZO Feb2005-091900Z 36008KT 270V020 9999 FEW033 SCT043 BKN080 18/05
SPZO Feb2005-092000Z 35006KT 270V020 9999 FEW040 SCT047 OVC100 18/06
SPZO Feb2005-092100Z 10011KT 080V170 9999 FEW030 SCT043 BKN080 17/06
SPZO Feb2005-092200Z 10010KT 080V170 9999 FEW040 SCT060 BKN100 17/07
SPZO Feb2005-092300Z 12006KT 090V170 9999 SCT060 SCT100 BKN300 16/06
SPZO Feb2005-100000Z 00000KT 9999 SCT050 SCT100 14/07 Q1028 RMK PP000=
SPZO Feb2005-100100Z 00000KT 9999 BKN050 SCT100 14/07 Q1029 RMK PP000=
SPZO Feb2005-100200Z 00000KT 9999 BKN050 13/07 Q1030 RMK PP000=
SPZO Feb2005-100300Z 00000KT 9999 BKN050 13/07 Q1031 RMK PP000=
SPZO Feb2005-100400Z 00000KT 9999 OVC050 13/08 Q1031 RMK PP000=
SPZO Feb2005-100500Z 00000KT 9999 OVC050 12/05 Q1031 RMK PP000=
SPZO Feb2005-100600Z 04003KT 9999 OVC050 12/06 Q1031 RMK PP000=
SPZO Feb2005-100700Z 10004KT 9999 OVC050 11/06 Q1031 RMK PP000=
SPZO Feb2005-100800Z 00000KT 9999 OVC050 11/07 Q1030 RMK PP000=
SPZO Feb2005-100900Z 08002KT 5000 RA FEW030 SCT040 BKN050 10/07 Q1031 RMK PP010=
SPZO Feb2005-101000Z 00000KT 6000 -RA FEW030 SCT040 BKN050 09/07 Q1030 RMK PP001=
SPZO Feb2005-101030Z 00000KT 7000 RA FEW030 SCT040 BKN050 09/06 Q1031=
SPZO Feb2005-101100Z 00000KT 8000 -RA FEW030 SCT040 BKN050 09/06 Q1031 RMK PP017=
SPZO Feb2005-101200Z 09002KT 9000 -RA VCSH FEW025 SCT060 OVC080 09/07
SPZO Feb2005-101219Z 09002KT 9000 -RA VCSH FEW025 SCT033 OVC060 09/07 Q1032=
SPZO Feb2005-101300Z 12002KT 090V180 9000 -RA VCSH FEW025 SCT033
SPZO Feb2005-101400Z 10003KT 070V170 8000 -RA VCSH FEW025 SCT033 OVC080 10/07 Q1033 TEMPO 7000E FM1430 9000 RMK PP004=
SPZO Feb2005-101426Z 10004KT 070V180 9999 FEW025 SCT033 OVC080 11/08
SPZO Feb2005-101500Z 09004KT 070V170 9999 FEW025 SCT033 OVC100 11/07
SPZO Feb2005-101600Z 10004KT 070V170 9999 SCT030 SCT043 OVC150 13/07
SPZO Feb2005-101700Z 10005KT 080V170 9999 SCT033 SCT043 OVC150 14/06
SPZO Feb2005-101800Z 10005KT 070V170 9999 SCT037 OVC150 15/07 Q1030 NOSIG RMK PP000=
SPZO Feb2005-101900Z 09005KT 360V110 FEW040 OVC100 16/08 Q1029 NOSIG RMK PP000=
SPZO Feb2005-102000Z VRB04KT 9999 FEW040 BKN100 16/08 Q1027 NOSIG RMK PP000=
SPZO Feb2005-102100Z 09004KT 020V170 9999 FEW040 BKN120 16/07 Q1026 NOSIG RMK PP000=
SPZO Feb2005-102200Z 10008KT 080V170 9999 FEW043 BKN200 16/07 Q1026 NOSIG RMK PP000 RWY10 11011KT TMX:17.1=
SPZO Feb2005-102300Z 10006KT 080V170 9999 FEW043 BKN120 15/07 Q1027 NOSIG RMK PP000 RWY10 11012KT=
SPZO Feb2005-110000Z 34008KT 2700V020 5000 +RA SCT030 SCT040 BKN060 11/07 Q1030 RMK PP042=
SPZO Feb2005-110100Z 26003KT 180V350 6000 RA FEW030 SCT040 BKN060 10/07 Q1032 RMK PP014=
SPZO Feb2005-110200Z 25004KT 180V260 9000 FEW030 OVC050 10/07 Q1032
SPZO Feb2005-110300Z 00000KT 9999 FEW030 OVC050 10/07 Q1032 RMK PP000=
SPZO Feb2005-110400Z 10004KT 9999 OVC050 10/08 Q1033 RMK PP000=
SPZO Feb2005-110500Z 08003KT 7000 -RA SCT040 BKN050 10/07 Q1032 RMK PP004=
SPZO Feb2005-110600Z 11004KT 090V170 9000 FEW040 OVC050 09/07 Q1031 RERA RMK PPTRZ=
SPZO Feb2005-110700Z 04003KT 360V080 9999 FEW040 OVC050 09/07 Q1031 RMK PP000=
SPZO Feb2005-110800Z 00000KT 9999 OVC050 09/07 Q1030 RMK PP000=
SPZO Feb2005-110900Z 00000KT 9999 OVC050 09/07 Q1030 RMK PP000=
SPZO Feb2005-111000Z 17002KT 9999 OVC050 09/07 Q1030 RMK PP000=
SPZO Feb2005-111100Z 08003KT 9000 BKN050 SCT150 08/07 Q1030
SPZO Feb2005-111200Z 08002KT 9999 FEW030 SCT040 BKN046 09/07 Q1031 NOSIG RMK PP000 BCBR CDTE E=
SPZO Feb2005-111300Z VRB02KT 9999 FEW025 BKN046 12/08 Q1032 NOSIG RMK PP000 BCBRE CDTE E=
SPZO Feb2005-111400Z VRB03KT 9999 FEW030 BKN046 15/09 Q1032 NOSIG RMK PP000 BCBR CDTE NE=
SPZO Feb2005-111500Z 09006KT 360V110 9999 FEW036 SCT043 SCT050 15/07 Q1032 NOSIG RMK PP000 RWY10 11006KT=
SPZO Feb2005-111600Z VRB03KT 9999 FEW043 BKN050 16/06 Q1031 NOSIG RK PP000 RWY10 19006KT=
SPZO Feb2005-111700Z VRB02KT 9999 FEW043 BKN050 18/07 Q1030 NOSIG RMK PP000 RWY10 04006KT=
SPZO Feb2005-111800Z VRB02KT 9999 SCT043 SCT050 17/07 Q1029 NOSIG RMK PP000 RWY10 11010KT RA CDTE E=
SPZO Feb2005-111900Z VRB05KT 9999 FEW043 SCT050 18/08 Q1027 NOSIG RMK PP000=
SPZO Feb2005-112000Z 29006KT 180V350 9999 SCT050 20/06 Q1026 NOSIG RMK PP000 RWY10 27008KT=
SPZO Feb2005-112100Z 07011KT 360V080 9999 FEW043 SCT050 18/07 Q1025 NOSIG RMK PP000 RWY10 35008KT RA CDTE NE=
SPZO Feb2005-112200Z 01005KT 270V080 9999 FEW043 SCT060 18/07 Q1025 NOSIG RMK PP002 RWY10 02013KT SH BETWEEN 2140 TO 2148Z TMX:20.6=
SPZO Feb2005-112300Z VRB03KT 9999 RA SCT040 SCT050 17/06 Q1026 NOSIG RMK PPTRZ RWY10 04014G24KT=
SPZO Feb2005-120000Z 27007KT 9000 -RA OVC040 12/09 Q1028 RMK PP008=
SPZO Feb2005-120100Z VRB03KT 9999 -RA SCT030 BKN040 11/07 Q1030 RMK PP012=
SPZO Feb2005-120200Z VRB01KT 9999 -RA SCT030 BKN043 10/07 Q1032 RMK PP026=
SPZO Feb2005-120300Z 30005KT 9999 -RA SCT030 BKN040 09/06 Q1033 RMK PP002=
SPZO Feb2005-120400Z 28007KT 9999 -RA SCT025 BKN040 08/06 Q1033 RMK PP008=
SPZO Feb2005-120500Z 28006KT 9999 -RA BKN037 SCT046 08/05 Q1033 RMK PP004=
SPZO Feb2005-120600Z 00000KT 9999 DZ SCT037 SCT046 08/05 Q1032 RMK PP002=
SPZO Feb2005-120700Z 00000KT 9999 DZ OVC040 07/05 Q1032 RMK PP004=
SPZO Feb2005-120800Z 00000KT 9999 DZ SCT025 BKN043 07/05 Q1031 RMK PP002=
SPZO Feb2005-120900Z 00000KT 9000 -RA SCT025 BKN040 07/05 Q1031 RMK PP006=
SPZO Feb2005-121000Z 00000KT 8000 -RA FEW025 SCT037 BKN043 07/05 Q1031 RMK CLNG BLW 1200M PP020=
SPZO Feb2005-121100Z 00000KT 9000 -RA FEW025 SCT037 BKN046 07/05 Q1032 RMK CLNG BLW 1200M PP012=
SPZO Feb2005-121200Z 10002KT 8000E -RA FEW020 SCT040 BKN046 08/6 Q1032 NOSIG RMK PP002=
SPZO Feb2005-121300Z VRB03KT 9999 RERA FEW030 SCT040 BKN046 09/06 Q1033 NOSIG RMK PP002=
SPZO Feb2005-121400Z VRB02KT 9999 FEW030 SCT040 BKN050 11/05 Q1033 NOSIG RMK PP000=
SPZO Feb2005-121500Z VRB02KT 9999 FEW036 BKN100 13/06 Q1032 NOSIG RMK PP000=
SPZO Feb2005-121600Z VRB03KT 9999 SCT043 15/06 Q1031 NOSIG RMK PP000=
SPZO Feb2005-121700Z VRB02KT 9999 FEW040 SCT050 16/05 Q1030 NOSIG RMK PP000=
SPZO Feb2005-121800Z VRB02KT 9999 FEW040 SCT050 18/05 Q1028 NOSIG RMK PP000=
SPZO Feb2005-121900Z VRB04KT 9999 FEW040 BKN043 19/07 Q1027 NOSIG RMK PP000=
SPZO Feb2005-122000Z 35008KT 270V080 9999 FEW040 SCT043 19/07 Q1025 NOSIG RMK PP000=
SPZO Feb2005-122100Z 36007KT 270V080 9999 FEW040 SCT043 20/05 Q1025 NOSIG RMK PP000=
SPZO Feb2005-122200Z 01010KT 340V080 9999 VCSH BKN043 18/05 Q1025 NOSIG RMK PP000 TMAX 20.0=
SPZO Feb2005-122300Z VRB04KT 9999 BKN043 SCT100 16/05 Q1026 NOSIG RMK PP000=
SPZO Feb2005-130000Z 04008KT 9999 SCT040 SCT050 15/05 Q1027 RMK PP000=
SPZO Feb2005-130100Z 10004KT 9999 BKN050 14/06 Q1029 RMK PP000=
SPZO Feb2005-130200Z VRB02KT 9999 FEW040 BKN050 13/05 Q1030 RMK PP000=
SPZO Feb2005-130300Z 01005KT 9999 BKN040 13/05 Q1031 RMK PP000=
SPZO Feb2005-130400Z 00000KT 9999 -RA OVC040 12/08 Q1032 RMK PP010=
SPZO Feb2005-130500Z VRB03KT 9000 RA OVC040 09/07 Q1032 RMK PP040=
SPZO Feb2005-130600Z 00000KT 9999 -RA FEW030 OVC040 09/06 Q1032 RMK PP012=
SPZO Feb2005-130700Z 00000KT 9999 -RA BKN040 SCT050 08/06 Q1031 RMK PP014=
SPZO Feb2005-130800Z 00000KT 9999 -RA SCT037 SCT050 08/06 Q1031 RMK PP006=
SPZO Feb2005-130900Z 00000KT 9999 SCT030 BKN040 08/06 Q1031 RMK PPTRZ=
SPZO Feb2005-131000Z 11005KT 9000 DZ FEW025 SCT037 BKN043 07/05 Q1031 RMK BLNG BLW 1200M PP000=
SPZO Feb2005-131100Z VRB03KT 9000 -RA FEW025 SCT037 BKN043 07/05 Q1031 RMK CLNG BLW 1200M PP004=
SPZO Feb2005-131142Z 10003KT 070V170 9999 -DZ FEW020 SCT037 OVC043 09/05 Q1031 RERA=
SPZO Feb2005-131200Z 10004KT 9999 -DZ FEW020 SCT037 OVC043 07/05 Q1032 NOSIG RMK PPTRZ=
SPZO Feb2005-131300Z VRB01KT 9999 FEW025 SCT033 OVC043 09/05 Q1032 REDZ TEMPO BKN033 RMK PPTRZ=
SPZO Feb2005-131400Z 00000KT 9999 FEW030 SCT033 BKN043 10/06 Q1033 NOSIG RMK PP000=
SPZO Feb2005-131500Z 00000KT 9999 FEW033 SCT037 BKN047 11/05 Q1032 NOSIG RMK PP000=
SPZO Feb2005-131600Z 00000KT 9999 FEW037 SCT060 14/06 Q1031 NOSIG RMK PP000=
SPZO Feb2005-131700Z VRB01KT 9999 FEW040 SCT060 17/08 Q1030 NOSIG RMK PP000=
SPZO Feb2005-131800Z VRB01KT 9999 FEW030 BKN080 17/04 Q1029 NOSIG
SPZO Feb2005-131900Z VRB04KT 9999 SCT043 18/04 Q1027 NOSIG RMK PP000=
SPZO Feb2005-132000Z 18004KT 090V260 9999 SCT047 19/05 Q1026 NOSIG
SPZO Feb2005-132100Z VRB01KT 9999 SCT047 20/04 Q1024 NOSIG RMK PP000=
SPZO Feb2005-132200Z VRB02KT 9999 SCT047 20/04 Q1024 NOSIG RMK PP000
SPZO Feb2005-132300Z 17002KT 9999 SCT047 18/06 Q1024 NOSIG RMK PP000=
SPZO Feb2005-140000Z 07004KT 360V090 9999 SCT050 16/07 Q1026
SPZO Feb2005-140100Z 04004KT 350V080 9999 SCT050 15/07 Q1027
SPZO Feb2005-140200Z 08006KT 360V110 9999 BKN050 14/07 Q1029 RMK PP000=
SPZO Feb2005-140300Z 12008KT 090V170 5000 +RA SCT030 SCT040 BKN050 09/07 Q1031 RMK PP028=
SPZO Feb2005-140400Z VRB02KT 7000 -RA FEW030 SCT040 BKN050 09/07 Q1032 RMK PP006=
SPZO Feb2005-140500Z 00000KT 7000 -RA FEW030 SCT040 BKN050 09/07 Q1032 RMK PP006=
SPZO Feb2005-140600Z 00000KT 7000 RA FEW030 SCT040 BKN050 09/07 Q1031 RMK PP014=
SPZO Feb2005-140700Z 00000KT 8000 -RA FEW030 SCT040 BKN050 09/07 Q1031 RMK PP004=
SPZO Feb2005-140800Z 00000KT 9000 FEW030 SCT040 BKN050 09/07 Q1030 RERA RMK PP002=
SPZO Feb2005-140900Z 27005KT 250V350 9999 FEW030 OVC050 09/06 Q1030 RMK PP000=
SPZO Feb2005-141000Z 10003KT 9999 FEW030 OVC050 09/07 Q1030 RMK PP000=
SPZO Feb2005-141100Z 00000KT 9999 OVC050 09/07 Q1030 RMK PP000=
SPZO Feb2005-141110Z 10002KT 9999 BKN043 SCT080 09/07 Q1031=
SPZO Feb2005-141200Z 00000KT 9999 SCT043 BKN080 10/08 Q1031 NOSIG
SPZO Feb2005-141300Z 00000KT 9999 FEW030 BKN043 11/07 Q1032 NOSIG
SPZO Feb2005-141400Z 00000KT 9999 FEW033 SCT150 14/06 Q1032 NOSIG
SPZO Feb2005-141500Z VRB02KT 9999 SCT037 16/07 Q1031 NOSIG RMK PP000=
SPZO Feb2005-141600Z VRB02KT 9999 SCT037 SCT080 18/07 Q1031 NOSIG
SPZO Feb2005-141700Z VRB02KT 9999 SCT043 BKN080 18/07 Q1029 NOSIG
SPZO Feb2005-141800Z 25006KT 180V280 9999 SCT043 BKN080 18/07 Q1028 NOSIG RMK PP000=
SPZO Feb2005-141900Z 31010KT 260V360 9999 FEW043 BKN050 19/07 Q1027 NOSIG RMK PP000 RWY10 32013G24KT=
SPZO Feb2005-141919Z 01011KT 9999 TS FEW043CB BKN050 17/07 Q1027 RMK RA CDTE NE=
SPZO Feb2005-142000Z 02012KT 9999 SCT043 SCT050 16/08 Q1026 NOSIG RMK PP000 TEMPO RA RWY10 05018G33KT CDTE E=
SPZO Feb2005-142031Z 09008KT 8000E -RA SCT040 SCT046 13/08 Q102 10002KT=
SPZO Feb2005-142100Z 11013KT 080V170 9999 RERA SCT040 SCT046 12/08 Q1027 TEMPO VCRA PP014 RMK RWY10 10029G40KT RA CDTE E=
SPZO Feb2005-142200Z VRB03KT 9999 BKN050 15/07 Q1026 NOSIG RMK PP000 TMX:20.0=
SPZO Feb2005-142300Z 09002KT 9999 FEW046 SCT100 14/07 Q1026 NOSIG RMK PP000=
SPZO Feb2005-150000Z 10008KT 9999 SCT050 SCT070 11/08 Q1027 RMK PP000=
SPZO Feb2005-150100Z 10003KT 9999 BKN050 12/08 Q1028 RMK PP000=
SPZO Feb2005-150200Z 08003KT 9999 BKN050 11/08 Q1030 RMK PP000=
SPZO Feb2005-150300Z VRB05KT 8000 -RA OVC040 12/08 Q1030 RMK PP002=
SPZO Feb2005-150400Z 30005KT 270V350 7000 -RA SCT030 BKN040 11/07
SPZO Feb2005-150500Z VRB03KT 7000 RA SCT030 BKN040 10/07 Q1031 RMK PP018=
SPZO Feb2005-150600Z 08004KT 7000 RA SCT030 BKN040 09/07 Q1030 RMK PP018=
SPZO Feb2005-150700Z 00000KT 9000 FEW030 BKN040 09/07 Q1029 RERA RMK PPTRZ=
SPZO Feb2005-150800Z 28004KT 250V350 9999 FEW030 BKN040 10/06 Q1028 RMK PP000=
SPZO Feb2005-150900Z 00000KT 9999 OVC040 10/07 Q1028 RMK PP000=
SPZO Feb2005-151000Z 00000KT 9999 OVC040 09/07 Q1028 RMK PP000=
SPZO Feb2005-151100Z 09003KT 9999 OVC040 09/07 Q1029 RMK PP000=
SPZO Feb2005-151200Z VRB02KT 9999 FEW036 SCT046 BKN100 10/08 Q1030 NOSIG RMK PP000=
SPZO Feb2005-151300Z VRB02KT 9999 FEW040 BKN100 13/07 Q1030 NOSIG RMK PP000=
SPZO Feb2005-151400Z 00000KT 9999 FEW040 BKN120 15/06 Q1030 NOSIG RMK PP000=
SPZO Feb2005-151500Z VRB03KT 9999 FEW040 BKN120 16/07 Q1029 NOSIG RMK PP000=
SPZO Feb2005-151600Z 00000KT 9999 SCT043 BKN100 16/06 Q1029 TEMPO VCRA RMK PP000=
SPZO Feb2005-151700Z VRB02KT 9999 SCT043 BKN070 16/07 Q1028 TEMPO VCRA RMK PP000=
SPZO Feb2005-151800Z VRB02KT 9999 SCT043 BKN060 16/07 Q1028 TEMPO RA RMK PP000 RWY10 25008KT CDTE W-E=
SPZO Feb2005-151900Z 16004KT 090V200 9999 SCT043 BKN100 15/08 Q1027 TEMPO VCRA RMK PP000 RA CDTE E=
SPZO Feb2005-152000Z VRB02KT 9999 FEW043 OVC080 16/07 Q1026 TEMPO VCRA RMK PP000 RA AL W=
SPZO Feb2005-152100Z 10007KT 070V170 9999 FEW043 OVC100 16/07 Q1025 NOSIG RMK PP000 RWY10 10014KT=
SPZO Feb2005-152200Z 10007KT 080V170 9999 FEW046 OVC100 15/07 Q1025 NOSIG RMK PP000 TMAX 16.5=
SPZO Feb2005-152300Z VRB03KT 9999 FEW046 BKN120 14/08 Q1025 NOSIG RMK PP000=
SPZO Feb2005-160000Z 08004KT 9999 BKN040 SCT050 13/08 Q1026 RMK PP000=
SPZO Feb2005-160100Z VRB02KT 9999 SCT040 SCT050 13/08 Q1027 RMK PP000=
SPZO Feb2005-160200Z 00000KT 9999 SCT040 SCT070 13/09 Q1028 RMK PP000=
SPZO Feb2005-160300Z 00000KT 9999 SCT040TCU BKN046 12/09 Q1028 RMK PP000=
SPZO Feb2005-160400Z 00000KT 9999 SCT040 SCT060 12/07 Q1029 RMK PP000=
SPZO Feb2005-160500Z 00000KT 9999 -RA OVC040 11/08 Q1028 RMK PP002=
SPZO Feb2005-160600Z 28005KT 9999 BKN040 SCT046 11/07 Q1028 RMK PP002=
SPZO Feb2005-160700Z 28008KT 9999 BKN040 SCT070 11/07 Q1028 RMK PP000=
SPZO Feb2005-160800Z VRB02KT 9999 FEW040 SCT080 10/07 Q1027 RMK PP000=
SPZO Feb2005-160900Z 00000KT 9999 FEW040 SCT050 10/07 Q1027 RMK PP000=
SPZO Feb2005-161000Z VRB03KT 9999 SCT040 SCT080 08/06 Q1027 RMK PP000=
SPZO Feb2005-161100Z 00000KT 9999 SCT040 SCT060 08/06 Q1028 RMK PP000=
SPZO Feb2005-161200Z 00000KT 9999 FEW036 BKN046 10/07 Q1029 NOSIG RMK PP000=
SPZO Feb2005-161300Z 00000KT 9999 FEW036 SCT046 13/08 Q1029 NOSIG RMK PP000=
SPZO Feb2005-161400Z VRB02KT 9999 SCT046 15/07 Q1029 NOSIG RMK PP000=
SPZO Feb2005-161500Z VRB02KT 9999 SCT043 BKN050 16/06 Q1029 NOSIG RMK PP000=
SPZO Feb2005-161600Z VRB03KT 9999 SCT046 SCT100 17/06 Q1028 NOSIG RMK PP000 RWY10 12009KT=
SPZO Feb2005-161700Z VRB02KT 9999 SCT043 SCT050 18/04 Q1027 NOSIG RMK PP000 RWY10 33013KT RA CDTE NW=
SPZO Feb2005-161800Z 01005KT 270V080 9999 SCT043 SCT050 18/06 Q1026 NOSIG RMK PP000 RWY10 01012G22KT=
SPZO Feb2005-161900Z 35007KT 270V080 9999 BKN043 19/06 Q1025 NOSIG RMK PP000=
SPZO Feb2005-162000Z 08009KT 360V170 9999 VCSH BKN040TCU SCT047 18/06 Q1024 TEMPO -RA RMK PP000=
SPZO Feb2005-162024Z VRB04KT 9999 -RA FEW030 SCT040TCU BKN047 17/06 Q1024=
SPZO Feb2005-162100Z 25005KT 180V290 9999 FEW030 SCT040TCU BKN060 15/08 Q1024 NOSIG RERA RMK PP002=
SPZO Feb2005-162200Z 09009KT 070V170 9999 FEW030 BKN043 15/07 Q1024 NOSIG RMK PP000 TMAX 20.6=
SPZO Feb2005-162300Z 08004KT 9999 FEW040TCU BKN047 14/07 Q1025 NOSIG RMK PP000=
SPZO Feb2005-170000Z VRB01KT 9999 KN040 SCT050 13/07 Q1027 RMK PP000=
SPZO Feb2005-170010Z VRB03KT 9999 -RA OVC040 13/08 Q1027=
SPZO Feb2005-170100Z 26004KT 9999 BKN040 SCT046 12/08 Q1027 RMK PP002=
SPZO Feb2005-170200Z 10004KT 9999 SCT040 SCT070 12/08 Q1028 RMK PP000=
SPZO Feb2005-170300Z 27004KT 9999 BKN040 SCT070 12/08 Q1029 RMK PP000=
SPZO Feb2005-170400Z 00000KT 9999 BKN043 SCT070 12/07 Q1030 RMK PP000=
SPZO Feb2005-170500Z VRB01KT 9999 OVC040 11/08 Q1030 RMK PP000=
SPZO Feb2005-170600Z 00000KT 9999 OVC043 11/08 Q1029 RMK PP000=
SPZO Feb2005-170700Z 00000KT 9999 SCT037 SCT046 10/08 Q1028 RMK PP000=
SPZO Feb2005-170800Z VRB02KT 9999 SCT040 SCT046 11/08 Q1028 RMK PP000=
SPZO Feb2005-170900Z 00000KT 9999 SCT040 SCT070 11/07 Q1028 RMK PP000=
SPZO Feb2005-171000Z 00000KT 9999 SCT040 SCT046 11/06 Q1029 RMK PP000=
SPZO Feb2005-171035Z 00000KT 9999 VCRA BKN040 SCT046 11/05 Q1029 RMK RWY10 01012KT=
SPZO Feb2005-171100Z VRB03KT 9999 VCRA BKN040 SCT046 11/04 Q1029 RMK PP000=
SPZO Feb2005-171200Z 00000KT 9999 SCT037 BKN043 11/07 Q1030 NOSIG RMK PP000=
SPZO Feb2005-171300Z 10003KT 070V170 9999 SCT033 SCT043 BKN053 11/06 Q1031 NOSIG RMK PP000=
SPZO Feb2005-171400Z 14002KT 070V200 FEW037 SCT043 BKN080 13/07 Q1031 NOSIG RMK PP000=
SPZO Feb2005-171500Z VRB02KT 9999 FEW037 BKN043 BKN080 14/05 Q1031 NOSIG RMK PP000=
SPZO Feb2005-171600Z 13004KT 090V190 9999 VCSH FEW037 BKN043 BKN060 15/07 Q1030 NOSIG RMK PP000=
SPZO Feb2005-171700Z 36008KT 270V080 9999 FEW037 BKN043 BKN080 15/05 Q1030 NOSIG RMK PP000=
SPZO Feb2005-171800Z 03009KT 340V080 9999 BKN043 BKN080 16/05 Q1029
SPZO Feb2005-171900Z 01015KT 340V080 9999 SCT043 SCT080 16/05 Q1028
SPZO Feb2005-172000Z VRB09KT 9999 SCT043 SCT060 16/04 Q1027 NOSIG
SPZO Feb2005-172100Z 01011KT 340V080 9999 SCT043 SCT060 16/05 Q1027
SPZO Feb2005-172200Z 36010KT 340V080 9999 BKN043 14/05 Q1028 NOSIG
SPZO Feb2005-172300Z 35006KT 340V080 9999 SCT043 SCT100 14/04 Q1028
SPZO Feb2005-180000Z 01008KT 340V080 9999 BKN050 13/04 Q1029
SPZO Feb2005-180100Z 01006KT 280V080 9999 BKN050 13/04 Q1031
SPZO Feb2005-180200Z 09004KT 360V170 9999 BKN050 12/04 Q1032 RMK PP000=
SPZO Feb2005-180300Z 36005KT 270V080 9999 OVC050 12/04 Q1032 RMK PP000=
SPZO Feb2005-180400Z 36007KT 9999 OVC050 12/04 Q1032 RMK PP000=
SPZO Feb2005-180500Z 09004KT 9999 OVC050 10/06 Q1032 RMK PP000=
SPZO Feb2005-180600Z 08002KT 9999 OVC050 11/05 Q1031 RMK PP000=
SPZO Feb2005-180700Z VRB02KT 9999 OVC050 09/06 Q1031 RMK PP000=
SPZO Feb2005-180800Z 08003KT 9999 OVC050 09/06 Q1030 RMK PP000=
SPZO Feb2005-180900Z 28003KT 9999 OVC060 09/06 Q1030 RMK PP000=
SPZO Feb2005-181000Z 26003KT 9999 OVC060 10/06 Q1030 RMK PP000=
SPZO Feb2005-181100Z 16003KT 9999 OVC060 09/06 Q1031 RMK PP000=
SPZO Feb2005-181105Z 08002KT 9999 SCT037 SCT043 BKN053 09/06 Q1031=
SPZO Feb2005-181200Z 23002KT 9999 FEW030 SCT043 BKN053 11/06 Q1032 NOSIG RMK PP000=
SPZO Feb2005-181300Z VRB01KT 9999 SCT043 BKN080 12/05 Q1032 NOSIG
SPZO Feb2005-181400Z 00000KT 9999 SCT043 BKN080 14/05 Q1033 NOSIG
SPZO Feb2005-181500Z 10004KT 070V170 9999 SCT043 BKN080 15/04 Q1033
SPZO Feb2005-181520Z VRB02KT 9999 BKN043 BKN100 15/04 Q1032=
SPZO Feb2005-181600Z 01009KT 350V080 9999 BKN043 SCT080 14/03 Q1033
SPZO Feb2005-181700Z VRB02KT 9999 BKN043 BKN100 16/05 Q1032 NOSIG
SPZO Feb2005-181800Z 02012KT 340V080 9999 SCT043 BKN100 16/06 Q1031 NOSIG RMK PP000=
SPZO Feb2005-181900Z 02011KT 340V080 9999 FEW043 BKN050 16/06 Q1030 NOSIG RMK PP000 RWY10 05015G28KT=
SPZO Feb2005-182000Z 03008KT 350V110 9999 SCT050 17/06 Q1029 NOSIG RMK PP000 RWY10 06008G21KT=
SPZO Feb2005-182100Z 14006KT 070V190 9999 SCT050 17/05 Q1028 NOSIG RMK PP000 RWY10 10008KT=
SPZO Feb2005-182200Z VRB03KT 9999 SCT050 17/05 Q1028 NOSIG RMK PP000 RWY10 01010KT TMX:17.7=
SPZO Feb2005-182300Z 10009KT 070V170 9999 FEW050 14/05 Q1028 NOSIG RMK PP000 RWY10 02009KT=
SPZO Feb2005-190000Z 00000KT 9999 SCT050 14/05 Q1029 RMK PP000=
SPZO Feb2005-190100Z 00000KT 9999 SCT050 12/06 Q1030 RMK PP000=
SPZO Feb2005-190200Z 08004KT 9999 SCT050 10/06 Q1031 RMK PP000=
SPZO Feb2005-190300Z 05002KT 9999 SCT050 10/06 Q1032 RMK PP000=
SPZO Feb2005-190400Z 00000KT 9999 SCT050 09/06 Q1032 RMK PP000=
SPZO Feb2005-190500Z 16003KT 9999 SCT050 09/06 Q1032 RMK PP000=
SPZO Feb2005-190600Z 26002KT 9999 BKN050 09/06 Q1031 RMK PP000=
SPZO Feb2005-190700Z 10003KT 9999 BKN050 09/06 Q1030 RMK PP000=
SPZO Feb2005-190800Z 07002KT 9999 BKN050 10/06 Q1030 RMK PP000=
SPZO Feb2005-190900Z 00000KT 9999 OVC050 10/06 Q1030 RMK PP000=
SPZO Feb2005-191000Z 00000KT 9999 OVC050 10/06 Q1030 RMK PP000=
SPZO Feb2005-191100Z 10002KT 9999 OVC050 10/07 Q1031 RMK PP000=
SPZO Feb2005-191200Z 00000KT 9999 FEW043 BKN050 11/07 Q1031 NOSIG RMK PP000=
SPZO Feb2005-191300Z VRB02KT 9999 FEW040 BKN046 12/06 Q1032 NOSIG RMK PP000=
SPZO Feb2005-191400Z VRB02KT 9999 FEW040 BKN050 13/06 Q1032 NOSIG RMK PP000=
SPZO Feb2005-191500Z VRB02KT 9999 FEW040 BKN050 15/04 Q1032 NOSIG RMK PP000=
SPZO Feb2005-191600Z VRB02KT 9999 FEW040 BKN050 16/05 Q1032 NOSIG RMK PP000 RWY10 17006KT=
SPZO Feb2005-191700Z 26008KT 280V080 9999 BKN050 17/03 Q1031 NOSIG RMK PP000 RWY10 01015G25KT RA CDTE E=
SPZO Feb2005-191800Z VRB06KT 9999 BKN050 17/04 Q1030 NOSIG RMK PP000 RWY10 05016G30KT=
SPZO Feb2005-191900Z 35008KT 9999 SCT050 19/05 Q1029 NOSIG RMK PP000 RWY10 04010G22KT=
SPZO Feb2005-192000Z 33008KT 270V010 9999 FEW050 19/05 Q1027 NOSIG RMK PP000 RWY10 06016G26KT==
SPZO Feb2005-192100Z 36006KT 270V080 9999 FEW050 19/03 Q1026 NOSIG RMK PP000=
SPZO Feb2005-192200Z 01007KT 340V080 9999 FEW050 18/05 Q1026 NOSIG RMK PP000 RWY10 02012G24KT TMX:19.2=
SPZO Feb2005-192300Z 01009KT 340V080 9999 FEW046 16/04 Q1027 NOSIG RMK PP000 RWY10 01011G21KT=
SPZO Feb2005-200000Z 14004KT 9999 SCT040 SCT050 15/04 Q1029 RMK PP000=
SPZO Feb2005-200100Z VRB01KT 9999 FEW040 SCT060 14/05 Q1030 RMK PP000=
SPZO Feb2005-200200Z 00000KT 9999 FEW040 SCT100 13/06 Q1031 RMK PP000=
SPZO Feb2005-200300Z 00000KT 9999 FEW040 SCT050 12/05 Q1031 RMK PP000=
SPZO Feb2005-200400Z 00000KT 9999 SCT100 12/06 Q1032 RMK PP000=
SPZO Feb2005-200500Z 00000KT 9999 SCT050 12/06 Q1032 RMK PP000=
SPZO Feb2005-200600Z 00000KT 9999 FEW040 SCT060 11/06 Q1030 RMK PP000=
SPZO Feb2005-200700Z 00000KT 9999 SCT040 SCT050 10/07 Q1030 RMK PP000=
SPZO Feb2005-200800Z 00000KT 9999 SCT040 SCT060 11/07 Q1030 RMK PP000=
SPZO Feb2005-200900Z VRB03KT 9999 SCT040 SCT080 11/07 Q1030 RMK PP000=
SPZO Feb2005-201000Z VRB02KT 9999 VCRA BKN040 SCT046 10/08 Q1030 RMK PP000=
SPZO Feb2005-201100Z VRB01KT 9999 -DZ BKN040 SCT070 10/07 Q1031 RMK PP002=
SPZO Feb2005-201200Z VRB03KT 9999 -DZ FEW036 OVC050 10/08 Q1032 NOSIG RMK PPTRZ RWY10 10006KT=
SPZO Feb2005-201300Z VRB03KT 9999 -DZ FEW036 OVC050 12/08 Q1033 NOSIG RMK PPTRZ RWY10 11008KT=
SPZO Feb2005-201400Z 09005KT 9999 -DZ FEW030 SCT043 BKN050 12/07 Q1033 NOSIG RMK PPTRZ RWY10 10010KT=
SPZO Feb2005-201500Z VRB02KT 9999 -DZ FEW036 BKN046 13/07 Q1033 NOSIG RMK PPTRZ RWY10 11007KT=
SPZO Feb2005-201600Z VRB02KT 9999 -RA FEW033 OVC046 12/07 Q1033 NOSIG RMK PP004=
SPZO Feb2005-201700Z VRB02KT 9999 -RA FEW036 OVC080 14/06 Q1032 NOSIG RMK PP002=
SPZO Feb2005-201800Z VRB03KT 9999 RERA FEW036 BKN080 15/08 Q1031 NOSIG RMK PP002=
SPZO Feb2005-201826Z VRB01KT 9999 VCSH SCT030 SCT043 BKN053 15/07 Q1030=
SPZO Feb2005-201900Z 00000KT 9999 VCSH SCT030 BKN043 BKN047 15/07 Q1030 NOSIG RMK PP000=
SPZO Feb2005-201927Z 28010KT 260V350 9999 RA SCT030 BKN043 BKN047 14/08 Q1030=
SPZO Feb2005-202000Z 28014KT 270V350 9999 VCSH SCT030 SCT043 BKN053 14/08 Q1029 RERA NOSIG RMK PP002=
SPZO Feb2005-202100Z 28010KT 270V350 9999 VCSH SCT033 SCT043 BKN053 15/08 Q1029 NOSIG RMK PP000=
SPZO Feb2005-202200Z 28009KT 260V350 9999 SCT043 BKN060 14/08 Q1028 NOSIG RMK PP000 TMAX 15.5=
SPZO Feb2005-202300Z 28009KT 250V350 9999 FEW030 BKN047 14/08 Q1029 NOSIG RMK PP000=
SPZO Feb2005-210000Z 29014KT 9999 SCT033 BKN043 13/07 Q1030 RMK PP000=
SPZO Feb2005-210100Z 28011KT 9999 FEW040 SCT080 12/06 Q1031 RMK PP000=
SPZO Feb2005-210200Z 27009KT 9999 FEW040 SCT05012/06 Q1032 RMK PP000=
SPZO Feb2005-210300Z 26005KT 9999 SCT040 SCT060 12/06 Q1032 RMK PP000=
SPZO Feb2005-210400Z 00000KT 9999 SCT050 12/07 Q1032 RMK PP000=
SPZO Feb2005-210500Z VRB03KT 9999 FEW040 SCT050 11/07 Q1032 RMK PP000=
SPZO Feb2005-210600Z 00000KT 9999 SCT040 SCT050 10/08 Q1032 EMK PP000=
SPZO Feb2005-210700Z 00000KT 9999 FEW040 SCT050 10/08 Q11031 RMK PP000=
SPZO Feb2005-210800Z 00000KT 9999 -RA BKN040 SCT050 10/08 Q1031 RMK PP004=
SPZO Feb2005-210900Z 00000KT 9999 FEW030 OVC040 10/08 Q1031 RNK PP004=
SPZO Feb2005-211000Z VRB02KT 9999 VCRA FEW020 SCT030 BKN046 09/08 Q1031 RMK CLNG BLW 1200M PP0000=
SPZO Feb2005-211100Z VRB02KT 9000 -DZ FEW020 SCT037 BKN046 09/08 Q1031 RMK CLNG BLW 1200M PP002=
SPZO Feb2005-211129Z 10004KT 080V170 7000 -DZ VCSH FEW015 SCT033 OVC047 10/08 Q1031 TEMPO 9000 RMK CLNG BLW 1200M=
SPZO Feb2005-211200Z 10004KT 080V170 9000 -DZ VCSH FEW015 SCT033 OVC047 10/08 Q1032 TEMPO FM1240 9999 NSW SCT020 SCT040 OVC060 2112 RMK CLNG BLW 1200M PP002=
SPZO Feb2005-211300Z 10002KT 070V170 7000 -RA VCSH FEW015 SCT033 OVC060 10/08 Q1033 TEMPO 9000 -DZ RMK CLNG BLW 1200M PP004=
SPZO Feb2005-211324Z 10003KT 070V170 9000 -DZ VCSH FEW020 SCT037 OVC060 10/08 Q1033 RERA TEMPO FEW025 OVC080=
SPZO Feb2005-211338Z 10003KT 070V170 9999 FEW025 SCT037 OVC060 10/08 Q1033 REDZ TEMPO OVC080=
SPZO Feb2005-211400Z 10003KT 080V190 9999 -RA FEW025 SCT037 OVC060 11/07 Q1033 TEMPO 9000 RMK PP002=
SPZO Feb2005-211414Z VRB03KT 9000 -RA VCSH FEW025 SCT033 OVC060 11/07 Q1033 TEMPO 8000=
SPZO Feb2005-211425Z VRB02KT 8000 -RA VCSH FEW025 SCT033 OVC060 11/08 Q1033 TEMPO 8000=
SPZO Feb2005-211432Z 00000KT 7000 -RA VCSH FEW025 SCT037 OVC060 12/08 Q1033 TEMPO FM15 8000=
SPZO Feb2005-211500Z VRB01KT 8000 RA VCSH FEW025 SCT037 OVC060 12/08 Q1033 TEMPO 7000 FM1530 9000 RMK PP002=
SPZO Feb2005-211515Z VRB01KT 9999 -DZ FEW025 SCT037 OVC060 12/09 Q1033=
SPZO Mar2005-031300Z 00000KT 9999 SCT043 BKN053 12/07 Q1034 NOSIG RMK PP000=
SPZO Mar2005-031400Z 09004KT 9999 VCSH SCT043 BKN053 13/08 Q1034 NOSIG RMK PP000=
SPZO Mar2005-031500Z VRB02KT 9999 SCT043 BKN053 14/08 Q1034 NOSIG RMK PP000=
SPZO Mar2005-031600Z VRB02KT 9999 SCT043 BKN100 17/06 Q1034 NOSIG RMK PP000=
SPZO Mar2005-031700Z 00000KT 9999 SCT043 SCT080 19/08 Q1032 NOSIG RMK PP000=
SPZO Mar2005-031800Z 15006KT 080V200 9999 FEW043 SCT047 20/06 Q1031 NOSIG RMK PP000=
SPZO Mar2005-031900Z 08008KT 360V170 9999 FEW043 SCT047 19/07 Q1029 NOSIG RMK PP000=
SPZO Mar2005-032000Z VRB08KT 9999 FEW040 SCT047 20/07 Q1028 NOSIG RMK PP000=
SPZO Mar2005-032100Z 01013KT 340V080 9999 FEW040 SCT047 19/06 Q1028 NOSIG RMK PP000=
SPZO Mar2005-032200Z 02008KT 350V080 99999 SCT047 18/06 Q1028 NOSIG RMK PP000 TMAX 21.2=
SPZO Mar2005-032300Z 36008KT 340V080 9999 FEW030 BKN043 17/06 Q1029 NOSIG RMK PP000=
SPZO Mar2005-040000Z 08005KT 9999 BKN040 SCT050 15/07 Q1031 RMK PP000=
SPZO Mar2005-040100Z VRB03KT 9999 BKN040 SCT050 15/07 Q1032 RMK PP000=
SPZO Mar2005-040200Z VRB02KT 9999 SCT040 SCT050 14/07 Q1033 RMK PP000=
SPZO Mar2005-040300Z 18013KT 9999 -RA OVC040 12/06 Q1035 RMK PP002=
SPZO Mar2005-040400Z VRB03KT 9999 -RA SCT040 SCT046 10/07 Q1036 RMK PP006=
SPZO Mar2005-040500Z 00000KT 9999 -RA OVC040 09/07 Q1036 RMK PP014=
SPZO Mar2005-040600Z VRB03KT 9000 -RA OVC040 09/07 Q1035 RMK PP010=
SPZO Mar2005-040700Z 00000KT 9000 -RA BKN037 SCT046 10/07 Q1034 RMK PP012=
SPZO Mar2005-040800Z 00000KT 9999 SCT030 BKN040 10/07 Q1033 RMK PPTRZ=
SPZO Mar2005-040900Z 00000KT 9999 SCT030 BKN040 10/07 Q1033 RMK PP000=
SPZO Mar2005-041000Z VRB02KT 9999 SCT040 SCT050 10/07 Q1034 RMK PP000=
SPZO Mar2005-041030Z 09005KT 9999 FEW030 SCT040 08/06 Q1034=
SPZO Mar2005-041100Z 10004KT 9999 FEW030 SCT040 08/07 Q1034 RMK PP000=
SPZO Mar2005-041142Z VRB02KT 9999 FEW020 SCT037 BKN047 10/07 Q1035=
SPZO Mar2005-041200Z 00004KT 9999 FEW020 SCT037 BKN047 09/07 Q1035 NOSIG RMK PP000=
SPZO Mar2005-041221Z 07002KT 360V110 9999 FEW020 SCT037 BKN040 10/08 Q1035 TEMPO BKN037 BKN040=
SPZO Mar2005-041300Z 08002KT 360V110 9999 FEW030 SCT037 BKN060 11/08 Q1036 TEMPO SCT033 RMK PP000=
SPZO Mar2005-041303Z VRB02KT 9999 SCT033 SCT060 12/07 Q1036=
SPZO Mar2005-041400Z VRB02KT 9999 SCT033 15/08(Q9035 NOSIG RMK PP000=
SPZO Mar2005-041500Z VRB03KT 9999 SCT043 15/06 Q1035 NOSIG RMK PP000=
SPZO Mar2005-041600Z VRB02KT 9999 SCT043 SCT060 16/07 Q1034 NOSIG RKM PP000=
SPZO Mar2005-041700Z VRB03KT 9999 SCT047 19/05 Q1033 NOSIG RMK PP000=
SPZO Mar2005-041800Z VRB03KT 9999 SCT047 20/04 Q1031 NOSIG RMK PP000=
SPZO Mar2005-041900Z 00000KT 9999 FEW040 SCT050 21/03 Q1030 NOSIG RMK PP000=
SPZO Mar2005-042000Z VRB03KT 9999 FEW040 SCT050 21/03 Q1028 NOSIG RMK PP000=
SPZO Mar2005-042100Z VRB02KT 9999 SCT050 21/02 Q1028 NOSIG RMK PP000=
SPZO Mar2005-042200Z 31005KT 250V010 9999 SGT050 20/05 Q1027 NOSIG RMK PP000 TMAX 22.5=
SPZO Mar2005-042300Z 28008KT 260V350 9999 SCT043 19/08 Q1028 NOSIG RMK PP000=
SPZO Mar2005-050000Z 28007KT 9999 FEW040 SCT050 17/09 Q102 RMK PP020=
SPZO Mar2005-050100Z 05004KT 9999 SCT040 SCT080 16/08 Q1031 RMK PP000=
SPZO Mar2005-050200Z VRB03KT 9999 SCT040 SCT070 15/07 Q1032 RMK PP000=
SPZO Mar2005-050230Z 12007KT 9000 RA OVC040 13/09 Q1033=
SPZO Mar2005-050300Z 27004KT 9000 -RA SCT037TCU BKN043 12/09 Q1034 RMK PP006=
SPZO Mar2005-050400Z 00000KT 9999 FEW030 OVC040 13/08 Q1034 RMK PP002=
SPZO Mar2005-050500Z 36012KT 9999 SCT040 SCT070 12/06 Q1034 RMK PP000=
SPZO Mar2005-050600Z 34006KT 9999 SCT040 SCT050 12/07 Q1033 RMK PP000=
SPZO Mar2005-050700Z 00000KT 9999 BKN040 SCT046 11/07 Q1033 RMK PP000=
SPZO Mar2005-050800Z VRB03KT 9999 BKN040 09/06 Q1033 RMK PP000=
SPZO Mar2005-050900Z 00000KT 9999 SCT040 SCT080 09/06 Q1033 RMK PP000=
SPZO Mar2005-051000Z 00000KT 9999 FEW040 SCT080 09/06 Q1033 RMK PP000=
SPZO Mar2005-051100Z 00000KT 9999 SCT043 08/06 Q1034 RMK PP000=
SPZO Mar2005-051200Z 09002KT 9999 FEW043 BKN100 09/07 Q1034 NOSIG RMK PP000=
SPZO Mar2005-051300Z VRB02KT 9999 FEW300 13/07 Q1035 NOSIG RMK PP000=
SPZO Mar2005-051400Z VRB02KT 9999 FEW300 14/06 Q1035 NOSIG RMK PP000=
SPZO Mar2005-051500Z VRB02KT 9999 FEW050 17/07 Q1035 NOSIG RMK PP000=
SPZO Mar2005-051600Z 36011KT 340V080 9999 FEW050 18/M01 Q1034 NOSIG RMK PP000=
SPZO Mar2005-051700Z 36010KT 270V080 9999 FEW050 19/M01 Q1034 NOSIG RMK PP000=
SPZO Mar2005-051800Z 32009KT 270V020 9999 FEW050 20/M01 Q1032 NOSIG RMK PP000=
SPZO Mar2005-051900Z 34006KT 260V020 9999 FEW050 21/02 Q1031 NOSIG RMK PP000=
SPZO Mar2005-052000Z 36011KT 340V080 9999 SCT300 20/02 Q1030 NOSIG RMK PP000=
SPZO Mar2005-052100Z 36009KT 340V080 9999 FEW043 BKN300 19/M01 Q1029 NOSIG RMK PP000=
SPZO Mar2005-052200Z 01009KT 340V080 9999 FEW050 SCT300 20/03 Q1029 NOSDIG RMK PP000 TMAX 20.8=
SPZO Mar2005-052300Z VRB04KT 9999 SCT300 19/M03 Q1030 NOSIG RMK PP000=
SPZO Mar2005-060000Z VRB04KT 9999 SCT050 15/03 Q1031 RMK PP000=
SPZO Mar2005-060100Z VRB02KT 9999 SCT050 13/04 Q1033 RMK PP000=
SPZO Mar2005-060200Z 08003KT 9999 SCT050 12/05 Q1034 RMK PP000=
SPZO Mar2005-060300Z 00000KT 9999 SCT050 11/05 Q1034 RMK PP000=
SPZO Mar2005-060400Z 28003KT 9999 SCT050 09/05 Q1035 RMK PP000=
SPZO Mar2005-060500Z 00000KT 9999 SCT050 08/04 Q1034 RMK PP000=
SPZO Mar2005-060600Z 00000KT 9999 SCT050 08/05 Q1034 RMK PP000=
SPZO Mar2005-060700Z 27003KT 9999 SCT050 07/04 Q1034 RMK PP000=
SPZO Mar2005-060800Z 00000KT 9999 SCT050 07/04 Q1033 RMK PP000=
SPZO Mar2005-060900Z 00000KT 9999 SCT050 SCT100 07/05 Q1033 RMK PP000=
SPZO Mar2005-061000Z 00000KT 9999 SCT050 SCT100 07/04 Q1034 RMK PP000=
SPZO Mar2005-061100Z 00000KT 9999 SCT050 06/04 Q1034 RMK PP000=
SPZO Mar2005-061112Z 00000KT 8000 SCT043 SCT300 06/04 Q1035 RMK HZ=
SPZO Mar2005-061200Z 10002KT 8000 SCT043 SCT100 08/06 Q1035 BECMG 9999 RMK HZ PP000=
SPZO Mar2005-061233Z VRB01KT 8000 FEW060 12/06 Q1036 RMK HZ=
SPZO Mar2005-061300Z 00000KT 9999 FEW043 13/06 Q1036 NOSIG RMK PP000=
SPZO Mar2005-061400Z VRB02KT 9999 FEW043 15/07 Q1036 NOSIG RMK PP000=
SPZO Mar2005-061500Z 12004KT 070V190 9999 SCT043 17/06 Q1034 NOSIG RMK PP000=
SPZO Mar2005-061600Z 00000KT 9999 SCT043 19/04 Q1034 NOSIG RMK PP000=
SPZO Mar2005-061700Z 08005KT 360V170 9999 SCT043 20/05 Q1032 NOSIG RKM PP000=
SPZO Mar2005-061800Z VRB03KT 9999 SCT047 21/04 Q1030 NOSIG RMK PP000=
SPZO Mar2005-061900Z VRB04KT 9999 FEW043 SCT047 23/03 Q1029 NOSIG RKM PP000=
SPZO Mar2005-062000Z 01013KT 330V080 9999 FEW043 SCT047 21/06 Q1028 NOSIG RMK PP000=
SPZO Mar2005-062100Z 36011KT 340V080 9999 SCT043 SCT300 20/05 Q1028 NOSIG RMK PP000=
SPZO Mar2005-062200Z 02009KT 330V070 9999 SCT043 BKN100 19/06 Q1028 NOSIG RMK PP000 TMAX 22.9=
SPZO Mar2005-062300Z 07004KT 360V110 9999 SCT043 SCT300 17/07 Q1029 NOSIG RMK PP000=
SPZO Mar2005-070000Z VRB03KT 9999 SCT050 SCT070 15/06 Q1030 RMK PP000=
SPZO Mar2005-070100Z 07004KT 360V100 9999 BKN050 14/06 Q1031 RMK PP000=
SPZO Mar2005-070200Z 09002KT 9999 BKN050 13/06 Q1032 RMK PP000=
SPZO Mar2005-070300Z 26002KT 9999 BKN050 12/07 Q1032 RMK PP000=
SPZO Mar2005-070400Z 00000KT 9999 BKN050 10/06 Q1033 RMK PP000=
SPZO Mar2005-070500Z 08003KT 9999 BKN050 11/07 Q1032 RMK PP000=
SPZO Mar2005-070600Z 00000KT 9999 SCT050 10/07 Q1032 RMK PP000=
SPZO Mar2005-070700Z 00000KT 9999 SCT050 09/07 Q1031 RMK PP000=
SPZO Mar2005-070800Z 08002KT 9999 SCT050 09/07 Q1031 RMK PP000=
SPZO Mar2005-070900Z 00000KT 9999 SCT050 10/07 Q1030 RMK PP000=
SPZO Mar2005-071000Z 00000KT 9999 SCT050 09/07 Q1031 RMK PP000=
SPZO Mar2005-071100Z 00000KT 9999 BKN050 09/07 Q1031 RMK PP000=
SPZO Mar2005-071134Z 10004KT 9000 FEW043 BKN100 11/08 Q1032 RMK HZ=
SPZO Mar2005-071200Z 11003KT 090V180 9999 FEW050 BKN100 11/08 Q1032 TEMPO SCT100 RMK PP000=
SPZO Mar2005-071300Z VRB01KT 9999 SCT043 BKN100 13/07 Q1033 NOSIG RMK PP000=
SPZO Mar2005-071400Z VRB02KT 9999 FEW043 BKN100 15/08 Q1033 NOSIG RMK PP000=
SPZO Mar2005-071500Z VRB03KT 9999 SCT043 SCT100 17/07 Q1032 NOSIG RMK PP000=
SPZO Mar2005-071600Z 01005KT 340V080 9999 SCT043 SCT100 18/07 Q1031 NOSIG RMK PP000=
SPZO Mar2005-071700Z VRB03KT 9999 FEW043 SCT047 20/06 Q1030 NOSIG RMK PP000=
SPZO Mar2005-071715Z VRB06KT 9999 SCT043TCU SCT047 BKN100 19/07 Q1029
SPZO Mar2005-071800Z 19004KT 160V290 9000 -TSRA VCSH BKN043TCB SCT047TCU 13/08 Q1030 TEMPO 8000 TSRA RMK PPTRZ=
SPZO Mar2005-071828Z 34008KT 270V080 8000 TSRA VCSH BKN043CB SCT047CU 13/08 Q1030=
SPZO Mar2005-071900Z 23004KT 270V170 9000 TSRA VCSH SCT043CB BKN047TCU 12/07 Q1030 TEMPO FM1930 9999 NSW RMK PP046=
SPZO Mar2005-071932Z 28005KT 9999 VCSH FEW040TCU BKN080 13/09 Q1029 RETSRA=
SPZO Mar2005-072000Z 28005KT 9999 VCSH FEW040TCU BKN080 14/09 Q1029 NOSIG RMK PP002=
SPZO Mar2005-072100Z 28004KT 9999 VCSH FEW040TCU BKN053 13/08 Q1028 NOSIG RMK PP000=
SPZO Mar2005-072108Z 28005KT 250V350 9999 -RA FEW040 BKN043 15/09 Q1028 TEMPO NSW=
SPZO Mar2005-072126Z 33003KT 280V070 9999 SCT043 BKN080 RERA=
SPZO Mar2005-072200Z 05002KT 350V080 9999 SCT043 BKN060 15/08 Q1028 NOSIG RMK PPTRZ TMAX 21.2=
SPZO Mar2005-072300Z 00000KT 9999 SCT043 BKN060 13/09 Q1029 NOSIG RMK PP000=
SPZO Mar2005-080000Z 00000KT 9999 SCT043 SCT050 12/08 Q1029 RMK PP000=
SPZO Mar2005-080100Z 00000KT 9999 FEW040 SCT080 12/09 Q1030 RMK PP000=
SPZO Mar2005-080200Z 27009KT 9999 BKN040 SCT046 13/08 Q1032 RMK PP000=
SPZO Mar2005-080300Z 28007KT 9999 BKN040 SCT046 12/07 Q1033 RMK PP000=
SPZO Mar2005-080400Z 28007KT 9999 SCT030 BKN040 12/06 Q1033 RM PP000=
SPZO Mar2005-080500Z 28008KT 9999 SCT037 SCT046 10/06 Q1033 RMK PP000=
SPZO Mar2005-080600Z 28006KT 9999 SCT030 BKN040 10/05 Q1033 RMK PP000=
SPZO Mar2005-080700Z 28005KT 9999 SCT040 SCT050 10/05 Q1032 RMK PP000=
SPZO Mar2005-080800Z 27005KT 9999 OVC040 10/05 Q1031 RMK PP000=
SPZO Mar2005-080900Z 27004KT 9999 BKN040 SCT070 10/05 Q1031 RMK PP000=
SPZO Mar2005-081000Z VRB03KT 9999 FEW033 SCT100 09/05 Q1031 RMK PP000=
SPZO Mar2005-081100Z VRB02KT 9999 FEW043 SCT200 08/05 Q1031 RMK PP000=
SPZO Mar2005-081200Z 08002KT 360V110 9999 FEW060 SCT100 09/06 Q1032 TEMPO FEW100 RMK PP000=
SPZO Mar2005-081300Z 00000KT 9999 BKN100 12/06 Q1033 NOSIG RMK PP000=
SPZO Mar2005-081400Z 00000KT 9999 FEW040 15/06 Q1033 NOSIG RMK PP000=
SPZO Mar2005-081500Z 00000KT 9999 FEW043 16/06 Q1032 NOSIG RMK PP000=
SPZO Mar2005-081600Z 00000KT 9999 FEW043 18/06 Q1031 NOSIG RMK PP000=
SPZO Mar2005-081700Z VRB03KT 9999 FEW043 SCT047 20/07 Q1029 RMK PP000=
SPZO Mar2005-081800Z 35004KT 270V080 9999 VCSH FEW040CB SCT047 BKN080 19/07 Q1028 NOSIG RMK PP000=
SPZO Mar2005-081900Z 3606KT 9999 FEW040 SCT043 BKN080 18/05 Q1028 NOSIG RMK PP000=
SPZO Mar2005-082000Z VRB02KT 9999 SCT043 BKN080 18/06 Q1027 NOSIG RMK PP000=
SPZO Mar2005-082100Z VRB02KT 9999 FEW043 BKN080 19/06 Q1026 NOSIG RMK PP000=
SPZO Mar2005-082200Z 25005KT 9999 FEW043 BKN080 18/05 Q1025 NOSIG RMK PP000 TMAX 19.7=
SPZO Mar2005-082300Z VRB02KT 9999 FEW043 SCT060 BKN080 17/07 Q1026 NOSIG RMK PP000=
SPZO Mar2005-090000Z VRB02KT 9999 FEW040 SCT060 15/08 Q1028 RMK PP000=
SPZO Mar2005-090100Z 28011KT 9999 FEW040 SCT060 15/07 Q1029 RMK PP000=
SPZO Mar2005-090200Z 25006KT 9999 BKN050 14/07 Q1030 RMK PP000=
SPZO Mar2005-090300Z 23005KT 9999 SCT040 SCT050 14/06 Q1031 RMK PP000=
SPZO Mar2005-090400Z 28010KT 9999 SCT037 SCT046 13/07 Q1031 RMK PP000=
SPZO Mar2005-090500Z 28010KT 9999 BKN040 SCT050 13/07 Q1031 RMK PP000=
SPZO Mar2005-090600Z 27008KT 9999 BKN040 SCT050 12/06 Q1031 RMK PP000=
SPZO Mar2005-090700Z 00000KT 9999 OVC040 11/06 Q1031 RMK PP000=
SPZO Mar2005-090800Z VRB02KT 9999 OVC043 11/06 Q1030 RMK PP000=
SPZO Mar2005-090900Z 00000KT 9999 SCT040 SCT050 10/07 Q1030 RMK PP000=
SPZO Mar2005-091000Z VRB03KT 9999 BKN040 SCT050 11/07 Q1030 RMK PP000=
SPZO Mar2005-091100Z 00000KT 9999 FW037 SCT043 BKN050 11/07 Q1030 RMK PP000=
SPZO Mar2005-091200Z 00000KT 9999 SCT043 BKN300 11/07 Q1031 NOSIG RMK PP000=
SPZO Mar2005-091300Z 08002KT 360V110 9999 SCT040 SCT300 13/07 Q1032 NOSIG RMK PP000=
SPZO Mar2005-091400Z VRB02KT 9999 SCT043 16/06 Q1031 NOSIG RMK PP000=
SPZO Mar2005-091500Z VRB03KT 9999 SCT043 17/06 Q1031 NOSIG RMK PP000=
SPZO Mar2005-091600Z VRB03KT 9999 SCT043 SCT060 19/06 Q1030 NOSIG RMK PP000=
SPZO Mar2005-091700Z 09006KT 070V200 9999 BKN043 19/08 Q1028 NOSIG RMK PP000=
SPZO Mar2005-091737Z 08004KT 360V110 9999 TS VCSH SCT043CB BKN047 18/05 Q1028 TEMPO -TSRA=
SPZO Mar2005-091800Z 07004KT 340V010 9999 TS VCSH BKN043CB SCT047 18/06 Q1028 TEMPO -TSRA RMK PP000=
SPZO Mar2005-091840Z 27011KT 9999 SCT043 SCT100 17/07 Q1028 RETS=
SPZO Mar2005-091900Z 27012KT 250V350 9999 SCT043 SCT100 19/07 Q1027 NOSIG RMK PP000=
SPZO Mar2005-092000Z 30012KT 250V350 9999 FEW030 SCT043 BKN100 17/05 Q1027 NOSIG RMK PP000=
SPZO Mar2005-092100Z 32006KT 250V350 SCT043 16/07 Q1026 NOSIG RMK PP000=
SPZO Mar2005-092200Z VRB03KT 9999 SCT043 BKN100 18/05 Q1026 NOSIG RMK PP000=
SPZO Mar2005-092300Z 32005KT 270V020 9999 SCT043 BKN300 17/05 Q1026 NOSIG RMK PP000=
SPZO Mar2005-100000Z VRB02KT 9999 BKN050 SCT100 15/06 Q1027 RMK PP000=
SPZO Mar2005-100100Z VRB02KT 9999 BKN050 13/07 Q1029 RMK PP000=
SPZO Mar2005-100200Z 00000KT 9999 BKN050 13/07 Q1029 RMK PP000=
SPZO Mar2005-100300Z 00000KT 9999 OVC050 13/07 Q1030 RMK PP000=
SPZO Mar2005-100400Z 00000KT 9999 OVC050 13/07 Q1030 RMK PP000=
SPZO Mar2005-100500Z 00000KT 9999 BKN050 12/07 Q1030 RMK PP000=
SPZO Mar2005-100600Z 00000KT 9999 BKN050 12/07 Q1030 RMK PP000=
SPZO Mar2005-100700Z 00000KT 9999 BKN050 11/08 Q1029 RMK PP000=
SPZO Mar2005-100800Z 10002KT 9999 BKN050 10/07 Q1029 RMK PP000=
SPZO Mar2005-100900Z VRB02KT 9999 BKN050 10/07 Q1029 RMK PP000=
SPZO Mar2005-101000Z 26002KT 9999 BKN050 11/07 Q1029 RMK PP000=
SPZO Mar2005-101100Z 00000KT 9999 OVC050 10/07 Q1030 RMK PP000=
SPZO Mar2005-101110Z 00000KT 9999 FEW047 BKN060 OVC100 10/07 Q1030=
SPZO Mar2005-101200Z 07003KT 9999 FEW037 SCT060 BKN100 11/08 Q1031 NOSIG RMK PP000=
SPZO Mar2005-101300Z 00000KT 9999 FEW037 BKN100 13/07 Q1031 NOSIG RKM PP000=
SPZO Mar2005-101400Z VRB02KT 9999 FEW040 BKN100 15/07 Q1032 NOSIG RMK PP000=
SPZO Mar2005-101500Z 00000KT 9999 SCT040 SCT100 16/05 Q1031 NOSIG RMK PP000=
SPZO Mar2005-101600Z 10007KT 9999 FEW033 BKN060 16/06 Q1031 NOSIG RMK PP000=
SPZO Mar2005-101700Z 00000KT 9999 FEW030 SCT043 BKN060 18/05 Q1029 NOSIG RMK PP000=
SPZO Mar2005-101800Z 27015KT 250V350 9999 FEW033 SCT043 BKN080 18/07 Q1028 NOSIG RMK PP000 RWY10 28025G36KT 240V330=
SPZO Mar2005-101900Z 28013KT 260V350 9999 FEW046 BKN100 16/06 Q1028 TEMPO VCRA RMK PP000 RWY10 29021G31KT=
SPZO Mar2005-102000Z VRB06KT 9999 FEW046 OVC100 16/07 Q1027 NOSIG RMK PP000 RWY10 28017KT=
SPZO Mar2005-102100Z VRB05KT 9999 FEW040 OVC100 16/05 Q1027 NOSIG RMK PP000 RWY10 30010KT=
SPZO Mar2005-102200Z 27010KT 9999 FEW046 OVC100 14/07 Q1027 NOSIG RMK PP000 RWY10 30011KT TMX:19.4=
SPZO Mar2005-102300Z 27008KT 9999 FEW046 OVC100 14/06 Q1028 NOSIG RMK PP000 RWY10 31012KT=
SPZO Mar2005-110000Z 28006KT 9999 SCT050 SCT100 13/06 Q1029 RMK PP000=
SPZO Mar2005-110100Z 00000KT 9999 BKN050 13/07 Q1030 RMK PP000=
SPZO Mar2005-110200Z 00000KT 9999 OVC050 13/07 Q1031 RMK PP000=
SPZO Mar2005-110300Z 27003KT 9999 OVC050 13/07 Q1032 RMK PP000=
SPZO Mar2005-110400Z VRB02KT 9999 OVC050 12/07 Q1032 RMK PP000=
SPZO Mar2005-110500Z 10008KT 070V170 9999 OVC050 10/08 Q1032 RMK PP000=
SPZO Mar2005-110600Z VRB03KT 6000 RA SCT040 BKN050 10/08 Q1032 RMK PP006=
SPZO Mar2005-110700Z 00000KT 7000 -RA FEW040 BKN050 10/08 Q1031 RMK PP002=
SPZO Mar2005-110800Z 00000KT 8000 -RA FEW040 BKN050 10/08 Q1030 RMK PPTRZ=
SPZO Mar2005-110900Z 00000KT 9000 OVC040 10/08 Q1030 RERA RMK PPTRZ=
SPZO Mar2005-111000Z 09002KT 8000 -DZ OVC040 10/08 Q1030
SPZO Mar2005-111100Z 00000KT 8000 -RA SCT030 SCT040 BKN050 10/08 Q1031 RMK PP002=
SPZO Mar2005-111133Z VRB02KT 9999 RERA FEW030 SCT040 BKN050 10 Q1031=
SPZO Mar2005-111200Z 10002KT 9999 FEW025 SCT040 BKN050 10/08 Q1032 NOSIG RMK PP002=
SPZO Mar2005-111300Z 00000KT 9999 FEW025 SCT040 BKN050 11/09 Q1033 NOSIG RMK PP000 BCBR CDTE NE=
SPZO Mar2005-111400Z VRB03KT 9999 FEW036 BKN046 13/09 Q1033 NOSIG RMK PP000=
SPZO Mar2005-111500Z VRB02KT 9999 FEW036 SCT040 BKN050 15/08 Q1033 NOSIG RMK PP000=
SPZO Mar2005-111600Z VRB03KT 9999 FEW040 BKN050 18/08 Q1032 NOSIG RMK PP000 RWY10 32015G26KT RA CDTE W=
SPZO Mar2005-111700Z 28007KT 250V350 9999 FEW040 BKN046 16/08 Q1031 TEMPO VCRA RMK PP000 RWY10 29017KT RA CDTES W-E=
SPZO Mar2005-111711Z 28012KT 9999 -RA FEW040 BKN046 14/
SPZO Mar2005-111727Z 28010KT 270V350 7000 RA SCT036 BKN046 12/09 Q1031 RMK =
SPZO Mar2005-111800Z 26007KT 9999 RA FEW036 BKN046 12/08 Q1031 BECMG FM19 NSW RMK PP018=
SPZO Mar2005-111900Z VRB02KT 9999 DZ SCT043 BKN050 12/09 Q1030 BECMG FM1930 NSW RMK PP006 RWY10 03004KT=
SPZO Mar2005-112000Z 00000KT 9999 REDZ SCT043 BKN080 14/08 Q1029 NOSIG RMK PPTRZ RWY10 12004KT=
SPZO Mar2005-112100Z 00000KT 9999 SCT043 BKN060 Q1029 TEMPO VCRA RMK PP000=
SPZO Mar2005-112200Z VRB02KT 9999 FEW040 BKN050 15/08 Q1028 NOSIG RMK PP000 TMX 18.0=
SPZO Mar2005-112300Z 27007KT 9999 FEW043 BKN050 14/08 Q1029 NOSIG RMK PP000=
SPZO Mar2005-120000Z 27005KT 9999 BKN040 SCT080 13/09 Q1029 RMK PP000=
SPZO Mar2005-120100Z VRB02KT 9999 SCT040 SCT080 12/07 Q1030 RMK PP000=
SPZO Mar2005-120200Z 00000KT 9999 FEW040 SCT100 12/08 Q1031 RMK PP000=
SPZO Mar2005-120300Z VRB03KT 9999 BKN043 SCT070 11/08 Q1032 RMK PP000=
SPZO Mar2005-120400Z 00000KT 9000 RA SCT037 BKN040 10/08 Q1032 RMK PP016=
SPZO Mar2005-120500Z 00000KT 8000 RA OVC040 09/08 Q1033 RMK PP038=
SPZO Mar2005-120600Z 00000KT 9000 RA SCR030 BKN040 09/08 Q1033 RMK PP042=
SPZO Mar2005-120700Z 00000KT 9999 RA SCT030 BKN043 09/07 Q1032 RMK PP024=
SPZO Mar2005-120800Z 00000KT 8000 RA FEW030 OVC040 08/06 Q1032 RMK PP028=
SPZO Mar2005-120900Z 00000KT 8000 RA FEW030 OVC040 08/06 Q1032 RMK PP026=
SPZO Mar2005-121000Z 00000KT 7000 RA FEW025 SCT033 BKN043 08/0> Q1032 RMK CLNG BLW 1200M PP036=
SPZO Mar2005-121100Z 00000KT 9000 -RA FEW027 SCT037 BKN046 08/06 Q1032 RMK CLNG BLW 1200M PP032=
SPZO Mar2005-121200Z 10002KT 8000 DZ FEW020 SCT040 BKN050 08/07 Q1033 NOSIG RMK PP002 RWY10 11005KT=
SPZO Mar2005-121300Z 08002KR 9999 SCT035 BKN046 09/07 Q1034 BECMG FM1330 FEW036 RMK PPTRZ=
SPZO Mar2005-121335Z VRB02KT 9999 FEW035 BKN050 11/07 Q1034=
SPZO Mar2005-121400Z VRB01KT 9999 FEW036 BKN050 11/07 Q1034 NOSIG RMK PP000=
SPZO Mar2005-121500Z VRB02KT 9999 FEW036 BKN046 13/07 Q1033 NOSIG RMK PP000 RWY10 11005KT=
SPZO Mar2005-121600Z VRB02KT 9999 FEW040 BKN050 16/08 Q1033 NOSIG RMK PP000=
SPZO Mar2005-121700Z VRB03KT 9999 FEW040 BKN050 17/07 Q1031 NOSIG RMK PP000=
SPZO Mar2005-121800Z VRB02KT 9999 FEW043 SCT050 18/07 Q1029 NOSIG RMK PP000=
SPZO Mar2005-121900Z VRB02KT 9999 BKN050 20/07 Q1028 NOSIG RMK PP000=
SPZO Mar2005-122000Z VRB05KT 9999 BKN050 21/07 Q1026 NOSIG RMK PP000=
SPZO Mar2005-122100Z 28005KT 240V300 9999 BKN050 20/07 Q1026 NOSIG RMK PP000 RWY10 28006KT=
SPZO Mar2005-122200Z 36008KT 340V080 9999 SCT040 BKN100 18/07 Q1026 NOSIG RMK PP000 RA CDTE E TMX: 21.5=
SPZO Mar2005-122238Z 35009KT 340V080 9000 RA BKN040 SCT050 16/08 Q1027=
SPZO Mar2005-122300Z 01009KT 340V080 9000 RATS SCT040CB BKN046 15/07 Q1027 BECMG FM2345 NSW RMK P010=
SPZO Mar2005-130000Z 00000KT 9000 RA OVC040 11/08 Q1029 RMK PP044=
SPZO Mar2005-130100Z 00000KT 9000 RA FEW030 OVC040 11/08 Q1029 RMK PP010=
SPZO Mar2005-130200Z 11005KT 9999 RA FEW025 OVC040 10/08 Q1032 RMK PP028=
SPZO Mar2005-130300Z 00000KT 9000 -RA SCT025 BKN040 10/08 Q1032 RMK PP018=
SPZO Mar2005-130400Z 00000KT 9999 -RA SCT030 BKN040 10/08 Q1032 RMK PP018=
SPZO Mar2005-130500Z 00000KT 9999 SCT025 BKN040 10/08 Q1031 RMK PP012=
SPZO Mar2005-130600Z 00000KT 9999 SCT035 BKN043 10/-8 Q1031 RMK PP000=
SPZO Mar2005-130700Z VRB03KT 9999 SCT025 BKN043 10/08 Q1030 RMK PP000=
SPZO Mar2005-130800Z 00000KT 9999 SCT025 BKN050 10/08 Q1030 RMK PP000=
SPZO Mar2005-130900Z VRB02KT 9999 SCT030 BKN046 10/08 Q1030 RMK PP000=
SPZO Mar2005-131000Z VRB03KT 9999 FEW030 SCT043 BKN046 10/08 Q1030 RMK PP000=
SPZO Mar2005-131100Z VRB03KT 9999 BKN040 SCT050 10/08 Q1030 RMK PP000=
SPZO Mar2005-131200Z VRB02KT 9999 FEW040 OVC050 10/08 Q1031 NOSIG RMK PP000=
SPZO Mar2005-131300Z 00000KT 9999 FEW040 BKN050 11/08 Q1032 NOSIG RMK PP000=
SPZO Mar2005-131400Z VRB02KT 9999 FEW036 SCT050 15/08 Q1032 NOSIG RMK PP000=
SPZO Mar2005-131500Z VRB02KT 9999 FEW040 SCT050 16/07 Q1031 NOSIG RMK PP000=
SPZO Mar2005-131600Z VRB04KT 9999 FEW043 BKN050 18/08 Q1030 NOSIG RMK PP000=
SPZO Mar2005-131700Z VRB05KT 9999 SCT050 20/07 Q1029 NOSIG RMK PP000=
SPZO Mar2005-131800Z 28016KT 260V350 9999 FEW043 BKN050 17/08 Q1028 TEMPO VCRA RMK PP000 RWY10 30020G31KT RA CDTE 1318 W/E=
SPZO Mar2005-131900Z 27009KT 9999 FEW043 BKN050 17/08 Q1028 TEMPO VCRA
SPZO Mar2005-132000Z 25004KT 180V290 9999 FEW046 BKN080 17/08 Q1027 TEMPO VCRA RMK PP000 RWY10 36006KT=
SPZO Mar2005-132100Z 09005KT 9999 -RA SCT043 BKN080 16/09 Q1027 NOSIG RMK PP000 RWY10 27011KT=
SPZO Mar2005-132200Z VRB03KT 9999 DZ SCT043 SCT050 15/09 Q1027 NOSIG RMK PPTRZ TMX:20.1 RWY10 15007KT=
SPZO Mar2005-132300Z 00000KT 9999 REDZ FEW043 BKN100 15/08 Q1028 NOSIG RMK PPTRZ=
SPZO Mar2005-140000Z 00000KT 9999 SCT050 SCT100 14/10 Q1029 RMK PP000=
SPZO Mar2005-140100Z 00000KT 9999 BKN050 12/09 Q1029 RMK PP000=
SPZO Mar2005-140200Z 00000KT 9999 BKN050 12/09 Q1030 RMK PP000=
SPZO Mar2005-140300Z VRB03KT 9999 OVC050 13/06 Q1032 RMK PP000=
SPZO Mar2005-140400Z 28005KT 250V350 8000 -DZ OVC040 11/07 Q1032 RMK PPTRZ=
SPZO Mar2005-140500Z 25005KT 180V280 8000 -RA FEW030 OVC040 10/07 Q1031 RMK PPTRZ=
SPZO Mar2005-140600Z 32003KT 9000 FEW030 OVC040 10/07 Q1030 RERA RMK PPTRZ=
SPZO Mar2005-140700Z 00000KT 9999 FEW030 OVC040 10/07 Q1030 RMK PP000=
SPZO Mar2005-140800Z 00000KT 9999 FEW030 OVC040 08/06 Q1029 RMK PP000=
SPZO Mar2005-140900Z 00000KT 9999 OVC040 09/07 Q1029 RMK PP000=
SPZO Mar2005-141000Z 00000KT 9999 BKN040 SCT080 08/07 Q1030 RMK PP000=
SPZO Mar2005-141030Z 00000KT 9999 BKN040 SCT090 08/07 Q1030=
SPZO Mar2005-141100Z 00000KT 9999 BKN050 SCT100 08/06 Q1030 RMK PP000=
SPZO Mar2005-141200Z 00000KT 9999 SCT046 SCT100 09/07 Q1031 NOSIG RMK PP000=
SPZO Mar2005-141300Z 00000KT 9999 FEW040 OVC100 12/07 Q1031 NOSIG RMK PP000=
SPZO Mar2005-141400Z 09004KT 070V170 9999 FEW040 BKN050 14/07 Q1032 NOSIG RMK PP000=
SPZO Mar2005-141500Z VRB02KT 9999 FEW040 OVC100 16/07 Q1031 NOSIG RMK PP000=
SPZO Mar2005-141600Z VRB02KT 9999 FEW040 OVC100 17/06 Q1030 NOSIG RMK PP000=
SPZO Mar2005-141700Z 13005KT 090V190 9999 FEW040 OVC100 16/07 Q1029 NOSIG RMK PP000=
SPZO Mar2005-141800Z VRB03KT 9999 FEW040 OVC100 17/07 Q1028 NOSIG RMK PP000 RWY10 08006KT=
SPZO Mar2005-141900Z VRB02KT 9999 FEW043 OVC100 18/07 Q1027 NOSIG RMK PP000 RWY10 09005KT=
SPZO Mar2005-142000Z 28013KT 260V350 9999 BKN043 SCT050 16/08 Q1027 TEMPO RA RMK PP000 RWY10 30017KT=
SPZO Mar2005-142011Z 30010KT 270V350 9999 -RA BKN043 SCT050 15/08 Q1027=
SPZO Mar2005-142100Z 27004KT 180V350 9999 RERA SCT043 SCT100 15/08 Q1026 NOSIG RMK PPTRZ RA CDTE 29006KT=
SPZO Mar2005-142200Z VRB02KT 9999 FEW040 BKN100 18/07 Q1026 NOSIG RMK PP000 TMX:18.5=
SPZO Mar2005-142300Z 28004KT 250V350 9999 SCT043 BKN100 16/07 Q1026 NOSIG RMK PP000=
SPZO Mar2005-150000Z VRB03KT 9999 SCT040 SCT080 14/09 Q1027 RMK PP000=
SPZO Mar2005-150100Z VRB05KT 5000 RA FEW030 BKN040 12/08 Q1028 RMK PP014=
SPZO Mar2005-150200Z 25006KT 180V290 8000 FEW030 OVC040 12/08 Q1029 RERA RMK PP002=
SPZO Mar2005-150300Z 28008KT 250V350 9999 OVC040 11/07 Q1030 RMK PP000=
SPZO Mar2005-150400Z 28008KT 250V350 9999 OVC040 11/07 Q1030 RMK PP000=
SPZO Mar2005-150500Z VRB03KT 9999 OVC040 12/07 Q1029 RMK PP000=
SPZO Mar2005-150600Z 00000KT 9999 OVC040 11/08 Q1029 RMK PP000=
SPZO Mar2005-150700Z 00000KT 9999 OVC040 11/08 Q1028 RMK PP000=
SPZO Mar2005-150800Z 10002KT 9999 OVC040 11/08 Q1028 RMK PP000=
SPZO Mar2005-150900Z 08002KT 9999 OVC040 11/08 Q1028 RMK PP000=
SPZO Mar2005-151000Z 12002KT 9999 BKN040 SCT080 11/08 Q1028 RMK PP000=
SPZO Mar2005-151100Z 00000KT 9999 BKN040 SCT090 10/09 Q1029 RMK PP000=
SPZO Mar2005-151200Z 07004KT 9999 SCT040 11/08 Q1030 NOSIG RMK PP000=
SPZO Mar2005-151300Z VRB03KT 9999 FEW040 BKN050 12/09 Q1030 NOSIG RMK PP000=
SPZO Mar2005-151400Z VRB01KT 9999 FEW040 SCT050 15/08 Q1031 NOSIG RMK PP000=
SPZO Mar2005-151500Z VRB02KT 9999 SCT043 17/07 Q1030 NOSIG RMK PP000=
SPZO Mar2005-151600Z VRB03KT 9999 SCT050 19/07 Q1029 NOSIG RMK PP000=
SPZO Mar2005-151700Z VRB03KT 9999 SCT050 21/06 Q1028 NOSIG RMK PP000 RWY10 05007KT=
SPZO Mar2005-151800Z VRB03KT 9999 SCT050 20/05 Q1026 NOIG RMK PP000 RWY10 34007KT=
SPZO Mar2005-151900Z 01009KT 340V080 9999 SCT050 20/05 Q1025 NOSIG RMK PP000 RWY10 02011G22K\=
SPZO Mar2005-151937Z 17004KT 090V200 9999 DZ BKN046 16/04 Q1024 RMK RWY10 15021G36KT=
SPZO Mar2005-152000Z VRB06KT 9999 -RA FEW043 BKN050 15/05 Q1025 NOSIG RMK PP002 RWY10 13014KT=
SPZO Mar2005-152100Z VRB02KT 9999 RERA FEW046 BKN050 15/07 Q1025 TEMPO VCRA RMK PP004=
SPZO Mar2005-152200Z 11006KT 070V180 9999 FEW046 BKN080 14/09 Q1025 TEMPO RA RMK PP000 TMX: 21.7 CDTE E=
SPZO Mar2005-152300Z 00000KT 9999 FEW046 BKN100 15/06 Q1026 NOSIG RKM PP000=
SPZO Mar2005-160000Z VRB02KT 9999 FEW043 SCT100 12/09 Q1027 RMK PP000=
SPZO Mar2005-160100Z VRB02KT 9999 FEW040 SCT100 12/08 Q1027 RMK PP000=
SPZO Mar2005-160200Z VRB03KT 9999 FEW040 BKN100 11/08 Q1028 RMK PP000=
SPZO Mar2005-160300Z 28004KT 9999 FEW040 SCT070 11/08 Q1029 RMK PP000=
SPZO Mar2005-160400Z 00000KT 9999 FEW040 BKN070 11/09 Q1029 RMK PP000=
SPZO Mar2005-160500Z 00000KT 9999 SCT040 SCT070 11/09 Q1029 RMK PP000=
SPZO Mar2005-160600Z VRB02KT 9999 BKN040 SCT070 10/08 Q1029 RMK PP000=
SPZO Mar2005-160700Z 00000KT 9999 BKN040 SCT046 10/08 Q1029 RMK PP000=
SPZO Mar2005-160800Z 00000KT 9999 SCT040 SCT050 09/08 Q1028 RMK PP000=
SPZO Mar2005-160900Z 00000KT 9999 SCT040 SCT050 09/07 Q1029 RMK PP000=
SPZO Mar2005-161000Z VRB03KT 9999 SCT040 SCT050 09/07 Q1029 RMK PP000=
SPZO Mar2005-161100Z VRB01KT 9999 SCT040 SCT050 09/08 Q1030 RMK PP000=
SPZO Mar2005-161200Z VRB03KT 9999 FEW043 11/08 Q1030 NOSIG RMK PP000=
SPZO Mar2005-161300Z VRB02KT 9999 SCT046 14/09 Q1031 NOSIG RMK PP000 RWY10 11007KT=
SPZO Mar2005-161400Z VRB03KT 9999 SCT046 16/07 Q1031 NOSIG RMK PP000 RWY10 14005KT=
SPZO Mar2005-161500Z VRB03KT 9999 SCT050 18/07 Q1031 NOSIG RMK PP000 RWY10 09005KT=
SPZO Mar2005-161600Z VRB02KT 9999 SCT050 19/07 Q1030 NOSIG RMK PP000=
SPZO Mar2005-161700Z VRB02KT 9999 SCT050 21/03 Q1029 NOSIG RMK PP000 16006KT=
SPZO Mar2005-161800Z VRB06KT 9999 SCT050 21/03 Q1028 NOSIG RMK PP000 08009KT=
SPZO Mar2005-161900Z 01007KT 270V080 9999 BKN050 21/02 Q1027 NOSIG RMK PP000 RWY10 02014G25KT=
SPZO Mar2005-162000Z 14006KT 070V200 9999 BKN050 18/03 Q1027 NOSIG RMK PP000 RWY10 16013KT=
SPZO Mar2005-162100Z 09014G22KT 070V170 9999 BKN050 16/07 Q1028 TEMPO VCSH RMK PP000 RWY10 10027G43KT=
SPZO Mar2005-162200Z 15005KT 090V190 9999 BKN050 16/04 Q1027 NOSIG RMK PP000 RWY10 16013KT TMX:21.9 =
SPZO Mar2005-162300Z VRB02KT 9999 FEW050 13/04 Q1028 NOSIG RMK PP000=
SPZO Mar2005-170000Z VRB03KT 9999 FEW040 SCT100 13/06 Q1028 RMK PP000=
SPZO Mar2005-170100Z 00000KT 9999 FEW043 SCT100 11/07 Q1029 RMK PP000=
SPZO Mar2005-170200Z VRB02KT 9999 FEW033 SCT080 11/07 Q1030 RMK PP000=
SPZO Mar2005-170300Z VRB02KT 9999 FEW040 SCT080 09/06 Q1031 RMK PP000=
SPZO Mar2005-170400Z 00000KT 9999 SCT080 10/07 Q1031 RMK PP000=
SPZO Mar2005-170500Z 00000KT 9999 BKN080 09/07 Q1031 RMK PP000=
SPZO Mar2005-170600Z 00000KT 9999 FEW040 SCT070 10/07 Q1031 RMK PP000=
SPZO Mar2005-170700Z 00000KT 9999 SCT040 SCT046 09/07 Q1031 RMK PP000=
SPZO Mar2005-170800Z 00000KT 9999 OVC040 09/07 Q1031 RMK PP002=
SPZO Mar2005-170900Z 00000KT 9999 FEW040 SCT100 08/06 Q1031 RMK PP000=
SPZO Mar2005-171000Z VRB01KT 9999 FEW030 SCT100 07/05 Q1031 RMK PP000=
SPZO Mar2005-171100Z 00000KT 9999 FEW040 SCT100 07/05 Q1032 RMK PP000=
SPZO Mar2005-171200Z 09003KT 9999 SCT046 08/06 Q1033 NOSIG RMK PP000=
SPZO Mar2005-171300Z VRB02KT 9999 FEW043 12/07 Q1034 NOSIG RMK PP000=
SPZO Mar2005-171400Z 08004KT 360V110 9999 FEW043 14/07 Q1033 NOSIG RMK PP000=
SPZO Mar2005-171500Z VRB02KT 9999 SCT050 16/06 Q1033 NOSIG RMK PP000 RWY10 15006KT=
SPZO Mar2005-171600Z VRB03KT 9999 SCT050 18/05 Q1032 NOSIG RMK PP000=
SPZO Mar2005-171700Z 10005KT 070V200 9999 FEW050 19/M00 Q1030 NOSIG RMK PP000 RWY10 16006KT=
SPZO Mar2005-171800Z VRB05KT 9999 FEW050 21/07 Q1029 NOSIG RMK PP000 RWY10 20010G20KT=
SPZO Mar2005-171900Z VRB05KT 9999 FEW050 22/03 Q1028 NOSIG RMK PP000=
SPZO Mar2005-172000Z VRB02KT 9999 SCT050 22/M01 Q1026 NOSIG RMK PP000 RWY10 12009KT=
SPZO Mar2005-172100Z 01007KT 9999 SCT050 20/02 Q1026 NOSIG RMK PP000 RWY10 01015G25KT=
SPZO Mar2005-172200Z 01010KT 9999 FEW050 19/03 Q1026 NOSIG RMK PP000 RWY10 02016G26KT TMX:23.2=
SPZO Mar2005-172300Z VRB03KT 9999 FEW050 18/05 Q1027 NOSIG RMK PP000=
SPZO Mar2005-180000Z VRB02KT 9999 SCT050 15/05 Q1028 RMK PP000=
SPZO Mar2005-180100Z VRB02KT 9999 SCT050 14/05 Q1029 RMK PP000=
SPZO Mar2005-180200Z 28006KT 250V350 9999 SCT050 15/07 Q1030 RMK PP000=
SPZO Mar2005-180300Z 28008KT 9999 BKN050 14/07 Q1031 RMK PP000=
SPZO Mar2005-180400Z 28005KT 250V350 9999 BKN050 14/07 Q1031 RMK PP000=
SPZO Mar2005-180500Z 27005KT 9999 BKN050 13/07 Q1031 RMK PP000=
SPZO Mar2005-180600Z 10008KT 090V170 9999 OVC050 11/07 Q1031 RMK PP000=
SPZO Mar2005-180700Z 09005KT 9999 OVC050 11/07 Q1031 RMK PP000=
SPZO Mar2005-180800Z VRB03KT 9999 OVC040 11/07 Q1031 RMK PP000=
SPZO Mar2005-180900Z 01006KT 340V080 9999 OVC040 11/05 Q1031 RMK PP000=
SPZO Mar2005-181000Z 36010KT 340V080 9999 BKN040 SCT090 11/04 Q1032 RMK PP000=
SPZO Mar2005-181100Z 31006KT 270V350 9999 SCT040 SCT090 10/04 Q1032 RMK PP000=
SPZO Mar2005-181200Z VRB02KT 9999 BKN050 11/05 Q1033 NOSIG RMK PP000=
SPZO Mar2005-181300Z VRB02KT 9999 SCT050 13/05 Q1033 NOSIG RMK PP000=
SPZO Mar2005-181400Z VRB02KT 9999 FEW040 SCT110 15/04 Q1033 NOSIG RMK PP000=
SPZO Mar2005-181500Z VRB03KT 9999 FEW046 SCT100 17/05 Q1033 NOSIG RMK PP000=
SPZO Mar2005-181600Z 10004KT 360V170 9999 FEW050 SCT100 18/03 Q1032 NOSIG RMK PP000 RWY10 11005KT=
SPZO Mar2005-181700Z VRB04KT 9999 FEW046 SCT120 20/02 Q1031 NOSIG RMK PP000 RWY10 11010KT=
SPZO Mar2005-181800Z VRB05KT 9999 SCT050 21/05 Q1029 NOSIG RMK PP000 RWY10 09013KT=
SPZO Mar2005-181900Z VRB03KT 9999 SCT050 22/04 Q1027 NOSIG RMK PP000 RWY10 10009KT=
SPZO Mar2005-182000Z 02015KT 340V080 9999 BKN050 20/04 Q1027 TEMPO VCSH RMK PP000 RWY10 02019G39KT=
SPZO Mar2005-182100Z 10014KT 080V170 9999 BKN050 14/06 Q1028 TEMPO RA RMK PP000 CDTE E=
SPZO Mar2005-182131Z 14012KT 090V170 9000E -RA BKN046 11/07 Q1029 RMK RWY10 12016G34KT
SPZO Mar2005-182200Z 13007KT 090V170 9999 -RA OVC046 11/07 Q1029 NOSIG RMK PP048 TMX:21.9=
SPZO Mar2005-182300Z VRB03KT 9999 RA OVC046 11/08 Q1030 NOSIG RMK PP010=
SPZO Mar2005-190000Z 25007KT 180V270 9000 SCT030 BKN040 12/07 Q1030 RERA RMK PP002=
SPZO Mar2005-190100Z VRB03KT 9999 FEW030 BKN040 11/08 Q1031 RMK PP000=
SPZO Mar2005-190200Z VRB02KT 9999 FEW030 BKN040 11/08 Q1032 RMK PP000=
SPZO Mar2005-190300Z VRB03KT 9999 OVC040 11/08 Q1032 RMK PP000=
SPZO Mar2005-190400Z 10002KT 9999 OVC040 10/08 Q1033 RMK PP000=
SPZO Mar2005-190500Z VRB03KT 9999 OVC040 11/08 Q1032 RMK PP000=
SPZO Mar2005-190600Z 00000KT 9999 OVC040 11/08 Q1031 RMK PP000=
SPZO Mar2005-190700Z 00000KT 7000 -RA FEW030 OVC040 10/08 Q1030 RMK PP006=
SPZO Mar2005-190800Z VRB02KT 8000 FEW030 OVC040 10/08 Q1030 RERA RMK PP002=
SPZO Mar2005-190900Z 08002KT 9999 OVC040 10/08 Q1030 RMK PP000=
SPZO Mar2005-191000Z 09003KT 9999 OVC040 10/08 Q1030 RMK PP000=
SPZO Mar2005-191100Z VRB02KT 9999 OVC040 10/08 Q1031 RMK PP000=
SPZO Mar2005-191123Z 00000KT 9999 FEW035 OVC046 11/07 Q1032=
SPZO Mar2005-191200Z 00000KT 9999 FEW033 SCT040 BKN046 10/08 Q1032 NOSIG RMK PP000=
SPZO Mar2005-191300Z 08002KT 9999 FEW033 SCT040 BKN050 11/08 Q1033 NOSIG RMK PP000=
SPZO Mar2005-191400Z VRB01KT 9999 FEW033 SCT043 OVC100 14/07 Q1033 NOSIG RMK PP000=
SPZO Mar2005-191500Z VRB01KT 9999 FEW036 SCT043 BKN050 15/08 Q1033 NOSIG RMK PP000=
SPZO Mar2005-191600Z VRB03KT 9999 SCT043 SCT050 16/07 Q1032 NOSIG RMK PP000 RWY10 17008KT=
SPZO Mar2005-191700Z VRB02KT 9999 FEW040 SCT050 18/08 Q1030 NOSIG RMK PP000 RWY10 VRB06KT RA CDTE NE=
SPZO Mar2005-191800Z 02008KT 340V080 9999 FEW040 SCT050 18/05 Q1029 NOSIG RMK PP000 07010KT=
SPZO Mar2005-191900Z 35008KT 270V020 BKN046 19/07 Q1028 TEMPO VCRA RMK PP000 RWY10 02013G34KT=
SPZO Mar2005-191928Z VRB04KT 9999 -RA BKN046 14/07 Q1028
SPZO Mar2005-192000Z VRB05KT 9000E -RA OVC046 13/08 Q1028 NOSIG RMK PP054 RWY10 19019G29KT=
SPZO Mar2005-192100Z 28005KT 250V350 9999 -RA FEW036 OVC046 11/08 Q1029 NOSIG RMK PP012 RWY10 228010KT=
SPZO Mar2005-192200Z 27007KT 180V350 9999 -RA FEW036 OVC046 11/08 Q1030 NOSIG RMK PP004 RWY10 26015KT TMX: 19.6=
SPZO Mar2005-192300Z 10013KT 080V170 9000E -RA SCT033 BKN046 10/06 Q1031 NOSIG RMK PP002 RWY10 12027KT=
SPZO Mar2005-200000Z VRB02KT 9999 SCT030 BKN046 09/06 Q1032 RMK PP002=
SPZO Mar2005-200100Z 00000KT 9999 FEW037 SCT080 09/06 Q1032 RMK PP000=
SPZO Mar2005-200200Z 09007KT 9999 FEW040 SCT100 09/06 Q1033 RMK PP000=
SPZO Mar2005-200300Z VRB03KT 9999 FEW040 BKN070 09/07 Q1033 RMK PP000=
SPZO Mar2005-200400Z 00000KT 9999 SCT040 SCT080 09/06 Q1033 RMK PP000=
SPZO Mar2005-200500Z 00000KT 9999 SCT040 SCT070 09/07 Q1032 RMK PP002=
SPZO Mar2005-200600Z 00000KT 9999 BKN040 SCT070 09/07 Q1031 RMK PP000=
SPZO Mar2005-200700Z 00000KT 9999 BKN040 SCT046 09/07 Q1030 RMK PP000=
SPZO Mar2005-200800Z 10004KT 9999 BKN040 SCT046 08/07 Q1030 RMK PP000=
SPZO Mar2005-200900Z 00000KT 9999 BKN040 SCT046 09/07 Q1030 RMK PP000=
SPZO Mar2005-201000Z 00000KT 9999 SCT040 SCT050 08/06 Q1030 RMK PP000=
SPZO Mar2005-201100Z VRB01KT 9999 SCT030 BKN046 08/07 Q1031 RMK PP000=
SPZO Mar2005-201200Z VRB01KT 9999 FEW036 BKN050 09/07 Q1031 NOSIG RMK PP000 BCBR CDTE E =
SPZO Mar2005-201300Z VRB01KT 9999 SCT040 13/07 Q1032 NOSIG RMK PP000=
SPZO Mar2005-201400Z VRB03KT 9999 SCT040 14/08 Q1032 NOSIG RMK PP000=
SPZO Mar2005-201500Z VRB02KT 9999 SCT046 15/06 Q1031 NOSIG RMK PP000=
SPZO Mar2005-201600Z VRB03KT 9999 SCT050 17/04 Q1030 NOSIG RMK PP000 11008KT=
SPZO Mar2005-201700Z 09005KT 9999 BKN050 16/05 Q1030 TEMPO VCRA RMK PP000 RWY10 09009G19KT=
SPZO Mar2005-201800Z 27006KT 190V350 9999 BKN050 17/05 Q1028 NOSIG RMK PP000 RWY10 28009KT=
SPZO Mar2005-201900Z 22005KT 180V280 9999 SCT043 SCT100 19/03 Q1027 NOSIG RMK PP000=
SPZO Mar2005-202000Z 35005KT 260V070 9999 SCT043 20/04 Q1026 NOSIG RMK PP000=
SPZO Mar2005-202100Z 35007KT 270V020 9999 SCT043 18/04 Q1025 NOSIG RMK PP000=
SPZO Mar2005-202200Z 34006KT 270V020 9999 SCT043 18/04 Q1025 NOSIG RMK PP000 TMAX 20.2=
SPZO Mar2005-202300Z 34005KT 270V020 9999 SCT043 16/05 Q1026 NOSIG RMK PP000=
SPZO Mar2005-210000Z 28010KT 9999 SCT050 14/05 Q1027 RMK PP000=
SPZO Mar2005-210100Z 26007KT 9999 FEW050 12/06 Q1028 RMK PP000=
SPZO Mar2005-210200Z 27005KT 9999 FEW080 11/06 Q1029 RMK PP000=
SPZO Mar2005-210300Z 27004KT 9999 SCT100 11/06 Q1030 RMK PP000=
SPZO Mar2005-210400Z 00000KT 9999 FEW080 10/06 Q1030 RMK PP000=
SPZO Mar2005-210500Z 00000KT 9999 SCT070 09/06 Q1030 RMK PP000=
SPZO Mar2005-210600Z 00000KT 9999 FEW060 SCT080 10/07 Q1030 RMK PP000=
SPZO Mar2005-210700Z 00000KT 9999 SCT050 09/06 Q1029 RMK PP000=
SPZO Mar2005-210800Z 00000KT 9999 SCT047 SCT060 08/06 Q1029 RMK PP000=
SPZO Mar2005-210900Z 00000KT 9999 BKN043 08/06 Q1029 RMK PP000=
SPZO Mar2005-211000Z 00000KT 9999 FEW040 SCT060 08/06 Q1029 RMK PP000=
SPZO Mar2005-211100Z 00000KT 9999 FEW043 SCT053 08/06 Q1029 RMK PP000=
SPZO Mar2005-211200Z 00000KT 9999 BKN043 SCT080 09/07 Q1030 NOSIG RMK PP000=
SPZO Mar2005-211300Z 00000KT 9999 SCT043 13/07 Q1031 NOSIG RMK PP000=
SPZO Mar2005-211400Z VRB02KT 9999 SCT043 16/07 Q1031 NOSIG RMK PP000=
SPZO Mar2005-211500Z 00000KT 9999 SCT043 SCT080 16/06 Q1030 NOSIG RMK PP000=
SPZO Mar2005-211600Z VRB03KT 9999 SCT043 SCT060 16/06 Q1029 NOSIG RMK PP000=
SPZO Mar2005-211700Z VRB03KT 9999 SCT043 SCT060 19/06 Q1028 NOSIG RMK PP000=
SPZO Mar2005-211724Z 29008KT 250V350 9999 -SHRA BKN043 18/07 Q1028 TEMPO NSW=
SPZO Mar2005-211800Z 29006KT 180V350 9999 SCT043 SCT060 17/05 Q1027 RESHRA NOSIG RMK PPTRZ=
SPZO Mar2005-211900Z 36011KT 340V080 9000 +TSRA VCSH BKN043CB BKN053 17/05 Q1026 TEMPO FM1930 9999 NSW RMK PTRZ=
SPZO Mar2005-212000Z 25004KT 180V350 9999 VCSH SCT043 SCT060 16/07 Q1026 RETSRA NOSIG RMK PP034=
SPZO Mar2005-212100Z VRB03KT 9999 SCT043 SCT060 17/04 Q1025 NOSIG RMK PP000=
SPZO Mar2005-212200Z 01005KT 340V080 9999 BKN043 SCT060 17/08 Q1025 NOSIG RMK PP000 TMAX 19.5=
SPZO Mar2005-212300Z 26006KT 250V350 9999 BKN043 SCT080 14/07 Q1026 NOSIG RMK PP000=
SPZO Mar2005-220000Z VRB02KT 8000 -RA FEW030 SCT040 BKN050 13/07 Q1027 RMK PP002=
SPZO Mar2005-220100Z 00000KT 9000 FEW030 SCT040 BKN050 12/07 Q1028 RERA RMK PPTRZ=
SPZO Mar2005-220200Z 00000KT 9999 BKN040 SCT050 12/08 Q1029 RMK PP000=
SPZO Mar2005-220300Z 28003KT 9999 OVC040 11/08 Q1030 RMK PP000=
SPZO Mar2005-220400Z 00000KT 9999 OVC040 11/08 Q1030 RMK PP000=
SPZO Mar2005-220500Z 00000KT 9999 OVC050 10/07 Q1030 RMK PP000=
SPZO Mar2005-220600Z 00000KT 9999 OVC050 09/07 Q1030 RMK PP000=
SPZO Mar2005-220700Z 09002KT 9999 OVC050 09/07 Q1030 RMK PP000=
SPZO Mar2005-220800Z 00000KT 9999 OVC050 10/07 Q1029 RMK PP000=
SPZO Mar2005-220900Z 00000KT 9999 BKN050 09/07 Q1029 RMK PP000=
SPZO Mar2005-221000Z 00000KT 9999 BKN050 09/06 Q1030 RMK PP000=
SPZO Mar2005-221100Z 09002KT 9999 BKN050 09/06 Q1030 RMK PP000=
SPZO Mar2005-221123Z 00000KT 9999 SCT043 09/06 Q1031=
SPZO Mar2005-221200Z 11002KT 080V170 9999 FEW043 10/07 Q1031 NOSIG RMK PP000=
SPZO Mar2005-221300Z VRB02KT 9999 FEW043 13/07 Q1032 NOSIG RMK PP000=
SPZO Mar2005-221400Z 00000KT 9999 SCT040 15/06 Q1031 NOSIG RMK PP000=
SPZO Mar2005-221500Z VRB03KT 9999 SCT043 17/07 Q1031 NOSIG RMK PP000=
SPZO Mar2005-221600Z 11006KT 070V170 9999 SCT043 SCT060 17/06 Q1031
SPZO Mar2005-221700Z 05010KT 360V110 9999 VCSH SCT040TCU SCT043CB 17/05 Q1030 TEMPO 9000 -RA RMK PP000=
SPZO Mar2005-221800Z 27007KT 190V350 9999 RA VCSH SCT043TCU SCT050 17/05 Q1029 TEMPO NSW RMK PPTRZ=
SPZO Mar2005-221900Z VRB03KT 9999 RERA SCT043 SCT050 17/09 Q1028 NOSIG RMK PP000 RWY10 17010KT=
SPZO Mar2005-222000Z VRB05KT 9999 FEW046 SCT050 19/06 Q1027 NOSIG RMK PP000=
SPZO Mar2005-222100Z VRB06KT 9999 FEW046 BKN100 19/05 Q1026 NOSIG RMK PP000=
SPZO Mar2005-222200Z 01006KT 340V100 9999 FEW046 BKN080 17/05 Q1027 NOSIG RMK PP000 TMX:19.4=
SPZO Mar2005-222300Z 36006KT 270V080 9999 BKN046 16/05 Q1028 NOSIG RMK PP000 RWY10 02012KT=
SPZO Mar2005-230000Z VRB03KT 9999 OVC050 15/06 Q1029 RMK PP000=
SPZO Mar2005-230100Z VRB03KT 9999 OVC050 13/06 Q1030 RMK PP000=
SPZO Mar2005-230200Z 00000KT 9999 OVC050 13/06 Q1031 RMK PP000=
SPZO Mar2005-230300Z 00000KT 9999 OVC050 12/06 Q1032 RMK PP000=
SPZO Mar2005-230400Z VRB03KT 9999 OVC050 12/07 Q1033 RMK PP000=
SPZO Mar2005-230500Z 25002KT 8000 -RA FEW030 OVC050 11/08 Q1033 RMK PP008=
SPZO Mar2005-230600Z 00000KT 7000 -RA FEW030 OVC050 10/08 Q1033 RMK PP010=
SPZO Mar2005-230700Z 10003KT 7000 -RA FEW030 SCT040 BKN050 10/08 Q1032 RMK PP008=
SPZO Mar2005-230800Z 00000KT 8000 FEW030 SCT040 BKN050 10/08 Q1032 RERA RMK PPTRZ=
SPZO Mar2005-230900Z 10002KT 7000 -RA FEW030 SCT040 BKN050 10/07 Q1032 RMK PPTRZ=
SPZO Mar2005-231000Z 10002KT 8000 FEW030 SCT040 BKN050 10/08 Q1033
SPZO Mar2005-231100Z 09002KT 9000 FEW030 SCT040 BKN050 10/07 Q1033
SPZO Mar2005-231200Z 00000KT 9999 FEW030 SCT040 SCT050 10/08 Q1034 NOSIG RMK PP000=
SPZO Mar2005-231300Z VRB01KT 9999 FEW030 SCT040 SCT050 11/08 Q1035 NOSIG RMK PP000=
SPZO Mar2005-231400Z VRB02KT 9999 SCT040 SCT050 13/08 Q1035 NOSIG RMK PP000 RWY10 10004KT=
SPZO Mar2005-231500Z VRB03KT 9999 FEW040 BKN050 15/08 Q1035 NOSIG RMK PP000=
SPZO Mar2005-231600Z 07004KT 360V110 9999 FEW043 SCT050 17/06 Q1033 NOSIG RMK PP000=
SPZO Mar2005-231700Z 08006KT 360V170 9999 FEW040 BKN050 18/06 Q1032 NOSIG RMK PP000 RWY10 02011KT RA CDTE E=
SPZO Mar2005-231800Z 36008KT 270V080 9999 FEW043 OVC080 17/07 Q1031
SPZO Mar2005-231900Z 01009KT 9999 FEW046 BKN080 17/05 Q1030 NOSIG RMK
SPZO Mar2005-232000Z 01011KT 340V080 9999 FEW046 SCT100 17/05 Q1030
SPZO Mar2005-232100Z 34006KT 200V020 9999 FEW046 BKN200 18/05 Q1029
SPZO Mar2005-232200Z VRB02KT 9999 FEW050 OVC200 18/04 Q1029 NOSIG RMK
SPZO Mar2005-232300Z VRB03KT 9999 FEW046 BKN200 16/05 Q1030 NOSIG RMK PP000=
SPZO Mar2005-240000Z 00000KT 9999 SCT070 14/07 Q1031 RMK PP000=
SPZO Mar2005-240100Z 00000KT 9999 FEW060 SCT200 13/07 Q1032 RMK PP000=
SPZO Mar2005-240200Z VRB02KT 9999 SCT050 SCT200 13/08 Q1033 RMK PP000=
SPZO Mar2005-240300Z 24008KT 9000 TSRA FEW040CB SCT050 BKN070 12/06 Q1034 RMK PP000=
SPZO Mar2005-240400Z 28004KT 8000 -TSRA FEW040CB BKN047 10/07 Q1035 RMK PP024=
SPZO Mar2005-240500Z 00000KT 9999 -DZ SCT037 BKN047 10/08 Q1035 RMK PP006=
SPZO Mar2005-240600Z 00000KT 9999 SCT037 BKN050 10/08 Q1034 RMK REDZ PP004=
SPZO Mar2005-240700Z 00000KT 9999 FEW037 BKN047 10/08 Q1034 RMK PP000=
SPZO Mar2005-240800Z 26004KT 9999 FEW037 BKN047 10/08 Q1033 RMK PP000=
SPZO Mar2005-240900Z 00000KT 9999 SCT037 BKN047 10/07 Q1033 RMK PP000=
SPZO Mar2005-241000Z 00000KT 9999 SCT037 BKN047 10/08 Q1033 RMK PP000=
SPZO Mar2005-241035Z VRB03KT 9999 -DZ FEW033 SCT040 BKN047 10/07 Q1034=
SPZO Mar2005-241100Z 10004KT 9000E -DZ SCT033 BKN043 10/08 Q1034 PP002=
SPZO Mar2005-241130Z 10004KT 9000E -DZ FEW036 OVC046 10/08 Q1034=
SPZO Mar2005-241200Z 10005KT 9000E +DZ FEW036 BKN046 10/07 Q1034 NOSIG RMK PPTRZ=
SPZO Mar2005-241300Z 10006KT 090V170 9999 +DZ FEW033 OVC046 09/07 Q1035 RMK PP002 RWY10 11011KT=
SPZO Mar2005-241400Z VRB03KT 9999 -RA FEW030 OVC046 10/07 Q1036 NOSIG RMK PP004 RWY10 11009KT BCBR CDTE NE=
SPZO Mar2005-241500Z VRB03KT 9999 -RA FEW025 OVC046 10/08 Q1036 NOSIG RMK PP010 RWY10 11004KT=
SPZO Mar2005-241600Z VRB02KT 9999 DZ FEW030 BKN050 11/07 Q1035 BECMG FM1640 NSW RMK PP004=
SPZO Mar2005-241700Z VRB02KT 9999 REDZ FEW040 OVC050 14/08 Q1034 NOSIG RMK PP002 BCBR CDTE NE=
SPZO Mar2005-241800Z VRB02KT 9999 FEW036 SCT043 BKN060 15/08 Q1033 NOSIG RMK PP000 RWY10 32009KT=
SPZO Mar2005-241900Z 27008KT 180V350 9999 VCSH FEW030 SCT043 BKN080 15/08 Q1031 NOSIG RMK PP000=
SPZO Mar2005-242000Z 28005KT 250V350 9999 SCT043 SCT100 16/08 Q1030 NOSIG RMK PP000=
SPZO Mar2005-242100Z VRB03KT 9999 BKN043 16/06 Q1030 NOSIG RMK PP000=
SPZO Mar2005-242200Z 00000KT 9999 BKN043 16/07 Q1030 NOSIG RMK PP000 TMAX 17.7=
SPZO Mar2005-242300Z 10013KT 080V170 9999 BKN043 12/07 Q1031 NOSIG RMK PP000=
SPZO Mar2005-250000Z 06006KT 9999 SCT040 SCT200 11/07 Q1032 RMK PP000=
SPZO Mar2005-250100Z 00000KT 9999 SCT200 10/07 Q1033 RMK PP000=
SPZO Mar2005-250200Z 00000KT 9999 SCT200 09/06 Q1033 RMK PP000=
SPZO Mar2005-250300Z 00000KT 9999 BKN200 08/06 Q1034 RMK PP000=
SPZO Mar2005-250400Z 00000KT 9999 BKN200 08/06 Q1034 RMK PP000=
SPZO Mar2005-250500Z 00000KT 999 FEW100 SCT200 09/07 Q1034 RMK PP000=
SPZO Mar2005-250600Z 00000KT 9999 SCT070 08/06 Q1033 RMK PP000=
SPZO Mar2005-250700Z 00000KT 9999 FEW100 08/06 Q1032 RMK PP000=
SPZO Mar2005-250800Z 00000KT 9999 FEW200 07/06 Q1032 RMK PP000=
SPZO Mar2005-250900Z 00000KT 9999 FEW030 SCT200 06/05 Q1032 RMK PP000=
SPZO Mar2005-250920Z 00000KT 9999 SCT025 SCT033 06/05 Q1032 RMK CEILING BELOW 1200M=
SPZO Mar2005-251000Z 00000KT 9999 SCT025 SCT037 07/05 Q1032 RMK CEILING BELOW 1200M PP000=
SPZO Mar2005-251100Z 00000KT 9000 SCT020 BKN030 07/06 Q1033 RMK CLNG BLW 1200M PP000=
SPZO Mar2005-251200Z 00000KT 9999 SCT020 BKN033 08/07 Q1033 NOSIG RMK CLNG BLW 1200M PP000=
SPZO Mar2005-251300Z 00000KT 9999 FEW020 SCT033 BKN043 10/07 Q1034 NOSIG RMK PP000=
SPZO Mar2005-251400Z 00000KT 9999 FEW033 SCT047 12/07 Q1034 NOSIG RMK PP000=
SPZO Mar2005-251435Z 00000KT 9999 FEW040 13/07 Q1034=
SPZO Mar2005-251500Z 00000KT 9999 SCT040 15/08 Q1033 NOSIG RMK PP000=
SPZO Mar2005-251600Z 00000KT 9999 SCT043 16/08 Q1032 NOSIG RMK PP000=
SPZO Mar2005-251700Z VRB04KT 9999 SCT043 19/05 Q1031 NOSIG RMK PP000=
SPZO Mar2005-251800Z VRB03KT 9999 FEW043 SCT047 21/07 Q1030 NOSIG RMK PP000=
SPZO Mar2005-251900Z VRB03KT 9999 FEW043 SCT047 21/06 Q1028 NOSIG
SPZO Mar2005-252000Z 03008KT 9999 FEW043 21/04 Q1027 NOSIG RMK PP000=
SPZO Mar2005-252100Z 02009KT 340V080 9999 SCT043 20/05 Q1026 NOSIG RMK PP000=
SPZO Mar2005-252200Z 01011KT 340V080 9999 SCT043 SCT300 19/03 Q1026 NOSIG RMK PP000 TMAX 21.3=
SPZO Mar2005-252300Z VRB03KT 9999 FEW043 BKN300 17/05 Q1027 NOSIG RMK PP000=
SPZO Mar2005-260000Z VRB02KT 9999 BKN050 SCT100 15/06 Q1029 RMK PP000=
SPZO Mar2005-260100Z VRB02KT 9999 BKN050 13/06 Q1029 RMK PP000=
SPZO Mar2005-260200Z 00000KT 9999 BKN050 11/06 Q1030 RMK PP000=
SPZO Mar2005-260300Z 00000KT 9999 BKN050 10/07 Q1031 RMK PP000=
SPZO Mar2005-260400Z 00000KT 9999 BKN050 10/07 Q1032 RMK PP000=
SPZO Mar2005-260500Z 00000KT 9999 BKN050 10/07 Q1031 RMK PP000=
SPZO Mar2005-260600Z 00000KT 9999 BKN050 11/07 Q1031 RMK PP000=
SPZO Mar2005-260700Z 00000KT 9999 BKN050 10/07 Q1030 RMK PP000=
SPZO Mar2005-260800Z 00000KT 9999 BKN050 10/07 Q1030 RMK PP000=
SPZO Mar2005-260900Z 00000KT 9999 BKN050 09/07 Q1030 RMK PP000=
SPZO Mar2005-261000Z 00000KT 9999 BKN050 08/06 Q1030 RMK PP000=
SPZO Mar2005-261100Z 27003KT 9999 SCT050 07/05 Q1031 RMK PP000=
SPZO Mar2005-261118Z 00000KT 9999 FEW100 08/05 Q1031=
SPZO Mar2005-261200Z 00000KT 9999 FEW100 11/07 Q1032 NOSIG RMK PP000=
SPZO Mar2005-261300Z 00000KT 9999 FEW043 SCT100 12/07 Q1032 NOSIG RMK PP000=
SPZO Mar2005-261400Z VRB03KT 9999 FEW043 BKN100 14/06 Q1033 NOSIG RMK PP000=
SPZO Mar2005-261500Z VRB04KT 9999 SCT043 17/05 Q1032 NOSIG RMK PP000=
SPZO Mar2005-261600Z 00000KT 9999 SCT043 19/08 Q1031 NOSIG RMK PP000=
SPZO Mar2005-261700Z 24004KT 170V290 9999 SCT043 20/04 Q1030 NOSIG RMK PP000=
SPZO Mar2005-261800Z VRB04KT 9999 SCT043 21/03 Q1028 NOSIG RMK PP000=
SPZO Mar2005-261900Z VRB02KT 9999 SCT050 20/03 Q1027 NOSIG RMK PP000 RWY10 26006KT=
SPZO Mar2005-262000Z VRB03KT 9999 SCT050 23/03 Q1025 NOSIG RMK PP000 RWY10 26006KT=
SPZO Mar2005-262100Z 01010KT 340V080 9999 FEW050 21/03 Q1024 NOSIG RMK PP000 RWY10 01013KT=
SPZO Mar2005-262200Z 01009KT 340V080 9999 FEW046 18/03 Q1025 NOSIG RMK PP000 RWY10 32008KT TMX:22.9=
SPZO Mar2005-262300Z 29009KT 250V360 9999 FEW060 16/04 Q1026 NOSIG RMK PP000=
SPZO Mar2005-270000Z VRB03KT 9999 SCT050 14/03 Q1028 RMK PP000=
SPZO Mar2005-270100Z VRB02KT 9999 SCT050 13/05 Q1029 RMK PP000=
SPZO Mar2005-270200Z VRB03KT 9999 SCT050 13/06 Q1030 RMK PP000=
SPZO Mar2005-270300Z 34002KT 260V080 9999 BKN050 13/06 Q1031 RMK PP000=
SPZO Mar2005-270400Z VRB04KT 9999 BKN050 12/06 Q1031 RMK PP000=
SPZO Mar2005-270500Z 28003KT 9999 BKN050 12/06 Q1031 RMK PP000=
SPZO Mar2005-270600Z 00000KT 9999 BKN050 11/07 Q1031 RMK PP000=
SPZO Mar2005-270700Z 00000KT 9999 BKN050 11/07 Q1030 RMK PP000=
SPZO Mar2005-270800Z 00000KT 9999 BKN050 10/06 Q1030 RMK PP000=
SPZO Mar2005-270900Z 07090KT 9999 BKN050 08/05 Q1030 RMK PP000=
SPZO Mar2005-271000Z 00000KT 9999 BKN050 08/05 Q1030 RMK PP000=
SPZO Mar2005-271025Z 00000KT 9999 SCT050 07/04 Q1030=
SPZO Mar2005-271100Z 28002KT 9999 FEW050 06/04 Q1030 RMK PP000=
SPZO Mar2005-271200Z VRB01KT 9999 FEW200 10/06 Q1031 NOSIG RMK PP000=
SPZO Mar2005-271300Z VRB02KT 9999 FEW046 13/07 Q1032 NOSIG RMK PP000=
SPZO Mar2005-271400Z VRB03KT 9999 FEW050 15/06 Q1032 NOSIG RMK PP000=
SPZO Mar2005-271500Z VRB04KT 9999 SCT050 17/06 Q1032 NOSIG RMK PP000=
SPZO Mar2005-271600Z VRB04KT 9999 SCT050 18/04 Q1031 NOSIG RMK PP000 RWY10 14007KT=
SPZO Mar2005-271700Z VRB03KT 9999 SCT050 20/03 Q1030 NOSIG RMK PP000 RWY10 30005KT=
SPZO Mar2005-271800Z VRB03KT 9999 SCT050 20/01 Q1029 NOSIG RMK PP000 RWY10 10014G32KT=
SPZO Mar2005-271900Z 33007KT 250V020 9999 SCT050 22/03 Q1027 NOSIG RMK PP000 RWY10 04008KT=
SPZO Mar2005-272000Z 01009KT 340V080 9999 SCT050 21/01 Q1026 NOSIG RMK PP000 RWY10 03014G26KT=
SPZO Mar2005-272100Z 36008KT 270V080 9999 FEW050 20/01 Q025 NOSIG RMK PP000 RWY10 01012G23KT=
SPZO Mar2005-272200Z 36008KT 340V080 9999 FEW050 19/01 Q1026 NOSIG RMK PP000 RWY10 02015G28KT TMX:21.8=
SPZO Mar2005-272300Z 29006KT 250V360 9999 FEW200 16/02 Q1026 NOSIG RMK PP000 RWY10 02015G28KT=
SPZO Mar2005-280000Z 28005KT 9999 SKC 15/02 Q1028 RMK PP000=
SPZO Mar2005-280100Z 27005KT 9999 FEW200 13/07 Q1029 RMK PP000=
SPZO Mar2005-280200Z 00000KT 9999 SKC 11/04 Q1030 RMK PP000=
SPZO Mar2005-280300Z 00000KT 9999 SKC 11/05 Q1031 RMK PP000=
SPZO Mar2005-280400Z 00000KT 9999 SKC 10/05 Q1031 RMK PP000=
SPZO Mar2005-280500Z 00000KT 9999 SCT200 09/05 Q1031 RMK PP000=
SPZO Mar2005-280600Z 00000KT 9999 BKN200 09/05 Q1031 RMK PP000=
SPZO Mar2005-280700Z 00000KT 9999 FEW050 BKN200 09/06 Q1031 RMK PP000=
SPZO Mar2005-280800Z 00000KT 9999 BKN200 09/06 Q1030 RMK PP000=
SPZO Mar2005-280900Z 00000KT 9999 FEW080 SCT200 09/06 Q1031 RMK PP000=
SPZO Mar2005-281000Z 00000KT 9999 SCT070 SCT200 08/05 Q1031 RMK PP000=
SPZO Mar2005-281100Z 00000KT 9999 FEW060 SCT200 07/04 Q1031 RMK PP000=
SPZO Mar2005-281200Z 00000KT 9999 BKN150 08/05 Q1031 NOSIG RMK PP000=
SPZO Mar2005-281300Z VRB01KT 9999 FEW046 BKN200 12/06 Q1032 NOSIG RMK PP000=
SPZO Mar2005-281400Z VRB02KT 9999 FEW046 BKN200 16/07 Q1033 NOSIG RMK PP000=
SPZO Mar2005-281500Z VRB03KT 9999 FEW046 BKN200 17/07 Q1032 NOSIG RMK PP000=
SPZO Mar2005-281600Z VRB02KT 9999 BKN050 18/05 Q1031 NOSIG RMK PP000=
SPZO Mar2005-281700Z VRB03KT 9999 BKN050 17/05 Q1030 NOSIG RMK PP000=
SPZO Mar2005-281800Z 03007KT 350V080 9999 SCT050 SCT200 18/04 Q1029 NOSIG RMK PP000 RWY0 04006G19KT=
SPZO Mar2005-281900Z 01007KT 270V080 9999 SCT043 BKN300 19/05 Q1028 NOSIG RMK PP000=
SPZO Mar2005-282000Z 01010KT 340V080 9999 SCT043 BKN300 19/04 Q1027 NOSIG RMK PP000=
SPZO Mar2005-282100Z 35009KT 270V020 9999 FEW043 SCT300 20/03 Q1026 NOSIG RMK PP000=
SPZO Mar2005-282200Z 01007KT 340V080 9999 FEW043 17/03 Q1026 NOSIG RMK PP000 TMAX 19.8=
SPZO Mar2005-282300Z 35004KT 270V080 9999 FEW043 BKN300 16/03 Q1027 NOSIG RMK PP000=
SPZO Mar2005-290000Z 28007KT 9999 FEW040 14/03 Q1028 RMK PP000=
SPZO Mar2005-290100Z 00000KT 9999 FEW040 14/03 Q1030 RMK PP000=
SPZO Mar2005-290200Z 00000KT 9999 BKN040 14/04 Q1031 RMK PP000=
SPZO Mar2005-290300Z 10005KT 9999 SCT040 SCT070 12/05 Q1032 RMK PP000=
SPZO Mar2005-290400Z 10008KT 9999 BKN040 12/05 Q1033 RMK PP000=
SPZO Mar2005-290500Z 10008KT 9999 SCT040 SCT060 11/06 Q1033 RMK PP000=
SPZO Mar2005-290600Z 10010KT 9999 SCT040 BKN060 10/05 Q1032 RMK PP000=
SPZO Mar2005-290700Z 10009KT 9999 SCT040 BKN050 09/06 Q1032 RMK PP000=
SPZO Mar2005-290800Z 10006KT 9999 SCT037 BKN047 08/05 Q1032 RMK PP000=
SPZO Mar2005-290900Z 09005KT 9999 FEW033 SCT047 BKN080 08/05 Q1032 RMK PP000=
SPZO Mar2005-291000Z 09007KT 9999 FEW030 SCT040 BKN050 08/05 Q1032 RMK PP000=
SPZO Mar2005-291012Z 09005KT 9000 -DZ FEW027 SCT037 BKN050 08/05 Q RMK CLNG BLW 1200M=
SPZO Mar2005-291100Z 00000KT 9999 -DZ SCT030 SCT040 BKN050 07/05 Q1032 RMK PPTRZ=
SPZO Mar2005-291200Z 00000KT 9999 -DZ SCT030 SCT043 BKN080 08/06 Q1033 TEMPO NSW RMK PPTRZ=
SPZO Mar2005-291236Z VRB02KT 9999 FEW030 SCT100 11/07 Q1033 REDZ=
SPZO Mar2005-291300Z 00000KT 9999 FEW033 SCT100 11/07 Q1033 NOSIG RMK PP000=
SPZO Mar2005-291400Z 00000KT 9999 SCT037 BKN080 12/06 Q1033 NOSIG RMK PP000=
SPZO Mar2005-291500Z 00000KT 9999 SCT037 BKN080 14/05 Q1033 NOSIG RMK PP000=
SPZO Mar2005-291600Z 07004KT 360V170 9999 SCT040 BKN060 15/06 Q1032 NOSIG RMK PP000=
SPZO Mar2005-291700Z 11005KT 070V190 9999 SCT040 BKN060 15/05 Q1031 NOSIG RMK PP000=
SPZO Mar2005-291800Z VRB03KT 9999 SCT040 BKN060 18/08 Q1030 NOSIG RMK PP000=
SPZO Mar2005-291900Z 30008KT 250V350 9999 SCT043 BKN080 19/06 Q1029 NOSIG RMK PP000=
SPZO Mar2005-291928Z 32004KT 250V020 9999 VCSH SCT043CB BKN080 18/05 Q1028=
SPZO Mar2005-291943Z VRB02KT 8000 TS VCSH BKN043CB SCT080 17/05 Q1028=
SPZO Mar2005-292000Z 07012KT 7000 -RA VCSH BKN043CB SCT060 14/08 Q1028
SPZO Mar2005-292030Z 09005KT 360V170 8000 -RA VCSH SCT043CB SCT047TCU 11/09 Q1028 TEMPO 9000=
SPZO Mar2005-292100Z 07003KT 9999 -DZ VCSH FEW020 SCT043 BKN080 12/09 Q1028 TEMPO NSW RMK PP028=
SPZO Mar2005-292200Z 00000KT 9999 SCT043 BKN060 13/09 Q1028 NOSIG RMK PPTRZ TMAX 18.7=
SPZO Mar2005-292300Z 08004KT 9999 FEW040 BKN043 12/09 Q1029 NOSIG RMK PP000=
SPZO Mar2005-300000Z 00000KT 9999 BKN050 12/09 Q1029 RMK PP000=
SPZO Mar2005-300100Z VRB02KT 9999 BKN050 12/07 Q1030 RMK PP000=
SPZO Mar2005-300200Z 30004KT 270V350 9999 BKN050 11/07 Q1031 RMK PP000=
SPZO Mar2005-300300Z VRB03KT 9999 BKN050 11/08 Q1031 RMK PP000=
SPZO Mar2005-300400Z 10002KT 9999 BKN050 10/08 Q1031 RMK PP000=
SPZO Mar2005-300500Z 00000KT 9999 BKN050 10/07 Q1031 RMK PP000=
SPZO Mar2005-300600Z 00000KT 9999 BKN050 10/08 Q1030 RMK PP000=
SPZO Mar2005-300700Z 00000KT 9999 BKN05 10/07 Q1030 RMK PP000= METAR
SPZO Mar2005-300800Z 00000KT 9999 BKN050 10/08 Q1030 RMK PP000=
SPZO Mar2005-300900Z 10003KT 9999 BKN050 10/08 Q1030 RMK PP000=
SPZO Mar2005-301000Z 00000KT 9999 BKN050 10/08 Q1030 RMK PP000=
SPZO Mar2005-301028Z 00000KT 9999 BKN040 10/08 Q1030=
SPZO Mar2005-301035Z 00000KT 8000 -DZ OVC040 10/08 Q1030
SPZO Mar2005-301100Z 00000KT 8000 -DZ OVC040 10/08 Q1030 RMK PPTRZ=
SPZO Mar2005-301107Z 00000KT 9000 -DZ VCSH FEW030 SCT037 BKN040 11/08=
SPZO Mar2005-301122Z VRB01KT 9000 -RA VCSH FEW030 SCT037 BKN040 11/08 Q1031=
SPZO Mar2005-301200Z 28003KT 8000 -DZ VCSH FEW020 SCT033 BKN040 10/08 Q1031 RERA TEMPO BKN033 RMK PP020=
SPZO Mar2005-301210Z 00000KT 7000 -DZ VCSH FEW020 SCT033 BKN043 10/09 Q1031 TEMPO FM1230 9000=
SPZO Mar2005-301213Z 00000KT 7000 -DZ VCSH FEW020 SCT033 BKN043 10/09 Q1031 TEMPO FM1230 9000=
SPZO Mar2005-301230Z 00000KT 9999 -DZ FEW025 SCT033 BKN043 11/09 Q1032=
SPZO Mar2005-301300Z 00000KT 9999 SCT030 SCT040 BKN060 11/08 Q1032 REDZ NOSIG RMK PP008=
SPZO Mar2005-301338Z VRB02KT 9999 SCT033 SCT060 14/08 Q1032=
SPZO Mar2005-301400Z VRB01KT 9999 SCT033 14/08 Q1032 NOSIG RMK PP000=
SPZO Mar2005-301500Z 03003KT 340V110 9999 FEW037 SCT040 16/07 Q1032 NOSIG RMK PP000=
SPZO Mar2005-301600Z 00000KT 9999 BKN043 17/04 Q1031 NOSIG RMK PP000=
SPZO Mar2005-301700Z 09003KT 9999 FEW040 BKN043 17/06 Q1030 NOSIG RMK PP000=
SPZO Mar2005-301800Z VRB01KT 9999 FEW040 BKN043 18/06 Q1029 NOSIG RMK PP000=
SPZO Mar2005-301900Z VRB02KT 9999 BKN050 19/05 Q1027 TEMPO VCRA RMNK PP000 RWY10 27007KT=
SPZO Mar2005-302000Z VRB05KT 9999 FEW040TCU BKN050 21/08 Q1026 TEMPO VCRA RMK PP000 RWY10 31015G30KT=
SPZO Mar2005-302100Z 29013KT 260V350 9999 FEW043TCU BKN050 17/08 Q1026 TEMPO VCRA RMK PP000 RWY10 31018G33KT=
SPZO Mar2005-302200Z 28012KT 250V350 9999 FEW040TCU BKN050 16/08 Q1027 TEMPO VCRA RMK PP000 RWY10 30017G29KT TMX:21.0=
SPZO Mar2005-302300Z 28010KT 250V350 9999 BKN050 15/08 Q1028 NOSIG RMK PP000 RWY10 31015KT=
SPZO Mar2005-310000Z 28007KT 250V350 9999 OVC050 14/06 Q1029 RMK PP000=
SPZO Mar2005-310100Z VRB03KT 9999 OVC050 12/06 Q1030 RMK PP000=
SPZO Mar2005-310200Z 00000KT 9999 OVC050 13/07 Q1031 RMK PP000=
SPZO Mar2005-310300Z 00000KT 9999 OVC050 12/08 Q1031 RMK PP000=
SPZO Mar2005-310400Z 00000KT 9999 OVC050 11/07 Q1031 RMK PP000=
SPZO Mar2005-310500Z 00000KT 9999 OVC050 11/07 Q1031 RMK PP000=
SPZO Mar2005-310600Z 00000KT 9999 OVC050 11/08 Q1031 RMK PP000=
SPZO Mar2005-310700Z 00000KT 9999 OVC050 11/08 Q1030 RMK PP000=
SPZO Mar2005-310800Z 00000KT 8000 -RA FEW040 BKN050 11/08 Q1030 RMK PPTRZ=
SPZO Mar2005-310900Z 00000KT 6000 RA FEW030 SCT040 BKN050 10/08 Q1030
SPZO Mar2005-311000Z 00000KT 6000 RA FEW030 SCT040 BKN050 10/08 Q1030
SPZO Mar2005-311029Z 07002KT 6000 RA FEW030 SCT040 BKN050 10/08 Q1030
SPZO Mar2005-311100Z 08003KT 7000 RA FEW030 SCT040 BKN050 10/08 Q1031
SPZO Mar2005-311138Z 00000KT 9000 -RA FEW025 OVC046 10/08 Q1031=
SPZO Mar2005-311200Z 10001KT 9999 -RA FEW025 OVC046 10/08 Q1031 NOSIG RMK PP002=
SPZO Mar2005-311300Z 08002KT 9999 -RA FEW033 OVC050 10/09 Q1032 NOSIG RMK PP008=
SPZO Mar2005-311400Z VRB03KT 9999 DZ FEW036 OVC050 11/09 Q1033 BECMG FM1440 NSW RMK PP002=
SPZO Mar2005-311500Z VRB03KT 9999 REDZ FEW030 OVC060 12/07 Q1033 NOSIG RMK PPTRZ=
SPZO Mar2005-311600Z VRB03KT 9999 FEW030 SCT043 BKN060 14/09 Q1032 NOSIG RWY10 10005KT=
SPZO Mar2005-311700Z 10006KT 9999 -DZ FEW030 SCT040 BKN050 12/08 Q1032 NOSIG RMK PPTRZ RWY10 10012KT=
SPZO Mar2005-311800Z 09006KT 010V170 9999 REDZ FEW035 SCT040 BKN050 14/07 Q1031 TEMPO VCRA RMK PP002 RA CDTES E-W=
SPZO Mar2005-311900Z VRB01KT 9999 FEW036 BKN046 15/08 Q1029 NOSIG RMK PP000 RWY10 28006KT=
SPZO Mar2005-312000Z VRB02KT 9999 SCT040 SCT150 15/07 Q1028 NOSIG RMK PP000 RWY10 23004KT=
SPZO Mar2005-312100Z VRB03KT 9999 SCT043TCU SCT100 15/06 Q1028 TEMPO VCRA RMK PP000=
