SPZO Nov2014-010000Z 00000KT 9999 FEW050 BKN100 12/03 Q1029 RMK PP000=
SPZO Nov2014-010100Z VRB02KT 9999 BKN100 11/03 Q1030 RMK PP000=
SPZO Nov2014-010200Z 00000KT 9999 BKN100 11/03 Q1031 RMK PP000=
SPZO Nov2014-010300Z 28003KT 9999 FEW050 SCT100 08/02 Q1031 RMK PP000=
SPZO Nov2014-010400Z 00000KT 9999 FEW050 SCT100 09/03 Q1031 RMK PP000=
SPZO Nov2014-010500Z 00000KT 9999 OVC100 07/02 Q1031 RMK PP000=
SPZO Nov2014-010600Z 00000KT 9999 FEW050 BKN100 08/03 Q1031 RMK PP000=
SPZO Nov2014-010700Z 00000KT 9999 FEW040 BKN100 08/03 Q1031 RMK PP000=
SPZO Nov2014-010800Z 00000KT 9999 SCT050 BKN100 06/03 Q1031 RMK PP000=
SPZO Nov2014-010900Z 26002KT 9999 BKN100 05/01 Q1031 RMK PP000=
SPZO Nov2014-011000Z VRB02KT 9999 FEW043 BKN100 05/02 Q1032 RMK PP000=
SPZO Nov2014-011100Z 00000KT 9999 SCT050 BKN100 06/02 Q1033 RMK PP000=
SPZO Nov2014-011200Z 00000KT 9000 SCT050 BKN100 09/03 Q1033 NOSIG RMK HZ PP000=
SPZO Nov2014-011300Z VRB02KT 9000 SCT050 BKN100 13/03 Q1033 NOSIG RMK HZ PP000=
SPZO Nov2014-011400Z VRB03KT 9999 FEW040 OVC100 16/02 Q1033 NOSIG RMK PP000=
SPZO Nov2014-011500Z 00000KT 9999 FEW040 BKN100 18/01 Q1032 NOSIG RMK PP000=
SPZO Nov2014-011600Z VRB03KT 9999 FEW050 BKN150 20/00 Q1030 NOSIG RMK PP000=
SPZO Nov2014-011700Z 01005KT 300V090 9999 SCT050 SCT150 20/M01 Q1029 NOSIG RMK WS R28 PP000=
SPZO Nov2014-011800Z 36012KT 300V050 9999 SCT050 SCT100 22/M02 Q1028 NOSIG RMK PP000=
SPZO Nov2014-011900Z 35013KT 290V050 9999 SCT050 SCT100 22/M01 Q1027 NOSIG RMK PP000=
SPZO Nov2014-012000Z 02012KT 330V070 9999 SCT050 SCT150 21/00 Q1026 NOSIG RMK PP000=
SPZO Nov2014-012100Z 01012KT 330V060 9999 FEW050 SCT150 20/00 Q1025 NOSIG RMK PP000=
SPZO Nov2014-012200Z 01012KT 330V070 9999 FEW050 SCT150 19/01 Q1026 NOSIG RMK T MAX 22.8 PP000=
SPZO Nov2014-012300Z 01010KT 330V050 9999 FEW050 17/02 Q1027 NOSIG RMK PP000=
SPZO Nov2014-020000Z 01012KT 320V060 9999 SCT050 15/01 Q1029 RMK VIS 9000 QUAD E FU PP000=
SPZO Nov2014-020100Z VRB06KT 9999 SCT050 SCT100 14/01 Q1031 RMK VIS 9000 QUAD E FU PP000=
SPZO Nov2014-020200Z VRB01KT 9999 SCT050 SCT100 14/03 Q1032 RMK QUAD E FU PP000=
SPZO Nov2014-020300Z 35005KT 290V040 9999 SCT050 SCT100 13/03 Q1032 RMK QUAD E FU PP000=
SPZO Nov2014-020400Z 00000KT 9999 SCT050 SCT100 13/03 Q1032 RMK PP000=
SPZO Nov2014-020500Z VRB03KT 9999 SCT050 BKN100 13/03 Q1032 RMK PP000=
SPZO Nov2014-020600Z 00000KT 9999 SCT043 BKN070 13/02 Q1031 RMK PP000=
SPZO Nov2014-020700Z VRB01KT 9999 SCT043 BKN070 12/04 Q1031 RMK PP000=
SPZO Nov2014-020800Z 21004KT 170V250 9999 FEW043 BKN070 12/04 Q1031 RMK PP000=
SPZO Nov2014-020900Z VRB03KT 9999 FEW043 BKN070 12/04 Q1031 RMK PP000=
SPZO Nov2014-021000Z 19005KT 150V260 9999 FEW036 SCT043 BKN080 12/03 Q1032 RMK PP000=
SPZO Nov2014-021100Z 25004KT 200V290 9999 FEW036 SCT043 BKN080 12/03 Q1033 RMK PP000=
SPZO Nov2014-021200Z 18003KT 140V230 9999 FEW033 SCT040 BKN070 13/04 Q1034 TEMPO -RA QUAD E RMK PP000=
SPZO Nov2014-021300Z VRB02KT 9999 FEW033 SCT040 BKN080 14/03 Q1034 NOSIG RMK PP000=
SPZO Nov2014-021400Z VRB04KT 9999 SCT040 BKN080 16/03 Q1034 NOSIG RMK PP000=
SPZO Nov2014-021500Z 07005KT 020V110 9999 SCT040 BKN080 16/04 Q1033 NOSIG RMK VCSH QUAD NE PP000=
SPZO Nov2014-021600Z VRB03KT 9999 SCT043 BKN080 18/02 Q1032 NOSIG RMK PP000=
SPZO Nov2014-021700Z VRB05KT 9999 SCT043 BKN080 21/02 Q1031 TEMPO VCSH RMK PP000=
SPZO Nov2014-021800Z 01012KT 330V050 9999 SCT046 BKN080 20/02 Q1029 TEMPO VCSH RMK PP000=
SPZO Nov2014-021900Z VRB06KT 9999 SCT046 SCT080 21/02 Q1028 NOSIG RMK FU QUAD NE PP000=
SPZO Nov2014-022000Z 26010KT 210V300 9999 SCT046 SCT080 21/02 Q1027 NOSIG RMK FU QUAD NE PP000=
SPZO Nov2014-022100Z 28008KT 240V300 9999 SCT046 BKN080 19/02 Q1026 NOSIG RMK FU QUAD NE PP000=
SPZO Nov2014-022200Z 36008KT 300V040 9999 VCSH FEW040TCU SCT050 BKN100 18/03 Q1027 NOSIG RMK TMAX 21.6 FU QUAD NE PP000=
SPZO Nov2014-022300Z 35008KT 310V040 9999 FEW040TCU SCT050 BKN080 16/05 Q1028 TEMPO VCSH RMK PP000=
SPZO Nov2014-030000Z 08011KT 050V010 7000 TSRA VCSH FEW040 SCT046CB BKN080 10/07 Q1031 RMK PP012=
SPZO Nov2014-030100Z 00000KT 9999 -DZ SCT050 BKN100 10/06 Q1032 RMK PP008=
SPZO Nov2014-030200Z 11005KT 9999 SCT050 BKN100 10/06 Q1033 RMK PP000=
SPZO Nov2014-030300Z VRB02KT 9999 SCT050 10/06 Q1032 RMK PP000=
SPZO Nov2014-030400Z 08004KT 9999 FEW050 09/06 Q1032 RMK PP000=
SPZO Nov2014-030500Z 00000KT 9999 SCT050 BKN100 09/06 Q1031 RMK PP000=
SPZO Nov2014-030600Z 00000KT 9999 SCT050 BKN100 09/07 Q1030 RMK PP000=
SPZO Nov2014-030700Z 00000KT 9999 SCT050 BKN100 08/06 Q1030 RMK PP000=
SPZO Nov2014-030800Z 00000KT 9999 SCT050 BKN100 08/06 Q1029 RMK PP000=
SPZO Nov2014-030900Z 00000KT 9999 SCT050 BKN100 08/06 Q1030 RMK PP000=
SPZO Nov2014-031000Z 00000KT 9999 FEW010 SCT030 BKN080 08/06 Q1030 RMK PP000=
SPZO Nov2014-031100Z 00000KT 8000 FEW010 SCT030 BKN060 09/06 Q1031 RMK CLNG BLW 1200M PP000=
SPZO Nov2014-031200Z VRB01KT 7000 FEW010 SCT025 BKN070 10/06 Q1032 RMK CLNG BLW 1200M PP000=
SPZO Nov2014-031300Z VRB01KT 5000 SCT020 SCT050 13/06 Q1033 TEMPO FEW020 SCT040 BKN080 RMK PP000=
SPZO Nov2014-031400Z VRB02KT 9999 SCT040 15/06 Q1032 NOSIG RMK VIS 8000 QUAD NE FU PP000=
SPZO Nov2014-031500Z VRB03KT 9999 FEW050 18/04 Q1031 NOSIG RMK PP000=
SPZO Nov2014-031600Z 34005KT 250V060 9999 FEW050 20/02 Q1030 NOSIG RMK PP000=
SPZO Nov2014-031700Z VRB03KT 9999 FEW050 22/M01 Q1028 NOSIG RMK PP000=
SPZO Nov2014-031800Z VRB05KT 9999 FEW050 23/M03 Q1027 NOSIG RMK PP000=
SPZO Nov2014-031900Z VRB02KT 9999 SCT050 24/M01 Q1025 NOSIG RMK PP000=
SPZO Nov2014-032000Z 07005KT 360V130 9999 SCT050 24/M02 Q1024 NOSIG RMK PP000=
SPZO Nov2014-032100Z 32007KT 270V010 9999 SCT050 24/M02 Q1023 TEMPO FEW040TCU BKN080 RMK PP000=
SPZO Nov2014-032200Z 02014KT 340V080 9999 FEW043CB SCT080 21/03 Q1024 TL2300 8000E -RA VCSH SCT036CB BKN070 RMK T.MAX 24.8 PP000=
SPZO Nov2014-032300Z 36009KT 320V060 9999 FEW046 SCT100 18/02 Q1026 TEMPO VCSH RMK PP000=
SPZO Nov2014-040000Z VRB07KT 9999 FEW050 SCT100 16/03 Q1027 RMK PP000=
SPZO Nov2014-040100Z 27005KT 200V340 9999 FEW050 SCT100 15/04 Q1028 RMK PP000=
SPZO Nov2014-040200Z VRB02KT 9999 FEW050 SCT100 14/04 Q1029 RMK PP000=
SPZO Nov2014-040300Z VRB03KT 9999 SCT050 SCT100 14/05 Q1030 RMK PP000=
SPZO Nov2014-040400Z 00000KT 9999 SCT050 SCT100 13/05 Q1030 RMK PP000=
SPZO Nov2014-040500Z 26004KT 9999 SCT050 SCT100 11/04 Q1029 RMK PP000=
SPZO Nov2014-040600Z 09004KT 9999 SCT050 SCT100 11/04 Q1028 RMK PP000=
SPZO Nov2014-040700Z 28003KT 9999 SCT050 SCT100 09/03 Q1028 RMK PP000=
SPZO Nov2014-040800Z 06002KT 9999 SCT050 SCT100 09/04 Q1028 RMK PP000=
SPZO Nov2014-040900Z 00000KT 9999 SCT050 SCT100 08/03 Q1028 RMK PP000=
SPZO Nov2014-041000Z 00000KT 9999 FEW040 SCT100 08/03 Q1029 RMK PP000=
SPZO Nov2014-041100Z 00000KT 9999 FEW025 SCT100 08/04 Q1030 RMK PP000=
SPZO Nov2014-041200Z VRB02KT 9999 FEW040 BKN230 12/05 Q1031 NOSIG RMK VIS QUAD E 9000 HZ PP000=
SPZO Nov2014-041300Z VRB01KT 9999 FEW050 BKN230 15/06 Q1031 NOSIG RMK VIS QUAD E 9000 HZ PP000=
SPZO Nov2014-041400Z VRB03KT 9999 FEW050 BKN230 18/04 Q1031 NOSIG RMK VIS QUAD E 9000 HZ PP000=
SPZO Nov2014-041500Z VRB05KT 9999 FEW050 SCT230 20/05 Q1030 NOSIG RMK PP000=
SPZO Nov2014-041600Z VRB03KT 9999 SCT050 SCT230 24/01 Q1029 NOSIG RMK PP000=
SPZO Nov2014-041700Z VRB05KT 9999 SCT050 SCT230 23/00 Q1027 NOSIG RMK PP000=
SPZO Nov2014-041800Z VRB05KT 9999 SCT046 SCT200 24/02 Q1026 NOSIG RMK PP000=
SPZO Nov2014-041900Z 35009KT 290V030 9999 FEW040TCU SCT046 25/01 Q1025 NOSIG RMK PP000=
SPZO Nov2014-042000Z VRB08KT 9999 -RA FEW040TCU SCT043 BKN080 17/01 Q1025 BECMG FM2030 TL2130 8000 RA RMK PPTRZ=
SPZO Nov2014-042100Z 00000KT 9999 FEW040TCU SCT043 BKN080 17/05 Q1025 NOSIG RMK PP000=
SPZO Nov2014-042200Z 07006KT 010V180 9999 SCT043 BKN100 18/03 Q1026 NOSIG RMK TMAX 24.8 PP000=
SPZO Nov2014-042300Z VRB01KT 9999 FEW050 BKN100 17/04 Q1027 NOSIG RMK PP000=
SPZO Nov2014-050000Z 00000KT 9999 SCT230 14/06 Q1027 RMK PP000=
SPZO Nov2014-050100Z VRB02KT 9999 SCT230 13/05 Q1028 RMK PP000=
SPZO Nov2014-050200Z 00000KT 9999 BKN230 12/06 Q1030 RMK PP000=
SPZO Nov2014-050300Z 26004KT 9999 BKN230 11/05 Q1030 RMK PP000=
SPZO Nov2014-050400Z VRB01KT 9999 SCT050 SCT230 12/05 Q1031 RMK PP000=
SPZO Nov2014-050500Z 00000KT 9999 SCT050 SCT150 11/05 Q1031 RMK PP000=
SPZO Nov2014-050600Z 27005KT 9999 SCT050 SCT100 10/05 Q1031 RMK PP000=
SPZO Nov2014-050700Z 27003KT 9999 SCT050 BKN100 09/05 Q1030 RMK PP000=
SPZO Nov2014-050800Z 00000KT 9999 SCT040 SCT100 09/05 Q1030 RMK PP000=
SPZO Nov2014-050900Z 27003KT 9999 SCT080 08/04 Q1030 RMK PP000=
SPZO Nov2014-051000Z 07003KT 9999 SCT050 08/05 Q1031 RMK PP000=
SPZO Nov2014-051100Z 00000KT 9999 FEW040 SCT080 08/05 Q1032 RMK HZ QUAD NE PP000=
SPZO Nov2014-051200Z 00000KT 9999 FEW036 SCT043 BKN080 12/05 Q1033 NOSIG RMK VIS 8000 QUAD NE HZ PP000=
SPZO Nov2014-051300Z 08005KT 050V120 9999 SCT040 BKN080 13/06 Q1033 NOSIG RMK VIS QUAD E 8000 HZ PP000=
SPZO Nov2014-051400Z VRB02KT 9999 SCT040 BKN080 16/06 Q1033 NOSIG RMK VIS QUAD E 8000 HZ PP000=
SPZO Nov2014-051500Z VRB04KT 9999 SCT046 19/03 Q1032 NOSIG RMK PP000=
SPZO Nov2014-051600Z 31005KT 220V030 9999 SCT050 21/02 Q1031 NOSIG RMK PP000=
SPZO Nov2014-051700Z VRB03KT 9999 SCT050 23/01 Q1029 NOSIG RMK PP000=
SPZO Nov2014-051800Z 07007KT 340V150 9999 SCT050 SCT150 25/03 Q1027 NOSIG RMK PP000=
SPZO Nov2014-051900Z 10018G29KT 8000 -RA VCSH FEW040TCU SCT060 BKN100 22/03 Q1026 BCMG FM191500 7000 3500E RA SCT036TCU BKN080 RMK PP004=
SPZO Nov2014-052000Z 08006KT 9999 SCT060 BKN080 16/07 Q1028 NOSIG RMK PP004=
SPZO Nov2014-052100Z 06012KT 020V100 9999 SCT060 BKN080 15/06 Q1029 TEMPO VCSH SCT040TCU BKN070 RMK PP000=
SPZO Nov2014-052200Z 08016G26KT 9999 -RA VCSH FEW040TCU SCT060 BKN080 13/04 Q1031 TEMPO -RA RMK TMAX 25.5 PP002=
SPZO Nov2014-052300Z 20004KT 9000 -RA VCSH FEW040TCU SCT060 BKN080 12/04 Q1031 TEMPO BECMG FM2310 8000 -RA SCT040TCU OVC080 RMK PP002=
SPZO Nov2014-060000Z 08008KT 9999 SCT040 BKN080 12/05 Q1030 RMK PP000=
SPZO Nov2014-060100Z VRB02KT 9999 SCT043 SCT080 12/05 Q1032 RMK PP000=
SPZO Nov2014-060200Z 00000KT 9999 SCT050 BKN100 11/05 Q1033 RMK PP000=
SPZO Nov2014-060300Z 00000KT 9999 SCT050 BKN100 11/05 Q1033 RMK PP000=
SPZO Nov2014-060400Z 00000KT 9999 OVC100 10/05 Q1034 RMK PP000=
SPZO Nov2014-060500Z 27002KT 9999 OVC100 08/04 Q1034 RMK PP000=
SPZO Nov2014-060600Z 00000KT 9999 BKN100 08/04 Q1033 RMK PP000=
SPZO Nov2014-060700Z 31003KT 9999 FEW050 BKN100 08/04 Q1033 RMK PP000=
SPZO Nov2014-060800Z 00000KT 9999 SCT050 BKN100 08/04 Q1032 RMK PP000=
SPZO Nov2014-060900Z 00000KT 9999 SCT043 BKN080 08/05 Q1033 RMK PP000=
SPZO Nov2014-061000Z 31002KT 9999 SCT043 BKN100 08/05 Q1034 RMK PP000=
SPZO Nov2014-061100Z 08002KT 9999 SCT046 BKN100 08/05 Q1034 RMK PP000=
SPZO Nov2014-061200Z 00000KT 9000 BKN050 SCT070 09/05 Q1035 NOSIG RMK HZ PP000=
SPZO Nov2014-061300Z 00000KT 9000 BKN050 SCT070 11/06 Q1036 NOSIG RMK HZ PP000=
SPZO Nov2014-061400Z VRB02KT 9000 BKN050 SCT070 12/05 Q1036 NOSIG RMK HZ PP000=
SPZO Nov2014-061500Z VRB02KT 9999 BKN050 SCT070 15/06 Q1036 NOSIG RMK PP000=
SPZO Nov2014-061600Z 06004KT 9999 BKN050 SCT070 16/05 Q1035 NOSIG RMK PP000=
SPZO Nov2014-061700Z VRB04KT 9999 BKN050 SCT080 19/04 Q1034 NOSIG RMK PP000=
SPZO Nov2014-061800Z VRB03KT 9999 SCT043 BKN100 20/03 Q1032 NOSIG RMK PP000=
SPZO Nov2014-061900Z 01010KT 300V070 9999 SCT043 BKN100 21/02 Q1031 NOSIG RMK PP000=
SPZO Nov2014-062000Z 02011KT 340V060 9999 SCT043 SCT100 22/02 Q1030 NOSIG RMK PP000=
SPZO Nov2014-062100Z 36012KT 300V050 9999 FEW046 SCT100 21/02 Q1029 NOSIG RMK PP000=
SPZO Nov2014-062200Z 35011KT 310V060 9999 FEW050 SCT150 20/03 Q1029 NOSIG RMK T MAX 22.5 PP000=
SPZO Nov2014-062300Z 36012KT 320V040 9999 FEW050 SCT150 18/03 Q1030 NOSIG RMK PP000=
SPZO Nov2014-070000Z 36011KT 330V060 9999 SCT100 16/03 Q1030 RMK PP000=
SPZO Nov2014-070100Z 04005KT 340V090 9999 SCT100 14/04 Q1032 RMK PP000=
SPZO Nov2014-070200Z 35005KT 300V110 9999 SCT100 14/04 Q1033 RMK PP000=
SPZO Nov2014-070300Z VRB02KT 9999 SCT100 12/04 Q1033 RMK PP000=
SPZO Nov2014-070400Z 00000KT 9999 SCT100 11/04 Q1034 RMK PP000=
SPZO Nov2014-070500Z 30003KT 9999 SCT230 10/04 Q1033 RMK PP000=
SPZO Nov2014-070600Z 00000KT 9999 SCT230 09/04 Q1033 RMK PP000=
SPZO Nov2014-070700Z 00000KT 9999 SCT230 09/04 Q1033 RMK PP000=
SPZO Nov2014-070800Z 00000KT 9999 FEW230 08/03 Q1032 RMK PP000=
SPZO Nov2014-070900Z 30003KT 9999 FEW230 07/04 Q1032 RMK PP000=
SPZO Nov2014-071000Z 07003KT 9999 FEW043 SCT100 07/04 Q1033 RMK PP000=
SPZO Nov2014-071100Z 06002KT 9999 FEW040 SCT100 08/04 Q1034 RMK QUAD E HZ PP000=
SPZO Nov2014-071200Z VRB01KT 9999 SCT040 SCT100 11/05 Q1034 NOSIG RMK PP000=
SPZO Nov2014-071300Z VRB01KT 9999 SCT043 SCT100 15/05 Q1035 NOSIG RMK PP000=
SPZO Nov2014-071400Z VRB02KT 9999 SCT043 SCT100 18/04 Q1034 NOSIG RMK PP000=
SPZO Nov2014-071500Z VRB03KT 9999 SCT043 SCT100 19/03 Q1034 NOSIG RMK PP000=
SPZO Nov2014-071600Z VRB03KT 9999 SCT046 SCT100 20/03 Q1033 NOSIG RMK PP000=
SPZO Nov2014-071700Z VRB04KT 9999 SCT046 SCT100 21/03 Q1031 NOSIG RMK PP000=
SPZO Nov2014-071800Z 01010KT 320V060 9999 FEW046 SCT100 23/01 Q1029 TEMPO 01014G24KT RMK PP000=
SPZO Nov2014-071900Z 02012KT 330V050 9999 FEW046 SCT200 23/01 Q1028 TEMPO 01014G24KT RMK PP000=
SPZO Nov2014-072000Z 36014G24KT 310V050 9999 FEW050 SCT150 22/01 Q1028 NOSIG RMK PP000=
SPZO Nov2014-072100Z 35012G23KT 310V050 9999 FEW050 SCT100 21/02 Q1028 NOSIG RMK PP000=
SPZO Nov2014-072200Z 36012KT 320V050 9999 FEW050 BKN100 20/03 Q1028 TEMPO SCT040 BKN080 RMK TMAX 24.3 PP000=
SPZO Nov2014-072300Z 36011KT 300V050 9999 SCT080 18/04 Q1029 NOSIG RMK PP000=
SPZO Nov2014-080000Z 09004KT 030V190 9999 SCT050 SCT080 16/03 Q1030 RMK PP000=
SPZO Nov2014-080100Z VRB03KT 9999 SCT050 SCT100 16/04 Q1031 RMK PP000=
SPZO Nov2014-080200Z 00000KT 9999 SCT050 SCT100 13/04 Q1032 RMK PP000=
SPZO Nov2014-080300Z 00000KT 9999 SCT050 SCT100 13/05 Q1033 RMK PP000=
SPZO Nov2014-080400Z 00000KT 9999 SCT050 SCT100 12/05 Q1033 RMK PP000=
SPZO Nov2014-080500Z 00000KT 9999 SCT050 SCT100 11/05 Q1033 RMK PP000=
SPZO Nov2014-080600Z 00000KT 9999 FEW050 BKN100 09/04 Q1032 RMK PP000=
SPZO Nov2014-080700Z 00000KT 9999 SCT050 BKN100 09/04 Q1031 RMK PP000=
SPZO Nov2014-080800Z 00000KT 9999 SCT050 BKN100 09/04 Q1031 RMK PP000=
SPZO Nov2014-080900Z 00000KT 9999 SCT050 BKN100 08/04 Q1031 RMK PP000=
SPZO Nov2014-081000Z 00000KT 9999 FEW050 07/03 Q1032 RMK PP000=
SPZO Nov2014-081100Z 00000KT 9999 FEW050 07/04 Q1033 RMK PP000=
SPZO Nov2014-081200Z 00000KT 9999 FEW080 12/05 Q1034 NOSIG RMK HZ QUAD NE PP000=
SPZO Nov2014-081300Z 04004KT 340V130 9999 FEW040 15/05 Q1034 NOSIG RMK HZ QUAD NE PP000=
SPZO Nov2014-081400Z VRB04KT 9999 FEW040 17/04 Q1033 NOSIG RMK PP000=
SPZO Nov2014-081500Z VRB02KT 9999 FEW050 21/05 Q1032 NOSIG RMK PP000=
SPZO Nov2014-081600Z VRB04KT 9999 FEW050 22/M00 Q1031 NOSIG RMK PP000=
SPZO Nov2014-081700Z VRB04KT 9999 FEW050 23/M01 Q1029 NOSIG RMK PP000=
SPZO Nov2014-081800Z 01014KT 320V060 9999 FEW050 24/M03 Q1028 TEMPO 34012KT RMK PP000=
SPZO Nov2014-081900Z 01016G26KT 330V070 9999 FEW050 24/M01 Q1028 TEMPO 01020G30KT RMK PP000=
SPZO Nov2014-082000Z 02017KT 310V070 9999 FEW050 SCT230 23/M03 Q1027 NOSIG RMK PP000=
SPZO Nov2014-082100Z 02011KT 330V070 9999 FEW050 SCT230 22/M02 Q1027 NOSIG RMK PP000=
SPZO Nov2014-082200Z 01012KT 320V060 9999 FEW050 SCT230 19/02 Q1028 NOSIG RMK T.MAX 24.9 PP000=
SPZO Nov2014-082300Z VRB08KT 9999 FEW050 BKN230 18/01 Q1029 NOSIG RMK PP000=
SPZO Nov2014-090000Z 11005KT 080V160 9999 FEW050 SCT100 17/02 Q1030 RMK PP000=
SPZO Nov2014-090100Z VRB03KT 9999 FEW050 SCT100 16/02 Q1031 RMK PP000=
SPZO Nov2014-090200Z 00000KT 9999 SCT100 12/03 Q1032 RMK PP000=
SPZO Nov2014-090300Z 07003KT 9999 SCT100 11/03 Q1032 RMK PP000=
SPZO Nov2014-090400Z 29002KT 9999 SCT100 11/03 Q1032 RMK PP000=
SPZO Nov2014-090500Z 00000KT 9999 SCT100 10/03 Q1032 RMK PP000=
SPZO Nov2014-090600Z 00000KT 9999 FEW050 SCT100 09/03 Q1031 RMK PP000=
SPZO Nov2014-090700Z 00000KT 9999 FEW050 SCT100 09/03 Q1031 RMK PP000=
SPZO Nov2014-090800Z 00000KT 9999 FEW050 SCT100 08/03 Q1031 RMK PP000=
SPZO Nov2014-090900Z 00000KT 9999 FEW050 BKN100 08/03 Q1031 RMK PP000=
SPZO Nov2014-091000Z 00000KT 9999 FEW050 BKN100 08/03 Q1031 RMK PP000=
SPZO Nov2014-091100Z 07002KT 9999 FEW050 BKN100 08/03 Q1032 RMK PP000=
SPZO Nov2014-091200Z VRB03KT 9999 FEW050 BKN230 10/04 Q1032 NOSIG RMK PP000=
SPZO Nov2014-091300Z VRB02KT 9999 FEW050 BKN230 15/04 Q1033 NOSIG RMK PP000=
SPZO Nov2014-091400Z VRB04KT 9999 FEW050 BKN230 17/04 Q1033 NOSIG RMK PP000=
SPZO Nov2014-091500Z VRB04KT 9999 SCT050 SCT230 19/04 Q1032 NOSIG RMK PP000=
SPZO Nov2014-091600Z 12004KT 060V230 9999 FEW043 SCT050 22/03 Q1031 NOSIG RMK PP000=
SPZO Nov2014-091700Z 05010KT 020V100 9999 FEW040 SCT050 22/03 Q1030 TEMPO VCSH FEW040TCU BKN080 RMK PP000=
SPZO Nov2014-091800Z VRB03KT 9999 FEW040TCU SCT050 23/04 Q1028 NOSIG RMK PP000=
SPZO Nov2014-091900Z 01010KT 330V060 9999 FEW040TCU SCT050 BKN080 21/04 Q1027 TEMPO VCSH RMK PP000=
SPZO Nov2014-092000Z 36013KT 320V060 9999 FEW040TCU BKN080 18/04 Q1027 TEMPO TL2030 VCSH RMK PP000=
SPZO Nov2014-092100Z 01010KT 310V060 9999 FEW040 BKN080 18/00 Q1028 TEMPO -RA RMK PP000=
SPZO Nov2014-092200Z VRB04KT 9999 FEW040 BKN080 17/02 Q1028 NOSIG RMK TMAX 24.0 PP000=
SPZO Nov2014-092300Z 09006KT 060V120 9999 SCT050 BKN100 16/01 Q1029 TEMPO -DZ RMK PP000=
SPZO Nov2014-100000Z 00000KT 9999 SCT040 BKN100 15/01 Q1030 RMK PP000=
SPZO Nov2014-100100Z 28005KT 9999 SCT050 BKN100 14/03 Q1031 RMK PP000=
SPZO Nov2014-100200Z 29003KT 9999 SCT050 BKN100 15/04 Q1032 RMK PP000=
SPZO Nov2014-100300Z 08011G26KT 9999 SCT040TCU BKN080 14/04 Q1033 RMK PP000=
SPZO Nov2014-100400Z 06003KT 9999 RA FEW036 SCT040TCU BKN080 10/07 Q1034 RMK PP018=
SPZO Nov2014-100500Z VRB03KT 9999 RA FEW040 SCT050 BKN080 11/06 Q1032 RMK PP008=
SPZO Nov2014-100600Z VRB01KT 9999 FEW040 SCT050 BKN080 10/06 Q1032 RMK PP000=
SPZO Nov2014-100700Z 08006KT 9999 SCT050 BKN080 09/06 Q1032 RMK PP000=
SPZO Nov2014-100800Z 00000KT 9999 SCT050 BKN080 09/06 Q1031 RMK PP000=
SPZO Nov2014-100900Z VRB02KT 9999 BKN150 08/05 Q1031 RMK PP000=
SPZO Nov2014-101000Z 00000KT 9999 BKN100 07/05 Q1031 RMK BCBR NE PP000=
SPZO Nov2014-101100Z VRB02KT 9999 FEW010 BKN080 07/05 Q1032 RMK PP000=
SPZO Nov2014-101200Z VRB02KT 9999 FEW010 SCT040 BKN080 09/06 Q1033 NOSIG RMK QUAD E BR PP000=
SPZO Nov2014-101300Z VRB01KT 9999 FEW010 SCT040 BKN100 11/06 Q1032 NOSIG RMK QUAD E HZ PP000=
SPZO Nov2014-101400Z VRB03KT 9999 FEW020 SCT040 BKN100 14/04 Q1033 NOSIG RMK QUAD E HZ PP000=
SPZO Nov2014-101500Z VRB03KT 9999 SCT040 SCT100 16/04 Q1032 NOSIG RMK PP000=
SPZO Nov2014-101600Z VRB02KT 9999 SCT043 SCT100 19/04 Q1031 NOSIG RMK PP000=
SPZO Nov2014-101700Z VRB04KT 9999 SCT043 SCT200 20/02 Q1029 TEMPO VCSH FEW040TCU BKN100 RMK PP000=
SPZO Nov2014-101800Z VRB03KT 9999 SCT050 SCT150 22/M02 Q1028 TEMPO VCSH FEW040TCU BKN100 RMK PP000=
SPZO Nov2014-101900Z 09010KT 9999 SCT050 SCT150 22/02 Q1026 NOSIG RMK PP000=
SPZO Nov2014-102000Z 09016G26KT 9999 FEW040TCU BKN080 19/03 Q1026 NOSIG RMK PP000=
SPZO Nov2014-102100Z 36012KT 290V040 9999 VCSH SCT040TCU BKN080 17/04 Q1028 NOSIG RMK PP000=
SPZO Nov2014-102200Z 22009KT 8000 RA VCSH SCT040TCU BKN080 13/06 Q1030 NOSIG RMK PP006=
SPZO Nov2014-102300Z 29008KT 8000 -RA VCSH SCT040TCU BKN080 12/08 Q1031 NOSIG RMK PP008=
SPZO Nov2014-110000Z 24006KT 210V290 9999 SCT040 BKN080 12/06 Q1031 RMK PP000=
SPZO Nov2014-110100Z 27007KT 9999 SCT043 BKN080 11/06 Q1032 RMK PP000=
SPZO Nov2014-110200Z 28005KT 9999 SCT050 BKN100 11/06 Q1032 RMK PP000=
SPZO Nov2014-110300Z 00000KT 9999 SCT050 SCT100 11/06 Q1033 RMK PP000=
SPZO Nov2014-110400Z 00000KT 9999 SCT050 SCT100 12/06 Q1032 RMK PP000=
SPZO Nov2014-110500Z 26007KT 9999 SCT043 BKN080 11/06 Q1032 RMK PP000=
SPZO Nov2014-110600Z 26006KT 9999 BKN046 SCT080 12/06 Q1031 RMK PP000=
SPZO Nov2014-110700Z 00000KT 9999 BKN043 SCT080 10/06 Q1030 RMK PP000=
SPZO Nov2014-110800Z 26002KT 9999 BKN040 SCT080 08/05 Q1030 RMK PP000=
SPZO Nov2014-110900Z 00000KT 9999 BKN043 SCT080 09/05 Q1030 RMK PP000=
SPZO Nov2014-111000Z 00000KT 9999 FEW036 SCT043 BKN080 09/05 Q1031 RMK PP000=
SPZO Nov2014-111100Z 00000KT 9999 FEW036 SCT050 BKN100 10/06 Q1031 RMK PP000=
SPZO Nov2014-111200Z 00000KT 9999 BKN050 SCT100 11/06 Q1031 NOSIG RMK PP000=
SPZO Nov2014-111300Z 00000KT 9999 SCT050 SCT100 14/05 Q1032 NOSIG RMK PP000=
SPZO Nov2014-111400Z 00000KT 9999 SCT050 SCT100 17/04 Q1032 NOSIG RMK PP000=
SPZO Nov2014-111500Z 22005KT 9999 SCT050 SCT100 17/04 Q1031 NOSIG RMK PP000=
SPZO Nov2014-111600Z VRB05KT 9999 SCT050 BKN100 19/04 Q1030 NOSIG RMK PP000=
SPZO Nov2014-111700Z 00000KT 9999 SCT050 BKN100 21/03 Q1029 NOSIG RMK PP000=
SPZO Nov2014-111800Z VRB05KT 9999 SCT050 SCT100 22/03 Q1026 NOSIG RMK PP000=
SPZO Nov2014-111900Z 34007KT 290V040 9999 VCSH FEW036TCU SCT050 24/00 Q1024 NOSIG RMK CB QUAD NE PP000=
SPZO Nov2014-112000Z 30010KT 230V010 9000 -TSRA FEW036TCU SCT050CB BKN080 19/02 Q1025 NOSIG RMK PP000=
SPZO Nov2014-112100Z 15003KT 060V230 9999 SCT050 SCT100 15/07 Q1026 NOSIG RMK VIS 9000E RA PP006=
SPZO Nov2014-112200Z VRB02KT 9999 SCT050 BKN100 15/07 Q1026 RERA NOSIG RMK T MAX 24.6 PP004=
SPZO Nov2014-112300Z 00000KT 9999 SCT050 BKN100 15/06 Q1027 NOSIG RMK PP000=
SPZO Nov2014-120000Z 23005KT 120V260 9999 FEW040 BKN100 15/04 Q1028 RMK PP000=
SPZO Nov2014-120100Z 20004KT 170V250 9999 FEW040 BKN100 15/04 Q1030 RMK PP000=
SPZO Nov2014-120200Z 26008KT 220V300 9999 FEW040 SCT100 13/06 Q1030 RMK PP000=
SPZO Nov2014-120300Z 27009KT 9999 SCT060 12/05 Q1031 RMK PP000=
SPZO Nov2014-120400Z 28007KT 240V300 9999 SCT060 12/05 Q1030 RMK PP000=
SPZO Nov2014-120500Z VRB02KT 9999 SCT060 12/05 Q1030 RMK PP000=
SPZO Nov2014-120600Z 00000KT 9999 SCT050 SCT080 10/06 Q1029 RMK PP000=
SPZO Nov2014-120700Z 27005KT 9999 SCT050 SCT080 10/06 Q1029 RMK PP000=
SPZO Nov2014-120800Z 00000KT 9999 SCT050 SCT100 10/06 Q1028 RMK PP000=
SPZO Nov2014-120900Z 00000KT 9999 FEW050 SCT100 09/05 Q1029 RMK PP000=
SPZO Nov2014-121000Z 28003KT 9999 FEW050 SCT230 08/04 Q1029 RMK PP000=
SPZO Nov2014-121100Z 00000KT 9999 FEW050 SCT230 08/05 Q1030 RMK QUAD E HZ PP000=
SPZO Nov2014-121200Z 00000KT 9999 FEW040 SCT230 13/06 Q1031 NOSIG RMK PP000=
SPZO Nov2014-121300Z 00000KT 9999 FEW040 SCT230 15/05 Q1031 NOSIG RMK PP000=
SPZO Nov2014-121400Z 00000KT 9999 FEW043 SCT230 17/03 Q1030 NOSIG RMK PP000=
SPZO Nov2014-121500Z VRB04KT 9999 FEW046 SCT230 20/M01 Q1029 NOSIG RMK PP000=
SPZO Nov2014-121600Z 28008KT 240V350 9999 FEW046 SCT230 21/M03 Q1028 NOSIG RMK PP000=
SPZO Nov2014-121700Z VRB06KT 9999 SCT050 22/M01 Q1027 NOSIG RMK PP000=
SPZO Nov2014-121800Z VRB04KT 9999 VCSH FEW046TCU SCT060 24/M00 Q1025 NOSIG RMK PP000=
SPZO Nov2014-121900Z 03012KT 320V080 9999 VCSH SCT046TCU BKN080 19/01 Q1026 NOSIG RMK TS VC QUAD N/SE PP000=
SPZO Nov2014-122000Z 09015KT 060V140 9999 VCSH FEW046TCU SCT050 BKN080 15/03 Q1027 TEMPO 8000 -RA RMK CB QUAD NW PP000=
SPZO Nov2014-122100Z 08004KT 030V130 9999 FEW036TCU SCT050 BKN100 16/03 Q1026 NOSIG RMK PP000=
SPZO Nov2014-122200Z 10007KT 9999 SCT050 BKN100 16/02 Q1025 TEMPO -RA RMK T MAX 24.4 PP000=
SPZO Nov2014-122300Z 09006KT 9999 SCT050 BKN100 15/03 Q1026 TEMPO -RA RMK PP000=
SPZO Nov2014-130000Z 00000KT 9999 SCT050 BKN100 14/03 Q1027 RMK PP000=
SPZO Nov2014-130100Z VRB02KT 9999 SCT050 BKN080 14/04 Q1028 RMK VIS 9000E BR PP000=
SPZO Nov2014-130200Z VRB02KT 9999 SCT050 BKN080 13/04 Q1028 RMK VIS 9000E BR PP000=
SPZO Nov2014-130300Z VRB02KT 9999 SCT050 BKN080 12/04 Q1029 RMK PP000=
SPZO Nov2014-130400Z 00000KT 9999 SCT050 BKN080 10/05 Q1029 RMK PP000=
SPZO Nov2014-130500Z 00000KT 9999 SCT050 BKN080 10/04 Q1028 RMK PP000=
SPZO Nov2014-130600Z 00000KT 9999 SCT050 BKN080 10/05 Q1028 RMK PP000=
SPZO Nov2014-130700Z 00000KT 9999 SCT050 BKN080 11/04 Q1029 RMK PP000=
SPZO Nov2014-130800Z 00000KT 9999 SCT050 BKN080 10/04 Q1027 RMK PP000=
SPZO Nov2014-130900Z 00000KT 9999 SCT050 BKN080 09/04 Q1027 RMK PP000=
SPZO Nov2014-131000Z 00000KT 9999 FEW030 09/04 Q1027 RMK PP000=
SPZO Nov2014-131100Z 00000KT 9999 FEW050 BKN100 08/04 Q1028 RMK HZ PP000=
SPZO Nov2014-131200Z VRB01KT 9000 FEW036 SCT050 BKN100 10/05 Q1029 TEMPO 7000E FEW020 SCT040 BKN070 RMK HZ PP000=
SPZO Nov2014-131300Z VRB01KT 9000 FEW040 BKN150 11/05 Q1029 NOSIG RMK HZ PP000=
SPZO Nov2014-131400Z 07004KT 030V120 9000 FEW040 BKN150 13/05 Q1029 NOSIG RMK HZ PP000=
SPZO Nov2014-131500Z VRB02KT 9999 FEW043 BKN150 17/02 Q1028 BECMG FM1530 FEW050 SCT230 RMK PP000=
SPZO Nov2014-131600Z 03004KT 300V110 9999 FEW043 BKN150 19/00 Q1027 NOSIG RMK PP000=
SPZO Nov2014-131700Z 07008KT 020V130 9999 SCT046 SCT100 21/00 Q1026 NOSIG RMK PP000=
SPZO Nov2014-131800Z VRB04KT 9999 SCT050 SCT230 23/M02 Q1025 NOSIG RMK PP000=
SPZO Nov2014-131900Z 00000KT 9999 SCT050 SCT230 23/M03 Q1023 NOSIG RMK PP000=
SPZO Nov2014-132000Z 29012KT 250V330 9999 SCT040 SCT100 22/02 Q1022 NOSIG RMK PP000=
SPZO Nov2014-132100Z 28014KT 250V320 9999 FEW040TCU BKN100 19/02 Q1023 TEMPO 36014KT VCSH SCT040TCU BKN080 RMK PP000=
SPZO Nov2014-132200Z 34007KT 260V060 9999 SCT050 BKN100 18/04 Q1023 TEMPO VCSH RMK T.MAX 23.5 PP000=
SPZO Nov2014-132300Z 36008KT 310V050 9999 SCT050 BKN100 17/03 Q1024 NOSIG RMK PP000=
SPZO Nov2014-140000Z 12005KT 030V200 9999 SCT050 BKN100 16/04 Q1025 RMK PP000=
SPZO Nov2014-140100Z 28007KT 230V320 9999 SCT050 BKN100 15/04 Q1027 RMK PP000=
SPZO Nov2014-140200Z 27003KT 9999 SCT050 BKN100 14/02 Q1028 RMK PP000=
SPZO Nov2014-140300Z 09005KT 060V120 9999 SCT050 BKN100 13/05 Q1028 RMK PP000=
SPZO Nov2014-140400Z 08003KT 040V120 9999 SCT050 BKN100 13/05 Q1028 RMK PP000=
SPZO Nov2014-140500Z 08006KT 040V120 9999 SCT046 BKN080 13/05 Q1028 RMK PP000=
SPZO Nov2014-140600Z VRB02KT 9999 SCT040 BKN080 13/05 Q1027 RMK -RA QUAD NE PP000=
SPZO Nov2014-140700Z VRB03KT 9999 SCT040 BKN080 12/04 Q1027 RMK PP000=
SPZO Nov2014-140800Z 08005KT 9999 SCT043 BKN080 12/04 Q1027 RMK PP000=
SPZO Nov2014-140900Z VRB03KT 9999 SCT043 BKN080 12/03 Q1027 RMK PP000=
SPZO Nov2014-141000Z 10004KT 030V150 9999 SCT043 BKN080 12/02 Q1027 RMK PP000=
SPZO Nov2014-141100Z 09005KT 060V120 9999 SCT046 BKN080 11/02 Q1028 RMK PP000=
SPZO Nov2014-141200Z 06006KT 010V090 9999 SCT050 BKN100 12/03 Q1029 NOSIG RMK PP000=
SPZO Nov2014-141300Z 08003KT 350V140 9999 SCT050 BKN100 13/03 Q1030 NOSIG RMK PP000=
SPZO Nov2014-141400Z VRB03KT 9999 SCT050 BKN100 14/02 Q1030 NOSIG RMK PP000=
SPZO Nov2014-141500Z VRB03KT 9999 FEW036 SCT046 BKN100 15/03 Q1030 NOSIG RMK PP000=
SPZO Nov2014-141600Z 35006KT 300V100 9999 FEW040 SCT046 BKN100 16/03 Q1029 NOSIG RMK PP000=
SPZO Nov2014-141700Z VRB04KT 9999 FEW040 SCT046 BKN100 17/02 Q1028 NOSIG RMK PP000=
SPZO Nov2014-141800Z VRB05KT 9999 FEW040 SCT050 BKN100 18/02 Q1027 NOSIG RMK PP000=
SPZO Nov2014-141900Z 35010KT 280V090 9999 FEW040 SCT043 BKN100 18/02 Q1026 NOSIG RMK PP000=
SPZO Nov2014-142000Z 35007KT 290V030 9999 FEW040 SCT043 BKN100 19/02 Q1025 NOSIG RMK PP000=
SPZO Nov2014-142100Z VRB03KT 9999 SCT040 BKN080 18/02 Q1025 NOSIG RMK PP000=
SPZO Nov2014-142200Z 02009KT 320V070 9999 SCT040 FEW043TCU BKN080 16/05 Q1025 NOSIG RMK TMAX 19.5 PP000=
SPZO Nov2014-142300Z VRB04KT 9999 SCT046 BKN080 15/03 Q1027 NOSIG RMK PP000=
SPZO Nov2014-150000Z VRB02KT 9999 SCT050 BKN080 14/03 Q1028 RMK PP000=
SPZO Nov2014-150100Z 00000KT 9999 SCT050 BKN080 14/03 Q1029 RMK PP000=
SPZO Nov2014-150200Z 10004KT 060V150 9999 SCT050 BKN100 13/03 Q1030 RMK PP000=
SPZO Nov2014-150300Z 08005KT 060V120 9999 SCT050 BKN080 12/04 Q1031 RMK PP000=
SPZO Nov2014-150400Z 09005KT 060V120 9999 SCT050 BKN080 12/04 Q1031 RMK PP000=
SPZO Nov2014-150500Z VRB02KT 9999 SCT050 BKN080 12/04 Q1031 RMK PP000=
SPZO Nov2014-150600Z VRB03KT 9999 SCT050 BKN080 12/03 Q1030 RMK PP000=
SPZO Nov2014-150700Z VRB03KT 9999 SCT046 BKN080 11/04 Q1029 RMK PP000=
SPZO Nov2014-150800Z VRB02KT 9999 SCT043 BKN080 11/04 Q1029 RMK PP000=
SPZO Nov2014-150900Z 10005KT 060V160 9999 SCT040 SCT080 11/04 Q1030 RMK PP000=
SPZO Nov2014-151000Z 28005KT 9999 SCT040 SCT080 08/03 Q1030 RMK PP000=
SPZO Nov2014-151100Z 28004KT 9999 SCT040 SCT100 09/04 Q1031 RMK PP000=
SPZO Nov2014-151200Z VRB01KT 9999 FEW036 SCT043 BKN200 14/04 Q1032 NOSIG RMK PP000=
SPZO Nov2014-151300Z 10003KT 020V180 9999 FEW040 SCT050 BKN200 13/03 Q1033 NOSIG RMK PP000=
SPZO Nov2014-151400Z VRB01KT 9999 FEW040 SCT046 BKN100 14/03 Q1033 NOSIG RMK PP000=
SPZO Nov2014-151500Z VRB02KT 9999 FEW040 SCT046 BKN100 15/02 Q1032 NOSIG RMK PP000=
SPZO Nov2014-151600Z 02007KT 300V080 9999 FEW040 SCT046 BKN100 16/03 Q1032 NOSIG RMK PP000=
SPZO Nov2014-151700Z 34008KT 260V040 9999 FEW040 SCT046 BKN100 18/02 Q1030 NOSIG RMK PP000=
SPZO Nov2014-151800Z 33007KT 240V060 9999 FEW050 SCT060 BKN100 19/01 Q1029 NOSIG RMK PP000=
SPZO Nov2014-151900Z 36011KT 360V060 9999 FEW040TCU SCT050 BKN100 19/01 Q1028 NOSIG RMK PP000=
SPZO Nov2014-152000Z 36012KT 9999 FEW040TCU SCT050 BKN100 17/01 Q1028 NOSIG RMK PP000=
SPZO Nov2014-152100Z 01012KT 310V070 9999 FEW040TCU SCT050 BKN100 16/00 Q1027 NOSIG RMK PP000=
SPZO Nov2014-152200Z 01012KT 330V050 9999 SCT050 BKN100 16/01 Q1028 NOSIG RMK PP000=
SPZO Nov2014-152300Z 02008KT 9999 SCT050 BKN100 15/00 Q1028 NOSIG RMK PP000=
SPZO Nov2014-160000Z VRB02KT 9999 FEW050 BKN100 14/01 Q1030 RMK PP000=
SPZO Nov2014-160100Z VRB02KT 9999 FEW050 BKN100 12/02 Q1031 RMK PP000=
SPZO Nov2014-160200Z 00000KT 9999 SCT050 BKN100 11/03 Q1032 RMK PP000=
SPZO Nov2014-160300Z 00000KT 9999 SCT050 SCT100 10/02 Q1033 RMK PP000=
SPZO Nov2014-160400Z 00000KT 9999 BKN100 09/02 Q1033 RMK PP000=
SPZO Nov2014-160500Z 00000KT 9999 FEW050 SCT100 08/03 Q1033 RMK PP000=
SPZO Nov2014-160600Z 26003KT 9999 FEW050 SCT100 09/03 Q1032 RMK PP000=
SPZO Nov2014-160700Z 27002KT 9999 SCT046 SCT080 09/03 Q1031 RMK PP000=
SPZO Nov2014-160800Z 00000KT 9999 BKN046 SCT080 10/03 Q1031 RMK PP000=
SPZO Nov2014-160900Z 09002KT 9999 BKN043 SCT080 09/03 Q1031 RMK PP000=
SPZO Nov2014-161000Z 00000KT 9999 SCT043 BKN080 09/03 Q1032 RMK PP000=
SPZO Nov2014-161100Z VRB02KT 9999 SCT046 BKN100 09/03 Q1033 RMK PP000=
SPZO Nov2014-161200Z 00000KT 9999 OVC050 11/03 Q1033 NOSIG RMK PP000=
SPZO Nov2014-161300Z 00000KT 9999 BKN050 13/02 Q1034 NOSIG RMK PP000=
SPZO Nov2014-161400Z 00000KT 9999 FEW040TCU BKN100 15/02 Q1034 NOSIG RMK PP000=
SPZO Nov2014-161500Z VRB03KT 9999 SCT050 BKN100 16/02 Q1033 NOSIG RMK PP000=
SPZO Nov2014-161600Z 25005KT 9999 SCT050 BKN100 18/02 Q1032 NOSIG RMK PP000=
SPZO Nov2014-161700Z 35008KT 9999 SCT050 BKN100 19/02 Q1031 NOSIG RMK PP000=
SPZO Nov2014-161800Z 34012KT 270V050 9999 SCT050 SCT100 19/01 Q1030 NOSIG RMK PP000=
SPZO Nov2014-161900Z 35012KT 300V030 9999 FEW050 SCT080 20/02 Q1029 NOSIG RMK PP000=
SPZO Nov2014-162000Z 36012KT 320V050 9999 SCT050 20/02 Q1028 NOSIG RMK PP000=
SPZO Nov2014-162100Z 02008KT 320V080 9999 FEW040 SCT040 19/02 Q1027 NOSIG RMK PP000=
SPZO Nov2014-162200Z 02012KT 330V060 9999 FEW040 SCT050 17/02 Q1028 NOSIG RMK T MAX 20.5 TCU QUAD SW PP000=
SPZO Nov2014-162300Z VRB06KT 9999 FEW050 15/02 Q1029 NOSIG RMK TCU QUAD SW PP000=
SPZO Nov2014-170000Z 24005KT 190V280 9999 FEW040 SCT100 14/02 Q1030 RMK PP000=
SPZO Nov2014-170100Z 15003KT 110V180 9999 FEW040 SCT080 13/02 Q1031 RMK PP000=
SPZO Nov2014-170200Z VRB02KT 9999 FEW040 SCT080 11/02 Q1032 RMK PP000=
SPZO Nov2014-170300Z VRB01KT 9999 FEW040 SCT080 11/02 Q1033 RMK PP000=
SPZO Nov2014-170400Z VRB02KT 9999 SCT060 10/03 Q1033 RMK PP000=
SPZO Nov2014-170500Z VRB02KT 9999 SCT060 10/03 Q1032 RMK PP000=
SPZO Nov2014-170600Z 00000KT 9999 FEW060 08/03 Q1032 RMK PP000=
SPZO Nov2014-170700Z VRB02KT 9999 FEW060 07/02 Q1031 RMK PP000=
SPZO Nov2014-170800Z VRB01KT 9999 FEW060 06/02 Q1031 RMK PP000=
SPZO Nov2014-170900Z 00000KT 9999 FEW060 07/02 Q1032 RMK PP000=
SPZO Nov2014-171000Z 00000KT 9999 SCT046 06/02 Q1032 RMK PP000=
SPZO Nov2014-171100Z 00000KT 9999 SCT040 SCT100 07/02 Q1033 RMK QUAD NE HZ PP000=
SPZO Nov2014-171200Z 00000KT 9999 SCT040 SCT100 12/03 Q1034 NOSIG RMK VIS 9000E HZ PP000=
SPZO Nov2014-171300Z 09005KT 010V150 9999 FEW040 SCT050 14/03 Q1034 NOSIG RMK PP000=
SPZO Nov2014-171400Z 07006KT 010V120 9999 SCT043 BKN080 16/03 Q1034 NOSIG RMK PP000=
SPZO Nov2014-171500Z VRB05KT 9999 SCT043 BKN080 17/00 Q1033 NOSIG RMK PP000=
SPZO Nov2014-171600Z 10007KT 050V160 9999 SCT043 BKN080 20/02 Q1032 NOSIG RMK PP000=
SPZO Nov2014-171700Z VRB05KT 9999 FEW036TCU SCT046 BKN080 20/M00 Q1030 TEMPO VCSH RMK PP000=
SPZO Nov2014-171800Z 08006KT 030V160 9999 FEW040TCU SCT050 SCT080 19/M00 Q1029 TEMPO VCSH RMK PP000=
SPZO Nov2014-171900Z 01005KT 300V060 9999 FEW050 SCT080 22/01 Q1027 NOSIG RMK PP000=
SPZO Nov2014-172000Z VRB08KT 9999 FEW050 SCT080 22/01 Q1026 NOSIG RMK PP000=
SPZO Nov2014-172100Z 26011KT 230V280 9999 FEW050 SCT080 19/03 Q1026 NOSIG RMK PP000=
SPZO Nov2014-172200Z 36007KT 300V040 9999 FEW050 SCT080 18/01 Q1026 NOSIG RMK TMAX 22.0 PP000=
SPZO Nov2014-172300Z 34006KT 300V050 9999 SCT040TCU SCT080 17/02 Q1027 TEMPO VCSH RMK PP000=
SPZO Nov2014-180000Z 32010KT 290V010 9999 SCT050 SCT100 15/04 Q1028 RMK PP000=
SPZO Nov2014-180100Z 29008KT 260V340 9999 SCT050 SCT100 14/04 Q1030 RMK PP000=
SPZO Nov2014-180200Z 28010KT 9999 SCT050 14/05 Q1030 RMK PP000=
SPZO Nov2014-180300Z 09006KT 9999 SCT050 13/03 Q1031 RMK PP000=
SPZO Nov2014-180400Z 09007KT 9999 SCT050 13/04 Q1031 RMK PP000=
SPZO Nov2014-180500Z 00000KT 9999 SCT050 12/04 Q1031 RMK PP000=
SPZO Nov2014-180600Z 00000KT 9999 SCT050 12/04 Q1030 RMK PP000=
SPZO Nov2014-180700Z 09006KT 9999 SCT050 12/04 Q1027 RMK PP000=
SPZO Nov2014-180800Z 09006KT 9999 SCT050 11/04 Q1029 RMK PP000=
SPZO Nov2014-180900Z 00000KT 9999 SCT050 10/04 Q1029 RMK PP000=
SPZO Nov2014-181000Z 00000KT 9999 SCT040 BKN100 10/04 Q1030 RMK PP000=
SPZO Nov2014-181100Z 10004KT 9999 SCT040 SCT100 11/04 Q1030 RMK PP000=
SPZO Nov2014-181200Z 00000KT 9999 SCT040 BKN080 14/04 Q1031 TEMPO BKN040 RMK PP000=
SPZO Nov2014-181300Z 00000KT 9999 SCT040 SCT080 16/05 Q1031 NOSIG RMK PP000=
SPZO Nov2014-181400Z VRB03KT 9999 SCT040 SCT080 18/04 Q1030 NOSIG RMK PP000=
SPZO Nov2014-181500Z VRB05KT 9999 FEW050 SCT080 19/02 Q1029 NOSIG RMK PP000=
SPZO Nov2014-181600Z VRB06KT 9999 SCT046 SCT080 21/02 Q1028 NOSIG RMK PP000=
SPZO Nov2014-181700Z 28010KT 230V310 9999 FEW046 SCT080 22/02 Q1027 NOSIG RMK PP000=
SPZO Nov2014-181800Z VRB07KT 9999 FEW040 SCT050 23/01 Q1026 NOSIG RMK PP000=
SPZO Nov2014-181900Z 27010KT 230V310 9999 FEW043 SCT050 22/03 Q1024 NOSIG RMK PP000=
SPZO Nov2014-182000Z 30010KT 240V340 9999 VCSH FEW040TCU SCT050 21/02 Q1024 NOSIG RMK PP000=
SPZO Nov2014-182100Z 34006KT 280V030 9999 SCT046 SCT100 19/06 Q1024 RERA 2040 NOSIG RMK PP018=
SPZO Nov2014-182200Z 09011KT 9999 SCT046 SCT230 14/02 Q1024 NOSIG RMK T.MAX 23.8 PP000=
SPZO Nov2014-182300Z 08008KT 9999 SCT050 14/07 Q1025 NOSIG RMK PP000=
SPZO Nov2014-190000Z 07004KT 9999 SCT050 14/06 Q1026 RMK PP000=
SPZO Nov2014-190100Z VRB02KT 9999 FEW050 13/06 Q1028 RMK PP000=
SPZO Nov2014-190200Z 07005KT 9999 FEW050 12/07 Q1028 RMK PP000=
SPZO Nov2014-190300Z 00000KT 9999 NSC 12/07 Q1029 RMK PP000=
SPZO Nov2014-190400Z 00000KT 9999 NSC 12/07 Q1029 RMK PP000=
SPZO Nov2014-190500Z 00000KT 9999 NSC 11/07 Q1029 RMK PP000=
SPZO Nov2014-190600Z 00000KT 9999 FEW050 11/07 Q1028 RMK PP000=
SPZO Nov2014-190700Z 00000KT 9999 FEW050 10/06 Q1028 RMK PP000=
SPZO Nov2014-190800Z 00000KT 9999 FEW050 09/06 Q1028 RMK PP000=
SPZO Nov2014-190900Z 00000KT 9999 FEW050 09/06 Q1028 RMK PP000=
SPZO Nov2014-191000Z 00000KT 9999 SCT050 BKN100 08/05 Q1029 RMK PP000=
SPZO Nov2014-191100Z 00000KT 9999 SCT050 BKN100 09/05 Q1030 RMK PP000=
SPZO Nov2014-191200Z 00000KT 9999 FEW050 SCT230 13/06 Q1030 NOSIG RMK PP000=
SPZO Nov2014-191300Z VRB03KT 9999 FEW050 SCT230 15/02 Q1030 NOSIG RMK PP000=
SPZO Nov2014-191400Z VRB04KT 9999 FEW050 SCT230 17/M02 Q1030 NOSIG RMK PP000=
SPZO Nov2014-191500Z VRB04KT 9999 FEW050 SCT100 19/M03 Q1029 NOSIG RMK PP000=
SPZO Nov2014-191600Z VRB04KT 9999 FEW050 SCT100 20/M03 Q1028 NOSIG RMK PP000=
SPZO Nov2014-191700Z VRB04KT 9999 SCT050 SCT100 21/M04 Q1027 NOSIG RMK PP000=
SPZO Nov2014-191800Z VRB03KT 9999 BKN050 23/M02 Q1025 NOSIG RMK PP000=
SPZO Nov2014-191900Z VRB05KT 9999 BKN050 22/02 Q1024 NOSIG RMK PP000=
SPZO Nov2014-192000Z 35013KT 320V030 9999 BKN050 SCT150 19/02 Q1024 NOSIG RMK PP000=
SPZO Nov2014-192100Z 30009KT 250V360 9999 BKN050 SCT100 19/01 Q1024 NOSIG RMK PP000=
SPZO Nov2014-192200Z 26011KT 230V300 9999 BKN050 SCT100 18/03 Q1024 NOSIG RMK TMAX 23.4 PP000=
SPZO Nov2014-192300Z VRB05KT 9999 SCT050 SCT100 17/02 Q1025 NOSIG RMK PP000=
SPZO Nov2014-200000Z 12004KT 060V200 9999 SCT050 BKN100 16/03 Q1026 RMK PP000=
SPZO Nov2014-200100Z VRB02KT 9999 SCT050 BKN200 15/03 Q1027 RMK PP000=
SPZO Nov2014-200200Z VRB05KT 9999 SCT050 BKN200 14/02 Q1029 RMK PP000=
SPZO Nov2014-200300Z 15005KT 9999 FEW050 13/02 Q1029 RMK PP000=
SPZO Nov2014-200400Z 00000KT 9999 FEW050 12/02 Q1029 RMK PP000=
SPZO Nov2014-200500Z 00000KT 9999 NSC 11/02 Q1029 RMK PP000=
SPZO Nov2014-200600Z 00000KT 9999 NSC 09/02 Q1028 RMK PP000=
SPZO Nov2014-200700Z 00000KT 9999 NSC 08/02 Q1027 RMK PP000=
SPZO Nov2014-200800Z 00000KT 9999 NSC 07/02 Q1028 RMK PP000=
SPZO Nov2014-200900Z VRB02KT 9999 FEW050 08/02 Q1028 RMK PP000=
SPZO Nov2014-201000Z 00000KT 9999 FEW050 07/01 Q1028 RMK PP000=
SPZO Nov2014-201100Z VRB02KT 9999 FEW050 07/02 Q1029 RMK HZ QUAD NE PP000=
SPZO Nov2014-201200Z VRB02KT 9999 FEW050 11/03 Q1029 NOSIG RMK QUAD NE HZ PP000=
SPZO Nov2014-201300Z VRB02KT 9999 FEW050 SCT230 14/02 Q1029 NOSIG RMK QUAD NE HZ PP000=
SPZO Nov2014-201400Z VRB02KT 9999 FEW050 SCT230 17/02 Q1029 NOSIG RMK PP000=
SPZO Nov2014-201500Z VRB04KT 9999 SCT050 SCT150 19/02 Q1027 NOSIG RMK PP000=
SPZO Nov2014-201600Z VRB04KT 9999 SCT050 SCT100 21/02 Q1027 NOSIG RMK PP000=
SPZO Nov2014-201700Z 01005KT 270V070 9999 SCT050 SCT100 21/M00 Q1025 NOSIG RMK PP000=
SPZO Nov2014-201800Z VRB03KT 9999 SCT050 SCT100 24/01 Q1024 NOSIG RMK PP000=
SPZO Nov2014-201900Z 36011KT 9999 FEW040TCU SCT060 BKN100 20/03 Q1023 NOSIG RMK PP000=
SPZO Nov2014-202000Z 33008KT 9999 -RA VCSH FEW040TCU SCT060 BKN100 20/03 Q1023 NOSIG RMK PP000=
SPZO Nov2014-202100Z 01009KT 9999 FEW040TCU SCT060 BKN100 19/04 Q1022 NOSIG RMK PP000=
SPZO Nov2014-202200Z 01014KT 9999 FEW040TCU SCT060 BKN100 17/04 Q1023 NOSIG RMK PP000=
SPZO Nov2014-202300Z 36012KT 9999 FEW050 BKN100 16/04 Q1024 NOSIG RMK PP000=
SPZO Nov2014-210000Z 36009KT 320V060 9999 SCT050 SCT100 15/05 Q1026 RMK PP000=
SPZO Nov2014-210100Z 09011KT 060V120 9999 SCT050 SCT080 13/05 Q1028 RMK PP000=
SPZO Nov2014-210200Z 09016KT 9999 SCT043 BKN080 11/05 Q1031 RMK PP000=
SPZO Nov2014-210300Z 09008KT 9999 BKN043 SCT080 11/05 Q1030 RMK PP000=
SPZO Nov2014-210400Z 08003KT 9999 -RA BKN040 SCT080 10/08 Q1030 RMK PP012=
SPZO Nov2014-210500Z 10004KT 9000 -RA OVC040 10/07 Q1030 RMK PP010=
SPZO Nov2014-210600Z 00000KT 9999 SCT036 BKN070 10/07 Q1029 RMK PP000=
SPZO Nov2014-210700Z 09004KT 9999 SCT040 BKN070 10/07 Q1029 RMK PP000=
SPZO Nov2014-210800Z 00000KT 9999 SCT040 SCT080 09/06 Q1028 RMK PP000=
SPZO Nov2014-210900Z 08003KT 9999 SCT030 SCT080 09/08 Q1028 RMK PP000=
SPZO Nov2014-211000Z 12002KT 9999 FEW030 SCT043 BKN080 09/06 Q1029 RMK PP000=
SPZO Nov2014-211100Z 00000KT 9999 FEW030 SCT046 BKN100 09/06 Q1030 RMK PP000=
SPZO Nov2014-211200Z VRB02KT 9999 FEW040 BKN050 10/07 Q1030 NOSIG RMK PP000=
SPZO Nov2014-211300Z VRB02KT 9999 FEW040 SCT050 13/06 Q1030 NOSIG RMK PP000=
SPZO Nov2014-211400Z 08004KT 020V120 9999 FEW040 OVC050 14/06 Q1030 NOSIG RMK PP000=
SPZO Nov2014-211500Z 11004KT 9999 FEW040TCU SCT050 BKN100 16/05 Q1030 NOSIG RMK PP000=
SPZO Nov2014-211600Z 07004KT 9999 FEW040 SCT050 BKN100 19/04 Q1030 NOSIG RMK PP000=
SPZO Nov2014-211700Z 12006KT 9999 SCT050 BKN100 19/04 Q1029 NOSIG RMK PP000=
SPZO Nov2014-211800Z VRB03KT 9999 FEW036TCU SCT050 BKN100 20/03 Q1027 TEMPO VCSH RMK PP000=
SPZO Nov2014-211900Z VRB07KT 9999 FEW040TCU SCT050 BKN100 18/03 Q1026 TEMPO -RA RMK PP000=
SPZO Nov2014-212000Z VRB04KT 9999 FEW040TCU SCT050 BKN100 21/02 Q1025 NOSIG RMK PP000=
SPZO Nov2014-212100Z VRB03KT 9999 FEW036TCU SCT050 BKN100 20/02 Q1024 NOSIG RMK PP000=
SPZO Nov2014-212200Z 35008KT 300V040 9000 -RA FEW036TCU SCT050 BKN100 19/04 Q1024 NOSIG RMK T MAX 21.2 PPTRZ=
SPZO Nov2014-212300Z 35008KT 310V030 9999 SCT050 BKN100 17/05 Q1025 RERA NOSIG RMK PPTRZ=
SPZO Nov2014-220000Z VRB03KT 9999 FEW036 SCT040 BKN080 16/04 Q1027 RMK PP000=
SPZO Nov2014-220100Z VRB01KT 9999 FEW036 SCT040 BKN080 15/04 Q1028 RMK PP000=
SPZO Nov2014-220200Z 07006KT 030V100 9999 SCT040 BKN080 14/04 Q1030 RMK PP000=
SPZO Nov2014-220300Z 06004KT 040V100 9999 BKN050 12/05 Q1031 RMK PP000=
SPZO Nov2014-220400Z 09004KT 060V120 9999 BKN050 12/04 Q1031 RMK PP000=
SPZO Nov2014-220500Z 00000KT 9999 BKN050 12/04 Q1031 RMK PP000=
SPZO Nov2014-220600Z 00000KT 9999 SCT050 10/05 Q1030 RMK PP000=
SPZO Nov2014-220700Z 00000KT 9999 SCT050 12/05 Q1030 RMK PP000=
SPZO Nov2014-220800Z 00000KT 9999 SCT050 12/05 Q1029 RMK PP000=
SPZO Nov2014-220900Z VRB02KT 9999 SCT046 SCT100 11/05 Q1029 RMK PP000=
SPZO Nov2014-221000Z 00000KT 9999 SCT046 SCT100 09/05 Q1030 RMK PP000=
SPZO Nov2014-221100Z 00000KT 9999 SCT046 BKN100 11/05 Q1030 RMK QUAD NE HZ PP000=
SPZO Nov2014-221200Z VRB02KT 9999 FEW036 SCT046 BKN100 12/05 Q1031 NOSIG RMK PP000=
SPZO Nov2014-221300Z VRB02KT 9999 FEW033 SCT046 BKN100 14/05 Q1031 NOSIG RMK PP000=
SPZO Nov2014-221400Z VRB03KT 9999 BKN050 SCT100 15/04 Q1031 NOSIG RMK PP000=
SPZO Nov2014-221500Z 09006KT 040V170 9999 BKN050 SCT100 18/04 Q1030 NOSIG RMK PP000=
SPZO Nov2014-221600Z 06006KT 010V140 9999 BKN050 SCT100 19/03 Q1029 NOSIG RMK PP000=
SPZO Nov2014-221700Z VRB02KT 9999 SCT050 SCT100 21/04 Q1028 NOSIG RMK PP000=
SPZO Nov2014-221800Z 29011KT 240V320 9999 -RA VCSH FEW040TCU SCT050 BKN080 18/04 Q1028 NOSIG RMK PPTRZ=
SPZO Nov2014-221900Z VRB05KT 9999 SCT050 BKN080 19/02 Q1027 RMK PPTRZ=
SPZO Nov2014-222000Z 02009KT 300V070 9999 FEW040TCU SCT050 BKN080 19/03 Q1026 NOSIG RMK PP000=
SPZO Nov2014-222100Z 26012KT 9999 SCT050 BKN100 16/05 Q1026 NOSIG RMK PP000=
SPZO Nov2014-222200Z 29004KT 240V320 9999 FEW050 BKN100 17/04 Q1026 NOSIG RMK TMAX 22.6 PP000=
SPZO Nov2014-222300Z 34003KT 200V280 9999 FEW050 SCT080 17/03 Q1026 NOSIG RMK PP000=
SPZO Nov2014-230000Z 26005KT 210V290 9999 SCT050 SCT100 14/04 Q1027 RMK PP000=
SPZO Nov2014-230100Z 26004KT 9999 SCT050 SCT100 14/05 Q1029 RMK PP000=
SPZO Nov2014-230200Z 26006KT 9999 SCT050 SCT100 14/04 Q1029 RMK PP000=
SPZO Nov2014-230300Z 00000KT 9999 SCT050 14/05 Q1030 RMK PP000=
SPZO Nov2014-230400Z 00000KT 9999 SCT050 13/04 Q1031 RMK PP000=
SPZO Nov2014-230500Z 00000KT 9999 SCT050 13/05 Q1030 RMK PP000=
SPZO Nov2014-230600Z 00000KT 9999 SCT050 11/06 Q1030 RMK PP000=
SPZO Nov2014-230700Z 00000KT 9999 SCT050 11/06 Q1029 RMK PP000=
SPZO Nov2014-230800Z 00000KT 9999 SCT050 12/05 Q1028 RMK PP000=
SPZO Nov2014-230900Z 00000KT 9999 SCT050 11/06 Q1029 RMK PP000=
SPZO Nov2014-231000Z 00000KT 9999 SCT050 BKN100 11/06 Q1029 RMK PP000=
SPZO Nov2014-231100Z VRB02KT 9999 SCT040 BKN100 11/06 Q1029 RMK PP000=
SPZO Nov2014-231200Z 10005KT 9999 SCT050 BKN100 12/06 Q1030 NOSIG RMK PP000=
SPZO Nov2014-231300Z VRB02KT 9999 SCT036 BKN100 13/05 Q1030 NOSIG RMK PP000=
SPZO Nov2014-231400Z 08004KT 9999 SCT040 BKN100 15/05 Q1030 NOSIG RMK PP000=
SPZO Nov2014-231500Z VRB04KT 9999 SCT043 BKN100 18/05 Q1030 NOSIG RMK PP000=
SPZO Nov2014-231600Z 00000KT 9999 FEW040TCU SCT046 BKN080 17/03 Q1030 NOSIG RMK PP000=
SPZO Nov2014-231700Z 28012KT 9999 FEW040TCU SCT050 BKN080 16/04 Q1029 NOSIG RMK PP000=
SPZO Nov2014-231800Z 33006KT 270V040 9999 SCT050 BKN100 18/03 Q1028 NOSIG RMK PP000=
SPZO Nov2014-231900Z 26012KT 220V290 9999 FEW050 OVC100 17/03 Q1027 NOSIG RMK PP000=
SPZO Nov2014-232000Z 29008KT 230V350 9999 FEW050 OVC100 18/02 Q1026 NOSIG RMK PP000=
SPZO Nov2014-232100Z 26014KT 240V300 9999 SCT046 BKN100 17/04 Q1026 NOSIG RMK PP000=
SPZO Nov2014-232200Z 25006KT 200V310 9999 SCT050 BKN100 17/M00 Q1026 NOSIG RMK T.MAX 18.7 PP000=
SPZO Nov2014-232300Z 10007KT 070V110 9999 SCT050 SCT100 16/02 Q1026 NOSIG RMK PP000=
SPZO Nov2014-240000Z 08010KT 9999 SCT050 SCT100 14/04 Q1028 RMK PP000=
SPZO Nov2014-240100Z 10009KT 070V160 9999 SCT050 SCT100 13/03 Q1029 RMK PP000=
SPZO Nov2014-240200Z 09005KT 9999 SCT050 SCT100 13/03 Q1030 RMK PP000=
SPZO Nov2014-240300Z 00000KT 9999 SCT050 BKN100 13/03 Q1030 RMK PP000=
SPZO Nov2014-240400Z 26002KT 9999 SCT050 BKN100 13/04 Q1030 RMK PP000=
SPZO Nov2014-240500Z 00000KT 9999 SCT050 BKN100 13/04 Q1030 RMK PP000=
SPZO Nov2014-240600Z 26004KT 210V300 9999 SCT050 BKN100 12/05 Q1029 RMK PP000=
SPZO Nov2014-240700Z 13003KT 9999 SCT050 BKN100 12/04 Q1029 RMK PP000=
SPZO Nov2014-240800Z 09004KT 9999 SCT050 BKN100 10/04 Q1028 RMK PP000=
SPZO Nov2014-240900Z 00000KT 9999 SCT050 BKN100 10/04 Q1029 RMK PP000=
SPZO Nov2014-241000Z 00000KT 9999 SCT046 BKN100 09/05 Q1029 RMK PP000=
SPZO Nov2014-241100Z 00000KT 9999 SCT043 BKN100 10/05 Q1030 RMK PP000=
SPZO Nov2014-241200Z VRB02KT 9999 SCT046 BKN100 12/05 Q1031 NOSIG RMK PP000=
SPZO Nov2014-241300Z VRB01KT 9999 SCT043 SCT100 14/05 Q1031 NOSIG RMK PP000=
SPZO Nov2014-241400Z VRB02KT 9999 SCT046 SCT230 17/04 Q1031 NOSIG RMK PP000=
SPZO Nov2014-241500Z VRB05KT 9999 SCT050 SCT230 18/04 Q1030 NOSIG RMK PP000=
SPZO Nov2014-241600Z VRB03KT 9999 SCT050 SCT230 20/01 Q1029 NOSIG RMK PP000=
SPZO Nov2014-241700Z VRB06KT 9999 SCT050 SCT230 22/00 Q1028 NOSIG RMK PP000=
SPZO Nov2014-241800Z VRB04KT 9999 SCT050 SCT100 21/M01 Q1026 NOSIG RMK PP000=
SPZO Nov2014-241900Z 16012KT 110V210 9999 FEW040 SCT050 BKN100 19/02 Q1025 NOSIG RMK PP000=
SPZO Nov2014-242000Z VRB02KT 9999 FEW040 SCT046 BKN080 21/02 Q1024 RERA NOSIG RMK PP006=
SPZO Nov2014-242100Z 28011KT 240V340 9999 SCT046 SCT100 23/M01 Q1023 NOSIG RMK PP000=
SPZO Nov2014-242200Z 36009KT 300V060 9999 FEW046 SCT230 21/02 Q1023 NOSIG RMK TMAX 22.7 PP000=
SPZO Nov2014-242300Z 36010KT 330V040 9999 FEW050 SCT230 18/04 Q1024 NOSIG RMK PP000=
SPZO Nov2014-250000Z 06008KT 020V040 9999 SCT050 SCT200 16/05 Q1026 RMK PP000=
SPZO Nov2014-250100Z 08009KT 9999 SCT050 SCT100 15/05 Q1027 RMK PP000=
SPZO Nov2014-250200Z 10006KT 9999 SCT050 SCT100 15/06 Q1029 RMK PP000=
SPZO Nov2014-250300Z 00000KT 9999 SCT050 SCT100 15/06 Q1030 RMK PP000=
SPZO Nov2014-250400Z 00000KT 9999 SCT050 BKN080 13/06 Q1030 RMK PP000=
SPZO Nov2014-250500Z 07003KT 9999 SCT046 BKN080 13/06 Q1030 RMK PP000=
SPZO Nov2014-250600Z 00000KT 9999 SCT046 BKN080 13/06 Q1029 RMK PP000=
SPZO Nov2014-250700Z VRB02KT 9999 SCT046 BKN080 12/06 Q1029 RMK PP000=
SPZO Nov2014-250800Z 26004KT 9999 FEW046 BKN080 11/06 Q1028 RMK PP000=
SPZO Nov2014-250900Z 27003KT 9999 SCT050 09/05 Q1029 RMK PP000=
SPZO Nov2014-251000Z 00000KT 9999 FEW050 SCT080 09/04 Q1029 RMK PP000=
SPZO Nov2014-251100Z 00000KT 9999 FEW046 BKN080 11/05 Q1030 RMK HZ QUAD NE PP000=
SPZO Nov2014-251200Z 00000KT 9999 FEW036 SCT043 BKN080 12/05 Q1031 NOSIG RMK QUAD E HZ PP000=
SPZO Nov2014-251300Z VRB02KT 9999 FEW036 SCT043 BKN080 15/06 Q1031 NOSIG RMK QUAD E HZ PP000=
SPZO Nov2014-251400Z VRB02KT 9999 SCT050 SCT100 BKN230 18/04 Q1031 NOSIG RMK PP000=
SPZO Nov2014-251500Z VRB03KT 9999 SCT050 SCT100 20/02 Q1030 NOSIG RMK PP000=
SPZO Nov2014-251600Z 26006KT 160V300 9999 SCT050 SCT100 21/M01 Q1029 NOSIG RMK PP000=
SPZO Nov2014-251700Z VRB03KT 9999 FEW040TCU SCT046 BKN100 22/M01 Q1027 NOSIG RMK PP000=
SPZO Nov2014-251800Z 25014G24KT 220V280 9999 FEW040TCU SCT050 BKN100 20/00 Q1026 NOSIG RMK PP000=
SPZO Nov2014-251900Z 28013KT 9999 FEW040TCU SCT050 BKN100 21/00 Q1026 NOSIG RMK PP000=
SPZO Nov2014-252000Z 26007KT 9999 FEW040TCU SCT050 BKN100 21/01 Q1026 NOSIG RMK PP000=
SPZO Nov2014-252100Z 01007KT 9999 SCT060 BKN100 22/02 Q1024 NOSIG RMK PP000=
SPZO Nov2014-252200Z 27008KT 9999 SCT230 22/00 Q1024 NOSIG RMK PP000=
SPZO Nov2014-252300Z 29006KT 9999 FEW230 19/M01 Q1024 NOSIG RMK PP000=
SPZO Nov2014-260000Z 26007KT 9999 FEW050 17/02 Q1026 RMK PP000=
SPZO Nov2014-260100Z 24005KT 9999 NSC 16/04 Q1027 RMK PP000=
SPZO Nov2014-260200Z 26004KT 240V310 9999 NSC 15/03 Q1028 RMK PP000=
SPZO Nov2014-260300Z 00000KT 9999 SCT100 14/03 Q1029 RMK PP000=
SPZO Nov2014-260400Z 00000KT 9999 FEW050 SCT100 13/04 Q1029 RMK PP000=
SPZO Nov2014-260500Z 28002KT 9999 FEW050 BKN100 11/05 Q1029 RMK PP000=
SPZO Nov2014-260600Z VRB02KT 9999 NSC 10/03 Q1028 RMK PP000=
SPZO Nov2014-260700Z 00000KT 9999 NSC 09/03 Q1028 RMK PP000=
SPZO Nov2014-260800Z 00000KT 9999 SCT100 08/03 Q1028 RMK PP000=
SPZO Nov2014-260900Z 09002KT 9999 NSC 08/03 Q1027 RMK PP000=
SPZO Nov2014-261000Z 00000KT 9999 NSC 07/03 Q1028 RMK PP000=
SPZO Nov2014-261100Z 00000KT 9999 FEW030 08/04 Q1029 RMK VIS 9000E HZ PP000=
SPZO Nov2014-261200Z VRB01KT 9999 SCT230 13/05 Q1030 NOSIG RMK HZ PP000=
SPZO Nov2014-261300Z VRB02KT 9999 SCT230 16/04 Q1030 NOSIG RMK HZ PP000=
SPZO Nov2014-261400Z VRB03KT 9999 SCT230 18/M00 Q1029 NOSIG RMK PP000=
SPZO Nov2014-261500Z VRB04KT 9999 SCT230 20/M02 Q1028 NOSIG RMK PP000=
SPZO Nov2014-261600Z 28008KT 220V020 9999 FEW050 SCT230 22/M01 Q1027 NOSIG RMK PP000=
SPZO Nov2014-261700Z VRB07KT 9999 FEW050 SCT230 22/M02 Q1026 NOSIG RMK PP000=
SPZO Nov2014-261800Z 29008KT 220V360 9999 SCT050 SCT100 23/M07 Q1025 RMK FU NE PP000=
SPZO Nov2014-261900Z 27010KT 240V330 9999 SCT050 SCT080 24/M06 Q1024 RMK FU NE PP000=
SPZO Nov2014-262000Z 03007KT 290V090 9999 SCT050 SCT080 23/M01 Q1023 NOSIG RMK FU NE PP000=
SPZO Nov2014-262100Z 36012KT 320V050 9999 FEW050 BKN100 20/04 Q1023 NOSIG RMK FU NE PP000=
SPZO Nov2014-262200Z 01007KT 290V070 9999 FEW050 SCT150 19/04 Q1024 NOSIG RMK TMAX 25.2 PP000=
SPZO Nov2014-262300Z VRB07KT 9999 SCT080 16/05 Q1025 NOSIG RMK PP000=
SPZO Nov2014-270000Z VRB01KT 9999 SCT050 15/05 Q1026 RMK PP000=
SPZO Nov2014-270100Z 12005KT 080V160 9999 SCT050 15/05 Q1028 RMK PP000=
SPZO Nov2014-270200Z 10004KT 070V190 9999 FEW050 13/05 Q1029 RMK PP000=
SPZO Nov2014-270300Z 00000KT 9999 NSC 12/04 Q1030 RMK PP000=
SPZO Nov2014-270400Z 00000KT 9999 NSC 10/04 Q1030 RMK PP000=
SPZO Nov2014-270500Z VRB02KT 9999 NSC 10/03 Q1030 RMK PP000=
SPZO Nov2014-270600Z 07004KT 9999 NSC 10/03 Q1030 RMK PP000=
SPZO Nov2014-270700Z 27003KT 9999 NSC 08/03 Q1029 RMK PP000=
SPZO Nov2014-270800Z 00000KT 9999 NSC 08/03 Q1029 RMK PP000=
SPZO Nov2014-270900Z 00000KT 9999 FEW100 06/02 Q1030 RMK PP000=
SPZO Nov2014-271000Z 00000KT 9999 FEW100 07/03 Q1030 RMK VIS 9000 QUAD E HZ PP000=
SPZO Nov2014-271100Z 08003KT 9999 FEW050 SCT230 07/03 Q1031 RMK QUAD E HZ PP000=
SPZO Nov2014-271200Z 00000KT 9999 SCT050 10/03 Q1032 NOSIG RMK HZ PP000=
SPZO Nov2014-271300Z 00000KT 9999 SCT050 SCT080 13/04 Q1032 NOSIG RMK PP000=
SPZO Nov2014-271400Z 09005KT 9999 SCT050 BKN080 15/04 Q1032 NOSIG RMK PP000=
SPZO Nov2014-271500Z 04004KT 300V090 9999 SCT050 SCT080 18/04 Q1031 NOSIG RMK PP000=
SPZO Nov2014-271600Z VRB04KT 9999 SCT050 SCT080 21/01 Q1030 NOSIG RMK PP000=
SPZO Nov2014-271700Z VRB04KT 9999 SCT050 SCT080 22/02 Q1028 NOSIG RMK PP000=
SPZO Nov2014-271800Z VRB04KT 9999 SCT050 BKN080 22/M00 Q1027 NOSIG RMK PP000=
SPZO Nov2014-271900Z VRB05KT 9999 SCT046TCU BKN080 21/M01 Q1025 NOSIG RMK PP000=
SPZO Nov2014-272000Z 32011KT 280V040 9999 SCT046TCU BKN080 19/M02 Q1025 NOSIG RMK PP000=
SPZO Nov2014-272100Z 28005KT 210V330 9999 SCT060 BKN150 20/M01 Q1025 NOSIG RMK PP000=
SPZO Nov2014-272200Z 05007KT 340V090 9999 BKN150 20/03 Q1025 NOSIG RMK T MAX 22.8 PP000=
SPZO Nov2014-272300Z VRB03KT 9999 BKN150 18/04 Q1025 NOSIG RMK PP000=
SPZO Nov2014-280000Z 13004KT 070V230 9999 FEW050 SCT100 16/04 Q1027 RMK PP000=
SPZO Nov2014-280100Z 09004KT 050V150 9999 FEW050 SCT100 14/04 Q1029 RMK PP000=
SPZO Nov2014-280200Z 05003KT 9999 FEW050 SCT100 14/04 Q1030 RMK PP000=
SPZO Nov2014-280300Z 00000KT 9999 SCT050 13/04 Q1031 RMK PP000=
SPZO Nov2014-280400Z 00000KT 9999 SCT050 10/04 Q1031 RMK PP000=
SPZO Nov2014-280500Z 00000KT 9999 SCT050 11/04 Q1030 RMK PP000=
SPZO Nov2014-280600Z 00000KT 9999 SCT050 12/05 Q1029 RMK PP000=
SPZO Nov2014-280700Z 00000KT 9999 SCT050 12/04 Q1029 RMK PP000=
SPZO Nov2014-280800Z 00000KT 9999 SCT050 BKN100 12/05 Q1029 RMK PP000=
SPZO Nov2014-280900Z 00000KT 9999 SCT050 BKN100 09/03 Q1030 RMK PP000=
SPZO Nov2014-281000Z 10005KT 9999 FEW030TCU SCT040 BKN100 09/04 Q1030 RMK PP000=
SPZO Nov2014-281100Z 00000KT 9999 SCT040 BKN100 09/03 Q1031 RMK PP000=
SPZO Nov2014-281200Z 00000KT 9999 SCT046 OVC100 10/04 Q1032 NOSIG RMK PP000=
SPZO Nov2014-281300Z 09004KT 060V130 9999 SCT050 OVC100 11/04 Q1032 NOSIG RMK PP000=
SPZO Nov2014-281400Z 08005KT 010V150 9999 SCT050 OVC100 12/04 Q1033 NOSIG RMK PP000=
SPZO Nov2014-281500Z VRB02KT 9999 SCT046 OVC150 16/04 Q1032 NOSIG RMK PP000=
SPZO Nov2014-281600Z VRB02KT 9999 SCT050 BKN200 19/03 Q1031 NOSIG RMK PP000=
SPZO Nov2014-281700Z 33009KT 290V020 9999 SCT050 BKN230 20/03 Q1030 NOSIG RMK PP000=
SPZO Nov2014-281800Z 36007KT 9999 FEW040TCU SCT060 BKN100 20/03 Q1029 NOSIG RMK PP000=
SPZO Nov2014-281900Z 35010KT 280V040 9999 SCT060 BKN100 20/02 Q1027 NOSIG RMK PP000=
SPZO Nov2014-282000Z 01010KT 9999 SCT060 BKN100 19/02 Q1027 NOSIG RMK PP000=
SPZO Nov2014-282100Z 35012KT 9999 SCT060 BKN100 19/02 Q1026 NOSIG RMK PP000=
SPZO Nov2014-282200Z 01008KT 310V060 9999 SCT060 BKN100 17/02 Q1027 NOSIG RMK PP000=
SPZO Nov2014-282300Z 10012G25KT 9999 -RA VCSH SCT050TCU BKN100 13/02 Q1030 TEMPO -RA RMK PPTRZ=
SPZO Nov2014-290000Z 25007KT 210V300 9999 SCT050 BKN150 12/04 Q1030 RMK PP000=
SPZO Nov2014-290100Z 07005KT 9999 SCT050 BKN100 12/03 Q1031 RMK PP000=
SPZO Nov2014-290200Z 13003KT 9999 SCT050 BKN200 12/03 Q1031 RMK PP000=
SPZO Nov2014-290300Z 00000KT 9999 SCT080 10/03 Q1032 RMK PP000=
SPZO Nov2014-290400Z 00000KT 9999 NSC 09/03 Q1031 RMK PP000=
SPZO Nov2014-290500Z 00000KT 9999 NSC 08/03 Q1031 RMK PP000=
SPZO Nov2014-290600Z 00000KT 9999 NSC 08/03 Q1030 RMK PP000=
SPZO Nov2014-290700Z VRB01KT 9999 FEW050 09/03 Q1030 RMK PP000=
SPZO Nov2014-290800Z 06003KT 9999 FEW050 07/02 Q1030 RMK PP000=
SPZO Nov2014-290900Z 00000KT 9999 NSC 06/02 Q1030 RMK PP000=
SPZO Nov2014-291000Z 00000KT 9999 SCT080 06/02 Q1031 RMK PP000=
SPZO Nov2014-291100Z 00000KT 9999 FEW040 SCT080 07/03 Q1032 RMK HZ PP000=
SPZO Nov2014-291200Z 00000KT 9999 SCT050 SCT230 11/04 Q1032 NOSIG RMK HZ PP000=
SPZO Nov2014-291300Z 00000KT 9999 SCT050 SCT230 14/03 Q1032 NOSIG RMK HZ PP000=
SPZO Nov2014-291400Z 00000KT 9999 SCT050 15/02 Q1032 NOSIG RMK PP000=
SPZO Nov2014-291500Z VRB05KT 9999 SCT050 17/01 Q1031 NOSIG RMK PP000=
SPZO Nov2014-291600Z VRB04KT 9999 SCT050 19/01 Q1030 NOSIG RMK PP000=
SPZO Nov2014-291700Z VRB04KT 9999 SCT050 21/01 Q1029 NOSIG RMK PP000=
SPZO Nov2014-291800Z VRB04KT 9999 SCT050 SCT100 23/M00 Q1027 NOSIG RMK PP000=
SPZO Nov2014-291900Z 29007KT 250V330 9999 SCT050 SCT100 22/M00 Q1026 NOSIG RMK PP000=
SPZO Nov2014-292000Z 36008KT 300V040 9999 FEW040TCU SCT046 BKN100 21/02 Q1025 NOSIG RMK PP000=
SPZO Nov2014-292100Z 02010KT 330V060 9999 FEW040 SCT046 BKN100 20/02 Q1024 NOSIG RMK PP000=
SPZO Nov2014-292200Z 35008KT 300V040 9999 FEW036TCU SCT043 BKN080 19/02 Q1025 NOSIG RMK TMAX 23.4 PPTRZ=
SPZO Nov2014-292300Z 08004KT 340V150 9999 FEW040 SCT080 18/03 Q1026 NOSIG RMK PP000=
SPZO Nov2014-300000Z 08004KT 010V120 9999 SCT080 15/04 Q1028 RMK PP000=
SPZO Nov2014-300100Z VRB02KT 9999 BKN080 14/04 Q1029 RMK PP000=
SPZO Nov2014-300200Z 09003KT 9999 BKN080 13/04 Q1030 RMK PP000=
SPZO Nov2014-300300Z VRB02KT 9999 FEW050 BKN080 14/04 Q1031 RMK PP000=
SPZO Nov2014-300400Z 00000KT 9999 SCT050 BKN080 14/04 Q1031 RMK PP000=
SPZO Nov2014-300500Z 10003KT 9999 SCT050 BKN080 13/05 Q1031 RMK PP000=
SPZO Nov2014-300600Z 08003KT 9999 SCT050 BKN080 12/05 Q1030 RMK PP000=
SPZO Nov2014-300700Z 09003KT 9999 SCT080 11/05 Q1030 RMK PP000=
SPZO Nov2014-300800Z VRB02KT 9999 SCT046 SCT080 10/04 Q1030 RMK PP000=
SPZO Nov2014-300900Z 00000KT 9999 SCT046 SCT080 10/04 Q1030 RMK PP000=
SPZO Nov2014-301000Z 00000KT 9999 FEW046 SCT080 09/04 Q1030 RMK PP000=
SPZO Nov2014-301100Z 00000KT 9999 NSC 10/04 Q1031 RMK HZ QUAD NE PP000=
SPZO Nov2014-301200Z 00000KT 9999 FEW050 13/05 Q1032 NOSIG RMK QUAD E HZ PP000=
SPZO Nov2014-301300Z VRB02KT 9999 FEW050 16/04 Q1032 NOSIG RMK QUAD E HZ PP000=
SPZO Nov2014-301400Z VRB02KT 9999 FEW050 18/05 Q1032 NOSIG RMK PP000=
SPZO Nov2014-301500Z VRB05KT 9999 SCT050 20/03 Q1031 NOSIG RMK PP000=
SPZO Nov2014-301600Z VRB05KT 9999 BKN050 SCT100 21/02 Q1029 NOSIG RMK PP000=
SPZO Nov2014-301700Z 33008KT 260V030 9999 FEW040TCU SCT046 BKN080 20/00 Q1029 TEMPO VCSH RMK PP000=
SPZO Nov2014-301800Z VRB05KT 9999 BKN050 SCT120 22/01 Q1028 NOSIG RMK PP000=
SPZO Nov2014-301900Z 36010KT 310V070 9999 SCT050 SCT100 20/02 Q1027 NOSIG RMK PP000=
SPZO Nov2014-302000Z 02008KT 320V070 9999 SCT050 SCT150 22/03 Q1026 NOSIG RMK PP000=
SPZO Nov2014-302100Z 35008KT 320V110 9999 FEW050 BKN150 21/03 Q1025 NOSIG RMK PP000=
SPZO Nov2014-302200Z 01006KT 310V070 9999 FEW080 BKN200 21/03 Q1025 NOSIG RMK TMAX 22.8 PP000=
SPZO Nov2014-302300Z 00000KT 9999 SCT070 SCT200 18/04 Q1026 NOSIG RMK PP000=
SPZO Dic2014-010000Z 09010KT 050V110 9999 FEW050 SCT230 16/05 Q1028 RMK PP000=
SPZO Dic2014-010100Z 08004KT 030V150 9999 FEW050 SCT100 15/05 Q1030 RMK PP000=
SPZO Dic2014-010200Z 09004KT 050V160 9999 FEW050 BKN100 14/05 Q1030 RMK PP000=
SPZO Dic2014-010300Z 12004KT 9999 FEW050 BKN100 14/06 Q1031 RMK PP000=
SPZO Dic2014-010400Z 00000KT 9999 SCT050 SCT100 13/05 Q1031 RMK PP000=
SPZO Dic2014-010500Z 26003KT 9999 SCT043 SCT100 13/06 Q1031 RMK PP000=
SPZO Dic2014-010600Z 08003KT 9999 SCT040 SCT100 13/05 Q1030 RMK PP000=
SPZO Dic2014-010700Z 24002KT 9999 BKN040 SCT080 13/06 Q1030 RMK PP000=
SPZO Dic2014-010800Z 06003KT 9999 SCT043 BKN080 12/06 Q1030 RMK PP000=
SPZO Dic2014-010900Z 15003KT 9999 BKN040 SCT080 13/06 Q1030 RMK PP000=
SPZO Dic2014-011000Z 17004KT 100V250 9999 FEW033 SCT040 BKN070 12/06 Q1031 RMK PP000=
SPZO Dic2014-011100Z VRB02KT 9999 FEW033 SCT043 BKN080 12/05 Q1031 RMK PP000=
SPZO Dic2014-011200Z VRB02KT 9999 FEW040 SCT050 BKN070 14/05 Q1032 NOSIG RMK PP000=
SPZO Dic2014-011300Z VRB02KT 9999 BKN050 SCT090 15/05 Q1032 NOSIG RMK PP000=
SPZO Dic2014-011400Z VRB05KT 9999 BKN050 SCT100 17/04 Q1032 NOSIG RMK PP000=
SPZO Dic2014-011500Z 36004KT 300V070 9999 SCT050 BKN100 18/03 Q1031 NOSIG RMK PP000=
SPZO Dic2014-011600Z 29011KT 240V340 9999 FEW040TCU SCT050 BKN100 19/03 Q1030 TEMPO VCSH RMK PP000=
SPZO Dic2014-011700Z 02011KT 340V060 9999 VCSH FEW040TCU SCT050 BKN100 17/03 Q1030 NOSIG RMK PP000=
SPZO Dic2014-011800Z 12005KT 050V200 9999 FEW040TCU SCT050 BKN100 19/03 Q1029 NOSIG RMK PP000=
SPZO Dic2014-011900Z VRB03KT 9999 FEW036TCU SCT050 BKN100 20/02 Q1027 NOSIG RMK PP000=
SPZO Dic2014-012000Z 03006KT 320V100 9999 SCT050 BKN100 19/03 Q1026 NOSIG RMK PP000=
SPZO Dic2014-012100Z 29006KT 210V010 9999 SCT050 BKN100 20/02 Q1026 NOSIG RMK PP000=
SPZO Dic2014-012200Z VRB01KT 9999 SCT050 BKN100 21/02 Q1026 NOSIG RMK T MAX 21.4 PP000=
SPZO Dic2014-012300Z 35008KT 300V050 9999 VCSH SCT050 BKN100 19/05 Q1026 TEMPO -RA RMK PP000=
SPZO Dic2014-020000Z 27007KT 230V340 9999 VCSH SCT043TCU BKN070 17/06 Q1028 RMK PP000=
SPZO Dic2014-020100Z 07009KT 020V120 9999 VCTS SCT043CB BKN070 13/06 Q1030 RMK PP000=
SPZO Dic2014-020200Z VRB02KT 9999 FEW040 SCT050 BKN080 13/07 Q1031 RERA RMK PP004=
SPZO Dic2014-020300Z VRB01KT 9999 -RA FEW040 SCT050 BKN080 12/07 Q1032 RMK PP006=
SPZO Dic2014-020400Z VRB02KT 9000 -RA SCT040 OVC080 11/07 Q1033 RMK PP006=
SPZO Dic2014-020500Z VRB02KT 9000 -RA SCT040 OVC080 11/07 Q1032 RMK PP002=
SPZO Dic2014-020600Z 00000KT 9999 -RA SCT040 OVC080 10/07 Q1031 RMK PP001=
SPZO Dic2014-020700Z 08003KT 9999 FEW036 SCT046 BKN080 10/07 Q1030 RMK PPTRZ=
SPZO Dic2014-020800Z 00000KT 9999 FEW036 SCT046 BKN080 09/07 Q1030 RMK PP000=
SPZO Dic2014-020900Z VRB02KT 9999 FEW036 SCT046 BKN100 10/07 Q1029 RMK PP000=
SPZO Dic2014-021000Z 00000KT 9999 FEW036 SCT046 BKN100 09/07 Q1030 RMK PP000=
SPZO Dic2014-021100Z 08003KT 9999 FEW020 SCT043 BKN100 09/07 Q1031 RMK VIS 9000 QUAD NW PP000=
SPZO Dic2014-021200Z 08002KT 9999 FEW020 SCT050 BKN100 10/07 Q1031 NOSIG RMK PP000=
SPZO Dic2014-021300Z VRB01KT 9999 FEW030 SCT050 BKN100 13/08 Q1032 NOSIG RMK PP000=
SPZO Dic2014-021400Z VRB02KT 9999 FEW036 SCT050 BKN100 16/06 Q1032 NOSIG RMK PP000=
SPZO Dic2014-021500Z VRB03KT 9999 FEW036 SCT046 BKN100 16/06 Q1031 NOSIG RMK PP000=
SPZO Dic2014-021600Z VRB02KT 9999 SCT040 SCT100 19/04 Q1029 NOSIG RMK PP000=
SPZO Dic2014-021700Z VRB05KT 9999 FEW040TCU SCT080 21/05 Q1028 NOSIG RMK PP000=
SPZO Dic2014-021800Z 09004KT 050V150 9999 VCSH FEW040TCU SCT046 BKN080 18/05 Q1026 TEMPO -RA RMK PP000=
SPZO Dic2014-021900Z VRB03KT 9999 FEW040TCU SCT046 BKN080 23/03 Q1024 TEMPO VCSH RMK PP000=
SPZO Dic2014-022000Z 26011KT 220V030 9999 VCSH FEW040TCU SCT050 BKN080 20/03 Q1024 TEMPO 9000E -RA RMK PP000=
SPZO Dic2014-022100Z 10010KT 050V140 9999 FEW040TCU SCT050 BKN100 17/07 Q1024 NOSIG RMK PP000=
SPZO Dic2014-022200Z 07009KT 040V100 9999 FEW040TCU SCT050 BKN100 19/05 Q1024 NOSIG RMK T MAX 23.9 PP000=
SPZO Dic2014-022300Z 09008KT 060V140 9999 SCT050 SCT100 17/06 Q1025 NOSIG RMK PP000=
SPZO Dic2014-030000Z 11004KT 070V160 9999 BKN043 SCT100 16/07 Q1027 RMK PP000=
SPZO Dic2014-030100Z 05013KT 9999 RA BKN040 SCT070 11/06 Q1030 RMK PP028=
SPZO Dic2014-030200Z 08005KT 9999 BKN043 SCT080 11/05 Q1031 RMK PP006=
SPZO Dic2014-030300Z 09009KT 9999 BKN043 SCT080 10/06 Q1031 RMK PP000=
SPZO Dic2014-030400Z 28007KT 9999 BKN046 SCT080 10/07 Q1030 RMK PP000=
SPZO Dic2014-030500Z 04006KT 9999 SCT046 BKN080 11/06 Q1029 RMK PP000=
SPZO Dic2014-030600Z 00000KT 9999 BKN046 SCT080 10/06 Q1029 RMK PP000=
SPZO Dic2014-030700Z 00000KT 9999 BKN046 SCT100 10/06 Q1029 RMK PP000=
SPZO Dic2014-030800Z VRB02KT 9999 BKN046 SCT100 10/06 Q1028 RMK PP000=
SPZO Dic2014-030900Z 07002KT 9999 BKN043 SCT080 10/07 Q1028 RMK PP000=
SPZO Dic2014-031000Z VRB02KT 9999 FEW030 SCT043 BKN080 10/06 Q1028 RMK PP000=
SPZO Dic2014-031100Z 08004KT 9999 FEW036 SCT046 BKN100 10/07 Q1030 RMK PP000=
SPZO Dic2014-031200Z 00000KT 9999 SCT050 OVC150 11/06 Q1031 NOSIG RMK HZ QUAD NE PP000=
SPZO Dic2014-031300Z VRB02KT 9999 FEW043 SCT080 OVC200 12/06 Q1031 NOSIG RMK HZ QUAD NE PP000=
SPZO Dic2014-031400Z VRB02KT 9999 FEW040 SCT080 OVC200 14/06 Q1031 NOSIG RMK PP000=
SPZO Dic2014-031500Z VRB03KT 9999 FEW046 SCT080 OVC200 15/05 Q1030 NOSIG RMK PP000=
SPZO Dic2014-031600Z VRB02KT 9999 BKN046 OVC200 18/05 Q1029 NOSIG RMK PP000=
SPZO Dic2014-031700Z VRB03KT 9999 BKN046 OVC200 19/05 Q1028 NOSIG RMK PP000=
SPZO Dic2014-031800Z 35011KT 300V030 9999 FEW040 SCT046 BKN100 18/05 Q1027 NOSIG RMK PP000=
SPZO Dic2014-031900Z VRB06KT 9999 FEW040TCU SCT046 BKN100 18/05 Q1026 TEMPO VCSH RMK PP000=
SPZO Dic2014-032000Z 09006KT 050V130 9999 FEW040TCU SCT050 BKN100 17/06 Q1026 TEMPO 9000 -RA RMK PP000=
SPZO Dic2014-032100Z 10012KT 060V130 9999 FEW040TCU SCT050 BKN100 16/06 Q1026=
SPZO Dic2014-032200Z 10014KT 070V140 9999 FEW040TCU SCT050 BKN100 15/06 Q1027 NOSIG RMK T.MAX 20.2 PP000=
SPZO Dic2014-032300Z 09014KT 060V120 9999 FEW040 SCT050 BKN100 12/04 Q1028 NOSIG RMK PP000=
SPZO Dic2014-040000Z 10004KT 020V140 9999 SCT050 BKN100 13/04 Q1029 RMK PP000=
SPZO Dic2014-040100Z 13005KT 080V170 9999 SCT050 BKN080 12/04 Q1031 RMK PP000=
SPZO Dic2014-040200Z 15003KT 9999 SCT043 BKN080 13/05 Q1032 RMK PP000=
SPZO Dic2014-040300Z VRB03KT 9999 SCT043 BKN080 13/04 Q1032 RMK PP000=
SPZO Dic2014-040400Z 27007KT 9999 SCT046 BKN100 12/03 Q1032 RMK PP000=
SPZO Dic2014-040500Z 27011KT 240V310 9999 SCT046 BKN100 10/04 Q1032 RMK PP000=
SPZO Dic2014-040600Z 26007KT 9999 SCT046 BKN100 10/04 Q1031 RMK PP000=
SPZO Dic2014-040700Z 08004KT 050V120 9999 SCT046 BKN100 09/04 Q1031 RMK PP000=
SPZO Dic2014-040800Z 06003KT 9999 SCT046 SCT100 09/04 Q1030 RMK PP000=
SPZO Dic2014-040900Z 09003KT 9999 SCT043 BKN080 18/05 Q1031 RMK PP000=
SPZO Dic2014-041000Z VRB02KT 9999 SCT040 BKN080 09/04 Q1031 RMK PP000=
SPZO Dic2014-041100Z 00000KT 9999 SCT040 BKN080 09/05 Q1032 RMK PP000=
SPZO Dic2014-041200Z VRB01KT 9999 SCT040 SCT100 11/05 Q1032 NOSIG RMK VIS QUAD E 9000 HZ PP000=
SPZO Dic2014-041300Z 10003KT 040V190 9999 SCT040 SCT100 13/05 Q1033 NOSIG RMK PP000=
SPZO Dic2014-041400Z 08004KT 020V140 9999 SCT040 SCT100 14/05 Q1033 NOSIG RMK PP000=
SPZO Dic2014-041500Z VRB02KT 9999 SCT043 SCT080 17/04 Q1032 NOSIG RMK PP000=
SPZO Dic2014-041600Z 00000KT 9999 SCT046 SCT080 18/03 Q1031 NOSIG RMK PP000=
SPZO Dic2014-041700Z VRB04KT 9999 FEW040 SCT050 19/04 Q1030 NOSIG RMK PP000=
SPZO Dic2014-041800Z 32009KT 250V360 9999 SCT043 SCT070 21/03 Q1029 NOSIG RMK PP000=
SPZO Dic2014-041900Z 35010KT 300V060 9999 SCT043 SCT070 21/03 Q1028 TEMPO VCSH FEW040TCU BKN100 RMK PP000=
SPZO Dic2014-042000Z 02013KT 330V060 9999 FEW040TCU SCT043 BKN080 19/03 Q1027 TEMPO VCSH RMK PP000=
SPZO Dic2014-042100Z 35014KT 310V050 9999 FEW040TCU SCT043 BKN080 17/02 Q1027 TEMPO -RA RMK PP000=
SPZO Dic2014-042200Z 36013KT 320V050 9999 FEW040TCU SCT050 BKN080 15/04 Q1028 NOSIG RMK TMAX 21.8 PP000=
SPZO Dic2014-042300Z 27011KT 220V300 9999 FEW040TCU BKN080 15/05 Q1028 NOSIG RMK PP000=
SPZO Dic2014-050000Z 30010KT 260V350 9999 SCT050 OVC200 14/04 Q1029 RMK PP000=
SPZO Dic2014-050100Z 00000KT 9999 SCT050 BKN200 13/05 Q1031 RMK PP000=
SPZO Dic2014-050200Z 08003KT 9999 SCT050 BKN200 11/05 Q1032 RMK PP000=
SPZO Dic2014-050300Z 26003KT 9999 BKN080 10/04 Q1032 RMK PP000=
SPZO Dic2014-050400Z 27004KT 9999 BKN080 10/04 Q1032 RMK PP000=
SPZO Dic2014-050500Z 00000KT 9999 SCT046 BKN080 11/05 Q1032 RMK PP000=
SPZO Dic2014-050600Z 00000KT 9999 -RA FEW036 SCT040 BKN080 11/07 Q1031 RMK PP004=
SPZO Dic2014-050700Z 09001KT 9999 SCT046 BKN080 10/07 Q1031 RMK PP000=
SPZO Dic2014-050800Z 00000KT 9999 SCT046 BKN080 09/06 Q1031 RMK PP000=
SPZO Dic2014-050900Z 00000KT 9999 FEW030 SCT046 SCT100 08/06 Q1031 RMK PP000=
SPZO Dic2014-051000Z 00000KT 9999 SCT040 08/06 Q1031 RMK PP000=
SPZO Dic2014-051100Z VRB02KT 9999 SCT040 08/05 Q1032 RMK HZ QUAD NE PP000=
SPZO Dic2014-051200Z VRB03KT 9999 SCT040 11/06 Q1033 NOSIG RMK QUAD E HZ PP000=
SPZO Dic2014-051300Z VRB01KT 9999 SCT043 15/05 Q1033 NOSIG RMK PP000=
SPZO Dic2014-051400Z 00000KT 9999 SCT043 17/04 Q1033 NOSIG RMK PP000=
SPZO Dic2014-051500Z VRB03KT 9999 SCT050 19/03 Q1032 NOSIG RMK PP000=
SPZO Dic2014-051600Z VRB04KT 9999 SCT050 20/00 Q1031 NOSIG RMK PP000=
SPZO Dic2014-051700Z VRB07KT 9999 SCT050 22/M01 Q1030 NOSIG RMK PP000=
SPZO Dic2014-051800Z 36011KT 320V090 9999 SCT050 SCT230 22/M02 Q1029 WS R28 TEMPO 02014G24KT RMK PP000=
SPZO Dic2014-051900Z 02013KT 320V050 9999 SCT050 SCT230 22/M02 Q1027 WS R28 TEMPO 02020G30KT RMK PP000=
SPZO Dic2014-052000Z 35012KT 280V050 9999 SCT050 SCT230 22/M01 Q1027 WS R28 NOSIG RMK PP000=
SPZO Dic2014-052100Z 03007KT 330V090 9999 FEW050 SCT230 21/00 Q1026 NOSIG RMK PP000=
SPZO Dic2014-052200Z 10010KT 060V140 9999 FEW050 SCT230 20/01 Q1026 NOSIG RMK TMAX 23.0 PP000=
SPZO Dic2014-052300Z 09009KT 060V140 9999 FEW050 SCT230 18/01 Q1027 NOSIG RMK PP000=
SPZO Dic2014-060000Z VRB02KT 9999 FEW050 16/00 Q1029 RMK PP000=
SPZO Dic2014-060100Z 27004KT 210V010 9999 FEW050 16/M01 Q1030 RMK PP000=
SPZO Dic2014-060200Z 09005KT 9999 FEW050 SCT100 14/01 Q1031 RMK PP000=
SPZO Dic2014-060300Z 26004KT 9999 FEW040 SCT080 13/02 Q1032 RMK PP000=
SPZO Dic2014-060400Z 17002KT 9999 SCT040 SCT080 14/01 Q1032 RMK PP000=
SPZO Dic2014-060500Z 00000KT 9999 SCT043 SCT080 12/02 Q1031 RMK PP000=
SPZO Dic2014-060600Z 00000KT 9999 BKN043 SCT080 13/02 Q1031 RMK PP000=
SPZO Dic2014-060700Z 28007KT 9999 BKN043 SCT080 12/05 Q1031 RMK PP000=
SPZO Dic2014-060800Z 26006KT 9999 BKN046 SCT100 11/05 Q1030 RMK PP000=
SPZO Dic2014-060900Z 11002KT 9999 FEW040 SCT100 11/06 Q1031 RMK PP000=
SPZO Dic2014-061000Z 26003KT 9999 FEW040 SCT230 09/05 Q1031 RMK PP000=
SPZO Dic2014-061100Z 26002KT 9999 FEW040 BKN080 10/05 Q1032 RMK PP000=
SPZO Dic2014-061200Z VRB01KT 9999 BKN050 SCT230 11/05 Q1032 NOSIG RMK PP000=
SPZO Dic2014-061300Z VRB02KT 9999 BKN050 SCT230 15/05 Q1032 NOSIG RMK PP000=
SPZO Dic2014-061400Z VRB02KT 9999 SCT050 SCT230 17/04 Q1032 NOSIG RMK PP000=
SPZO Dic2014-061500Z VRB04KT 9999 SCT050 SCT230 18/04 Q1031 NOSIG RMK PP000=
SPZO Dic2014-061600Z VRB03KT 9999 SCT050 SCT230 22/02 Q1030 NOSIG RMK PP000=
SPZO Dic2014-061700Z VRB05KT 9999 SCT050 SCT230 21/01 Q1028 NOSIG RMK PP000=
SPZO Dic2014-061800Z 00000KT 9999 FEW050 SCT080 24/M01 Q1027 NOSIG RMK PP000=
SPZO Dic2014-061900Z VRB03KT 9999 SCT050 SCT080 24/M02 Q1025 NOSIG RMK PP000=
SPZO Dic2014-062000Z 02010KT 330V130 9999 SCT050 SCT080 22/01 Q1024 TEMPO 28014G24 SCT040TCU BKN100 VCSH RMK PP000=
SPZO Dic2014-062100Z 35009KT 310V030 9999 VCSH SCT046TCU BKN080 19/04 Q1025 TEMPO -RA RMK PP000=
SPZO Dic2014-062200Z 02008KT 330V060 9999 -RA VCSH SCT046CB BKN080 15/07 Q1026 NOSIG RMK TMAX 24.4 PP008=
SPZO Dic2014-062300Z 27005KT 230V350 9999 SCT050CB BKN100 15/06 Q1026 TEMPO-RA RMK PP000=
SPZO Dic2014-070000Z 09004KT 070V130 9999 FEW040TCU SCT046 BKN080 15/07 Q1029 RMK VIS 9000 QUAD E RA PP000=
SPZO Dic2014-070100Z 30005KT 250V340 9000 -TSRA FEW040CB SCT046 OVC080 12/07 Q1032 RMK PP014=
SPZO Dic2014-070200Z 28008KT 250V320 9000 -RA SCT040 OVC070 11/07 Q1033 RMK PP018=
SPZO Dic2014-070300Z 00000KT 9999 -RA SCT040 OVC070 11/05 Q1033 RMK PPTRZ=
SPZO Dic2014-070400Z 09004KT 9999 FEW040 BKN080 11/06 Q1033 RMK PP000=
SPZO Dic2014-070500Z 08003KT 9999 FEW040 BKN080 10/06 Q1032 RERA RMK PP002=
SPZO Dic2014-070600Z 09004KT 9999 -RA FEW040 BKN080 10/06 Q1031 RMK PP002=
SPZO Dic2014-070700Z 00000KT 9999 SCT050 SCT100 09/06 Q1030 RMK PPTRZ=
SPZO Dic2014-070800Z 28003KT 9999 SCT050 08/05 Q1030 RMK PP000=
SPZO Dic2014-070900Z 00000KT 9999 FEW050 08/06 Q1030 RMK PP000=
SPZO Dic2014-071000Z 00000KT 9999 FEW050 06/04 Q1030 RMK PP000=
SPZO Dic2014-071100Z 00000KT 9999 FEW100 08/05 Q1031 RMK QUAD E BR PP000=
SPZO Dic2014-071200Z 00000KT 9999 FEW100 12/06 Q1032 RMK NOSIG QUAD E BR PP000=
SPZO Dic2014-071300Z VRB02KT 9999 FEW050 15/05 Q1032 RMK NOSIG QUAD E BR PP000=
SPZO Dic2014-071400Z 00000KT 9999 FEW050 16/04 Q1031 NOSIG RMK QUAD E HZ PP000=
SPZO Dic2014-071500Z VRB02KT 9999 SCT050 18/04 Q1031 NOSIG RMK PP000=
SPZO Dic2014-071600Z 25005KT 210V300 9999 SCT050 20/04 Q1029 NOSIG RMK PP000=
SPZO Dic2014-071700Z VRB03KT 9999 SCT050 22/03 Q1027 NOSIG RMK PP000=
SPZO Dic2014-071800Z VRB05KT 9999 SCT050 24/01 Q1025 NOSIG RMK PP000=
SPZO Dic2014-071900Z 10015G30KT 030V150 9999 TS SCT040CB BKN070 21/04 Q1025 TEMPO 9000 -RA RMK VIS 8000E DU PP000=
SPZO Dic2014-072000Z VRB06KT 9999 SCT050 BKN100 16/05 Q1026 NOSIG RMK PP000=
SPZO Dic2014-072100Z 09008KT 050V160 9999 SCT060 BKN150 16/06 Q1026 NOSIG RMK PP000=
SPZO Dic2014-072200Z 10008KT 9999 SCT060 BKN150 15/06 Q1027 NOSIG RMK TMAX 25.1 PP000=
SPZO Dic2014-072300Z 07003KT 010V150 9999 -RA SCT050 OVC150 14/06 Q1028 TEMPO 9000 RMK PP004=
SPZO Dic2014-080000Z 00000KT 9999 FEW040 SCT046TCU BKN100 14/07 Q1029 RMK PP004=
SPZO Dic2014-080100Z 23004KT 9999 -RA FEW040 SCT046 BKN100 12/06 Q1029 RMK PP006=
SPZO Dic2014-080200Z 10004KT 9999 SCT046 SCT100 12/07 Q1031 RMK PPTRZ=
SPZO Dic2014-080300Z 26003KT 9999 SCT050 SCT100 11/06 Q1031 RMK PP000=
SPZO Dic2014-080400Z 07004KT 9999 FEW060 SCT100 11/07 Q1031 RMK PP000=
SPZO Dic2014-080500Z VRB02KT 9999 FEW060 SCT100 11/07 Q1030 RMK PP000=
SPZO Dic2014-080600Z VRB01KT 9999 FEW060 SCT100 10/07 Q1030 RMK PP000=
SPZO Dic2014-080700Z 00000KT 9999 FEW060 08/05 Q1030 RMK PP000=
SPZO Dic2014-080800Z 00000KT 9999 FEW060 08/06 Q1029 RMK PP000=
SPZO Dic2014-080900Z 00000KT 9999 FEW060 07/05 Q1029 RMK PP000=
SPZO Dic2014-081000Z 00000KT 9999 FEW050 07/05 Q1029 RMK VIS 9000 QUAD NE BR PP000=
SPZO Dic2014-081100Z 00000KT 9999 FEW040 07/05 Q1030 RMK QUAD NE BR PP000=
SPZO Dic2014-081200Z 08003KT 030V130 9999 FEW040 11/06 Q1031 NOSIG RMK QUAD NE HZ PP000=
SPZO Dic2014-081300Z 04003KT 330V100 9999 FEW040 SCT080 13/05 Q1031 NOSIG RMK PP000=
SPZO Dic2014-081400Z VRB02KT 9999 FEW040 SCT080 14/04 Q1030 NOSIG RMK PP000=
SPZO Dic2014-081500Z VRB02KT 9999 FEW046 SCT080 17/04 Q1030 NOSIG RMK PP000=
SPZO Dic2014-081600Z VRB04KT 9999 SCT046 19/05 Q1029 NOSIG RMK PP000=
SPZO Dic2014-081700Z VRB02KT 9999 SCT046 21/02 Q1027 NOSIG RMK PP000=
SPZO Dic2014-081800Z 35007KT 260V060 9999 SCT050 23/04 Q1026 TEMPO VCSH RMK PP000=
SPZO Dic2014-081900Z VRB05KT 9999 SCT050 23/03 Q1024 NOSIG RMK PP000=
SPZO Dic2014-082000Z 02008KT 330V120 9999 FEW040TCU SCT050 21/03 Q1024 TEMPO VCSH RMK PP000=
SPZO Dic2014-082100Z 33006KT 290V030 9999 FEW040 SCT050 21/05 Q1023 NOSIG RMK PP000=
SPZO Dic2014-082200Z VRB04KT 9999 SCT050 SCT230 20/05 Q1023 NOSIG RMK T.MAX 23.4 PP000=
SPZO Dic2014-082300Z 36012KT 320V030 9999 SCT050 SCT230 18/05 Q1024 NOSIG RMK PP000=
SPZO Dic2014-090000Z 35004KT 280V090 9999 SCT050 BKN100 17/04 Q1025 RMK PP000=
SPZO Dic2014-090100Z VRB05KT 9999 SCT050 BKN100 16/05 Q1026 RMK PP000=
SPZO Dic2014-090200Z 05010G21KT 340V120 9999 SCT050 BKN100 15/05 Q1028 RMK PP000=
SPZO Dic2014-090300Z VRB06KT 9999 SCT050 BKN100 14/04 Q1029 RMK PP000=
SPZO Dic2014-090400Z 12007KT 080V180 9999 SCT050 BKN100 13/06 Q1030 RMK PP000=
SPZO Dic2014-090500Z 09009KT 8000 -RA FEW030 SCT040 BKN080 10/08 Q1032 RMK PP048=
SPZO Dic2014-090600Z VRB03KT 6000 RA FEW025 SCT040 BKN070 09/06 Q1031 RMK PP070=
SPZO Dic2014-090700Z 26007KT 8000 -RA FEW025 SCT040 BKN070 08/05 Q1031 RMK PP034=
SPZO Dic2014-090800Z 28003KT 9999 FEW025 SCT040 BKN070 08/05 Q1030 RERA RMK PPTRZ=
SPZO Dic2014-090900Z 26006KT 9999 FEW030 SCT040 BKN070 08/04 Q1030 RMK PP000=
SPZO Dic2014-091000Z VRB02KT 9999 FEW030 SCT040 BKN070 09/04 Q1030 RMK PP000=
SPZO Dic2014-091100Z 00000KT 9999 FEW025 SCT036 OVC070 09/04 Q1031 RMK PP000=
SPZO Dic2014-091200Z 00000KT 9999 FEW030 SCT046 BKN100 10/04 Q1031 NOSIG RMK PP000=
SPZO Dic2014-091300Z 00000KT 9999 FEW033 SCT050 12/04 Q1031 NOSIG RMK PP000=
SPZO Dic2014-091400Z 09004KT 050V130 9999 FEW033 SCT050 BKN100 12/05 Q1032 NOSIG RMK PP000=
SPZO Dic2014-091500Z VRB01KT 9999 FEW040 SCT050 BKN070 15/05 Q1031 NOSIG RMK PP000=
SPZO Dic2014-091600Z VRB03KT 9999 FEW040 SCT050 BKN070 16/04 Q1030 NOSIG RMK PP000=
SPZO Dic2014-091700Z VRB04KT 9999 SCT050 18/05 Q1029 NOSIG RMK PP000=
SPZO Dic2014-091800Z 00000KT 9999 SCT050 20/02 Q1027 NOSIG RMK PP000=
SPZO Dic2014-091900Z VRB03KT 9999 FEW040TCU SCT050 22/04 Q1025 TEMPO 02014KT SCT040TCU SCT100 RMK PP000=
SPZO Dic2014-092000Z 36010KT 310V050 9999 FEW040TCU SCT050 22/05 Q1024 NOSIG RMK PP000=
SPZO Dic2014-092100Z 35007KT 250V060 9999 VCSH FEW040TCU SCT050 BKN080 21/04 Q1024 TEMPO 10016KT 7000E -TSRA SCT036CB BKN070 RMK PP000=
SPZO Dic2014-092200Z 09014KT 050V140 9999 VCTS SCT040CB BKN080 16/07 Q1025 TEMPO -RA RMK TMAX 23.5 QUAD E TSRA PP000=
SPZO Dic2014-092300Z 28004KT 210V350 9999 VCTS SCT043CB BKN080 16/05 Q1025 TEMPO VCSH RMK PP000=
SPZO Dic2014-100000Z 11003KT 090V150 9999 SCT040 SCT080 14/06 Q1026 RMK PP000=
SPZO Dic2014-100100Z 01003KT 9999 SCT040 SCT080 14/05 Q1027 RMK PP000=
SPZO Dic2014-100200Z 00000KT 9999 FEW050 BKN200 12/06 Q1028 RMK PP000=
SPZO Dic2014-100300Z 00000KT 9999 FEW050 BKN100 12/06 Q1029 RMK PP000=
SPZO Dic2014-100400Z 00000KT 9999 FEW050 BKN100 12/06 Q1029 RMK PP000=
SPZO Dic2014-100500Z VRB02KT 9999 BKN150 12/07 Q1029 RMK PP000=
SPZO Dic2014-100600Z VRB01KT 9999 BKN150 12/07 Q1028 RMK PP000=
SPZO Dic2014-100700Z 25003KT 9999 SCT050 11/06 Q1028 RMK PP000=
SPZO Dic2014-100800Z VRB01KT 9999 FEW050 10/06 Q1027 RMK PP000=
SPZO Dic2014-100900Z 25003KT 9999 FEW050 09/05 Q1028 RMK PP000=
SPZO Dic2014-101000Z VRB03KT 9999 SCT050 SCT080 10/05 Q1028 RMK PP000=
SPZO Dic2014-101100Z 30004KT 250V340 9999 SCT050 BKN080 10/05 Q1028 RMK PP000=
SPZO Dic2014-101200Z VRB02KT 9999 SCT046 SCT100 13/06 Q1030 NOSIG RMK QUAD E HZ PP000=
SPZO Dic2014-101300Z 08004KT 030V140 9999 FEW046 SCT230 15/05 Q1030 NOSIG RMK QUAD E HZ PP000=
SPZO Dic2014-101400Z VRB04KT 9999 FEW046 SCT150 18/02 Q1030 NOSIG RMK PP000=
SPZO Dic2014-101500Z VRB03KT 9999 SCT046 19/03 Q1029 NOSIG RMK PP000=
SPZO Dic2014-101600Z VRB03KT 9999 SCT050 SCT100 20/01 Q1028 NOSIG RMK PP000=
SPZO Dic2014-101700Z 07009KT 030V120 9999 FEW040 SCT046 BKN100 19/01 Q1027 NOSIG RMK QUAD E RA PP000=
SPZO Dic2014-101800Z VRB06KT 9999 VCSH FEW040TCU BKN050 20/01 Q1026 NOSIG RMK PP000=
SPZO Dic2014-101900Z 08006KT 040V140 9999 FEW040TCU BKN050 15/04 Q1026 RERA TEMPO 8000 -RA RMK PP002=
SPZO Dic2014-102000Z 28010KT 250V310 9999 FEW040 BKN050 18/04 Q1026 TEMPO 28014KT VCSH RMK PP000=
SPZO Dic2014-102100Z 26008KT 230V320 9999 FEW040 SCT050 BKN080 19/04 Q1026 NOSIG RMK PP000=
SPZO Dic2014-102200Z 28013KT 250V320 9999 BKN050 SCT100 17/03 Q1026 NOSIG RMK TX22.2 PP000=
SPZO Dic2014-102300Z 27006KT 240V320 9999 SCT050 SCT100 15/03 Q1027 NOSIG RMK PP000=
SPZO Dic2014-110000Z 00000KT 9999 SCT050 BKN100 14/04 Q1027 RMK PP000=
SPZO Dic2014-110100Z 07003KT 9999 SCT060 BKN100 14/05 Q1028 RMK PP000=
SPZO Dic2014-110200Z 06004KT 9999 SCT050 BKN100 12/05 Q1030 RMK PP000=
SPZO Dic2014-110300Z VRB02KT 9999 SCT050 SCT100 11/05 Q1030 RMK PP000=
SPZO Dic2014-110400Z 07003KT 9999 SCT040 BKN080 10/05 Q1030 RMK PP000=
SPZO Dic2014-110500Z 00000KT 9999 SCT050 SCT100 10/05 Q1030 RMK PP000=
SPZO Dic2014-110600Z 00000KT 9999 SCT050 SCT100 10/05 Q1028 RMK PP000=
SPZO Dic2014-110700Z 05002KT 9999 SCT050 09/05 Q1029 RMK PP000=
SPZO Dic2014-110800Z 00000KT 9999 SCT040 SCT080 08/04 Q1029 RMK PP000=
SPZO Dic2014-110900Z 28003KT 9999 FEW050 BKN100 07/04 Q1029 RMK PP000=
SPZO Dic2014-111000Z 00000KT 9999 SCT230 07/04 Q1030 RMK PP000=
SPZO Dic2014-111100Z 00000KT 9999 NSC 08/04 Q1031 RMK VIS 9000E HZ PP000=
SPZO Dic2014-111200Z 00000KT 9999 FEW060 12/05 Q1031 TEMPO FEW030 SCT050 RMK HZ PP000=
SPZO Dic2014-111300Z VRB02KT 9999 SCT060 13/05 Q1032 NOSIG RMK HZ PP000=
SPZO Dic2014-111400Z VRB02KT 9999 BKN060 17/05 Q1032 NOSIG RMK PP000=
SPZO Dic2014-111500Z VRB05KT 9999 SCT060 18/05 Q1031 NOSIG RMK PP000=
SPZO Dic2014-111600Z VRB03KT 9999 SCT060 19/04 Q1030 NOSIG RMK PP000=
SPZO Dic2014-111700Z VRB06G17KT 9999 BKN060 20/01 Q1029 NOSIG RMK PP000=
SPZO Dic2014-111800Z 36010KT 300V060 9999 FEW036TCU SCT050 BKN100 20/M01 Q1028 NOSIG RMK PP000=
SPZO Dic2014-111900Z 01010KT 330V050 9999 SCT050 SCT100 21/M01 Q1027 NOSIG RMK PP000=
SPZO Dic2014-112000Z 02008KT 330V110 9999 FEW040TCU SCT050 BKN100 21/01 Q1027 TEMPO 02016G26 RMK PP000=
SPZO Dic2014-112100Z 01008KT 300V070 9999 SCT050 SCT100 21/02 Q1026 NOSIG RMK PP000=
SPZO Dic2014-112200Z 36012KT 330V050 9999 SCT050 SCT100 19/01 Q1026 NOSIG RMK TX22.6 PP000=
SPZO Dic2014-112300Z 36008KT 320V060 9999 SCT050 BKN100 18/02 Q1027 NOSIG RMK PP000=
SPZO Dic2014-120000Z VRB05KT 9999 SCT043TCU BKN080 16/03 Q1028 RMK PP000=
SPZO Dic2014-120100Z 12006KT 070V180 9999 SCT043 BKN080 15/05 Q1030 RMK PP000=
SPZO Dic2014-120200Z 24007KT 200V290 9999 -RA SCT040 BKN070 13/05 Q1031 RMK PP002=
SPZO Dic2014-120300Z 23004KT 200V270 9999 FEW040 BKN100 13/05 Q1032 RMK PPTRZ=
SPZO Dic2014-120400Z 25004KT 200V290 9999 FEW040 BKN100 12/06 Q1032 RMK PP000=
SPZO Dic2014-120500Z 24003KT 210V270 9999 FEW040 BKN100 12/06 Q1032 RMK PP000=
SPZO Dic2014-120600Z 00000KT 9999 -RA FEW040 SCT046 BKN080 09/07 Q1032 RMK PP008=
SPZO Dic2014-120700Z 00000KT 9999 BKN050 SCT080 10/07 Q1031 RMK PPTRZ=
SPZO Dic2014-120800Z 05003KT 9999 BKN050 SCT080 09/07 Q1031 RMK PP000=
SPZO Dic2014-120900Z 00000KT 9999 SCT050 SCT080 09/06 Q1031 RMK PP000=
SPZO Dic2014-121000Z 08005KT 050V120 9999 FEW050 SCT100 08/06 Q1032 RMK QUAD E BR PP000=
SPZO Dic2014-121100Z 00000KT 9999 FEW040 SCT100 08/06 Q1033 RMK QUAD E BR PP000=
SPZO Dic2014-121200Z 00000KT 9999 SCT040 SCT100 12/06 Q1033 TEMPO FEW020 SCT040 RMK PP000=
SPZO Dic2014-121300Z 00000KT 9999 SCT040 SCT100 13/06 Q1033 NOSIG RMK PP000=
SPZO Dic2014-121400Z VRB02KT 9999 SCT040 SCT100 15/05 Q1033 NOSIG RMK PP000=
SPZO Dic2014-121500Z VRB04KT 9999 SCT040 SCT100 18/05 Q1033 NOSIG RMK PP000=
SPZO Dic2014-121600Z VRB04KT 9999 SCT040 SCT100 19/03 Q1031 NOSIG RMK PP000=
SPZO Dic2014-121700Z VRB02KT 9999 SCT043 SCT100 20/01 Q1030 NOSIG RMK PP000=
SPZO Dic2014-121800Z VRB02KT 9999 FEW040 SCT070 22/M01 Q1029 NOSIG RMK PP000=
SPZO Dic2014-121900Z 26005KT 9999 SCT060 23/M01 Q1026 NOSIG RMK PP000=
SPZO Dic2014-122000Z 30007KT 220V360 9999 FEW040 SCT070 24/01 Q1026 NOSIG RMK PP000=
SPZO Dic2014-122100Z 04012KT 9999 -RA FEW040TCU SCT060 BKN100 20/04 Q1025 NOSIG RMK PPTRZ=
SPZO Dic2014-122200Z 01009KT 310V080 9999 FEW040TCU SCT050 BKN100 19/02 Q1024 NOSIG RMK PP010=
SPZO Dic2014-122300Z 10008KT 070V170 9999 FEW050 SCT080 BKN200 17/05 Q1026 NOSIG RMK PP000=
SPZO Dic2014-130000Z 35006KT 290V060 9999 SCT050 BKN100 16/05 Q1027 RMK PP000=
SPZO Dic2014-130100Z 30008KT 250V350 9999 TS FEW040CB BKN050 16/06 Q1029 RMK PP000=
SPZO Dic2014-130200Z 36008KT 9999 -RA SCT036 BKN046 10/05 Q1033 RMK PP030=
SPZO Dic2014-130300Z 26002KT 9999 -RA SCT033 BKN040 09/05 Q1034 RMK PP008=
SPZO Dic2014-130400Z 00000KT 9999 SCT033 BKN043 10/06 Q1033 RMK PP000=
SPZO Dic2014-130500Z 00000KT 9999 -RA OVC040 09/06 Q1033 RMK PP008=
SPZO Dic2014-130600Z 29007KT 9999 FEW040 SCT100 09/05 Q1031 RMK PP000=
SPZO Dic2014-130700Z 29005KT 9999 SCT043 SCT100 09/05 Q1031 RMK PP000=
SPZO Dic2014-130800Z 28003KT 9999 SCT040 SCT080 09/05 Q1030 RMK PP000=
SPZO Dic2014-130900Z 00000KT 9999 SCT040 SCT080 09/05 Q1030 RMK PP000=
SPZO Dic2014-131000Z 00000KT 9999 FEW030 SCT036 BKN080 09/05 Q1031 RMK PP000=
SPZO Dic2014-131100Z 08002KT 9999 FEW030 SCT040 BKN080 10/06 Q1032 RMK PP000=
SPZO Dic2014-131200Z 00000KT 9999 FEW040 BKN080 11/05 Q1032 NOSIG RMK PP000=
SPZO Dic2014-131300Z 25004KT 210V310 9999 FEW030 SCT043 SCT080 13/05 Q1032 NOSIG RMK PP000=
SPZO Dic2014-131400Z 08005KT 230V330 9999 FEW033 SCT040 SCT080 14/04 Q1032 NOSIG RMK PP000=
SPZO Dic2014-131500Z VRB02KT 9999 SCT040 16/04 Q1031 NOSIG RMK PP000=
SPZO Dic2014-131600Z 03004KT 240V030 9999 SCT040 19/04 Q1030 NOSIG RMK PP000=
SPZO Dic2014-131700Z VRB04KT 9999 SCT050 20/03 Q1028 NOSIG RMK PP000=
SPZO Dic2014-131800Z VRB03KT 9999 FEW040TCU SCT046 BKN080 19/02 Q1027 NOSIG RMK PP000=
SPZO Dic2014-131900Z 25005KT 200V350 9999 FEW043 SCT050 BKN100 17/03 Q1027 RMK NOSIG PP000=
SPZO Dic2014-132000Z 09008KT 060V120 9999 SCT050 SCT100 18/04 Q1025 NOSIG RMK PP000=
SPZO Dic2014-132100Z 12007KT 080V150 9999 SCT050 SCT100 18/04 Q1025 NOSIG RMK PP000=
SPZO Dic2014-132200Z 10008KT 060V150 9999 SCT050 BKN100 17/04 Q1025 NOSIG RMK TX20.7 PP000=
SPZO Dic2014-132300Z 11006KT 080V150 9999 SCT050 SCT100 16/04 Q1025 NOSIG RMK PP000=
SPZO Dic2014-140000Z VRB02KT 9999 SCT050 BKN100 15/04 Q1027 RMK PP000=
SPZO Dic2014-140100Z 00000KT 9999 SCT050 BKN100 12/06 Q1028 RMK PP000=
SPZO Dic2014-140200Z VRB02KT 9999 SCT050 BKN080 13/06 Q1029 RMK PP000=
SPZO Dic2014-140300Z 14006KT 060V230 9999 SCT050 BKN080 15/04 Q1030 RMK PP000=
SPZO Dic2014-140400Z VRB02KT 9000 -RA SCT046 BKN080 14/05 Q1031 RMK PPTRZ=
SPZO Dic2014-140500Z VRB02KT 9000 -RA SCT046 BKN080 12/06 Q1030 RMK PP002=
SPZO Dic2014-140600Z 00000KT 9999 SCT046 BKN080 12/07 Q1029 RERA RMK PPTRZ=
SPZO Dic2014-140700Z 00000KT 9999 SCT046 BKN080 12/07 Q1028 RMK -RA QUAD NE PP000=
SPZO Dic2014-140800Z 00000KT 9999 SCT046 BKN080 12/06 Q1028 RMK PP000=
SPZO Dic2014-140900Z 00000KT 9999 SCT046 BKN080 11/06 Q1028 RMK PP000=
SPZO Dic2014-141000Z VRB01KT 9999 SCT046 BKN080 10/06 Q1028 RMK PP000=
SPZO Dic2014-141100Z 08003KT 9999 FEW040 SCT046 BKN080 10/06 Q1029 RMK PP000=
SPZO Dic2014-141200Z VRB03KT 9999 BKN040 SCT070 11/07 Q1030 NOSIG RMK PP000=
SPZO Dic2014-141300Z VRB03KT 9999 BKN040 SCT070 13/07 Q1031 NOSIG RMK PP000=
SPZO Dic2014-141400Z VRB02KT 9999 SCT040 SCT080 16/05 Q1031 NOSIG RMK PP000=
SPZO Dic2014-141500Z VRB03KT 9999 SCT046 BKN100 17/04 Q1030 NOSIG RMK PP000=
SPZO Dic2014-141600Z 06005KT 010V140 9999 SCT050 SCT100 17/04 Q1030 NOSIG RMK PP000=
SPZO Dic2014-141700Z VRB09KT 9999 SCT050 BKN100 16/03 Q1029 NOSIG RMK PP000=
SPZO Dic2014-141800Z 35008KT 290V080 9999 SCT050 BKN100 19/02 Q1028 NOSIG RMK PP000=
SPZO Dic2014-141900Z 35012KT 300V030 9999 SCT043 BKN100 18/01 Q1027 NOSIG RMK PP000=
SPZO Dic2014-142000Z 34008KT 260V030 9999 SCT043 BKN100 19/01 Q1025 NOSIG RMK PP000=
SPZO Dic2014-142100Z 36007KT 300V060 9999 SCT043 BKN100 19/01 Q1025 NOSIG RMK PP000=
SPZO Dic2014-142200Z 05006KT 020V090 9999 SCT043 BKN100 18/02 Q1024 NOSIG RMK TX19.8 PP000=
SPZO Dic2014-142300Z 10008KT 070V140 9999 SCT043 SCT100 17/03 Q1025 NOSIG RMK PP000=
SPZO Dic2014-150000Z 10007KT 9999 SCT040 SCT100 15/03 Q1027 RMK PP000=
SPZO Dic2014-150100Z 09004KT 9999 SCT050 14/03 Q1028 RMK PP000=
SPZO Dic2014-150200Z 26004KT 9999 SCT050 SCT080 14/05 Q1029 RMK PP000=
SPZO Dic2014-150300Z 25003KT 9999 SCT050 SCT080 14/04 Q1030 RMK PP000=
SPZO Dic2014-150400Z VRB02KT 9999 -RA FEW040 SCT046 BKN080 13/05 Q1030 RMK PPTRZ=
SPZO Dic2014-150500Z 26004KT 9999 FEW040 SCT046 BKN080 12/07 Q1029 RMK PP002=
SPZO Dic2014-150600Z VRB01KT 9999 -RA FEW036 SCT046 BKN080 11/07 Q1029 RMK PP002=
SPZO Dic2014-150700Z 00000KT 9999 FEW036 SCT046 BKN080 11/05 Q1029 RMK PP000=
SPZO Dic2014-150800Z 25006KT 9999 FEW020 SCT040 BKN080 10/06 Q1029 RMK PP000=
SPZO Dic2014-150900Z 09004KT 9999 -RA FEW020 SCT036 BKN070 09/06 Q1029 RMK PP008=
SPZO Dic2014-151000Z 09004KT 9999 -RA FEW020 SCT036 BKN080 08/06 Q1030 RMK CLNG BLW 1200M PP004=
SPZO Dic2014-151100Z 00000KT 9999 FEW015 SCT036 BKN080 09/06 Q1031 RERA RMK CLNG BLW 1200M PP002=
SPZO Dic2014-151200Z 00000KT 9999 FEW020 SCT036 BKN080 10/06 Q1031 TEMPO SCT040 SCT080 RMK PP000=
SPZO Dic2014-151300Z 00000KT 9999 FEW020 SCT036 BKN080 12/06 Q1032 NOSIG RMK PP000=
SPZO Dic2014-151400Z 00000KT 9999 FEW020 SCT036 BKN080 12/05 Q1032 NOSIG RMK PP000=
SPZO Dic2014-151500Z VRB03KT 9999 FEW020 SCT040 BKN080 15/05 Q1032 NOSIG RMK PP000=
SPZO Dic2014-151600Z 10004KT 060V150 9999 FEW030 SCT040 BKN080 16/05 Q1031 NOSIG RMK PP000=
SPZO Dic2014-151700Z VRB02KT 9999 BKN043 BKN080 17/05 Q1030 NOSIG RMK PP000=
SPZO Dic2014-151800Z VRB02KT 9999 BKN050 SCT070 19/05 Q1029 NOSIG RMK PP000=
SPZO Dic2014-151900Z 27007KT 200V360 9999 SCT050 SCT070 20/06 Q1027 NOSIG RMK PP000=
SPZO Dic2014-152000Z 32005KT 260V020 9999 SCT050 SCT070 19/03 Q1026 NOSIG RMK PP000=
SPZO Dic2014-152100Z 35006KT 290V040 9999 SCT050 SCT070 18/04 Q1026 NOSIG RMK PP000=
SPZO Dic2014-152200Z 36010KT 330V050 9999 SCT050 SCT070 17/04 Q1026 NOSIG RMK TX20.7 PP000=
SPZO Dic2014-152300Z 17004KT 080V230 9999 -RA FEW040TCU SCT050 BKN070 14/08 Q1027 TEMPO 9000 RMK PP004=
SPZO Dic2014-160000Z 08003KT 9999 BKN040 SCT080 13/09 Q1028 RMK PP002=
SPZO Dic2014-160100Z 00000KT 9999 SCT043 BKN080 13/08 Q1030 RMK PP000=
SPZO Dic2014-160200Z 09002KT 9999 SCT043 BKN080 13/08 Q1031 RMK PP000=
SPZO Dic2014-160300Z 16010KT 9999 -RA BKN040 SCT050 11/04 Q1033 RMK PP002=
SPZO Dic2014-160400Z 00000KT 9000 -RA OVC040 09/06 Q1033 RMK PP016=
SPZO Dic2014-160500Z 24004KT 9999 BKN040 SCT050 09/05 Q1032 RMK PP002=
SPZO Dic2014-160600Z 00000KT 9999 BKN040 SCT080 10/06 Q1031 RMK PP000=
SPZO Dic2014-160700Z 06003KT 9999 BKN043 SCT080 09/06 Q1031 RMK PP000=
SPZO Dic2014-160800Z 00000KT 9999 BKN046 SCT080 09/06 Q1031 RMK PP000=
SPZO Dic2014-160900Z 11002KT 9999 BKN043 SCT080 10/06 Q1031 RMK PP000=
SPZO Dic2014-161000Z 06002KT 9000 FEW030 SCT036 BKN070 09/06 Q1031 RMK PP000=
SPZO Dic2014-161100Z 10003KT 9000 VCSH FEW020 SCT036 BKN080 10/07 Q1032 RMK PP000=
SPZO Dic2014-161200Z VRB02KT 9000 FEW010 SCT040 BKN070 10/07 Q1033 TEMPO -DZ RMK BR PP000=
SPZO Dic2014-161300Z VRB03KT 9000 FEW010 SCT040 BKN070 11/06 Q1034 NOSIG RMK HZ PP000=
SPZO Dic2014-161400Z VRB03KT 9999 FEW015 SCT040 BKN070 12/06 Q1034 NOSIG RMK PP000=
SPZO Dic2014-161500Z VRB02KT 9999 FEW020 SCT040 BKN070 14/06 Q1034 TEMPO FEW050 BKN100 RMK PP000=
SPZO Dic2014-161600Z 06005KT 340V120 9999 FEW025 SCT040 BKN080 15/06 Q1033 NOSIG RMK PP000=
SPZO Dic2014-161700Z VRB03KT 9999 FEW025TCU SCT040 BKN080 17/06 Q1031 TEMPO VCSH RMK PP000=
SPZO Dic2014-161800Z 25007KT 200V330 9999 VCSH FEW040TCU SCT046 BKN100 18/04 Q1030 NOSIG RMK PP000=
SPZO Dic2014-161900Z VRB03KT 9999 FEW040TCU SCT046 BKN100 19/06 Q1028 TEMPO VCSH RMK PP000=
SPZO Dic2014-162000Z 07007KT 010V110 9999 VCSH FEW040TCU SCT050 BKN100 18/06 Q1027 NOSIG RMK VIS 9000E RA PP000=
SPZO Dic2014-162100Z 10009KT 050V150 9999 VCSH FEW040TCU SCT050 BKN100 17/06 Q1027 TEMPO -RA RMK CB QUAD SW PP000=
SPZO Dic2014-162200Z 27010KT 240V310 9999 FEW040TCU SCT050 BKN100 16/06 Q1028 NOSIG RMK TX20.4 PP000=
SPZO Dic2014-162300Z 26007KT 230V290 9999 VCSH FEW040TCU SCT050 BKN080 15/05 Q1029 NOSIG RMK PP000=
SPZO Dic2014-170000Z 26009KT 210V290 9999 VCSH SCT043 BKN080 15/05 Q1029 RMK QUAD E RA PP000=
SPZO Dic2014-170100Z 17014KT 100V240 9000 -TSRA SCT040CB OVC060 10/04 Q1033 RMK VIS 8000 QUAD E RA PP040=
SPZO Dic2014-170200Z VRB01KT 9000 -TSRA SCT036CB OVC060 09/06 Q1034 RMK VIS 8000 QUAD E RA PP020=
SPZO Dic2014-170300Z 00000KT 9000 RA SCT036 OVC060 09/06 Q1035 RMK PP030=
SPZO Dic2014-170400Z 09003KT 8000 -RA SCT036 OVC060 09/06 Q1035 RMK PP022=
SPZO Dic2014-170500Z 00000KT 8000 RA FEW020 SCT036 OVC070 07/04 Q1035 RMK PP048=
SPZO Dic2014-170600Z 00000KT 8000 RA FEW020 SCT030 OVC070 06/05 Q1034 RMK PP044=
SPZO Dic2014-170700Z 26003KT 9000 -RA FEW020 SCT030 OVC070 07/04 Q1033 RMK PP024=
SPZO Dic2014-170800Z 00000KT 9999 FEW020 SCT030 BKN070 07/04 Q1032 RMK PPTRZ=
SPZO Dic2014-170900Z 00000KT 9999 FEW020 SCT036 BKN070 07/04 Q1032 RERA RMK PP002=
SPZO Dic2014-171000Z 00000KT 9999 FEW020 SCT036 BKN070 07/04 Q1032 RMK PP000=
SPZO Dic2014-171100Z 00000KT 9999 FEW020 SCT036 BKN080 07/05 Q1033 RMK PP000=
SPZO Dic2014-171200Z VRB01KT 9999 FEW025 SCT036 BKN070 09/04 Q1033 NOSIG RMK PP000=
SPZO Dic2014-171300Z VRB01KT 9999 FEW020 SCT036 BKN070 10/04 Q1034 NOSIG RMK PP000=
SPZO Dic2014-171400Z VRB02KT 9999 FEW025 SCT036 BKN070 12/05 Q1034 NOSIG RMK PP000=
SPZO Dic2014-171500Z VRB02KT 9999 FEW030 SCT040 BKN080 14/06 Q1033 NOSIG RMK PP000=
SPZO Dic2014-171600Z VRB03KT 9999 FEW033 SCT040 BKN080 16/06 Q1032 NOSIG RMK PP000=
SPZO Dic2014-171700Z VRB02KT 9999 FEW033 SCT040 BKN080 19/07 Q1030 NOSIG RMK PP000=
SPZO Dic2014-171800Z 27012KT 230V300 9999 -RA VCSH FEW036 SCT040TCU BKN080 16/06 Q1029 NOSIG RMK PP002=
SPZO Dic2014-171900Z 26007KT 220V300 9999 VCSH FEW036TCU SCT046 BKN080 17/08 Q1028 NOSIG RMK PP000=
SPZO Dic2014-172000Z VRB08KT 9000 VCSH FEW036TCU SCT046 BKN080 14/07 Q1028 NOSIG RMK VIS 8000E PP000=
SPZO Dic2014-172100Z 07007KT 9999 VCSH SCT040 SCT080 OVC100 12/08 Q1028 NOSIG RMK PP000=
SPZO Dic2014-172200Z 09004KT 030V140 9999 -RA VCSH FEW036 OVC100 11/07 Q1028 NOSIG RMK TMAX 19.2 PP004=
SPZO Dic2014-172300Z VRB01KT 9999 -RA FEW036 SCT080 OVC150 12/08 Q1029 NOSIG RMK PP002=
SPZO Dic2014-180000Z 00000KT 8000 -DZ FEW033 SCT050 BKN080 12/08 Q1030 RMK PP002=
SPZO Dic2014-180100Z 09003KT 9000 -DZ FEW033 SCT046 BKN080 11/08 Q1031 RMK PP002=
SPZO Dic2014-180200Z 00000KT 9999 FEW033 SCT046 BKN080 11/08 Q1031 REDZ RMK PP002=
SPZO Dic2014-180300Z 23006KT 190V260 9999 FEW033 SCT043 BKN080 12/05 Q1032 RMK PP000=
SPZO Dic2014-180400Z 23005KT 200V270 9999 FEW033 SCT043 BKN080 11/06 Q1032 RMK PP000=
SPZO Dic2014-180500Z 27006KT 240V320 9999 FEW033 SCT040 BKN070 11/06 Q1031 RMK PP000=
SPZO Dic2014-180600Z 00000KT 9000 -RA FEW030 SCT040 BKN070 10/06 Q1031 RMK PP004=
SPZO Dic2014-180700Z VRB03KT 9000 -DZ FEW030 SCT040 BKN070 09/06 Q1030 RMK PP002=
SPZO Dic2014-180800Z 00000KT 9999 FEW030 SCT040 BKN070 10/06 Q1030 REDZ RMK PPTRZ=
SPZO Dic2014-180900Z 00000KT 9999 FEW030 SCT040 BKN070 09/06 Q1030 RMK PP000=
SPZO Dic2014-181000Z 00000KT 9999 FEW030 SCT040 BKN070 09/07 Q1030 RMK PP000=
SPZO Dic2014-181100Z 00000KT 9999 FEW030 SCT036 BKN070 10/07 Q1030 RMK PP000=
SPZO Dic2014-181200Z 00000KT 9999 FEW030 SCT036 OVC080 10/07 Q1031 NOSIG RMK CLNG BLW 1200M PP000=
SPZO Dic2014-181300Z 00000KT 9999 FEW033 SCT036 OVC080 12/06 Q1031 NOSIG RMK PP000=
SPZO Dic2014-181400Z 00000KT 9999 FEW036 SCT040 OVC090 13/05 Q1031 NOSIG RMK PP000=
SPZO Dic2014-181500Z 00000KT 9999 FEW036 SCT040 OVC080 14/05 Q1031 NOSIG RMK PP000=
SPZO Dic2014-181600Z VRB02KT 9999 FEW036 SCT046 OVC080 14/06 Q1030 NOSIG RMK PP000=
SPZO Dic2014-181700Z 28003KT 240V360 9999 SCT040 OVC080 16/05 Q1029 NOSIG RMK PP000=
SPZO Dic2014-181800Z 29006KT 240V330 9999 SCT050 SCT070 17/05 Q1028 NOSIG RMK PP000=
SPZO Dic2014-181900Z 27009KT 210V310 9999 SCT050 SCT070 18/05 Q1027 NOSIG RMK PP000=
SPZO Dic2014-182000Z 26009KT 220V300 9999 SCT050 SCT070 17/06 Q1026 NOSIG RMK PP000=
SPZO Dic2014-182100Z VRB04KT 9999 SCT050 SCT070 17/06 Q1025 NOSIG RMK PP000=
SPZO Dic2014-182200Z 10009KT 070V150 9999 SCT050 SCT080 16/06 Q1025 NOSIG RMK TX18.0 PP000=
SPZO Dic2014-182300Z 10008KT 070V140 9999 SCT050 SCT100 15/07 Q1026 NOSIG RMK PP000=
SPZO Dic2014-190000Z 19009KT 140V260 3000 +RA FEW020 SCT036 BKN070 10/07 Q1028 RMK PP052=
SPZO Dic2014-190100Z 33005KT 290V040 7000 -RA FEW025 SCT036 BKN070 10/06 Q1030 RMK PP032=
SPZO Dic2014-190200Z VRB01KT 8000 -RA FEW025 SCT036 BKN070 10/06 Q1031 RMK PP004=
SPZO Dic2014-190300Z 27003KT 8000 -RA FEW025 SCT040 BKN070 10/07 Q1031 RMK PP010=
SPZO Dic2014-190400Z 24005KT 170V300 9000 -DZ FEW030 SCT043 BKN070 10/06 Q1031 RMK PP002=
SPZO Dic2014-190500Z 26007KT 9999 FEW030 SCT043 BKN070 10/05 Q1031 REDZ RMK PPTRZ=
SPZO Dic2014-190600Z 27007KT 9999 -DZ FEW025 SCT040 BKN070 09/05 Q1030 RMK PPTRZ=
SPZO Dic2014-190700Z VRB02KT 9000 -RA FEW025 SCT036 BKN070 09/05 Q1029 RMK PP004=
SPZO Dic2014-190800Z 00000KT 9000 -RA FEW025 SCT036 BKN070 08/05 Q1029 RMK CLNG BLW 1200M PP002=
SPZO Dic2014-190900Z 00000KT 9000 -RA FEW025 SCT036 BKN070 08/05 Q1029 RMK CLNG BLW 1200M PP004=
SPZO Dic2014-191000Z 00000KT 9000 -DZ FEW025 SCT036 BKN070 08/06 Q1029 RMK CLNG BLW 1200M PP002=
SPZO Dic2014-191100Z 00000KT 9000 -DZ FEW020 SCT036 OVC070 09/06 Q1029 RMK CLNG BLW 1200M PPTRZ=
SPZO Dic2014-191200Z 00000KT 9999 FEW020 SCT040 OVC080 09/06 Q1030 NOSIG RMK QUAD E BR PP000=
SPZO Dic2014-191300Z 00000KT 9999 FEW020 SCT040 OVC080 11/06 Q1031 NOSIG RMK PP000=
SPZO Dic2014-191400Z VRB01KT 9999 FEW030 SCT040 BKN080 13/07 Q1030 NOSIG RMK QUAD NE HZ PP000=
SPZO Dic2014-191500Z 00000KT 9999 FEW030 SCT040 BKN080 14/07 Q1030 NOSIG RMK QUAD NE HZ PP000=
SPZO Dic2014-191600Z VRB03KT 9999 SCT043 BKN080 16/05 Q1029 NOSIG RMK QUAD NE HZ PP000=
SPZO Dic2014-191700Z VRB03KT 9999 SCT043 BKN080 17/05 Q1028 NOSIG RMK QUAD NE HZ PP000=
SPZO Dic2014-191800Z VRB03KT 9999 BKN050 SCT070 18/05 Q1027 NOSIG RMK PP000=
SPZO Dic2014-191900Z VRB06KT 9999 BKN050 SCT070 19/06 Q1025 NOSIG RMK PP000=
SPZO Dic2014-192000Z 01011KT 330V050 9999 BKN050 SCT070 17/06 Q1024 NOSIG RMK PP000=
SPZO Dic2014-192100Z 12009KT 070V200 9999 BKN050 SCT070 18/06 Q1024 NOSIG RMK PP000=
SPZO Dic2014-192200Z 09009KT 060V120 9999 FEW040TCU SCT050 BKN070 15/06 Q1024 NOSIG RMK TX19.7 PP000=
SPZO Dic2014-192300Z 07003KT 360V130 9999 FEW040TCU SCT050 BKN070 15/06 Q1026 NOSIG RMK PP000=
SPZO Dic2014-200000Z 18011G21KT 100V260 9000 RA FEW040TCU SCT060 BKN080 10/05 Q1029 RMK PP020=
SPZO Dic2014-200100Z VRB02KT 7000 +RA SCT030CB BKN046 OVC080 08/06 Q1031 RMK PP066=
SPZO Dic2014-200200Z 00000KT 7000 -RA SCT020 BKN040 OVC080 08/06 Q1032 RMK PP040=
SPZO Dic2014-200300Z 00000KT 9000 -RA SCT030 SCT046 OVC080 08/06 Q1032 RMK PP020=
SPZO Dic2014-200400Z 00000KT 9999 -RA FEW025 SCT046 OVC080 08/06 Q1031 RMK PP008=
SPZO Dic2014-200500Z 00000KT 9999 -DZ FEW030 SCT046 OVC080 08/06 Q1030 RMK PP002=
SPZO Dic2014-200600Z 10003KT 9999 FEW033 SCT046 BKN080 08/06 Q1029 RMK PP000=
SPZO Dic2014-200700Z VRB02KT 9999 FEW033 SCT046 BKN080 08/05 Q1029 RMK PP000=
SPZO Dic2014-200800Z 00000KT 9999 FEW036 SCT080 08/05 Q1028 RMK PP000=
SPZO Dic2014-200900Z 00000KT 9999 FEW036 SCT080 08/05 Q1028 RMK PP000=
SPZO Dic2014-201000Z 00000KT 9999 FEW025 SCT036 BKN080 07/06 Q1028 RMK BR QUAD NE PP000=
SPZO Dic2014-201100Z 00000KT 9999 FEW030 SCT036 BKN080 08/06 Q1029 RMK CLNG BLW 1200M BR QUAD NE PP000=
SPZO Dic2014-201200Z 00000KT 9999 4000E FEW010 SCT036 BKN080 09/06 Q1029 NOSIG RMK CLNG BLW 1200M QUAD NE BR PP000=
SPZO Dic2014-201300Z 04003KT 360V100 9999 FEW010 SCT030 BKN070 10/06 Q1030 NOSIG RMK CLNG BLW 1200M VIS 5000 QUAD NE BR PP000=
SPZO Dic2014-201400Z 00000KT 9999 FEW025 SCT040 BKN080 13/06 Q1030 NOSIG RMK PP000=
SPZO Dic2014-201500Z 10004KT 050V180 9999 SCT043 SCT080 16/07 Q1030 NOSIG RMK PP000=
SPZO Dic2014-201600Z VRB03KT 9999 SCT050 SCT080 18/05 Q1028 NOSIG RMK PP000=
SPZO Dic2014-201700Z VRB05KT 9999 FEW040TCU SCT050 BKN080 18/05 Q1027 NOSIG RMK PP000=
SPZO Dic2014-201800Z 15008KT 100V210 9999 BKN050 SCT070 17/05 Q1027 NOSIG RMK PP000=
SPZO Dic2014-201900Z 01005KT 300V100 9999 BKN050 SCT080 20/03 Q1025 NOSIG RMK PP000=
SPZO Dic2014-202000Z 09005KT 010V150 9999 SCT050 SCT100 20/04 Q1023 NOSIG RMK PP000=
SPZO Dic2014-202100Z 19007KT 110V250 9999 SCT050 SCT100 18/04 Q1023 NOSIG RMK PP000=
SPZO Dic2014-202200Z 25005KT 200V290 9999 SCT050 SCT150 20/03 Q1023 NOSIG RMK TX21.3 PP000=
SPZO Dic2014-202300Z 28008KT 240V310 9999 SCT050 SCT150 18/04 Q1023 NOSIG RMK PP000=
SPZO Dic2014-210000Z 25008KT 220V280 9999 SCT046 BKN100 16/05 Q1024 RMK PP000=
SPZO Dic2014-210100Z 26005KT 230V340 9999 SCT046 BKN080 15/06 Q1026 RMK PP000=
SPZO Dic2014-210200Z 26005KT 9999 SCT046 BKN080 13/06 Q1027 RMK PP000=
SPZO Dic2014-210300Z 25006KT 9999 SCT046 BKN080 14/06 Q1028 RMK PP000=
SPZO Dic2014-210400Z VRB02KT 9999 SCT046 BKN080 14/06 Q1029 RMK PP000=
SPZO Dic2014-210500Z VRB03KT 9999 SCT046 BKN080 13/06 Q1028 RMK PP000=
SPZO Dic2014-210600Z 25004KT 9999 SCT046 BKN080 13/07 Q1028 RMK PP000=
SPZO Dic2014-210700Z 00000KT 9000 -DZ SCT043 BKN080 11/08 Q1028 RMK PP014=
SPZO Dic2014-210800Z 24003KT 9999 SCT043 BKN080 11/08 Q1027 REDZ RMK PPTRZ=
SPZO Dic2014-210900Z 00000KT 9999 FEW030 SCT040 BKN070 11/08 Q1027 RMK -RA QUAD NE PP000=
SPZO Dic2014-211000Z 07001KT 9999 FEW030 SCT040 BKN070 11/08 Q1028 RMK -RA QUAD NE PP000=
SPZO Dic2014-211100Z VRB01KT 9999 FEW025 SCT040 BKN070 11/08 Q1029 RMK PP000=
SPZO Dic2014-211200Z 00000KT 9999 FEW040 SCT050 BKN070 13/08 Q1030 NOSIG RMK PP000=
SPZO Dic2014-211300Z 30009KT 260V350 9999 FEW040 SCT050 BKN070 14/07 Q1030 NOSIG RMK PP000=
SPZO Dic2014-211400Z 30008KT 240V350 9999 SCT050 SCT080 16/06 Q1030 NOSIG RMK PP000=
SPZO Dic2014-211500Z VRB07KT 9999 SCT050 SCT100 18/05 Q1030 NOSIG RMK PP000=
SPZO Dic2014-211600Z VRB04KT 9999 SCT050 SCT100 19/05 Q1029 NOSIG RMK PP000=
SPZO Dic2014-211700Z VRB07KT 9999 SCT050 SCT150 20/03 Q1028 NOSIG RMK PP000=
SPZO Dic2014-211800Z VRB07KT 9999 SCT050 SCT100 22/03 Q1027 NOSIG RMK PP000=
SPZO Dic2014-211900Z 29008KT 230V010 9999 SCT050 SCT100 21/01 Q1025 NOSIG RMK PP000=
SPZO Dic2014-212000Z 29013KT 250V330 9999 SCT050 BKN100 22/00 Q1024 NOSIG RMK PP000=
SPZO Dic2014-212100Z 29011KT 250V330 9999 FEW050 BKN100 21/M01 Q1023 NOSIG RMK PP000=
SPZO Dic2014-212200Z 28010KT 250V320 9999 FEW050 BKN100 20/01 Q1024 NOSIG RMK TX22.7 PP000=
SPZO Dic2014-212300Z VRB02KT 9999 FEW050 BKN100 18/02 Q1024 NOSIG RMK PP000=
SPZO Dic2014-220000Z 34006KT 310V020 9999 FEW040 SCT080 16/06 Q1025 RMK PP000=
SPZO Dic2014-220100Z 08007KT 9999 SCT080 14/06 Q1027 RMK PP000=
SPZO Dic2014-220200Z VRB02KT 9999 SCT080 15/06 Q1028 RMK PP000=
SPZO Dic2014-220300Z VRB02KT 9999 SCT080 13/07 Q1029 RMK PP000=
SPZO Dic2014-220400Z VRB04KT 9999 SCT080 13/07 Q1029 RMK PP000=
SPZO Dic2014-220500Z 28003KT 230V330 9999 FEW050 SCT080 12/07 Q1029 RMK PP000=
SPZO Dic2014-220600Z 25004KT 210V270 9999 SCT050 SCT080 13/06 Q1029 RMK PP000=
SPZO Dic2014-220700Z 00000KT 9999 SCT043 SCT080 13/06 Q1029 RMK PP000=
SPZO Dic2014-220800Z VRB02KT 9999 SCT043 SCT080 12/06 Q1028 RMK PP000=
SPZO Dic2014-220900Z 25004KT 9999 SCT043 SCT080 11/06 Q1028 RMK PP000=
SPZO Dic2014-221000Z 00000KT 9999 SCT043 SCT080 10/06 Q1029 RMK PP000=
SPZO Dic2014-221100Z 00000KT 9999 SCT040 BKN080 10/06 Q1030 RMK QUAD E HZ PP000=
SPZO Dic2014-221200Z 00000KT 9999 FEW030 SCT036 BKN080 12/07 Q1031 NOSIG RMK PP000=
SPZO Dic2014-221300Z VRB01KT 9999 SCT036 SCT080 14/07 Q1031 NOSIG RMK VIS 9000E HZ PP000=
SPZO Dic2014-221400Z VRB02KT 9999 SCT040 SCT080 16/07 Q1031 NOSIG RMK VIS 9000E HZ PP000=
SPZO Dic2014-221500Z 07005KT 350V140 9999 SCT040 BKN080 17/06 Q1030 NOSIG RMK PP000=
SPZO Dic2014-221600Z VRB04KT 9999 SCT043 BKN080 18/04 Q1029 NOSIG RMK PP000=
SPZO Dic2014-221700Z 09007KT 030V120 9999 VCSH FEW036TCU SCT043 BKN080 19/05 Q1029 TEMPO -RA RMK PP000=
SPZO Dic2014-221800Z VRB04KT 9999 VCSH BKN043TCU SCT080 20/03 Q1027 TEMPO -RA RMK PP000=
SPZO Dic2014-221900Z 26013KT 9999 BKN050 SCT080 19/05 Q1026 NOSIG RMK PP000=
SPZO Dic2014-222000Z 28009KT 9999 VCSH SCT046TCU BKN080 20/06 Q1026 NOSIG RMK PP000=
SPZO Dic2014-222100Z 06006KT 060V090 9999 SCT040 BKN080 17/06 Q1026 NOSIG RMK PP000=
SPZO Dic2014-222200Z 31005KT 210V360 9999 SCT046 BKN080 17/06 Q1026 NOSIG RMK TX21.0 PP000=
SPZO Dic2014-222300Z VRB06KT 9999 VCSH FEW040TCU SCT060 BKN080 17/07 Q1026 NOSIG RMK PP000=
SPZO Dic2014-230000Z 28005KT 250V320 9999 FEW040 SCT050 BKN100 15/07 Q1027 RMK PP000=
SPZO Dic2014-230100Z 27006KT 9999 SCT050 SCT100 14/06 Q1028 RMK PP000=
SPZO Dic2014-230200Z 26007KT 220V290 9999 SCT050 SCT100 14/06 Q1029 RMK PP000=
SPZO Dic2014-230300Z 23003KT 180V270 9999 SCT050 SCT100 14/06 Q1030 RMK PP000=
SPZO Dic2014-230400Z 08004KT 9999 SCT050 SCT100 13/07 Q1030 RMK PP000=
SPZO Dic2014-230500Z VRB02KT 9999 SCT050 SCT100 13/07 Q1030 RMK PP000=
SPZO Dic2014-230600Z VRB02KT 9999 FEW050 SCT100 12/06 Q1030 RMK PP000=
SPZO Dic2014-230700Z 07004KT 9999 FEW046 SCT080 11/07 Q1029 RMK PP000=
SPZO Dic2014-230800Z 10004KT 9999 FEW046 SCT080 11/07 Q1029 RMK PP000=
SPZO Dic2014-230900Z 10004KT 9999 FEW046 SCT080 10/07 Q1029 RMK PP000=
SPZO Dic2014-231000Z 00000KT 9999 FEW046 SCT080 10/07 Q1030 RMK PP000=
SPZO Dic2014-231100Z VRB02KT 9999 FEW020 SCT043 BKN080 10/07 Q1031 RMK QUAD E BR PP000=
SPZO Dic2014-231200Z 00000KT 9999 FEW033 SCT046 BKN080 12/07 Q1032 NOSIG RMK PP000=
SPZO Dic2014-231300Z VRB02KT 9999 FEW033 SCT040 BKN080 13/07 Q1032 NOSIG RMK HZ PP000=
SPZO Dic2014-231400Z VRB04KT 9999 FEW036 SCT046 BKN080 14/06 Q1032 NOSIG RMK PP000=
SPZO Dic2014-231500Z VRB02KT 9999 SCT046 BKN080 17/06 Q1031 NOSIG RMK PP000=
SPZO Dic2014-231600Z VRB05KT 9999 SCT046 BKN080 18/04 Q1030 NOSIG RMK PP000=
SPZO Dic2014-231700Z 12008KT 070V160 9999 FEW040TCU SCT050 BKN080 19/05 Q1029 NOSIG RMK PP000=
SPZO Dic2014-231800Z 09007KT 010V140 9999 VCSH FEW040TCU SCT050 BKN070 19/04 Q1028 NOSIG RMK PP000=
SPZO Dic2014-231900Z 01008KT 320V070 9999 VCSH FEW040TCU SCT050 BKN070 18/04 Q1028 NOSIG RMK PP000=
SPZO Dic2014-232000Z 33009KT 270V030 9999 FEW040TCU SCT050 BKN070 16/05 Q1028 NOSIG RMK PP000=
SPZO Dic2014-232100Z 11008KT 070V140 9999 FEW040 SCT050 BKN070 17/05 Q1027 NOSIG RMK PP000=
SPZO Dic2014-232200Z 10008KT 060V150 9999 BKN050 SCT070 16/06 Q1027 NOSIG RMK TX19.5 PP000=
SPZO Dic2014-232300Z 27008KT 9999 -RA SCT050 SCT060 BKN070 13/09 Q1028 TEMPO -RA RMK PPTRZ=
SPZO Dic2014-240000Z 28003KT 9999 -DZ FEW036 SCT050 BKN070 13/08 Q1029 RMK PP002=
SPZO Dic2014-240100Z 28003KT 9999 SCT050 BKN080 13/08 Q1030 REDZ RMK PPTRZ=
SPZO Dic2014-240200Z 00000KT 9999 SCT050 BKN080 13/08 Q1031 RMK -RA QUAD S RMK PP000=
SPZO Dic2014-240300Z 09003KT 9999 SCT046 BKN080 13/08 Q1031 RMK -RA QUAD SE PP000=
SPZO Dic2014-240400Z 10006KT 9999 SCT043 BKN080 12/07 Q1031 RMK PP000=
SPZO Dic2014-240500Z 09006KT 9999 SCT043 BKN080 12/07 Q1031 RMK PP000=
SPZO Dic2014-240600Z 08005KT 9999 SCT040 BKN080 11/06 Q1031 RMK PP000=
SPZO Dic2014-240700Z VRB03KT 9999 SCT040 BKN080 12/05 Q1030 RMK PP000=
SPZO Dic2014-240800Z 20004KT 140V250 9000 -RA FEW030 SCT036 BKN070 11/07 Q1030 RMK PPTRZ=
SPZO Dic2014-240900Z 00000KT 9000 -RA FEW030 SCT036 BKN070 09/06 Q1030 RMK PP006=
SPZO Dic2014-241000Z 00000KT 9999 FEW025 SCT036 BKN070 10/06 Q1031 RERA RMK PPTRZ=
SPZO Dic2014-241100Z 00000KT 9999 FEW030 SCT036 BKN080 10/06 Q1031 RMK PP000=
SPZO Dic2014-241200Z 00000KT 9999 -DZ FEW040 SCT050 BKN070 11/06 Q1032 NOSIG RMK PPTRZ=
SPZO Dic2014-241300Z VRB02KT 9999 FEW030 SCT050 BKN070 13/06 Q1032 REDZ NOSIG RMK PPTRZ=
SPZO Dic2014-241400Z VRB02KT 9999 FEW033 SCT050 BKN070 14/06 Q1032 NOSIG RMK PP000=
SPZO Dic2014-241500Z VRB03KT 9999 FEW040 SCT050 16/06 Q1031 NOSIG RMK PP000=
SPZO Dic2014-241600Z VRB03KT 9999 FEW040 SCT050 19/07 Q1030 NOSIG RMK PP000=
SPZO Dic2014-241700Z VRB05KT 9999 FEW040 SCT050 19/06 Q1030 NOSIG RMK PP000=
SPZO Dic2014-241800Z VRB04KT 9999 FEW040 SCT050 21/06 Q1028 NOSIG RMK PP000=
SPZO Dic2014-241900Z 29015KT 260V330 9999 VCSH FEW040 SCT043TCU BKN070 19/06 Q1027 NOSIG RMK PP000=
SPZO Dic2014-242000Z 12004KT 060V220 9999 VCSH SCT040TCU BKN070 17/09 Q1027 NOSIG RMK QUAD E RA PP010=
SPZO Dic2014-242100Z VRB04KT 9999 SCT046 SCT070 20/05 Q1026 NOSIG RMK PP000=
SPZO Dic2014-242200Z 27010KT 230V310 9999 SCT050 SCT100 20/05 Q1026 NOSIG RMK TX20.9 PP000=
SPZO Dic2014-242300Z 08007KT 9999 FEW040 SCT046 BKN070 17/07 Q1026 NOSIG RMK PP000=
SPZO Dic2014-250000Z 24004KT 190V300 9999 VCSH FEW040 SCT043TCU BKN080 17/07 Q1028 RMK PP006=
SPZO Dic2014-250100Z 27010KT 240V300 9999 FEW040 SCT043TCU BKN080 16/07 Q1029 RMK PP000=
SPZO Dic2014-250200Z 24008KT 9999 FEW040 SCT046 BKN080 15/07 Q1031 RMK PP000=
SPZO Dic2014-250300Z 28013KT 9999 FEW040 SCT046 BKN080 13/06 Q1032 RMK PP000=
SPZO Dic2014-250400Z 00000KT 9999 RA FEW036TCU SCT046 BKN080 11/07 Q1033 RMK PP028=
SPZO Dic2014-250500Z 00000KT 9000 -RA FEW036TCU SCT046 BKN080 11/07 Q1031 RMK PP002=
SPZO Dic2014-250600Z 27004KT 8000 FEW040 SCT050 BKN080 09/07 Q1031 RMK PP000=
SPZO Dic2014-250700Z VRB02KT 9000 FEW040 BKN080 09/07 Q1030 RMK PP000=
SPZO Dic2014-250800Z 00000KT 9000 FEW040 BKN080 08/06 Q1030 RMK PP000=
SPZO Dic2014-250900Z 00000KT 7000 FEW040 BKN080 08/05 Q1030 RMK PP000=
SPZO Dic2014-251000Z 26003KT 9999 FEW040 06/05 Q1030 RMK PP000=
SPZO Dic2014-251100Z 09003KT 9999 NSC 08/05 Q1031 RMK VIS 7000 BR QUAD NE PP000=
SPZO Dic2014-251200Z 08003KT 9999 NSC 10/06 Q1032 NOSIG RMK VIS 7000 QUAD NE HZ PP000=
SPZO Dic2014-251300Z VRB02KT 9999 SCT036 13/06 Q1032 NOSIG RMK VIS 9000 QUAD NE HZ PP000=
SPZO Dic2014-251400Z VRB02KT 9999 SCT036 16/07 Q1032 NOSIG RMK PP000=
SPZO Dic2014-251500Z VRB03KT 9999 FEW040 SCT050 18/07 Q1031 NOSIG RMK PP000=
SPZO Dic2014-251600Z VRB03KT 9999 SCT050 20/05 Q1030 NOSIG RMK PP000=
SPZO Dic2014-251700Z VRB04KT 9999 FEW040TCU SCT050 BKN080 21/07 Q1029 NOSIG RMK PP000=
SPZO Dic2014-251800Z 36008KT 320V050 9000 -TSRA FEW030CB SCT040 BKN070 17/06 Q1028 NOSIG RMK PPTRZ=
SPZO Dic2014-251900Z 31007KT 240V020 9999 FEW030TCU SCT040 BKN070 17/06 Q1028 RETSRA NOSIG RMK PPTRZ=
SPZO Dic2014-252000Z 27005KT 230V330 9999 FEW040TCU SCT050 BKN070 17/07 Q1027 NOSIG RMK PP000=
SPZO Dic2014-252100Z VRB02KT 9999 FEW040 SCT050 BKN070 17/07 Q1026 NOSIG RMK PP000=
SPZO Dic2014-252200Z 13004KT 080V180 9999 FEW040 SCT050 BKN070 18/06 Q1026 NOSIG RMK TX22.0 PP000=
SPZO Dic2014-252300Z 09004KT 9999 BKN050 SCT090 16/07 Q1027 NOSIG RMK PP000=
SPZO Dic2014-260000Z 08004KT 9999 SCT050 BKN100 15/08 Q1028 RMK TCU QUAD W PP000=
SPZO Dic2014-260100Z 00000KT 9999 SCT050 BKN100 15/07 Q1029 RMK PP000=
SPZO Dic2014-260200Z VRB02KT 9999 SCT050 BKN100 13/08 Q1031 RMK PP000=
SPZO Dic2014-260300Z 28002KT 9999 SCT050 BKN100 12/08 Q1031 RMK PP000=
SPZO Dic2014-260400Z VRB03KT 9999 SCT043 BKN080 13/06 Q1032 RMK -RA QUAD NE PP000=
SPZO Dic2014-260500Z 15004KT 070V230 9000 -RA SCT043 BKN080 11/08 Q1032 RMK PP004=
SPZO Dic2014-260600Z 11004KT 070V150 9999 SCT043 BKN080 10/07 Q1032 RERA RMK PP002=
SPZO Dic2014-260700Z 27003KT 9999 SCT043 BKN080 10/08 Q1031 RMK PP000=
SPZO Dic2014-260800Z 00000KT 9999 SCT043 BKN080 11/07 Q1031 RMK PP000=
SPZO Dic2014-260900Z 00000KT 9999 SCT050 BKN100 10/07 Q1031 RMK PP000=
SPZO Dic2014-261000Z 07002KT 9999 SCT040 SCT100 09/06 Q1031 RMK PP000=
SPZO Dic2014-261100Z VRB01KT 9999 SCT040 SCT100 08/06 Q1032 RMK PP000=
SPZO Dic2014-261200Z 00000KT 9999 FEW050 12/07 Q1033 NOSIG RMK PP000=
SPZO Dic2014-261300Z 00000KT 9999 SCT050 13/07 Q1034 NOSIG RMK PP000=
SPZO Dic2014-261400Z VRB02KT 9999 OVC050 15/07 Q1034 NOSIG RMK PP000=
SPZO Dic2014-261500Z VRB03KT 9999 SCT050 17/07 Q1033 NOSIG RMK PP000=
SPZO Dic2014-261600Z VRB02KT 9999 SCT050 19/06 Q1031 NOSIG RMK PP000=
SPZO Dic2014-261700Z 09006KT 030V170 9999 BKN050 19/05 Q1030 TEMPO -RA RMK PP000=
SPZO Dic2014-261800Z 08010KT 030V140 8000 -RA FEW040TCU SCT050 BKN100 19/06 Q1029 NOSIG RMK PPTRZ=
SPZO Dic2014-261900Z 27004KT 230V320 9999 FEW036TCU SCT046 BKN100 15/07 Q1028 REDZ NOSIG RMK PP016=
SPZO Dic2014-262000Z 36008KT 320V050 9999 FEW036TCU SCT046 BKN100 18/05 Q1028 NOSIG RMK PP000=
SPZO Dic2014-262100Z 08016KT 050V110 9999 VCSH FEW036TCU SCT046 BKN080 16/05 Q1029 TEMPO -RA RMK PP000=
SPZO Dic2014-262200Z 33009KT 260V020 9000 -RA FEW036TCU SCT050 BKN080 11/06 Q1030 NOSIG RMK TX20.6 PP030=
SPZO Dic2014-262300Z VRB03KT 9999 FEW036TCU SCT050 BKN080 12/05 Q1031 RERA NOSIG RMK PPTRZ=
SPZO Dic2014-270000Z 00000KT 9000 -RA VCSH FEW040 SCT046 OVC070 11/07 Q1032 RMK VIS 8000 QUAD NE RA PP006=
SPZO Dic2014-270100Z 05005KT 9999 FEW040 SCT046 BKN070 11/07 Q1033 RMK PP004=
SPZO Dic2014-270200Z 00000KT 9999 FEW040 SCT050 BKN100 11/07 Q1033 RMK PP000=
SPZO Dic2014-270300Z 06002KT 9999 FEW036 SCT050 BKN100 11/07 Q1034 RMK PP000=
SPZO Dic2014-270400Z 00000KT 9999 SCT050 BKN100 11/07 Q1033 RMK PP000=
SPZO Dic2014-270500Z 06003KT 9999 SCT050 SCT100 09/07 Q1033 RMK PP000=
SPZO Dic2014-270600Z 00000KT 9999 SCT050 SCT100 09/07 Q1033 RMK PP000=
SPZO Dic2014-270700Z 00000KT 9999 FEW050 SCT100 10/07 Q1032 RMK PP000=
SPZO Dic2014-270800Z 00000KT 9999 FEW050 SCT100 09/07 Q1032 RMK PP000=
SPZO Dic2014-270900Z 00000KT 9999 FEW050 SCT100 08/06 Q1032 RMK PP000=
SPZO Dic2014-271000Z 00000KT 9999 FEW036 SCT046 BKN100 09/07 Q1032 RMK PP000=
SPZO Dic2014-271100Z 27004KT 9999 FEW036 SCT046 BKN100 10/07 Q1033 RMK QUAD E BR PP000=
SPZO Dic2014-271200Z 10003KT 9999 FEW033 SCT040 OVC080 10/07 Q1034 NOSIG RMK VIS 9000E BR PP000=
SPZO Dic2014-271300Z 00000KT 9999 FEW033 SCT040 BKN080 13/08 Q1034 NOSIG RMK PP000=
SPZO Dic2014-271400Z VRB03KT 9999 FEW030 SCT040 BKN080 15/07 Q1034 NOSIG RMK PP000=
SPZO Dic2014-271500Z VRB02KT 9999 FEW040 SCT046 BKN080 17/07 Q1033 NOSIG RMK PP000=
SPZO Dic2014-271600Z 00000KT 9999 SCT040 BKN100 17/04 Q1032 NOSIG RMK PP000=
SPZO Dic2014-271700Z VRB03KT 9999 SCT040 BKN100 19/04 Q1031 TEMPO VCSH FEW040TCU BKN080 RMK PP000=
SPZO Dic2014-271800Z VRB02KT 9999 SCT040 BKN100 20/04 Q1030 NOSIG RMK VCSH QUAD NE PP000=
SPZO Dic2014-271900Z VRB02KT 9000 -RA FEW040TCU SCT046 BKN080 17/07 Q1029 NOSIG RMK PP020=
SPZO Dic2014-272000Z VRB02KT 9000 -RA FEW040TCU SCT046 BKN080 15/09 Q1029 NOSIG RMK PP002=
SPZO Dic2014-272100Z 11004KT 080V150 9999 SCT040 SCT100 16/09 Q1028 RERA NOSIG RMK PPTRZ=
SPZO Dic2014-272200Z VRB03KT 9999 SCT040 SCT100 16/09 Q1028 NOSIG RMK VCSH QUAD W TX21.2 PP000=
SPZO Dic2014-272300Z VRB02KT 9999 SCT040 BKN100 17/09 Q1028 NOSIG RMK TCU QUAD W PP000=
SPZO Dic2014-280000Z VRB02KT 9999 BKN050 SCT100 15/08 Q1029 RMK PP000=
SPZO Dic2014-280100Z 18002KT 9999 BKN050 SCT100 15/07 Q1030 RMK PP000=
SPZO Dic2014-280200Z VRB02KT 9999 BKN050 SCT100 13/07 Q1032 RMK PP000=
SPZO Dic2014-280300Z VRB02KT 9999 BKN050 SCT100 14/07 Q1033 RMK PP000=
SPZO Dic2014-280400Z VRB04KT 8000 RA FEW030TCU SCT050 BKN070 11/06 Q1034 RMK PP016=
SPZO Dic2014-280500Z 26006KT 200V280 9000 FEW030 SCT050 BKN070 10/06 Q1034 RERA RMK PP002=
SPZO Dic2014-280600Z VRB01KT 9999 FEW030 SCT050 BKN070 11/06 Q1033 RMK PP000=
SPZO Dic2014-280700Z 25004KT 9999 FEW030 SCT050 BKN070 11/06 Q1032 RMK PP000=
SPZO Dic2014-280800Z 28006KT 250V320 9999 FEW030 SCT050 BKN070 11/06 Q1032 RMK PP000=
SPZO Dic2014-280900Z 27004KT 250V310 9999 FEW030 SCT050 BKN070 10/06 Q1032 RMK PP000=
SPZO Dic2014-281000Z 29004KT 260V330 9999 FEW030 SCT050 BKN070 10/05 Q1033 RMK PP000=
SPZO Dic2014-281100Z VRB02KT 9999 FEW010 SCT030 BKN040 10/06 Q1034 RMK CLNG BLW 1200M PP000=
SPZO Dic2014-281200Z 00000KT 9000 -DZ FEW020 SCT036 OVC070 10/06 Q1034 NOSIG RMK CLNG BLW 1200M PP002=
SPZO Dic2014-281300Z VRB01KT 9000 -DZ FEW025 SCT040 OVC070 11/06 Q1034 TEMPO FEW030 SCT050 BKN080 RMK PP002=
SPZO Dic2014-281400Z VRB02KT 9999 FEW030 SCT040 OVC080 12/06 Q1034 REDZ TEMPO SCT050 SCT100 RMK PPTRZ=
SPZO Dic2014-281500Z VRB01KT 9999 FEW033 SCT040 OVC070 13/06 Q1034 NOSIG RMK PP000=
SPZO Dic2014-281600Z VRB02KT 9999 FEW033 SCT040 OVC080 15/06 Q1033 NOSIG RMK VCSH QUAD NE PP000=
SPZO Dic2014-281700Z VRB02KT 9999 FEW033 SCT040 OVC080 15/06 Q1032 TEMPO -RA RMK PP000=
SPZO Dic2014-281800Z 27012KT 230V290 9999 FEW030 SCT040 BKN070 15/08 Q1031 TEMPO -RA RMK PP000=
SPZO Dic2014-281900Z 35008KT 300V030 9999 FEW030 SCT040 BKN070 14/07 Q1031 NOSIG RMK PP000=
SPZO Dic2014-282000Z 32004KT 240V030 9999 FEW030TCU BKN040 BKN070 14/07 Q1030 RERA NOSIG RMK PPTRZ=
SPZO Dic2014-282100Z 11006KT 060V150 9999 FEW033 SCT040 BKN070 14/07 Q1029 NOSIG RMK PP000=
SPZO Dic2014-282200Z 08008KT 9999 FEW033 SCT040 BKN070 13/08 Q1029 NOSIG RMK TX15.6 PP000=
SPZO Dic2014-282300Z 09007KT 060V130 9999 FEW040 SCT050 BKN080 13/07 Q1030 NOSIG RMK PP000=
SPZO Dic2014-290000Z 10004KT 070V140 9999 FEW040 SCT050 BKN100 12/08 Q1031 RMK -RA QUAD NE PP000=
SPZO Dic2014-290100Z 08005KT 9000 -RA SCT046 BKN080 11/08 Q1032 RMK PP002=
SPZO Dic2014-290200Z 08004KT 9000 -RA FEW025 SCT040 BKN080 11/08 Q1034 RMK PP004=
SPZO Dic2014-290300Z 00000KT 9000 -RA FEW025 SCT040 BKN080 10/04 Q1035 RMK PP008=
SPZO Dic2014-290400Z VRB02KT 9000 -RA FEW025 SCT040 BKN080 09/06 Q1035 RMK PP002=
SPZO Dic2014-290500Z 00000KT 9999 -DZ FEW030 SCT040 BKN080 09/06 Q1034 RMK PPTRZ=
SPZO Dic2014-290600Z 09004KT 9999 FEW030 SCT043 BKN080 09/06 Q1033 REDZ RMK PPTRZ=
SPZO Dic2014-290700Z 00000KT 9999 FEW030 SCT043 BKN080 09/06 Q1032 RMK PP000=
SPZO Dic2014-290800Z 08002KT 9999 FEW030 SCT043 BKN080 09/06 Q1031 RMK PP000=
SPZO Dic2014-290900Z 08004KT 9999 FEW025 SCT040 BKN080 08/06 Q1031 RMK PP000=
SPZO Dic2014-291000Z 10003KT 9999 FEW020 SCT040 BKN080 09/07 Q1032 RMK PP000=
SPZO Dic2014-291100Z 08002KT 9999 FEW020 SCT040 BKN080 09/06 Q1033 RMK PP000=
SPZO Dic2014-291200Z 00000KT 9999 FEW010 SCT040 BKN070 09/06 Q1034 NOSIG RMK PP000=
SPZO Dic2014-291300Z 00000KT 9999 FEW010 SCT040 BKN070 12/07 Q1034 NOSIG RMK PP000=
SPZO Dic2014-291400Z 00000KT 9999 FEW015 SCT040 BKN080 13/05 Q1034 NOSIG RMK PP000=
SPZO Dic2014-291500Z VRB03KT 9999 FEW020 SCT040 BKN080 15/05 Q1033 NOSIG RMK PP000=
SPZO Dic2014-291600Z VRB04KT 9999 FEW025 SCT040 BKN080 17/07 Q1032 NOSIG RMK PP000=
SPZO Dic2014-291700Z 32007KT 260V020 9999 FEW033 SCT040 BKN080 17/06 Q1031 NOSIG RMK PP000=
SPZO Dic2014-291800Z 31007KT 270V010 9999 FEW036TCU SCT043 BKN080 19/06 Q1030 NOSIG RMK PP000=
SPZO Dic2014-291900Z 36014KT 310V050 9999 FEW036 SCT043TCU BKN070 18/04 Q1029 NOSIG RMK RA QUAD W PP000=
SPZO Dic2014-292000Z 25012KT 210V280 9999 VCSH FEW036 SCT043 BKN070 15/05 Q1029 NOSIG RMK PP000=
SPZO Dic2014-292100Z 26008KT 220V290 9999 VCSH FEW036 SCT043 BKN070 14/07 Q1028 RERA NOSIG RMK RA QUAD N PP008=
SPZO Dic2014-292200Z 22005KT 150V260 9999 SCT043 BKN080 12/08 Q1029 NOSIG RMK TX20.3 PP016=
SPZO Dic2014-292300Z 00000KT 9999 FEW040TCU SCT046 BKN080 13/08 Q1029 NOSIG RMK PP000=
SPZO Dic2014-300000Z VRB02KT 9999 FEW040TCU SCT050 BKN080 13/08 Q1030 RMK PP000=
SPZO Dic2014-300100Z 00000KT 9999 -RA FEW040TCU SCT046 BKN080 12/08 Q1031 RMK PP006=
SPZO Dic2014-300200Z 10003KT 9999 -RA FEW040TCU SCT046 BKN080 11/08 Q1032 RMK PP004=
SPZO Dic2014-300300Z 00000KT 9999 FEW036 SCT046 BKN080 11/08 Q1033 RMK PP000=
SPZO Dic2014-300400Z 26003KT 9999 FEW036TCU SCT046 BKN080 12/07 Q1033 RMK PP000=
SPZO Dic2014-300500Z 23006KT 9999 FEW036TCU SCT046 BKN080 12/05 Q1032 RMK PP000=
SPZO Dic2014-300600Z 28009KT 9999 -RA FEW036TCU SCT046 BKN080 10/06 Q1032 RMK PP000=
SPZO Dic2014-300700Z 00000KT 9000 -RA FEW036TCU SCT046 BKN080 09/06 Q1032 RMK PP026=
SPZO Dic2014-300800Z 00000KT 9999 SCT040 BKN080 09/06 Q1031 RMK PP000=
SPZO Dic2014-300900Z 00000KT 9999 SCT040 BKN080 09/06 Q1031 RMK PP000=
SPZO Dic2014-301000Z 00000KT 9999 SCT043 BKN080 09/07 Q1031 RMK PP000=
SPZO Dic2014-301100Z 00000KT 9999 FEW046 SCT080 09/07 Q1032 RMK PP000=
SPZO Dic2014-301200Z 00000KT 9999 FEW015 SCT046 11/07 Q1032 NOSIG RMK BR QUAD NE PP000=
SPZO Dic2014-301300Z VRB01KT 9999 FEW015 SCT046 BKN080 14/07 Q1033 NOSIG RMK HZ QUAD NE PP000=
SPZO Dic2014-301400Z 08004KT 010V140 9999 FEW020 SCT046 BKN080 13/05 Q1033 NOSIG RMK PP000=
SPZO Dic2014-301500Z 05004KT 320V110 9999 FEW030 SCT046 BKN080 15/06 Q1033 NOSIG RMK PP000=
SPZO Dic2014-301600Z VRB03KT 9999 FEW040 SCT046 BKN080 17/06 Q1032 NOSIG RMK PP000=
SPZO Dic2014-301700Z VRB03KT 9999 FEW040TCU SCT050 BKN080 20/05 Q1030 NOSIG RMK PP000=
SPZO Dic2014-301800Z 31014KT 260V360 8000 -TSRA FEW033CB SCT040 BKN070 14/07 Q1031 NOSIG RMK PP020=
SPZO Dic2014-301900Z VRB02KT 8000 VCSH FEW033TCU SCT040 BKN070 14/07 Q1030 RETSRA NOSIG RMK PP008=
SPZO Dic2014-302000Z 08004KT 030V130 9999 FEW033 SCT040 BKN070 15/07 Q1029 NOSIG RMK PP000=
SPZO Dic2014-302100Z 09006KT 050V140 9999 FEW033 SCT040 BKN070 15/06 Q1028 TEMPO -RA RMK PP000=
SPZO Dic2014-302200Z 29004KT 240V330 9999 FEW040 SCT050 BKN080 14/07 Q1028 TEMPO -RA RMK TX19.9 PP000=
SPZO Dic2014-302300Z 09002KT 9999 FEW040 SCT050 BKN090 14/06 Q1028 NOSIG RMK PP000=
SPZO Dic2014-310000Z VRB03KT 9999 SCT050 BKN100 13/08 Q1029 RMK TCU QUAD W PP000=
SPZO Dic2014-310100Z 26003KT 9999 SCT050 BKN100 11/07 Q1030 RMK PP000=
SPZO Dic2014-310200Z VRB03KT 9999 SCT050 BKN080 13/07 Q1031 RMK PP000=
SPZO Dic2014-310300Z VRB01KT 9999 SCT046 BKN080 12/07 Q1032 RMK -RA QUAD NE PP000=
SPZO Dic2014-310400Z 08003KT 9999 SCT046 BKN080 12/08 Q1031 RMK -RA QUAD NE PP000=
SPZO Dic2014-310500Z VRB04KT 9999 SCT040 BKN080 12/06 Q1031 RMK PP000=
SPZO Dic2014-310600Z 27007KT 240V300 9000 -RA FEW043 BKN080 10/06 Q1031 RMK PP004=
SPZO Dic2014-310700Z 00000KT 9000 -DZ FEW030 SCT040 BKN080 10/06 Q1030 RMK PP014=
SPZO Dic2014-310800Z 00000KT 9999 FEW025 SCT040 BKN080 10/07 Q1029 REDZ RMK PPTRZ=
SPZO Dic2014-310900Z 00000KT 9999 FEW025 SCT040 BKN080 10/06 Q1029 RMK PP000=
SPZO Dic2014-311000Z 10003KT 9000 -DZ FEW025 SCT036 BKN070 10/07 Q1030 RMK PPTRZ=
SPZO Dic2014-311100Z 00000KT 9999 FEW025 SCT036 OVC070 10/07 Q1030 REDZ RMK PPTRZ=
SPZO Dic2014-311200Z 00000KT 9999 FEW020 SCT040 OVC070 11/07 Q1031 NOSIG RMK PP000=
SPZO Dic2014-311300Z 00000KT 9999 FEW030 SCT040 BKN080 15/07 Q1031 NOSIG RMK PP000=
SPZO Dic2014-311400Z 00000KT 9999 FEW030 SCT040 BKN080 16/06 Q1031 NOSIG RMK PP000=
SPZO Dic2014-311500Z 26004KT 180V340 9999 SCT040 SCT080 16/06 Q1031 NOSIG RMK PP000=
SPZO Dic2014-311600Z 07005KT 360V170 9999 SCT040 SCT080 18/06 Q1030 NOSIG RMK PP000=
SPZO Dic2014-311700Z 35012KT 300V040 9999 FEW033TCU SCT040 BKN080 16/07 Q1029 TEMPO -RA RMK PP000=
SPZO Dic2014-311800Z VRB01KT 9999 -DZ FEW036 SCT046 BKN080 11/06 Q1030 TEMPO SCT040 BKN100 RMK RA QUAD NE PP112=
SPZO Dic2014-311900Z 25009KT 200V290 9000 -RA FEW030 SCT046 OVC080 11/06 Q1030 NOSIG RMK VIS 8000E RA PP004=
SPZO Dic2014-312000Z 12004KT 060V180 9999 FEW030 SCT043 BKN080 13/07 Q1029 RERA TEMPO SCT040 BKN100 RMK PP014=
SPZO Dic2014-312100Z VRB01KT 9999 FEW030 SCT046 BKN100 14/06 Q1028 NOSIG RMK PP000=
SPZO Dic2014-312200Z VRB03KT 9999 FEW030 SCT046 BKN100 14/07 Q1028 NOSIG RMK TX19.3 PP000=
SPZO Dic2014-312300Z 08005KT 040V110 9999 SCT043 BKN080 13/07 Q1029 NOSIG RMK PP000=
SPZO Ene2015-010000Z 10003KT 9999 FEW040TCU SCT046 BKN080 12/06 Q1029 RMK PP000=
SPZO Ene2015-010100Z 26004KT 9999 -RA FEW036 SCT040 BKN080 12/08 Q1031 RMK PPTRZ=
SPZO Ene2015-010200Z 00000KT 9999 FEW036 SCT040 BKN080 10/07 Q1032 RMK PP016=
SPZO Ene2015-010300Z 00000KT 9999 -RA FEW036 SCT040 BKN070 10/06 Q1033 RMK PP008=
SPZO Ene2015-010400Z 00000KT 9000 -RA FEW036 SCT040 OVC070 10/06 Q1033 RMK PP018=
SPZO Ene2015-010500Z 00000KT 9000 -DZ FEW020 SCT040 BKN070 09/06 Q1032 RMK PP008=
SPZO Ene2015-010600Z 00000KT 9999 SCT033 BKN050 09/06 Q1032 RMK PPTRZ=
SPZO Ene2015-010700Z 09005KT 9999 SCT033 BKN050 09/06 Q1031 RMK PP000=
SPZO Ene2015-010800Z 08006KT 9999 SCT033 BKN050 08/06 Q1030 RMK BR PP000=
SPZO Ene2015-010900Z VRB02KT 9999 FEW015 SCT033 BKN050 09/05 Q1030 RMK CLNG BLW 1200M BR PP000=
SPZO Ene2015-011000Z 00000KT 9999 FEW015 SCT036 BKN070 09/05 Q1030 RMK CLNG BLW 1200M PP000=
SPZO Ene2015-011100Z 00000KT 9000 FEW020 SCT040 BKN080 09/06 Q1031 RMK VIS 7000 QUAD NE BR PP000=
SPZO Ene2015-011200Z VRB03KT 9000 FEW025 SCT040 BKN080 09/06 Q1032 TEMPO FEW020 SCT036 BKN070 RMK VIS 8000E FU-BR PP000=
SPZO Ene2015-011300Z VRB03KT 9000 FEW025 SCT040 BKN080 10/05 Q1032 NOSIG RMK FU PP000=
SPZO Ene2015-011400Z VRB02KT 9999 FEW033 SCT043 BKN080 12/06 Q1032 RMK VIS 9000E FU PP000=
SPZO Ene2015-011500Z 11005KT 030V190 9999 FEW033 SCT043 BKN080 14/05 Q1031 NOSIG RMK PP000=
SPZO Ene2015-011600Z VRB03KT 9999 SCT040 BKN080 15/04 Q1031 NOSIG RMK PP000=
SPZO Ene2015-011700Z 04004KT 340V110 9999 SCT043 BKN100 16/06 Q1030 NOSIG RMK PP000=
SPZO Ene2015-011800Z 28005KT 230V010 9999 BKN050 SCT100 17/04 Q1029 TEMPO VCSH RMK PP000=
SPZO Ene2015-011900Z 35008KT 300V040 9999 BKN050 SCT100 18/06 Q1028 NOSIG RMK PP000=
SPZO Ene2015-012000Z 35007KT 290V030 9999 BKN050 SCT100 18/05 Q1027 NOSIG RMK PP000=
SPZO Ene2015-012100Z 08009KT 040V110 9999 -RA FEW040TCU SCT050 BKN100 16/06 Q1027 TEMPO RA RMK PPTRZ=
SPZO Ene2015-012200Z 26008KT 230V300 9999 FEW040 SCT050 BKN100 15/07 Q1027 RERA NOSIG RMK TX19.1 PPTRZ=
SPZO Ene2015-012300Z 00000KT 9999 BKN050 SCT100 15/07 Q1027 NOSIG RMK PP000=
SPZO Ene2015-020000Z VRB02KT 9999 BKN050 14/07 Q1028 RMK PP000=
SPZO Ene2015-020100Z 27004KT 9999 BKN050 13/07 Q1029 RMK PP000=
SPZO Ene2015-020200Z VRB03KT 9999 BKN050 12/07 Q1030 RMK PP000=
SPZO Ene2015-020300Z 00000KT 9999 BKN050 12/08 Q1031 RMK PP000=
SPZO Ene2015-020400Z 00000KT 9999 OVC060 12/07 Q1031 RMK PP000=
SPZO Ene2015-020500Z 00000KT 9999 RA OVC060 12/08 Q1030 RMK PP004=
SPZO Ene2015-020600Z 00000KT 9999 -RA OVC060 10/07 Q1030 RMK PP002=
SPZO Ene2015-020700Z 08006KT 9999 -RA SCT030 BKN040 10/07 Q1030 RMK PP046=
SPZO Ene2015-020800Z 08008KT 9999 SCT030 BKN040 10/07 Q1030 RMK PP000=
SPZO Ene2015-020900Z 00000KT 9999 SCT040 BKN050 09/06 Q1031 RMK PP000=
SPZO Ene2015-021000Z 08006KT 9999 SCT020 BKN040 09/06 Q1031 RMK PP000=
SPZO Ene2015-021100Z VRB03KT 9999 SCT020 BKN040 09/06 Q1032 RMK BR PP000=
SPZO Ene2015-021200Z 10004KT 060V130 9999 FEW010 SCT040 BKN050 09/05 Q1033 NOSIG RMK PP000=
SPZO Ene2015-021300Z 10005KT 030V140 9999 FEW010 SCT040 BKN050 11/05 Q1033 TEMPO 9000 -RA RMK PP000=
SPZO Ene2015-021400Z VRB01KT 9999 SCT050 SCT100 14/06 Q1033 NOSIG RMK PP000=
SPZO Ene2015-021500Z VRB03KT 9999 SCT050 SCT100 16/06 Q1032 NOSIG RMK PP000=
SPZO Ene2015-021600Z VRB03KT 9999 SCT050 SCT100 18/07 Q1031 NOSIG RMK PP000=
SPZO Ene2015-021700Z 27009KT 240V340 9999 -RA FEW040TCU SCT050 BKN070 15/06 Q1030 NOSIG RMK PPTRZ=
SPZO Ene2015-021800Z 25006KT 210V300 9999 SCT046 SCT080 18/06 Q1029 NOSIG RMK PP000=
SPZO Ene2015-021900Z 23008KT 170V280 9999 FEW040TCU SCT046 BKN100 17/07 Q1028=
SPZO Ene2015-022000Z VRB03KT 9999 RA FEW040TCU SCT046 BKN080 11/08 Q1029=
SPZO Ene2015-022100Z VRB02KT 9999 SCT046 SCT100 13/07 Q1028 NOSIG RMK PP000=
SPZO Ene2015-022200Z 28003KT 9999 VCSH FEW040CB SCT046 BKN080 15/06 Q1027=
SPZO Ene2015-022300Z 11004KT 060V170 8000 VCSH FEW040TCU SCT046 BKN070 13/07 Q1028 TEMPO 9000 RMK PP014=
SPZO Ene2015-030000Z 36003KT 9999 FEW036TCU SCT043 BKN080 13/08 Q1030 RMK PP000=
SPZO Ene2015-030100Z 26004KT 9999 FEW036TCU SCT043 BKN080 12/07 Q1031 RMK PP000=
SPZO Ene2015-030200Z 10004KT 9999 SCT050 BKN080 12/07 Q1032 RMK PP000=
SPZO Ene2015-030300Z 08009KT 9999 SCT050 BKN080 11/07 Q1033 RMK PP000=
SPZO Ene2015-030400Z 09004KT 020V150 9999 -RA SCT050 BKN080 10/07 Q1032 RMK PP002=
SPZO Ene2015-030500Z 07002KT 9999 FEW020 SCT046 BKN080 10/07 Q1032 RERA RMK PP002=
SPZO Ene2015-030600Z 00000KT 9999 FEW025 SCT046 BKN080 10/07 Q1031 RMK PP000=
SPZO Ene2015-030700Z 09002KT 9999 FEW025 SCT046 BKN080 10/07 Q1031 RMK PP000=
SPZO Ene2015-030800Z VRB03KT 9999 FEW030 SCT046 BKN080 09/07 Q1030 RMK PP000=
SPZO Ene2015-030900Z 00000KT 9999 FEW030 SCT046 BKN080 09/07 Q1031 RMK PP000=
SPZO Ene2015-031000Z VRB03KT 9999 FEW030 SCT043 BKN080 09/06 Q1031 RMK PP000=
SPZO Ene2015-031100Z 00000KT 9999 SCT043 SCT100 08/06 Q1031 RMK PP000=
SPZO Ene2015-031200Z VRB02KT 9999 FEW020 SCT043 BKN100 09/07 Q1033 NOSIG RMK PP000=
SPZO Ene2015-031300Z 00000KT 9999 FEW020 SCT040 BKN080 10/07 Q1033 NOSIG RMK PP000=
SPZO Ene2015-031400Z VRB03KT 9999 FEW030 SCT043 BKN100 12/07 Q1033 NOSIG RMK PP000=
SPZO Ene2015-031500Z VRB03KT 9999 FEW030 SCT046 BKN100 13/06 Q1033 TEMPO -RA RMK PP000=
SPZO Ene2015-031600Z 08004KT 010V170 9999 FEW036 SCT046 BKN100 14/07 Q1033 NOSIG RMK PP000=
SPZO Ene2015-031700Z 08005KT 010V160 9999 SCT043 SCT100 16/07 Q1032 TEMPO SCT040 SCT100 RMK PP000=
SPZO Ene2015-031800Z 35007KT 320V030 9999 FEW040 SCT046 BKN080 16/06 Q1031 NOSIG RMK PP000=
SPZO Ene2015-031900Z 28015KT 9999 VCSH FEW040 SCT046 BKN080 12/07 Q1031 NOSIG RMK RA QUAD NE PPTRZ=
SPZO Ene2015-032000Z 29006KT 250V340 9999 VCSH FEW040 SCT046 BKN080 14/06 Q1030 TEMPO 9000 -RA RMK RA QUAD NE PP000=
SPZO Ene2015-032100Z 29009KT 250V320 9999 VCSH FEW040 SCT046 BKN080 15/06 Q1029 TEMPO 9000 -RA RMK PP000=
SPZO Ene2015-032200Z 27009KT 240V310 9999 VCSH FEW040 SCT046 BKN080 14/05 Q1029 NOSIG RMK RA QUAD NE TX16.8 PP000=
SPZO Ene2015-032300Z 26008KT 230V300 9999 VCSH FEW040TCU SCT046 BKN080 14/06 Q1030 TEMPO -RA RMK RA QUAD NE PP000=
SPZO Ene2015-040000Z 29008KT 240V330 9999 -RA VCSH FEW040 SCT046 BKN080 12/08 Q1031 RMK PP004=
SPZO Ene2015-040100Z 00000KT 9999 -RA VCSH SCT040 BKN080 11/06 Q1032 RMK PP016=
SPZO Ene2015-040200Z 00000KT 9999 SCT040 BKN080 10/07 Q1033 RMK PP004=
SPZO Ene2015-040300Z 00000KT 9999 SCT040 BKN080 10/07 Q1034 RMK PP000=
SPZO Ene2015-040400Z 00000KT 9999 -RA SCT040 BKN080 10/08 Q1034 RMK PP002=
SPZO Ene2015-040500Z 00000KT 9999 -RA SCT036 BKN080 08/04 Q1035 RMK PP002=
SPZO Ene2015-040600Z 00000KT 9999 -RA SCT036 BKN080 08/04 Q1035 RMK PP010=
SPZO Ene2015-040700Z 00000KT 9999 -RA SCT030 BKN060 07/04 Q1035 RMK PP002=
SPZO Ene2015-040800Z 00000KT 9999 SCT030 BKN060 08/03 Q1034 RMK PP000=
SPZO Ene2015-040900Z 00000KT 9999 SCT030 BKN060 07/04 Q1034 RMK PP000=
SPZO Ene2015-041000Z 26004KT 230V310 9999 SCT040 BKN080 08/04 Q1034 RMK PP000=
SPZO Ene2015-041100Z 00000KT 9999 SCT040 BKN080 08/03 Q1034 RMK PP000=
SPZO Ene2015-041200Z 29006KT 250V320 9999 FEW030 SCT043 BKN100 09/03 Q1035 NOSIG RMK HZ QUAD E PP000=
SPZO Ene2015-041300Z 29006KT 250V340 9999 FEW030 SCT043 BKN100 10/03 Q1035 NOSIG RMK HZ QUAD E PP000=
SPZO Ene2015-041400Z 28005KT 220V010 9999 SCT043 BKN100 12/02 Q1035 NOSIG RMK PP000=
SPZO Ene2015-041500Z VRB04KT 9999 SCT043 BKN100 13/04 Q1035 NOSIG RMK PP000=
SPZO Ene2015-041600Z VRB04KT 9999 SCT046 SCT080 14/04 Q1034 NOSIG RMK PP000=
SPZO Ene2015-041700Z 28013KT 240V310 9999 FEW040 SCT046 BKN080 13/05 Q1033 TEMPO -RA RMK PP000=
SPZO Ene2015-041800Z 27015KT 230V310 9999 FEW030TCU SCT050 BKN070 12/05 Q1033 TEMPO -RA RMK PP000=
SPZO Ene2015-041900Z 28012KT 8000 -RA FEW030TCU SCT050 BKN080 11/05 Q1033 NOSIG RMK PPTRZ=
SPZO Ene2015-042000Z VRB02KT 9999 VCSH SCT030 BKN060 12/06 Q1033 NOSIG RMK PP000=
SPZO Ene2015-042100Z VRB01KT 9999 VCSH SCT030 BKN080 12/05 Q1032 TEMPO 9000 -RA RMK PP000=
SPZO Ene2015-042200Z VRB02KT 9999 FEW030 SCT050 BKN090 13/06 Q1031 NOSIG RMK TX14.8 PP000=
SPZO Ene2015-042300Z VRB02KT 9999 SCT050 SCT100 12/05 Q1031 NOSIG RMK PP000=
SPZO Ene2015-050000Z 09004KT 9999 SCT050 10/06 Q1032 RMK PP000=
SPZO Ene2015-050100Z 08002KT 9999 SCT060 09/06 Q1033 RMK PP000=
SPZO Ene2015-050200Z 28003KT 9999 SCT060 08/05 Q1033 RMK PP000=
SPZO Ene2015-050300Z 00000KT 9999 SCT050 SCT100 09/06 Q1034 RMK PP000=
SPZO Ene2015-050400Z 00000KT 9999 SCT040 SCT080 08/05 Q1034 RMK PP000=
SPZO Ene2015-050500Z 00000KT 9999 BKN043 SCT080 09/06 Q1033 RMK PP000=
SPZO Ene2015-050600Z 00000KT 9999 BKN043 SCT080 09/06 Q1033 RMK PP000=
SPZO Ene2015-050700Z 06002KT 9999 BKN043 SCT080 08/06 Q1032 RMK PP000=
SPZO Ene2015-050800Z 00000KT 9999 BKN043 SCT080 09/06 Q1032 RMK PP000=
SPZO Ene2015-050900Z 00000KT 9999 BKN043 SCT080 09/06 Q1032 RMK PP000=
SPZO Ene2015-051000Z 00000KT 9999 FEW020 SCT040 BKN080 08/06 Q1032 RMK PP000=
SPZO Ene2015-051100Z 00000KT 9999 FEW015 SCT043 BKN080 09/06 Q1033 RMK VIS 9000E HZ PP000=
SPZO Ene2015-051200Z 00000KT 8000 SCT010 OVC040 09/06 Q1033 NOSIG RMK HZ PP000=
SPZO Ene2015-051300Z 00000KT 8000 SCT010 SCT040 BKN050 11/07 Q1033 NOSIG RMK HZ PP000=
SPZO Ene2015-051400Z VRB02KT 8000 FEW010 SCT040 BKN050 14/06 Q1033 TEMPO SCT050 BKN100 RMK HZ PP000=
SPZO Ene2015-051500Z 06005KT 010V110 9999 SCT040 BKN050 15/08 Q1033 NOSIG RMK PP000=
SPZO Ene2015-051600Z VRB02KT 9999 VCSH FEW040TCU SCT050 BKN060 15/05 Q1032 TEMPO 9000 -RA RMK PP000=
SPZO Ene2015-051700Z VRB05KT 9999 FEW040TCU SCT050 BKN060 16/06 Q1031 NOSIG RMK PPTRZ=
SPZO Ene2015-051800Z 26011KT 200V300 9999 VCSH FEW040TCU SCT050 BKN080 13/06 Q1031 REDZ NOSIG RMK PP000=
SPZO Ene2015-051900Z 26009KT 230V300 9000 -RA FEW036TCU SCT046 BKN080 10/07 Q1031 TEMPO 33008KT SCT 5000FT BKN 10000FT RMK PP008=
SPZO Ene2015-052000Z 00000KT 9000 -RA FEW036TCU SCT046 BKN080 14/07 Q1030 TEMPO 8000 RA RMK PP002=
SPZO Ene2015-052100Z 26006KT 220V310 9000 -RA FEW036TCU SCT046 BKN080 13/06 Q1029 TEMPO 7000 RA QUAD E RMK PPTRZ=
SPZO Ene2015-052200Z 25004KT 210V300 9999 VCSH FEW036TCU SCT043 BKN080 14/07 Q1029 TEMPO -RA RMK TX16.8 PPTRZ=
SPZO Ene2015-052300Z 28007KT 260V340 9000 -RA FEW036TCU SCT043 BKN080 12/07 Q1030 NOSIG RMK PP002=
SPZO Ene2015-060000Z 28008KT 240V310 9999 VCSH SCT040TCU BKN080 11/07 Q1031 RMK PPTRZ=
SPZO Ene2015-060100Z 25005KT 9999 SCT046 BKN080 11/07 Q1031 RMK PP000=
SPZO Ene2015-060200Z 00000KT 9999 SCT046 BKN080 11/07 Q1032 RMK PP000=
SPZO Ene2015-060300Z VRB02KT 9999 SCT046 BKN080 11/07 Q1033 RMK PP000=
SPZO Ene2015-060400Z 00000KT 9000 -RA FEW036 SCT040 BKN070 10/07 Q1033 RMK PP014=
SPZO Ene2015-060500Z VRB02KT 9999 -RA FEW036 SCT040 BKN070 10/07 Q1033 RMK PP014=
SPZO Ene2015-060600Z VRB01KT 9999 FEW040 SCT046 BKN080 09/07 Q1032 RMK PPTRZ=
SPZO Ene2015-060700Z 00000KT 9999 FEW040 SCT046 BKN080 09/07 Q1032 RMK PP000=
SPZO Ene2015-060800Z 00000KT 9999 SCT050 BKN080 09/07 Q1031 RMK PP000=
SPZO Ene2015-060900Z 00000KT 9999 FEW030 SCT050 BKN080 09/07 Q1031 RMK PP000=
SPZO Ene2015-061000Z 00000KT 9999 FEW030 SCT050 BKN080 09/07 Q1032 RMK BR PP000=
SPZO Ene2015-061100Z 00000KT 9999 DZ FEW015 SCT040 BKN080 09/07 Q1033 RMK PPTRZ=
SPZO Ene2015-061200Z 00000KT 9999 FEW025 SCT040 BKN070 13/08 Q1033 REDZ NOSIG RMK SCT015 QUAD W PPTRZ=
SPZO Ene2015-061300Z VRB01KT 9999 FEW025 SCT040 BKN080 12/07 Q1034 NOSIG RMK PP000=
SPZO Ene2015-061400Z VRB01KT 9999 FEW033 SCT043 BKN080 13/07 Q1034 NOSIG RMK PP000=
SPZO Ene2015-061500Z VRB01KT 9999 SCT040 BKN080 16/06 Q1033 NOSIG RMK PP000=
SPZO Ene2015-061600Z VRB02KT 9999 SCT043 SCT080 17/06 Q1032 TEMPO VCSH FEW036TCU BKN100 RMK RA QUAD NE PP000=
SPZO Ene2015-061700Z 02008KT 340V100 9999 VCSH FEW040TCU SCT050 BKN080 16/06 Q1031 TEMPO 9000 -RA RMK PP000=
SPZO Ene2015-061800Z VRB03KT 9999 FEW040TCU SCT050 BKN070 15/07 Q1030 RERA NOSIG RMK PP002=
SPZO Ene2015-061900Z 35007KT 300V050 9999 FEW040TCU SCT050 BKN080 14/06 Q1030 TEMPO 9000 -RA RMK PP000=
SPZO Ene2015-062000Z 35009KT 250V050 9999 VCSH FEW040TCU SCT050 BKN070 13/05 Q1030 TEMPO -RA RMK PP000=
SPZO Ene2015-062100Z 08006KT 050V110 9999 VCSH FEW040TCU SCT050 BKN070 13/07 Q1030 NOSIG RMK PP000=
SPZO Ene2015-062200Z VRB03KT 9999 FEW040 SCT050 BKN080 13/06 Q1029 TEMPO FEW050 SCT100 RMK TX17.9 PP000=
SPZO Ene2015-062300Z 00000KT 9999 SCT050 SCT100 13/06 Q1030 NOSIG RMK PP000=
SPZO Ene2015-070000Z 07002KT 9999 SCT050 SCT100 11/06 Q1031 RMK PP000=
SPZO Ene2015-070100Z VRB02KT 9999 SCT050 SCT100 09/06 Q1032 RMK PP000=
SPZO Ene2015-070200Z 00000KT 9999 SCT050 BKN100 10/06 Q1033 RMK PP000=
SPZO Ene2015-070300Z 00000KT 9999 SCT050 BKN100 09/06 Q1033 RMK PP000=
SPZO Ene2015-070400Z 00000KT 9999 SCT050 BKN100 09/07 Q1032 RMK PP000=
SPZO Ene2015-070500Z 00000KT 9999 SCT050 BKN100 10/07 Q1032 RMK PP000=
SPZO Ene2015-070600Z 00000KT 9999 -RA SCT050 BKN100 10/07 Q1032 RMK PP002=
SPZO Ene2015-070700Z 00000KT 9999 SCT040 BKN100 10/06 Q1031 RMK PP000=
SPZO Ene2015-070800Z 00000KT 9999 SCT040 BKN100 09/05 Q1031 RMK PP000=
SPZO Ene2015-070900Z 00000KT 9999 SCT040 BKN100 09/05 Q1031 RMK PP000=
SPZO Ene2015-071000Z 27009KT 9999 SCT040 BKN100 08/04 Q1032 RMK PP000=
SPZO Ene2015-071100Z 27006KT 9999 FEW030 SCT050 BKN100 08/04 Q1033 RMK PP000=
SPZO Ene2015-071200Z VRB02KT 9999 FEW030 SCT050 BKN070 09/05 Q1033 NOSIG RMK PP000=
SPZO Ene2015-071300Z 00000KT 9999 FEW030 SCT050 BKN070 11/05 Q1033 NOSIG RMK PP000=
SPZO Ene2015-071400Z 00000KT 9999 FEW033 SCT050 BKN070 12/03 Q1033 NOSIG RMK PP000=
SPZO Ene2015-071500Z VRB02KT 9999 FEW040 SCT050 BKN060 14/04 Q1033 NOSIG RMK PP000=
SPZO Ene2015-071600Z VRB03KT 9999 SCT050 SCT060 16/05 Q1032 NOSIG RMK PP000=
SPZO Ene2015-071700Z VRB02KT 9999 SCT050 SCT060 17/04 Q1031 NOSIG RMK PP000=
SPZO Ene2015-071800Z 32010KT 260V010 9999 FEW040TCU SCT050 BKN080 16/05 Q1029 TEMPO VCSH RMK PP000=
SPZO Ene2015-071900Z 22006KT 170V290 9999 SCT046 SCT100 19/02 Q1028 NOSIG RMK PP000=
SPZO Ene2015-072000Z 26011KT 220V290 9999 SCT050 SCT100 19/05 Q1027 NOSIG RMK PP000=
SPZO Ene2015-072100Z 01009KT 320V070 9999 FEW040 SCT050 18/05 Q1026 NOSIG RMK PP000=
SPZO Ene2015-072200Z 09010KT 9999 FEW040TCU SCT050 15/05 Q1027 TEMPO -RA RMK TX19.3 PP000=
SPZO Ene2015-072300Z 22004KT 170V280 9999 FEW050 SCT100 15/05 Q1028 NOSIG RMK PP000=
SPZO Ene2015-080000Z 26005KT 200V290 9999 SCT050 13/06 Q1029 RMK CB QUAD SW PP000=
SPZO Ene2015-080100Z 28004KT 9999 SCT050 SCT100 11/06 Q1029 RMK PP000=
SPZO Ene2015-080200Z 00000KT 9999 SCT050 SCT100 11/06 Q1031 RMK PP000=
SPZO Ene2015-080300Z 07004KT 9999 SCT050 SCT100 10/06 Q1031 RMK VIS 8000E BR PP000=
SPZO Ene2015-080400Z 27004KT 9999 SCT050 SCT100 08/05 Q1031 RMK PP000=
SPZO Ene2015-080500Z 00000KT 9999 SCT050 SCT100 09/05 Q1031 RMK PP000=
SPZO Ene2015-080600Z 00000KT 9999 SCT050 SCT100 07/05 Q1030 RMK PP000=
SPZO Ene2015-080700Z 25002KT 9999 SCT050 SCT080 08/05 Q1030 RMK PP000=
SPZO Ene2015-080800Z 26003KT 9999 SCT050 BKN080 08/05 Q1030 RMK PP000=
SPZO Ene2015-080900Z 07003KT 9999 SCT046 BKN080 08/05 Q1030 RMK VIS 9000E BR PP000=
SPZO Ene2015-081000Z VRB01KT 9999 SCT046 SCT080 08/05 Q1031 RMK VIS 9000E BR PP000=
SPZO Ene2015-081100Z 00000KT 9999 SCT046 SCT080 07/05 Q1032 RMK VIS 9000E BR PP000=
SPZO Ene2015-081200Z 00000KT 9999 FEW050 SCT100 09/06 Q1032 NOSIG RMK PP000=
SPZO Ene2015-081300Z 00000KT 9999 SCT050 14/06 Q1032 NOSIG RMK PP000=
SPZO Ene2015-081400Z VRB02KT 9999 FEW040 SCT050 13/06 Q1032 NOSIG RMK PP000=
SPZO Ene2015-081500Z VRB02KT 9999 FEW040 SCT050 15/06 Q1032 NOSIG RMK PP000=
SPZO Ene2015-081600Z 08005KT 9999 SCT046 SCT100 16/05 Q1030 NOSIG RMK PP000=
SPZO Ene2015-081700Z 10006KT 050V150 9999 SCT046 SCT100 17/04 Q1030 TEMPO VCSH RMK PP000=
SPZO Ene2015-081800Z 36014KT 330V050 9999 VCSH SCT043 FEW046TCU BKN080 15/04 Q1029 NOSIG RMK RA QUAD NE PP000=
SPZO Ene2015-081900Z 13006KT 060V200 9999 FEW040 SCT043 BKN080 15/05 Q1029 NOSIG RMK PP000=
SPZO Ene2015-082000Z VRB07KT 9999 FEW040 SCT043 BKN080 15/05 Q1029 TEMPO -RA RMK PP000=
SPZO Ene2015-082100Z VRB04KT 9999 SCT046 SCT100 16/03 Q1028 NOSIG RMK PP000=
SPZO Ene2015-082200Z 10005KT 040V160 9999 SCT050 SCT100 16/03 Q1028 NOSIG RMK TX18.5 PP000=
SPZO Ene2015-082300Z 00000KT 9999 SCT040TCU SCT080 15/04 Q1029 TEMPO VCSH RMK PP000=
SPZO Ene2015-090000Z 12004KT 9999 SCT040 SCT080 14/04 Q1030 RMK PP000=
SPZO Ene2015-090100Z 00000KT 9999 SCT040 SCT080 14/03 Q1031 RMK PP000=
SPZO Ene2015-090200Z 00000KT 9999 SCT040 SCT100 13/03 Q1032 RMK PP000=
SPZO Ene2015-090300Z 00000KT 9999 SCT040 SCT100 12/04 Q1033 RMK PP000=
SPZO Ene2015-090400Z 00000KT 9999 SCT040 SCT100 12/04 Q1033 RMK PP000=
SPZO Ene2015-090500Z 00000KT 9999 SCT040 SCT100 12/05 Q1032 RMK PP000=
SPZO Ene2015-090600Z 00000KT 9999 SCT040 SCT100 11/05 Q1032 RMK PP000=
SPZO Ene2015-090700Z 00000KT 9999 SCT040 SCT100 10/05 Q1032 RMK PP000=
SPZO Ene2015-090800Z 00000KT 9999 SCT040 SCT100 11/05 Q1032 RMK PP000=
SPZO Ene2015-090900Z 00000KT 9999 SCT040 SCT100 10/05 Q1032 RMK PP000=
SPZO Ene2015-091000Z 00000KT 9999 SCT040 SCT100 10/05 Q1033 RMK PP000=
SPZO Ene2015-091100Z VRB02KT 9999 FEW030 SCT040 SCT100 10/05 Q1033 RMK PP000=
SPZO Ene2015-091200Z 11003KT 9999 FEW036 SCT043 BKN100 10/05 Q1034 NOSIG RMK PP000=
SPZO Ene2015-091300Z VRB02KT 9999 FEW036 SCT043 BKN100 12/05 Q1035 NOSIG RMK PP000=
SPZO Ene2015-091400Z VRB02KT 9999 FEW036 SCT043 BKN100 14/05 Q1034 NOSIG RMK PP000=
SPZO Ene2015-091500Z 00000KT 9999 BKN043 BKN100 15/05 Q1034 NOSIG RMK PP000=
SPZO Ene2015-091600Z VRB02KT 9999 BKN043 SCT080 16/04 Q1033 NOSIG RMK PP000=
SPZO Ene2015-091700Z VRB03KT 9999 SCT046 SCT080 17/05 Q1032 NOSIG RMK PP000=
SPZO Ene2015-091800Z 10005KT 030V170 9999 BKN050 19/04 Q1030 TEMPO VCSH RMK PP000=
SPZO Ene2015-091900Z VRB04KT 9999 BKN050 20/04 Q1029 NOSIG RMK PP000=
SPZO Ene2015-092000Z 34006KT 9999 VCSH BKN050 19/03 Q1028 NOSIG RMK PP000=
SPZO Ene2015-092100Z 12009KT 9999 VCSH FEW040TCU SCT050 BKN100 17/05 Q1028 TEMPO -RA RMK PP000=
SPZO Ene2015-092200Z 11008KT 070V170 9999 -RA VCSH SCT040TCU BKN100 16/06 Q1029 NOSIG RMK PPTRZ=
SPZO Ene2015-092300Z 07004KT 9999 VCSH SCT040TCU BKN100 14/07 Q1029 NOSIG RMK PPTRZ=
SPZO Ene2015-100000Z 29006KT 250V330 9999 SCT046 BKN100 15/05 Q1030 RMK PP000=
SPZO Ene2015-100100Z 08005KT 9999 SCT050 SCT100 13/06 Q1031 RMK PP000=
SPZO Ene2015-100200Z 09007KT 9999 SCT046 BKN080 13/06 Q1033 RMK PP000=
SPZO Ene2015-100300Z 00000KT 9999 SCT046 SCT080 13/05 Q1034 RMK PP000=
SPZO Ene2015-100400Z 16009KT 9999 BKN043 SCT080 10/03 Q1035 RMK PP000=
SPZO Ene2015-100500Z 26006KT 9999 -RA BKN040 SCT080 08/04 Q1035 RMK PP014=
SPZO Ene2015-100600Z 26005KT 9999 BKN040 SCT070 08/04 Q1034 RMK PP000=
SPZO Ene2015-100700Z 00000KT 9999 BKN043 SCT080 09/04 Q1034 RMK PP000=
SPZO Ene2015-100800Z 00000KT 9999 BKN043 SCT080 08/04 Q1034 RMK PP002=
SPZO Ene2015-100900Z 28007KT 9999 -RA BKN040 SCT070 08/04 Q1034 RMK PP002=
SPZO Ene2015-101000Z 30009KT 260V320 9999 -DZ FEW030 SCT036 BKN080 08/04 Q1034 RMK PPTRZ=
SPZO Ene2015-101100Z 26006KT 220V300 9999 FEW020 SCT043 BKN080 08/04 Q1034 RMK PP000=
SPZO Ene2015-101200Z 25003KT 190V310 9999 FEW015 SCT040 BKN060 10/04 Q1035 NOSIG RMK PP000=
SPZO Ene2015-101300Z VRB02KT 9999 FEW020 SCT040 BKN060 11/04 Q1036 NOSIG RMK PP000=
SPZO Ene2015-101400Z VRB02KT 9999 FEW020 SCT040 BKN060 11/04 Q1036 NOSIG RMK PP000=
SPZO Ene2015-101500Z VRB02KT 9999 FEW030 SCT040 BKN060 12/05 Q1035 NOSIG RMK PP000=
SPZO Ene2015-101600Z VRB02KT 9999 FEW033 SCT040 BKN060 14/06 Q1034 NOSIG RMK PP000=
SPZO Ene2015-101700Z VRB04KT 9999 FEW040 SCT050 BKN060 15/05 Q1033 NOSIG RMK PP000=
SPZO Ene2015-101800Z 35009KT 310V020 9999 VCSH FEW036TCU SCT043 BKN080 14/06 Q1032 TEMPO -RA RMK VIS 9000E RA PP000=
SPZO Ene2015-101900Z 08008KT 050V110 9000 -RA FEW036TCU SCT040 BKN080 13/07 Q1032 NOSIG RMK PP000=
SPZO Ene2015-102000Z VRB04KT 9999 FEW040TCU SCT050 BKN080 16/07 Q1030 RERA NOSIG RMK PPTRZ=
SPZO Ene2015-102100Z VRB02KT 9999 FEW036TCU SCT046 BKN080 16/07 Q1029 TEMPO VCSH RMK PP000=
SPZO Ene2015-102200Z VRB01KT 9999 VCSH FEW036TCU SCT046 BKN100 17/05 Q1029 NOSIG RMK TX17.3 PP000=
SPZO Ene2015-102300Z 26004KT 9999 VCSH FEW040TCU SCT046 BKN100 16/06 Q1029 TEMPO -RA RMK PP000=
SPZO Ene2015-110000Z 12007KT 060V200 9000 TSRA FEW036CB SCT043 OVC080 12/06 Q1031 RMK VIS 7000 QUAD NE RA PP004=
SPZO Ene2015-110100Z 16003KT 120V210 9000 -RA FEW036 SCT043 BKN080 10/07 Q1033 RMK PP054=
SPZO Ene2015-110200Z 00000KT 9999 DZ FEW025 SCT043 BKN080 10/07 Q1034 RMK PP004=
SPZO Ene2015-110300Z 00000KT 9999 DZ FEW025 SCT043 BKN080 10/07 Q1035 RMK PP002=
SPZO Ene2015-110400Z 00000KT 9999 SCT040 BKN080 11/06 Q1035 RMK PPTRZ=
SPZO Ene2015-110500Z 22005KT 170V260 9999 SCT040 BKN080 10/05 Q1034 RMK PP000=
SPZO Ene2015-110600Z 25005KT 9000 -RA SCT040 OVC070 09/04 Q1034 RMK PP002=
SPZO Ene2015-110700Z 28008KT 250V320 9000 -RA FEW036 SCT040 OVC070 08/05 Q1034 RMK PP012=
SPZO Ene2015-110800Z 26005KT 9000 -RA FEW036 SCT040 OVC070 07/04 Q1034 RMK PP002=
SPZO Ene2015-110900Z 27009KT 240V300 9999 DZ FEW036 SCT040 OVC070 07/03 Q1034 RMK PP008=
SPZO Ene2015-111000Z 27004KT 240V300 9999 DZ FEW036 SCT040 OVC070 07/04 Q1034 RMK PP002=
SPZO Ene2015-111100Z 00000KT 9999 FEW036 SCT043 OVC100 07/04 Q1035 RMK PP002=
SPZO Ene2015-111200Z VRB03KT 9999 FEW033 SCT036 BKN080 08/05 Q1035 NOSIG RMK PP000=
SPZO Ene2015-111300Z 00000KT 9999 FEW033 SCT036 BKN080 09/03 Q1036 NOSIG RMK PP000=
SPZO Ene2015-111400Z 00000KT 9999 FEW033 SCT040 BKN080 11/04 Q1035 NOSIG RMK PP000=
SPZO Ene2015-111500Z VRB02KT 9999 FEW033 SCT040 BKN080 13/04 Q1035 NOSIG RMK PP000=
SPZO Ene2015-111600Z 06005KT 340V160 9999 SCT040 BKN080 15/07 Q1034 TEMPO SCT050 SCT100 RMK PP000=
SPZO Ene2015-111700Z VRB04KT 9999 SCT040 SCT080 17/07 Q1032 NOSIG RMK PP000=
SPZO Ene2015-111800Z 34006KT 260V030 9999 BKN050 17/05 Q1030 TEMPO VCSH RMK PP000=
SPZO Ene2015-111900Z 34006KT 250V040 9999 BKN050 19/08 Q1029 NOSIG RMK PP000=
SPZO Ene2015-112000Z 29009KT 230V350 9999 BKN050 20/05 Q1027 TEMPO VCSH RMK PP000=
SPZO Ene2015-112100Z 35006KT 260V050 9999 BKN050 18/05 Q1027 NOSIG RMK PP000=
SPZO Ene2015-112200Z 10015KT 070V130 8000 VCSH FEW040TCU BKN050 13/07 Q1028 TEMPO -RA RMK TX20.3 PP000=
SPZO Ene2015-112300Z 03008KT 360V060 9999 FEW040 BKN050 13/07 Q1028 NOSIG RMK PP000=
SPZO Ene2015-120000Z 08005KT 040V110 9999 FEW040 BKN050 13/07 Q1030 RMK PP000=
SPZO Ene2015-120100Z 08004KT 9999 BKN050 12/06 Q1030 RMK PP000=
SPZO Ene2015-120200Z VRB02KT 9999 SCT040 BKN100 13/07 Q1031 RMK PP002=
SPZO Ene2015-120300Z 00000KT 9999 RA SCT040 BKN100 11/05 Q1033 RMK PP006=
SPZO Ene2015-120400Z 00000KT 9999 RA SCT040TCU BKN100 08/06 Q1034 RMK PP050=
SPZO Ene2015-120500Z 00000KT 9999 -RA SCT030 BKN080 08/06 Q1034 RMK PP006=
SPZO Ene2015-120600Z 00000KT 9999 SCT030 BKN080 09/06 Q1033 RMK PPTRZ=
SPZO Ene2015-120700Z 00000KT 9999 -RA SCT030 BKN080 09/06 Q1033 RMK PP002=
SPZO Ene2015-120800Z 00000KT 9999 -RA SCT030 BKN080 08/05 Q1032 RMK PP006=
SPZO Ene2015-120900Z 00000KT 9999 FEW020 SCT030 BKN080 08/05 Q1032 RMK CLNG BLW 1200M PPTRZ=
SPZO Ene2015-121000Z VRB03KT 9999 FEW020 SCT030 BKN080 08/05 Q1032 RMK PP000=
SPZO Ene2015-121100Z 00000KT 9999 SCT030 BKN080 08/05 Q1032 RMK HZ PP000=
SPZO Ene2015-121200Z 11005KT 9999 FEW010 SCT040 BKN060 08/06 Q1034 NOSIG RMK PP000=
SPZO Ene2015-121300Z VRB01KT 9999 FEW010 SCT040 BKN060 10/06 Q1034 NOSIG RMK PP000=
SPZO Ene2015-121400Z VRB02KT 9999 FEW030 SCT040 BKN060 13/05 Q1034 NOSIG RMK PP000=
SPZO Ene2015-121500Z VRB02KT 9999 BKN050 SCT080 15/05 Q1033 NOSIG RMK PP000=
SPZO Ene2015-121600Z VRB03KT 9999 BKN050 SCT090 16/06 Q1032 NOSIG RMK PP000=
SPZO Ene2015-121700Z 23009KT 180V270 9999 BKN050 SCT100 16/08 Q1031 TEMPO VCSH RMK PP000=
SPZO Ene2015-121800Z VRB04KT 9999 SCT050 BKN100 16/02 Q1030 NOSIG RMK PP000=
SPZO Ene2015-121900Z VRB04KT 9999 SCT050 SCT230 18/04 Q1028 TEMPO VCSH FEW040TCU BKN100 RMK PP000=
SPZO Ene2015-122000Z VRB02KT 9999 SCT050 SCT230 20/04 Q1026 NOSIG RMK PP000=
SPZO Ene2015-122100Z 24007KT 140V290 9999 SCT050 SCT230 19/03 Q1025 NOSIG RMK PP000=
SPZO Ene2015-122200Z 27008KT 240V310 9999 SCT046 SCT100 19/05 Q1025 TEMPO VCSH FEW040TCU BKN080 RMK TX20.7 PP000=
SPZO Ene2015-122300Z 31007KT 250V360 9999 FEW040CB SCT046 BKN080 16/04 Q1027 TEMPO 10012KT 9000E -RA RMK PP000=
SPZO Ene2015-130000Z 10014KT 050V150 8000 -TSRA FEW040CB SCT046 BKN080 11/06 Q1030 RMK PPTRZ=
SPZO Ene2015-130100Z 33001KT 300V030 9000 -DZ FEW033 SCT046 BKN080 10/06 Q1032 RMK PP010=
SPZO Ene2015-130200Z 00000KT 9000 -DZ FEW033 SCT043 BKN080 10/06 Q1032 RMK PP002=
SPZO Ene2015-130300Z 00000KT 9000 -DZ FEW033 SCT043 BKN080 10/06 Q1033 RMK PPTRZ=
SPZO Ene2015-130400Z 11003KT 9999 FEW020 SCT040 BKN080 10/07 Q1033 REDZ RMK PPTRZ=
SPZO Ene2015-130500Z 25004KT 210V310 9999 FEW025 SCT040 BKN080 09/04 Q1032 RMK PP000=
SPZO Ene2015-130600Z 08004KT 060V140 9999 FEW025 SCT040 BKN080 09/05 Q1032 RMK PP000=
SPZO Ene2015-130700Z 10006KT 060V140 9000 -DZ FEW020 SCT040 BKN080 08/04 Q1032 RMK PP002=
SPZO Ene2015-130800Z 27005KT 9999 FEW020 SCT040 BKN080 08/04 Q1031 REDZ RMK PPTRZ=
SPZO Ene2015-130900Z 10006KT 050V130 9999 FEW025 SCT040 BKN080 07/04 Q1030 RMK PP000=
SPZO Ene2015-131000Z VRB02KT 9999 FEW030 SCT040 BKN080 07/04 Q1031 RMK PP000=
SPZO Ene2015-131100Z VRB03KT 9999 SCT040 BKN100 07/04 Q1031 RMK PP000=
SPZO Ene2015-131200Z VRB02KT 9999 SCT050 BKN100 08/05 Q1033 NOSIG RMK PP000=
SPZO Ene2015-131300Z 00000KT 9999 SCT100 SCT230 11/04 Q1032 NOSIG RMK PP000=
SPZO Ene2015-131400Z VRB02KT 9999 FEW050 BKN230 13/04 Q1033 NOSIG RMK PP000=
SPZO Ene2015-131500Z 27009KT 9999 FEW040 SCT050 BKN100 13/04 Q1033 TEMPO -DZ RMK PP000=
SPZO Ene2015-131600Z 26008KT 9999 FEW040 SCT050 BKN100 13/03 Q1032 NOSIG RMK PP000=
SPZO Ene2015-131700Z 27006KT 230V320 9999 SCT046 BKN100 14/02 Q1031 NOSIG RMK PP000=
SPZO Ene2015-131800Z 28008KT 240V320 9999 SCT046 BKN080 14/04 Q1031 NOSIG RMK PP000=
SPZO Ene2015-131900Z 27008KT 230V320 9999 SCT046 BKN080 15/04 Q1030 TEMPO VCSH RMK PP000=
SPZO Ene2015-132000Z 27008KT 240V320 9999 SCT050 BKN100 16/03 Q1028 NOSIG RMK PP000=
SPZO Ene2015-132100Z 26008KT 240V300 9999 FEW050 BKN150 16/02 Q1027 NOSIG RMK PP000=
SPZO Ene2015-132200Z 26009KT 9999 FEW050 BKN150 15/03 Q1027 NOSIG RMK TX16.3 PP000=
SPZO Ene2015-132300Z 29007KT 260V350 9999 FEW050 BKN150 14/04 Q1028 NOSIG RMK PP000=
SPZO Ene2015-140000Z 29009KT 9999 SCT050 BKN100 13/05 Q1028 RMK PP000=
SPZO Ene2015-140100Z 26005KT 9999 SCT050 BKN100 11/05 Q1029 RMK PP000=
SPZO Ene2015-140200Z 00000KT 9999 SCT050 BKN100 10/05 Q1030 RMK PP000=
SPZO Ene2015-140300Z 00000KT 9999 SCT050 BKN100 09/05 Q1032 RMK PP000=
SPZO Ene2015-140400Z 00000KT 9999 SCT050 BKN100 08/04 Q1032 RMK PP000=
SPZO Ene2015-140500Z 00000KT 9999 SCT050 BKN100 08/05 Q1031 RMK PP000=
SPZO Ene2015-140600Z 00000KT 9999 SCT050 BKN100 07/04 Q1031 RMK PP000=
SPZO Ene2015-140700Z 00000KT 9999 SCT050 BKN100 07/05 Q1031 RMK PP000=
SPZO Ene2015-140800Z 00000KT 9999 SCT050 BKN100 06/04 Q1031 RMK PP000=
SPZO Ene2015-140900Z 00000KT 9999 SCT040 BKN100 06/03 Q1031 RMK PP000=
SPZO Ene2015-141000Z 00000KT 8000 NSC 05/03 Q1031 RMK VIS 7000E BR PP000=
SPZO Ene2015-141100Z 00000KT 8000 SCT050 05/03 Q1031 RMK PP000=
SPZO Ene2015-141200Z 00000KT 9999 FEW030 SCT046 08/05 Q1032 NOSIG RMK VIS 7000 QUAD NE BR PP000=
SPZO Ene2015-141300Z 00000KT 9999 FEW030 SCT046 12/05 Q1033 NOSIG RMK VIS 9000 QUAD NE BR PP000=
SPZO Ene2015-141400Z VRB02KT 9999 SCT046 15/04 Q1033 NOSIG RMK PP000=
SPZO Ene2015-141500Z 00000KT 9999 SCT046 16/03 Q1033 NOSIG RMK PP000=
SPZO Ene2015-141600Z VRB03KT 9999 SCT046 SCT200 18/03 Q1031 NOSIG RMK PP000=
SPZO Ene2015-141700Z VRB04KT 9999 SCT050 SCT200 20/M02 Q1030 NOSIG RMK PP000=
SPZO Ene2015-141800Z VRB03KT 9999 SCT050 SCT150 19/M01 Q1029 NOSIG RMK PP000=
SPZO Ene2015-141900Z 35012KT 290V030 9999 SCT050 SCT120 19/01 Q1028 TEMPO VCSH RMK PP000=
SPZO Ene2015-142000Z 34008KT 260V020 9999 FEW040TCU SCT050 SCT100 20/02 Q1027 NOSIG RMK PP000=
SPZO Ene2015-142100Z 34008KT 250V050 9999 SCT050 BKN100 19/00 Q1027 NOSIG RMK PP000=
SPZO Ene2015-142200Z 36008KT 310V070 9999 SCT050 BKN100 18/03 Q1027 NOSIG RMK TX21.0 PP000=
SPZO Ene2015-142300Z 32005KT 270V040 9999 SCT050 BKN100 17/02 Q1027 TEMPO FEW040TCU BKN080 RMK PP000=
SPZO Ene2015-150000Z 32006KT 290V360 9999 SCT050 BKN100 15/03 Q1028 RMK PP000=
SPZO Ene2015-150100Z 00000KT 9999 FEW050 BKN100 14/04 Q1030 RMK PP000=
SPZO Ene2015-150200Z 26004KT 9999 FEW050 SCT100 11/05 Q1031 RMK PP000=
SPZO Ene2015-150300Z 00000KT 9999 FEW050 10/05 Q1032 RMK PP000=
SPZO Ene2015-150400Z VRB02KT 9999 FEW050 10/05 Q1032 RMK PP000=
SPZO Ene2015-150500Z 00000KT 9999 SCT050 09/05 Q1032 RMK PP000=
SPZO Ene2015-150600Z 28004KT 9999 SCT050 08/04 Q1031 RMK PP000=
SPZO Ene2015-150700Z 00000KT 9999 SCT060 08/05 Q1031 RMK PP000=
SPZO Ene2015-150800Z 00000KT 9999 FEW040 SCT060 08/05 Q1031 RMK PP000=
SPZO Ene2015-150900Z 00000KT 9999 SCT040 SCT080 09/05 Q1031 RMK PP000=
SPZO Ene2015-151000Z 07003KT 9999 FEW030 BKN080 07/04 Q1031 RMK PP000=
SPZO Ene2015-151100Z 00000KT 9999 FEW030 07/04 Q1032 RMK VIS 9000E HZ PP000=
SPZO Ene2015-151200Z 00000KT 9000 FEW030 SCT050 10/06 Q1033 TEMPO FEW020 SCT040 RMK HZ PP000=
SPZO Ene2015-151300Z 00000KT 9000 FEW040 SCT050 13/06 Q1033 NOSIG RMK HZ PP000=
SPZO Ene2015-151400Z 00000KT 9999 SCT050 14/05 Q1033 NOSIG RMK PP000=
SPZO Ene2015-151500Z VRB02KT 9999 SCT050 16/05 Q1033 NOSIG RMK PP000=
SPZO Ene2015-151600Z 00000KT 9999 SCT050 18/02 Q1032 NOSIG RMK PP000=
SPZO Ene2015-151700Z VRB05KT 9999 SCT050 20/03 Q1030 NOSIG RMK PP000=
SPZO Ene2015-151800Z 35006KT 9999 VCSH FEW040TCU SCT050 BKN080 20/03 Q1029 NOSIG RMK PP000=
SPZO Ene2015-151900Z 24009KT 200V270 8000 -TSRA FEW040CB SCT050 BKN080 15/06 Q1029 NOSIG RMK PP004=
SPZO Ene2015-152000Z 11007KT 080V150 9999 VCSH FEW036TCU SCT046 BKN080 15/07 Q1029 NOSIG RMK PP006=
SPZO Ene2015-152100Z 30006KT 240V030 9999 VCSH FEW036TCU SCT046 BKN080 17/04 Q1028 RERA TEMPO -RA RMK PPTRZ=
SPZO Ene2015-152200Z 30004KT 240V010 9999 FEW036TCU SCT043 BKN080 17/06 Q1028 NOSIG RMK TX20.7 PP000=
SPZO Ene2015-152300Z 34004KT 280V030 9999 FEW036TCU SCT043 BKN100 16/05 Q1028 NOSIG RMK PP000=
SPZO Ene2015-160000Z 29003KT 240V360 9999 SCT043 SCT100 14/05 Q1029 RMK PP000=
SPZO Ene2015-160100Z 00000KT 9999 FEW040 SCT100 13/07 Q1030 RMK PP000=
SPZO Ene2015-160200Z 00000KT 9999 SCT100 12/07 Q1031 RMK PP000=
SPZO Ene2015-160300Z 00000KT 9999 SCT100 10/07 Q1033 RMK PP000=
SPZO Ene2015-160400Z 27004KT 9999 FEW050 SCT100 10/06 Q1033 RMK PP000=
SPZO Ene2015-160500Z 27005KT 9999 FEW050 SCT100 11/07 Q1032 RMK PP000=
SPZO Ene2015-160600Z VRB02KT 9999 FEW050 SCT100 11/06 Q1031 RMK PP000=
SPZO Ene2015-160700Z 27003KT 9999 FEW050 SCT100 11/06 Q1031 RMK PP000=
SPZO Ene2015-160800Z 00000KT 9999 FEW050 SCT100 10/06 Q1031 RMK PP000=
SPZO Ene2015-160900Z 26003KT 9999 FEW050 SCT100 10/06 Q1031 RMK PP000=
SPZO Ene2015-161000Z 00000KT 9999 FEW050 SCT100 10/07 Q1031 RMK PP000=
SPZO Ene2015-161100Z 00000KT 9999 FEW040 SCT043 BKN100 10/07 Q1032 RMK RA QUAD N PP000=
SPZO Ene2015-161200Z VRB02KT 9999 SCT040 BKN080 10/06 Q1032 NOSIG RMK PP000=
SPZO Ene2015-161300Z VRB02KT 9999 SCT040 BKN100 13/06 Q1033 NOSIG RMK PP000=
SPZO Ene2015-161400Z VRB02KT 9999 SCT040 BKN100 14/05 Q1033 NOSIG RMK PP000=
SPZO Ene2015-161500Z VRB02KT 9999 SCT040 BKN100 17/04 Q1033 NOSIG RMK PP000=
SPZO Ene2015-161600Z 05004KT 290V110 9999 SCT043 SCT100 18/05 Q1032 NOSIG RMK PP000=
SPZO Ene2015-161700Z VRB02KT 9999 SCT043 SCT100 20/02 Q1031 NOSIG RMK PP000=
SPZO Ene2015-161800Z 27011KT 220V350 9999 SCT046 SCT100 21/06 Q1030 NOSIG RMK PP000=
SPZO Ene2015-161900Z 31010KT 270V360 9999 SCT040 BKN150 20/02 Q1028 NOSIG RMK PP000=
SPZO Ene2015-162000Z 29009KT 250V330 9999 FEW040TCU SCT050 BKN100 21/04 Q1027 NOSIG RMK PP000=
SPZO Ene2015-162100Z 36008KT 300V080 9999 SCT046 BKN100 19/05 Q1027 NOSIG RMK PP000=
SPZO Ene2015-162200Z 01006KT 300V060 9999 SCT050 BKN200 18/04 Q1027 NOSIG RMK TX22.3 PP000=
SPZO Ene2015-162300Z 06006KT 030V090 9999 FEW050 BKN200 17/06 Q1027 NOSIG RMK PP000=
SPZO Ene2015-170000Z 12005KT 060V210 9999 SCT050 SCT150 15/07 Q1028 RMK PP000=
SPZO Ene2015-170100Z 08004KT 030V120 9999 SCT050 SCT100 14/06 Q1030 RMK PP000=
SPZO Ene2015-170200Z VRB03KT 9999 SCT050 SCT100 14/06 Q1031 RMK PP000=
SPZO Ene2015-170300Z 00000KT 9999 SCT050 BKN100 14/07 Q1032 RMK PP000=
SPZO Ene2015-170400Z 00000KT 9999 -RA SCT040 BKN100 13/07 Q1031 RMK PP004=
SPZO Ene2015-170500Z 10013G24KT 9999 TS SCT040 BKN100 13/07 Q1032 RMK PP000=
SPZO Ene2015-170600Z 27008KT 9999 SCT030 BKN080 11/06 Q1031 RMK PP000=
SPZO Ene2015-170700Z 00000KT 9999 SCT030 BKN080 11/05 Q1031 RMK PP000=
SPZO Ene2015-170800Z 00000KT 9999 SCT030 BKN080 10/05 Q1030 RMK PP000=
SPZO Ene2015-170900Z 00000KT 9999 SCT040 BKN080 10/04 Q1030 RMK PP000=
SPZO Ene2015-171000Z 00000KT 9999 SCT040 BKN080 10/06 Q1031 RMK PP000=
SPZO Ene2015-171100Z 00000KT 9999 SCT040 BKN100 11/06 Q1031 RMK PP000=
SPZO Ene2015-171200Z 07004KT 9999 FEW036 SCT050 BKN100 10/06 Q1032 NOSIG RMK PP000=
SPZO Ene2015-171300Z VRB02KT 9999 FEW036 SCT046 BKN080 12/06 Q1033 NOSIG RMK PP000=
SPZO Ene2015-171400Z 00000KT 9999 SCT040 BKN080 15/06 Q1033 NOSIG RMK PP000=
SPZO Ene2015-171500Z VRB02KT 9999 FEW040 SCT060 17/06 Q1032 NOSIG RMK PP000=
SPZO Ene2015-171600Z 03005KT 310V080 9999 FEW043 SCT060 BKN080 17/04 Q1031 NOSIG RMK PP000=
SPZO Ene2015-171700Z 25004KT 180V270 9999 SCT046 BKN080 19/02 Q1030 NOSIG RMK PP000=
SPZO Ene2015-171800Z VRB03KT 9999 FEW040 SCT050 22/05 Q1029 NOSIG RMK PP000=
SPZO Ene2015-171900Z 06009KT 360V100 9999 VCSH FEW040TCU SCT046 BKN080 18/04 Q1028 TEMPO -RA RMK PP000=
SPZO Ene2015-172000Z 11012KT 070V170 9999 FEW040 SCT050 BKN080 14/05 Q1028 NOSIG RMK PPTRZ=
SPZO Ene2015-172100Z VRB03KT 9999 SCT046 BKN080 14/04 Q1028 NOSIG RMK PP000=
SPZO Ene2015-172200Z 12004KT 080V160 9999 SCT046 BKN100 14/04 Q1028 NOSIG RMK TX22.2 PP000=
SPZO Ene2015-172300Z 09004KT 070V140 9999 SCT050 BKN100 13/05 Q1029 NOSIG RMK PP000=
SPZO Ene2015-180000Z 08005KT 9999 SCT050 BKN100 12/05 Q1030 RMK PP000=
SPZO Ene2015-180100Z 08001KT 9999 SCT050 BKN100 12/06 Q1031 RMK PP000=
SPZO Ene2015-180200Z VRB08KT 6000 RA FEW033 SCT036 BKN070 10/05 Q1034 RMK PP030=
SPZO Ene2015-180300Z VRB02KT 7000 RA FEW033 SCT036 BKN070 08/05 Q1035 RMK PP018=
SPZO Ene2015-180400Z 22005KT 180V250 9000 -DZ FEW030 SCT040 BKN080 09/05 Q1035 RMK PP006=
SPZO Ene2015-180500Z 13003KT 090V190 9000 -DZ FEW030 SCT036 BKN080 08/05 Q1034 RMK PP004=
SPZO Ene2015-180600Z VRB02KT 9999 FEW033 SCT036 BKN080 08/05 Q1033 REDZ RMK PPTRZ=
SPZO Ene2015-180700Z 08002KT 9999 FEW030 SCT036 BKN080 08/05 Q1032 RMK PP000=
SPZO Ene2015-180800Z 11004KT 080V150 9999 FEW030 SCT036 BKN080 08/05 Q1031 RMK PP000=
SPZO Ene2015-180900Z 10003KT 9999 FEW020 SCT036 BKN080 08/05 Q1032 RMK PP000=
SPZO Ene2015-181000Z 04002KT 9999 FEW030 SCT040 BKN080 07/05 Q1032 RMK SCT015 QUAD W PP000=
SPZO Ene2015-181100Z 08003KT 9999 FEW025 SCT036 BKN080 07/05 Q1032 RMK PP000=
SPZO Ene2015-181200Z 09004KT 9999 FEW020 SCT040 BKN100 08/05 Q1033 NOSIG RMK PP000=
SPZO Ene2015-181300Z VRB03KT 9999 FEW025 SCT043 BKN100 09/05 Q1034 NOSIG RMK PP000=
SPZO Ene2015-181400Z VRB02KT 9999 FEW030 SCT050 BKN080 11/07 Q1034 NOSIG RMK PP000=
SPZO Ene2015-181500Z 07005KT 010V120 9999 FEW036 SCT050 BKN100 12/04 Q1034 NOSIG RMK PP000=
SPZO Ene2015-181600Z 11004KT 050V220 9999 FEW036 SCT050 BKN100 14/06 Q1033 NOSIG RMK PP000=
SPZO Ene2015-181700Z VRB02KT 9999 SCT046 BKN100 15/07 Q1032 NOSIG RMK PP000=
SPZO Ene2015-181800Z VRB03KT 9999 SCT046 BKN100 17/04 Q1031 NOSIG RMK PP000=
SPZO Ene2015-181900Z 29003KT 030V160 9999 FEW040 SCT046 BKN100 17/05 Q1029 NOSIG RMK PP000=
SPZO Ene2015-182000Z VRB04KT 9999 FEW040 SCT050 19/04 Q1027 NOSIG RMK PP000=
SPZO Ene2015-182100Z VRB03KT 9999 SCT050 20/03 Q1026 NOSIG RMK PP000=
SPZO Ene2015-182200Z 35009KT 300V030 9999 SCT050 17/05 Q1026 NOSIG RMK TX20.1 PP000=
SPZO Ene2015-182300Z 07007KT 360V140 9999 SCT046 SCT080 16/05 Q1027 NOSIG RMK PP000=
SPZO Ene2015-190000Z 12004KT 050V180 9999 -RA FEW036 SCT040TCU BKN080 14/07 Q1028 RMK PPTRZ=
SPZO Ene2015-190100Z 00000KT 9999 TS SCT040CB BKN080 13/07 Q1030 RMK PP004=
SPZO Ene2015-190200Z 08009KT 030V180 9999 TSRA SCT040CB OVC080 10/06 Q1033 RMK PP004=
SPZO Ene2015-190300Z 12005KT 090V150 9999 +TSRA FEW036 SCT040CB OVC080 09/06 Q1035 RMK PP054=
SPZO Ene2015-190400Z 08004KT 8000 +RA FEW033 SCT043 OVC080 08/06 Q1034 RMK PP058=
SPZO Ene2015-190500Z 00000KT 8000 -RA FEW033 SCT043 OVC080 08/05 Q1033 RMK PP018=
SPZO Ene2015-190600Z 26005KT 9999 FEW036 SCT043 OVC080 08/05 Q1032 RMK PP008=
SPZO Ene2015-190700Z 29005KT 9999 FEW030 SCT043 OVC080 08/05 Q1032 RMK PP000=
SPZO Ene2015-190800Z 00000KT 9999 FEW025 SCT040 OVC080 08/04 Q1032 RMK PP000=
SPZO Ene2015-190900Z VRB02KT 9999 SCT040 BKN080 08/05 Q1031 RMK PP000=
SPZO Ene2015-191000Z VRB02KT 9999 SCT040 BKN080 08/05 Q1031 RMK PP000=
SPZO Ene2015-191100Z 00000KT 9999 SCT046 BKN080 07/05 Q1032 RMK BR QUAD NE PP000=
SPZO Ene2015-191200Z 00000KT 9999 FEW020 SCT043 BKN100 09/05 Q1033 NOSIG RMK BR QUAD NE PP000=
SPZO Ene2015-191300Z VRB02KT 9999 FEW025 SCT040 BKN100 11/06 Q1033 NOSIG RMK PP000=
SPZO Ene2015-191400Z VRB02KT 9999 FEW036 SCT040 13/05 Q1033 NOSIG RMK PP000=
SPZO Ene2015-191500Z VRB02KT 9999 SCT040 SCT080 14/06 Q1033 NOSIG RMK PP000=
SPZO Ene2015-191600Z VRB04KT 9999 SCT043 SCT100 17/05 Q1032 TEMPO VCSH FEW040TCU SCT100 RMK PP000=
SPZO Ene2015-191700Z VRB05KT 9999 SCT046 SCT100 18/05 Q1031 TEMPO VCSH FEW040TCU SCT100 RMK PP000=
SPZO Ene2015-191800Z VRB04KT 9999 SCT050 19/03 Q1029 NOSIG RMK PP000=
SPZO Ene2015-191900Z 28014KT 250V320 9999 SCT050 20/06 Q1028 NOSIG RMK PP000=
SPZO Ene2015-192000Z 27011G21KT 230V300 9999 SCT050 20/06 Q1026 NOSIG RMK PP000=
SPZO Ene2015-192100Z 36008KT 300V050 9999 TS -RA VCSH FEW040CB SCT050 BKN100 20/05 Q1025 TEMPO 10012KT 9000 -RA SCT040CB BKN070 RMK PP000=
SPZO Ene2015-192200Z VRB05KT 8000 VCSH FEW030TCU SCT050 BKN070 14/06 Q1026 RETSRA TEMPO 8000E RMK TX20.9 PP032=
SPZO Ene2015-192300Z 00000KT 9000 VCSH FEW030TCU SCT050 BKN070 16/05 Q1027 NOSIG RMK PP000=
SPZO Ene2015-200000Z 10006KT 070V150 9999 SCT050 BKN080 14/06 Q1028 RMK PP000=
SPZO Ene2015-200100Z 09006KT 240V350 9999 SCT050 BKN100 14/05 Q1029 RMK PP000=
SPZO Ene2015-200200Z 09003KT 9999 SCT050 SCT100 12/06 Q1030 RMK PP000=
SPZO Ene2015-200300Z 00000KT 9999 SCT050 SCT100 13/06 Q1031 RMK PP000=
SPZO Ene2015-200400Z 09003KT 9999 SCT046 SCT080 12/05 Q1031 RMK PP000=
SPZO Ene2015-200500Z 17005KT 9999 BKN046 SCT080 12/05 Q1031 RMK PP000=
SPZO Ene2015-200600Z 17006KT 9999 BKN043 SCT080 11/05 Q1031 RMK PP000=
SPZO Ene2015-200700Z 24007KT 9999 BKN043 SCT080 11/04 Q1030 RMK PP000=
SPZO Ene2015-200800Z 20003KT 9999 SCT050 SCT080 11/04 Q1030 RMK PP000=
SPZO Ene2015-200900Z 28007KT 9999 BKN043 SCT080 10/04 Q1030 RMK PP000=
SPZO Ene2015-201000Z 28008KT 9999 FEW036 SCT043 BKN080 09/04 Q1030 RMK PP000=
SPZO Ene2015-201100Z 28004KT 250V330 9999 FEW036 SCT043 BKN080 09/04 Q1030 RMK PP000=
SPZO Ene2015-201200Z 29003KT 250V330 9999 FEW030 SCT040 BKN050 10/04 Q1031 NOSIG RMK PP000=
SPZO Ene2015-201300Z 00000KT 9999 FEW040 SCT050 BKN070 11/04 Q1031 NOSIG RMK PP000=
SPZO Ene2015-201400Z 00000KT 9999 FEW040 SCT050 BKN070 12/04 Q1032 TEMPO -RA BKN040 RMK PP000=
SPZO Ene2015-201500Z 00000KT 9999 FEW030 SCT040 BKN100 13/05 Q1032 NOSIG RMK PP000=
SPZO Ene2015-201600Z VRB03KT 9999 FEW030 SCT040 BKN100 14/04 Q1031 NOSIG RMK PP000=
SPZO Ene2015-201700Z VRB03KT 9999 SCT040 SCT060 BKN080 14/04 Q1030 TEMPO -RA RMK PP000=
SPZO Ene2015-201800Z 09010KT 060V140 9999 VCSH FEW040TCU SCT050 BKN080 14/06 Q1030 TEMPO -RA RMK PP000=
SPZO Ene2015-201900Z 09009KT 9999 FEW030 SCT040 BKN080 14/06 Q1029 NOSIG RMK PP000=
SPZO Ene2015-202000Z 10004KT 060V170 9999 FEW033 SCT046 BKN100 15/05 Q1028 NOSIG RMK PP000=
SPZO Ene2015-202100Z VRB01KT 9999 FEW033 SCT046 BKN100 16/06 Q1027 NOSIG RMK PP000=
SPZO Ene2015-202200Z 06010KT 020V100 9999 VCSH FEW040TCU SCT050 BKN100 16/06 Q1026 NOSIG RMK TX17.7 PP000=
SPZO Ene2015-202300Z 10006KT 060V140 9999 VCSH FEW036TCU SCT046 BKN100 16/06 Q1026 BECMG FM2320 10011KT 9000 4500E -RA SCT040CB BKN080 RMK PP000=
SPZO Ene2015-210000Z 08008KT 050V110 9999 -RA SCT040TCU BKN080 10/08 Q1029 RMK RA QUAD E PP006=
SPZO Ene2015-210100Z VRB02KT 9999 -RA FEW030 SCT040 BKN080 10/07 Q1031 RMK PP012=
SPZO Ene2015-210200Z 26007KT 9999 DZ FEW030 SCT040 BKN080 10/07 Q1032 RMK PP002=
SPZO Ene2015-210300Z VRB02KT 9999 SCT036 BKN070 10/06 Q1032 RMK PPTRZ=
SPZO Ene2015-210400Z 00000KT 9999 -RA SCT036 BKN070 10/07 Q1032 RMK PP002=
SPZO Ene2015-210500Z 00000KT 9999 -RA SCT036 BKN070 09/06 Q1032 RMK PP008=
SPZO Ene2015-210600Z 00000KT 9999 SCT036 BKN070 09/07 Q1031 RMK PPTRZ=
SPZO Ene2015-210700Z 00000KT 9999 SCT040 BKN080 10/07 Q1031 RMK PP000=
SPZO Ene2015-210800Z 00000KT 9999 SCT043 BKN080 10/07 Q1030 RMK PP000=
SPZO Ene2015-210900Z 08003KT 9999 FEW020 SCT043 BKN080 09/07 Q1030 RMK PP000=
SPZO Ene2015-211000Z 00000KT 9999 FEW020 SCT043 BKN080 10/07 Q1031 RMK PP000=
SPZO Ene2015-211100Z 07003KT 9999 FEW020 SCT043 BKN100 10/08 Q1031 RMK BR QUAD NE PP000=
SPZO Ene2015-211200Z VRB01KT 9999 FEW020 SCT036 BKN080 11/07 Q1032 NOSIG RMK PP000=
SPZO Ene2015-211300Z VRB02KT 9999 FEW030 SCT040 BKN080 12/07 Q1033 NOSIG RMK PP000=
SPZO Ene2015-211400Z VRB01KT 9999 FEW033 SCT040 BKN080 13/06 Q1033 TEMPO -RA RMK PP000=
SPZO Ene2015-211500Z 06004KT 360V110 9999 FEW033 SCT043 BKN080 14/06 Q1033 NOSIG RMK PP000=
SPZO Ene2015-211600Z 14004KT 100V210 9999 SCT040 BKN080 15/05 Q1032 NOSIG RMK -SHRA BTN 1535/1540 PP002=
SPZO Ene2015-211700Z VRB03KT 9999 SCT043 BKN080 16/06 Q1031 TEMPO FEW040TCU BKN100 RMK PP000=
SPZO Ene2015-211800Z 35010KT 290V070 9999 SCT046 BKN080 17/05 Q1031 TEMPO VCSH RMK PP000=
SPZO Ene2015-211900Z 36009KT 300V060 9999 SCT046 SCT100 17/03 Q1029 NOSIG RMK PP000=
SPZO Ene2015-212000Z 33010KT 300V010 9999 SCT046 SCT150 19/06 Q1028 NOSIG RMK PP000=
SPZO Ene2015-212100Z 03006KT 320V100 9999 SCT046 17/02 Q1028 TEMPO FEW040TCU BKN100 RMK PP000=
SPZO Ene2015-212200Z 36008KT 310V050 9999 FEW040 SCT080 15/04 Q1029 NOSIG RMK TX18.7 PP000=
SPZO Ene2015-212300Z 36005KT 310V090 9999 SCT040 BKN100 14/04 Q1029 TEMPO 12010KT VCSH FEW040TCU BKN080 RMK PP000=
SPZO Ene2015-220000Z 02007KT 340V060 9999 SCT040 BKN100 13/03 Q1031 RMK PP000=
SPZO Ene2015-220100Z 01004KT 9999 SCT040 BKN100 13/04 Q1033 RMK PP000=
SPZO Ene2015-220200Z 34009KT 9999 SCT040 BKN100 12/03 Q1033 RMK PP000=
SPZO Ene2015-220300Z 35006KT 9999 SCT040 BKN100 12/03 Q1034 RMK PP000=
SPZO Ene2015-220400Z 00000KT 9999 SCT050 BKN100 12/03 Q1034 RMK PP000=
SPZO Ene2015-220500Z 00000KT 9999 SCT050 BKN100 12/04 Q1033 RMK PP000=
SPZO Ene2015-220600Z 00000KT 9999 SCT050 BKN100 12/02 Q1032 RMK PP000=
SPZO Ene2015-220700Z 00000KT 9999 SCT050 BKN100 11/05 Q1032 RMK PP000=
SPZO Ene2015-220800Z 00000KT 9999 SCT050 BKN100 11/05 Q1032 RMK PP000=
SPZO Ene2015-220900Z 00000KT 9999 SCT050 BKN100 10/06 Q1032 RMK PP000=
SPZO Ene2015-221000Z VRB03KT 9999 SCT040 BKN100 10/05 Q1032 RMK PP000=
SPZO Ene2015-221100Z VRB02KT 9999 FEW020 SCT040 BKN100 10/05 Q1032 RMK PP000=
SPZO Ene2015-221200Z 09003KT 050V150 9999 FEW036 SCT040 BKN080 11/05 Q1034 NOSIG RMK PP000=
SPZO Ene2015-221300Z VRB02KT 9999 FEW033 SCT040 BKN080 13/05 Q1034 NOSIG RMK PP000=
SPZO Ene2015-221400Z VRB02KT 9999 SCT040 BKN080 15/05 Q1034 NOSIG RMK PP000=
SPZO Ene2015-221500Z VRB01KT 9999 SCT040 BKN080 15/04 Q1034 NOSIG RMK PP000=
SPZO Ene2015-221600Z VRB04KT 9999 SCT043 BKN080 17/04 Q1033 NOSIG RMK PP000=
SPZO Ene2015-221700Z VRB04KT 9999 SCT046 SCT080 19/04 Q1031 TEMPO FEW040TCU BKN100 RMK PP000=
SPZO Ene2015-221800Z VRB04KT 9999 FEW040 SCT050 19/05 Q1030 NOSIG RMK PP000=
SPZO Ene2015-221900Z VRB02KT 9999 SCT050 20/03 Q1028 NOSIG RMK PP000=
SPZO Ene2015-222000Z 08009KT 9999 FEW040TCU SCT050 19/05 Q1027 TEMPO 10012KT -RA RMK PP000=
SPZO Ene2015-222100Z 25005KT 190V300 9999 SCT040TCU SCT080 17/05 Q1027 NOSIG RMK PP000=
SPZO Ene2015-222200Z 03008KT 340V120 9999 BKN046 SCT080 16/04 Q1028 NOSIG RMK TX21.5 PP000=
SPZO Ene2015-222300Z VRB03KT 9999 FEW040TCU SCT046 BKN080 15/04 Q1029 NOSIG RMK PP000=
SPZO Ene2015-230000Z 12005KT 060V190 9999 FEW036 SCT046 BKN080 14/05 Q1030 RMK TCU QUAD S PP000=
SPZO Ene2015-230100Z 08008KT 050V110 9999 SCT046 BKN080 13/05 Q1032 RMK -RA QUAD E PP000=
SPZO Ene2015-230200Z VRB03KT 9999 SCT046 BKN080 13/05 Q1032 RMK -RA QUAD E PP000=
SPZO Ene2015-230300Z VRB02KT 9999 SCT046 BKN080 12/05 Q1033 RMK PP000=
SPZO Ene2015-230400Z 09004KT 9999 SCT046 BKN080 12/05 Q1033 RMK PP000=
SPZO Ene2015-230500Z 00000KT 9999 SCT046 BKN080 12/06 Q1033 RMK PP000=
SPZO Ene2015-230600Z VRB03KT 9999 SCT046 BKN080 11/06 Q1032 RMK PP000=
SPZO Ene2015-230700Z 31005KT 250V010 9999 SCT046 BKN080 12/04 Q1032 RMK PP000=
SPZO Ene2015-230800Z 33003KT 270V020 9999 SCT046 BKN080 11/03 Q1032 RMK PP000=
SPZO Ene2015-230900Z 13001KT 090V180 9999 SCT046 BKN080 11/04 Q1032 RMK PP000=
SPZO Ene2015-231000Z VRB01KT 9999 SCT043 BKN080 10/04 Q1032 RMK PP000=
SPZO Ene2015-231100Z 00000KT 9999 SCT040 BKN070 10/05 Q1033 RMK PP000=
SPZO Ene2015-231200Z VRB02KT 9999 SCT046 BKN080 11/05 Q1034 NOSIG RMK PP000=
SPZO Ene2015-231300Z VRB02KT 9999 SCT046 BKN100 12/06 Q1034 NOSIG RMK PP000=
SPZO Ene2015-231400Z VRB02KT 9999 SCT050 SCT100 14/05 Q1034 NOSIG RMK PP000=
SPZO Ene2015-231500Z VRB02KT 9999 SCT043 BKN080 15/04 Q1034 NOSIG RMK PP000=
SPZO Ene2015-231600Z 00000KT 9999 SCT046 SCT100 16/04 Q1033 NOSIG RMK PP000=
SPZO Ene2015-231700Z VRB02KT 9999 FEW040 SCT046 BKN100 16/07 Q1032 NOSIG RMK PP000=
SPZO Ene2015-231800Z 24004KT 160V320 9999 FEW040 SCT046 BKN080 15/08 Q1031 RERA NOSIG RMK PP002=
SPZO Ene2015-231900Z 15004KT 060V210 9999 VCSH FEW040 SCT046 BKN080 17/05 Q1029 NOSIG RMK RA NE PP000=
SPZO Ene2015-232000Z 10014KT 070V140 9999 DZ VCSH FEW040TCU SCT046 BKN080 14/07 Q1028 TEMPO RA BKN040 RMK RA SE PP004=
SPZO Ene2015-232100Z 10009KT 020V170 9999 FEW036TCU SCT046 BKN080 17/07 Q1027 TEMPO RA BKN040 RMK PP000=
SPZO Ene2015-232200Z 11008KT 060V160 9999 SCT046 BKN100 17/05 Q1027 NOSIG RMK TX18.6 PP000=
SPZO Ene2015-232300Z 10010KT 070V150 9999 SCT046 BKN100 16/05 Q1028 NOSIG RMK PP000=
SPZO Ene2015-240000Z VRB06KT 9999 SCT046 SCT100 14/04 Q1030 RMK PP000=
SPZO Ene2015-240100Z VRB03KT 9999 SCT046 SCT100 13/04 Q1031 RMK PP000=
SPZO Ene2015-240200Z 00000KT 9999 SCT046 SCT100 12/05 Q1031 RMK PP000=
SPZO Ene2015-240300Z 00000KT 9999 SCT050 SCT100 11/05 Q1032 RMK PP000=
SPZO Ene2015-240400Z 00000KT 9999 SCT050 SCT100 11/06 Q1032 RMK PP000=
SPZO Ene2015-240500Z 00000KT 9999 SCT050 SCT100 09/06 Q1032 RMK PP000=
SPZO Ene2015-240600Z 00000KT 9999 SCT050 SCT100 10/06 Q1031 RMK PP000=
SPZO Ene2015-240700Z 00000KT 9999 SCT050 SCT100 11/06 Q1031 RMK PP000=
SPZO Ene2015-240800Z 00000KT 9999 SCT050 SCT100 11/05 Q1031 RMK PP000=
SPZO Ene2015-240900Z 00000KT 9999 SCT050 SCT100 10/06 Q1031 RMK PP000=
SPZO Ene2015-241000Z 00000KT 9999 -RA FEW030TCU SCT040 SCT100 09/07 Q1032 RMK PP002=
SPZO Ene2015-241100Z VRB03KT 8000 -RA VCSH FEW020TCU SCT030 SCT080 09/07 Q1033 RMK CLNG BLW 1200M VIS 7000E PP018=
SPZO Ene2015-241200Z VRB01KT 9999 FEW015 SCT036 BKN080 09/07 Q1034 NOSIG RMK PP000=
SPZO Ene2015-241300Z VRB01KT 9999 FEW015 SCT036 BKN080 11/06 Q1034 NOSIG RMK PP000=
SPZO Ene2015-241400Z VRB02KT 9999 FEW020 SCT040 BKN100 13/06 Q1034 NOSIG RMK PP000=
SPZO Ene2015-241500Z VRB06KT 9999 BKN040 16/07 Q1033 NOSIG RMK PP000=
SPZO Ene2015-241600Z VRB02KT 9999 BKN043 SCT080 17/04 Q1032 NOSIG RMK PP000=
SPZO Ene2015-241700Z VRB03KT 9999 FEW040 SCT046 BKN100 17/05 Q1031 NOSIG RMK PP000=
SPZO Ene2015-241800Z 00000KT 9999 FEW040TCU SCT050 BKN080 18/04 Q1030 NOSIG RMK PP000=
SPZO Ene2015-241900Z VRB02KT 9999 FEW040TCU SCT050 BKN080 19/04 Q1029 NOSIG RMK PP000=
SPZO Ene2015-242000Z 18004KT 120V240 9999 FEW040TCU BKN050 19/03 Q1027 NOSIG RMK PP000=
SPZO Ene2015-242100Z VRB02KT 9999 FEW040TCU BKN050 19/03 Q1026 NOSIG RMK PP000=
SPZO Ene2015-242200Z 28015KT 9999 FEW040TCU BKN060 19/02 Q1026 NOSIG RMK TMAX 19.8 PP000=
SPZO Ene2015-242300Z 26014KT 9999 FEW040TCU BKN080 16/06 Q1027 NOSIG RMK PP000=
SPZO Ene2015-250000Z 29010KT 260V320 9999 FEW040TCU BKN080 15/05 Q1029 RMK PP000=
SPZO Ene2015-250100Z 30006KT 9999 SCT040 BKN080 14/04 Q1030 RMK PP000=
SPZO Ene2015-250200Z 09013KT 9999 SCT040 BKN070 13/06 Q1031 RMK PP000=
SPZO Ene2015-250300Z 07005KT 9999 -RA BKN040 SCT070 11/07 Q1032 RMK PP004=
SPZO Ene2015-250400Z 08006KT 9999 -RA BKN040 SCT070 11/08 Q1032 RMK PP004=
SPZO Ene2015-250500Z 08007KT 9000 -RA OVC040 09/06 Q1033 RMK PP012=
SPZO Ene2015-250600Z 00000KT 9000 -RA SCT036 BKN043 09/06 Q1032 RMK PP016=
SPZO Ene2015-250700Z 00000KT 9999 SCT033 BKN043 09/06 Q1031 RMK PP000=
SPZO Ene2015-250800Z 15003KT 9999 SCT033 BKN046 09/04 Q1031 RMK PP000=
SPZO Ene2015-250900Z 00000KT 9999 SCT030 BKN043 09/05 Q1031 RMK PP000=
SPZO Ene2015-251000Z 00000KT 9999 FEW030 SCT040 BKN080 09/04 Q1031 RMK PP000=
SPZO Ene2015-251100Z 08002KT 9999 FEW030 SCT080 08/04 Q1031 RMK PP000=
SPZO Ene2015-251200Z 00000KT 9999 SCT040 BKN080 09/04 Q1032 RMK PP000=
SPZO Ene2015-251300Z 00000KT 9999 SCT040 BKN080 10/05 Q1033 TEMPO BKN040 RMK PP000=
SPZO Ene2015-251400Z VRB01KT 9999 SCT040 BKN080 12/05 Q1033 RMK PP000=
SPZO Ene2015-251500Z 00000KT 9999 FEW040TCU SCT060 BKN100 13/04 Q1032 TEMPO BKN040 RMK PP000=
SPZO Ene2015-251600Z 00000KT 9999 SCT060 16/05 Q1031 NOSIG RMK PP000=
SPZO Ene2015-251700Z VRB02KT 9999 SCT060 18/07 Q1030 NOSIG RMK PP000=
SPZO Ene2015-251800Z VRB03KT 9999 SCT050 BKN080 20/04 Q1028 NOSIG RMK PP000=
SPZO Ene2015-251900Z VRB04KT 9999 SCT050 SCT080 21/04 Q1026 NOSIG RMK PP000=
SPZO Ene2015-252000Z 34007KT 250V020 9999 FEW036TCU SCT080 22/04 Q1024 NOSIG RMK PP000=
SPZO Ene2015-252100Z 31007KT 270V010 9999 VCSH FEW040TCU SCT050 BKN080 19/04 Q1024 TEMPO -RA RMK PP000=
SPZO Ene2015-252200Z 14005KT 100V240 9000 -RA VCTS FEW040TCU SCT050 BKN080 17/04 Q1024 TEMPO 8000 RA RMK TX 21.9 PP004=
SPZO Ene2015-252300Z 32006KT 280V010 9000 -RA FEW040TCU SCT050 BKN080 14/06 Q1026 TEMPO SHRA RMK PP026=
SPZO Ene2015-260000Z 08010KT 050V110 9999 -TSRA FEW030 SCT043CB BKN070 12/07 Q1028 RMK RA QUAD NE PP016=
SPZO Ene2015-260100Z 08004KT 020V110 9000 -TSRA FEW030 SCT040CB OVC070 10/07 Q1031 RMK PP024=
SPZO Ene2015-260200Z 10004KT 9000 RA FEW015 SCT030 BKN060 09/07 Q1032 RMK CLNG BLW 1200M PP032=
SPZO Ene2015-260300Z 00000KT 9000 -RA FEW020 SCT036 BKN080 09/06 Q1032 RMK PP024=
SPZO Ene2015-260400Z 00000KT 9999 DZ FEW030 SCT046 BKN080 09/07 Q1032 RMK PP004=
SPZO Ene2015-260500Z 00000KT 9999 -RA FEW030 SCT046 BKN080 09/07 Q1032 RMK PP008=
SPZO Ene2015-260600Z 00000KT 9999 -RA FEW030 SCT040 BKN080 09/07 Q1031 RMK PP006=
SPZO Ene2015-260700Z 08004KT 9999 FEW030 SCT040 BKN080 08/06 Q1030 RMK PPTRZ=
SPZO Ene2015-260800Z 00000KT 9999 FEW030 SCT040 BKN080 09/06 Q1029 RMK PP000=
SPZO Ene2015-260900Z 00000KT 9999 FEW030 SCT040 BKN080 09/07 Q1029 RMK PP000=
SPZO Ene2015-261000Z 00000KT 9999 FEW020 SCT040 BKN080 09/07 Q1029 RMK PP000=
SPZO Ene2015-261100Z 10005KT 8000 FEW015 SCT030 BKN080 08/06 Q1030 RMK CLNG BLW 1200M PP000=
SPZO Ene2015-261200Z VRB02KT 9999 FEW030 BKN040 BKN080 09/06 Q1031 NOSIG RMK PP000=
SPZO Ene2015-261300Z VRB02KT 9999 FEW033 SCT043 BKN080 10/06 Q1031 NOSIG RMK PP000=
SPZO Ene2015-261400Z VRB03KT 9999 SCT036 BKN080 12/07 Q1031 NOSIG RMK PP000=
SPZO Ene2015-261500Z VRB02KT 9999 SCT040 BKN100 14/06 Q1031 NOSIG RMK PP000=
SPZO Ene2015-261600Z VRB02KT 9999 SCT040 BKN100 17/04 Q1030 NOSIG RMK PP000=
SPZO Ene2015-261700Z VRB02KT 9999 SCT040 BKN080 17/05 Q1029 NOSIG RMK PP000=
SPZO Ene2015-261800Z VRB04KT 9999 SCT046 BKN080 18/06 Q1028 BCMEG SCT040 FEW050TCU RMK PP000=
SPZO Ene2015-261900Z 32005KT 270V360 9999 SCT046 SCT080 18/05 Q1026 TEMPO SCT040 FEW050TCU RMK PP000=
SPZO Ene2015-262000Z 28009KT 230V330 9999 SCT046 SCT080 19/07 Q1025 TEMPO SCT040 FEW050TCU RMK PP000=
SPZO Ene2015-262100Z 25010KT 220V290 9999 VCSH FEW040TCU BKN080 18/05 Q1024 TEMPO -SHRA RMK PP000=
SPZO Ene2015-262200Z 27013KT 240V350 9999 VCSH SCT046CB BKN080 18/06 Q1025 TEMPO TSRA RMK TX20.0 WS RWY28 PP000=
SPZO Ene2015-262300Z VRB03KT 9999 -RA VCSH SCT040CB BKN080 13/07 Q1027 WS RWY28 NOSIG RMK PP024=
SPZO Ene2015-270000Z 25006KT 210V290 9999 -RA VCSH SCT040TCU BKN080 12/08 Q1028 RMK PP002=
SPZO Ene2015-270100Z 09010KT 9999 SCT040TCU BKN080 10/07 Q1029 RERA RMK PP006=
SPZO Ene2015-270200Z 08011KT 9999 SCT040 BKN080 09/07 Q1031 RMK PP000=
SPZO Ene2015-270300Z 00000KT 9999 SCT040 BKN080 09/07 Q1032 RMK PP000=
SPZO Ene2015-270400Z 00000KT 9999 -RA SCT030 BKN060 08/06 Q1033 RMK PP024=
SPZO Ene2015-270500Z 00000KT 9999 -RA SCT030 BKN060 08/06 Q1032 RMK PP020=
SPZO Ene2015-270600Z 00000KT 9999 -RA SCT030 BKN060 08/06 Q1032 RMK PP010=
SPZO Ene2015-270700Z 00000KT 9999 SCT030 BKN060 08/06 Q1031 RMK PP006=
SPZO Ene2015-270800Z 00000KT 9999 -RA SCT030 BKN060 08/05 Q1030 RMK PP006=
SPZO Ene2015-270900Z 00000KT 9999 SCT030 BKN036 OVC060 07/04 Q1030 CLNG BLW 1200M RMK PP000=
SPZO Ene2015-271000Z 27005KT 9999 FEW020 SCT036 BKN060 08/04 Q1030 RMK CLNG BLW 1200M PP000=
SPZO Ene2015-271100Z VRB03KT 9999 SCT030 BKN070 08/04 Q1031 RMK PP000=
SPZO Ene2015-271200Z 00000KT 9999 BKN036 OVC080 09/04 Q1031 BECMG BKN040 OVC080 RMK CLNG BLW 1200M PP000=
SPZO Ene2015-271300Z 00000KT 9999 SCT030 BKN040 BKN080 10/04 Q1032 NOSIG RMK PP000=
SPZO Ene2015-271400Z 00000KT 9999 FEW033 SCT040 BKN080 11/04 Q1032 NOSIG RMK PP000=
SPZO Ene2015-271500Z 00000KT 9999 SCT040 OVC080 12/04 Q1032 NOSIG RMK PP000=
SPZO Ene2015-271600Z 00000KT 9999 VCSH BKN040 OVC080 13/05 Q1031 NOSIG RMK PP000=
SPZO Ene2015-271700Z 00000KT 9999 SCT040 BKN080 13/07 Q1030 TEMPO -RA BKN040 RMK PP008=
SPZO Ene2015-271800Z VRB03KT 9999 SCT043 OVC100 16/08 Q1029 TEMPO BKN043 OVC100 RMK PP000=
SPZO Ene2015-271900Z 06005KT 9000 -RA BKN043 BKN100 14/07 Q1028 TEMPO BKN036 BKN100 RMK PP000=
SPZO Ene2015-272000Z 08010KT 060V120 9999 BKN040 BKN100 14/09 Q1027 TEMPO BKN033 BKN100 RMK PP002=
SPZO Ene2015-272100Z 08013KT 050V110 9999 -RA BKN040 BKN080 12/07 Q1027 TEMPO 7000 -RA BKN033 FEW050TCU BKN080 RMK PP000=
SPZO Ene2015-272200Z VRB03KT 9999 BKN043 BKN080 12/07 Q1027 TEMPO BKN040 RMK TX16.6 PP002=
SPZO Ene2015-272300Z 08005KT 060V120 9999 SCT043 SCT100 12/07 Q1028 RMK PP000=
SPZO Ene2015-280000Z VRB01KT 9999 SCT050 BKN080 12/07 Q1029 RMK TCU QUAD S PP000=
SPZO Ene2015-280100Z VRB02KT 9999 SCT050 BKN080 12/06 Q1030 RMK PP000=
SPZO Ene2015-280200Z 10004KT 9999 SCT050 BKN080 12/07 Q1030 RMK PP000=
SPZO Ene2015-280300Z 09002KT 9999 SCT043 BKN080 11/06 Q1031 RMK PP000=
SPZO Ene2015-280400Z 00000KT 9999 SCT043 BKN080 11/06 Q1031 RMK PP000=
SPZO Ene2015-280500Z 07002KT 9999 SCT043 BKN080 10/07 Q1030 RMK PP000=
SPZO Ene2015-280600Z 08001KT 9999 SCT043 BKN080 10/07 Q1030 RMK PP000=
SPZO Ene2015-280700Z 00000KT 9999 SCT046 BKN080 10/07 Q1029 RMK PP000=
SPZO Ene2015-280800Z 26005KT 9999 SCT046 BKN080 10/07 Q1029 RMK -RA QUAD NE PP000=
SPZO Ene2015-280900Z 25004KT 9000 -RA SCT043 BKN080 10/06 Q1029 RMK PP004=
SPZO Ene2015-281000Z 00000KT 9999 SCT043 BKN080 10/06 Q1029 RERA RMK PPTRZ=
SPZO Ene2015-281100Z 00000KT 9999 FEW033 SCT036 BKN080 10/07 Q1030 RMK PP000=
SPZO Ene2015-281200Z 00000KT 9999 SCT033 BKN080 11/07 Q1031 TEMPO BKN040 BKN080 RMK PP000=
SPZO Ene2015-281300Z VRB02KT 9999 SCT033 BKN100 12/06 Q1031 NOSIG RMK PP000=
SPZO Ene2015-281400Z 11004KT 030V150 9999 SCT033 BKN100 13/06 Q1032 NOSIG RMK PP000=
SPZO Ene2015-281500Z VRB06KT 9999 VCSH BKN043 BKN080 15/07 Q1031 TEMPO -RA BKN040 BKN080 RMK PP000=
SPZO Ene2015-281600Z 10005KT 020V160 9999 VCSH BKN043 BKN080 14/08 Q1031 TEMPO -RA BKN040 BKN080 RMK PP000=
SPZO Ene2015-281700Z 23006KT 190V270 9999 -RA BKN043 BKN080 11/07 Q1031 TEMPO 8000 -RA BKN036 BKN080 RMK PP000=
SPZO Ene2015-281800Z 22006KT 140V300 9000 VCSH FEW036 BKN043 OVC080 14/08 Q1030 TEMPO 8000 -RA BKN036 OVC080 RMK VIS 8000 QUAD SW RA PP006=
SPZO Ene2015-281900Z 23005KT 170V290 9999 FEW036TCU SCT043 14/07 Q1029 NOSIG RMK PP000=
SPZO Ene2015-282000Z 27005KT 210V320 9999 BKN043 SCT080 15/06 Q1028 RERA NOSIG RMK PPTRZ=
SPZO Ene2015-282100Z 00000KT 9999 -RA SCT040 FEW043TCU BKN080 15/07 Q1027 TEMPO BKN040 FEW050TCU RMK PPTRZ=
SPZO Ene2015-282200Z 07005KT 9999 -RA VCSH FEW040 SCT046 BKN080 14/07 Q1026 TEMPO 8000 BKN040 BKN080 RMK TX17.5 PPTRZ=
SPZO Ene2015-282300Z VRB03KT 9999 FEW040 SCT046 12/08 Q1027 NOSIG RMK PP014=
SPZO Ene2015-290000Z 00000KT 9999 SCT043 12/08 Q1029 RMK PP000=
SPZO Ene2015-290100Z 27003KT 9999 FEW040 10/08 Q1029 RMK PP000=
SPZO Ene2015-290200Z 00000KT 9999 SCT040 10/08 Q1030 RMK PP000=
SPZO Ene2015-290300Z 00000KT 9999 FEW040 BKN080 10/07 Q1031 RMK PP000=
SPZO Ene2015-290400Z 00000KT 9999 SCT043 BKN080 09/07 Q1031 RMK PP000=
SPZO Ene2015-290500Z 00000KT 9999 SCT043 BKN080 10/08 Q1031 RMK PP000=
SPZO Ene2015-290600Z 00000KT 9999 SCT043 BKN080 10/08 Q1030 RMK PP000=
SPZO Ene2015-290700Z 00000KT 9999 SCT040 SCT080 09/07 Q1030 RMK PP000=
SPZO Ene2015-290800Z 00000KT 9999 FEW040 SCT080 08/06 Q1030 RMK PP000=
SPZO Ene2015-290900Z VRB09KT 9999 FEW033 SCT060 08/06 Q1029 RMK PP000=
SPZO Ene2015-291000Z 00000KT 9999 SCT040 08/06 Q1030 RERA RMK PP002=
SPZO Ene2015-291100Z 24003KT 210V280 9999 SCT036 SCT230 07/05 Q1031 BR QUAD NE RMK PP000=
SPZO Ene2015-291200Z 00000KT 9999 FEW025 SCT060 10/06 Q1032 NOSIG RMK BR QUAD NE PP000=
SPZO Ene2015-291300Z 00000KT 9999 FEW025 SCT040 BKN080 12/06 Q1032 NOSIG RMK BR QUAD NE PP000=
SPZO Ene2015-291400Z VRB05KT 9999 SCT036 BKN080 13/07 Q1032 NOSIG RMK PP000=
SPZO Ene2015-291500Z 08004KT 010V120 9999 SCT040 BKN080 14/06 Q1032 TEMPO BKN040 RMK PP000=
SPZO Ene2015-291600Z 00000KT 9999 FEW040 SCT046 BKN080 15/05 Q1031 TEMPO BKN043 RMK PP000=
SPZO Ene2015-291700Z 00000KT 9999 BKN046 BKN080 17/06 Q1030 NOSIG RMK PP000=
SPZO Ene2015-291800Z 00000KT 9999 BKN050 BKN060 17/05 Q1029 NOSIG RMK PP000=
SPZO Ene2015-291900Z VRB04KT 9999 BKN050 SCT060 19/05 Q1028 NOSIG RMK PP000=
SPZO Ene2015-292000Z 33006KT 280V010 9999 FEW040TCU SCT050 BKN050 18/05 Q1027 NOSIG RMK PP000=
SPZO Ene2015-292100Z 34007KT 340V020 9999 -RA FEW040TCU SCT050 BKN080 18/05 Q1026 NOSIG RMK PP000=
SPZO Ene2015-292200Z VRB03KT 9999 FEW040TCU SCT060 BKN080 17/07 Q1026 NOSIG RMK PP000=
SPZO Ene2015-292300Z 35007KT 300V050 9999 SCT050 SCT080 16/07 Q1026 NOSIG RMK PP000=
SPZO Ene2015-300000Z VRB03KT 9999 SCT050 SCT080 15/07 Q1028 RMK PP000=
SPZO Ene2015-300100Z 09005KT 9999 SCT050 BKN080 13/07 Q1029 RMK PP000=
SPZO Ene2015-300200Z 00000KT 9999 SCT046 BKN080 13/08 Q1031 RMK PP000=
SPZO Ene2015-300300Z 00000KT 9999 SCT046 BKN100 13/07 Q1031 RMK PP000=
SPZO Ene2015-300400Z 10003KT 9999 BKN040 SCT100 13/07 Q1032 RMK PP000=
SPZO Ene2015-300500Z 00000KT 9999 BKN043 SCT080 12/07 Q1031 RMK PP000=
SPZO Ene2015-300600Z 00000KT 9999 BKN050 SCT100 12/08 Q1031 RMK PP000=
SPZO Ene2015-300700Z 21006KT 9999 BKN040 SCT080 12/05 Q1030 RMK PP000=
SPZO Ene2015-300800Z VRB02KT 9999 -RA BKN040 SCT070 09/05 Q1031 RMK PP002=
SPZO Ene2015-300900Z 10003KT 9999 BKN040 SCT080 09/05 Q1032 RMK PP000=
SPZO Ene2015-301000Z 00000KT 9999 -DZ FEW030 SCT036 BKN070 09/05 Q1032 RMK CLNG BLW 1200M PPTRZ=
SPZO Ene2015-301100Z VRB03KT 9999 BKN033 BKN100 08/05 Q1033 BECMG STC030 BKN040 BKN100 RMK CLNG BLW 1200M PP002=
SPZO Ene2015-301200Z VRB02KT 9999 SCT020 SCT040 BKN070 09/05 Q1033 NOSIG RMK PP000=
SPZO Ene2015-301300Z 00000KT 9999 SCT020 SCT040 BKN070 10/05 Q1033 NOSI RMK PP000=
SPZO Ene2015-301400Z 00000KT 9999 SCT040 BKN080 13/05 Q1033 NOSIG RMK PP000=
SPZO Ene2015-301500Z 00000KT 9999 FEW033 SCT040 BKN080 13/05 Q1033 NOSIG MK PP000=
SPZO Ene2015-301600Z VRB02KT 9999 FEW033 SCT040 BKN080 15/06 Q1032 NOSIG RMK PP000=
SPZO Ene2015-301700Z VRB03KT 9999 SCT050 BKN080 17/07 Q1031 NOSIG RMK PP000=
SPZO Ene2015-301800Z VRB02KT 9999 SCT043 BKN080 18/06 Q1030 NOSIG RMK PP000=
SPZO Ene2015-301900Z VRB02KT 9999 SCT046 BKN100 19/03 Q1028 NOSIG RMK PP000=
SPZO Ene2015-302000Z VRB02KT 9999 FEW036TCU SCT046 BKN100 19/03 Q1027 NOSIG RMK PP000=
SPZO Ene2015-302100Z 36009KT 310V050 9999 FEW036TCU SCT046 BKN100 18/05 Q1026 TEMPO VCSH RMK PP000=
SPZO Ene2015-302200Z 01009KT 330V060 9999 FEW036TCU SCT046 BKN100 16/05 Q1027 BECMG BKN043 FEW050TCU RMK TX20.4 PP000=
SPZO Ene2015-302300Z 07004KT 320V110 9999 BKN043 FEW050TCU BKN100 15/05 Q1028 TEMPO -RA RMK PP000=
SPZO Ene2015-310000Z 10007KT 050V140 9999 FEW040 SCT043TCU BKN080 14/06 Q1030 RMK PP000=
SPZO Ene2015-310100Z 00000KT 9999 -RA FEW040 SCT043 BKN080 12/07 Q1032 RMK PP016=
SPZO Ene2015-310200Z 08008KT 060V120 9999 -RA BKN040 BKN080 10/07 Q1033 RMK PP008=
SPZO Ene2015-310300Z 07005KT 9999 DZ BKN040 BKN080 10/07 Q1034 RMK PP002=
SPZO Ene2015-310400Z 00000KT 9999 -RA FEW025 SCT036 BKN070 09/07 Q1034 RMK PP002=
SPZO Ene2015-310500Z 09004KT 9999 -RA FEW025 SCT036 BKN070 09/07 Q1033 RMK PP006=
SPZO Ene2015-310600Z 00000KT 9999 -RA FEW030 SCT043 BKN070 09/07 Q1033 RMK PP002=
SPZO Ene2015-310700Z 00000KT 9999 -RA FEW030 SCT043 BKN070 09/06 Q1032 RMK PP012=
SPZO Ene2015-310800Z 00000KT 9999 -RA FEW030 SCT043 BKN070 09/07 Q1032 RMK PP002=
SPZO Ene2015-310900Z 25006KT 9999 DZ FEW030 SCT043 BKN070 09/06 Q1032 RMK PP002=
SPZO Ene2015-311000Z 28006KT 250V320 9999 DZ FEW030 SCT043 BKN070 09/05 Q1032 RMK PPTRZ=
SPZO Ene2015-311100Z 27004KT 9999 DZ FEW020 SCT040 OVC080 09/06 Q1033 RMK PP004=
SPZO Ene2015-311200Z VRB02KT 9999 FEW025 SCT036 OVC070 09/06 Q1034 NOSIG RMK -RA QUAD NE PP000=
SPZO Ene2015-311300Z VRB01KT 9999 FEW033 SCT040 OVC080 10/07 Q1034 NOSIG RMK PP000=
SPZO Ene2015-311400Z VRB03KT 9999 FEW033 SCT040 OVC080 11/06 Q1035 NOSIG RMK PP000=
SPZO Ene2015-311500Z VRB01KT 9999 FEW033 SCT040 OVC080 12/05 Q1035 NOSIG RMK PP000=
SPZO Ene2015-311600Z 07004KT 030V180 9999 FEW033 SCT043 OVC080 14/05 Q1034 NOSIG RMK PP000=
SPZO Ene2015-311700Z 35008KT 290V050 9999 SCT040 BKN080 15/06 Q1033 NOSIG RMK PP000=
SPZO Ene2015-311800Z VRB03KT 9999 SCT043 BKN080 17/06 Q1032 NOSIG RMK PP000=
SPZO Ene2015-311900Z VRB05KT 9999 SCT046 SCT080 18/03 Q1031 NOSIG RMK PP000=
SPZO Ene2015-312000Z 34008KT 9999 FEW046 SCT080 19/03 Q1029 NOSIG RMK PP000=
SPZO Ene2015-312100Z 35007KT 280V050 9999 FEW046 SCT080 18/03 Q1028 NOSIG RMK PP000=
SPZO Ene2015-312200Z 01008KT 290V070 9999 FEW050 SCT080 18/03 Q1028 NOSIG RMK TX18.6 PP000=
SPZO Ene2015-312300Z 02008KT 330V080 9999 FEW046TCU SCT080 15/02 Q1029 NOSIG RMK PP000=
SPZO Feb2015-010000Z VRB03KT 9999 SCT040 BKN080 14/04 Q1030 RMK PP000=
SPZO Feb2015-010100Z VRB02KT 9999 SCT040 BKN080 13/03 Q1031 RMK PP000=
SPZO Feb2015-010200Z VRB02KT 9999 SCT040 BKN080 12/04 Q1032 RMK PP000=
SPZO Feb2015-010300Z 00000KT 9999 SCT040 BKN080 12/04 Q1033 RMK PP000=
SPZO Feb2015-010400Z 00000KT 9999 -RA SCT040TCU BKN080 12/05 Q1034 RMK PPTRZ=
SPZO Feb2015-010500Z 00000KT 9999 SCT040 BKN080 11/06 Q1033 RMK PP002=
SPZO Feb2015-010600Z 00000KT 9999 SCT040 BKN080 10/07 Q1033 RMK PP000=
SPZO Feb2015-010700Z 00000KT 9999 SCT040 BKN080 11/06 Q1032 RMK PP000=
SPZO Feb2015-010800Z 00000KT 9999 FEW040TCU SCT050 BKN080 10/05 Q1032 RMK PPTRZ=
SPZO Feb2015-010900Z 00000KT 9999 SCT050 BKN080 09/06 Q1032 RMK PP000=
SPZO Feb2015-011000Z VRB03KT 9999 DZ SCT050 BKN080 09/06 Q1032 RMK PP000=
SPZO Feb2015-011100Z VRB02KT 9999 SCT040 BKN080 08/06 Q1033 RMK PP000=
SPZO Feb2015-011200Z VRB01KT 9999 SCT040 BKN080 09/06 Q1034 NOSIG RMK BR NE PP000=
SPZO Feb2015-011300Z VRB02KT 9999 BKN040 SCT080 11/06 Q1035 NOSIG RMK PP000=
SPZO Feb2015-011400Z 00000KT 9999 BKN046 SCT080 13/05 Q1035 NOSIG RMK PP000=
SPZO Feb2015-011500Z 06004KT 010V110 9999 VCSH FEW036TCU SCT043 BKN080 13/05 Q1034 NOSIG RMK PP000=
SPZO Feb2015-011600Z VRB02KT 9999 BKN046 SCT080 15/05 Q1034 NOSIG RMK PP002=
SPZO Feb2015-011700Z 05007KT 350V100 9999 SCT046 SCT080 17/04 Q1032 NOSIG RMK PP000=
SPZO Feb2015-011800Z 03009KT 350V070 9999 SCT050 18/06 Q1032 NOSIG RMK PP000=
SPZO Feb2015-011900Z 31005KT 9999 SCT050 SCT230 17/04 Q1030 NOSIG RMK PP000=
SPZO Feb2015-012000Z 03009KT 300V080 9999 SCT050 SCT230 19/04 Q1030 NOSIG RMK PP000=
SPZO Feb2015-012100Z 35008KT 300V030 9999 SCT050 SCT230 17/03 Q1029 NOSIG RMK PP000=
SPZO Feb2015-012200Z 02010KT 340V070 9999 SCT046 SCT080 16/04 Q1030 NOSIG RMK TX19.5 PP000=
SPZO Feb2015-012300Z 01011KT 300V080 9999 SCT050 SCT100 14/03 Q1030 NOSIG RMK PP000=
SPZO Feb2015-020000Z 04006KT 300V120 9999 SCT050 BKN100 13/03 Q1031 RMK PP000=
SPZO Feb2015-020100Z VRB03KT 9999 SCT050 BKN100 13/04 Q1032 RMK PP000=
SPZO Feb2015-020200Z 10004KT 9999 SCT050 BKN100 12/05 Q1034 RMK PP000=
SPZO Feb2015-020300Z 27004KT 240V340 9999 SCT050 BKN100 11/05 Q1034 RMK PP000=
SPZO Feb2015-020400Z 10004KT 060V130 9999 SCT050 SCT100 10/04 Q1034 RMK PP000=
SPZO Feb2015-020500Z 07003KT 9999 SCT050 SCT100 09/05 Q1034 RMK PP000=
SPZO Feb2015-020600Z VRB01KT 9999 SCT050 SCT100 08/05 Q1033 RMK PP000=
SPZO Feb2015-020700Z VRB02KT 9999 SCT050 SCT100 08/04 Q1033 RMK PP000=
SPZO Feb2015-020800Z 08002KT 9999 FEW050 SCT100 06/04 Q1033 RMK PP000=
SPZO Feb2015-020900Z 00000KT 9999 FEW050 SCT100 07/04 Q1033 RMK PP000=
SPZO Feb2015-021000Z 27001KT 9999 FEW050 SCT100 05/02 Q1033 RMK PP000=
SPZO Feb2015-021100Z VRB02KT 9999 SCT046 BKN080 06/04 Q1034 RMK PP000=
SPZO Feb2015-021200Z VRB02KT 9999 SCT050 SCT080 08/04 Q1035 NOSIG RMK PP000=
SPZO Feb2015-021300Z 00000KT 9999 FEW050 SCT100 12/05 Q1035 NOSIG RMK PP000=
SPZO Feb2015-021400Z VRB02KT 9999 SCT050 14/03 Q1035 NOSIG RMK PP000=
SPZO Feb2015-021500Z VRB04KT 9999 SCT050 16/01 Q1035 NOSIG RMK PP000=
SPZO Feb2015-021600Z 10006KT 050V170 9999 BKN050 16/02 Q1034 NOSIG RMK PP000=
SPZO Feb2015-021700Z VRB03KT 9999 SCT050 18/02 Q1033 NOSIG RMK PP000=
SPZO Feb2015-021800Z 01009KT 320V070 9999 SCT050 SCT080 19/00 Q1032 NOSIG RMK PP000=
SPZO Feb2015-021900Z 34008KT 280V050 9999 SCT050 20/04 Q1031 NOSIG RMK PP000=
SPZO Feb2015-022000Z 34008KT 290V060 9999 SCT050 20/02 Q1030 NOSIG RMK PP000=
SPZO Feb2015-022100Z 01009KT 280V050 9999 SCT050 SCT100 20/02 Q1029 NOSIG RMK PP000=
SPZO Feb2015-022200Z 01010KT 330V060 9999 FEW050 BKN100 17/03 Q1029 NOSIG RMK PP000=
SPZO Feb2015-022300Z 02012KT 330V060 9999 FEW050 SCT100 15/03 Q1030 NOSIG RMK PP000=
SPZO Feb2015-030000Z 36009KT 320V060 9999 FEW046 SCT100 14/03 Q1031 RMK PP000=
SPZO Feb2015-030100Z 01008KT 9999 FEW050 14/03 Q1031 RMK PP000=
SPZO Feb2015-030200Z VRB02KT 9999 SCT060 12/04 Q1033 RMK PP000=
SPZO Feb2015-030300Z VRB02KT 9999 FEW060 11/04 Q1034 RMK PP000=
SPZO Feb2015-030400Z 28004KT 9999 FEW060 19/04 Q1034 RMK PP000=
SPZO Feb2015-030500Z 27004KT 9999 FEW060 08/04 Q1033 RMK PP000=
SPZO Feb2015-030600Z VRB02KT 9999 FEW060 08/04 Q1033 RMK PP000=
SPZO Feb2015-030700Z 00000KT 9999 SCT050 08/04 Q1033 RMK PP000=
SPZO Feb2015-030800Z 00000KT 9999 SCT050 07/04 Q1033 RMK PP000=
SPZO Feb2015-030900Z VRB02KT 9999 FEW046 SCT070 07/04 Q1033 RMK PP000=
SPZO Feb2015-031000Z 00000KT 9999 FEW040 BKN080 08/04 Q1033 RMK PP000=
SPZO Feb2015-031100Z VRB02KT 9999 BKN046 SCT080 08/05 Q1034 RMK VIS 8000E HZ PP000=
SPZO Feb2015-031200Z 26005KT 230V300 9999 SCT043 BKN080 11/05 Q1034 NOSIG RMK HZ QUAD NE PP000=
SPZO Feb2015-031300Z VRB02KT 9999 FEW043 14/05 Q1035 NOSIG RMK HZ QUAD NE PP000=
SPZO Feb2015-031400Z 09004KT 010V170 9999 FEW043 15/04 Q1035 NOSIG RMK PP000=
SPZO Feb2015-031500Z VRB03KT 9999 SCT050 18/03 Q1034 NOSIG RMK PP000=
SPZO Feb2015-031600Z VRB04KT 9999 SCT050 19/02 Q1033 NOSIG RMK PP000=
SPZO Feb2015-031700Z 09004KT 020V170 9999 SCT050 19/00 Q1032 NOSIG RMK PP000=
SPZO Feb2015-031800Z VRB06KT 9999 SCT050 19/01 Q1031 NOSIG RMK PP000=
SPZO Feb2015-031900Z 35008KT 300V060 9999 SCT050 21/M00 Q1030 NOSIG RMK PP000=
SPZO Feb2015-032000Z 36008KT 290V110 9999 SCT050 22/00 Q1028 NOSIG RMK PP000=
SPZO Feb2015-032100Z VRB08KT 9999 SCT050 21/00 Q1027 NOSIG RMK PP000=
SPZO Feb2015-032200Z 35006KT 290V060 9999 SCT050 21/02 Q1027 NOSIG RMK TX22.0 PP000=
SPZO Feb2015-032300Z 09007KT 020V140 9999 SCT050 18/04 Q1027 NOSIG RMK PP000=
SPZO Feb2015-040000Z 02006KT 320V070 9999 FEW050 16/04 Q1029 RMK PP000=
SPZO Feb2015-040100Z 00000KT 9999 FEW060 14/04 Q1030 RMK PP000=
SPZO Feb2015-040200Z 00000KT 9999 FEW100 14/05 Q1031 RMK PP000=
SPZO Feb2015-040300Z 05003KT 9999 NSC 12/05 Q1032 RMK PP000=
SPZO Feb2015-040400Z 04002KT 9999 NSC 11/05 Q1032 RMK PP000=
SPZO Feb2015-040500Z 00000KT 9999 NSC 09/05 Q1031 RMK PP000=
SPZO Feb2015-040600Z 00000KT 9999 NSC 09/05 Q1031 RMK PP000=
SPZO Feb2015-040700Z 08002KT 9999 SCT043 SCT080 10/05 Q1031 RMK PP000=
SPZO Feb2015-040800Z 00000KT 9999 SCT046 BKN080 10/05 Q1031 RMK PP000=
SPZO Feb2015-040900Z 00000KT 9999 SCT043 BKN080 09/04 Q1030 RMK PP000=
SPZO Feb2015-041000Z VRB02KT 9999 SCT040 BKN080 09/04 Q1031 RMK PP000=
SPZO Feb2015-041100Z 08002KT 9999 FEW040 08/05 Q1031 RMK PP000=
SPZO Feb2015-041200Z 05004KT 010V090 9999 BKN040 09/05 Q1032 NOSIG RMK PP000=
SPZO Feb2015-041300Z VRB02KT 9999 SCT040 13/06 Q1033 NOSIG RMK PP000=
SPZO Feb2015-041400Z VRB01KT 9999 SCT040 16/06 Q1033 NOSIG RMK PP000=
SPZO Feb2015-041500Z VRB02KT 9999 SCT050 18/06 Q1032 NOSIG RMK PP000=
SPZO Feb2015-041600Z VRB02KT 9999 SCT050 19/04 Q1031 NOSIG RMK PP000=
SPZO Feb2015-041700Z VRB02KT 9999 SCT050 22/03 Q1030 NOSIG RMK PP000=
SPZO Feb2015-041800Z 08006KT 010V120 9999 SCT046 SCT080 21/04 Q1028 NOSIG RMK VCSH QUAD NW PP000=
SPZO Feb2015-041900Z 01008KT 320V070 9999 SCT046 SCT080 22/05 Q1026 NOSIG RMK PP000=
SPZO Feb2015-042000Z 36008KT 290V080 9999 FEW040TCU SCT080 23/03 Q1025 NOSIG RMK PP000=
SPZO Feb2015-042100Z 30013KT 260V340 9999 FEW036TCU SCT080 21/04 Q1025 TEMPO VCSH RMK PP000=
SPZO Feb2015-042200Z 20011KT 140V250 9999 VCSH FEW036TCU SCT046 BKN080 17/02 Q1026 TEMPO -RA RMK TX 22.9 PP000=
SPZO Feb2015-042300Z VRB02KT 9999 FEW040TCU SCT050 BKN100 16/02 Q1027 NOSIG RMK PP000=
SPZO Feb2015-050000Z VRB03KT 9999 FEW040TCU SCT046 BKN150 14/04 Q1028 RMK RA QUAD E PP000=
SPZO Feb2015-050100Z VRB02KT 9999 SCT046 13/04 Q1029 RMK PP000=
SPZO Feb2015-050200Z 00000KT 9999 SCT060 11/05 Q1030 RMK PP000=
SPZO Feb2015-050300Z 00000KT 9999 FEW040 11/05 Q1031 RMK PP000=
SPZO Feb2015-050400Z VRB02KT 9999 NSC 10/05 Q1032 RMK PP000=
SPZO Feb2015-050500Z VRB01KT 9999 NSC 09/05 Q1031 RMK PP000=
SPZO Feb2015-050600Z 06003KT 9999 NSC 09/05 Q1031 RMK PP000=
SPZO Feb2015-050700Z 00000KT 9999 FEW050 09/05 Q1031 RMK PP000=
SPZO Feb2015-050800Z 00000KT 9999 FEW050 09/05 Q1030 RMK PP000=
SPZO Feb2015-050900Z 00000KT 9999 FEW046 SCT100 09/05 Q1031 RMK PP000=
SPZO Feb2015-051000Z 00000KT 9999 FEW046 SCT100 08/05 Q1031 RMK BR QUAD E PP000=
SPZO Feb2015-051100Z 00000KT 9999 FEW036 SCT100 08/05 Q1031 RMK BR QUAD NE PP000=
SPZO Feb2015-051200Z 00000KT 9999 FEW030 SCT040 BKN080 10/06 Q1032 NOSIG RMK PP000=
SPZO Feb2015-051300Z 00000KT 9999 FEW025 SCT036 BKN080 12/06 Q1033 NOSIG RMK VIS 8000E PP000=
SPZO Feb2015-051400Z VRB01KT 9999 SCT036 SCT060 15/07 Q1032 NOSIG RMK PP000=
SPZO Feb2015-051500Z VRB03KT 9999 SCT040 SCT070 17/05 Q1032 NOSIG RMK PP000=
SPZO Feb2015-051600Z VRB02KT 9999 SCT043 20/07 Q1031 NOSIG RMK PP000=
SPZO Feb2015-051700Z VRB04KT 9999 SCT043 SCT080 20/02 Q1030 NOSIG RMK PP000=
SPZO Feb2015-051800Z 10006KT 030V190 9999 SCT040 SCT080 22/03 Q1028 NOSIG RMK PP000=
SPZO Feb2015-051900Z 03010KT 340V100 9999 SCT040 SCT080 21/03 Q1027 RMK PP000=
SPZO Feb2015-052000Z 01010KT 030V060 9999 SCT046 SCT080 22/01 Q1026 NOSIG RMK PP000=
SPZO Feb2015-052100Z 26015KT 220V300 9999 FEW046 BKN200 20/04 Q1026 NOSIG RMK PP000=
SPZO Feb2015-052200Z 36008KT 230V040 9999 FEW050 BKN200 19/02 Q1026 NOSIG RMK TMAX22.6 PP000=
SPZO Feb2015-052300Z VRB05KT 9999 FEW050 BKN150 18/02 Q1027 NOSIG RMK PP000=
SPZO Feb2015-060000Z 07005KT 9999 SCT050 15/05 Q1028 RMK PP000=
SPZO Feb2015-060100Z VRB03KT 9999 SCT050 14/05 Q1029 RMK PP000=
SPZO Feb2015-060200Z VRB02KT 9999 SCT050 12/05 Q1030 RMK PP000=
SPZO Feb2015-060300Z 00000KT 9999 SCT050 11/05 Q1031 RMK PP000=
SPZO Feb2015-060400Z 00000KT 9999 SCT050 10/05 Q1031 RMK PP000=
SPZO Feb2015-060500Z 00000KT 9999 SCT050 11/05 Q1031 RMK PP000=
SPZO Feb2015-060600Z 06002KT 9999 SCT050 11/05 Q1030 RMK PP000=
SPZO Feb2015-060700Z 08003KT 9999 SCT050 09/05 Q1030 RMK PP000=
SPZO Feb2015-060800Z 09002KT 9999 SCT050 10/05 Q1030 RMK PP000=
SPZO Feb2015-060900Z 09002KT 9999 SCT050 10/05 Q1030 RMK PP000=
SPZO Feb2015-061000Z 06004KT 030V090 9999 SCT050 09/05 Q1030 RMK PP000=
SPZO Feb2015-061100Z VRB02KT 9999 BKN050 10/05 Q1031 RMK PP000=
SPZO Feb2015-061200Z 00000KT 9999 SCT036 BKN150 11/05 Q1032 NOSIG RMK HZ QUAD NE PP000=
SPZO Feb2015-061300Z 07003KT 030V110 9999 SCT036 BKN100 12/06 Q1033 NOSIG RMK VIS 8000 QUAD NE HZ PP000=
SPZO Feb2015-061400Z VRB02KT 9999 SCT033 BKN100 13/06 Q1033 NOSIG RMK HZ QUAD NE PP000=
SPZO Feb2015-061500Z VRB03KT 9999 SCT046 BKN100 16/06 Q1032 NOSIG RMK PP000=
SPZO Feb2015-061600Z VRB04KT 9999 SCT046 BKN150 17/05 Q1031 NOSIG RMK PP000=
SPZO Feb2015-061700Z VRB04KT 9999 SCT050 BKN150 20/05 Q1030 NOSIG RMK PP000=
SPZO Feb2015-061800Z VRB04KT 9999 SCT050 BKN230 20/03 Q1029 NOSIG RMK PP000=
SPZO Feb2015-061900Z VRB03KT 9999 SCT050 SCT230 22/04 Q1027 NOSIG RMK PP000=
SPZO Feb2015-062000Z 10007KT 060V140 9999 SCT050 SCT230 21/02 Q1025 NOSIG RMK PP000=
SPZO Feb2015-062100Z VRB03KT 9999 SCT046 SCT230 21/01 Q1025 NOSIG RMK PP000=
SPZO Feb2015-062200Z 26010KT 220V290 9999 FEW040TCU BKN046 19/05 Q1025 NOSIG RMK TX22.7 PP000=
SPZO Feb2015-062300Z 27010KT 230V330 9999 VCSH FEW040CB SCT046 BKN080 16/05 Q1026 NOSIG RMK PP000=
SPZO Feb2015-070000Z VRB02KT 9999 SCT043 BKN080 15/06 Q1028 RERA RMK CB QUAD NW PP004=
SPZO Feb2015-070100Z VRB01KT 9999 SCT046 BKN080 15/07 Q1028 RMK PP000=
SPZO Feb2015-070200Z 27004KT 9999 SCT046 BKN080 14/06 Q1029 RMK PP000=
SPZO Feb2015-070300Z 30005KT 260V350 9999 SCT046 BKN080 14/06 Q1030 RMK PP000=
SPZO Feb2015-070400Z 27009KT 240V300 9999 SCT046 BKN080 14/07 Q1030 RMK PP000=
SPZO Feb2015-070500Z 28008KT 240V320 9999 SCT046 BKN080 14/07 Q1030 RMK PP000=
SPZO Feb2015-070600Z 26009KT 9000 -RA SCT043 BKN080 13/08 Q1029 RMK PP002=
SPZO Feb2015-070700Z 28005KT 250V330 9000 -RA SCT043 BKN080 12/07 Q1028 RMK PP006=
SPZO Feb2015-070800Z 27004KT 240V320 9000 -RA SCT043 BKN080 11/07 Q1028 RMK PPTRZ=
SPZO Feb2015-070900Z VRB01KT 9999 FEW033 SCT040 BKN070 12/07 Q1028 RERA RMK PPTRZ=
SPZO Feb2015-071000Z 26004KT 230V290 9000 -DZ FEW033 SCT040 BKN070 11/07 Q1028 RMK CB QUAD W PP006=
SPZO Feb2015-071100Z 26004KT 9999 FEW025 SCT036 BKN070 10/07 Q1029 REDZ NOSIG RMK CLNG BLW 1200M PPTRZ=
SPZO Feb2015-071200Z VRB02KT 9999 SCT036 OVC100 11/07 Q1030 NOSIG RMK PP000=
SPZO Feb2015-071300Z 00000KT 9999 BKN043 BKN100 12/06 Q1030 NOSIG RMK PP000=
SPZO Feb2015-071400Z 27006KT 240V300 9999 BKN046 BKN100 12/07 Q1031 NOSIG RMK PP000=
SPZO Feb2015-071500Z 29005KT 250V330 9999 FEW033 SCT050 BKN100 13/06 Q1031 NOSIG RMK PP000=
SPZO Feb2015-071600Z VRB02KT 9999 FEW050 OVC100 15/05 Q1030 NOSIG RMK PP000=
SPZO Feb2015-071700Z VRB03KT 9999 FEW050 OVC100 16/06 Q1029 NOSIG RMK PP000=
SPZO Feb2015-071800Z VRB02KT 9999 SCT050 OVC100 17/06 Q1028 NOSIG RMK PP000=
SPZO Feb2015-071900Z 00000KT 9999 VCSH FEW040TCU SCT050 OVC100 17/06 Q1027 NOSIG RMK RA QUAD E PP000=
SPZO Feb2015-072000Z 36005KT 290V080 9999 SCT050 BKN100 17/06 Q1026 NOSIG RMK PP000=
SPZO Feb2015-072100Z 08013KT 040V120 9999 VCSH FEW040TCU SCT046 BKN080 15/05 Q1026 NOSIG RMK RA QUAD E PP000=
SPZO Feb2015-072200Z 10008KT 9000 -RA SCT036 OVC070 10/07 Q1028 NOSIG RMK TX17.6 VIS 5000 QUAD NE RA PP018=
SPZO Feb2015-072300Z 00000KT 8000 -RA FEW015 SCT033 OVC060 10/07 Q1029 NOSIG RMK CLNG BLW 1200M VIS 7000 QUAD NE RA PP026=
SPZO Feb2015-080000Z VRB02KT 7000 -RA BKN030 OVC070 10/07 Q1029 RMK CLNG BLW 1200M PP032=
SPZO Feb2015-080100Z 09004KT 9000 -DZ BKN025 OVC070 10/08 Q1031 RMK CLNG BLW 1200M PP000=
SPZO Feb2015-080200Z 07003KT 9999 -RA SCT020 OVC070 09/07 Q1031 RMK PP004=
SPZO Feb2015-080300Z 00000KT 9999 -RA SCT020 OVC070 10/07 Q1032 RMK PP006=
SPZO Feb2015-080400Z 00000KT 9999 FEW020 SCT036 OVC070 10/07 Q1032 RERA RMK PP002=
SPZO Feb2015-080500Z 00000KT 7000 -RA FEW020 SCT033 OVC070 10/07 Q1031 RMK PP006=
SPZO Feb2015-080600Z 00000KT 9000 FEW020 SCT036 OVC070 09/07 Q1031 RMK PP004=
SPZO Feb2015-080700Z 00000KT 9999 FEW015 SCT036 OVC070 10/07 Q1030 RMK PP000=
SPZO Feb2015-080800Z 00000KT 9999 FEW020 SCT040 OVC070 10/07 Q1029 RMK PP000=
SPZO Feb2015-080900Z VRB01KT 9999 FEW020 SCT036 OVC070 10/07 Q1029 RMK CLNG BLW 1200M PP000=
SPZO Feb2015-081000Z VRB01KT 9999 FEW020 SCT036 OVC070 10/07 Q1029 RERA RMK CLNG BLW 1200M BCO BR QUAD E PP002=
SPZO Feb2015-081100Z 09003KT 9999 FEW015 SCT036 OVC080 10/07 Q1030 RMK CLNG BLW 1200M PP000=
SPZO Feb2015-081200Z 00000KT 9999 FEW015 SCT040 BKN080 10/07 Q1031 NOSIG RMK BR QUAD NE PP000=
SPZO Feb2015-081300Z VRB02KT 9999 FEW015 SCT040 BKN080 11/07 Q1031 NOSIG RMK PP000=
SPZO Feb2015-081400Z VRB03KT 9999 FEW020 SCT043 BKN100 14/07 Q1031 NOSIG RMK PP000=
SPZO Feb2015-081500Z VRB03KT 9999 BKN043 BKN100 16/06 Q1031 NOSIG RMK PP000=
SPZO Feb2015-081600Z VRB04KT 9999 FEW040TCU BKN046 17/07 Q1030 NOSIG RMK PP000=
SPZO Feb2015-081700Z VRB03KT 9999 BKN046 SCT080 18/06 Q1029 TEMPO FEW040TCU RMK FEW040 QUAD W PP000=
SPZO Feb2015-081800Z VRB08KT 9999 BKN050 SCT230 18/05 Q1028 NOSIG RMK PP000=
SPZO Feb2015-081900Z 36009KT 290V070 9999 BKN050 SCT230 19/04 Q1028 NOSIG RMK PP000=
SPZO Feb2015-082000Z 35010KT 310V050 9999 BKN050 SCT230 19/03 Q1026 NOSIG RMK PP000=
SPZO Feb2015-082100Z 35010KT 300V060 9999 BKN050 SCT230 18/03 Q1026 NOSIG RMK PP000=
SPZO Feb2015-082200Z 36010KT 310V030 9999 BKN050 SCT230 17/03 Q1026 NOSIG RMK TX19.7 PP000=
SPZO Feb2015-082300Z 36007KT 300V050 9999 SCT050 SCT230 16/04 Q1026 NOSIG RMK PP000=
SPZO Feb2015-090000Z 01006KT 310V060 9999 FEW040 SCT050 15/03 Q1027 RMK PP000=
SPZO Feb2015-090100Z VRB02KT 9999 SCT043 BKN080 14/04 Q1029 RMK PP000=
SPZO Feb2015-090200Z 07003KT 9999 SCT043 BKN080 13/04 Q1030 RMK PP000=
SPZO Feb2015-090300Z 00000KT 9999 SCT050 SCT080 12/05 Q1031 RMK PP000=
SPZO Feb2015-090400Z 00000KT 9999 SCT050 BKN080 12/05 Q1031 RMK PP000=
SPZO Feb2015-090500Z 09002KT 9999 BKN046 SCT100 12/05 Q1031 RMK PP000=
SPZO Feb2015-090600Z 00000KT 9999 BKN050 SCT080 11/04 Q1030 RMK PP000=
SPZO Feb2015-090700Z 00000KT 9999 BKN050 SCT100 11/05 Q1030 RMK PP000=
SPZO Feb2015-090800Z 00000KT 9999 BKN043 SCT080 11/05 Q1029 RMK PP000=
SPZO Feb2015-090900Z 07004KT 9999 BKN043 SCT080 10/06 Q1029 RMK PP000=
SPZO Feb2015-091000Z VRB03KT 9999 SCT040 BKN080 11/05 Q1029 RMK PP000=
SPZO Feb2015-091100Z 00000KT 9999 BKN043 SCT100 10/06 Q1030 RMK PP000=
SPZO Feb2015-091200Z 00000KT 9999 BKN050 SCT100 11/06 Q1031 NOSIG RMK PP000=
SPZO Feb2015-091300Z 00000KT 9999 BKN050 SCT100 13/05 Q1031 NOSIG RMK PP000=
SPZO Feb2015-091400Z 00000KT 9999 BKN050 SCT100 16/05 Q1031 NOSIG RMK PP000=
SPZO Feb2015-091500Z 00000KT 9999 SCT050 SCT100 18/06 Q1031 NOSIG RMK PP000=
SPZO Feb2015-091600Z VRB01KT 9999 BKN050 SCT070 16/05 Q1030 TEMPO FEW030TCU SCT040 BKN070 RMK PP000=
SPZO Feb2015-091700Z VRB02KT 9999 FEW040TCU BKN050 BKN070 16/08 Q1029 RERA NOSIG RMK PP002=
SPZO Feb2015-091800Z VRB10KT 8000 -RA FEW040TCU SCT046 BKN080 13/07 Q1029 TEMPO VIS 6000E RMK PP004=
SPZO Feb2015-091900Z VRB02KT 9999 BKN040 BKN080 14/08 Q1028 NOSIG RMK PP108=
SPZO Feb2015-092000Z 26008KT 240V300 9999 VCSH FEW036TCU SCT046 BKN080 16/07 Q1027 NOSIG RMK PP000=
SPZO Feb2015-092100Z VRB02KT 9999 FEW036TCU SCT050 BKN080 18/06 Q1025 NOSIG RMK PP000=
SPZO Feb2015-092200Z 31006KT 270V350 9999 FEW040TCU SCT050 BKN100 17/05 Q1025 NOSIG RMK TX18.6 PP000=
SPZO Feb2015-092300Z 00000KT 9999 SCT050 BKN100 17/07 Q1025 NOSIG RMK PP000=
SPZO Feb2015-100000Z 26009KT 230V290 9999 FEW040TCU SCT046 BKN080 15/07 Q1026 RMK PP000=
SPZO Feb2015-100100Z 26007KT 9999 FEW040 SCT046 BKN080 14/07 Q1027 RMK PP000=
SPZO Feb2015-100200Z 26006KT 9999 SCT046 SCT080 14/07 Q1028 RMK PP000=
SPZO Feb2015-100300Z 10006KT 020V160 9999 BKN040 SCT080 13/07 Q1029 RMK PP000=
SPZO Feb2015-100400Z 10007KT 070V140 9999 BKN040 SCT080 11/07 Q1030 RMK PP000=
SPZO Feb2015-100500Z 08007KT 050V110 9999 BKN040 SCT080 10/08 Q1029 RMK PP000=
SPZO Feb2015-100600Z 10007KT 070V150 9999 BKN040 SCT080 11/07 Q1029 RMK PP000=
SPZO Feb2015-100700Z 08007KT 9999 BKN040 BKN080 09/07 Q1029 RMK PP000=
SPZO Feb2015-100800Z 10005KT 9999 VCSH FEW020 BKN043 OVC080 09/07 Q1029 RMK RA QUAD NE PP000=
SPZO Feb2015-100900Z 00000KT 9000 RA FEW020 BKN043 OVC070 08/07 Q1029 RMK PP046=
SPZO Feb2015-101000Z 00000KT 9000 RA FEW020 BKN043 OVC070 08/07 Q1030 RMK VIS 8000 QUAD NE RA PP052=
SPZO Feb2015-101100Z 00000KT 9000 -RA FEW015 SCT036 OVC080 08/06 Q1031 RMK VIS 8000 QUAD NE RA PP022=
SPZO Feb2015-101200Z 07003KT 9000 6000E -RA FEW015 SCT036 OVC070 08/06 Q1031 NOSIG RMK CLNG BLW 1200M PP008=
SPZO Feb2015-101300Z VRB02KT 8000 -DZ FEW020 SCT036 OVC080 09/06 Q1032 NOSIG RMK CLNG BLW 1200M PP002=
SPZO Feb2015-101400Z VRB02KT 9999 FEW030 SCT040 BKN080 12/06 Q1033 REDZ NOSIG RMK PPTRZ=
SPZO Feb2015-101500Z VRB04KT 9999 FEW030 SCT040 BKN080 14/05 Q1032 NOSIG RMK PP000=
SPZO Feb2015-101600Z VRB02KT 9999 FEW033 SCT043 BKN080 14/06 Q1032 TEMPO FEW040TCU RMK PP000=
SPZO Feb2015-101700Z VRB02KT 9999 SCT040 BKN080 16/06 Q1030 NOSIG RMK PP000=
SPZO Feb2015-101800Z 00000KT 9999 VCSH SCT043 BKN080 17/06 Q1029 NOSIG RMK PP000=
SPZO Feb2015-101900Z VRB02KT 9999 SCT040TCU BKN080 17/06 Q1028 NOSIG RMK PP000=
SPZO Feb2015-102000Z 34008KT 270V020 9999 VCSH SCT043 BKN080 16/07 Q1027 NOSIG RMK PP000=
SPZO Feb2015-102100Z 33006KT 250V040 9999 SCT046 BKN080 18/06 Q1026 NOSIG RMK PP000=
SPZO Feb2015-102200Z 26013KT 210V290 9999 VCSH FEW040TCU SCT050 BKN080 15/07 Q1026 NOSIG RMK TX17.8 PP000=
SPZO Feb2015-102300Z 25005KT 210V290 9999 VCSH FEW040TCU SCT050 BKN080 14/07 Q1027 RERA NOSIG RMK PPTRZ=
SPZO Feb2015-110000Z VRB03KT 9999 FEW040 SCT050 BKN070 14/09 Q1028 RMK PP000=
SPZO Feb2015-110100Z 09008KT 050V120 9999 FEW040 SCT050 BKN070 13/07 Q1030 RMK PP000=
SPZO Feb2015-110200Z 07004KT 350V110 9000 -RA FEW033TCU SCT050 BKN070 12/08 Q1031 RMK PPTRZ=
SPZO Feb2015-110300Z 08003KT 9000 -RA FEW033TCU SCT050 BKN070 11/09 Q1032 RMK PP008=
SPZO Feb2015-110400Z 27002KT 8000 -RA FEW020TCU SCT050 BKN070 10/08 Q1032 RMK PP028=
SPZO Feb2015-110500Z 29006KT 250V340 5000 +RA FEW020TCU SCT040 BKN070 10/08 Q1032 RMK PP038=
SPZO Feb2015-110600Z 06005KT 030V110 5000 +RA FEW020TCU SCT040 BKN070 09/06 Q1032 RMK PP052=
SPZO Feb2015-110700Z 00000KT 6000 -RA FEW020TCU SCT040 BKN070 08/05 Q1032 RMK PP012=
SPZO Feb2015-110800Z 00000KT 9000 FEW020 SCT040 BKN070 08/05 Q1031 RERA RMK PP002=
SPZO Feb2015-110900Z 08002KT 9000 -RA FEW020 SCT040 BKN070 08/06 Q1032 RMK PP002=
SPZO Feb2015-111000Z 08003KT 9000 -DZ FEW020 SCT040 BKN070 08/06 Q1032 RMK PP002=
SPZO Feb2015-111100Z 08004KT 8000 SCT020 BKN040 BKN060 08/06 Q1033 REDZ RMK BR QUAD E PPTRZ=
SPZO Feb2015-111200Z 09005KT 9000 SCT020 BKN040 BKN080 09/06 Q1034 NOSIG RMK BR QUAD E PP000=
SPZO Feb2015-111300Z VRB02KT 9999 SCT020 SCT040 BKN080 10/06 Q1035 NOSIG RMK VIS 8000E PP000=
SPZO Feb2015-111400Z VRB02KT 9999 SCT025 SCT040 BKN080 13/06 Q1035 NOSIG RMK PP000=
SPZO Feb2015-111500Z VRB03KT 9999 SCT036 BKN080 14/05 Q1035 NOSIG RMK PP000=
SPZO Feb2015-111600Z VRB01KT 9999 SCT033 BKN080 15/06 Q1034 NOSIG RMK PP000=
SPZO Feb2015-111700Z VRB01KT 9999 -RA VCSH SCT040 BKN080 15/06 Q1033 NOSIG RMK PPTRZ=
SPZO Feb2015-111800Z VRB04KT 9999 VCSH SCT040 BKN080 16/06 Q1032 NOSIG RMK PP000=
SPZO Feb2015-111900Z 10006KT 060V160 7000 -RA FEW040TCU SCT046 BKN080 11/08 Q1031 RMK PP040=
SPZO Feb2015-112000Z VRB02KT 9999 FEW033 SCT050 BKN100 12/07 Q1031 NOSIG RMK PP008=
SPZO Feb2015-112100Z VRB02KT 9999 FEW043 BKN230 15/07 Q1029 NOSIG RMK PP000=
SPZO Feb2015-112200Z VRB02KT 9999 SCT043 SCT230 16/06 Q1029 NOSIG RMK TX 16.7 PP000=
SPZO Feb2015-112300Z 00000KT 9999 FEW046 SCT230 16/06 Q1029 NOSIG RMK PP000=
SPZO Feb2015-120000Z 25005KT 9999 SCT050 BKN100 14/07 Q1030 NOSIG RMK PP000=
SPZO Feb2015-120100Z 25006KT 9999 SCT050 BKN080 13/07 Q1031 RMK PP000=
SPZO Feb2015-120200Z 26004KT 230V320 9000 -RA SCT043 BKN080 12/08 Q1033 RMK PP004=
SPZO Feb2015-120300Z 23003KT 180V280 9000 -RA SCT043 BKN080 12/07 Q1033 RMK PP006=
SPZO Feb2015-120400Z 11003KT 060V150 9000 -RA SCT043 BKN080 11/07 Q1034 RMK PP004=
SPZO Feb2015-120500Z 29001KT 9000 -RA SCT040 BKN080 11/08 Q1034 RMK PP006=
SPZO Feb2015-120600Z 26004KT 220V290 8000 -RA FEW030 SCT036 BKN070 10/06 Q1034 RMK PP018=
SPZO Feb2015-120700Z 08002KT 9000 -RA FEW030 SCT036 BKN070 09/07 Q1033 RMK PP006=
SPZO Feb2015-120800Z 09006KT 060V120 9000 -RA FEW020 SCT036 BKN070 09/06 Q1033 RMK CLNG BLW 1200M PP002=
SPZO Feb2015-120900Z 09009KT 060V120 9000 -DZ FEW020 SCT036 BKN070 08/05 Q1033 RMK CLNG BLW 1200M PPTRZ=
SPZO Feb2015-121000Z 09006KT 050V140 9000 -DZ FEW020 SCT036 BKN070 08/05 Q1033 RMK CLNG BLW 1200M PP002=
SPZO Feb2015-121100Z 11004KT 080V150 9999 FEW030 SCT040 BKN080 08/05 Q1034 REDZ RMK PPTRZ=
SPZO Feb2015-121200Z 00000KT 9999 FEW030 SCT043 BKN080 09/06 Q1035 NOSIG RMK PP000=
SPZO Feb2015-121300Z 00000KT 9999 FEW020 SCT046 BKN100 10/06 Q1036 NOSIG RMK PP000=
SPZO Feb2015-121400Z 00000KT 9999 FEW025 SCT050 BKN100 11/06 Q1036 NOSIG RMK PP000=
SPZO Feb2015-121500Z VRB02KT 9999 FEW025 SCT046 BKN080 12/05 Q1036 NOSIG RMK PP000=
SPZO Feb2015-121600Z VRB02KT 9999 FEW030 SCT046 BKN080 13/06 Q1035 NOSIG RMK PP000=
SPZO Feb2015-121700Z VRB04KT 9999 FEW036 SCT043 BKN100 15/05 Q1034 NOSIG RMK PP000=
SPZO Feb2015-121800Z VRB02KT 9999 SCT043 BKN100 17/06 Q1033 NOSIG RMK PP000=
SPZO Feb2015-121900Z VRB05KT 9999 SCT043 BKN100 17/07 Q1032 NOSIG RMK PP000=
SPZO Feb2015-122000Z VRB04KT 9999 BKN043 SCT080 18/08 Q1030 NOSIG RMK RA QUAD NW PP000=
SPZO Feb2015-122100Z 28010KT 230V310 9999 FEW043TCU SCT050 BKN080 18/07 Q1029 NOSIG RMK PP000=
SPZO Feb2015-122200Z 27013KT 240V310 9999 VCSH FEW043 SCT050 BKN100 18/06 Q1029 NOSIG RMK TX18.7 VIS 9000 QUAD N RA PP000=
SPZO Feb2015-122300Z 11004KT 060V150 9999 -RA VCSH FEW040 SCT046 BKN080 13/07 Q1030 NOSIG RMK PP004=
SPZO Feb2015-130000Z 00000KT 9999 FEW050 BKN100 13/08 Q1030 RMK PP000=
SPZO Feb2015-130100Z VRB02KT 9999 SCT050 SCT100 12/08 Q1031 RMK PP000=
SPZO Feb2015-130200Z 00000KT 9999 FEW050 SCT100 11/08 Q1032 RMK PP000=
SPZO Feb2015-130300Z 00000KT 9999 SCT040 SCT080 10/08 Q1034 RMK PP000=
SPZO Feb2015-130400Z 27004KT 9999 FEW040 SCT100 09/07 Q1034 RMK PP000=
SPZO Feb2015-130500Z 00000KT 9999 SCT036 SCT080 09/07 Q1034 RMK PP000=
SPZO Feb2015-130600Z 00000KT 9999 BKN040 SCT080 09/07 Q1033 RMK PP000=
SPZO Feb2015-130700Z 00000KT 9999 BKN043 SCT080 09/06 Q1033 RMK PP000=
SPZO Feb2015-130800Z 00000KT 9999 BKN043 SCT080 09/07 Q1033 RMK PP000=
SPZO Feb2015-130900Z 00000KT 9999 BKN043 SCT080 08/06 Q1032 RMK PP000=
SPZO Feb2015-131000Z 00000KT 9999 SCT040 SCT080 08/06 Q1033 RMK PP000=
SPZO Feb2015-131100Z 24002KT 9999 FEW036 SCT043 BKN080 09/06 Q1033 RMK PP000=
SPZO Feb2015-131200Z VRB02KT 9999 FEW036 BKN043 BKN100 10/06 Q1034 NOSIG RMK BR QUAD NE PP000=
SPZO Feb2015-131300Z 00000KT 9999 SCT040 BKN080 13/07 Q1035 NOSIG RMK PP000=
SPZO Feb2015-131400Z VRB02KT 9999 FEW036 SCT040 BKN070 13/07 Q1035 NOSIG RMK PP000=
SPZO Feb2015-131500Z VRB01KT 9999 BKN043 BKN080 15/06 Q1035 NOSIG RMK PP000=
SPZO Feb2015-131600Z 00000KT 9999 BKN043 BKN080 16/07 Q1035 NOSIG RMK PP000=
SPZO Feb2015-131700Z 00000KT 9999 SCT046 BKN080 17/06 Q1034 NOSIG RMK PP000=
SPZO Feb2015-131800Z VRB03KT 9999 BKN050 SCT070 18/05 Q1032 NOSIG RMK PP000=
SPZO Feb2015-131900Z 34005KT 290V030 9999 BKN050 SCT080 19/06 Q1031 NOSIG RMK PP000=
SPZO Feb2015-132000Z 35007KT 290V050 9999 BKN050 SCT100 18/04 Q1030 NOSIG RMK PP000=
SPZO Feb2015-132100Z 35009KT 300V040 9999 BKN050 SCT150 20/04 Q1028 NOSIG RMK PP000=
SPZO Feb2015-132200Z 36009KT 300V060 9999 BKN050 SCT150 19/03 Q1028 NOSIG RMK TX20.7 PP000=
SPZO Feb2015-132300Z 36009KT 300V060 9999 BKN050 SCT150 18/04 Q1029 NOSIG RMK PP000=
SPZO Feb2015-140000Z VRB03KT 9999 SCT050 BKN080 16/04 Q1030 RMK PP000=
SPZO Feb2015-140100Z 04007KT 9999 SCT050 SCT100 15/04 Q1032 RMK PP000=
SPZO Feb2015-140200Z 10005KT 9999 FEW050 SCT100 14/06 Q1033 RMK PP000=
SPZO Feb2015-140300Z 00000KT 9999 FEW050 SCT100 13/05 Q1034 RMK PP000=
SPZO Feb2015-140400Z 00000KT 9999 SCT043 SCT080 12/04 Q1035 RMK PP000=
SPZO Feb2015-140500Z 00000KT 9999 SCT050 SCT100 12/05 Q1034 RMK PP000=
SPZO Feb2015-140600Z 00000KT 9999 SCT046 SCT100 11/05 Q1034 RMK PP000=
SPZO Feb2015-140700Z 00000KT 9999 BKN040 SCT080 11/05 Q1033 RMK PP000=
SPZO Feb2015-140800Z 00000KT 9999 SCT046 BKN080 11/05 Q1033 RMK PP000=
SPZO Feb2015-140900Z 00000KT 9999 -RA BKN040 SCT080 10/06 Q1033 RMK PP004=
SPZO Feb2015-141000Z 00000KT 9000 -RA FEW020 SCT036 BKN070 09/06 Q1034 RMK CLNG BLW 1200M PP024=
SPZO Feb2015-141100Z 00000KT 9999 FEW030 SCT036 BKN080 09/06 Q1034 RMK PP004=
SPZO Feb2015-141200Z 00000KT 9999 SCT020 BKN040 BKN070 09/06 Q1035 NOSIG RMK PP000=
SPZO Feb2015-141300Z 00000KT 9999 SCT020 BKN040 BKN080 10/07 Q1035 NOSIG RMK PP000=
SPZO Feb2015-141400Z 00000KT 9999 SCT020 BKN040 BKN090 12/06 Q1035 NOSIG RMK PP000=
SPZO Feb2015-141500Z 00000KT 9999 SCT020 BKN040 BKN100 14/07 Q1035 NOSIG RMK PP000=
SPZO Feb2015-141600Z 00000KT 9999 SCT040 SCT060 BKN100 16/06 Q1034 NOSIG RMK PP000=
SPZO Feb2015-141700Z 00000KT 9999 FEW040 SCT060 BKN100 18/06 Q1033 NOSIG RMK PP000=
SPZO Feb2015-141800Z 30005KT 230V360 9999 FEW036TCU SCT043 BKN080 18/05 Q1031 NOSIG RMK PP000=
SPZO Feb2015-141900Z 01011KT 340V050 9999 VCSH FEW040TCU SCT046 BKN080 17/06 Q1030 NOSIG RMK PP000=
SPZO Feb2015-142000Z 36006KT 300V060 9999 FEW040TCU SCT050 BKN080 17/05 Q1029 REDZ NOSIG RMK PPTRZ=
SPZO Feb2015-142100Z 07007KT 050V110 9999 FEW040TCU SCT050 BKN080 15/06 Q1029 NOSIG RMK PP000=
SPZO Feb2015-142200Z 10006KT 070V160 9999 FEW040TCU SCT050 BKN100 16/08 Q1029 NOSIG RMK TX19.3 PP000=
SPZO Feb2015-142300Z VRB03KT 9999 FEW040TCU SCT050 BKN100 15/07 Q1029 TEMPO VCSH RMK PP000=
SPZO Feb2015-150000Z VRB01KT 9999 SCT050 SCT100 14/08 Q1029 RMK PP000=
SPZO Feb2015-150100Z VRB01KT 9999 SCT046 SCT080 13/09 Q1030 RMK PP000=
SPZO Feb2015-150200Z 00000KT 9999 SCT046 SCT080 13/09 Q1031 RMK PP000=
SPZO Feb2015-150300Z 09003KT 9999 SCT046 SCT080 13/08 Q1032 RMK PP000=
SPZO Feb2015-150400Z 00000KT 9999 SCT043 BKN070 12/09 Q1032 RMK PP000=
SPZO Feb2015-150500Z 00000KT 9999 FEW040 BKN070 13/08 Q1032 RMK PP000=
SPZO Feb2015-150600Z VRB02KT 9999 FEW040 SCT046 BKN080 12/08 Q1031 RMK PP000=
SPZO Feb2015-150700Z 24003KT 180V270 9999 FEW040 SCT046 BKN080 13/07 Q1031 RMK PP000=
SPZO Feb2015-150800Z 00000KT 9999 -RA FEW036 SCT043 OVC080 12/08 Q1031 RMK PPTRZ=
SPZO Feb2015-150900Z 00000KT 9000 -RA FEW020 SCT043 OVC080 10/07 Q1031 RMK PP028=
SPZO Feb2015-151000Z 00000KT 9000 -RA FEW020 SCT043 BKN080 10/07 Q1031 RMK PP012=
SPZO Feb2015-151100Z 00000KT 9999 DZ FEW020 SCT043 BKN100 10/07 Q1031 RMK PPTRZ=
SPZO Feb2015-151200Z VRB01KT 9999 FEW030 SCT040 BKN100 11/08 Q1032 REDZ NOSIG RMK PPTRZ=
SPZO Feb2015-151300Z VRB02KT 9999 FEW030 SCT040 BKN100 12/09 Q1033 NOSIG RMK PP000=
SPZO Feb2015-151400Z VRB02KT 9999 FEW030 SCT040 BKN080 14/08 Q1033 NOSIG RMK PP000=
SPZO Feb2015-151500Z 10005KT 010V140 9999 FEW030 SCT040 BKN080 14/08 Q1033 TEMPO VCSH RMK PP000=
SPZO Feb2015-151600Z VRB02KT 9999 FEW033 SCT040 BKN080 16/07 Q1032 TEMPO VCSH RMK PP000=
SPZO Feb2015-151700Z 32007KT 280V010 9999 VCSH FEW036TCU SCT043 BKN080 16/07 Q1032 TEMPO -RA RMK PP000=
SPZO Feb2015-151800Z 26011KT 230V290 9999 FEW040 SCT046 BKN080 16/08 Q1031 NOSIG RMK PP000=
SPZO Feb2015-151900Z 10006KT 020V150 9000 VCSH FEW040TCU SCT046 BKN080 13/08 Q1030 NOSIG RMK PP000=
SPZO Feb2015-152000Z 05006KT 7000 RA FEW036CB SCT043 BKN080 12/08 Q1030 NOSIG RMK PP012=
SPZO Feb2015-152100Z 10008KT 7000 -RA FEW020 SCT043 BKN080 11/09 Q1030 NOSIG RMK PP070=
SPZO Feb2015-152200Z 10006KT 070V140 8000 -RA FEW015 SCT036 BKN080 11/08 Q1030 NOSIG RMK CLNG BLW 1200M PP012=
SPZO Feb2015-152300Z 07006KT 9999 -RA FEW020 SCT040 BKN080 10/08 Q1031 NOSIG RMK PP012=
SPZO Feb2015-160000Z 08005KT 9999 -DZ FEW020 SCT040 BKN080 10/08 Q1031 RMK PPTRZ=
SPZO Feb2015-160100Z 00000KT 9999 FEW020 SCT040 BKN080 10/08 Q1032 RMK PP000=
SPZO Feb2015-160200Z VRB03KT 9999 SCT040 BKN080 10/08 Q1032 RMK PP000=
SPZO Feb2015-160300Z 00000KT 9999 SCT040 BKN080 10/08 Q1033 RMK PP000=
SPZO Feb2015-160400Z 00000KT 9999 SCT050 BKN080 11/08 Q1033 RMK PP000=
SPZO Feb2015-160500Z 00000KT 9999 SCT050 BKN080 10/08 Q1033 RMK PP000=
SPZO Feb2015-160600Z 00000KT 9999 SCT050 BKN080 10/08 Q1032 RMK PP000=
SPZO Feb2015-160700Z 00000KT 9999 -RA SCT040TCU BKN100 10/08 Q1031 RMK PP006=
SPZO Feb2015-160800Z 00000KT 9999 SCT040 BKN100 10/08 Q1031 RMK PP006=
SPZO Feb2015-160900Z 00000KT 9999 SCT040 BKN100 10/08 Q1031 RMK PP000=
SPZO Feb2015-161000Z VRB02KT 9999 SCT040 BKN100 09/08 Q1031 RMK PP000=
SPZO Feb2015-161100Z 09002KT 9999 FEW010 SCT030 BKN080 09/08 Q1031 RMK CLNG BLW 1200M PP000=
SPZO Feb2015-161200Z 07002KT 9999 FEW010 SCT043 BKN080 10/08 Q1032 NOSIG RMK PP000=
SPZO Feb2015-161300Z 00000KT 9999 SCT015 SCT043 BKN080 11/08 Q1033 NOSIG RMK PP000=
SPZO Feb2015-161400Z 00000KT 9999 SCT040 SCT230 14/07 Q1033 NOSIG RMK PP000=
SPZO Feb2015-161500Z 00000KT 9999 SCT046 SCT080 15/07 Q1032 NOSIG RMK PP000=
SPZO Feb2015-161600Z VRB02KT 9999 SCT050 18/07 Q1032 NOSIG RMK PP000=
SPZO Feb2015-161700Z VRB05KT 9999 FEW040 SCT050 19/09 Q1030 NOSIG RMK PP000=
SPZO Feb2015-161800Z VRB02KT 9999 FEW040 SCT050 20/05 Q1029 NOSIG RMK PP000=
SPZO Feb2015-161900Z 34010KT 290V030 9999 VCSH FEW040TCU SCT046 BKN080 16/07 Q1028 NOSIG RMK PP000=
SPZO Feb2015-162000Z 23005KT 160V320 9999 SCT046 BKN100 15/06 Q1028 NOSIG RMK PP000=
SPZO Feb2015-162100Z 09005KT 070V130 9999 SCT050 OVC100 13/07 Q1029 NOSIG RMK PP000=
SPZO Feb2015-162200Z 12004KT 070V160 9999 SCT050 OVC100 13/07 Q1027 NOSIG RMK TX21.2 PP000=
SPZO Feb2015-162300Z 11005KT 070V140 9999 SCT050 OVC100 13/07 Q1028 NOSIG RMK PP000=
SPZO Feb2015-170000Z VRB02KT 9999 SCT050 BKN100 12/07 Q1029 RMK PP000=
SPZO Feb2015-170100Z 00000KT 9999 SCT050 BKN100 11/08 Q1031 RMK PP000=
SPZO Feb2015-170200Z VRB02KT 9999 SCT050 BKN100 11/07 Q1032 RMK PP000=
SPZO Feb2015-170300Z 05002KT 9999 SCT046 BKN080 11/08 Q1032 RMK VIS 8000E BR PP000=
SPZO Feb2015-170400Z 11003KT 9999 SCT046 BKN080 11/07 Q1032 RMK PP000=
SPZO Feb2015-170500Z VRB01KT 9999 SCT046 BKN080 11/07 Q1032 RMK PP000=
SPZO Feb2015-170600Z 00000KT 9999 SCT043 BKN080 11/07 Q1031 RMK PP000=
SPZO Feb2015-170700Z 00000KT 9999 SCT043 BKN080 11/08 Q1031 RMK PP000=
SPZO Feb2015-170800Z 27006KT 230V300 9000 -RA SCT043 BKN080 11/07 Q1030 RMK PP002=
SPZO Feb2015-170900Z 28009KT 250V320 9000 -RA SCT040 BKN070 10/06 Q1031 RMK PP014=
SPZO Feb2015-171000Z VRB03KT 8000 -RA FEW020 SCT040 OVC070 09/06 Q1031 RMK CLNG BLW 1200M PP014=
SPZO Feb2015-171100Z VRB01KT 8000 -RA FEW025 SCT036 OVC070 09/06 Q1032 RMK CLNG BLW 1200M PP014=
SPZO Feb2015-171200Z 00000KT 5000 -RA FEW015 SCT033 OVC070 08/06 Q1033 NOSIG RMK CLNG BLW 1200M PP030=
SPZO Feb2015-171300Z 00000KT 8000 -RA FEW015 SCT033 BKN070 09/07 Q1034 NOSIG RMK CLNG BLW 1200M PP020=
SPZO Feb2015-171400Z VRB02KT 8000 -RA FEW015 SCT036 OVC080 09/07 Q1034 NOSIG RMK CLNG BLW 1200M PP008=
SPZO Feb2015-171500Z 00000KT 9999 FEW020 SCT040 OVC080 11/06 Q1034 NOSIG RMK PP002=
SPZO Feb2015-171600Z VRB03KT 9999 FEW030 SCT046 OVC080 14/06 Q1033 NOSIG RMK PP000=
SPZO Feb2015-171700Z 28008KT 240V320 9999 FEW036 SCT046 OVC100 15/06 Q1032 NOSIG RMK PP000=
SPZO Feb2015-171800Z 29006KT 220V340 9999 BKN050 SCT070 15/05 Q1031 NOSIG RMK PP000=
SPZO Feb2015-171900Z 27007KT 210V330 9999 BKN050 SCT070 16/07 Q1030 NOSIG RMK PP000=
SPZO Feb2015-172000Z 24004KT 160V290 9999 BKN050 SCT070 17/07 Q1028 NOSIG RMK PP000=
SPZO Feb2015-172100Z VRB02KT 9999 BKN050 SCT070 16/07 Q1027 NOSIG RMK PP000=
SPZO Feb2015-172200Z VRB02KT 9999 BKN050 SCT080 17/06 Q1027 NOSIG RMK TX17.8 PP000=
SPZO Feb2015-172300Z 13008G18KT 080V230 7000 -TSRA FEW040CB SCT050 BKN070 13/07 Q1030 NOSIG RMK PPTRZ=
SPZO Feb2015-180000Z VRB02KT 6000 -RA FEW020TCU SCT030 BKN060 10/06 Q1031 RMK PP010=
SPZO Feb2015-180100Z 23005KT 8000 -RA FEW020TCU SCT030 BKN060 11/07 Q1031 RMK PP014=
SPZO Feb2015-180200Z VRB02KT 9999 FEW040 BKN060 10/08 Q1032 RMK PPTRZ=
SPZO Feb2015-180300Z 00000KT 9999 SCT040 BKN080 10/08 Q1032 RMK PP000=
SPZO Feb2015-180400Z 00000KT 9999 SCT040 BKN080 10/07 Q1032 RMK PP000=
SPZO Feb2015-180500Z 00000KT 9999 SCT040 BKN080 09/06 Q1032 RMK PP000=
SPZO Feb2015-180600Z 00000KT 9999 SCT040 BKN080 09/07 Q1031 RMK PP000=
SPZO Feb2015-180700Z 00000KT 9999 SCT040 BKN080 08/05 Q1031 RMK PP000=
SPZO Feb2015-180800Z 00000KT 9999 SCT040 BKN080 08/05 Q1030 RMK PP000=
SPZO Feb2015-180900Z 00000KT 9999 SCT040 BKN080 07/05 Q1030 RMK PP000=
SPZO Feb2015-181000Z 00000KT 9999 SCT040 BKN080 06/04 Q1030 RMK PP000=
SPZO Feb2015-181100Z VRB03KT 9999 SCT050 BKN100 06/04 Q1030 RMK PP000=
SPZO Feb2015-181200Z 00000KT 9999 FEW050 BKN120 07/05 Q1032 NOSIG RMK PP000=
SPZO Feb2015-181300Z 00000KT 9999 FEW050 BKN120 11/06 Q1032 NOSIG RMK PP000=
SPZO Feb2015-181400Z 00000KT 9999 FEW050 BKN120 13/06 Q1032 NOSIG RMK PP000=
SPZO Feb2015-181500Z 27005KT 220V330 9999 FEW050 BKN120 16/06 Q1031 NOSIG RMK PP000=
SPZO Feb2015-181600Z 30005KT 250V060 9999 FEW050 BKN120 17/04 Q1030 NOSIG RMK PP000=
SPZO Feb2015-181700Z 26008KT 210V320 9999 FEW050 BKN120 19/04 Q1029 NOSIG RMK PP000=
SPZO Feb2015-181800Z 12005KT 9999 SCT050 BKN150 20/03 Q1027 NOSIG RMK PP000=
SPZO Feb2015-181900Z 29005KT 230V030 9999 SCT050 BKN100 20/05 Q1026 NOSIG RMK PP000=
SPZO Feb2015-182000Z 24008KT 160V290 9999 SCT040 BKN080 22/02 Q1025 NOSIG RMK PP000=
SPZO Feb2015-182100Z 09008KT 9999 VCSH SCT040 BKN080 20/07 Q1024 NOSIG RMK PP000=
SPZO Feb2015-182200Z 10010KT 060V140 9999 SCT040 BKN080 18/06 Q1024 NOSIG RMK TMAX 22.1 PP000=
SPZO Feb2015-182300Z 09009KT 9999 SCT040 BKN080 16/06 Q1025 NOSIG RMK PP000=
SPZO Feb2015-190000Z VRB03KT 9999 SCT046 BKN100 14/06 Q1026 RMK PP000=
SPZO Feb2015-190100Z 11004KT 9999 SCT046 SCT100 14/05 Q1027 RMK PP000=
SPZO Feb2015-190200Z 09004KT 9999 SCT050 SCT100 12/08 Q1029 RMK PP000=
SPZO Feb2015-190300Z 00000KT 9999 BKN040 SCT080 12/07 Q1029 RMK PP000=
SPZO Feb2015-190400Z 26002KT 9999 BKN040 SCT080 12/07 Q1029 RMK PP000=
SPZO Feb2015-190500Z 00000KT 9999 BKN043 SCT080 11/07 Q1029 RMK PP000=
SPZO Feb2015-190600Z 00000KT 9999 BKN043 SCT080 09/07 Q1029 RMK PP000=
SPZO Feb2015-190700Z 00000KT 9999 SCT050 09/06 Q1028 RMK PP000=
SPZO Feb2015-190800Z 00000KT 9999 FEW050 09/06 Q1028 RMK PP000=
SPZO Feb2015-190900Z 00000KT 9999 FEW040 08/06 Q1028 RMK PP000=
SPZO Feb2015-191000Z 00000KT 9999 FEW040 SCT100 07/05 Q1028 RMK PP000=
SPZO Feb2015-191100Z 00000KT 9999 FEW040 SCT230 07/05 Q1029 RMK PP000=
SPZO Feb2015-191200Z 00000KT 9999 SCT040 10/06 Q1030 NOSIG RMK VIS 8000E HZ PP000=
SPZO Feb2015-191300Z 00000KT 9999 SCT043 13/07 Q1031 NOSIG RMK HZ QUAD E PP000=
SPZO Feb2015-191400Z VRB02KT 9999 SCT046 15/04 Q1030 NOSIG RMK PP000=
SPZO Feb2015-191500Z 04004KT 350V130 9999 FEW046 16/04 Q1029 NOSIG RMK PP000=
SPZO Feb2015-191600Z VRB05KT 9999 FEW050 18/02 Q1028 NOSIG RMK PP000=
SPZO Feb2015-191700Z 00000KT 9999 FEW050 20/02 Q1027 NOSIG RMK PP000=
SPZO Feb2015-191800Z VRB02KT 9999 FEW050 21/M00 Q1026 NOSIG RMK PP000=
SPZO Feb2015-191900Z VRB03KT 9999 FEW050 22/M01 Q1025 NOSIG RMK PP000=
SPZO Feb2015-192000Z 30006KT 210V020 9999 SCT050 22/M03 Q1024 NOSIG RMK PP000=
SPZO Feb2015-192100Z 20007KT 100V260 9999 SCT050 23/M04 Q1023 NOSIG RMK PP000=
SPZO Feb2015-192200Z 25005KT 200V310 9999 FEW050 SCT230 23/M05 Q1022 NOSIG RMK TX 23.3 PP000=
SPZO Feb2015-192300Z 09005KT 030V200 9999 FEW050 SCT230 19/04 Q1023 NOSIG RMK PP000=
SPZO Feb2015-200000Z 31007KT 9999 SCT050 BKN230 18/04 Q1024 RMK PP000=
SPZO Feb2015-200100Z 36007KT 9999 SCT050 BKN230 16/04 Q1026 RMK PP000=
SPZO Feb2015-200200Z VRB02KT 9999 BKN230 13/05 Q1027 RMK PP000=
SPZO Feb2015-200300Z 00000KT 9999 NSC 12/06 Q1028 RMK PP000=
SPZO Feb2015-200400Z 00000KT 9999 NSC 11/07 Q1028 RMK PP000=
SPZO Feb2015-200500Z 00000KT 9999 NSC 12/07 Q1029 RMK PP000=
SPZO Feb2015-200600Z 00000KT 9999 NSC 12/08 Q1028 RMK PP000=
SPZO Feb2015-200700Z 00000KT 9999 NSC 10/07 Q1028 RMK PP000=
SPZO Feb2015-200800Z 00000KT 9999 NSC 09/05 Q1027 RMK PP000=
SPZO Feb2015-200900Z 00000KT 9999 NSC 09/05 Q1028 RMK PP000=
SPZO Feb2015-201000Z 00000KT 9999 NSC 08/06 Q1028 RMK PP000=
SPZO Feb2015-201100Z 00000KT 9999 SCT050 BKN100 09/06 Q1028 RMK PP000=
SPZO Feb2015-201200Z 00000KT 9999 SCT046 BKN100 11/07 Q1029 NOSIG RMK PP000=
SPZO Feb2015-201300Z VRB01KT 9999 SCT046 14/07 Q1029 NOSIG RMK PP000=
SPZO Feb2015-201400Z VRB02KT 9999 FEW040 SCT050 17/08 Q1029 NOSIG RMK PP000=
SPZO Feb2015-201500Z VRB02KT 9999 SCT040 SCT070 18/06 Q1028 NOSIG RMK PP000=
SPZO Feb2015-201600Z 25007KT 210V290 9999 SCT043 SCT080 19/05 Q1027 NOSIG RMK PP000=
SPZO Feb2015-201700Z VRB03KT 9999 SCT043 SCT080 21/04 Q1026 NOSIG RMK PP000=
SPZO Feb2015-201800Z 31010KT 270V010 9999 VCSH SCT040TCU SCT080 19/04 Q1025 RMK PP000=
SPZO Feb2015-201900Z 23006KT 170V290 9999 TS VCSH BKN040CB SCT080 18/05 Q1025 RMK PP000=
SPZO Feb2015-202000Z 33003KT 240V020 9999 TS VCSH BKN043CB SCT080 15/05 Q1025 NOSIG RMK PP000=
SPZO Feb2015-202100Z 25004KT 210V300 9999 BKN060 OVC100 16/06 Q1024 NOSIG RMK PP000=
SPZO Feb2015-202200Z 35010KT 290V030 9999 BKN050 OVC100 15/03 Q1024 NOSIG RMK TX21.8 PP000=
SPZO Feb2015-202300Z 29009KT 250V340 9999 SCT050 OVC150 15/06 Q1025 NOSIG RMK PP000=
SPZO Feb2015-210000Z VRB03KT 9999 SCT050 BKN100 14/05 Q1026 RMK PP000=
SPZO Feb2015-210100Z VRB02KT 9999 SCT050 BKN100 13/06 Q1027 RMK PP000=
SPZO Feb2015-210200Z VRB02KT 9999 SCT050 BKN100 12/06 Q1028 RMK PP000=
SPZO Feb2015-210300Z 00000KT 9999 SCT040 BKN100 14/06 Q1030 RMK PP000=
SPZO Feb2015-210400Z 00000KT 9999 -RA SCT040TCU BKN080 12/08 Q1030 RMK PP002=
SPZO Feb2015-210500Z 00000KT 9999 -RA SCT040TCU BKN080 10/06 Q1031 RMK PP022=
SPZO Feb2015-210600Z 00000KT 9999 -RA SCT036TCU BKN080 08/05 Q1031 RMK PP020=
SPZO Feb2015-210700Z 00000KT 9999 SCT030 BKN060 08/06 Q1030 RMK PP004=
SPZO Feb2015-210800Z 00000KT 9999 SCT030 BKN060 08/06 Q1030 RMK PP000=
SPZO Feb2015-210900Z 00000KT 9999 SCT030 BKN060 08/06 Q1030 RMK PP000=
SPZO Feb2015-211000Z 00000KT 9999 SCT030 BKN080 08/05 Q1031 RMK PP000=
SPZO Feb2015-211100Z 00000KT 9999 FEW020 SCT036 BKN080 08/05 Q1031 RMK PP000=
SPZO Feb2015-211200Z 00000KT 9999 SCT036 OVC150 09/06 Q1031 NOSIG RMK PP000=
SPZO Feb2015-211300Z 00000KT 9999 SCT036 OVC150 11/05 Q1032 NOSIG RMK PP000=
SPZO Feb2015-211400Z VRB03KT 9999 SCT040 OVC200 13/05 Q1032 NOSIG RMK PP000=
SPZO Feb2015-211500Z 00000KT 9999 SCT036 BKN200 15/06 Q1031 NOSIG RMK PP000=
SPZO Feb2015-211600Z 02004KT 9999 SCT046 OVC200 15/05 Q1031 NOSIG RMK PP000=
SPZO Feb2015-211700Z 07005KT 360V120 9999 BKN046 16/05 Q1030 NOSIG RMK PP000=
SPZO Feb2015-211800Z VRB04KT 9999 FEW040 SCT050 18/06 Q1029 NOSIG RMK PP000=
SPZO Feb2015-211900Z 34006KT 270V040 9999 SCT050 20/07 Q1027 NOSIG RMK PP000=
SPZO Feb2015-212000Z 35007KT 280V050 9999 FEW040 SCT050 19/04 Q1026 NOSIG RMK PP000=
SPZO Feb2015-212100Z VRB09KT 9999 VCSH SCT040TCU SCT050 18/05 Q1025 NOSIG RMK PP000=
SPZO Feb2015-212200Z VRB04KT 9999 FEW040TCU SCT050 BKN080 16/06 Q1026 NOSIG RMK TX19.8 PP010=
SPZO Feb2015-212300Z VRB03KT 9999 VCSH FEW040TCU SCT050 BKN080 14/05 Q1028 NOSIG RMK PP000=
SPZO Feb2015-220000Z VRB03KT 6000 -RA FEW033 SCT036 BKN070 11/06 Q1030 RMK PP018=
SPZO Feb2015-220100Z 31006KT 270V340 8000 -RA FEW033 SCT036 OVC070 09/06 Q1031 RMK PP024=
SPZO Feb2015-220200Z 26005KT 9000 -RA FEW030 SCT040 OVC070 09/05 Q1032 RMK PP002=
SPZO Feb2015-220300Z 00000KT 9000 -DZ FEW033 SCT040 BKN070 10/05 Q1033 RMK PP002=
SPZO Feb2015-220400Z 00000KT 9000 -DZ FEW033 SCT040 BKN080 10/05 Q1033 RMK PPTRZ=
SPZO Feb2015-220500Z 00000KT 9000 -DZ FEW033 SCT040 BKN080 10/06 Q1032 RMK PPTRZ=
SPZO Feb2015-220600Z 08002KT 9000 -RA FEW025 SCT036 BKN080 09/06 Q1032 RMK PP002=
SPZO Feb2015-220700Z 08003KT 9000 -DZ FEW025 SCT036 BKN080 08/06 Q1032 RMK PP008=
SPZO Feb2015-220800Z 00000KT 9000 -DZ FEW025 SCT036 BKN080 09/06 Q1031 RMK PPTRZ=
SPZO Feb2015-220900Z 00000KT 9999 FEW020 SCT036 BKN080 09/05 Q1031 REDZ RMK CLNG BLW 1200M PPTRZ=
SPZO Feb2015-221000Z 07002KT 9000 -RA FEW020 SCT036 BKN070 08/06 Q1031 RMK CLNG BLW 1200M PPTRZ=
SPZO Feb2015-221100Z 00000KT 9999 FEW025 SCT036 OVC070 09/06 Q1031 RMK CLNG BLW 1200M PPTRZ=
SPZO Feb2015-221200Z 00000KT 9999 FEW020 SCT040 OVC080 09/06 Q1032 NOSIG RMK PP000=
SPZO Feb2015-221300Z VRB02KT 9999 FEW025 SCT040 OVC080 10/06 Q1033 NOSIG RMK PP000=
SPZO Feb2015-221400Z VRB02KT 9999 FEW025 SCT046 OVC100 12/07 Q1033 NOSIG RMK PP000=
SPZO Feb2015-221500Z VRB01KT 9999 SCT036 SCT100 14/06 Q1033 NOSIG RMK PP000=
SPZO Feb2015-221600Z VRB03KT 9999 SCT043 BKN100 15/06 Q1032 NOSIG RMK PP000=
SPZO Feb2015-221700Z 08005KT 020V120 9999 VCSH FEW040TCU SCT046 BKN080 15/06 Q1031 NOSIG RMK PP000=
SPZO Feb2015-221800Z 07004KT 010V120 9999 FEW040 SCT050 BKN070 15/06 Q1030 NOSIG RMK PP000=
SPZO Feb2015-221900Z VRB03KT 9999 FEW040 SCT050 BKN070 18/07 Q1029 NOSIG RMK PP000=
SPZO Feb2015-222000Z VRB02KT 9999 VCSH FEW040TCU SCT050 BKN070 17/07 Q1028 NOSIG RMK PP000=
SPZO Feb2015-222100Z 28008KT 250V320 9999 FEW040 SCT050 BKN070 18/06 Q1027 NOSIG RMK PP000=
SPZO Feb2015-222200Z 29008KT 9999 -DZ FEW040 SCT050 BKN070 15/09 Q1027 NOSIG RMK TX18.3 PP002=
SPZO Feb2015-222300Z 26009KT 9999 FEW040 SCT050 BKN070 15/07 Q1028 NOSIG RMK PP000=
SPZO Feb2015-230000Z 00000KT 8000 -RA SCT040TCU BKN060 11/07 Q1030 RMK PP038=
SPZO Feb2015-230100Z 27008KT 9999 SCT040 BKN080 11/08 Q1030 RMK PP000=
SPZO Feb2015-230200Z 00000KT 9999 SCT040 BKN080 11/07 Q1031 RMK PP000=
SPZO Feb2015-230300Z 00000KT 9999 SCT040 BKN100 09/07 Q1031 RMK PP000=
SPZO Feb2015-230400Z 00000KT 9999 SCT040 BKN100 09/07 Q1032 RMK PP000=
SPZO Feb2015-230500Z 00000KT 9999 SCT033 BKN100 11/07 Q1032 RMK PP000=
SPZO Feb2015-230600Z 00000KT 9999 -RA SCT030TCU BKN080 10/08 Q1032 RMK PP004=
SPZO Feb2015-230700Z 00000KT 9999 SCT030 BKN080 10/08 Q1031 RMK PP000=
SPZO Feb2015-230800Z 00000KT 9999 SCT030 BKN080 10/07 Q1030 RMK PP000=
SPZO Feb2015-230900Z 00000KT 9999 SCT020 BKN080 10/08 Q1030 RMK PP000=
SPZO Feb2015-231000Z 00000KT 9999 SCT020 BKN080 10/08 Q1031 RMK PP000=
SPZO Feb2015-231100Z 00000KT 9999 SCT030 BKN080 10/08 Q1031 RMK PP000=
SPZO Feb2015-231200Z 00000KT 9999 FEW025 SCT040 BKN080 10/08 Q1032 NOSIG RMK PP000=
SPZO Feb2015-231300Z 00000KT 9999 FEW025 SCT040 BKN080 12/08 Q1032 NOSIG RMK PP000=
SPZO Feb2015-231400Z 00000KT 9999 FEW025 SCT040 BKN080 15/07 Q1033 NOSIG RMK PP000=
SPZO Feb2015-231500Z VRB02KT 9999 FEW030 SCT040 BKN080 16/07 Q1032 NOSIG RMK PP000=
SPZO Feb2015-231600Z VRB01KT 9999 FEW033 SCT040 BKN080 16/06 Q1031 NOSIG RMK PP000=
SPZO Feb2015-231700Z VRB04KT 9999 FEW040 SCT050 BKN080 18/08 Q1030 NOSIG RMK PP000=
SPZO Feb2015-231800Z 34007KT 9999 SCT050 BKN080 19/08 Q1029 NOSIG RMK PP000=
SPZO Feb2015-231900Z 36005KT 9999 -RA SCT040TCU BKN080 18/05 Q1028 NOSIG RMK PP004=
SPZO Feb2015-232000Z 04006KT 010V070 9999 VCSH SCT040TCU BKN080 17/08 Q1027 NOSIG RMK PP000=
SPZO Feb2015-232100Z VRB03KT 9999 VCSH SCT040TCU BKN080 17/06 Q1027 NOSIG RMK PP000=
SPZO Feb2015-232200Z 11006KT 070V160 9999 VCSH SCT040TCU BKN080 16/07 Q1027 NOSIG RMK TMAX 19.2 PP000=
SPZO Feb2015-232300Z 10007KT 9999 -RA VCSH SCT036TCU BKN060 14/08 Q1028 NOSIG RMK PP002=
SPZO Feb2015-240000Z 10004KT 040V160 9999 -RA SCT036TCU BKN046 11/07 Q1029 RMK PP010=
SPZO Feb2015-240100Z 00000KT 9999 SCT040 SCT080 11/07 Q1031 RMK PP002=
SPZO Feb2015-240200Z 00000KT 9999 SCT040 BKN080 12/08 Q1031 RMK PP000=
SPZO Feb2015-240300Z 00000KT 9999 BKN046 SCT080 11/08 Q1032 RMK PP000=
SPZO Feb2015-240400Z 00000KT 9999 SCT046 SCT080 11/08 Q1032 RMK PP000=
SPZO Feb2015-240500Z 08003KT 9999 BKN043 SCT080 11/08 Q1032 RMK PP000=
SPZO Feb2015-240600Z 09004KT 9999 -RA BKN040 SCT080 10/07 Q1032 RMK PP014=
SPZO Feb2015-240700Z 28003KT 9999 -RA BKN040 SCT050 09/07 Q1031 RMK PP026=
SPZO Feb2015-240800Z 00000KT 9999 SCT036 BKN043 09/06 Q1031 RMK PP010=
SPZO Feb2015-240900Z 00000KT 9999 SCT020 BKN043 09/06 Q1031 RMK PP000=
SPZO Feb2015-241000Z 00000KT 9999 FEW020 SCT036 BKN070 09/06 Q1031 RMK PP000=
SPZO Feb2015-241100Z 00000KT 9999 FEW030 SCT043 BKN080 09/06 Q1031 RMK PP002=
SPZO Feb2015-241200Z 08003KT 9999 FEW030 SCT040 BKN080 09/07 Q1032 NOSIG RMK PP000=
SPZO Feb2015-241300Z VRB01KT 9999 FEW030 SCT040 BKN080 13/07 Q1033 NOSIG RMK PP000=
SPZO Feb2015-241400Z VRB01KT 9999 FEW030 SCT040 BKN080 14/07 Q1033 NOSIG RMK PP000=
SPZO Feb2015-241500Z 08005KT 040V150 9999 VCSH FEW033TCU SCT040 BKN080 14/07 Q1032 NOSIG RMK PP000=
SPZO Feb2015-241600Z VRB02KT 9999 FEW033TCU SCT040 BKN080 15/07 Q1032 NOSIG RMK PP000=
SPZO Feb2015-241700Z 35005KT 290V090 9999 VCSH FEW033TCU SCT040 BKN080 16/08 Q1031 RERA NOSIG RMK PPTRZ=
SPZO Feb2015-241800Z VRB05KT 9999 SCT043 SCT080 16/08 Q1030 REDZ NOSIG RMK PPTRZ=
SPZO Feb2015-241900Z 34007KT 260V040 9999 SCT043 SCT080 18/07 Q1029 NOSIG RMK PP000=
SPZO Feb2015-242000Z 35010KT 290V050 9999 VCSH SCT040 BKN080 19/06 Q1028 TEMPO -RA 8000E RMK PP000=
SPZO Feb2015-242100Z VRB04KT 9999 VCSH FEW040TCU SCT046 BKN080 16/06 Q1027 NOSIG RMK PP000=
SPZO Feb2015-242200Z VRB07KT 9999 FEW040TCU SCT046 BKN100 15/05 Q1028 NOSIG RMK TX19.4 PP000=
SPZO Feb2015-242300Z 34007KT 310V020 9999 SCT050 BKN100 14/05 Q1029 NOSIG RMK PP000=
SPZO Feb2015-250000Z 36006KT 9999 SCT040 BKN100 13/05 Q1029 RMK PP000=
SPZO Feb2015-250100Z 36008KT 9999 SCT040 BKN100 13/05 Q1031 RMK PP000=
SPZO Feb2015-250200Z VRB01KT 9999 -RA SCT040TCU BKN100 12/08 Q1032 RMK PP012=
SPZO Feb2015-250300Z 30004KT 9999 SCT040 BKN100 11/07 Q1032 RMK PP000=
SPZO Feb2015-250400Z 00000KT 9999 SCT040 BKN100 11/07 Q1032 RMK PP000=
SPZO Feb2015-250500Z 00000KT 9999 SCT040 BKN100 11/07 Q1032 RMK PP000=
SPZO Feb2015-250600Z 00000KT 9999 SCT040 BKN100 10/07 Q1032 RMK PP000=
SPZO Feb2015-250700Z 00000KT 9999 -RA SCT040TCU BKN100 10/06 Q1031 RMK PP002=
SPZO Feb2015-250800Z 00000KT 9999 SCT040 BKN100 10/04 Q1031 RMK PP000=
SPZO Feb2015-250900Z 00000KT 9999 SCT040 BKN100 10/06 Q1031 RMK PP000=
SPZO Feb2015-251000Z VRB01KT 9999 SCT040 BKN100 10/05 Q1031 RMK PP000=
SPZO Feb2015-251100Z 00000KT 9999 SCT050 BKN100 09/05 Q1031 RMK PP000=
SPZO Feb2015-251200Z 00000KT 9999 BKN040 SCT100 10/06 Q1032 NOSIG RMK PP000=
SPZO Feb2015-251300Z VRB01KT 9999 SCT040 SCT100 13/05 Q1033 NOSIG RMK PP000=
SPZO Feb2015-251400Z 05004KT 350V140 9999 SCT040 15/07 Q1033 NOSIG RMK PP000=
SPZO Feb2015-251500Z VRB03KT 9999 SCT040 BKN080 16/06 Q1032 NOSIG RMK PP000=
SPZO Feb2015-251600Z VRB01KT 9999 SCT040 SCT100 17/04 Q1032 NOSIG RMK PP000=
SPZO Feb2015-251700Z VRB03KT 9999 SCT040 SCT080 18/04 Q1031 NOSIG RMK PP000=
SPZO Feb2015-251800Z VRB07KT 9999 SCT050 20/05 Q1030 NOSIG RMK PP000=
SPZO Feb2015-251900Z 00000KT 9999 SCT050 21/09 Q1027 NOSIG RMK PP000=
SPZO Feb2015-252000Z 36008KT 270V060 9999 SCT050 22/04 Q1026 NOSIG RMK PP000=
SPZO Feb2015-252100Z 36009KT 320V050 9999 SCT050 21/04 Q1025 NOSIG RMK PP000=
SPZO Feb2015-252200Z 20006KT 120V240 9999 RA VCSH BKN040TCU SCT070 13/05 Q1028 NOSIG RMK TX21.8 VIS 8000E PP020=
SPZO Feb2015-252300Z 24006KT 9999 BKN040TCU SCT070 12/07 Q1029 RERA TEMPO -RA SCT036 BKN070 RMK VIS 8000E PP044=
SPZO Feb2015-260000Z 11006KT 070V150 9999 -RA SCT040TCU BKN080 12/08 Q1029 RMK PP004=
SPZO Feb2015-260100Z 11007KT 9999 -RA SCT040TCU BKN080 11/08 Q1031 RMK PP010=
SPZO Feb2015-260200Z 09004KT 9999 -RA SCT040TCU BKN080 10/08 Q1032 RMK PP010=
SPZO Feb2015-260300Z 00000KT 9999 SCT050 BKN080 10/08 Q1033 RMK PP000=
SPZO Feb2015-260400Z 00000KT 9999 SCT050 BKN080 10/07 Q1032 RMK PP000=
SPZO Feb2015-260500Z 00000KT 9999 SCT050 BKN100 10/07 Q1032 RMK PP000=
SPZO Feb2015-260600Z 00000KT 9999 SCT050 BKN100 10/07 Q1032 RMK PP000=
SPZO Feb2015-260700Z 00000KT 9999 SCT050 BKN100 10/07 Q1031 RMK PP000=
SPZO Feb2015-260800Z 00000KT 9999 SCT050 BKN100 10/07 Q1031 RMK PP000=
SPZO Feb2015-260900Z 00000KT 9999 SCT050 BKN100 09/07 Q1031 RMK PP000=
SPZO Feb2015-261000Z 00000KT 9999 SCT033 BKN080 09/07 Q1031 RMK PP000=
SPZO Feb2015-261100Z VRB03KT 9999 FEW020 SCT040 BKN080 09/07 Q1032 RMK PP000=
SPZO Feb2015-261200Z VRB02KT 9999 FEW033 SCT060 10/07 Q1033 TEMPO SCT040 SCT080 RMK HZ QUAD E PP000=
SPZO Feb2015-261300Z 00000KT 9999 SCT036 SCT080 12/06 Q1033 NOSIG RMK PP000=
SPZO Feb2015-261400Z 07003KT 9999 SCT040 BKN080 13/06 Q1033 NOSIG RMK PP000=
SPZO Feb2015-261500Z 00000KT 9999 SCT043 SCT080 14/06 Q1033 NOSIG RMK PP000=
SPZO Feb2015-261600Z VRB04KT 9999 SCT046 SCT080 17/07 Q1032 NOSIG RMK PP000=
SPZO Feb2015-261700Z 00000KT 9999 SCT046 BKN080 17/05 Q1031 NOSIG RMK PP000=
SPZO Feb2015-261800Z VRB05KT 9999 SCT050 SCT080 19/05 Q1030 NOSIG RMK PP000=
SPZO Feb2015-261900Z 09010KT 060V120 9999 SCT050 SCT080 19/06 Q1029 NOSIG RMK PP000=
SPZO Feb2015-262000Z 09012KT 060V130 9999 SCT050 19/06 Q1028 RMK PP000=
SPZO Feb2015-262100Z VRB03KT 9999 SCT050 20/04 Q1026 NOSIG RMK PP000=
SPZO Feb2015-262200Z 36009KT 300V080 9999 SCT050 19/03 Q1026 NOSIG RMK TX20.2 PP000=
SPZO Feb2015-262300Z 00000KT 9999 FEW050 SCT080 17/03 Q1027 NOSIG RMK PP000=
SPZO Feb2015-270000Z 25006KT 9999 FEW050 SCT100 15/05 Q1028 RMK PP000=
SPZO Feb2015-270100Z 06004KT 020V100 9999 SCT050 SCT100 13/05 Q1029 RMK PP000=
SPZO Feb2015-270200Z 00000KT 9999 SCT050 SCT100 12/07 Q1030 RMK PP000=
SPZO Feb2015-270300Z 10003KT 9999 SCT050 SCT100 11/06 Q1031 RMK PP000=
SPZO Feb2015-270400Z 10002KT 9999 SCT050 SCT100 10/05 Q1031 RMK PP000=
SPZO Feb2015-270500Z 05002KT 9999 SCT050 SCT100 09/05 Q1031 RMK PP000=
SPZO Feb2015-270600Z 00000KT 9999 SCT050 SCT100 09/06 Q1031 RMK CB QUAD NE PP000=
SPZO Feb2015-270700Z 07003KT 9999 SCT050 SCT100 08/05 Q1031 RMK PP000=
SPZO Feb2015-270800Z VRB01KT 9999 SCT050 SCT100 09/06 Q1031 RMK PP000=
SPZO Feb2015-270900Z VRB02KT 9999 SCT043 SCT080 09/06 Q1031 RMK PP000=
SPZO Feb2015-271000Z 08004KT 030V110 9999 SCT043 SCT080 09/06 Q1031 RMK PP000=
SPZO Feb2015-271100Z 00000KT 9999 SCT043 BKN100 09/06 Q1031 RMK PP000=
SPZO Feb2015-271200Z VRB02KT 9999 SCT040 SCT200 10/06 Q1032 NOSIG RMK VIS 8000E HZ PP000=
SPZO Feb2015-271300Z 27003KT 210V330 9999 SCT040 BKN200 13/06 Q1033 NOSIG RMK HZ QUAD E PP000=
SPZO Feb2015-271400Z 00000KT 9999 SCT040 BKN200 15/06 Q1033 NOSIG RMK PP000=
SPZO Feb2015-271500Z VRB02KT 9999 SCT043 BKN200 16/04 Q1033 NOSIG RMK PP000=
SPZO Feb2015-271600Z VRB03KT 9999 SCT043 BKN230 17/04 Q1032 NOSIG RMK PP000=
SPZO Feb2015-271700Z VRB02KT 9999 SCT043 BKN230 19/04 Q1031 TEMPO FEW030TCU RMK PP000=
SPZO Feb2015-271800Z 36009KT 320V050 9999 SCT050 SCT150 17/04 Q1030 RMK PP000=
SPZO Feb2015-271900Z 36008KT 300V060 9999 SCT050 SCT150 18/04 Q1029 NOSIG RMK PP000=
SPZO Feb2015-272000Z VRB04KT 9999 SCT050 SCT150 19/02 Q1028 NOSIG RMK PP000=
SPZO Feb2015-272100Z 04008KT 360V090 9999 VCSH FEW040TCU SCT050 BKN100 16/05 Q1027 NOSIG RMK PP000=
SPZO Feb2015-272200Z 25006KT 210V280 9999 VCSH FEW040TCU SCT050 BKN100 14/06 Q1028 RERA NOSIG RMK TX20.1 PPTRZ=
SPZO Feb2015-272300Z 27008KT 240V300 9999 FEW040 SCT050 BKN100 13/07 Q1028 NOSIG RMK PP000=
SPZO Feb2015-280000Z 00000KT 9999 FEW040 SCT060 BKN100 13/07 Q1030 RMK PP000=
SPZO Feb2015-280100Z 07003KT 9999 SCT046 BKN080 13/07 Q1031 RMK PP000=
SPZO Feb2015-280200Z 00000KT 9999 -RA SCT040 BKN080 12/08 Q1032 RMK PP004=
SPZO Feb2015-280300Z 00000KT 9999 SCT040 BKN080 12/07 Q1032 RMK PP000=
SPZO Feb2015-280400Z 00000KT 9999 SCT040 BKN080 12/07 Q1032 RMK PP000=
SPZO Feb2015-280500Z VRB02KT 9999 SCT043 BKN080 11/08 Q1032 RMK PP000=
SPZO Feb2015-280600Z 00000KT 9999 SCT046 BKN080 12/08 Q1031 RMK PP000=
SPZO Feb2015-280700Z 00000KT 9999 SCT046 SCT080 18/08 Q1031 RMK PP000=
SPZO Feb2015-280800Z 00000KT 9999 FEW046 SCT060 09/06 Q1030 RMK PP000=
SPZO Feb2015-280900Z 00000KT 9999 SCT050 08/06 Q1030 RMK PP000=
SPZO Feb2015-281000Z 07003KT 9999 FEW050 08/05 Q1031 RMK PP000=
SPZO Feb2015-281100Z VRB02KT 9999 SCT043 BKN080 08/06 Q1031 RMK BCO BR QUAD E PP000=
SPZO Feb2015-281200Z 00000KT 9999 FEW030 SCT040 BKN070 09/06 Q1032 NOSIG RMK HZ PP000=
SPZO Feb2015-281300Z 00000KT 9999 FEW033 SCT040 BKN070 13/06 Q1033 NOSIG RMK HZ PP000=
SPZO Feb2015-281400Z 00000KT 9999 SCT040 SCT070 15/05 Q1033 NOSIG RMK PP000=
SPZO Feb2015-281500Z VRB03KT 9999 SCT040 SCT090 17/04 Q1033 NOSIG RMK PP000=
SPZO Feb2015-281600Z VRB03KT 9999 SCT040 SCT100 18/05 Q1031 TEMPO FEW033TCU RMK PP000=
SPZO Feb2015-281700Z VRB04KT 9999 BKN050 SCT100 18/04 Q1030 NOSIG RMK PP000=
SPZO Feb2015-281800Z VRB03KT 9999 SCT050 SCT100 21/03 Q1029 NOSIG RMK PP000=
SPZO Feb2015-281900Z 00000KT 9999 SCT050 SCT100 21/04 Q1028 NOSIG RMK PP000=
SPZO Feb2015-282000Z VRB03KT 9999 -RA SCT040TCU SCT100 18/04 Q1027 NOSIG RMK PP000=
SPZO Feb2015-282100Z 02009KT 350V060 9999 VCSH SCT040TCU SCT080 19/04 Q1026 NOSIG RMK PPTRZ=
SPZO Feb2015-282200Z 17004KT 100V250 9999 -RA VCSH SCT040TCU BKN080 15/06 Q1027 NOSIG RMK T MAX 21.2 PPTRZ=
SPZO Feb2015-282300Z VRB03KT 9999 FEW040TCU SCT060 BKN100 15/07 Q1028 TEMPO DZ RMK PP000=
SPZO Mar2015-010000Z VRB02KT 9999 FEW040TCU SCT060 BKN100 14/06 Q1029 RMK PP000=
SPZO Mar2015-010100Z 13003KT 9999 SCT050 BKN100 14/06 Q1030 RMK PP000=
SPZO Mar2015-010200Z 13003KT 9999 SCT046 BKN080 14/06 Q1031 RMK PP000=
SPZO Mar2015-010300Z 08005KT 9999 SCT040 BKN080 13/07 Q1032 RMK PP000=
SPZO Mar2015-010400Z VRB01KT 9999 RA FEW040TCU SCT046 BKN080 10/07 Q1033 RMK PP038=
SPZO Mar2015-010500Z 00000KT 9999 RA FEW040TCU SCT046 BKN080 09/07 Q1033 RMK PP034=
SPZO Mar2015-010600Z VRB02KT 9999 -RA FEW033TCU SCT046 BKN080 09/07 Q1033 RMK PP026=
SPZO Mar2015-010700Z 29003KT 9999 -DZ FEW033TCU SCT040 BKN080 09/06 Q1032 RMK PP002=
SPZO Mar2015-010800Z 25004KT 9999 FEW036 SCT040 BKN080 09/06 Q1032 RMK PP000=
SPZO Mar2015-010900Z 27007KT 9999 FEW036 SCT046 BKN080 09/05 Q1031 RMK PP000=
SPZO Mar2015-011000Z 29003KT 9999 FEW036 SCT043 BKN080 09/05 Q1031 RMK PP000=
SPZO Mar2015-011100Z VRB02KT 9999 SCT036 BKN080 09/05 Q1032 RMK PP000=
SPZO Mar2015-011200Z 00000KT 9999 FEW030 SCT040 BKN080 10/05 Q1033 NOSIG RMK PP000=
SPZO Mar2015-011300Z 00000KT 9999 FEW030 SCT040 BKN080 11/06 Q1033 NOSIG RMK PP000=
SPZO Mar2015-011400Z 00000KT 9999 FEW033 SCT040 BKN080 12/06 Q1034 NOSIG RMK PP000=
SPZO Mar2015-011500Z VRB03KT 9999 FEW033 SCT040 BKN080 13/06 Q1034 NOSIG RMK PP000=
SPZO Mar2015-011600Z VRB02KT 9999 FEW033 SCT040 BKN080 15/07 Q1033 NOSIG RMK PP000=
SPZO Mar2015-011700Z VRB02KT 9999 VCSH FEW030TCU SCT040 BKN080 16/06 Q1032 NOSIG RMK PP000=
SPZO Mar2015-011800Z VRB03KT 9999 VCSH FEW030TCU SCT040 BKN080 17/05 Q1030 NOSIG RMK PP000=
SPZO Mar2015-011900Z VRB03KT 9999 BKN050 SCT090 18/05 Q1029 NOSIG RMK PP000=
SPZO Mar2015-012000Z 35007KT 280V050 9999 BKN050 SCT100 20/03 Q1028 NOSIG RMK PP000=
SPZO Mar2015-012100Z 35010KT 310V030 9999 FEW040TCU SCT050 BKN100 17/04 Q1027 NOSIG RMK PP000=
SPZO Mar2015-012200Z 08009KT 050V120 9999 FEW040TCU SCT050 BKN100 16/07 Q1027 NOSIG RMK TX20.2 PP000=
SPZO Mar2015-012300Z 09006KT 050V140 9999 FEW040 SCT050 BKN100 15/07 Q1028 NOSIG RMK PP000=
SPZO Mar2015-020000Z 10005KT 9999 SCT050 BKN100 15/07 Q1029 RMK PP000=
SPZO Mar2015-020100Z 12005KT 9999 -RA SCT046TCU BKN100 14/06 Q1030 RMK PPTRZ=
SPZO Mar2015-020200Z VRB01KT 9999 SCT046 BKN100 13/08 Q1031 RMK PP000=
SPZO Mar2015-020300Z 00000KT 9999 SCT046 BKN100 13/06 Q1032 RMK PP000=
SPZO Mar2015-020400Z 00000KT 9999 SCT046 BKN080 13/08 Q1032 RMK PP000=
SPZO Mar2015-020500Z 00000KT 9999 SCT046 BKN200 11/07 Q1031 RMK PP000=
SPZO Mar2015-020600Z VRB02KT 9999 SCT046 BKN200 11/07 Q1031 RMK PP000=
SPZO Mar2015-020700Z 08003KT 9999 SCT046 BKN200 10/07 Q1031 RMK PP000=
SPZO Mar2015-020800Z VRB03KT 9999 SCT050 BKN150 10/07 Q1029 RMK PP000=
SPZO Mar2015-020900Z VRB02KT 9999 SCT043 BKN100 10/07 Q1029 RMK PP000=
SPZO Mar2015-021000Z 00000KT 9999 SCT040 BKN080 10/07 Q1030 RMK PP000=
SPZO Mar2015-021100Z 00000KT 9999 FEW036 SCT042 BKN080 10/07 Q1030 RMK PP000=
SPZO Mar2015-021200Z VRB01KT 9999 FEW033 SCT040 BKN080 11/07 Q1031 NOSIG RMK PP000=
SPZO Mar2015-021300Z 08005KT 040V120 9999 FEW033 SCT040 BKN080 12/07 Q1032 NOSIG RMK PP000=
SPZO Mar2015-021400Z VRB01KT 9999 SCT043 BKN080 15/06 Q1031 NOSIG RMK PP000=
SPZO Mar2015-021500Z VRB03KT 9999 SCT043 BKN080 17/07 Q1032 NOSIG RMK PP000=
SPZO Mar2015-021600Z VRB05KT 9999 SCT043 BKN080 17/05 Q1031 NOSIG RMK PP000=
SPZO Mar2015-021700Z VRB03KT 9999 SCT043 BKN080 18/05 Q1030 NOSIG RMK PP000=
SPZO Mar2015-021800Z 35008KT 270V030 9999 SCT046 SCT080 19/05 Q1028 NOSIG RMK PP000=
SPZO Mar2015-021900Z 35010KT 330V050 9999 -RA VCSH 9999 SCT040TCU BKN080 16/04 Q1027 NOSIG RMK PPTRZ=
SPZO Mar2015-022000Z 26006KT 210V330 9999 SCT046 BKN100 17/07 Q1027 RERA NOSIG RMK PP006=
SPZO Mar2015-022100Z VRB06KT 9999 SCT046 BKN080 19/04 Q1025 NOSIG RMK PP000=
SPZO Mar2015-022200Z 36005KT 300V050 9999 SCT043 BKN080 17/05 Q1026 NOSIG RMK TX20.9 PP000=
SPZO Mar2015-022300Z 11011KT 090V150 9999 VCSH SCT043TCU BKN080 16/05 Q1027 NOSIG RMK PP000=
SPZO Mar2015-030000Z VRB03KT 9999 SCT040TCU BKN100 14/06 Q1028 RMK PP000=
SPZO Mar2015-030100Z 09004KT 9999 SCT040TCU BKN100 13/06 Q1029 RMK PP000=
SPZO Mar2015-030200Z 00000KT 9999 SCT040 BKN100 13/06 Q1030 RMK PP000=
SPZO Mar2015-030300Z 07004KT 9999 SCT050 BKN100 12/07 Q1031 RMK PP000=
SPZO Mar2015-030400Z 00000KT 9999 SCT050 BKN100 12/06 Q1031 RMK PP000=
SPZO Mar2015-030500Z 00000KT 9999 SCT050 BKN100 12/05 Q1031 RMK PP000=
SPZO Mar2015-030600Z 00000KT 9999 SCT050 BKN100 11/09 Q1031 RMK PP000=
SPZO Mar2015-030700Z 00000KT 9999 SCT050 BKN100 11/06 Q1031 RMK PP000=
SPZO Mar2015-030800Z 00000KT 9999 SCT050 BKN100 09/06 Q1030 RMK PP000=
SPZO Mar2015-030900Z 00000KT 9999 SCT050 BKN100 09/05 Q1030 RMK PP000=
SPZO Mar2015-031000Z VRB01KT 9999 SCT050 BKN100 08/05 Q1030 RMK PP000=
SPZO Mar2015-031100Z 08003KT 9999 SCT060 BKN100 07/04 Q1030 RMK PP000=
SPZO Mar2015-031200Z 00000KT 9999 SCT040 SCT080 08/05 Q1031 NOSIG RMK PP000=
SPZO Mar2015-031300Z 00000KT 9999 SCT036 BKN080 11/06 Q1032 NOSIG RMK PP000=
SPZO Mar2015-031400Z 00000KT 9999 SCT036 BKN080 12/06 Q1032 NOSIG RMK PP000=
SPZO Mar2015-031500Z 00000KT 9999 FEW036 SCT050 BKN080 14/05 Q1032 NOSIG RMK PP000=
SPZO Mar2015-031600Z 06003KT 360V130 9999 FEW036 SCT050 BKN080 15/06 Q1031 NOSIG RMK PP000=
SPZO Mar2015-031700Z VRB02KT 9999 SCT046 BKN080 18/05 Q1030 NOSIG RMK PP000=
SPZO Mar2015-031800Z VRB03KT 9999 SCT043 BKN080 20/06 Q1028 TEMPO VCSH FEW036TCU RMK PP000=
SPZO Mar2015-031900Z VRB02KT 9999 VCSH FEW036TCU SCT043 BKN080 19/05 Q1027 NOSIG RMK PP000=
SPZO Mar2015-032000Z 30009KT 230V350 9999 FEW040TCU SCT050 BKN080 19/06 Q1025 NOSIG RMK PP000=
SPZO Mar2015-032100Z 06009KT 020V180 9999 VCSH FEW040TCU SCT050 BKN080 16/07 Q1024 TEMPO -RA 9000E FEW060CB RMK PP000=
SPZO Mar2015-032200Z 22004KT 160V280 9999 FEW036TCU SCT050 BKN100 16/06 Q1024 RERA NOSIG RMK TX20.6 PPTRZ=
SPZO Mar2015-032300Z VRB02KT 9999 SCT050 BKN100 16/06 Q1025 NOSIG RMK PP000=
SPZO Mar2015-040000Z 00000KT 9999 SCT050 BKN100 14/08 Q1026 RMK PP000=
SPZO Mar2015-040100Z 24003KT 200V280 9999 SCT050 BKN100 14/07 Q1027 RMK PP000=
SPZO Mar2015-040200Z 00000KT 9999 SCT050 BKN080 13/08 Q1028 RMK PP000=
SPZO Mar2015-040300Z 00000KT 9999 SCT046 BKN080 13/08 Q1029 RMK CB QUAD S PP000=
SPZO Mar2015-040400Z 14005KT 9000 -RA SCT043 BKN080 13/05 Q1030 RMK PPTRZ=
SPZO Mar2015-040500Z 35003KT 310V030 8000 -RA SCT040 BKN070 10/07 Q1031 RMK PP032=
SPZO Mar2015-040600Z 00000KT 9000 -RA SCT040 BKN080 10/07 Q1030 RMK PP006=
SPZO Mar2015-040700Z 00000KT 9999 -DZ SCT040 BKN080 10/07 Q1030 RMK PP002=
SPZO Mar2015-040800Z 00000KT 9999 SCT040 BKN080 10/07 Q1029 REDZ RMK PPTRZ=
SPZO Mar2015-040900Z 26003KT 240V310 9999 SCT040 BKN080 10/07 Q1029 RMK PP000=
SPZO Mar2015-041000Z 00000KT 9999 SCT040 BKN080 10/06 Q1029 RMK PP000=
SPZO Mar2015-041100Z VRB01KT 9999 FEW030 SCT040 BKN080 10/07 Q1030 RMK PP000=
SPZO Mar2015-041200Z 00000KT 9999 FEW030 SCT040 BKN070 12/07 Q1031 NOSIG RMK PP000=
SPZO Mar2015-041300Z 00000KT 9999 FEW030 SCT040 BKN070 13/05 Q1031 NOSIG RMK PP000=
SPZO Mar2015-041400Z VRB01KT 9999 FEW033 SCT040 BKN070 14/06 Q1032 NOSIG RMK PP000=
SPZO Mar2015-041500Z VRB03KT 9999 FEW040 SCT050 BKN090 16/07 Q1031 NOSIG RMK PP000=
SPZO Mar2015-041600Z VRB03KT 9999 FEW040 SCT050 BKN100 18/05 Q1030 NOSIG RMK PP000=
SPZO Mar2015-041700Z VRB03KT 9999 FEW040 SCT050 BKN100 19/06 Q1029 NOSIG RMK PP000=
SPZO Mar2015-041800Z VRB07KT 9999 VCSH FEW040TCU SCT050 BKN080 18/06 Q1028 NOSIG RMK PP000=
SPZO Mar2015-041900Z VRB03KT 9999 VCSH FEW040TCU SCT046 BKN080 20/07 Q1027 NOSIG RMK PP000=
SPZO Mar2015-042000Z 35006KT 280V050 9999 FEW040TCU SCT046 BKN080 19/04 Q1026 NOSIG RMK PP000=
SPZO Mar2015-042100Z 27013KT 240V300 9999 FEW036TCU SCT046 BKN100 17/08 Q1025 TEMPO VCSH RMK PP000=
SPZO Mar2015-042200Z 27011KT 9999 SCT046 BKN100 17/07 Q1025 NOSIG RMK TX19.7 PP000=
SPZO Mar2015-042300Z 27006KT 230V300 9999 SCT046 BKN200 16/07 Q1026 NOSIG RMK PP000=
SPZO Mar2015-050000Z 28008KT 9999 SCT046 BKN150 14/07 Q1027 RMK PP000=
SPZO Mar2015-050100Z VRB02KT 9999 SCT046 BKN150 13/07 Q1028 RMK PP000=
SPZO Mar2015-050200Z VRB02KT 9999 SCT050 BKN150 13/07 Q1029 RMK PP000=
SPZO Mar2015-050300Z 08003KT 9999 SCT040 BKN100 13/08 Q1030 RMK PP000=
SPZO Mar2015-050400Z 10006KT 9999 SCT040 BKN080 12/08 Q1030 RMK PP000=
SPZO Mar2015-050500Z 09008KT 9999 -RA FEW036TCU SCT043 BKN080 10/07 Q1031 RMK PP008=
SPZO Mar2015-050600Z 09007KT 9999 -RA FEW036TCU SCT040 BKN080 10/08 Q1030 RMK PP034=
SPZO Mar2015-050700Z 08006KT 9999 -RA FEW036TCU SCT040 BKN080 09/07 Q1030 RMK PP001=
SPZO Mar2015-050800Z 08004KT 9999 -RA FEW030TCU SCT040 BKN080 09/07 Q1030 RMK PP002=
SPZO Mar2015-050900Z 09004KT 9999 -RA FEW025 SCT040TCU BKN080 08/06 Q1030 RMK PP006=
SPZO Mar2015-051000Z 08006KT 9999 -RA FEW015 SCT036TCU BKN070 07/06 Q1030 RMK CLNG BLW 1200M PP010=
SPZO Mar2015-051100Z 09005KT 9999 -RA FEW015 SCT033TCU BKN070 07/06 Q1031 RMK VIS 7000E CLNG BLW 1200M PP014=
SPZO Mar2015-051200Z 09007KT 060V130 5000 -RA SCT010 SCT020 OVC050 07/05 Q1032 NOSIG RMK CLNG BLW 1200M PP012=
SPZO Mar2015-051300Z 09006KT 050V120 5000 -RA SCT010 SCT020 OVC060 08/06 Q1032 NOSIG RMK CLNG BLW 1200M PP008=
SPZO Mar2015-051400Z 10006KT 050V130 7000 -RA SCT015 SCT025 OVC070 08/06 Q1033 NOSIG RMK CLNG BLW 1200M PP006=
SPZO Mar2015-051500Z 09005KT 040V150 8000 -RA SCT015 SCT030 OVC070 10/07 Q1033 NOSIG RMK CLNG BLW 1200M PP004=
SPZO Mar2015-051600Z 09007KT 050V160 9000 DZ FEW020 SCT036 OVC070 11/06 Q1033 NOSIG RMK PPTRZ=
SPZO Mar2015-051700Z 08007KT 030V140 9999 DZ FEW025 SCT040 BKN070 12/06 Q1032 NOSIG RMK PPTRZ=
SPZO Mar2015-051800Z 08008KT 030V140 9999 VCSH FEW020 SCT030 BKN060 13/06 Q1031 NOSIG RMK PP000=
SPZO Mar2015-051900Z 08008KT 030V110 9999 -RA VCSH FEW020TCU SCT030 BKN060 12/06 Q1030 NOSIG RMK PPTRZ=
SPZO Mar2015-052000Z 00000KT 9999 FEW030 SCT050 BKN100 14/07 Q1029 NOSIG RMK PP000=
SPZO Mar2015-052100Z 00000KT 9999 SCT040 BKN100 16/06 Q1028 NOSIG RMK PP000=
SPZO Mar2015-052200Z 00000KT 9999 VCSH SCT040 BKN100 15/07 Q1027 NOSIG RMK TMAX 16.7 PP000=
SPZO Mar2015-052300Z 10005KT 9999 SCT050 BKN100 14/07 Q1027 NOSIG RMK PP000=
SPZO Mar2015-060000Z VRB01KT 9999 SCT050 BKN100 13/07 Q1028 RMK PP000=
SPZO Mar2015-060100Z 28004KT 200V310 9999 SCT046 BKN080 13/08 Q1029 RMK PP000=
SPZO Mar2015-060200Z 07001KT 9999 SCT043 BKN080 13/07 Q1031 RMK -RA QUAD W PP000=
SPZO Mar2015-060300Z 22003KT 180V280 9000 -RA SCT043 BKN080 11/07 Q1032 RMK PP004=
SPZO Mar2015-060400Z 00000KT 9999 SCT043 BKN080 11/08 Q1032 RERA RMK PPTRZ=
SPZO Mar2015-060500Z 27002KT 9999 SCT046 BKN100 10/07 Q1031 RMK PP000=
SPZO Mar2015-060600Z 00000KT 9999 SCT046 BKN100 09/07 Q1031 RMK PP000=
SPZO Mar2015-060700Z 00000KT 9999 SCT050 BKN100 09/07 Q1031 RMK PP000=
SPZO Mar2015-060800Z 24002KT 9999 SCT050 BKN100 09/07 Q1030 RMK PP000=
SPZO Mar2015-060900Z 00000KT 9999 SCT050 BKN100 08/06 Q1030 RMK PP000=
SPZO Mar2015-061000Z 00000KT 9999 SCT046 BKN080 07/06 Q1030 RMK PP000=
SPZO Mar2015-061100Z 00000KT 9999 FEW030 SCT043 BKN100 07/05 Q1031 RMK VIS 9000E BR PP000=
SPZO Mar2015-061200Z 00000KT 9999 FEW040 SCT050 BKN070 08/06 Q1032 NOSIG RMK VIS 9000E HZ PP000=
SPZO Mar2015-061300Z 00000KT 9999 FEW040 SCT050 BKN070 12/07 Q1033 NOSIG RMK PP000=
SPZO Mar2015-061400Z 00000KT 9999 FEW040 SCT050 BKN070 14/06 Q1033 NOSIG RMK PP000=
SPZO Mar2015-061500Z VRB03KT 9999 FEW040 SCT050 BKN070 15/07 Q1032 NOSIG RMK PP000=
SPZO Mar2015-061600Z 10004KT 050V180 9999 FEW040 SCT050 BKN070 16/07 Q1032 NOSIG RMK PP000=
SPZO Mar2015-061700Z 05005KT 010V080 9999 FEW040 SCT050 BKN070 17/07 Q1031 NOSIG RMK PP000=
SPZO Mar2015-061800Z 27004KT 210V350 9999 VCSH SCT043 BKN080 16/07 Q1029 TEMPO -RA RMK PP000=
SPZO Mar2015-061900Z 06005KT 340V110 9999 VCSH FEW040TCU SCT046 BKN080 18/07 Q1028 TEMPO -RA RMK PP000=
SPZO Mar2015-062000Z 28011KT 240V320 9999 VCSH FEW040TCU SCT046 BKN080 16/06 Q1027 NOSIG RMK PP000=
SPZO Mar2015-062100Z 26006KT 9999 VCSH FEW040TCU SCT046 BKN080 17/06 Q1026 TEMPO -RA RMK PP000=
SPZO Mar2015-062200Z 35009KT 310V030 9999 VCSH FEW040TCU SCT050 BKN080 16/06 Q1027 NOSIG RMK TX19.4 PP000=
SPZO Mar2015-062300Z VRB06KT 9999 VCSH FEW040TCU SCT050 BKN080 15/05 Q1028 NOSIG RMK PP000=
SPZO Mar2015-070000Z 03006KT 340V060 9999 SCT043 BKN080 15/06 Q1028 RMK PP000=
SPZO Mar2015-070100Z 31007KT 280V350 9999 SCT043 BKN080 14/05 Q1030 RMK PP000=
SPZO Mar2015-070200Z 04004KT 340V070 9999 SCT043 BKN080 13/06 Q1031 RMK PP000=
SPZO Mar2015-070300Z VRB02KT 9999 SCT043 BKN100 12/07 Q1031 RMK PP000=
SPZO Mar2015-070400Z 00000KT 9999 SCT050 SCT100 10/07 Q1031 RMK PP000=
SPZO Mar2015-070500Z VRB01KT 9999 SCT050 SCT100 11/07 Q1032 RMK PP000=
SPZO Mar2015-070600Z VRB01KT 9999 SCT050 SCT100 10/07 Q1031 RMK PP000=
SPZO Mar2015-070700Z 06003KT 9999 SCT050 SCT100 10/06 Q1031 RMK PP000=
SPZO Mar2015-070800Z 00000KT 9999 SCT046 BKN080 10/06 Q1031 RMK PP000=
SPZO Mar2015-070900Z 00000KT 9999 SCT046 BKN080 10/07 Q1031 RMK PP000=
SPZO Mar2015-071000Z 00000KT 9999 FEW036 SCT046 BKN080 10/07 Q1031 RMK PP000=
SPZO Mar2015-071100Z VRB01KT 9999 FEW036 SCT046 BKN080 10/07 Q1031 RMK PP000=
SPZO Mar2015-071200Z VRB01KT 9999 SCT040 BKN080 11/07 Q1032 NOSIG RMK PP000=
SPZO Mar2015-071300Z VRB01KT 9999 SCT040 BKN080 14/06 Q1033 NOSIG RMK PP000=
SPZO Mar2015-071400Z VRB02KT 9999 SCT040 SCT080 15/05 Q1033 NOSIG RMK PP000=
SPZO Mar2015-071500Z VRB05KT 9999 SCT040 BKN080 17/07 Q1033 NOSIG RMK PP000=
SPZO Mar2015-071600Z 09005KT 030V180 9999 FEW040TCU SCT043 BKN100 17/07 Q1032 NOSIG RMK PP000=
SPZO Mar2015-071700Z 09009KT 060V120 9999 VCSH FEW040TCU SCT046 BKN100 18/06 Q1031 NOSIG RMK PP000=
SPZO Mar2015-071800Z VRB03KT 9999 FEW040 SCT046TCU BKN100 19/06 Q1030 RMK PP000=
SPZO Mar2015-071900Z 08008KT 210V330 9999 SCT046 SCT080 20/06 Q1028 RMK PP000=
SPZO Mar2015-072000Z 09006KT 040V150 9999 SCT046 SCT100 19/06 Q1027 NOSIG RMK PP000=
SPZO Mar2015-072100Z 35010KT 300V050 9999 SCT046 BKN080 18/05 Q1027 NOSIG RMK PP000=
SPZO Mar2015-072200Z 26004KT 210V350 9999 FEW046 BKN080 17/05 Q1027 NOSIG RMK TX20.8 PP000=
SPZO Mar2015-072300Z VRB04KT 9999 SCT046 BKN080 16/03 Q1027 NOSIG RMK PP000=
SPZO Mar2015-080000Z 00000KT 9999 SCT050 BKN080 15/05 Q1028 RMK PP000=
SPZO Mar2015-080100Z 00000KT 9999 SCT050 BKN080 14/06 Q1029 RMK PP000=
SPZO Mar2015-080200Z 00000KT 9999 SCT050 13/06 Q1030 RMK PP000=
SPZO Mar2015-080300Z VRB02KT 9999 SCT050 12/07 Q1031 RMK PP000=
SPZO Mar2015-080400Z 00000KT 9999 SCT050 11/07 Q1031 RMK PP000=
SPZO Mar2015-080500Z 00000KT 9999 SCT050 BKN100 10/06 Q1031 RMK PP000=
SPZO Mar2015-080600Z 00000KT 9999 SCT050 BKN100 12/07 Q1031 RMK PP000=
SPZO Mar2015-080700Z 00000KT 9999 SCT050 BKN100 10/07 Q1029 RMK PP000=
SPZO Mar2015-080800Z 00000KT 9999 SCT050 BKN100 10/07 Q1029 RMK PP000=
SPZO Mar2015-080900Z 00000KT 9999 SCT050 BKN100 10/07 Q1030 RMK PP000=
SPZO Mar2015-081000Z 00000KT 9999 SCT050 BKN100 09/06 Q1030 RMK PP000=
SPZO Mar2015-081100Z 00000KT 9999 SCT050 SCT100 09/06 Q1030 RMK PP000=
SPZO Mar2015-081200Z 00000KT 9999 SCT050 BKN100 10/06 Q1031 NOSIG RMK PP000=
SPZO Mar2015-081300Z 00000KT 9999 SCT050 BKN100 11/07 Q1032 TEMPO SCT043 BKN080 RMK HZ PP000=
SPZO Mar2015-081400Z VRB02KT 9999 FEW036 SCT046 BKN080 13/07 Q1033 NOSIG RMK PP000=
SPZO Mar2015-081500Z 03007KT 9999 SCT046 BKN150 16/05 Q1033 NOSIG RMK PP000=
SPZO Mar2015-081600Z 01009KT 300V060 9999 SCT043 BKN100 17/06 Q1032 NOSIG RMK PP000=
SPZO Mar2015-081700Z 01007KT 280V060 9999 SCT046 SCT100 18/06 Q1031 NOSIG RMK PP000=
SPZO Mar2015-081800Z 34008KT 280V040 9999 SCT050 SCT150 18/05 Q1030 NOSIG RMK PP000=
SPZO Mar2015-081900Z 36010KT 290V050 9999 SCT050 SCT150 19/05 Q1029 NOSIG RMK PP000=
SPZO Mar2015-082000Z 36009KT 290V080 9999 SCT050 SCT150 19/04 Q1027 NOSIG RMK PP000=
SPZO Mar2015-082100Z 35009KT 300V030 9999 SCT050 SCT150 20/04 Q1026 NOSIG RMK PP000=
SPZO Mar2015-082200Z 02007KT 340V080 9999 SCT050 SCT150 18/04 Q1027 NOSIG RMK TX20.1 PP000=
SPZO Mar2015-082300Z 08005KT 320V130 9999 SCT050 SCT150 17/03 Q1028 TEMPO SCT040 BKN100 RMK PP000=
SPZO Mar2015-090000Z 08005KT 050V110 9999 SCT050 BKN100 14/05 Q1029 RMK PP000=
SPZO Mar2015-090100Z VRB02KT 9999 SCT050 BKN100 14/05 Q1030 RMK PP000=
SPZO Mar2015-090200Z VRB01KT 9999 SCT050 BKN100 12/05 Q1031 RMK PP000=
SPZO Mar2015-090300Z VRB02KT 9999 SCT050 BKN100 11/05 Q1032 RMK PP000=
SPZO Mar2015-090400Z 09004KT 060V130 9999 SCT050 BKN100 10/06 Q1032 RMK PP000=
SPZO Mar2015-090500Z 10001KT 9999 SCT050 BKN100 11/06 Q1032 RMK PP000=
SPZO Mar2015-090600Z 06002KT 9999 SCT050 BKN100 10/06 Q1031 RMK PP000=
SPZO Mar2015-090700Z 00000KT 9999 SCT050 BKN100 10/06 Q1031 RMK PP000=
SPZO Mar2015-090800Z 27002KT 9999 SCT046 BKN080 09/06 Q1031 RMK PP000=
SPZO Mar2015-090900Z VRB02KT 9999 SCT046 BKN080 09/06 Q1031 RMK PP000=
SPZO Mar2015-091000Z 07002KT 9999 SCT046 SCT080 09/06 Q1031 RMK PP000=
SPZO Mar2015-091100Z VRB02KT 9999 FEW050 SCT100 08/05 Q1031 RMK PP000=
SPZO Mar2015-091200Z VRB02KT 9999 FEW050 SCT150 11/05 Q1032 NOSIG RMK PP000=
SPZO Mar2015-091300Z VRB03KT 9999 FEW050 SCT100 14/06 Q1033 NOSIG RMK PP000=
SPZO Mar2015-091400Z 09003KT 030V150 9999 FEW050 16/06 Q1033 NOSIG RMK PP000=
SPZO Mar2015-091500Z 00000KT 9999 SCT050 17/05 Q1033 NOSIG RMK PP000=
SPZO Mar2015-091600Z 07004KT 360V120 9999 SCT043 SCT080 16/05 Q1032 NOSIG RMK PP000=
SPZO Mar2015-091700Z 06004KT 360V100 9999 FEW046 SCT080 20/06 Q1031 NOSIG RMK PP000=
SPZO Mar2015-091800Z VRB04KT 9999 SCT050 20/05 Q1029 NOSIG RMK PP000=
SPZO Mar2015-091900Z 36009KT 310V070 9999 SCT050 SCT100 21/05 Q1028 NOSIG RMK PP000=
SPZO Mar2015-092000Z 35011KT 290V050 9999 SCT043 BKN100 21/04 Q1027 NOSIG RMK PP000=
SPZO Mar2015-092100Z 35008KT 300V040 9999 SCT043 BKN100 19/05 Q1027 NOSIG RMK PP000=
SPZO Mar2015-092200Z 36009KT 310V050 9999 FEW043 SCT100 17/03 Q1027 NOSIG RMK TX21.3 PP000=
SPZO Mar2015-092300Z 01008KT 330V060 9999 FEW043 SCT200 17/02 Q1027 NOSIG RMK PP000=
SPZO Mar2015-100000Z 14003KT 9999 FEW050 15/03 Q1029 RMK PP000=
SPZO Mar2015-100100Z 00000KT 9999 FEW050 13/05 Q1030 RMK PP000=
SPZO Mar2015-100200Z 30003KT 9999 FEW050 11/06 Q1031 RMK PP000=
SPZO Mar2015-100300Z 07003KT 9999 SCT050 12/06 Q1032 RMK PP000=
SPZO Mar2015-100400Z 00000KT 9999 SCT050 SCT080 11/06 Q1032 RMK PP000=
SPZO Mar2015-100500Z VRB02KT 9999 SCT046 SCT080 11/06 Q1032 RMK PP000=
SPZO Mar2015-100600Z 00000KT 9999 SCT046 SCT080 10/06 Q1032 RMK PP000=
SPZO Mar2015-100700Z VRB01KT 9999 FEW046 SCT080 10/06 Q1032 RMK PP000=
SPZO Mar2015-100800Z VRB02KT 9999 FEW046 SCT080 10/06 Q1031 RMK PP000=
SPZO Mar2015-100900Z 00000KT 9999 FEW046 SCT080 09/05 Q1031 RMK PP000=
SPZO Mar2015-101000Z 00000KT 9999 FEW046 SCT080 08/05 Q1032 RMK PP000=
SPZO Mar2015-101100Z VRB02KT 9999 SCT040 BKN080 09/05 Q1033 RMK PP000=
SPZO Mar2015-101200Z 00000KT 9999 SCT043 BKN080 11/06 Q1033 TEMPO -RA RMK PP000=
SPZO Mar2015-101300Z 00000KT 8000 FEW030 SCT040 BKN070 12/06 Q1034 TEMPO 10004KT FEW020 SCT040 BKN070 RMK HZ PP000=
SPZO Mar2015-101400Z 00000KT 9999 FEW033 SCT040 BKN080 14/06 Q1035 NOSIG RMK PP000=
SPZO Mar2015-101500Z VRB03KT 9999 FEW033 SCT040 BKN080 14/06 Q1035 NOSIG RMK PP000=
SPZO Mar2015-101600Z VRB03KT 9999 SCT046 BKN100 17/06 Q1034 NOSIG RMK PP000=
SPZO Mar2015-101700Z 07004KT 030V120 9999 FEW040 SCT046 BKN080 17/05 Q1032 TEMPO VCSH FEW040TCU BKN070 RMK PP000=
SPZO Mar2015-101800Z 09004KT 9999 FEW040TCU SCT050 BKN100 17/05 Q1031 TEMPO VCSH RMK PP000=
SPZO Mar2015-101900Z VRB03KT 9999 SCT050 BKN100 20/04 Q1029 NOSIG RMK PP000=
SPZO Mar2015-102000Z 11012KT 9999 SCT050 BKN100 19/07 Q1028 NOSIG RMK PP000=
SPZO Mar2015-102100Z 07006KT 9999 SCT050 BKN100 17/06 Q1027 NOSIG RMK PP000=
SPZO Mar2015-102200Z 00000KT 9999 SCT040 BKN230 21/06 Q1027 NOSIG RMK PP000=
SPZO Mar2015-102300Z 01006KT 9999 SCT040 BKN230 18/04 Q1027 NOSIG RMK PP000=
SPZO Mar2015-110000Z 33006KT 280V020 9999 SCT050 BKN100 17/05 Q1029 RMK PP000=
SPZO Mar2015-110100Z 29006KT 260V330 9999 SCT050 BKN100 16/05 Q1030 RMK PP000=
SPZO Mar2015-110200Z 32007KT 9999 SCT046 BKN080 14/04 Q1032 RMK -RA QUAD NE PP000=
SPZO Mar2015-110300Z 05010KT 340V120 9000 -RA SCT040 BKN080 11/05 Q1035 RMK CB QUAD SW PPTRZ=
SPZO Mar2015-110400Z 08004KT 7000 -RA SCT040 BKN080 09/06 Q1036 RMK PP068=
SPZO Mar2015-110500Z VRB01KT 9000 -DZ FEW025 SCT036 BKN080 09/06 Q1035 RMK PP012=
SPZO Mar2015-110600Z 08003KT 9000 -DZ FEW030 SCT040 BKN080 08/06 Q1035 RMK PPTRZ=
SPZO Mar2015-110700Z 10002KT 060V150 9000 -RA FEW030 SCT040 BKN080 08/06 Q1035 RMK PP012=
SPZO Mar2015-110800Z 08004KT 9999 FEW030 SCT040 BKN080 08/06 Q1034 RERA RMK PPTRZ=
SPZO Mar2015-110900Z 00000KT 9999 FEW030 SCT036 BKN080 08/06 Q1034 RMK PP000=
SPZO Mar2015-111000Z 00000KT 9999 FEW030 SCT040 BKN080 09/06 Q1034 RMK PP000=
SPZO Mar2015-111100Z 07002KT 9999 FEW033 SCT040 BKN080 08/06 Q1034 RMK PP000=
SPZO Mar2015-111200Z 08004KT 9999 SCT040 BKN100 08/06 Q1035 NOSIG RMK PP000=
SPZO Mar2015-111300Z 10004KT 9999 SCT040 BKN100 11/07 Q1035 NOSIG RMK PP000=
SPZO Mar2015-111400Z VRB02KT 9999 SCT050 BKN100 13/07 Q1035 NOSIG RMK PP000=
SPZO Mar2015-111500Z VRB02KT 9999 SCT050 BKN100 16/07 Q1035 RMK PP000=
SPZO Mar2015-111600Z 07004KT 9999 SCT050 BKN100 16/06 Q1034 NOSIG RMK PP000=
SPZO Mar2015-111700Z 08007KT 040V140 9999 FEW040TCU SCT050 BKN100 17/08 Q1033 NOSIG RMK PP000=
SPZO Mar2015-111800Z VRB03KT 9999 FEW040TCU SCT050 BKN080 18/08 Q1031 TEMPO VCSH RMK PP000=
SPZO Mar2015-111900Z 06003KT 330V090 9999 FEW036TCU SCT050 BKN080 19/05 Q1030 NOSIG RMK PP000=
SPZO Mar2015-112000Z VRB02KT 9999 BKN050 SCT100 21/04 Q1028 NOSIG RMK PP000=
SPZO Mar2015-112100Z VRB04KT 9999 SCT050 SCT100 21/06 Q1027 NOSIG RMK PP000=
SPZO Mar2015-112200Z 25003KT 190V320 9999 SCT050 SCT100 20/04 Q1026=
SPZO Mar2015-112300Z 29007KT 230V350 9999 FEW050 SCT100 19/06 Q1027 NOSIG RMK PP000=
SPZO Mar2015-120000Z VRB03KT 9999 SCT050 SCT100 16/07 Q1029 RMK PP000=
SPZO Mar2015-120100Z 28004KT 210V360 9999 SCT050 SCT100 15/07 Q1030 RMK PP000=
SPZO Mar2015-120200Z 07005KT 020V100 9999 SCT050 SCT100 15/08 Q1031 RMK PP000=
SPZO Mar2015-120300Z VRB01KT 020V100 9999 SCT046 BKN080 14/07 Q1031 RMK PP000=
SPZO Mar2015-120400Z VRB02KT 9999 SCT046 BKN080 13/07 Q1032 RMK PP000=
SPZO Mar2015-120500Z 00000KT 9999 SCT046 BKN080 14/07 Q1031 RMK PP000=
SPZO Mar2015-120600Z 00000KT 9999 SCT046 BKN080 13/08 Q1031 RMK PP000=
SPZO Mar2015-120700Z 00000KT 9999 FEW046 SCT080 12/07 Q1031 RMK PP000=
SPZO Mar2015-120800Z VRB02KT 9999 FEW046 SCT080 12/07 Q1031 RMK PP000=
SPZO Mar2015-120900Z 25003KT 9999 FEW046 SCT080 10/07 Q1031 RMK PP000=
SPZO Mar2015-121000Z 00000KT 9999 FEW043 SCT080 10/06 Q1031 RMK PP000=
SPZO Mar2015-121100Z 30003KT 9999 FEW020 SCT046 BKN100 10/06 Q1032 RMK PP000=
SPZO Mar2015-121200Z 08002KT 9999 FEW050 BKN200 11/07 Q1033 NOSIG RMK PP000=
SPZO Mar2015-121300Z VRB01KT 9999 FEW050 SCT200 14/07 Q1033 NOSIG RMK PP000=
SPZO Mar2015-121400Z VRB02KT 9999 SCT046 16/06 Q1033 NOSIG RMK PP000=
SPZO Mar2015-121500Z VRB03KT 9999 SCT046 18/05 Q1033 NOSIG RMK PP000=
SPZO Mar2015-121600Z VRB02KT 9999 SCT050 20/04 Q1032 NOSIG RMK PP000=
SPZO Mar2015-121700Z VRB03KT 9999 SCT050 21/05 Q1031 NOSIG RMK PP000=
SPZO Mar2015-121800Z VRB06KT 9999 SCT050 21/06 Q1029 NOSIG RMK PP000=
SPZO Mar2015-121900Z 02010KT 9999 SCT050 21/03 Q1027 NOSIG RMK PP000=
SPZO Mar2015-122000Z 01010KT 9999 SCT050 21/04 Q1026 NOSIG RMK PP000=
SPZO Mar2015-122100Z 36009KT 340V040 9999 FEW040 SCT060 21/04 Q1025 TEMPO FEW040TCU RMK PP000=
SPZO Mar2015-122200Z 14007KT 060V210 9999 FEW040TCU BKN070 19/05 Q1026 TEMPO -RA RMK TX22.1 PP000=
SPZO Mar2015-122300Z 11008KT 9999 SCT040TCU BKN080 17/06 Q1027 TEMPO VCSH RMK PP000=
SPZO Mar2015-130000Z 11013G23KT 9999 SCT040TCU BKN080 16/06 Q1028 RMK PP000=
SPZO Mar2015-130100Z 10009KT 9999 -RA VCSH SCT040TCU BKN080 13/07 Q1031 RMK PP004=
SPZO Mar2015-130200Z 10004KT 9999 -RA VCSH SCT040TCU BKN080 11/08 Q1033 RMK PP006=
SPZO Mar2015-130300Z 24003KT 9999 TS SCT040 BKN100 11/07 Q1032 RMK PP000=
SPZO Mar2015-130400Z 08004KT 9999 SCT040 BKN100 10/07 Q1032 RMK PP000=
SPZO Mar2015-130500Z 00000KT 9999 FEW020 SCT040 BKN100 10/07 Q1032 RMK PP000=
SPZO Mar2015-130600Z 00000KT 9999 FEW020 SCT040 BKN100 10/07 Q1031 RMK PP000=
SPZO Mar2015-130700Z 00000KT 9999 FEW020 SCT040 BKN100 10/07 Q1031 RMK PP000=
SPZO Mar2015-130800Z 00000KT 9999 SCT050 BKN100 10/07 Q1030 RMK PP000=
SPZO Mar2015-130900Z 00000KT 9999 SCT050 BKN100 10/07 Q1030 RMK PP000=
SPZO Mar2015-131000Z 11004KT 9999 SCT050 BKN100 10/07 Q1031 RMK PP000=
SPZO Mar2015-131100Z VRB02KT 9999 SCT050 BKN100 09/07 Q1031 RMK PP000=
SPZO Mar2015-131200Z 07005KT 020V100 9999 FEW015 SCT040 BKN080 10/07 Q1031 NOSIG RMK BCO BR QUAD E PP000=
SPZO Mar2015-131300Z VRB02KT 9999 FEW020 SCT036 BKN080 12/08 Q1032 TEMPO FEW030 SCT043 BKN100 RMK BCO BR QUAD E PP000=
SPZO Mar2015-131400Z 00000KT 9999 SCT036 SCT080 14/07 Q1031 NOSIG RMK PP000=
SPZO Mar2015-131500Z VRB03KT 9999 SCT036 SCT080 16/06 Q1031 NOSIG RMK PP000=
SPZO Mar2015-131600Z VRB03KT 9999 SCT043 SCT200 18/07 Q1030 NOSIG RMK PP000=
SPZO Mar2015-131700Z VRB03KT 9999 SCT046 20/06 Q1029 NOSIG RMK PP000=
SPZO Mar2015-131800Z VRB04KT 9999 SCT050 SCT150 21/07 Q1028 TEMPO VCSH RMK PP000=
SPZO Mar2015-131900Z VRB03KT 9999 SCT050 SCT150 22/03 Q1026 NOSIG RMK PP000=
SPZO Mar2015-132000Z 21006KT 130V260 9999 SCT050 SCT150 20/04 Q1025 NOSIG RMK PP000=
SPZO Mar2015-132100Z 29004KT 200V010 9999 SCT050 SCT100 21/04 Q1024 TEMPO VCSH FEW040TCU BKN100 RMK PP000=
SPZO Mar2015-132200Z 35006KT 250V040 9000 FEW030 SCT050 BKN080 14/06 Q1025 RERA NOSIG RMK TX22.4 PP046=
SPZO Mar2015-132300Z VRB02KT 9999 FEW040 SCT050 BKN100 14/08 Q1026 NOSIG RMK PP000=
SPZO Mar2015-140000Z 24001KT 9999 SCT050 BKN100 14/10 Q1026 RMK PP000=
SPZO Mar2015-140100Z 00000KT 9999 SCT050 BKN100 13/09 Q1028 RMK PP000=
SPZO Mar2015-140200Z VRB02KT 9999 SCT050 BKN100 12/09 Q1029 RMK PP000=
SPZO Mar2015-140300Z 00000KT 9999 SCT046 BKN080 11/08 Q1030 RMK PP000=
SPZO Mar2015-140400Z 00000KT 9999 SCT046 BKN080 11/08 Q1030 RMK PP000=
SPZO Mar2015-140500Z 00000KT 9999 SCT046 BKN080 11/08 Q1030 RMK PP000=
SPZO Mar2015-140600Z VRB02KT 9999 SCT046 BKN080 10/08 Q1029 RMK PP000=
SPZO Mar2015-140700Z 00000KT 9999 SCT043 BKN080 11/08 Q1029 RMK -RA QUAD NE PP000=
SPZO Mar2015-140800Z 00000KT 9999 SCT043 BKN080 11/08 Q1029 RMK -RA QUAD NE PP000=
SPZO Mar2015-140900Z 00000KT 9000 -RA SCT043 BKN080 11/08 Q1029 RMK PPTRZ=
SPZO Mar2015-141000Z 00000KT 9999 FEW033 SCT040 BKN080 11/08 Q1029 RERA RMK VIS 8000E BR PPTRZ=
SPZO Mar2015-141100Z 00000KT 9999 FEW033 SCT040 BKN080 11/08 Q1030 RMK VIS 9000E -RA PP000=
SPZO Mar2015-141200Z VRB02KT 8000 FEW033 SCT040 BKN070 12/09 Q1031 NOSIG RMK HZ PP000=
SPZO Mar2015-141300Z VRB03KT 9000 FEW033 SCT040 BKN090 13/09 Q1032 NOSIG RMK HZ PP000=
SPZO Mar2015-141400Z VRB02KT 9999 FEW040 SCT050 BKN100 17/08 Q1032 NOSIG RMK PP000=
SPZO Mar2015-141500Z VRB02KT 9999 SCT050 SCT100 18/07 Q1031 NOSIG RMK PP000=
SPZO Mar2015-141600Z VRB05KT 9999 SCT050 SCT100 19/06 Q1030 NOSIG RMK PP000=
SPZO Mar2015-141700Z VRB04KT 9999 SCT050 SCT080 20/06 Q1029 NOSIG RMK VCSH QUAD E PP000=
SPZO Mar2015-141800Z VRB03KT 9999 VCSH FEW043TCU SCT050 BKN080 19/05 Q1027 NOSIG RMK PP000=
SPZO Mar2015-141900Z 20008KT 120V260 9999 FEW040 SCT046 BKN080 16/06 Q1028 WS R28 NOSIG RMK VCTS QUAD SW PP000=
SPZO Mar2015-142000Z 27009KT 240V320 9999 FEW040 SCT046 BKN100 15/06 Q1028 NOSIG RMK PP000=
SPZO Mar2015-142100Z 09009KT 060V140 9999 FEW040 SCT046 BKN100 15/06 Q1028 NOSIG RMK PP000=
SPZO Mar2015-142200Z 09010KT 070V150 9000 -RA VCSH FEW036 SCT043 BKN080 11/07 Q1029 NOSIG RMK TX21.2 PP014=
SPZO Mar2015-142300Z 00000KT 9999 SCT046 BKN080 11/07 Q1030 NOSIG RMK PP006=
SPZO Mar2015-150000Z VRB02KT 9999 SCT080 OVC200 11/07 Q1030 RMK PP000=
SPZO Mar2015-150100Z 08005KT 9999 SCT080 OVC200 09/07 Q1031 RMK PP000=
SPZO Mar2015-150200Z 08004KT 9999 FEW050 OVC200 09/07 Q1032 RMK PP000=
SPZO Mar2015-150300Z 00000KT 9999 FEW050 OVC200 09/07 Q1032 RMK PP000=
SPZO Mar2015-150400Z 00000KT 9999 FEW050 OVC200 09/07 Q1033 RMK PP000=
SPZO Mar2015-150500Z 00000KT 9999 FEW040 BKN080 09/07 Q1032 RMK PP000=
SPZO Mar2015-150600Z VRB02KT 9999 SCT040 BKN080 09/07 Q1032 RMK PP000=
SPZO Mar2015-150700Z VRB02KT 9999 SCT040 SCT080 09/07 Q1031 RMK PP000=
SPZO Mar2015-150800Z VRB01KT 9999 FEW015 SCT036 SCT070 08/07 Q1030 RMK PP000=
SPZO Mar2015-150900Z 08003KT 9999 FEW015 SCT036 SCT070 08/06 Q1030 RMK PP000=
SPZO Mar2015-151000Z VRB02KT 9999 FEW015 SCT036 SCT080 08/06 Q1031 RMK CLNG BLW 1200M PP000=
SPZO Mar2015-151100Z 00000KT 9999 FEW015 SCT033 BKN080 08/06 Q1032 RMK CLNG BLW 1200M PP000=
SPZO Mar2015-151200Z 08002KT 9000 FEW010 SCT030 BKN070 09/06 Q1032 NOSIG RMK HZ CLNG BLW 1200M PP000=
SPZO Mar2015-151300Z VRB02KT 9999 FEW010 SCT033 BKN070 11/07 Q1033 NOSIG RMK PP000=
SPZO Mar2015-151400Z VRB01KT 9999 FEW025 SCT040 BKN090 14/07 Q1033 NOSIG RMK PP000=
SPZO Mar2015-151500Z VRB03KT 9999 BKN040 SCT100 15/07 Q1032 NOSIG RMK PP000=
SPZO Mar2015-151600Z VRB02KT 9999 BKN040 SCT080 15/05 Q1032 NOSIG RMK PP000=
SPZO Mar2015-151700Z VRB05KT 9999 SCT046 SCT080 18/05 Q1031 TEMPO 28010KT VCSH FEW040TCU BKN080 RMK PP000=
SPZO Mar2015-151800Z VRB07KT 9999 SCT050 SCT100 19/03 Q1029 TEMPO VCSH RMK PP000=
SPZO Mar2015-151900Z 33009KT 290V010 9999 FEW040TCU SCT050 BKN080 18/04 Q1028 NOSIG RMK PP000=
SPZO Mar2015-152000Z 01008KT 320V090 9999 FEW040TCU SCT060 BKN230 20/04 Q1027 NOSIG RMK PP000=
SPZO Mar2015-152100Z 36009KT 9999 SCT060 20/03 Q1027 NOSIG RMK PP000=
SPZO Mar2015-152200Z 35009KT 9999 SCT060 19/03 Q1027 NOSIG RMK T MAX 20.8 PP000=
SPZO Mar2015-152300Z VRB08KT 9999 SCT050 BKN230 16/03 Q1028 NOSIG RMK PP000=
SPZO Mar2015-160000Z VRB04KT 9999 SCT050 BKN100 15/03 Q1030 RMK PP000=
SPZO Mar2015-160100Z 01007KT 310V080 9999 SCT046 BKN080 14/04 Q1031 RMK PP000=
SPZO Mar2015-160200Z 09003KT 9999 SCT046 BKN080 14/04 Q1032 RMK PP000=
SPZO Mar2015-160300Z 34003KT 9999 SCT046 BKN080 13/03 Q1033 RMK PP000=
SPZO Mar2015-160400Z 06004KT 030V110 9999 SCT046 BKN080 11/04 Q1033 RMK CB QUAD NE PP000=
SPZO Mar2015-160500Z 08002KT 9999 SCT046 BKN080 10/05 Q1032 RMK PP000=
SPZO Mar2015-160600Z VRB02KT 9999 SCT046 BKN080 10/06 Q1032 RMK PP000=
SPZO Mar2015-160700Z 00000KT 9000 -RA SCT043 BKN080 11/06 Q1032 RMK PP000=
SPZO Mar2015-160800Z 00000KT 9000 -RA SCT043 BKN080 10/07 Q1032 RMK PP016=
SPZO Mar2015-160900Z 08003KT 9000 -RA SCT040 BKN080 09/07 Q1032 RMK PP008=
SPZO Mar2015-161000Z 09003KT 9000 -DZ FEW033 SCT040 BKN080 09/07 Q1032 RMK PP004=
SPZO Mar2015-161100Z 08002KT 9000 -DZ FEW030 SCT036 BKN080 09/07 Q1033 RMK CLNG BLW 1200M PPTRZ=
SPZO Mar2015-161200Z 07002KT 7000 -RA VCSH FEW020TCU SCT030 BKN070 09/07 Q1034 NOSIG RMK PPTRZ=
SPZO Mar2015-161300Z VRB01KT 7000 -RA VCSH FEW010TCU SCT030 BKN060 10/08 Q1035 NOSIG RMK BR PP004=
SPZO Mar2015-161400Z VRB03KT 8000 FEW015 SCT030 BKN080 12/08 Q1036 NOSIG RMK BR PPTRZ=
SPZO Mar2015-161500Z 08005KT 9999 SCT030 BKN080 13/06 Q1035 NOSIG RMK PP000=
SPZO Mar2015-161600Z 10007KT 9999 SCT040 BKN100 13/06 Q1035 NOSIG RMK PP000=
SPZO Mar2015-161700Z 20004KT 9999 SCT040 BKN100 16/06 Q1033 NOSIG RMK PP000=
SPZO Mar2015-161800Z 35006KT 270V050 9999 BKN043 SCT100 17/06 Q1032 NOSIG RMK PP000=
SPZO Mar2015-161900Z 35010KT 290V030 9999 FEW036TCU SCT043 BKN100 18/05 Q1030 NOSIG RMK PP000=
SPZO Mar2015-162000Z 01005KT 280V060 9999 SCT043 SCT100 18/04 Q1029 NOSIG RMK PP000=
SPZO Mar2015-162100Z 36008KT 290V070 9999 SCT043 SCT100 17/04 Q1028 NOSIG RMK TCU QUAD W PP000=
SPZO Mar2015-162200Z VRB06KT 9999 SCT040 SCT100 16/02 Q1028 NOSIG RMK TX18.5 PP000=
SPZO Mar2015-162300Z VRB07KT 9999 SCT040 SCT100 15/03 Q1029 NOSIG RMK PP000=
SPZO Mar2015-170000Z 31006KT 240V360 9999 SCT050 SCT100 14/03 Q1030 RMK PP000=
SPZO Mar2015-170100Z 00000KT 9999 SCT050 SCT100 11/05 Q1031 RMK PP000=
SPZO Mar2015-170200Z VRB01KT 9999 FEW050 SCT100 11/05 Q1032 RMK PP000=
SPZO Mar2015-170300Z 09003KT 9999 FEW043 SCT080 11/05 Q1033 RMK PP000=
SPZO Mar2015-170400Z VRB02KT 9999 FEW043 BKN080 11/05 Q1033 RMK PP000=
SPZO Mar2015-170500Z VRB02KT 9999 FEW043 BKN080 11/06 Q1033 RMK PP000=
SPZO Mar2015-170600Z VRB02KT 9999 -RA FEW036 SCT043 BKN080 09/07 Q1033 RMK PP008=
SPZO Mar2015-170700Z 00000KT 9999 FEW036 SCT043 BKN080 10/06 Q1032 RMK PPTRZ=
SPZO Mar2015-170800Z 00000KT 9999 SCT046 BKN080 09/06 Q1032 RMK PP000=
SPZO Mar2015-170900Z 00000KT 9999 SCT043 BKN100 09/06 Q1031 RMK PP000=
SPZO Mar2015-171000Z 00000KT 9999 SCT043 BKN100 09/06 Q1032 RMK PP000=
SPZO Mar2015-171100Z 07002KT 9999 FEW036 SCT043 BKN080 09/06 Q1032 RMK PP000=
SPZO Mar2015-171200Z 00000KT 9999 SCT040 BKN080 10/07 Q1033 NOSIG RMK PP000=
SPZO Mar2015-171300Z VRB03KT 9999 FEW030 SCT043 BKN080 10/07 Q1034 NOSIG RMK PP000=
SPZO Mar2015-171400Z VRB02KT 9999 FEW030 SCT040 BKN080 12/07 Q1034 TEMPO -DZ RMK PP000=
SPZO Mar2015-171500Z VRB03KT 9999 FEW030 SCT040 BKN080 13/07 Q1034 NOSIG RMK PP000=
SPZO Mar2015-171600Z 07005KT 030V100 9999 SCT040 BKN080 15/06 Q1033 TEMPO VCSH FEW040TCU BKN070 RMK PP000=
SPZO Mar2015-171700Z VRB02KT 9999 SCT040 BKN080 17/06 Q1032 TEMPO VCSH FEW040TCU BKN070 RMK PP000=
SPZO Mar2015-171800Z VRB02KT 9999 SCT043 SCT080 19/06 Q1031 NOSIG RMK PP000=
SPZO Mar2015-171900Z 09011KT 050V130 9999 FEW043TCU BKN080 20/07 Q1029 NOSIG RMK VCSH QUAD E PP000=
SPZO Mar2015-172000Z 08007KT 050V140 9999 SCT046 SCT080 19/07 Q1028 NOSIG RMK PP000=
SPZO Mar2015-172100Z VRB04KT 9999 SCT050 SCT080 19/05 Q1026 TEMPO VCSH SCT040TCU BKN080 RMK PP000=
SPZO Mar2015-172200Z VRB04KT 9999 SCT043TCU BKN080 18/04 Q1027 TEMPO -RA RMK TX20.3 PP000=
SPZO Mar2015-172300Z 23009KT 9999 SCT050 BKN100 16/05 Q1028 NOSIG RMK PP000=
SPZO Mar2015-180000Z 11005KT 080V150 9999 SCT050 BKN100 15/06 Q1029 RMK PP000=
SPZO Mar2015-180100Z 00000KT 9999 SCT050 14/06 Q1030 RMK PP000=
SPZO Mar2015-180200Z VRB03KT 9999 SCT050 13/05 Q1031 RMK PP000=
SPZO Mar2015-180300Z 00000KT 9999 SCT050 13/06 Q1032 RMK PP000=
SPZO Mar2015-180400Z 00000KT 9999 SCT060 SCT230 12/06 Q1033 RMK PP000=
SPZO Mar2015-180500Z 00000KT 9999 SCT060 BKN100 13/06 Q1032 RMK PP000=
SPZO Mar2015-180600Z 00000KT 9999 SCT060 BKN100 12/06 Q1032 RMK PP000=
SPZO Mar2015-180700Z 00000KT 9999 SCT060 BKN100 12/06 Q1032 RMK PP000=
SPZO Mar2015-180800Z 00000KT 9999 SCT060 BKN100 11/06 Q1031 RMK PP000=
SPZO Mar2015-180900Z 00000KT 9999 SCT050 BKN100 10/07 Q1031 RMK PP000=
SPZO Mar2015-181000Z 00000KT 9999 SCT036 BKN080 10/07 Q1031 RMK PP000=
SPZO Mar2015-181100Z 00000KT 9999 SCT040 BKN080 10/07 Q1031 RMK PP000=
SPZO Mar2015-181200Z VRB01KT 9999 -DZ FEW036 SCT040 BKN080 10/06 Q1032 TEMPO -RA RMK VCSH QUAD E PP000=
SPZO Mar2015-181300Z VRB01KT 9999 FEW030 SCT036 BKN080 11/06 Q1034 NOSIG RMK VCSH QUAD E PP000=
SPZO Mar2015-181400Z VRB02KT 9999 VCSH FEW030 SCT036 BKN080 12/06 Q1034 NOSIG RMK VIS 9000E PP000=
SPZO Mar2015-181500Z VRB02KT 9000 VCSH FEW025 SCT036 BKN080 12/07 Q1034 NOSIG RMK VIS 7000E PP000=
SPZO Mar2015-181600Z VRB02KT 9999 VCSH FEW030 SCT040 BKN080 14/07 Q1034 TEMPO BKN100 RMK PP000=
SPZO Mar2015-181700Z VRB02KT 9999 VCSH FEW030TCU SCT040 BKN080 14/07 Q1033 NOSIG RMK PP000=
SPZO Mar2015-181800Z VRB03KT 9999 FEW025 SCT040 BKN070 14/07 Q1031 TEMPO 9000 -RA RMK PP000=
SPZO Mar2015-181900Z 08005KT 020V160 9999 FEW025 SCT040 BKN070 16/06 Q1030 NOSIG RMK PP000=
SPZO Mar2015-182000Z VRB02KT 9999 SCT040 SCT050 BKN080 17/05 Q1028 NOSIG RMK PP000=
SPZO Mar2015-182100Z 09018KT 060V120 9999 FEW040 SCT050 BKN080 14/07 Q1028 TEMPO -RA SCT040TCU BKN070 RMK PP000=
SPZO Mar2015-182200Z 08007KT 050V120 9999 SCT050 SCT080 15/07 Q1028 NOSIG RMK TX17.5 PP000=
SPZO Mar2015-182300Z 13003KT 100V170 9999 BKN050 SCT100 14/06 Q1028 TEMPO 09010KT VCSH FEW040TCU BKN080 RMK PP000=
SPZO Mar2015-190000Z 08007KT 060V120 9999 SCT050 BKN100 13/06 Q1030 RMK PP000=
SPZO Mar2015-190100Z 09003KT 030V120 9999 SCT040 BKN080 12/07 Q1031 RMK -RA QUAD NE PP000=
SPZO Mar2015-190200Z 09009KT 9999 SCT040 BKN080 11/07 Q1032 RMK PP000=
SPZO Mar2015-190300Z 08007KT 030V110 9999 SCT040 BKN080 10/07 Q1033 RMK -RA QUAD NE PP000=
SPZO Mar2015-190400Z VRB03KT 9999 SCT040 BKN080 11/07 Q1033 RMK PP000=
SPZO Mar2015-190500Z 08006KT 020V100 9999 SCT040 BKN080 10/06 Q1033 RMK PP000=
SPZO Mar2015-190600Z 10005KT 9000 -RA SCT040 BKN080 10/06 Q1033 RMK PPTRZ=
SPZO Mar2015-190700Z 00000KT 9000 -RA SCT040 BKN080 09/06 Q1032 RMK PP004=
SPZO Mar2015-190800Z VRB02KT 7000 -RA FEW030 SCT036 BKN070 09/06 Q1032 RMK PP018=
SPZO Mar2015-190900Z 00000KT 7000 RA FEW030 SCT036 BKN070 08/06 Q1032 RMK CLNG BLW 1200M PP032=
SPZO Mar2015-191000Z VRB01KT 8000 -RA FEW025 SCT036 BKN070 08/06 Q1032 RMK CLNG BLW 1200M PP016=
SPZO Mar2015-191100Z VRB03KT 9000 -DZ FEW020 SCT036 BKN070 08/06 Q1033 RMK CLNG BLW 1200M PPTRZ=
SPZO Mar2015-191200Z 00000KT 9999 FEW015 SCT030 BKN070 09/06 Q1034 NOSIG RMK BR CLNG BLW 1200M PPTRZ=
SPZO Mar2015-191300Z 00000KT 9999 FEW015 SCT030 BKN070 10/06 Q1034 REDZ NOSIG RMK BR CLNG BLW 1200M PP002=
SPZO Mar2015-191400Z VRB02KT 9999 FEW018 SCT033 BKN080 12/07 Q1035 NOSIG RMK PP000=
SPZO Mar2015-191500Z VRB01KT 9999 FEW020 SCT036 BKN080 13/07 Q1034 NOSIG RMK PP000=
SPZO Mar2015-191600Z VRB03KT 9999 FEW025 SCT040 BKN080 15/07 Q1034 NOSIG RMK PP000=
SPZO Mar2015-191700Z VRB03KT 9999 FEW030 SCT040 BKN080 15/06 Q1033 NOSIG RMK PP000=
SPZO Mar2015-191800Z VRB07KT 9999 BKN043 SCT080 16/04 Q1031 TEMPO VCSH RMK PP000=
SPZO Mar2015-191900Z 35007KT 280V060 9999 BKN046 SCT080 19/06 Q1030 NOSIG RMK PP000=
SPZO Mar2015-192000Z 01007KT 310V080 9999 BKN046 SCT080 17/04 Q1029 NOSIG RMK PP000=
SPZO Mar2015-192100Z VRB03KT 9999 FEW040 SCT046 BKN080 18/05 Q1027 NOSIG RMK PP000=
SPZO Mar2015-192200Z 03004KT 340V100 9999 SCT046 SCT080 17/04 Q1027 NOSIG RMK TX19.2 PP000=
SPZO Mar2015-192300Z 35006KT 320V030 9999 SCT050 SCT100 15/04 Q1028 NOSIG RMK PP000=
SPZO Mar2015-200000Z VRB03KT 9999 SCT050 14/05 Q1029 RMK PP000=
SPZO Mar2015-200100Z 00000KT 9999 FEW050 SCT150 13/06 Q1031 RMK PP000=
SPZO Mar2015-200200Z 00000KT 9999 FEW050 SCT150 12/06 Q1032 RMK PP000=
SPZO Mar2015-200300Z 00000KT 9999 FEW050 SCT100 12/06 Q1033 RMK PP000=
SPZO Mar2015-200400Z VRB02KT 9999 SCT050 SCT080 11/06 Q1033 RMK PP000=
SPZO Mar2015-200500Z 07004KT 9999 SCT046 BKN080 11/06 Q1033 RMK PP000=
SPZO Mar2015-200600Z 09005KT 9999 SCT046 BKN080 11/06 Q1033 RMK PP000=
SPZO Mar2015-200700Z 08008KT 9999 SCT040 BKN080 09/06 Q1033 RMK PP000=
SPZO Mar2015-200800Z 08003KT 9999 SCT040 BKN080 09/07 Q1032 RMK PP000=
SPZO Mar2015-200900Z 00000KT 9999 -RA FEW030 SCT040TCU BKN080 09/07 Q1032 RMK PP002=
SPZO Mar2015-201000Z 00000KT 9999 FEW030 SCT040 BKN080 09/07 Q1032 RMK BCO BR QUAD E PP000=
SPZO Mar2015-201100Z 00000KT 9999 FEW036 SCT040 BKN100 09/07 Q1033 RMK PP000=
SPZO Mar2015-201200Z VRB02KT 9999 FEW025 SCT043 BKN080 10/07 Q1033 TEMPO FEW020 SCT036 BKN060 RMK PP000=
SPZO Mar2015-201300Z VRB01KT 9999 FEW025 SCT043 BKN080 11/06 Q1035 TEMPO -DZ RMK PP000=
SPZO Mar2015-201400Z VRB02KT 9999 FEW025 SCT040 BKN070 12/06 Q1035 NOSIG RMK PP000=
SPZO Mar2015-201500Z VRB02KT 9999 FEW025 SCT040 BKN070 13/06 Q1035 TEMPO FEW030 SCT050 BKN100 RMK PP000=
SPZO Mar2015-201600Z VRB02KT 9999 SCT043 SCT100 16/05 Q1034 NOSIG RMK PP000=
SPZO Mar2015-201700Z VRB03KT 9999 SCT046 SCT100 18/07 Q1032 NOSIG RMK PP000=
SPZO Mar2015-201800Z 24005KT 9999 SCT050 SCT100 19/03 Q1031 NOSIG RMK PP000=
SPZO Mar2015-201900Z 25005KT 9999 SCT050 SCT100 20/04 Q1028 NOSIG RMK PP000=
SPZO Mar2015-202000Z VRB03KT 9999 FEW040TCU SCT050 BKN100 21/04 Q1027 NOSIG RMK PP000=
SPZO Mar2015-202100Z 26004KT 200V310 9999 FEW040TCU SCT050 BKN100 20/03 Q1026 TEMPO VCSH RMK PP000=
SPZO Mar2015-202200Z 15005KT 080V210 9999 FEW040TCU SCT050 BKN100 19/04 Q1026 TEMPO VCSH RMK PP000=
SPZO Mar2015-202300Z 25005KT 200V290 9999 TS VCSH FEW030TCU SCT040 BKN080 15/07 Q1026 TEMPO -RA RMK PP004=
SPZO Mar2015-210000Z 09008KT 060V130 9000 -RA SCT040 FEW060CB BKN080 13/08 Q1031 RMK TS QUAD N PP004=
SPZO Mar2015-210100Z 23005KT 160V290 9000 -DZ SCT040 BKN080 12/06 Q1031 RMK PP006=
SPZO Mar2015-210200Z VRB03KT 9000 -RA SCT040 BKN080 11/08 Q1032 RMK PP006=
SPZO Mar2015-210300Z 00000KT 9000 -RA SCT040 BKN080 10/07 Q1033 RMK PP024=
SPZO Mar2015-210400Z 26006KT 200V290 9999 FEW030 SCT040 BKN080 11/08 Q1033 RMK PP004=
SPZO Mar2015-210500Z 27007KT 220V300 9000 -RA FEW030 SCT040 BKN080 10/08 Q1033 RMK PP016=
SPZO Mar2015-210600Z 08003KT 9999 FEW030 SCT040 BKN080 10/07 Q1032 RMK PP002=
SPZO Mar2015-210700Z 00000KT 9999 FEW025 SCT040 BKN080 10/07 Q1032 RERA RMK PPTRZ=
SPZO Mar2015-210800Z 00000KT 9999 FEW025 SCT040 BKN080 10/07 Q1031 RMK PP000=
SPZO Mar2015-210900Z VRB02KT 9999 FEW033 SCT040 BKN080 10/07 Q1031 RMK PP000=
SPZO Mar2015-211000Z VRB01KT 9999 FEW033 SCT043 BKN080 10/05 Q1031 RMK PP000=
SPZO Mar2015-211100Z 08004KT 9999 FEW033 SCT043 BKN080 09/07 Q1032 RMK PP000=
SPZO Mar2015-211200Z 10001KT 9999 SCT040 SCT050 BKN070 10/06 Q1033 TEMPO FEW036 BKN050 RMK PP000=
SPZO Mar2015-211300Z VRB02KT 9999 SCT040 SCT050 BKN070 11/05 Q1034 NOSIG RMK PP000=
SPZO Mar2015-211400Z VRB01KT 9999 SCT036 SCT050 BKN080 13/06 Q1034 NOSIG RMK PP000=
SPZO Mar2015-211500Z VRB01KT 9999 FEW033TCU SCT050 BKN080 14/05 Q1034 NOSIG RMK PP000=
SPZO Mar2015-211600Z VRB01KT 9000 -RA FEW033TCU SCT050 BKN070 15/06 Q1033 NOSIG RMK PPTRZ=
SPZO Mar2015-211700Z VRB03KT 9999 FEW040 SCT050 BKN070 18/08 Q1032 NOSIG RMK PP000=
SPZO Mar2015-211800Z 36006KT 280V070 9999 FEW040TCU SCT046 BKN080 18/06 Q1031 TEMPO VCSH RMK PP000=
SPZO Mar2015-211900Z 02012KT 330V070 9999 FEW040TCU SCT046 BKN080 18/05 Q1030 NOSIG RMK PP000=
SPZO Mar2015-212000Z 09014KT 070V130 9999 FEW036TCU SCT040 BKN080 14/06 Q1031 TEMPO 10014G24KT -RA RMK PP000=
SPZO Mar2015-212100Z 13006KT 080V190 9999 FEW036TCU SCT043 BKN080 15/05 Q1030 TEMPO 9000E -RA RMK -RA QUAD NE PP000=
SPZO Mar2015-212200Z 08007KT 9999 SCT046 BKN080 14/06 Q1030 TEMPO -RA RMK TX18.3 PP000=
SPZO Mar2015-212300Z 08005KT 9999 SCT046 BKN080 12/06 Q1030 NOSIG RMK PP000=
SPZO Mar2015-220000Z 09004KT 060V140 9999 SCT040 SCT070 11/06 Q1031 RMK PP000=
SPZO Mar2015-220100Z VRB02KT 9999 SCT040 SCT070 11/06 Q1032 RMK PP000=
SPZO Mar2015-220200Z 00000KT 9999 FEW050 SCT080 11/07 Q1033 RMK PP000=
SPZO Mar2015-220300Z 08003KT 9999 FEW050 SCT080 10/07 Q1034 RMK PP000=
SPZO Mar2015-220400Z 00000KT 9999 FEW050 BKN080 11/07 Q1034 RMK PP000=
SPZO Mar2015-220500Z VRB03KT 9999 -RA FEW040 SCT046 BKN080 09/05 Q1034 RMK PP004=
SPZO Mar2015-220600Z 07005KT 9999 FEW040 SCT046 BKN080 09/05 Q1033 RMK PPTRZ=
SPZO Mar2015-220700Z 09004KT 9999 FEW040 SCT046 BKN080 09/06 Q1033 RMK PP000=
SPZO Mar2015-220800Z VRB02KT 9999 FEW040 SCT046 BKN080 09/06 Q1033 RMK PP000=
SPZO Mar2015-220900Z 26003KT 9999 FEW040 SCT046 BKN080 09/06 Q1032 RMK PP000=
SPZO Mar2015-221000Z 28003KT 9999 FEW040 SCT046 BKN080 09/06 Q1032 RMK PP000=
SPZO Mar2015-221100Z 00000KT 9999 FEW030 SCT043 BKN080 09/06 Q1033 RMK PP000=
SPZO Mar2015-221200Z 08002KT 9999 SCT040 BKN080 09/06 Q1034 NOSIG RMK PP000=
SPZO Mar2015-221300Z VRB01KT 9999 FEW030 SCT040 BKN080 11/06 Q1034 NOSIG RMK PP000=
SPZO Mar2015-221400Z VRB02KT 9999 FEW033 SCT043 BKN080 14/05 Q1034 NOSIG RMK BIRD HAZARD RWY 28 PP000=
SPZO Mar2015-221500Z VRB03KT 9999 SCT040 BKN080 16/05 Q1034 NOSIG RMK PP000=
SPZO Mar2015-221600Z VRB03KT 9999 SCT040 SCT080 18/06 Q1033 NOSIG RMK PP000=
SPZO Mar2015-221700Z 04006KT 320V110 9999 SCT043 SCT080 19/03 Q1031 NOSIG RMK PP000=
SPZO Mar2015-221800Z VRB04KT 9999 SCT050 SCT080 20/05 Q1030 TEMPO VCSH FEW040TCU BKN100 RMK PP000=
SPZO Mar2015-221900Z VRB05KT 9999 SCT046 SCT080 19/04 Q1028 NOSIG RMK PP000=
SPZO Mar2015-222000Z VRB06KT 9999 FEW046 SCT080 20/06 Q1027 NOSIG RMK PP000=
SPZO Mar2015-222100Z 09012KT 060V130 9999 FEW050 SCT080 17/06 Q1027 NOSIG RMK PP000=
SPZO Mar2015-222200Z 09008KT 9999 SCT060 17/06 Q1027 NOSIG RMK TX20.7 PP000=
SPZO Mar2015-222300Z 10008KT 060V160 9999 SCT050 15/05 Q1028 NOSIG RMK PP000=
SPZO Mar2015-230000Z 08004KT 9999 SCT050 13/05 Q1028 NOSIG RMK PP000=
SPZO Mar2015-230100Z 08004KT 9999 SCT050 13/05 Q1030 RMK PP000=
SPZO Mar2015-230200Z 10006KT 9999 SCT050 BKN100 12/05 Q1032 RMK PP000=
SPZO Mar2015-230300Z 07006KT 9999 SCT050 BKN100 11/05 Q1033 RMK PP000=
SPZO Mar2015-230400Z 08002KT 9999 SCT050 BKN100 11/05 Q1033 RMK PP000=
SPZO Mar2015-230500Z 00000KT 9999 SCT050 BKN080 11/04 Q1033 RMK PP000=
SPZO Mar2015-230600Z 00000KT 9999 SCT050 BKN080 09/05 Q1033 RMK PP000=
SPZO Mar2015-230700Z 00000KT 9999 SCT040 BKN080 10/05 Q1032 RMK PP000=
SPZO Mar2015-230800Z 00000KT 9999 SCT040 BKN080 10/05 Q1032 RMK PP000=
SPZO Mar2015-230900Z 00000KT 9999 SCT040 BKN080 10/05 Q1032 RMK PP000=
SPZO Mar2015-231000Z 00000KT 9999 SCT040 BKN100 11/05 Q1032 RMK PP000=
SPZO Mar2015-231100Z 00000KT 9999 SCT040 BKN100 11/05 Q1033 RMK PP000=
SPZO Mar2015-231200Z VRB02KT 9999 SCT040 BKN080 11/06 Q1034 NOSIG RMK PP000=
SPZO Mar2015-231300Z 08004KT 010V130 9999 SCT040 BKN080 14/06 Q1034 NOSIG RMK PP000=
SPZO Mar2015-231400Z VRB01KT 9999 SCT040 BKN080 14/04 Q1035 NOSIG RMK PP000=
SPZO Mar2015-231500Z VRB01KT 9999 SCT046 SCT080 15/02 Q1035 NOSIG RMK PP000=
SPZO Mar2015-231600Z VRB03KT 9999 FEW046 SCT080 17/03 Q1033 NOSIG RMK PP000=
SPZO Mar2015-231700Z VRB05KT 9999 FEW046 SCT080 18/04 Q1032 NOSIG RMK PP000=
SPZO Mar2015-231800Z 03007KT 290V090 9999 SCT050 SCT150 19/02 Q1031 NOSIG RMK PP000=
SPZO Mar2015-231900Z 36010KT 320V040 9999 SCT050 SCT150 20/M01 Q1030 NOSIG RMK PP000=
SPZO Mar2015-232000Z 35011KT 310V040 9999 SCT050 20/M04 Q1029 NOSIG RMK PP000=
SPZO Mar2015-232100Z 36009KT 320V050 9999 SCT050 20/M03 Q1028 NOSIG RMK PP000=
SPZO Mar2015-232200Z 35007KT 300V050 9999 SCT050 19/M05 Q1028 NOSIG RMK TX20.3 PP000=
SPZO Mar2015-232300Z 36009KT 310V050 9999 SCT050 17/M06 Q1028 NOSIG RMK PP000=
SPZO Mar2015-240000Z 29010KT 200V010 9999 SCT050 15/M07 Q1030 RMK PP000=
SPZO Mar2015-240100Z VRB03KT 9999 SCT050 13/M05 Q1032 RMK PP000=
SPZO Mar2015-240200Z 06004KT 010V110 9999 SCT050 10/M01 Q1033 RMK PP000=
SPZO Mar2015-240300Z VRB02KT 9999 SCT050 SCT080 09/M00 Q1034 RMK PP000=
SPZO Mar2015-240400Z 00000KT 9999 SCT050 SCT080 09/M00 Q1034 RMK PP000=
SPZO Mar2015-240500Z 05003KT 9999 SCT050 SCT080 07/00 Q1034 RMK PP000=
SPZO Mar2015-240600Z 27003KT 9999 SCT050 SCT080 05/00 Q1034 RMK PP000=
SPZO Mar2015-240700Z 27005KT 9999 SCT050 SCT080 04/00 Q1034 RMK PP000=
SPZO Mar2015-240800Z 00000KT 9999 SCT050 SCT080 04/00 Q1034 RMK PP000=
SPZO Mar2015-240900Z 00000KT 9999 SCT050 SCT080 05/01 Q1034 RMK PP000=
SPZO Mar2015-241000Z 06002KT 9999 SCT050 SCT080 05/01 Q1034 RMK PP000=
SPZO Mar2015-241100Z VRB01KT 9999 FEW043 SCT080 05/01 Q1034 RMK PP000=
SPZO Mar2015-241200Z 00000KT 9999 FEW050 SCT100 07/01 Q1035 RMK HZ PP000=
SPZO Mar2015-241300Z VRB02KT 9999 FEW050 SCT100 10/02 Q1036 RMK PP000=
SPZO Mar2015-241400Z VRB02KT 9999 FEW050 SCT100 13/02 Q1035 RMK PP000=
SPZO Mar2015-241500Z 28004KT 230V030 9999 FEW050 SCT150 15/01 Q1035 RMK PP000=
SPZO Mar2015-241600Z VRB03KT 9999 FEW050 SCT150 17/M01 Q1034 RMK PP000=
SPZO Mar2015-241700Z VRB03KT 9999 SCT050 SCT150 18/00 Q1033 RMK PP000=
SPZO Mar2015-241800Z VRB04KT 9999 BKN046 BKN080 19/02 Q1032 RMK PP000=
SPZO Mar2015-241900Z VRB02KT 9999 BKN046 SCT080 20/02 Q1030 RMK PP000=
SPZO Mar2015-242000Z VRB05KT 9999 FEW040 SCT046 BKN080 18/01 Q1029 RMK PP000=
SPZO Mar2015-242100Z VRB02KT 9999 SCT050 SCT080 19/02 Q1028 RMK PP000=
SPZO Mar2015-242200Z 35005KT 290V030 9999 SCT050 17/03 Q1028 RMK TX20.1 PP000=
SPZO Mar2015-242300Z 36010KT 320V030 9999 SCT043 SCT080 16/04 Q1029 RMK PP000=
SPZO Mar2015-250000Z 07004KT 030V090 9999 FEW050 SCT080 14/05 Q1030 RMK PP000=
SPZO Mar2015-250100Z VRB02KT 9999 SCT060 12/04 Q1031 RMK PP000=
SPZO Mar2015-250200Z 08004KT 9999 SCT060 12/05 Q1032 RMK PP000=
SPZO Mar2015-250300Z 00000KT 9999 SCT060 11/04 Q1033 RMK PP000=
SPZO Mar2015-250400Z 27004KT 9999 SCT060 08/04 Q1033 RMK PP000=
SPZO Mar2015-250500Z VRB02KT 9999 SCT060 07/04 Q1032 RMK PP000=
SPZO Mar2015-250600Z 00000KT 9999 SCT050 07/03 Q1032 RMK PP000=
SPZO Mar2015-250700Z 00000KT 9999 SCT046 SCT080 08/04 Q1032 RMK PP000=
SPZO Mar2015-250800Z 00000KT 9999 SCT046 SCT080 09/03 Q1032 RMK PP000=
SPZO Mar2015-250900Z 00000KT 9999 FEW036 SCT040 BKN080 09/05 Q1032 RMK PP000=
SPZO Mar2015-251000Z VRB02KT 9999 DZ FEW036 SCT043 BKN080 08/06 Q1033 RMK PP006=
SPZO Mar2015-251100Z 30003KT 9999 -RA FEW036 SCT046 BKN080 08/05 Q1033 RMK PP002=
SPZO Mar2015-251200Z VRB01KT 9999 FEW036 SCT043 BKN080 09/06 Q1033 RMK PPTRZ=
SPZO Mar2015-251300Z 00000KT 9999 FEW040 SCT050 BKN080 12/05 Q1034 RMK PP000=
SPZO Mar2015-251400Z VRB02KT 9999 FEW040 SCT050 BKN080 15/04 Q1034 RMK PP000=
SPZO Mar2015-251500Z VRB03KT 9999 FEW040 SCT050 BKN080 15/05 Q1033 RMK PP000=
SPZO Mar2015-251600Z 28004KT 230V350 9999 FEW040 SCT050 BKN080 17/04 Q1032 RMK PP000=
SPZO Mar2015-251700Z VRB03KT 9999 SCT046 SCT080 18/03 Q1031 RMK PP000=
SPZO Mar2015-251800Z 27009KT 9000 VCSH SCT040 SCT080 16/06 Q1030 RMK PP000=
SPZO Mar2015-251900Z VRB04KT 9999 SCT040 BKN080 18/07 Q1030 RMK PP000=
SPZO Mar2015-252000Z 28008KT 220V340 9999 -RA VCSH SCT040TCU BKN100 15/07 Q1028 RMK PP004=
SPZO Mar2015-252100Z 28013KT 240V310 9999 SCT040 BKN100 17/07 Q1028 RMK PP002=
SPZO Mar2015-252200Z 27009KT 9999 SCT040TCU BKN100 18/06 Q1028 RMK PP000=
SPZO Mar2015-252300Z 27008KT 240V300 9999 VCSH SCT040TCU BKN100 15/05 Q1029 RMK PP000=
SPZO Mar2015-260000Z 29008KT 260V350 9999 SCT040TCU SCT080 14/06 Q1030 RMK PP000=
SPZO Mar2015-260100Z 26005KT 9999 SCT040 BKN080 13/06 Q1031 RMK PP000=
SPZO Mar2015-260200Z 24007KT 9999 SCT040 BKN080 13/06 Q1032 RMK PP000=
SPZO Mar2015-260300Z 24007KT 9999 SCT040 BKN080 13/05 Q1032 RMK PP000=
SPZO Mar2015-260400Z 25006KT 9999 SCT040 BKN080 13/06 Q1033 RMK PP000=
SPZO Mar2015-260500Z 85004KT 9999 SCT043 BKN080 12/06 Q1032 RMK PP000=
SPZO Mar2015-260600Z VRB02KT 9999 SCT043 BKN080 11/06 Q1032 RMK PP000=
SPZO Mar2015-260700Z 09005KT 9999 SCT043 BKN080 11/05 Q1031 RMK PP000=
SPZO Mar2015-260800Z 08007KT 9999 SCT046 BKN080 10/05 Q1031 RMK PP000=
SPZO Mar2015-260900Z 08005KT 9999 -RA FEW040TCU SCT046 BKN080 10/05 Q1031 RMK PP000=
SPZO Mar2015-261000Z 00000KT 9999 -RA FEW036TCU SCT040 BKN080 09/06 Q1032 RMK PP004=
SPZO Mar2015-261100Z 00000KT 9999 FEW025 SCT040 BKN080 08/06 Q1032 RERA RMK PP010=
SPZO Mar2015-261200Z 00000KT 9999 FEW025 SCT040 BKN080 09/06 Q1033 RMK PP000=
SPZO Mar2015-261300Z 00000KT 9999 FEW025 SCT040 BKN080 11/06 Q1033 RMK PP000=
SPZO Mar2015-261400Z 00000KT 9999 SCT040 BKN100 15/06 Q1033 RMK PP000=
SPZO Mar2015-261500Z 00000KT 9999 SCT040 BKN100 18/08 Q1032 RMK PP000=
SPZO Mar2015-261600Z VRB03KT 9999 SCT040 BKN100 18/06 Q1031 RMK PP000=
SPZO Mar2015-261700Z 02003KT 9999 SCT040 BKN100 20/04 Q1030 RMK PP000=
SPZO Mar2015-261800Z 36011KT 310V050 9999 BKN050 SCT100 19/05 Q1028 RMK PP000=
SPZO Mar2015-261900Z 01010KT 320V070 9999 VCSH FEW040TCU SCT050 BKN090 17/04 Q1028 RMK PP000=
SPZO Mar2015-262000Z 16010KT 110V210 9999 VCSH FEW040TCU SCT050 BKN080 15/05 Q1028 RMK VIS 9000E -RA PP000=
SPZO Mar2015-262100Z 10012KT 060V150 9999 FEW036TCU SCT046 BKN080 14/05 Q1028 RMK PP000=
SPZO Mar2015-262200Z 09008KT 060V140 9999 SCT050 SCT100 15/05 Q1028 RMK TX21.0 PP000=
SPZO Mar2015-262300Z 12005KT 080V150 9999 FEW050 SCT100 14/05 Q1028 RMK PP000=
SPZO Mar2015-270000Z 09004KT 9999 FEW043 11/06 Q1029 RMK PP000=
SPZO Mar2015-270100Z 28003KT 9999 FEW043 10/05 Q1030 RMK PP000=
SPZO Mar2015-270200Z 00000KT 9999 FEW050 09/05 Q1031 RMK PP000=
SPZO Mar2015-270300Z 08003KT 9999 FEW050 09/05 Q1031 RMK PP000=
SPZO Mar2015-270400Z VRB01KT 9999 FEW050 08/05 Q1031 RMK PP000=
SPZO Mar2015-270500Z VRB02KT 9999 FEW050 SCT100 08/05 Q1031 RMK PP000=
SPZO Mar2015-270600Z VRB01KT 9999 FEW050 SCT100 08/04 Q1031 RMK PP000=
SPZO Mar2015-270700Z 00000KT 9999 FEW050 SCT100 07/04 Q1031 RMK PP000=
SPZO Mar2015-270800Z 09003KT 9999 FEW050 SCT100 06/04 Q1031 RMK PP000=
SPZO Mar2015-270900Z 00000KT 9999 FEW040 SCT080 06/04 Q1031 RMK BR QUAD NE PP000=
SPZO Mar2015-271000Z VRB02KT 9999 FEW040 SCT080 07/04 Q1031 RMK BR QUAD NE PP000=
SPZO Mar2015-271100Z 03003KT 360V070 9999 FEW036 SCT043 BKN080 07/04 Q1032 RMK BR QUAD NE PP000=
SPZO Mar2015-271200Z VRB02KT 9999 FEW033 SCT040 BKN080 08/05 Q1033 RMK VIS 8000E BR PP000=
SPZO Mar2015-271300Z VRB01KT 9000 FEW033 SCT040 BKN080 09/05 Q1034 RMK BR PP000=
SPZO Mar2015-271400Z VRB02KT 9000 FEW030 SCT036 BKN080 10/05 Q1034 RMK BR PP000=
SPZO Mar2015-271500Z VRB01KT 9999 FEW033 SCT040 BKN080 12/06 Q1034 RMK PP000=
SPZO Mar2015-271600Z VRB01KT 9999 FEW033 SCT040 BKN080 14/06 Q1034 RMK PP000=
SPZO Mar2015-271700Z VRB02KT 9999 SCT040 BKN080 16/07 Q1033 RMK PP000=
SPZO Mar2015-271800Z 03004KT 320V110 9999 FEW036TCU SCT040 BKN080 16/04 Q1032 RMK PP000=
SPZO Mar2015-271900Z VRB04KT 9999 FEW040TCU SCT043 BKN080 17/04 Q1031 RMK PP000=
SPZO Mar2015-272000Z VRB02KT 9999 FEW040TCU SCT043 BKN080 17/05 Q1030 RMK PP000=
SPZO Mar2015-272100Z VRB02KT 9999 SCT043 BKN080 17/04 Q1029 RMK PP000=
SPZO Mar2015-272200Z 27008KT 9999 FEW046 BKN100 16/02 Q1029 RMK TX18.0 PP000=
SPZO Mar2015-272300Z 26008KT 9999 FEW050 BKN100 15/03 Q1030 RMK PP000=
SPZO Mar2015-280000Z 27004KT 9999 SCT050 BKN100 13/05 Q1030 RMK PP000=
SPZO Mar2015-280100Z 29005KT 9999 SCT050 10/04 Q1031 RMK PP000=
SPZO Mar2015-280200Z 29005KT 9999 SCT050 09/04 Q1033 RMK PP000=
SPZO Mar2015-280300Z 00000KT 9999 SCT050 08/04 Q1034 RMK PP000=
SPZO Mar2015-280400Z 00000KT 9999 SCT050 BKN100 08/04 Q1034 RMK PP000=
SPZO Mar2015-280500Z 00000KT 9999 SCT050 BKN100 08/05 Q1034 RMK PP000=
SPZO Mar2015-280600Z 00000KT 9999 SCT050 BKN100 08/04 Q1034 RMK PP000=
SPZO Mar2015-280700Z 00000KT 9999 SCT050 BKN100 07/04 Q1034 RMK PP000=
SPZO Mar2015-280800Z 00000KT 9999 SCT050 BKN100 07/04 Q1033 RMK PP000=
SPZO Mar2015-280900Z 00000KT 9999 SCT050 BKN100 06/04 Q1033 RMK PP000=
SPZO Mar2015-281000Z 00000KT 9999 SCT040 BKN100 07/04 Q1033 RMK PP000=
SPZO Mar2015-281100Z 00000KT 9999 SCT040 BKN100 07/04 Q1034 RMK PP000=
SPZO Mar2015-281200Z 00000KT 9999 SCT050 BKN150 07/04 Q1035 RMK VIS 8000E BR PP000=
SPZO Mar2015-281300Z VRB01KT 9999 SCT046 BKN150 12/05 Q1035 RMK VIS 9000E HZ PP000=
SPZO Mar2015-281400Z VRB02KT 9999 SCT043 BKN100 14/06 Q1035 RMK PP000=
SPZO Mar2015-281500Z VRB02KT 9999 SCT043 BKN100 17/05 Q1035 RMK PP000=
SPZO Mar2015-281600Z VRB03KT 9999 BKN043 SCT100 18/04 Q1034 RMK PP000=
SPZO Mar2015-281700Z VRB03KT 9999 SCT046 SCT100 18/03 Q1033 RMK PP000=
SPZO Mar2015-281800Z VRB06KT 9999 SCT050 SCT150 21/02 Q1031 RMK PP000=
SPZO Mar2015-281900Z VRB05KT 9999 SCT050 SCT150 22/M02 Q1030 RMK PP000=
SPZO Mar2015-282000Z 32013KT 280V360 9999 FEW040 SCT050 BKN100 20/00 Q1029 RMK PP000=
SPZO Mar2015-282100Z 30012KT 260V340 9999 FEW040 SCT050 BKN100 19/03 Q1030 RMK PP000=
SPZO Mar2015-282200Z 36007KT 300V050 9999 BKN050 SCT100 17/02 Q1030 RMK TX22.1 PP000=
SPZO Mar2015-282300Z 35009KT 300V050 9999 SCT050 SCT100 16/03 Q1030 RMK PP000=
SPZO Mar2015-290000Z VRB03KT 9999 SCT050 SCT100 14/05 Q1032 RMK PP000=
SPZO Mar2015-290100Z 00000KT 9999 SCT050 SCT100 13/05 Q1033 RMK PP000=
SPZO Mar2015-290200Z 28004KT 9999 SCT050 SCT100 10/05 Q1034 RMK VIS 9000E BR PP000=
SPZO Mar2015-290300Z 28001KT 9999 SCT050 SCT100 10/05 Q1035 RMK PP000=
SPZO Mar2015-290400Z 08002KT 9999 SCT050 BKN100 10/05 Q1035 RMK PP000=
SPZO Mar2015-290500Z VRB02KT 9999 SCT050 BKN100 10/06 Q1035 RMK PP000=
SPZO Mar2015-290600Z VRB01KT 9999 SCT050 BKN100 10/06 Q1035 RMK PP000=
SPZO Mar2015-290700Z VRB02KT 9999 SCT050 BKN100 10/05 Q1034 RMK PP000=
SPZO Mar2015-290800Z VRB02KT 9999 SCT050 BKN100 08/05 Q1034 RMK PP000=
SPZO Mar2015-290900Z 04002KT 9999 SCT050 BKN100 08/05 Q1033 RMK PP000=
SPZO Mar2015-291000Z 00000KT 9999 SCT050 BKN100 08/05 Q1034 RMK PP000=
SPZO Mar2015-291100Z VRB01KT 9999 SCT046 BKN080 08/05 Q1034 RMK PP000=
SPZO Mar2015-291200Z 00000KT 9999 SCT050 BKN100 08/05 Q1035 NOSIG RMK PP000=
SPZO Mar2015-291300Z 00000KT 9999 SCT050 BKN100 11/06 Q1036 NOSIG RMK PP000=
SPZO Mar2015-291400Z 00000KT 9999 SCT050 BKN100 13/06 Q1036 NOSIG RMK PP000=
SPZO Mar2015-291500Z VRB04KT 9999 SCT050 BKN100 17/07 Q1036 NOSIG RMK PP000=
SPZO Mar2015-291600Z VRB04KT 9999 FEW040TCU SCT050 18/05 Q1034 NOSIG RMK PP000=
SPZO Mar2015-291700Z 29013KT 260V340 9999 FEW040TCU BKN050 18/05 Q1033 NOSIG RMK PP000=
SPZO Mar2015-291800Z VRB07KT 9999 BKN046 SCT080 21/06 Q1032 NOSIG RMK PP000=
SPZO Mar2015-291900Z VRB04KT 9999 SCT046 SCT080 20/03 Q1030 NOSIG RMK PP000=
SPZO Mar2015-292000Z 05006KT 350V110 9999 FEW040 SCT046 BKN080 20/04 Q1029 NOSIG RMK PP000=
SPZO Mar2015-292100Z 36011KT 320V030 9999 FEW040TCU SCT046 BKN080 18/05 Q1029 NOSIG RMK PP000=
SPZO Mar2015-292200Z 02007KT 330V050 9999 FEW040TCU SCT046 BKN080 18/05 Q1029 NOSIG RMK TX20.3 PP000=
SPZO Mar2015-292300Z 08004KT 360V130 9999 SCT040TCU BKN080 17/06 Q1030 NOSIG RMK PP000=
SPZO Mar2015-300000Z 00000KT 7000 -TSRA FEW040CB SCT050TCU BKN100 14/08 Q1031 RMK PP010=
SPZO Mar2015-300100Z 27005KT 9999 SCT040 BKN100 11/08 Q1031 RMK PP004=
SPZO Mar2015-300200Z 00000KT 9999 SCT040 BKN100 10/07 Q1032 RMK PP000=
SPZO Mar2015-300300Z 27005KT 9999 SCT040 BKN100 09/07 Q1033 RMK PP000=
SPZO Mar2015-300400Z 00000KT 9999 SCT050 BKN100 09/07 Q1033 RMK PP000=
SPZO Mar2015-300500Z 00000KT 9999 SCT050 BKN100 09/06 Q1033 RMK PP000=
SPZO Mar2015-300600Z 00000KT 9999 SCT050 BKN100 09/07 Q1032 RMK PP000=
SPZO Mar2015-300700Z 00000KT 9999 SCT040 BKN100 09/06 Q1032 RMK PP000=
SPZO Mar2015-300800Z 00000KT 9999 SCT040 BKN100 09/06 Q1031 RMK PP000=
SPZO Mar2015-300900Z 07002KT 9999 SCT040 BKN100 09/07 Q1031 RMK PP000=
SPZO Mar2015-301000Z 08003KT 9999 SCT040 BKN100 10/06 Q1032 RMK PP000=
SPZO Mar2015-301100Z 07004KT 9999 SCT040 BKN080 09/06 Q1032 RMK PP000=
SPZO Mar2015-301200Z 07003KT 9999 FEW020 SCT043 BKN080 09/07 Q1033 NOSIG RMK PP000=
SPZO Mar2015-301300Z 00000KT 9000 FEW020 SCT040 BKN080 13/07 Q1034 NOSIG RMK HZ QUAD NE PP000=
SPZO Mar2015-301400Z VRB02KT 9999 FEW025 SCT040 BKN080 14/07 Q1034 NOSIG RMK PP000=
SPZO Mar2015-301500Z VRB02KT 9999 FEW030 SCT040 16/05 Q1034 NOSIG RMK PP000=
SPZO Mar2015-301600Z VRB04KT 9999 BKN043 SCT100 19/04 Q1033 NOSIG RMK PP000=
SPZO Mar2015-301700Z 09007KT 010V160 9999 BKN046 SCT100 19/07 Q1032 NOSIG RMK PP000=
SPZO Mar2015-301800Z VRB04KT 9999 FEW040TCU SCT050 BKN100 21/03 Q1030 NOSIG RMK PP000=
SPZO Mar2015-301900Z 23008KT 9999 FEW040TCU SCT050 BKN100 19/01 Q1029 NOSIG RMK PP000=
SPZO Mar2015-302000Z 02009KT 340V080 9999 VCSH FEW040TCU SCT050 BKN100 20/02 Q1028 R28 WS RMK PP000=
SPZO Mar2015-302100Z 02009KT 290V090 9999 FEW040TCU SCT050 BKN100 19/04 Q1028 R28 WS RMK PP000=
SPZO Mar2015-302200Z 35008KT 280V030 9999 FEW040TCU SCT050 BKN100 16/03 Q1029 NOSIG RMK TX21.6 PP000=
SPZO Mar2015-302300Z 26005KT 200V320 9999 SCT050 SCT100 16/03 Q1029 NOSIG RMK PP000=
SPZO Mar2015-310000Z 26004KT 200V320 9999 SCT050 SCT100 14/04 Q1030 RMK PP000=
SPZO Mar2015-310100Z 24002KT 9999 SCT050 SCT100 13/04 Q1030 RMK PP000=
SPZO Mar2015-310200Z 28003KT 9999 SCT050 SCT100 10/05 Q1032 RMK PP000=
SPZO Mar2015-310300Z 28003KT 9999 SCT050 SCT100 10/05 Q1032 RMK PP000=
SPZO Mar2015-310400Z 00000KT 9999 SCT050 BKN100 09/05 Q1033 RMK PP000=
SPZO Mar2015-310500Z 00000KT 9999 SCT050 BKN100 08/05 Q1032 RMK PP000=
SPZO Mar2015-310600Z 00000KT 9999 SCT050 BKN100 08/05 Q1032 RMK PP000=
SPZO Mar2015-310700Z 06002KT 9999 SCT050 BKN100 07/04 Q1032 RMK PP000=
SPZO Mar2015-310800Z 06002KT 9999 SCT050 BKN100 07/04 Q1031 RMK PP000=
SPZO Mar2015-310900Z VRB02KT 9999 SCT030 07/04 Q1032 RMK PP000=
SPZO Mar2015-311000Z 10002KT 9999 SCT036 07/04 Q1032 RMK PP000=
SPZO Mar2015-311100Z 00000KT 9999 FEW036TCU SCT040 BKN100 07/04 Q1032 RMK PP000=
SPZO Mar2015-311200Z 09003KT 9000 FEW040 SCT050 BKN070 08/05 Q1033 NOSIG RMK PP000=
SPZO Mar2015-311300Z 00000KT 9000 FEW040 SCT050 BKN070 10/05 Q1034 NOSIG RMK PP000=
SPZO Mar2015-311400Z VRB02KT 9999 SCT050 SCT090 15/05 Q1034 NOSIG RMK PP000=
SPZO Mar2015-311500Z 08005KT 020V150 9999 SCT050 SCT100 15/05 Q1034 NOSIG RMK PP000=
SPZO Mar2015-311600Z VRB03KT 9999 SCT050 SCT100 17/06 Q1033 NOSIG RMK PP000=
SPZO Mar2015-311700Z VRB03KT 9999 SCT050 SCT100 18/04 Q1031 NOSIG RMK PP000=
SPZO Mar2015-311800Z 36004KT 300V080 9999 FEW036TCU SCT046 BKN080 19/05 Q1030 TEMPO VCSH RMK PP000=
SPZO Mar2015-311900Z 36009KT 320V050 9999 FEW040TCU SCT046 BKN080 18/04 Q1029 NOSIG RMK PP000=
SPZO Mar2015-312000Z 33009KT 280V010 9999 VCSH FEW040TCU SCT046 BKN080 17/03 Q1028 TEMPO -RA RMK PP000=
SPZO Mar2015-312100Z 28009KT 250V320 9999 VCSH FEW040TCU SCT050 BKN080 15/03 Q1029 NOSIG RMK PP000=
SPZO Mar2015-312200Z 30010KT 260V340 9999 FEW040TCU SCT050 BKN080 14/04 Q1029 TEMPO -RA RMK TX19.4 PP000=
SPZO Mar2015-312300Z 24004KT 190V330 9999 VCSH FEW040TCU SCT050 BKN080 14/04 Q1029 NOSIG RMK PP000=
