SPZO Nov2013-010000Z 30005KT 9999 SCT050 SCT100 15/07 Q1024 RMK PP000=
SPZO Nov2013-010100Z 12002KT 9999 SCT050 SCT100 14/05 Q1025 RMK PP000=
SPZO Nov2013-010200Z 08002KT 9999 SCT050 SCT100 14/06 Q1027 RMK PP000=
SPZO Nov2013-010300Z 15008KT 9999 -RA FEW040TCU SCT060 BKN100 11/05 Q1029 RMK PP000=
SPZO Nov2013-010400Z 09004KT 6000 -RA FEW040TCU SCT060 BKN100 08/06 Q1030 RMK PP028=
SPZO Nov2013-010500Z 15002KT 2000 RA FEW020 SCT036 BKN080 08/05 Q1031 RMK CLNG BLW 1200M PP044=
SPZO Nov2013-010600Z VRB01KT 9999 RA FEW020 SCT036 BKN080 08/04 Q1029 RMK CLNG BLW 1200M PP038=
SPZO Nov2013-010700Z VRB01KT 9999 RA FEW020 SCT036 BKN080 08/04 Q1029 RMK CLNG BLW 1200M PP038=
SPZO Nov2013-010800Z 00000KT 9999 FEW020 SCT036 BKN080 08/05 Q1029 RMK CLNG BLW 1200M PP000=
SPZO Nov2013-010900Z 00000KT 9999 FEW020 SCT040 BKN100 08/05 Q1028 PP000=
SPZO Nov2013-011000Z 00000KT 9999 FEW020 SCT040 BKN100 07/05 Q1028 PP000=
SPZO Nov2013-011100Z 00000KT 9999 FEW020 SCT040 BKN100 07/05 Q1029 NOSIG RMK PP000=
SPZO Nov2013-011200Z 00000KT 9999 FEW030 OVC100 08/05 Q1030 NOSIG RMK PP000=
SPZO Nov2013-011300Z 00000KT 9999 FEW030 BKN230 10/05 Q1030 NOSIG RMK PP000=
SPZO Nov2013-011400Z VRB02KT 9999 FEW046 SCT230 12/05 Q1030 NOSIG RMK PP000=
SPZO Nov2013-011500Z VRB03KT 9999 FEW050 BKN230 16/03 Q1029 NOSIG RMK PP000=
SPZO Nov2013-011600Z VRB03KT 9999 FEW050 BKN230 16/02 Q1028 NOSIG RMK PP000=
SPZO Nov2013-011700Z VRB05KT 9999 FEW050 BKN230 18/01 Q1027 NOSIG RMK PP000=
SPZO Nov2013-011800Z VRB03KT 9999 SCT050 SCT230 20/04 Q1025 NOSIG RMK PP000=
SPZO Nov2013-011900Z VRB05KT 9999 SCT050 SCT200 21/03 Q1024 NOSIG RMK PP000=
SPZO Nov2013-012000Z 12005KT 070V170 9999 FEW050 SCT200 21/03 Q1023 NOSIG RMK PP000=
SPZO Nov2013-012100Z 18004KT 100V210 9999 FEW050 21/M01 Q1023 NOSIG RMK PP000=
SPZO Nov2013-012200Z VRB01KT 9999 SCT060 21/M02 Q1022 NOSIG RMK TMAX 22.0 PP000=
SPZO Nov2013-012300Z 01010KT 9999 SCT080 17/M02 Q1023 NOSIG RMK PP000=
SPZO Nov2013-020000Z VRB03KT 9999 FEW050 16/05 Q1024 RMK PP000=
SPZO Nov2013-020100Z 11005KT 060V130 9999 FEW050 14/06 Q1027 RMK PP000=
SPZO Nov2013-020200Z VRB01KT 9999 FEW050 13/05 Q1028 RMK PP000=
SPZO Nov2013-020300Z 28003KT 260V320 9999 FEW050 11/06 Q1028 RMK PP000=
SPZO Nov2013-020400Z VRB01KT 9999 FEW050 11/06 Q1028 RMK PP000=
SPZO Nov2013-020500Z 00000KT 9999 FEW050 SCT070 11/06 Q1028 RMK PP000=
SPZO Nov2013-020600Z VRB03KT 9999 FEW043 SCT070 11/07 Q1028 RMK PP000=
SPZO Nov2013-020700Z 09003KT 9999 FEW043 SCT070 11/07 Q1027 RMK PP000=
SPZO Nov2013-020800Z VRB02KT 9999 SCT040 BKN070 10/06 Q1027 RMK PP000=
SPZO Nov2013-020900Z VRB02KT 9999 SCT040 BKN070 11/07 Q1026 RMK PP000=
SPZO Nov2013-021000Z 09003KT 9999 SCT040 BKN070 11/07 Q1027 RMK PP000=
SPZO Nov2013-021100Z 00000KT 9999 FEW025 SCT040 BKN080 11/07 Q1028 NOSIG RMK PP000=
SPZO Nov2013-021200Z 27003KT 240V340 9999 FEW025 SCT043 BKN080 13/07 Q1029 NOSIG RMK PP000=
SPZO Nov2013-021300Z 05004KT 9999 VCSH FEW025 SCT040 BKN080 13/06 Q1029 NOSIG RMK PP000=
SPZO Nov2013-021400Z 28003KT 220V330 9999 FEW036 SCT043 BKN080 13/07 Q1029 NOSIG RMK PP004=
SPZO Nov2013-021500Z 27005KT 9999 FEW036 SCT050 BKN100 15/06 Q1029 RERA NOSIG RMK PP002=
SPZO Nov2013-021600Z 35004KT 280V060 9999 FEW036TCU SCT050 BKN080 16/04 Q1029 NOSIG RMK PP000=
SPZO Nov2013-021700Z 36009KT 330V050 9999 VCSH FEW036TCU SCT050 BKN080 16/05 Q1028 TEMPO -RA RMK RA QUAD NE PP000=
SPZO Nov2013-021800Z 12012KT 9999 VCSH SCT040TCU BKN080 14/05 Q1028 TEMPO -RA RMK PP000=
SPZO Nov2013-021900Z 09007KT 9999 VCSH FEW040TCU SCT046 BKN080 13/08 Q1027 NOSIG RMK PP000=
SPZO Nov2013-022000Z 10004KT 060V140 9999 FEW036TCU SCT046 BKN080 14/06 Q1027 NOSIG RMK PP000=
SPZO Nov2013-022100Z VRB02KT 9999 VCSH FEW036TCU SCT046 BKN080 14/06 Q1026 NOSIG RMK PP000=
SPZO Nov2013-022200Z 29014KT 9999 FEW030 SCT046 BKN070 12/06 Q1027 TEMPO -RA RMK T MAX 17.2 PP000=
SPZO Nov2013-022300Z 27013KT 8000 -RA FEW030 SCT040 BKN070 10/06 Q1028 NOSIG RMK PP010=
SPZO Nov2013-030000Z 26007KT 9000 -RA SCT030 BKN043 10/05 Q1030 RMK PP016=
SPZO Nov2013-030100Z 28006KT 9999 -RA FEW030 BKN046 09/06 Q1031 RMK PP006=
SPZO Nov2013-030200Z 00000KT 9999 SCT040 BKN050 09/06 Q1031 RMK PP004=
SPZO Nov2013-030300Z 00000KT 9999 OVC043 09/06 Q1032 RMK PP000=
SPZO Nov2013-030400Z 11005KT 9999 SCT040 BKN050 09/07 Q1032 RMK PP000=
SPZO Nov2013-030500Z 00000KT 9999 SCT036 BKN046 09/06 Q1031 RMK PP000=
SPZO Nov2013-030600Z 00000KT 9999 SCT036 BKN060 09/06 Q1030 RMK PP000=
SPZO Nov2013-030700Z 00000KT 9999 SCT036 SCT060 09/06 Q1030 RMK PP000=
SPZO Nov2013-030800Z 00000KT 9999 BKN050 08/06 Q1029 RMK PP000=
SPZO Nov2013-030900Z 00000KT 9999 BKN060 08/06 Q1029 RMK PP000=
SPZO Nov2013-031000Z 00000KT 9999 SCT030 SCT060 08/06 Q1029 RMK PP000=
SPZO Nov2013-031100Z 00000KT 9999 SCT015 SCT100 08/06 Q1030 NOSIG RMK PP000=
SPZO Nov2013-031200Z VRB01KT 9999 FEW020 SCT036 BKN070 09/06 Q1031 NOSIG CLNG BLW 1200M RMK PP000=
SPZO Nov2013-031300Z VRB02KT 9999 FEW020 SCT036 BKN080 09/05 Q1032 NOSIG RMK PP000=
SPZO Nov2013-031400Z 12003KT 060V200 9999 FEW025 SCT036 BKN080 12/07 Q1032 NOSIG RMK PP000=
SPZO Nov2013-031500Z 10005KT 040V160 9999 FEW025 SCT040 BKN080 13/07 Q1031 NOSIG RMK PP000=
SPZO Nov2013-031600Z 10007KT 060V150 9999 SCT040 BKN080 16/06 Q1031 NOSIG RMK RA QUAD NE PP000=
SPZO Nov2013-031700Z 08007KT 030V150 9999 FEW040TCU SCT046 BKN080 16/05 Q1030 NOSIG RMK PP000=
SPZO Nov2013-031800Z 28008KT 9999 -RA FEW040TCU SCT060 BKN100 14/08 Q1029 NOSIG RMK PP004=
SPZO Nov2013-031900Z 35008KT 260V060 9999 FEW040 SCT060 BKN100 18/06 Q1027 NOSIG RMK PP000=
SPZO Nov2013-032000Z 18005KT 9999 FEW040TCU SCT060 BKN100 18/04 Q1026 TEMPO VCSH RMK PP000=
SPZO Nov2013-032100Z 36006KT 9999 SCT060 BKN100 17/03 Q1026 TEMPO VCSH SCT040TCU BKN100 RMK PP000=
SPZO Nov2013-032200Z VRB04KT 9999 SCT060 BKN100 16/04 Q1026 NOSIG RMK PP000=
SPZO Nov2013-032300Z 29007KT 9999 SCT060 BKN100 15/05 Q1027 NOSIG RMK PP000=
SPZO Nov2013-040000Z 08004KT 050V110 9999 SCT050 13/05 Q1028 RMK PP000=
SPZO Nov2013-040100Z 12004KT 080V170 9999 SCT050 13/05 Q1030 RMK PP000=
SPZO Nov2013-040200Z VRB02KT 9999 SCT050 11/06 Q1031 RMK PP000=
SPZO Nov2013-040300Z VRB01KT 9999 SCT050 11/06 Q1031 RMK PP000=
SPZO Nov2013-040400Z 00000KT 9999 SCT050 11/07 Q1031 RMK PP000=
SPZO Nov2013-040500Z 00000KT 9999 FEW036 SCT050 11/06 Q1031 RMK PP000=
SPZO Nov2013-040600Z 00000KT 9999 FEW036 SCT050 11/07 Q1030 RMK PP000=
SPZO Nov2013-040700Z 00000KT 9999 FEW036 SCT050 11/07 Q1030 RMK PP000=
SPZO Nov2013-040800Z 00000KT 9999 FEW036 BKN050 11/07 Q1029 RMK PP000=
SPZO Nov2013-040900Z 00000KT 9999 FEW036 BKN050 10/07 Q1029 RMK PP000=
SPZO Nov2013-041000Z VRB02KT 9999 SCT036 BKN050 11/07 Q1030 RMK PP000=
SPZO Nov2013-041100Z VRB02KT 9999 -RA VCSH FEW030 SCT040 BKN080 10/07 Q1030 NOSIG RMK PP002=
SPZO Nov2013-041200Z 15003KT 9999 FEW020 SCT036 BKN080 11/06 Q1032 NOSIG RMK PP002=
SPZO Nov2013-041300Z VRB01KT 9999 VCSH FEW025 SCT036 BKN080 13/07 Q1032 NOSIG RMK PPTRZ=
SPZO Nov2013-041400Z VRB03KT 9999 FEW025 SCT036 BKN080 13/07 Q1032 NOSIG RMK PP000=
SPZO Nov2013-041500Z 11004KT 030V180 9999 FEW030 SCT040 BKN080 15/07 Q1031 TEMPO VCSH RMK PP000=
SPZO Nov2013-041600Z 28009KT 240V320 9999 -RA VCSH FEW030 SCT040 BKN070 15/07 Q1030 NOSIG RMK PPTRZ=
SPZO Nov2013-041700Z VRB03KT 9999 FEW040 SCT050 BKN070 16/06 Q1029 NOSIG RMK PPTRZ=
SPZO Nov2013-041800Z 35005KT 280V060 9999 FEW040 SCT046 BKN080 18/05 Q1028 NOSIG RMK PP000=
SPZO Nov2013-041900Z VRB07KT 9999 FEW036TCU SCT046 BKN100 19/06 Q1026 NOSIG RMK PP000=
SPZO Nov2013-042000Z VRB07KT 9999 FEW036TCU SCT046 BKN100 19/07 Q1025 TEMPO VCSH RMK PP000=
SPZO Nov2013-042100Z 27014KT 9999 VCSH FEW040TCU SCT050 BKN100 18/06 Q1025 NOSIG RMK PP000=
SPZO Nov2013-042200Z 28013KT 250V310 9999 VCSH SCT040TCU SCT050 BKN080 18/05 Q1025 TEMPO -RA RMK RA QUAD NE TMAX 19.4 PP000=
SPZO Nov2013-042300Z 30010KT 270V330 9999 VCSH SCT040TCU SCT050 BKN080 16/06 Q1027 TEMPO -RA RMK VIS 9000 QUAD NE RA PP000=
SPZO Nov2013-050000Z 12018KT 9000 -RA FEW040TCU SCT050 BKN070 12/07 Q1029 RMK PP002=
SPZO Nov2013-050100Z 12007KT 7000 -RA FEW020 SCT033 BKN060 10/08 Q1031 RMK CLNG BLW 1200M PP048=
SPZO Nov2013-050200Z VRB02KT 8000 -RA FEW025 SCT036 BKN060 09/07 Q1031 RMK CLNG BLW 1200M PP018=
SPZO Nov2013-050300Z VRB02KT 9000 -DZ FEW025 SCT040 BKN060 10/07 Q1032 RMK PP002=
SPZO Nov2013-050400Z 30005KT 9000 -DZ FEW025 SCT040 BKN060 10/07 Q1032 RMK PPTRZ=
SPZO Nov2013-050500Z 28010KT 9999 -DZ FEW025 SCT040 BKN060 10/06 Q1031 RMK PPTRZ=
SPZO Nov2013-050600Z 31009KT 9999 -DZ FEW025 SCT040 BKN060 10/05 Q1030 RMK PP002=
SPZO Nov2013-050700Z 30010KT 9999 FEW025 SCT040 BKN060 09/05 Q1030 REDZ RMK PPTRZ=
SPZO Nov2013-050800Z 30009KT 9999 FEW025 SCT040 BKN060 09/04 Q1029 RMK PP000=
SPZO Nov2013-050900Z 30007KT 9999 FEW030 SCT040 BKN060 09/04 Q1029 RMK PP000=
SPZO Nov2013-051000Z VRB02KT 9000 -RA FEW020 SCT036 BKN060 09/05 Q1029 RMK PP002=
SPZO Nov2013-051100Z 28004KT 9999 -DZ FEW020 SCT036 BKN060 09/05 Q1030 NOSIG RMK PPTRZ=
SPZO Nov2013-051200Z 00000KT 9999 FEW020 SCT036 BKN080 11/05 Q1031 NOSIG RMK PP000=
SPZO Nov2013-051300Z 00000KT 9999 FEW025 SCT040 BKN080 12/05 Q1031 NOSIG RMK PP000=
SPZO Nov2013-051400Z VRB01KT 9999 FEW025 SCT040 BKN080 14/06 Q1031 NOSIG RMK PP000=
SPZO Nov2013-051500Z VRB01KT 9999 FEW025 SCT040 BKN080 14/06 Q1031 NOSIG RMK PP000=
SPZO Nov2013-051600Z VRB01KT 9999 SCT040 BKN080 16/05 Q1030 NOSIG RMK PP000=
SPZO Nov2013-051700Z 09005KT 030V120 9999 FEW040 SCT050 BKN080 18/06 Q1029 TEMPO VCSH RMK PP000=
SPZO Nov2013-051800Z 32008KT 9999 FEW040 SCT050 BKN080 18/07 Q1028 NOSIG RMK PP000=
SPZO Nov2013-051900Z 17008KT 6000 TSRA VCSH FEW036CB SCT040TCU BKN080 13/07 Q1028 RMK PP004=
SPZO Nov2013-052000Z 31005KT 9000 -RA FEW030 SCT036 BKN080 10/06 Q1029 NOSIG RMK PP070=
SPZO Nov2013-052100Z 00000KT 8000 -RA FEW030 SCT036 BKN080 10/07 Q1029 NOSIG RMK PP006=
SPZO Nov2013-052200Z 00000KT 8000 -RA FEW030 SCT036 BKN080 10/08 Q1029 NOSIG RMK T.MAX 18.5 PP020=
SPZO Nov2013-052300Z 00000KT 8000 -RA FEW030 SCT040 BKN080 10/07 Q1030 NOSIG RMK PP012=
SPZO Nov2013-060000Z 30003KT 8000 -RA FEW030 SCT036 BKN080 09/06 Q1030 RMK CLNG BLW 1200M PP018=
SPZO Nov2013-060100Z 00000KT 8000 FEW020 SCT036 BKN080 09/06 Q1031 RMK PP004=
SPZO Nov2013-060200Z 00000KT 9999 FEW020 SCT036 BKN080 10/07 Q1031 RMK PP000=
SPZO Nov2013-060300Z 00000KT 9999 FEW030 SCT040 BKN100 10/07 Q1032 RMK PP000=
SPZO Nov2013-060400Z 00000KT 9999 FEW030 SCT040 BKN100 10/07 Q1032 RMK PP000=
SPZO Nov2013-060500Z 00000KT 9999 FEW030 SCT040 BKN100 10/07 Q1032 RMK PP000=
SPZO Nov2013-060600Z 11004KT 9999 -RA FEW030 SCT040 BKN100 10/06 Q1032 RMK PP002=
SPZO Nov2013-060700Z 00000KT 9999 -RA FEW030 SCT040 BKN100 08/06 Q1031 RMK PP024=
SPZO Nov2013-060800Z 00000KT 9999 -RA FEW030 SCT040 BKN100 08/06 Q1031 RMK PP010=
SPZO Nov2013-060900Z 00000KT 9999 -RA FEW030 SCT040 BKN100 08/06 Q1031 RMK PP022=
SPZO Nov2013-061000Z 00000KT 9999 FEW030 SCT040 BKN100 08/05 Q1032 RMK PP004=
SPZO Nov2013-061100Z 00000KT 9000 -RA FEW020 SCT036 BKN100 07/04 Q1033 NOSIG RMK 8000E PP008=
SPZO Nov2013-061200Z 27003KT 9999 FEW020 SCT040 BKN100 09/05 Q1033 NOSIG RMK PP002=
SPZO Nov2013-061300Z VRB01KT 9999 FEW020 SCT046 BKN100 11/04 Q1033 NOSIG RMK PP000=
SPZO Nov2013-061400Z VRB02KT 9999 FEW030 SCT046 BKN100 13/04 Q1033 NOSIG RMK PP000=
SPZO Nov2013-061500Z VRB03KT 9999 FEW033 SCT050 BKN100 13/07 Q1033 NOSIG RMK PP000=
SPZO Nov2013-061600Z VRB03KT 9999 SCT050 BKN100 15/06 Q1032 NOSIG RMK PP000=
SPZO Nov2013-061700Z VRB02KT 9999 SCT050 SCT100 17/04 Q1031 NOSIG RMK PP000=
SPZO Nov2013-061800Z 08004KT 340V110 9999 SCT050 SCT060 18/04 Q1029 NOSIG RMK PP000=
SPZO Nov2013-061900Z VRB02KT 9999 SCT050 20/05 Q1027 NOSIG RMK PP000=
SPZO Nov2013-062000Z VRB02KT 9999 SCT050 19/04 Q1026 NOSIG RMK PP000=
SPZO Nov2013-062100Z VRB02KT 9999 SCT050 20/04 Q1025 NOSIG RMK PP000=
SPZO Nov2013-062200Z 30010KT 9999 SCT050 18/05 Q1026 NOSIG RMK TMAX 20.8 PP000=
SPZO Nov2013-062300Z 28010KT 9999 SCT050 17/06 Q1026 NOSIG RMK PP000=
SPZO Nov2013-070000Z 28009KT 9999 FEW060 15/06 Q1028 RMK PP000=
SPZO Nov2013-070100Z 30006KT 9999 FEW060 14/06 Q1029 RMK PP000=
SPZO Nov2013-070200Z VRB02KT 9999 FEW060 13/07 Q1030 RMK PP000=
SPZO Nov2013-070300Z VRB01KT 9999 FEW060 12/07 Q1031 RMK PP000=
SPZO Nov2013-070400Z VRB02KT 9999 FEW060 11/07 Q1031 RMK PP000=
SPZO Nov2013-070500Z VRB01KT 9999 FEW050 10/06 Q1031 RMK PP000=
SPZO Nov2013-070600Z VRB02KT 9999 FEW050 08/05 Q1030 RMK PP000=
SPZO Nov2013-070700Z 30003KT 9999 FEW050 08/04 Q1030 RMK PP000=
SPZO Nov2013-070800Z VRB01KT 9999 FEW043 SCT080 08/04 Q1030 RMK PP000=
SPZO Nov2013-070900Z 26003KT 230V290 9999 FEW043 SCT080 06/04 Q1031 RMK PP000=
SPZO Nov2013-071000Z 00000KT 9999 FEW043 SCT100 06/03 Q1031 RMK BR QUAD E PP000=
SPZO Nov2013-071100Z 00000KT 9999 FEW043 07/03 Q1032 NOSIG RMK HZ QUAD E PP000=
SPZO Nov2013-071200Z 00000KT 9999 NSC 11/04 Q1032 NOSIG RMK VIS 9000 HZ QUAD E PP000=
SPZO Nov2013-071300Z VRB03KT 9999 NSC 13/02 Q1033 NOSIG RMK VIS 9000 HZ QUAD E PP000=
SPZO Nov2013-071400Z VRB02KT 9999 FEW046 15/03 Q1032 NOSIG RMK PP000=
SPZO Nov2013-071500Z VRB01KT 9999 FEW050 18/01 Q1032 NOSIG RMK PP000=
SPZO Nov2013-071600Z VRB03KT 9999 FEW070 19/00 Q1031 NOSIG RMK PP000=
SPZO Nov2013-071700Z 21005KT 110V260 9999 FEW060 SCT230 20/M02 Q1029 NOSIG RMK PP000=
SPZO Nov2013-071800Z 23004KT 150V300 9999 FEW050 SCT230 22/M04 Q1028 NOSIG RMK PP000=
SPZO Nov2013-071900Z 35009KT 300V070 9999 FEW050 SCT230 23/M06 Q1027 NOSIG RMK PP000=
SPZO Nov2013-072000Z 01011KT 340V050 9999 FEW050 SCT230 22/M08 Q1026 NOSIG RMK PP000=
SPZO Nov2013-072100Z 04011KT 360V070 9999 FEW050 SCT230 22/M06 Q1025 NOSIG RMK PP000=
SPZO Nov2013-072200Z 01010KT 350V060 9999 FEW046 SCT230 20/M08 Q1025 NOSIG RMK T MAX 23.3 PP000=
SPZO Nov2013-072300Z 02011KT 350V070 9999 FEW046 SCT230 18/M10 Q1026 NOSIG MK PP000=
SPZO Nov2013-080000Z 00000KT 9999 FEW050 16/M08 Q1027 RMK PP000=
SPZO Nov2013-080100Z 10003KT 9999 FEW050 SCT100 13/M02 Q1028 RMK PP000=
SPZO Nov2013-080200Z 00000KT 9999 NSC 10/01 Q1029 RMK PP000=
SPZO Nov2013-080300Z 00000KT 9999 NSC 11/M00 Q1030 RMK PP000=
SPZO Nov2013-080400Z 00000KT 9999 NSC 09/00 Q1030 RMK PP000=
SPZO Nov2013-080500Z 00000KT 9999 NSC 08/01 Q1030 RMK PP000=
SPZO Nov2013-080600Z 00000KT 9999 NSC 08/01 Q1029 RMK PP000=
SPZO Nov2013-080700Z 00000KT 9999 NSC 08/M00 Q1029 RMK PP000=
SPZO Nov2013-080800Z 00000KT 9999 NSC 06/02 Q1029 RMK PP000=
SPZO Nov2013-080900Z 00000KT 9999 NSC 06/02 Q1030 RMK PP000=
SPZO Nov2013-081000Z 00000KT 9999 FEW040 SCT060 04/01 Q1031 RMK PP000=
SPZO Nov2013-081100Z 11003KT 9999 FEW040 SCT100 06/02 Q1032 NOSIG RMK PP000=
SPZO Nov2013-081200Z 09003KT 9999 SCT080 10/01 Q1032 NOSIG RMK VIS 8000E HZ PP000=
SPZO Nov2013-081300Z VRB02KT 9999 FEW050 SCT100 13/01 Q1032 NOSIG RMK PP000=
SPZO Nov2013-081400Z VRB02KT 9999 FEW060 SCT080 15/02 Q1032 NOSIG RMK PP000=
SPZO Nov2013-081500Z VRB02KT 9999 SCT060 18/04 Q1031 NOSIG RMK PP000=
SPZO Nov2013-081600Z 05005KT 9999 SCT060 20/02 Q1030 NOSIG RMK PP000=
SPZO Nov2013-081700Z VRB05KT 9999 SCT060 20/M03 Q1029 NOSIG RMK PP000=
SPZO Nov2013-081800Z 02004KT 9999 SCT060 22/M01 Q1027 NOSIG RMK PP000=
SPZO Nov2013-081900Z 28006KT 9999 SCT060 23/M01 Q1025 NOSIG RMK PP000=
SPZO Nov2013-082000Z 02006KT 9999 FEW060 23/04 Q1024 NOSIG RMK PP000=
SPZO Nov2013-082100Z 02011KT 9999 FEW060 22/02 Q1023 NOSIG RMK PP000=
SPZO Nov2013-082200Z 05005KT 9999 NSC 22/02 Q1023 NOSIG RMK PP000=
SPZO Nov2013-082300Z 12007KT 9999 NSC 19/03 Q1023 NOSIG RMK PP000=
SPZO Nov2013-090000Z 31006KT 250V010 9999 NSC 17/05 Q1025 RMK PP000=
SPZO Nov2013-090100Z 11007KT 080V140 9999 NSC 15/05 Q1026 RMK PP000=
SPZO Nov2013-090200Z VRB03KT 9999 NSC 14/05 Q1028 RMK PP000=
SPZO Nov2013-090300Z 03008KT 9999 NSC 14/03 Q1029 RMK PP000=
SPZO Nov2013-090400Z VRB02KT 9999 NSC 13/04 Q1030 RMK PP000=
SPZO Nov2013-090500Z VRB01KT 9999 NSC 12/04 Q1029 RMK PP000=
SPZO Nov2013-090600Z 10004KT 9999 FEW050 11/04 Q1029 RMK PP000=
SPZO Nov2013-090700Z 00000KT 9999 FEW050 10/04 Q1029 RMK PP000=
SPZO Nov2013-090800Z VRB01KT 9999 NSC 08/04 Q1028 RMK PP000=
SPZO Nov2013-090900Z VRB02KT 9999 NSC 08/04 Q1029 RMK PP000=
SPZO Nov2013-091000Z VRB01KT 9999 FEW060 08/04 Q1030 RMK PP000=
SPZO Nov2013-091100Z 08003KT 9999 FEW080 08/04 Q1030 NOSIG RMK VIS 9000E HZ PP000=
SPZO Nov2013-091200Z VRB01KT 9999 FEW060 12/04 Q1031 NOSIG RMK PP000=
SPZO Nov2013-091300Z 08004KT 9999 FEW060 14/03 Q1031 NOSIG RMK PP000=
SPZO Nov2013-091400Z VRB01KT 9999 FEW060 16/01 Q1031 NOSIG RMK PP000=
SPZO Nov2013-091500Z 15004KT 9999 FEW050 18/M00 Q1030 NOSIG RMK PP000=
SPZO Nov2013-091600Z 15005KT 9999 FEW050 20/M01 Q1029 NOSIG RMK PP000=
SPZO Nov2013-091700Z 22004KT 9999 FEW050 21/M00 Q1028 NOSIG RMK PP000=
SPZO Nov2013-091800Z 34006KT 280V060 9999 SCT050 21/M00 Q1026 NOSIG RMK PP000=
SPZO Nov2013-091900Z 06007KT 020V150 9999 SCT050 22/01 Q1025 NOSIG RMK PP000=
SPZO Nov2013-092000Z 02013KT 350V060 9999 SCT050 21/02 Q1025 NOSIG RMK PP000=
SPZO Nov2013-092100Z 03012KT 340V080 9999 SCT050 20/04 Q1024 NOSIG RMK PP000=
SPZO Nov2013-092200Z 03015KT 350V050 9999 FEW050 18/02 Q1025 NOSIG RMK TMAX 22.5 PP000=
SPZO Nov2013-092300Z 03012G22KT 330V070 9999 SCT050 SCT100 16/01 Q1026 NOSIG RMK PP000=
SPZO Nov2013-100000Z 05011KT 020V090 9999 SCT050 SCT100 16/03 Q1027 RMK PP000=
SPZO Nov2013-100100Z VRB03KT 9999 SCT050 SCT100 15/03 Q1028 RMK PP000=
SPZO Nov2013-100200Z 12006KT 080V180 9999 SCT050 SCT100 14/04 Q1029 RMK PP000=
SPZO Nov2013-100300Z 11004KT 9999 SCT050 SCT080 13/04 Q1030 RMK PP000=
SPZO Nov2013-100400Z 26004KT 9999 FEW050 SCT080 12/05 Q1029 RMK PP000=
SPZO Nov2013-100500Z 14003KT 100V190 9999 FEW050 SCT080 12/05 Q1029 RMK PP000=
SPZO Nov2013-100600Z 00000KT 9999 FEW050 SCT080 11/04 Q1028 RMK PP000=
SPZO Nov2013-100700Z 10003KT 9999 FEW050 SCT080 11/05 Q1028 RMK PP000=
SPZO Nov2013-100800Z 13004KT 9999 SCT050 BKN080 11/05 Q1028 RMK PP000=
SPZO Nov2013-100900Z VRB02KT 9999 SCT050 BKN080 11/05 Q1029 RMK PP000=
SPZO Nov2013-101000Z 34005KT 300V010 9000 -RA FEW020 SCT040 BKN070 11/06 Q1029 RMK PPTRZ=
SPZO Nov2013-101100Z VRB02KT 9000 -DZ SCT040 BKN070 11/06 Q1030 NOSIG RMK PP004=
SPZO Nov2013-101200Z 24004KT 9999 VCSH SCT040 BKN080 11/05 Q1031 NOSIG RMK PP004=
SPZO Nov2013-101300Z 10005KT 9999 VCSH SCT040 BKN080 11/06 Q1032 NOSIG RMK PP000=
SPZO Nov2013-101400Z 29003KT 220V340 9999 VCSH FEW040 BKN080 13/04 Q1031 NOSIG RMK PP000=
SPZO Nov2013-101500Z VRB02KT 9999 FEW043 BKN080 15/03 Q1031 NOSIG RMK PP000=
SPZO Nov2013-101600Z VRB04KT 9999 SCT050 BKN080 18/02 Q1029 NOSIG RMK PP000=
SPZO Nov2013-101700Z VRB02KT 9999 SCT050 SCT150 20/M00 Q1028 NOSIG RMK PP000=
SPZO Nov2013-101800Z VRB03KT 9999 FEW050 SCT100 21/M02 Q1026 NOSIG RMK PP000=
SPZO Nov2013-101900Z 22006KT 180V300 9999 FEW050 SCT230 22/M00 Q1025 NOSIG RMK PP000=
SPZO Nov2013-102000Z VRB03KT 9999 SCT050 SCT230 23/M02 Q1023 TEMPO VCSH FEW040TCU BKN100 RMK PP000=
SPZO Nov2013-102100Z 26013KT 210V330 9999 SCT050 22/01 Q1022 NOSIG RMK PP000=
SPZO Nov2013-102200Z 28009KT 9999 SCT040 SCT050 19/M01 Q1024 TEMPO VCSH FEW040TCU BKN080 RMK T.MAX 23.0 PP000=
SPZO Nov2013-102300Z VRB02KT 9999 SCT040TCU BKN050 17/05 Q1025 TEMPO -RA RMK PP000=
SPZO Nov2013-110000Z 15010KT 9999 FEW040CB SCT050TCU BKN080 14/04 Q1028 RMK PP000=
SPZO Nov2013-110100Z 15007KT 9999 -RA SCT040TCU BKN100 11/06 Q1030 RMK PP002=
SPZO Nov2013-110200Z 06004KT 9999 SCT040 BKN080 11/06 Q1031 RMK PP000=
SPZO Nov2013-110300Z 00000KT 9999 SCT040 BKN080 12/04 Q1031 RMK PP000=
SPZO Nov2013-110400Z 00000KT 9999 SCT040 BKN080 11/06 Q1031 RMK PP000=
SPZO Nov2013-110500Z 00000KT 9999 SCT040 BKN080 11/06 Q1031 RMK PP000=
SPZO Nov2013-110600Z 00000KT 9999 SCT040 BKN080 10/06 Q1029 RMK PP000=
SPZO Nov2013-110700Z 00000KT 9999 SCT040 BKN080 10/06 Q1029 RMK PP000=
SPZO Nov2013-110800Z 00000KT 9999 NSC 10/06 Q1028 RMK PP000=
SPZO Nov2013-110900Z 00000KT 9999 NSC 09/05 Q1028 RMK PP000=
SPZO Nov2013-111000Z 00000KT 9999 SCT060 BKN100 09/06 Q1029 RMK PP000=
SPZO Nov2013-111100Z 00000KT 9999 FEW060 BKN230 10/05 Q1030 NOSIG RMK PP000=
SPZO Nov2013-111200Z 27004KT 9999 FEW060 SCT230 11/06 Q1030 NOSIG RMK PP000=
SPZO Nov2013-111300Z VRB02KT 9999 FEW050 15/04 Q1030 NOSIG RMK PP000=
SPZO Nov2013-111400Z 00000KT 9999 FEW050 17/04 Q1030 NOSIG RMK PP000=
SPZO Nov2013-111500Z VRB03KT 9999 SCT050 19/01 Q1029 NOSIG RMK PP000=
SPZO Nov2013-111600Z VRB06KT 9999 SCT050 21/M03 Q1028 NOSIG RMK PP000=
SPZO Nov2013-111700Z VRB06KT 9999 FEW040 SCT050 21/M02 Q1027 NOSIG RMK PP000=
SPZO Nov2013-111800Z 03011KT 350V060 9999 SCT050 SCT060 22/01 Q1026 TEMPO VCSH RMK PP000=
SPZO Nov2013-111900Z 03011KT 330V070 9999 FEW050 SCT080 21/03 Q1025 TEMPO VCSH RMK PP000=
SPZO Nov2013-112000Z 11012G25KT 040V180 8000 VCSH SCT046CB SCT070 19/03 Q1025 TEMPO 8000 4000E VCGR RA RMK +RA QUAD N/E PP000=
SPZO Nov2013-112100Z 12011KT 080V180 9999 -RA VCSH SCT046CB SCT080 17/06 Q1025 NOSIG RMK PP002=
SPZO Nov2013-112200Z VRB01KT 9999 SCT046 SCT080 19/03 Q1025 NOSIG RMK TMAX 22.9 PP000=
SPZO Nov2013-112300Z VRB04KT 9999 FEW040 SCT100 17/03 Q1025 NOSIG RMK PP000=
SPZO Nov2013-120000Z VRB03KT 9999 FEW050 16/05 Q1027 RMK PP000=
SPZO Nov2013-120100Z 12004KT 070V150 9999 FEW050 14/06 Q1028 RMK PP000=
SPZO Nov2013-120200Z VRB01KT 9999 FEW050 14/06 Q1029 RMK PP000=
SPZO Nov2013-120300Z 07004KT 040V130 9999 FEW050 13/06 Q1030 RMK PP000=
SPZO Nov2013-120400Z 01003KT 9999 FEW070 12/06 Q1029 RMK VCTS QUAD N PP000=
SPZO Nov2013-120500Z 04003KT 9999 FEW043 SCT070 11/06 Q1029 RMK PP000=
SPZO Nov2013-120600Z 06003KT 9999 FEW043 SCT070 11/06 Q1028 RMK PP000=
SPZO Nov2013-120700Z 08003KT 9999 FEW040 SCT080 10/06 Q1028 RMK PP000=
SPZO Nov2013-120800Z 26003KT 200V290 9999 FEW040 SCT080 10/05 Q1028 RMK PP000=
SPZO Nov2013-120900Z 08004KT 9999 FEW040 SCT080 08/05 Q1028 RMK PP000=
SPZO Nov2013-121000Z 29003KT 9999 FEW030 SCT080 08/04 Q1028 RMK HZ QUAD E PP000=
SPZO Nov2013-121100Z 10005KT 9999 FEW025 SCT040 BKN080 08/05 Q1030 NOSIG RMK VIS 9000 QUAD E BR PP000=
SPZO Nov2013-121200Z VRB01KT 9999 FEW033 SCT040 SCT080 10/05 Q1030 NOSIG RMK VIS 8000 QUAD E HZ PP000=
SPZO Nov2013-121300Z VRB04KT 9999 FEW033 SCT080 13/06 Q1031 NOSIG RMK VIS 9000 QUAD E HZ PP000=
SPZO Nov2013-121400Z 10005KT 060V170 9999 SCT036 SCT080 16/06 Q1030 NOSIG RMK PP000=
SPZO Nov2013-121500Z VRB04KT 9999 SCT040 SCT100 18/06 Q1029 NOSIG RMK PP000=
SPZO Nov2013-121600Z VRB03KT 9999 SCT043 SCT100 20/01 Q1029 TEMPO VCSH RMK PP000=
SPZO Nov2013-121700Z 11006KT 360V160 9999 SCT050 SCT070 21/03 Q1027 NOSIG RMK PP000=
SPZO Nov2013-121800Z 04008KT 350V090 9999 FEW040TCU SCT050 BKN080 19/04 Q1026 TEMPO VCSH RMK PP000=
SPZO Nov2013-121900Z 30012KT 270V340 9000 -TSRA SCT040CB SCT050 BKN100 15/05 Q1026 TEMPO 30013G25KT RMK PP002=
SPZO Nov2013-122000Z 26009KT 230V300 9999 SCT050 BKN100 18/04 Q1025 RERA NOSIG RMK PPTRZ=
SPZO Nov2013-122100Z 12006KT 090V160 9999 SCT050 BKN100 18/05 Q1024 NOSIG RMK PP000=
SPZO Nov2013-122200Z 11005KT 060V150 9999 FEW050 BKN100 18/05 Q1024 NOSIG RMK T MAX 21.5 PP000=
SPZO Nov2013-122300Z 12005KT 9999 BKN100 16/05 Q1025 NOSIG RMK -SHRA BTN 2210/2220 PP002=
SPZO Nov2013-130000Z 12008KT 9999 FEW050 BKN100 15/05 Q1026 RMK PP000=
SPZO Nov2013-130100Z 07005KT 9999 BKN100 14/05 Q1028 RMK PP000=
SPZO Nov2013-130200Z 15004KT 9999 BKN100 14/04 Q1030 RMK PP000=
SPZO Nov2013-130300Z 11004KT 9999 SCT040 SCT100 13/05 Q1031 RMK PP000=
SPZO Nov2013-130400Z 12004KT 9999 BKN050 SCT080 12/05 Q1031 RMK PP000=
SPZO Nov2013-130500Z 00000KT 9999 BKN050 SCT080 12/05 Q1030 RMK PP000=
SPZO Nov2013-130600Z 00000KT 9999 BKN043 SCT080 12/06 Q1030 RMK PP000=
SPZO Nov2013-130800Z 13012KT 8000 -RA OVC040 08/06 Q1031 RMK PP006=
SPZO Nov2013-130900Z 11007KT 8000 RA SCT036 BKN040 07/05 Q1031 RMK PP030=
SPZO Nov2013-131000Z 09004KT 9000 -RA FEW015 SCT036 BKN070 07/05 Q1032 RMK PP010=
SPZO Nov2013-131100Z 00000KT 9999 -DZ FEW020 SCT036 BKN080 07/04 Q1032 NOSIG RMK CLNG BLW 1200M PP004=
SPZO Nov2013-131200Z 00000KT 9999 FEW015 SCT036 BKN080 08/04 Q1033 REDZ NOSIG RMK CLNG BLW 1200M PPTRZ=
SPZO Nov2013-131300Z VRB01KT 9999 FEW025 SCT040 BKN080 10/05 Q1033 NOSIG RMK PP000=
SPZO Nov2013-131400Z VRB01KT 9999 FEW020 SCT040 BKN080 12/05 Q1033 NOSIG RMK PP000=
SPZO Nov2013-131500Z VRB01KT 9999 FEW030 SCT040 BKN100 14/05 Q1033 NOSIG RMK PP000=
SPZO Nov2013-131600Z VRB03KT 9999 FEW030 SCT040 BKN100 15/06 Q1032 NOSIG RMK PP000=
SPZO Nov2013-131700Z VRB01KT 9999 FEW036 SCT046 BKN100 16/05 Q1030 NOSIG RMK PP000=
SPZO Nov2013-131800Z 11010KT 9999 VCSH FEW040TCU SCT050 BKN100 16/06 Q1029 TEMPO 12012G25KT RMK VIS 7000E PP000=
SPZO Nov2013-131900Z 10009KT 9999 FEW040TCU SCT050 BKN100 14/06 Q1029 TEMPO -RA RMK PP000=
SPZO Nov2013-132000Z 28006KT 9999 -RA VCSH FEW040TCU SCT050 BKN100 16/06 Q1028 NOSIG RMK PP000=
SPZO Nov2013-132100Z 11013KT 9999 FEW040TCU SCT050 BKN100 13/07 Q1028 NOSIG RMK PPTRZ=
SPZO Nov2013-132200Z 13012KT 9999 FEW040TCU SCT050 BKN100 12/07 Q1029 NOSIG RMK PP000=
SPZO Nov2013-132300Z 10010KT 9999 FEW050 BKN100 12/06 Q1030 NOSIG RMK PP000=
SPZO Nov2013-140000Z VRB01KT 9999 SCT050 SCT100 11/06 Q1031 RMK PP000=
SPZO Nov2013-140100Z 00000KT 9999 SCT050 SCT100 10/07 Q1032 RMK PP000=
SPZO Nov2013-140200Z 29005KT 9999 SCT050 SCT100 10/06 Q1032 RMK PP000=
SPZO Nov2013-140300Z 00000KT 9999 SCT100 09/06 Q1033 RMK PP000=
SPZO Nov2013-140400Z VRB02KT 9999 SCT100 08/05 Q1032 RMK PP000=
SPZO Nov2013-140500Z 29003KT 9999 NSC 07/05 Q1032 RMK PP000=
SPZO Nov2013-140600Z VRB02KT 9999 NSC 08/06 Q1031 RMK PP000=
SPZO Nov2013-140700Z 00000KT 9999 NSC 07/05 Q1031 RMK PP000=
SPZO Nov2013-140800Z 00000KT 9999 NSC 07/05 Q1031 RMK PP000=
SPZO Nov2013-140900Z 31004KT 9999 FEW050 06/04 Q1031 RMK PP000=
SPZO Nov2013-141000Z VRB01KT 9999 BKN046 07/05 Q1031 RMK PP000=
SPZO Nov2013-141100Z 10004KT 9999 BKN046 07/05 Q1032 NOSIG RMK BR CUAD N/E PP000=
SPZO Nov2013-141200Z 08002KT 9999 SCT060 BKN100 09/03 Q1033 NOSIG RMK VIS 9000E HZ PP000=
SPZO Nov2013-141300Z 09002KT 8000 FEW020 SCT050 BKN100 11/06 Q1034 NOSIG RMK VIS 7000E HZ PP000=
SPZO Nov2013-141400Z 08004KT 9999 FEW020 SCT050 BKN100 13/06 Q1034 BECMG FM1430 34006KT FEW050 SCT230 RMK PP000=
SPZO Nov2013-141500Z VRB02KT 9999 SCT050 BKN100 15/06 Q1033 NOSIG RMK PP000=
SPZO Nov2013-141600Z VRB01KT 9999 SCT050 BKN100 15/05 Q1032 NOSIG RMK PP000=
SPZO Nov2013-141700Z 20003KT 9999 VCSH SCT050 BKN100 16/05 Q1032 NOSIG RMK PP002=
SPZO Nov2013-141800Z VRB05KT 9999 VCSH BKN046 SCT080 17/06 Q1030 TEMPO 03010KT RMK RA QUAD E PP000=
SPZO Nov2013-141900Z 12011KT 9999 BKN046 FEW050TCU SCT080 16/07 Q1029 TEMPO VCSH RMK RA QUAD E PP000=
SPZO Nov2013-142000Z 10006KT 050V150 9999 SCT046 SCT080 18/05 Q1028 NOSIG PP000=
SPZO Nov2013-142100Z VRB01KT 9999 SCT046 19/04 Q1027 NOSIG RMK PP000=
SPZO Nov2013-142200Z 19003KT 140V250 9999 SCT046 19/04 Q1027 NOSIG RMK TMAX 20.0 PP000=
SPZO Nov2013-142300Z 12005KT 080V150 9999 SCT050 17/05 Q1027 TEMPO FEW050 RMK PP000=
SPZO Nov2013-150000Z 36007KT 280V030 9999 FEW050 15/05 Q1028 RMK PP000=
SPZO Nov2013-150100Z VRB01KT 9999 FEW050 14/06 Q1029 RMK PP000=
SPZO Nov2013-150200Z VRB02KT 9999 FEW050 12/06 Q1030 RMK PP000=
SPZO Nov2013-150300Z VRB01KT 9999 FEW050 11/06 Q1031 RMK PP000=
SPZO Nov2013-150400Z 30003KT 9999 SCT050 09/06 Q1031 RMK PP000=
SPZO Nov2013-150500Z VRB01KT 9999 SCT050 10/06 Q1031 RMK PP000=
SPZO Nov2013-150600Z VRB01KT 9999 SCT050 09/06 Q1030 RMK PP000=
SPZO Nov2013-150700Z 00000KT 9999 SCT050 SCT080 09/06 Q1030 RMK PP000=
SPZO Nov2013-150800Z 11004KT 9999 SCT050 SCT080 09/06 Q1030 RMK PP000=
SPZO Nov2013-150900Z VRB02KT 9999 SCT050 SCT080 09/06 Q1030 RMK PP000=
SPZO Nov2013-151000Z VRB01KT 9999 SCT050 SCT080 08/06 Q1030 RMK PP000=
SPZO Nov2013-151100Z VRB02KT 9999 SCT050 SCT080 08/06 Q1031 NOSIG RMK VIS 9000E BR PP000=
SPZO Nov2013-151200Z 34003KT 300V040 9999 FEW025 SCT043 BKN080 11/06 Q1032 NOSIG RMK VIS 9000 QUAD E HZ PP000=
SPZO Nov2013-151300Z VRB01KT 9999 SCT043 15/06 Q1032 NOSIG RMK VIS 9000 QUAD E HZ PP000=
SPZO Nov2013-151400Z VRB03KT 9999 SCT040 SCT080 16/05 Q1031 NOSIG RMK PP000=
SPZO Nov2013-151500Z 36004KT 310V050 9999 BKN050 18/06 Q1031 NOSIG RMK PP000=
SPZO Nov2013-151600Z VRB03KT 9999 BKN050 20/06 Q1030 NOSIG RMK PP000=
SPZO Nov2013-151700Z VRB01KT 9999 BKN050 22/04 Q1029 NOSIG RMK PP000=
SPZO Nov2013-151800Z 07009KT 9999 SCT050 22/03 Q1027 NOSIG RMK PP000=
SPZO Nov2013-151900Z 03015KT 9999 SCT050 23/03 Q1026 NOSIG RMK PP000=
SPZO Nov2013-152000Z 02012KT 9999 SCT050 22/04 Q1026 NOSIG RMK PP000=
SPZO Nov2013-152100Z VRB08KT 9999 FEW040TCU SCT080 20/04 Q1026 NOSIG RMK PP000=
SPZO Nov2013-152200Z 02009KT 9999 FEW046TCU BKN100 19/04 Q1026 NOSIG RMK T.MAX 23.4 PP000=
SPZO Nov2013-152300Z 12008KT 9999 SCT050 BKN100 17/05 Q1027 NOSIG RMK PP000=
SPZO Nov2013-160000Z 08006KT 9999 SCT050 SCT100 16/05 Q1029 RMK PP000=
SPZO Nov2013-160100Z 24008KT 9999 SCT050 BKN100 17/04 Q1030 RMK PP000=
SPZO Nov2013-160200Z 24004KT 9999 SCT050 BKN100 15/04 Q1032 RMK PP000=
SPZO Nov2013-160300Z 00000KT 9999 SCT050 BKN100 14/03 Q1033 RMK PP000=
SPZO Nov2013-160400Z 00000KT 9999 SCT050 BKN100 14/04 Q1033 RMK PP000=
SPZO Nov2013-160500Z 00000KT 9999 SCT050 BKN100 13/03 Q1032 RMK PP000=
SPZO Nov2013-160600Z 00000KT 9999 SCT050 BKN100 11/04 Q1031 RMK PP000=
SPZO Nov2013-160700Z 00000KT 9999 SCT050 BKN100 10/04 Q1031 RMK PP000=
SPZO Nov2013-160800Z 00000KT 9999 NSC 09/04 Q1030 RMK PP000=
SPZO Nov2013-160900Z 00000KT 9999 NSC 08/04 Q1031 RMK PP000=
SPZO Nov2013-161000Z 00000KT 9999 SCT040 BKN100 07/04 Q1031 RMK PP000=
SPZO Nov2013-161100Z 08004KT 9999 SCT050 BKN230 08/04 Q1032 NOSIG RMK PP000=
SPZO Nov2013-161200Z VRB02KT 9999 SCT043 SCT100 10/05 Q1033 NOSIG RMK PP000=
SPZO Nov2013-161300Z 00000KT 9999 FEW043 BKN100 14/05 Q1033 NOSIG RMK PP000=
SPZO Nov2013-161400Z VRB03KT 9999 FEW050 BKN230 16/04 Q1032 NOSIG RMK PP000=
SPZO Nov2013-161500Z VRB04KT 9999 SCT050 SCT230 18/06 Q1031 NOSIG RMK PP000=
SPZO Nov2013-161600Z VRB04KT 9999 SCT050 SCT230 20/04 Q1030 NOSIG RMK PP000=
SPZO Nov2013-161700Z VRB03KT 9999 SCT050 22/04 Q1029 NOSIG RMK PP000=
SPZO Nov2013-161800Z VRB04KT 9999 SCT050 24/02 Q1027 NOSIG RMK PP000=
SPZO Nov2013-161900Z VRB05KT 9999 FEW050 SCT060 24/02 Q1026 NOSIG RMK PP000=
SPZO Nov2013-162000Z 05007KT 9999 SCT060 23/02 Q1024 NOSIG RMK PP000=
SPZO Nov2013-162100Z VRB10KT 9999 SCT060 SCT080 22/02 Q1024 NOSIG RMK PP000=
SPZO Nov2013-162200Z 11005KT 040V150 9999 SCT050 SCT080 21/04 Q1025 NOSIG RMK TMAX 24.0 PP000=
SPZO Nov2013-162300Z VRB05KT 9999 SCT050 SCT100 19/05 Q1026 NOSIG RMK PP000=
SPZO Nov2013-170000Z 02006KT 330V070 9999 FEW050 SCT230 17/06 Q1027 RMK PP000=
SPZO Nov2013-170100Z 04007KT 010V070 9999 SCT050 17/06 Q1029 RMK PP000=
SPZO Nov2013-170200Z 08006KT 350V120 9000 -TSRA FEW036CB SCT046 BKN070 10/05 Q1034 RMK PP014=
SPZO Nov2013-170300Z 28007KT 9000 TSRA FEW036CB SCT040 OVC070 09/06 Q1034 RMK VIS 7000 QUAD NE RA PP044=
SPZO Nov2013-170400Z 28005KT 220V300 9000 RA FEW036 SCT040 OVC070 09/06 Q1033 RMK VIS 7000 QUAD NE RA PP028=
SPZO Nov2013-170500Z 26003KT 220V290 9000 -RA FEW036 SCT040 OVC070 09/06 Q1033 RMK PP010=
SPZO Nov2013-170600Z 29003KT 240V330 9999 FEW036 SCT040 BKN080 10/06 Q1031 RMK PP002=
SPZO Nov2013-170700Z 33006KT 280V030 9999 FEW025 SCT040 BKN080 10/05 Q1031 RMK PP000=
SPZO Nov2013-170800Z 10006KT 080V140 9999 -RA FEW025 SCT040 BKN080 09/06 Q1031 RMK PP002=
SPZO Nov2013-170900Z 11004KT 9999 FEW025 SCT040 BKN080 09/07 Q1030 RMK PPTRZ=
SPZO Nov2013-171000Z 09005KT 9999 FEW020 SCT036 BKN080 09/06 Q1031 RMK VIS 9000 QUAD E BR PP000=
SPZO Nov2013-171100Z 10003KT 9999 FEW020 SCT036 OVC080 09/06 Q1031 NOSIG RMK PP000=
SPZO Nov2013-171200Z 00000KT 9999 FEW025 SCT040 OVC080 10/07 Q1032 NOSIG RMK PP000=
SPZO Nov2013-171300Z VRB03KT 9999 FEW020 BKN200 12/07 Q1032 NOSIG RMK PP000=
SPZO Nov2013-171400Z 13003KT 9999 FEW033 BKN200 15/07 Q1031 NOSIG RMK PP000=
SPZO Nov2013-171500Z VRB03KT 9999 FEW033 BKN200 16/05 Q1030 NOSIG RMK PP000=
SPZO Nov2013-171600Z VRB02KT 9999 SCT040 BKN200 19/06 Q1029 NOSIG RMK PP000=
SPZO Nov2013-171700Z VRB02KT 9999 SCT050 BKN200 20/06 Q1028 NOSIG RMK PP000=
SPZO Nov2013-171800Z VRB05KT 9999 SCT050 BKN200 21/05 Q1027 NOSIG RMK PP000=
SPZO Nov2013-171900Z VRB04KT 9999 SCT050 BKN150 22/02 Q1025 NOSIG RMK PP000=
SPZO Nov2013-172000Z 02010KT 9999 VCSH FEW036TCU SCT046 BKN150 21/06 Q1024 NOSIG RMK PP000=
SPZO Nov2013-172100Z 11023G36KT 9000 TS VCSH FEW036TCU SCT043CB BKN150 14/07 Q1026 TEMPO RA RMK VIS 7000E PP000=
SPZO Nov2013-172200Z 17008KT 120V240 9000 VCSH FEW036TCU SCT046 BKN100 12/05 Q1028 NOSIG RMK T MAX 23.0 PP002=
SPZO Nov2013-172300Z 14008KT 100V180 9999 SCT050 BKN100 12/05 Q1028 NOSIG RMK PP000=
SPZO Nov2013-180000Z VRB04KT 9999 SCT043 BKN080 12/05 Q1028 RMK PP000=
SPZO Nov2013-180100Z VRB03KT 9999 SCT050 BKN100 13/05 Q1029 RMK PP000=
SPZO Nov2013-180200Z 32006KT 9999 SCT050 SCT100 12/04 Q1030 RMK PP000=
SPZO Nov2013-180300Z 29009KT 9999 SCT050 SCT100 12/04 Q1031 RMK PP000=
SPZO Nov2013-180400Z 27011KT 9999 FEW050 BKN100 11/05 Q1031 RMK PP000=
SPZO Nov2013-180500Z 30009KT 9999 OVC100 10/04 Q1030 RMK PP000=
SPZO Nov2013-180600Z 00000KT 9999 FEW040 BKN100 10/05 Q1029 RMK PP000=
SPZO Nov2013-180700Z 00000KT 9999 FEW050 08/05 Q1028 RMK PP000=
SPZO Nov2013-180800Z 00000KT 9999 FEW050 07/04 Q1028 RMK PP000=
SPZO Nov2013-180900Z 00000KT 9999 FEW060 07/04 Q1028 RMK PP000=
SPZO Nov2013-181000Z 08002KT 9999 FEW040 06/04 Q1028 RMK PP000=
SPZO Nov2013-181100Z 30002KT 9999 BKN230 06/04 Q1029 NOSIG RMK PP000=
SPZO Nov2013-181200Z VRB01KT 9999 FEW040 BKN230 10/05 Q1029 NOSIG RMK HZ QUAD NE RMK PP000=
SPZO Nov2013-181300Z VRB02KT 9999 FEW036 BKN230 12/05 Q1030 NOSIG RMK PP000=
SPZO Nov2013-181400Z VRB02KT 9999 SCT040 15/05 Q1029 NOSIG RMK PP000=
SPZO Nov2013-181500Z VRB03KT 9999 SCT050 17/04 Q1028 NOSIG RMK PP000=
SPZO Nov2013-181600Z VRB02KT 9999 SCT050 19/01 Q1027 NOSIG RMK PP000=
SPZO Nov2013-181700Z VRB02KT 9999 SCT050 20/02 Q1026 NOSIG RMK PP000=
SPZO Nov2013-181800Z 11010KT 9999 FEW040TCU SCT080 20/01 Q1024 NOSIG RMK PP000=
SPZO Nov2013-181900Z 12005KT 9999 SCT080 22/00 Q1023 NOSIG RMK PP000=
SPZO Nov2013-182000Z 28020KT 9999 FEW040TCU SCT080 20/03 Q1022 NOSIG RMK PP000=
SPZO Nov2013-182100Z 30012KT 9999 FEW040TCU SCT080 19/04 Q1022 NOSIG RMK PPTRZ=
SPZO Nov2013-182200Z 30008KT 9999 SCT040 BKN100 20/03 Q1022 NOSIG RMK PP000=
SPZO Nov2013-182300Z 26008KT 9999 FEW060 SCT100 17/03 Q1022 NOSIG RMK PP000=
SPZO Nov2013-190000Z 28008KT 9999 FEW050 15/04 Q1023 RMK PP000=
SPZO Nov2013-190100Z 28005KT 9999 FEW050 12/05 Q1025 RMK PP000=
SPZO Nov2013-190200Z 09005KT 9999 FEW050 12/06 Q1026 RMK PP000=
SPZO Nov2013-190300Z VRB01KT 9999 FEW050 11/06 Q1026 RMK PP000=
SPZO Nov2013-190400Z 30004KT 9999 SCT050 11/06 Q1027 RMK PP000=
SPZO Nov2013-190500Z 09003KT 9999 SCT050 11/06 Q1026 RMK PP000=
SPZO Nov2013-190600Z 09003KT 9999 SCT050 10/06 Q1026 RMK PP000=
SPZO Nov2013-190700Z 31003KT 9999 FEW033 BKN050 09/05 Q1026 RMK PP000=
SPZO Nov2013-190800Z 29003KT 9999 FEW033 BKN050 09/05 Q1026 RMK PP000=
SPZO Nov2013-190900Z 28003KT 9999 FEW030 BKN050 10/06 Q1026 RMK PP000=
SPZO Nov2013-191000Z VRB01KT 9999 FEW030 SCT050 10/06 Q1026 RMK PP000=
SPZO Nov2013-191100Z 00000KT 9999 SCT046 10/06 Q1027 NOSIG RMK HZ QUAD E PP000=
SPZO Nov2013-191200Z 29003KT 9999 FEW050 12/06 Q1028 NOSIG RMK PP000=
SPZO Nov2013-191300Z VRB02KT 9999 SCT050 15/06 Q1028 NOSIG RMK PP000=
SPZO Nov2013-191400Z 13004KT 9999 SCT050 16/05 Q1028 NOSIG RMK PP000=
SPZO Nov2013-191500Z 24004KT 9999 SCT050 18/05 Q1027 NOSIG RMK PP000=
SPZO Nov2013-191600Z 30005KT 9999 SCT050 20/03 Q1026 NOSIG RMK PP000=
SPZO Nov2013-191700Z 35005KT 9999 SCT050 21/02 Q1025 NOSIG RMK PP000=
SPZO Nov2013-191800Z 29008KT 9999 SCT050 21/M01 Q1023 NOSIG RMK PP000=
SPZO Nov2013-191900Z 30012KT 9999 SCT050 23/M01 Q1022 NOSIG RMK PP000=
SPZO Nov2013-192000Z 29006KT 9999 FEW040TCU SCT080 22/M03 Q1021 NOSIG RMK PP000=
SPZO Nov2013-192100Z 11010KT 9999 SCT060 21/03 Q1021 NOSIG RMK PP000=
SPZO Nov2013-192200Z 12012KT 9999 SCT060 18/05 Q1022 NOSIG RMK PP000=
SPZO Nov2013-192300Z 13005KT 9999 FEW060 17/05 Q1023 NOSIG RMK PP000=
SPZO Nov2013-200000Z 08003KT 9999 FEW060 15/05 Q1024 RMK PP000=
SPZO Nov2013-200100Z VRB02KT 9999 NSC 14/05 Q1025 RMK PP000=
SPZO Nov2013-200200Z 11006KT 9999 NSC 13/05 Q1027 RMK PP000=
SPZO Nov2013-200300Z 10004KT 9999 FEW050 12/05 Q1028 RMK PP000=
SPZO Nov2013-200400Z VRB02KT 9999 FEW050 12/05 Q1028 RMK PP000=
SPZO Nov2013-200500Z 10003KT 9999 FEW050 12/05 Q1028 RMK PP000=
SPZO Nov2013-200600Z 28003KT 9999 SCT050 12/06 Q1027 RMK PP000=
SPZO Nov2013-200700Z 00000KT 9999 SCT050 11/05 Q1026 RMK PP000=
SPZO Nov2013-200800Z 00000KT 9999 SCT050 10/05 Q1027 RMK PP000=
SPZO Nov2013-200900Z 12004KT 9999 SCT046 10/05 Q1027 RMK PP000=
SPZO Nov2013-201000Z VRB01KT 9999 SCT046 09/05 Q1028 RMK PP000=
SPZO Nov2013-201100Z 30004KT 9999 FEW033 BKN080 09/05 Q1028 NOSIG RMK PP000=
SPZO Nov2013-201200Z 10004KT 9999 FEW025 SCT043 BKN080 11/06 Q1030 NOSIG RMK HZ QUAD E PP000=
SPZO Nov2013-201300Z 11007KT 080V150 9999 FEW025 SCT040 BKN080 13/06 Q1030 NOSIG RMK HZ QUAD E PP000=
SPZO Nov2013-201400Z VRB01KT 9999 FEW025 SCT040 BKN080 14/05 Q1030 NOSIG RMK HS QUAD E PP000=
SPZO Nov2013-201500Z 22003KT 160V290 9999 SCT040 BKN080 16/04 Q1030 NOSIG RMK PP000=
SPZO Nov2013-201600Z VRB03KT 9999 SCT040 BKN080 19/02 Q1029 NOSIG RMK PP000=
SPZO Nov2013-201700Z 08013KT 050V110 9999 VCSH FEW033TCU SCT040 BKN080 20/06 Q1028 NOSIG RMK PP000=
SPZO Nov2013-201800Z 07007KT 020V120 9999 VCSH FEW033TCU SCT050 BKN090 21/02 Q1027 NOSIG RMK PP000=
SPZO Nov2013-201900Z VRB05KT 9999 SCT050 SCT100 19/04 Q1026 NOSIG RMK PP000=
SPZO Nov2013-202000Z VRB04KT 9999 VCSH FEW040TCU SCT050 BKN080 21/04 Q1025 NOSIG RMK PP000=
SPZO Nov2013-202100Z 35007KT 9999 FEW040 SCT050 BKN080 18/05 Q1025 NOSIG RMK PP000=
SPZO Nov2013-202200Z 02009KT 9999 SCT050 17/04 Q1025 NOSIG RMK T.MAX 21.2 PP000=
SPZO Nov2013-202300Z 03011KT 9999 SCT050 16/04 Q1026 NOSIG RMK PP000=
SPZO Nov2013-210000Z 02010KT 9999 NSC 15/04 Q1027 RMK PP000=
SPZO Nov2013-210100Z 13003KT 9999 NSC 14/05 Q1028 RMK PP000=
SPZO Nov2013-210200Z VRB04KT 9999 NSC 14/04 Q1029 RMK PP000=
SPZO Nov2013-210300Z 00000KT 9999 -RA FEW060 13/05 Q1031 RMK PPTRZ=
SPZO Nov2013-210400Z 00000KT 9999 FEW060 BKN100 12/05 Q1030 RMK PP000=
SPZO Nov2013-210500Z 00000KT 9999 SCT060 BKN100 12/05 Q1030 RMK PP000=
SPZO Nov2013-210600Z 00000KT 9999 SCT050 BKN100 12/05 Q1030 RMK PP000=
SPZO Nov2013-210700Z 00000KT 9999 SCT050 BKN100 12/05 Q1029 RMK PP000=
SPZO Nov2013-210800Z 00000KT 9999 SCT050 BKN100 10/05 Q1029 RMK PP000=
SPZO Nov2013-210900Z 00000KT 9999 SCT050 BKN100 10/05 Q1030 RMK PP000=
SPZO Nov2013-211000Z 00000KT 9999 SCT036 BKN100 10/00 Q1030 RMK PP000=
SPZO Nov2013-211100Z 16002KT 9999 FEW020 SCT040 BKN100 10/05 Q1031 NOSIG RMK PP000=
SPZO Nov2013-211200Z 00000KT 9999 FEW030 SCT043 BKN100 11/05 Q1031 NOSIG RMK PP000=
SPZO Nov2013-211300Z VRB02KT 9999 FEW033 SCT043 BKN080 12/05 Q1032 NOSIG RMK PP000=
SPZO Nov2013-211400Z 12003KT 040V180 9999 FEW033 SCT043 BKN100 13/05 Q1032 NOSIG RMK PP000=
SPZO Nov2013-211500Z 08004KT 9999 FEW036 SCT046 BKN100 14/05 Q1031 NOSIG RMK PP000=
SPZO Nov2013-211600Z VRB04KT 9999 VCSH FEW040TCU SCT046 BKN100 15/05 Q1030 NOSIG RMK PP000=
SPZO Nov2013-211700Z 06008KT 030V120 9999 VCSH FEW040TCU SCT046 BKN100 14/05 Q1030 NOSIG RMK PP000=
SPZO Nov2013-211800Z VRB01KT 9999 FEW040TCU SCT050 BKN100 16/05 Q1029 NOSIG RMK PP000=
SPZO Nov2013-211900Z 11005KT 9999 FEW036TCU SCT046 BKN100 17/05 Q1028 NOSIG RMK PP000=
SPZO Nov2013-212000Z 01007KT 030V070 9999 VCSH FEW036TCU SCT050 BKN100 16/05 Q1027 NOSIG RMK PP000=
SPZO Nov2013-212100Z 28013KT 240V310 9999 VCSH FEW036 SCT050 BKN100 15/06 Q1027 NOSIG RMK PP000=
SPZO Nov2013-212200Z 28015KT 9999 VCSH FEW040TCU SCT050 BKN080 14/05 Q1028 NOSIG RMK TMAX 17.5 PP000=
SPZO Nov2013-212300Z 29009KT 9999 VCSH FEW040TCU SCT050 BKN080 13/05 Q1029 NOSIG RMK PP000=
SPZO Nov2013-220000Z 29005KT 9999 VCSH FEW040 SCT046 BKN070 13/06 Q1030 RMK PP000=
SPZO Nov2013-220100Z 12007KT 9000 -RA VCSH FEW030 SCT040 BKN070 11/08 Q1031 RMK PP002=
SPZO Nov2013-220200Z VRB01KT 9000 -RA VCSH FEW030 SCT040 BKN070 10/07 Q1032 RMK PP016=
SPZO Nov2013-220300Z 00000KT 9999 FEW030 SCT040 BKN080 11/07 Q1033 RMK PP002=
SPZO Nov2013-220400Z 11013KT 9999 FEW020 SCT040 BKN080 09/05 Q1033 RMK PP000=
SPZO Nov2013-220500Z 10007KT 080V140 9999 -RA FEW020 SCT040 BKN080 08/05 Q1033 RMK PP002=
SPZO Nov2013-220600Z 11007KT 9999 DZ FEW020 SCT040 BKN080 08/05 Q1032 RMK PPTRZ=
SPZO Nov2013-220700Z 11008KT 9999 FEW020 SCT040 BKN080 08/05 Q1031 RMK PP000=
SPZO Nov2013-220800Z 10005KT 9999 FEW020 SCT040 BKN080 08/04 Q1030 RMK PP000=
SPZO Nov2013-220900Z 00000KT 9999 FEW020 SCT040 BKN080 08/04 Q1030 RMK PP000=
SPZO Nov2013-221000Z 00000KT 9999 FEW025 SCT040 BKN080 08/04 Q1030 RMK PP000=
SPZO Nov2013-221100Z 11005KT 9999 FEW025 SCT040 BKN080 08/05 Q1031 NOSIG RMK PP000=
SPZO Nov2013-221200Z 00000KT 9999 FEW025 SCT050 BKN080 09/05 Q1032 NOSIG RMK PP000=
SPZO Nov2013-221300Z 10005KT 9999 FEW020 SCT040 BKN080 09/06 Q1032 NOSIG RMK BCO BR PP000=
SPZO Nov2013-221400Z VRB01KT 9999 FEW025 SCT040 BKN080 11/06 Q1032 NOSIG RMK PP000=
SPZO Nov2013-221500Z 08004KT 030V150 9999 FEW036 SCT050 BKN080 13/06 Q1032 NOSIG RMK PP000=
SPZO Nov2013-221600Z VRB04KT 9999 FEW036 SCT050 BKN080 14/05 Q1030 NOSIG RMK PP000=
SPZO Nov2013-221700Z 10005KT 030V160 9999 FEW040 SCT050 BKN100 17/05 Q1029 NOSIG RMK PP000=
SPZO Nov2013-221800Z 04005KT 9999 VCSH FEW040TCU SCT060 BKN100 18/04 Q1028 NOSIG RMK PP000=
SPZO Nov2013-221900Z 02010KT 9999 FEW040TCU SCT060 BKN100 19/03 Q1026 NOSIG RMK PP000=
SPZO Nov2013-222000Z 01010KT 9999 SCT040 BKN100 19/04 Q1025 NOSIG RMK PP000=
SPZO Nov2013-222100Z 12005KT 9999 SCT040 BKN100 16/04 Q1025 NOSIG RMK PP000=
SPZO Nov2013-222200Z VRB03KT 9999 VCSH SCT060 BKN100 15/05 Q1026 NOSIG RMK PP000=
SPZO Nov2013-222300Z 28009KT 9999 SCT050 BKN100 14/07 Q1026 NOSIG RMK PP000=
SPZO Nov2013-230000Z 18003KT 9999 BKN050 SCT100 13/07 Q1028 RMK PP000=
SPZO Nov2013-230100Z 00000KT 9999 FEW030 SCT060 11/06 Q1029 RMK PP000=
SPZO Nov2013-230200Z 09004KT 9999 SCT040 BKN050 12/07 Q1030 RMK PP000=
SPZO Nov2013-230300Z 00000KT 9999 BKN040 SCT050 11/07 Q1030 RMK PP000=
SPZO Nov2013-230400Z 00000KT 8000 RA OVC040 09/06 Q1031 RMK PP032=
SPZO Nov2013-230500Z 00000KT 8000 RA OVC040 08/06 Q1030 RMK PP0038=
SPZO Nov2013-230600Z 00000KT 9999 -RA SCT030 BKN040 08/05 Q1029 RMK PP022=
SPZO Nov2013-230700Z 00000KT 9999 SCT030 BKN050 09/05 Q1029 RMK PP000=
SPZO Nov2013-230800Z 00000KT 9999 SCT040 BKN050 09/05 Q1028 RMK PP000=
SPZO Nov2013-230900Z 00000KT 9999 SCT040 BKN050 08/06 Q1028 RMK PP000=
SPZO Nov2013-231000Z 00000KT 9999 FEW030 SCT080 07/05 Q1028 RMK PP000=
SPZO Nov2013-231100Z 11003KT 9999 FEW020 08/05 Q1029 NOSIG RMK PP000=
SPZO Nov2013-231200Z 08002KT 9999 FEW030 SCT060 09/04 Q1030 NOSIG RMK PP000=
SPZO Nov2013-231300Z 26001KT 9999 FEW020 BKN060 11/06 Q1030 NOSIG RMK PP000=
SPZO Nov2013-231400Z 12001KT 9999 FEW020 BKN060 12/05 Q1031 NOSIG RMK PP000=
SPZO Nov2013-231500Z VRB02KT 9999 FEW060 16/04 Q1030 NOSIG RMK PP000=
SPZO Nov2013-231600Z VRB01KT 9999 FEW060 17/01 Q1029 NOSIG RMK PP000=
SPZO Nov2013-231700Z VRB01KT 9999 FEW050 BKN100 18/01 Q1027 NOSIG RMK PP000=
SPZO Nov2013-231800Z 29007KT 9999 FEW050 BKN100 18/01 Q1026 NOSIG RMK PP000=
SPZO Nov2013-231900Z 30006KT 9999 SCT100 19/M01 Q1025 NOSIG RMK PP000=
SPZO Nov2013-232000Z VRB02KT 9999 FEW100 21/M02 Q1023 NOSIG RMK PP000=
SPZO Nov2013-232100Z 29010KT 9999 FEW060 21/01 Q1022 NOSIG RMK PP000=
SPZO Nov2013-232200Z 01006KT 9999 FEW060 20/02 Q1022 NOSIG TMAX 22/1 RMK PP000=
SPZO Nov2013-232300Z 07004KT 9999 NSC 16/05 Q1023 NOSIG RMK PP000=
SPZO Nov2013-240000Z 10006KT 9999 NSC 13/05 Q1025 NOSIG RMK PP000=
SPZO Nov2013-240100Z 12004KT 9999 NSC 12/05 Q1026 NOSIG RMK PP000=
SPZO Nov2013-240200Z VRB01KT 9999 NSC 12/05 Q1028 RMK PP000=
SPZO Nov2013-240300Z 12003KT 9999 NSC 12/05 Q1029 RMK PP000=
SPZO Nov2013-240400Z VRB02KT 9999 NSC 11/05 Q1029 RMK PP000=
SPZO Nov2013-240500Z 10003KT 9999 SCT050 11/05 Q1028 RMK PP000=
SPZO Nov2013-240600Z 00000KT 9999 SCT050 11/05 Q1028 RMK PP000=
SPZO Nov2013-240700Z 11004KT 9999 FEW036 SCT050 10/05 Q1027 RMK PP000=
SPZO Nov2013-240800Z 09003KT 9999 FEW030 SCT050 09/05 Q1027 RMK PP000=
SPZO Nov2013-240900Z VRB01KT 9999 FEW030 BKN060 09/06 Q1027 RMK PP000=
SPZO Nov2013-241000Z 00000KT 9999 FEW043 SCT080 09/05 Q1028 RMK PP000=
SPZO Nov2013-241100Z 10003KT 9999 SCT080 09/06 Q1026 NOSIG RMK VIS 9000E HZ PP000=
SPZO Nov2013-241200Z 00000KT 9999 SCT080 12/06 Q1030 NOSIG RMK VIS 8000E HZPP000=
SPZO Nov2013-241300Z VRB01KT 9999 FEW060 15/06 Q1030 NOSIG RMK PP000=
SPZO Nov2013-241400Z 25004KT 9999 FEW060 16/05 Q1030 NOSIG RMK PP000=
SPZO Nov2013-241500Z 27005KT 9999 FEW060 18/03 Q1029 NOSIG RMK PP000=
SPZO Nov2013-241600Z VRB01KT 9999 FEW060 19/03 Q1027 NOSIG RMK PP000=
SPZO Nov2013-241700Z VRB03KT 9999 SCT060 20/01 Q1027 NOSIG RMK PP000=
SPZO Nov2013-241800Z 17006KT 110V210 9999 FEW040TCU BKN050 20/02 Q1025 NOSIG RMK PP000=
SPZO Nov2013-241900Z 02013KT 340V050 9999 FEW040TCU SCT050 20/02 Q1024 RERA NOSIG RMK PPTRZ=
SPZO Nov2013-242000Z 03010G20KT 330V080 9999 FEW040TCU SCT050 20/04 Q1023 NOSIG RMK TSRA QUAD E PP000=
SPZO Nov2013-242100Z 14014KT 9000 -RA VCSH SCT036TCU BKN050 15/07 Q1025 NOSIG RMK RA QUAD NE PPTRZ=
SPZO Nov2013-242200Z 10011KT 9999 FEW040 SCT070 16/04 Q1025 NOSIG RMK TMAX 21.9 PP000=
SPZO Nov2013-242300Z 11009KT 9999 FEW050 14/05 Q1025 NOSIG RMK PP000=
SPZO Nov2013-250000Z 12004KT 9999 FEW050 14/06 Q1026 RMK PP000=
SPZO Nov2013-250100Z 30005KT 9999 FEW050 12/06 Q1027 RMK PP000=
SPZO Nov2013-250200Z VRB02KT 9999 FEW050 11/05 Q1027 RMK PP000=
SPZO Nov2013-250300Z VRB01KT 9999 FEW050 10/05 Q1028 RMK PP000=
SPZO Nov2013-250400Z VRB02KT 9999 SCT050 10/06 Q1029 RMK PP000=
SPZO Nov2013-250500Z 00000KT 9999 SCT050 09/05 Q1028 RMK PP000=
SPZO Nov2013-250600Z VRB02KT 9999 SCT050 09/05 Q1029 RMK PP000=
SPZO Nov2013-250700Z VRB01KT 9999 SCT050 09/05 Q1028 RMK PP000=
SPZO Nov2013-250800Z 00000KT 9999 SCT050 09/05 Q1028 RMK PP000=
SPZO Nov2013-250900Z VRB02KT 9999 SCT050 08/05 Q1028 RMK PP000=
SPZO Nov2013-251000Z VRB02KT 9999 FEW040 BKN080 09/05 Q1029 RMK PP000=
SPZO Nov2013-251100Z 00000KT 9999 FEW040 BKN080 09/06 Q1030 NOSIG RMK HZ QUAD NE PP000=
SPZO Nov2013-251200Z 00000KT 9999 FEW040 SCT080 13/06 Q1030 NOSIG RMK HZ QUAD E PP000=
SPZO Nov2013-251300Z VRB01KT 9999 SCT040 15/06 Q1031 NOSIG RMK PP000=
SPZO Nov2013-251400Z VRB05KT 9999 SCT040 16/05 Q1031 NOSIG RMK PP000=
SPZO Nov2013-251500Z 11005KT 050V190 9999 SCT050 18/05 Q1030 NOSIG RMK PP000=
SPZO Nov2013-251600Z VRB05KT 9999 SCT050 20/05 Q1029 NOSIG RMK PP000=
SPZO Nov2013-251700Z VRB03KT 9999 SCT050 21/03 Q1027 NOSIG RMK PP000=
SPZO Nov2013-251800Z VRB04KT 9999 SCT050 22/02 Q1026 NOSIG RMK PP000=
SPZO Nov2013-251900Z 06008KT 9999 SCT050 22/01 Q1025 NOSIG RMK PP000=
SPZO Nov2013-252000Z 04009KT 9999 VCSH FEW043 BKN050 21/01 Q1023 NOSIG RMK PP000=
SPZO Nov2013-252100Z 10011KT 9999 TS VCSH FEW040CB SCT046 BKN080 16/04 Q1025 NOSIG RMK PP000=
SPZO Nov2013-252200Z VRB03KT 9999 FEW040 SCT046 BKN080 16/02 Q1025 NOSIG RMK T.MAX 23.4 PP000=
SPZO Nov2013-252300Z 31013G26KT 9999 FEW040TCU SCT046 BKN070 18/M01 Q1025 NOSIG RMK PP000=
SPZO Nov2013-260000Z 11006KT 9999 SCT050 BKN100 15/05 Q1026 RMK PP000=
SPZO Nov2013-260100Z 00000KT 9999 SCT050 BKN100 16/02 Q1028 RMK PP000=
SPZO Nov2013-260200Z /////KT 9999 SCT050 BKN100 14/02 Q1029 RMK PP000=
SPZO Nov2013-260300Z /////KT 9999 SCT050 BKN100 14/02 Q1029 RMK PP000=
SPZO Nov2013-260400Z /////KT 9999 SCT050 BKN100 12/04 Q1029 RMK PP000=
SPZO Nov2013-260500Z /////KT 9999 NSC 10/04 Q1028 RMK PP000=
SPZO Nov2013-260600Z /////KT 9999 NSC 11/04 Q1029 RMK PP000=
SPZO Nov2013-260700Z /////KT 9999 NSC 09/04 Q1028 RMK PP000=
SPZO Nov2013-260800Z /////KT 9999 NSC 08/04 Q1028 RMK PP000=
SPZO Nov2013-260900Z /////KT 9999 NSC 09/04 Q1028 RMK PP000=
SPZO Nov2013-261000Z /////KT 9999 NSC 08/04 Q1029 RMK PP000=
SPZO Nov2013-261100Z VRB01KT 9999 FEW050 08/04 Q1030 NOSIG RMK PP000=
SPZO Nov2013-261200Z 00000KT 9999 FEW050 BKN230 11/04 Q1031 NOSIG RMK PP000=
SPZO Nov2013-261300Z VRB02KT 9999 FEW050 BKN230 13/05 Q1031 NOSIG RMK PP000=
SPZO Nov2013-261400Z 10005KT 040V180 9999 FEW050 BKN230 15/04 Q1030 NOSIG RMK PP000=
SPZO Nov2013-261500Z VRB04KT 9999 SCT050 SCT230 18/04 Q1030 NOSIG RMK PP000=
SPZO Nov2013-261600Z VRB03KT 9999 SCT050 SCT230 19/03 Q1029 NOSIG RMK PP000=
SPZO Nov2013-261700Z VRB02KT 9999 SCT050 SCT100 20/03 Q1027 NOSIG RMK PP000=
SPZO Nov2013-261800Z VRB02KT 9999 FEW043 SCT050 20/02 Q1026 NOSIG RMK PP000=
SPZO Nov2013-261900Z 01006KT 320V080 9999 SCT050 SCT230 22/01 Q1024 NOSIG RMK PP000=
SPZO Nov2013-262000Z 02009KT 340V050 9999 SCT050 BKN230 22/01 Q1023 NOSIG RMK PP000=
SPZO Nov2013-262100Z 03009KT 330V070 9999 SCT050 BKN230 21/03 Q1023 NOSIG RMK PP000=
SPZO Nov2013-262200Z 02013KT 9999 FEW050 BKN230 19/04 Q1023 NOSIG RMK TMAX 22.3 PP000=
SPZO Nov2013-262300Z VRB02KT 9999 FEW050 BKN230 17/04 Q1024 NOSIG RMK PP000=
SPZO Nov2013-270000Z 07006KT 010V100 9999 SCT046 SCT080 16/04 Q1026 RMK PP000=
SPZO Nov2013-270100Z 26007KT 9999 SCT046 SCT080 15/04 Q1027 RMK PP000=
SPZO Nov2013-270200Z 28004KT 250V320 9999 SCT046 SCT080 14/05 Q1028 RMK TS QUAD SW PP000=
SPZO Nov2013-270300Z 23006KT 9999 FEW046 SCT080 14/04 Q1029 RMK PP000=
SPZO Nov2013-270400Z 25004KT 210V270 9999 FEW046 SCT080 14/04 Q1029 RMK PP000=
SPZO Nov2013-270500Z 28008KT 9999 FEW046 SCT080 12/05 Q1029 RMK PP000=
SPZO Nov2013-270600Z 30006KT 270V350 9999 FEW046 SCT080 12/05 Q1028 RMK PP000=
SPZO Nov2013-270700Z 29003KT 270V350 9999 SCT080 11/05 Q1027 RMK PP000=
SPZO Nov2013-270800Z VRB02KT 9999 SCT080 10/05 Q1027 RMK PP000=
SPZO Nov2013-270900Z VRB02KT 9999 FEW040 SCT080 10/05 Q1027 RMK PP000=
SPZO Nov2013-271000Z 00000KT 9999 FEW040 SCT100 10/05 Q1027 RMK PP000=
SPZO Nov2013-271100Z VRB02KT 9999 FEW040 BKN080 11/05 Q1028 NOSIG RMK HZ QUAD NE PP000=
SPZO Nov2013-271200Z VRB02KT 9999 FEW040 BKN080 14/05 Q1029 NOSIG RMK VIS 9000 HZ QUAD NE PP000=
SPZO Nov2013-271300Z VRB01KT 9999 SCT060 17/05 Q1029 NOSIG RMK PP000=
SPZO Nov2013-271400Z VRB03KT 9999 SCT060 17/05 Q1029 NOSIG RMK PP000=
SPZO Nov2013-271500Z VRB02KT 9999 SCT060 19/05 Q1029 NOSIG RMK PP000=
SPZO Nov2013-271600Z VRB02KT 9999 SCT060 20/03 Q1028 NOSIG RMK PP000=
SPZO Nov2013-271700Z 02003KT 300V100 9999 SCT060 SCT100 21/01 Q1027 NOSIG RMK PP000=
SPZO Nov2013-271800Z 22005KT 180V300 9999 SCT060 BKN100 22/00 Q1025 NOSIG RMK PP000=
SPZO Nov2013-271900Z 36006KT 300V060 9999 SCT060 BKN100 23/00 Q1023 NOSIG RMK PP000=
SPZO Nov2013-272000Z 04009KT 9999 FEW036TCU SCT060 BKN100 21/02 Q1023 NOSIG RMK PP000=
SPZO Nov2013-272100Z 04012KT 9999 TS VCSH FEW036CB SCT050 BKN080 19/02 Q1023 TEMPO 9000 -RA RMK PP000=
SPZO Nov2013-272200Z VRB08KT 9999 FEW040TCU SCT050 BKN080 18/03 Q1023 TEMPO 9000 -RA RMK CB QUAD W T MAX 23.0 PP000=
SPZO Nov2013-272300Z VRB02KT 9999 FEW050 BKN080 17/03 Q1024 NOSIG RMK PP000=
SPZO Nov2013-280000Z 22006KT 9999 SCT046 BKN080 16/03 Q1027 RMK PP000=
SPZO Nov2013-280100Z 09006KT 9999 SCT043 BKN060 13/03 Q1030 RMK PP000=
SPZO Nov2013-280200Z VRB04KT 9999 SCT043 SCT100 12/03 Q1032 RMK PP000=
SPZO Nov2013-280300Z 28006KT 9999 SCT050 SCT100 12/03 Q1030 RMK PP000=
SPZO Nov2013-280400Z 27007KT 9999 SCT050 11/04 Q1031 RMK PP000=
SPZO Nov2013-280500Z 00000KT 9999 FEW050 10/03 Q1030 RMK PP000=
SPZO Nov2013-280600Z 00000KT 9999 FEW050 09/03 Q1030 RMK PP000=
SPZO Nov2013-280700Z 28004KT 9999 NSC 08/03 Q1029 RMK PP000=
SPZO Nov2013-280800Z 00000KT 9999 NSC 08/03 Q1029 RMK PP000=
SPZO Nov2013-280900Z 00000KT 9999 NSC 07/03 Q1029 RMK PP000=
SPZO Nov2013-281000Z 00000KT 9999 NSC 06/03 Q1030 RMK PP000=
SPZO Nov2013-281100Z 00000KT 9999 NSC 08/03 Q1031 NOSIG RMK PP000=
SPZO Nov2013-281200Z 00000KT 9999 FEW040 11/03 Q1031 NOSIG RMK HZ QUAD NE PP000=
SPZO Nov2013-281300Z 00000KT 9999 FEW040 14/04 Q1031 NOSIG RMK HZ QUAD NE PP000=
SPZO Nov2013-281400Z VRB02KT 9999 FEW050 16/03 Q1031 NOSIG RMK PP000=
SPZO Nov2013-281500Z /////KT 9999 FEW050 18/02 Q1030 NOSIG RMK PP000=
SPZO Nov2013-281600Z /////KT 9999 SCT050 23/03 Q1029 NOSIG RMK PP000=
SPZO Nov2013-281700Z /////KT 9999 BKN050 21/01 Q1028 NOSIG RMK PP000=
SPZO Nov2013-281800Z /////KT 9999 VCSH FEW036TCU SCT050 22/02 Q1027 NOSIG RMK PP000=
SPZO Nov2013-281900Z /////KT 9999 FEW040 SCT060 22/02 Q1025 NOSIG RMK PP000=
SPZO Nov2013-282000Z /////KT 9999 VCSH FEW040TCU SCT060 20/02 Q1024 TEMPO 9000 -RA RMK TS QUAD NE PP000=
SPZO Nov2013-282100Z 08012KT 9999 VCSH SCT040TCU BKN080 17/04 Q1025 NOSIG RMK PP000=
SPZO Nov2013-282200Z VRB06KT 9999 FEW050 BKN080 19/01 Q1024 NOSIG RMK T MAX 23.7 PP000=
SPZO Nov2013-282300Z 08006KT 9999 FEW050 BKN100 18/02 Q1024 NOSIG RMK PP000=
SPZO Nov2013-290000Z 07003KT 020V110 9999 SCT050 16/05 Q1025 RMK PP000=
SPZO Nov2013-290100Z 10005KT 9999 SCT050 15/05 Q1028 RMK PP000=
SPZO Nov2013-290200Z 00000KT 9999 SCT050 15/05 Q1029 RMK PP000=
SPZO Nov2013-290300Z 31008KT 9999 SCT050 13/06 Q1030 RMK PP000=
SPZO Nov2013-290400Z 23003KT 9999 NSC 13/06 Q1030 RMK PP000=
SPZO Nov2013-290500Z 25003KT 9999 NSC 12/06 Q1029 RMK PP000=
SPZO Nov2013-290600Z 10004KT 9999 NSC 11/06 Q1028 RMK PP000=
SPZO Nov2013-290700Z VRB02KT 9999 NSC 11/06 Q1028 RMK PP000=
SPZO Nov2013-290800Z 05003KT 9999 NSC 10/06 Q1028 RMK PP000=
SPZO Nov2013-290900Z 00000KT 9999 NSC 10/05 Q1028 RMK PP000=
SPZO Nov2013-291000Z 00000KT 9999 FEW050 08/04 Q1029 RMK PP000=
SPZO Nov2013-291100Z 00000KT 9999 SCT080 09/05 Q1029 NOSIG RMK VIS 9000E HZ PP000=
SPZO Nov2013-291200Z 00000KT 9999 FEW040 SCT200 12/06 Q1030 NOSIG RMK PP000=
SPZO Nov2013-291300Z VRB02KT 9999 SCT040 15/07 Q1030 NOSIG RMK PP000=
SPZO Nov2013-291400Z VRB03KT 9999 SCT043 18/06 Q1031 NOSIG RMK PP000=
SPZO Nov2013-291500Z VRB04KT 9999 SCT050 19/06 Q1030 NOSIG RMK PP000=
SPZO Nov2013-291600Z VRB06KT 9999 BKN050 20/04 Q1029 NOSIG RMK PP000=
SPZO Nov2013-291700Z VRB05KT 9999 BKN050 22/04 Q1028 NOSIG RMK PP000=
SPZO Nov2013-291800Z 01011KT 330V060 9999 FEW036 SCT050 22/03 Q1026 NOSIG RMK PP000=
SPZO Nov2013-291900Z 03009KT 330V120 9999 SCT040TCU BKN060 21/03 Q1025 NOSIG RMK RA QUAD E PP000=
SPZO Nov2013-292000Z 08009KT 060V150 9999 SCT040TCU BKN070 18/05 Q1025 NOSIG RMK PP000=
SPZO Nov2013-292100Z 34009KT 300V030 9999 SCT040 BKN080 19/02 Q1023 NOSIG RMK PP000=
SPZO Nov2013-292200Z 09010KT 9999 FEW040TCU SCT046 BKN080 18/05 Q1024 NOSIG RMK TMAX 22.3 PP000=
SPZO Nov2013-292300Z 10006KT 060V150 9999 SCT046 BKN100 16/05 Q1026 NOSIG RMK PP000=
SPZO Nov2013-300000Z 11005KT 080V140 9999 SCT050 BKN100 16/06 Q1027 RMK PP000=
SPZO Nov2013-300100Z 15004KT 090V210 9999 -RA SCT050 BKN080 15/06 Q1029 RMK PP002=
SPZO Nov2013-300200Z 27007KT 9999 SCT050 BKN080 13/06 Q1029 RERA RMK PPTRZ=
SPZO Nov2013-300300Z 26013KT 9999 SCT050 BKN080 13/05 Q1029 RMK PP000=
SPZO Nov2013-300400Z 25006KT 9999 SCT050 SCT080 12/04 Q1030 RMK PP000=
SPZO Nov2013-300500Z VRB02KT 9999 SCT050 BKN080 11/05 Q1029 RMK PP000=
SPZO Nov2013-300600Z VRB02KT 9999 SCT050 BKN080 11/05 Q1029 RMK CB QUAD NE PP000=
SPZO Nov2013-300700Z 00000KT 9999 SCT050 SCT080 09/05 Q1029 RMK PP000=
SPZO Nov2013-300800Z 00000KT 9999 SCT050 SCT080 10/05 Q1029 RMK PP000=
SPZO Nov2013-300900Z 00000KT 9999 SCT050 SCT080 08/05 Q1028 RMK PP000=
SPZO Nov2013-301000Z 00000KT 9999 FEW050 SCT100 09/04 Q1029 RMK PP000=
SPZO Nov2013-301100Z 00000KT 9999 FEW050 SCT100 08/04 Q1030 NOSIG RMK HZ QUAD NE PP000=
SPZO Nov2013-301200Z VRB01KT 9999 FEW040 SCT080 12/05 Q1030 NOSIG RMK HZ QUAD E PP000=
SPZO Nov2013-301300Z 10003KT 030V150 9999 FEW030 SCT046 BKN080 13/05 Q1031 NOSIG RMK HZ QUAD E PP000=
SPZO Nov2013-301400Z 09004KT 050V120 9999 FEW030 SCT046 OVC080 13/05 Q1032 NOSIG RMK PP000=
SPZO Nov2013-301500Z VRB02KT 9999 SCT040 OVC080 14/06 Q1032 NOSIG RMK PP000=
SPZO Nov2013-301600Z VRB02KT 9999 SCT040 OVC080 14/06 Q1031 NOSIG RMK PP000=
SPZO Nov2013-301700Z 00000KT 9999 SCT043 OVC100 16/06 Q1031 NOSIG RMK PP000=
SPZO Nov2013-301800Z VRB02KT 9999 FEW043 OVC100 17/03 Q1030 NOSIG RMK PP000=
SPZO Nov2013-301900Z 23004KT 170V290 9999 FEW046 OVC100 17/02 Q1028 NOSIG RMK PP000=
SPZO Nov2013-302000Z VRB02KT 9999 OVC100 18/01 Q1027 NOSIG RMK PP000=
SPZO Nov2013-302100Z 00000KT 9999 FEW046 BKN230 19/01 Q1025 NOSIG RMK PP000=
SPZO Nov2013-302200Z 36011KT 330V030 9999 SCT046 BKN230 18/02 Q1025 NOSIG RMK T.MAX 19.3 PP000=
SPZO Nov2013-302300Z 01010KT 290V100 9999 SCT050 BKN100 16/02 Q1027 NOSIG RMK PP000=
SPZO Dic2013-010000Z 01009KT 9999 BKN060 14/03 Q1028 RMK PP000=
SPZO Dic2013-010100Z VRB03KT 9999 -RA BKN060 14/03 Q1030 RMK PP000=
SPZO Dic2013-010200Z VRB09KT 9999 BKN060 13/04 Q1032 RMK PP000=
SPZO Dic2013-010300Z 24006KT 9999 FEW036 BKN050 11/04 Q1033 RMK PP000=
SPZO Dic2013-010400Z 23003KT 9999 FEW040 BKN100 11/03 Q1033 RMK PP000=
SPZO Dic2013-010500Z 00000KT 9999 FEW040 BKN100 11/03 Q1031 RMK PP000=
SPZO Dic2013-010600Z 00000KT 9999 FEW040 BKN100 10/04 Q1030 RMK PP000=
SPZO Dic2013-010700Z 00000KT 9999 NSC 10/04 Q1030 RMK PP000=
SPZO Dic2013-010800Z 00000KT 9999 SCT060 10/04 Q1030 RMK PP000=
SPZO Dic2013-010900Z 00000KT 9999 SCT060 09/04 Q1029 RMK PP000=
SPZO Dic2013-011000Z 00000KT 9999 SCT060 09/04 Q1030 RMK PP000=
SPZO Dic2013-011100Z 00000KT 9999 SCT050 BKN100 08/04 Q1030 NOSIG RMK PP000=
SPZO Dic2013-011200Z VRB02KT 9999 SCT050 BKN150 10/04 Q1031 NOSIG RMK PP000=
SPZO Dic2013-011300Z VRB03KT 9999 FEW040 OVC100 12/05 Q1031 NOSIG RMK PP000=
SPZO Dic2013-011400Z VRB02KT 9999 FEW043 BKN230 14/04 Q1031 NOSIG RMK PP000=
SPZO Dic2013-011500Z 00000KT 9999 SCT050 BKN100 17/04 Q1031 NOSIG RMK PP000=
SPZO Dic2013-011600Z 27004KT 9999 SCT046 SCT230 18/03 Q1030 NOSIG RMK PP000=
SPZO Dic2013-011700Z VRB02KT 9999 SCT050 SCT230 20/02 Q1029 NOSIG RMK PP000=
SPZO Dic2013-011800Z 30007KT 240V020 9999 SCT040 SCT050 20/02 Q1028 NOSIG RMK PP000=
SPZO Dic2013-011900Z 01009KT 300V070 9999 SCT050 BKN230 21/03 Q1026 NOSIG RMK PP000=
SPZO Dic2013-012000Z VRB06KT 9999 SCT046TCU BKN200 19/04 Q1026 TEMPO VCSH RMK PP000=
SPZO Dic2013-012100Z 01011KT 320V040 9999 SCT050 BKN200 17/04 Q1026 NOSIG RMK PP000=
SPZO Dic2013-012200Z VRB04KT 9999 SCT050 BKN200 17/03 Q1026 NOSIG RMK TMAX 21.2 PP000=
SPZO Dic2013-012300Z 11011KT 9999 VCSH FEW030 SCT046TCU BKN100 16/04 Q1028 TEMPO -RA RMK PP000=
SPZO Dic2013-020000Z 01008KT 330V090 9999 SCT050 BKN100 15/04 Q1028 RMK PP000=
SPZO Dic2013-020100Z 09005KT 040V160 9999 SCT050 BKN100 14/05 Q1030 RMK PP000=
SPZO Dic2013-020200Z VRB03KT 9999 FEW050 SCT100 14/05 Q1030 RMK PP000=
SPZO Dic2013-020300Z VRB02KT 9999 FEW050 SCT100 13/04 Q1031 RMK PP000=
SPZO Dic2013-020400Z VRB02KT 9999 FEW050 12/04 Q1031 RMK PP000=
SPZO Dic2013-020500Z 00000KT 9999 FEW050 10/04 Q1030 RMK PP000=
SPZO Dic2013-020600Z 00000KT 9999 FEW050 10/04 Q1030 RMK PP000=
SPZO Dic2013-020700Z 00000KT 9999 SCT060 10/04 Q1030 RMK PP000=
SPZO Dic2013-020800Z 00000KT 9999 SCT060 11/04 Q1029 RMK PP000=
SPZO Dic2013-020900Z VRB01KT 9999 SCT060 10/05 Q1030 RMK PP000=
SPZO Dic2013-021000Z 23004KT 190V260 9999 FEW030 BKN060 10/04 Q1029 RMK PP000=
SPZO Dic2013-021100Z VRB01KT 9999 FEW030 BKN060 10/05 Q1030 NOSIG RMK PP000=
SPZO Dic2013-021200Z 00000KT 9999 FEW040 BKN070 13/05 Q1031 NOSIG RMK HZ QUAD E PP000=
SPZO Dic2013-021300Z 08003KT 010V130 9999 SCT040 BKN080 13/05 Q1031 NOSIG RMK PP000=
SPZO Dic2013-021400Z 09005KT 010V160 9999 SCT040 BKN100 14/05 Q1032 NOSIG RMK PP000=
SPZO Dic2013-021500Z 00000KT 9999 SCT046 BKN100 16/04 Q1031 NOSIG RMK PP000=
SPZO Dic2013-021600Z VRB01KT 9999 VCSH FEW036TCU SCT040 BKN080 17/03 Q1031 TEMPO -RA VIS 8000E RMK PP000=
SPZO Dic2013-021700Z 10025G36KT 070V160 7000 PO FEW030TCU SCT040 BKN070 16/03 Q1031 RERA NOSIG RMK PP002=
SPZO Dic2013-021800Z VRB03KT 9999 FEW036 SCT050 BKN080 13/04 Q1030 NOSIG RMK PP006=
SPZO Dic2013-021900Z VRB04KT 9999 SCT050 BKN080 18/04 Q1028 REDZ NOSIG RMK PPTRZ=
SPZO Dic2013-022000Z VRB03KT 9999 SCT050 BKN080 18/05 Q1027 TEMPO VCSH FEW040TCU BKN070 RMK PP000=
SPZO Dic2013-022100Z 01010KT 300V050 9999 FEW040TCU SCT050 BKN080 19/03 Q1026 TEMPO VCSH RMK PP000=
SPZO Dic2013-022200Z 01009KT 320V070 9999 VCSH FEW040TCU SCT050 BKN080 17/04 Q1027 NOSIG RMK T MAX 19.1 PP000=
SPZO Dic2013-022300Z 07020KT 010V100 9999 VCSH FEW040TCU SCT050 BKN100 14/05 Q1029 TEMPO 9000 -RA RMK PP000=
SPZO Dic2013-030000Z 00000KT 9999 FEW030 SCT040TCU BKN046 11/06 Q1030 RMK PP000=
SPZO Dic2013-030100Z VRB03KT 9999 SCT040 BKN080 12/06 Q1031 RMK PP000=
SPZO Dic2013-030200Z 08004KT 9999 SCT040 BKN080 11/06 Q1032 RMK PP000=
SPZO Dic2013-030300Z 08005KT 9999 SCT050 SCT100 10/06 Q1033 RMK PP000=
SPZO Dic2013-030400Z 07005KT 9999 -RA OVC040 10/07 Q1032 RMK PP010=
SPZO Dic2013-030500Z 08004KT 9999 BKN040 SCT050 10/07 Q1032 RMK PP000=
SPZO Dic2013-030600Z 00000KT 9999 SCT040 BKN050 10/06 Q1031 RMK PP000=
SPZO Dic2013-030700Z 00000KT 8000 -RA BKN040 SCT050 10/07 Q1031 RMK PP008=
SPZO Dic2013-030800Z 00000KT 9999 -RA OVC040 09/05 Q1021 RMK PP034=
SPZO Dic2013-030900Z 24005KT 8000 RA FEW030 BKN040 08/05 Q1032 RMK PP030=
SPZO Dic2013-031000Z 26004KT 9000 -RA FEW030 SCT036 BKN070 08/05 Q1032 RMK PP040=
SPZO Dic2013-031100Z 00000KT 9000 -RA FEW020 SCT036 BKN070 08/05 Q1033 NOSIG RMK CLNG BLW 1200M PP010=
SPZO Dic2013-031200Z 00000KT 9999 FEW020 SCT036 BKN080 09/05 Q1034 RERA NOSIG RMK CLNG BLW 1200M PP002=
SPZO Dic2013-031300Z VRB01KT 9999 FEW025 SCT040 BKN080 11/06 Q1034 NOSIG RMK PP000=
SPZO Dic2013-031400Z 00000KT 9999 FEW030 SCT040 BKN080 13/05 Q1034 NOSIG RMK PP000=
SPZO Dic2013-031500Z VRB02KT 9999 FEW030 SCT040 BKN080 13/05 Q1033 NOSIG RMK PP000=
SPZO Dic2013-031600Z VRB03KT 9999 SCT043 BKN080 14/05 Q1033 NOSIG RMK PP000=
SPZO Dic2013-031700Z 35008KT 290V040 9999 SCT043 BKN080 14/07 Q1032 TEMPO -RA VCSH FEW040TCU BKN080 RMK PP000=
SPZO Dic2013-031800Z 32005KT 270V040 9999 FEW040 SCT050 BKN100 15/06 Q1031 NOSIG RMK PP000=
SPZO Dic2013-031900Z VRB05KT 9000 -RA VCSH FEW036 SCT046 BKN080 15/06 Q1030 TEMPO SCT040 BKN080 RMK PPTRZ=
SPZO Dic2013-032000Z VRB06KT 9999 FEW036 SCT043 BKN080 14/06 Q1029 NOSIG RMK PP002=
SPZO Dic2013-032100Z 35008KT 290V050 9999 FEW036 SCT043 BKN080 14/06 Q1028 NOSIG RMK RA QUAD E PP000=
SPZO Dic2013-032200Z VRB05KT 9999 FEW036 SCT043 BKN080 15/05 Q1028 NOSIG RMK TMAX 16.7 PPTRZ=
SPZO Dic2013-032300Z 01007KT 320V060 9999 SCT040 BKN080 14/04 Q1028 NOSIG RMK PP000=
SPZO Dic2013-040000Z 35003KT 9999 SCT040 BKN080 13/04 Q1029 RMK PP000=
SPZO Dic2013-040100Z 02004KT 9999 BKN060 13/05 Q1031 RMK PP000=
SPZO Dic2013-040200Z VRB02KT 9999 TSRA SCT036 OVC060 10/07 Q1032 RMK PP048=
SPZO Dic2013-040300Z 00000KT 9999 RA SCT036 OVC060 08/05 Q1035 RMK PP066=
SPZO Dic2013-040400Z 25003KT 9999 RA FEW020 SCT036 OVC060 07/05 Q1036 RMK PP050=
SPZO Dic2013-040500Z 09008KT 9999 -RA FEW020 SCT036 OVC060 06/04 Q1036 RMK PP026=
SPZO Dic2013-040600Z 10007KT 9999 -RA FEW020 SCT036 OVC060 05/03 Q1036 RMK PP026=
SPZO Dic2013-040700Z 09005KT 9999 -RA FEW020 SCT036 BKN060 05/03 Q1036 RMK PP016=
SPZO Dic2013-040800Z 10003KT 9999 FEW020 SCT036 BKN060 05/03 Q1033 RMK PP002=
SPZO Dic2013-040900Z 08004KT 9999 FEW020 SCT036 BKN070 05/03 Q1033 RMK CLNG BLW 1200M PP000=
SPZO Dic2013-041000Z 09004KT 9000 FEW020 SCT036 OVC080 05/03 Q1034 RMK CLNG BLW 1200M PP000=
SPZO Dic2013-041100Z 11003KT 9000 -DZ FEW015 SCT036 OVC070 05/03 Q1034 NOSIG RMK CLNG BLW 1200M PP000=
SPZO Dic2013-041200Z 10006KT 9999 FEW015 SCT036 BKN070 06/03 Q1035 NOSIG RMK CLNG BLW 1200M PPTRZ=
SPZO Dic2013-041300Z 05003KT 360V120 9000 -RA FEW020 SCT036 BKN070 06/04 Q1036 NOSIG RMK CLNG BLW 1200M PP002=
SPZO Dic2013-041400Z VRB02KT 9999 FEW020 SCT040 BKN100 10/04 Q1035 NOSIG RMK PPTRZ=
SPZO Dic2013-041500Z VRB03KT 9999 FEW030 SCT043 BKN100 11/05 Q1035 NOSIG RMK PP000=
SPZO Dic2013-041600Z VRB03KT 9999 VCSH FEW030 SCT043 BKN100 12/05 Q1034 NOSIG RMK PP000=
SPZO Dic2013-041700Z VRB02KT 9999 FEW030 SCT043 BKN100 13/06 Q1034 NOSIG RMK PP000=
SPZO Dic2013-041800Z VRB03KT 9999 FEW020 SCT040 BKN100 14/05 Q1032 NOSIG RMK PP000=
SPZO Dic2013-041900Z VRB04KT 9999 FEW020 SCT040 BKN100 16/06 Q1031 NOSIG RMK PP000=
SPZO Dic2013-042000Z 09008KT 040V130 9999 BKN046 SCT150 17/06 Q1029 NOSIG RMK PP000=
SPZO Dic2013-042100Z 27012KT 9999 BKN046 SCT100 16/07 Q1029 NOSIG RMK PP000=
SPZO Dic2013-042200Z 30004KT 270V350 9000 RA VCSH FEW036TCU SCT040 BKN080 14/08 Q1029 NOSIG RMK TMAX 17.2 PP008=
SPZO Dic2013-042300Z VRB05KT 9999 VCSH FEW036 SCT040 BKN080 14/07 Q1029 NOSIG RMK PP002=
SPZO Dic2013-050000Z 27009KT 9999 SCT050 BKN080 13/06 Q1030 RMK PP000=
SPZO Dic2013-050100Z 26010KT 9999 SCT050 BKN080 12/07 Q1031 RMK PP000=
SPZO Dic2013-050200Z 28004KT 9999 SCT050 BKN080 11/07 Q1033 RMK PP000=
SPZO Dic2013-050300Z VRB01KT 9999 SCT050 SCT080 11/07 Q1033 RMK PP000=
SPZO Dic2013-050400Z VRB02KT 9999 SCT050 SCT080 10/06 Q1033 RMK PP000=
SPZO Dic2013-050500Z VRB02KT 9999 SCT050 SCT080 09/06 Q1032 RMK PP000=
SPZO Dic2013-050600Z VRB02KT 9999 SCT050 SCT080 08/06 Q1032 RMK PP000=
SPZO Dic2013-050700Z 00000KT 9999 SCT050 SCT080 07/05 Q1031 RMK PP000=
SPZO Dic2013-050800Z 00000KT 9999 SCT050 SCT080 07/05 Q1031 RMK -SHRA BTN 0720/0730 PP002=
SPZO Dic2013-050900Z 00000KT 9999 SCT050 SCT080 07/05 Q1031 RMK PP000=
SPZO Dic2013-051000Z 04003KT 9999 FEW036 BKN080 07/05 Q1032 RMK VIS 8000 QUAD NE BR PP000=
SPZO Dic2013-051100Z VRB03KT 9999 FEW030 SCT040 BKN080 08/06 Q1032 RMK BR QUAD NE PP000=
SPZO Dic2013-051200Z 06003KT 350V120 9999 FEW020 SCT043 BKN080 10/07 Q1033 NOSIG RMK VIS 9000 QUAD NE HZ PP000=
SPZO Dic2013-051300Z 08004KT 030V120 9999 FEW020 SCT043 BKN080 12/06 Q1033 NOSIG RMK PP000=
SPZO Dic2013-051400Z VRB02KT 9999 FEW040 SCT050 BKN100 15/06 Q1033 NOSIG RMK PP000=
SPZO Dic2013-051500Z VRB04KT 9999 BKN050 17/05 Q1033 NOSIG RMK PP000=
SPZO Dic2013-051600Z 26003KT 200V320 9999 BKN050 SCT080 18/04 Q1031 NOSIG RMK PP000=
SPZO Dic2013-051700Z VRB02KT 9999 SCT050 SCT080 19/04 Q1030 NOSIG RMK PP000=
SPZO Dic2013-051800Z VRB04KT 9999 FEW043 SCT050 19/03 Q1029 NOSIG RMK PP000=
SPZO Dic2013-051900Z 06011KT 9999 -RA FEW040TCU BKN050 17/07 Q1028 NOSIG RMK PP004=
SPZO Dic2013-052000Z 25008KT 9999 VCSH FEW040TCU SCT050 BKN080 18/08 Q1027 NOSIG RMK PP004=
SPZO Dic2013-052100Z 23005KT 180V300 9999 FEW040TCU SCT050 16/07 Q1027 NOSIG RMK PP002=
SPZO Dic2013-052200Z 23006KT 9999 FEW050 SCT100 16/07 Q1027 NOSIG RMK T.MAX 20.8 PP000=
SPZO Dic2013-052300Z 24006KT 190V280 9999 SCT043 SCT100 15/06 Q1028 NOSIG RMK PP000=
SPZO Dic2013-060000Z 31004KT 260V010 9999 SCT050 BKN100 14/06 Q1030 RMK PP000=
SPZO Dic2013-060100Z 26005KT 9999 SCT050 BKN100 12/07 Q1029 RMK PP000=
SPZO Dic2013-060200Z 00000KT 9999 SCT050 BKN100 12/07 Q1031 RMK PP000=
SPZO Dic2013-060300Z 00000KT 9999 SCT043 BKN080 12/08 Q1031 RMK PP000=
SPZO Dic2013-060400Z VRB02KT 9999 SCT043 BKN080 11/08 Q1031 RMK PP000=
SPZO Dic2013-060500Z 27005KT 9999 SCT046 BKN080 10/07 Q1031 RMK PP000=
SPZO Dic2013-060600Z VRB01KT 9999 SCT050 SCT080 10/07 Q1030 RMK PP000=
SPZO Dic2013-060700Z 27004KT 9999 SCT050 SCT080 08/05 Q1029 RMK PP000=
SPZO Dic2013-060800Z 00000KT 9999 SCT043 SCT080 09/06 Q1029 RMK PP000=
SPZO Dic2013-060900Z VRB02KT 9999 SCT043 SCT080 08/06 Q1029 RMK PP000=
SPZO Dic2013-061000Z 00000KT 9999 SCT043 SCT080 08/05 Q1030 RMK PP000=
SPZO Dic2013-061100Z 00000KT 9999 SCT040 BKN100 08/05 Q1031 TEMPO FEW020 SCT040 BKN080 RMK PP000=
SPZO Dic2013-061200Z 00000KT 9999 FEW040 SCT080 11/06 Q1032 NOSIG RMK PP000=
SPZO Dic2013-061300Z 00000KT 9999 SCT043 SCT230 14/07 Q1032 NOSIG RMK PP000=
SPZO Dic2013-061400Z VRB02KT 9999 SCT043 SCT230 15/06 Q1032 NOSIG RMK PP000=
SPZO Dic2013-061500Z VRB02KT 9999 FEW043 SCT050 18/06 Q1031 NOSIG RMK PP000=
SPZO Dic2013-061600Z 02013KT 340V060 9999 FEW040 SCT050 16/05 Q1031 NOSIG RMK PP000=
SPZO Dic2013-061700Z VRB04KT 9999 SCT050 SCT230 19/04 Q1030 NOSIG RMK PP000=
SPZO Dic2013-061800Z 03007KT 320V100 9999 SCT050 SCT230 20/03 Q1028 NOSIG RMK PP000=
SPZO Dic2013-061900Z VRB04KT 9999 SCT050 SCT230 21/05 Q1026 NOSIG RMK PP000=
SPZO Dic2013-062000Z VRB05KT 9999 BKN050 20/03 Q1025 TEMPO VCSH FEW040TCU BKN100 RMK PP000=
SPZO Dic2013-062100Z 36010KT 310V040 9999 BKN050 18/03 Q1025 TEMPO -RA RMK PP000=
SPZO Dic2013-062200Z 35007G19KT 290V070 9999 BKN050 17/03 Q1025 NOSIG RMK TMAX 21.7 PP000=
SPZO Dic2013-062300Z VRB07KT 9999 SCT046 SCT080 16/02 Q1027 NOSIG RMK PP000=
SPZO Dic2013-070000Z 25007KT 210V300 9999 SCT046 SCT080 14/03 Q1028 RMK PP000=
SPZO Dic2013-070100Z 26009KT 230V290 9999 FEW050 SCT100 13/04 Q1029 RMK PP000=
SPZO Dic2013-070200Z 26007KT 9999 FEW050 SCT100 12/04 Q1030 RMK PP000=
SPZO Dic2013-070300Z 00000KT 9999 FEW050 SCT100 11/05 Q1031 RMK PP000=
SPZO Dic2013-070400Z 00000KT 9999 SCT050 10/05 Q1031 RMK PP000=
SPZO Dic2013-070500Z 00000KT 9999 SCT050 10/05 Q1031 RMK PP000=
SPZO Dic2013-070600Z 00000KT 9999 SCT050 09/05 Q1030 RMK PP000=
SPZO Dic2013-070700Z VRB02KT 9999 SCT050 10/05 Q1030 RMK PP000=
SPZO Dic2013-070800Z 00000KT 9999 SCT050 09/05 Q1029 RMK PP000=
SPZO Dic2013-070900Z 00000KT 9999 SCT043 SCT080 09/05 Q1029 RMK PP000=
SPZO Dic2013-071000Z 00000KT 9999 SCT043 SCT080 09/05 Q1030 RMK PP000=
SPZO Dic2013-071100Z 05004KT 9999 FEW033 SCT043 BKN080 09/05 Q1031 TEMPO FEW030 SCT050 RMK VIS 8000 QUAD NE BR PP000=
SPZO Dic2013-071200Z 00000KT 9999 FEW033 SCT046 BKN080 11/06 Q1031 NOSIG RMK VIS 8000E HZ PP000=
SPZO Dic2013-071300Z VRB01KT 9999 FEW036 SCT046 BKN080 14/05 Q1032 NOSIG RMK VIS 8000E HZ PP000=
SPZO Dic2013-071400Z VRB03KT 9999 SCT040 BKN080 15/05 Q1031 NOSIG RMK PP000=
SPZO Dic2013-071500Z 00000KT 9999 SCT040 BKN080 16/04 Q1031 NOSIG RMK PP000=
SPZO Dic2013-071600Z VRB01KT 9999 FEW040 SCT080 17/04 Q1030 NOSIG RMK PP000=
SPZO Dic2013-071700Z 00000KT 9999 FEW040 BKN080 19/03 Q1029 NOSIG RMK PP000=
SPZO Dic2013-071800Z VRB04KT 9999 FEW036TCU SCT050 BKN100 19/03 Q1028 TEMPO VCSH RMK PP000=
SPZO Dic2013-071900Z 09013KT 9999 -RA FEW036TCU SCT050 BKN100 16/07 Q1027 NOSIG RMK PP000=
SPZO Dic2013-072000Z 16008KT 110V200 9000 -RA VCSH FEW036TCU SCT050 BKN080 14/06 Q1026 NOSIG RMK RA QUAD NE PP006=
SPZO Dic2013-072100Z VRB02KT 9999 -RA VCSH FEW036TCU SCT050 BKN080 14/07 Q1026 NOSIG RMK PP002=
SPZO Dic2013-072200Z VRB02KT 9999 VCSH FEW036TCU SCT050 BKN080 15/06 Q1026 RERA NOSIG RMK T MAX 19.6 PPTRZ=
SPZO Dic2013-072300Z 24005KT 200V270 9999 -DZ VCSH FEW036TCU SCT050 BKN080 14/06 Q1027 TEMPO -RA RMK PP000=
SPZO Dic2013-080000Z 25005KT 9999 FEW040TCU SCT046 BKN080 12/06 Q1028 RMK PP000=
SPZO Dic2013-080100Z VRB02KT 9999 SCT050 SCT080 12/07 Q1029 RMK PP000=
SPZO Dic2013-080200Z 24005KT 9999 SCT040 BKN060 13/06 Q1030 RMK PP000=
SPZO Dic2013-080300Z 26008KT 9999 BKN040 SCT060 13/07 Q1031 RMK PP000=
SPZO Dic2013-080400Z 26005KT 9999 -RA BKN040 SCT050 11/05 Q1031 RMK PP008=
SPZO Dic2013-080500Z 00000KT 9999 OVC040 10/05 Q1030 RMK PP000=
SPZO Dic2013-080600Z 00000KT 9999 SCT040 BKN050 10/05 Q1030 RMK PP000=
SPZO Dic2013-080700Z 00000KT 9999 -RA OVC040 10/06 Q1029 RMK PP004=
SPZO Dic2013-080800Z 00000KT 9999 BKN040 SCT050 09/06 Q1029 RMK PP000=
SPZO Dic2013-080900Z 00000KT 9999 SCT036 BKN046 08/06 Q1029 RMK PP000=
SPZO Dic2013-081000Z VRB02KT 9999 FEW030 SCT036 BKN050 09/06 Q1030 RMK PP000=
SPZO Dic2013-081100Z 00000KT 9999 FEW036 SCT043 BKN080 10/06 Q1030 NOSIG RMK PP000=
SPZO Dic2013-081200Z VRB01KT 9999 FEW030 SCT040 BKN080 10/06 Q1031 NOSIG RMK PP000=
SPZO Dic2013-081300Z VRB01KT 9999 FEW030 SCT040 BKN080 11/07 Q1032 NOSIG RMK PP000=
SPZO Dic2013-081400Z VRB01KT 9999 FEW030 SCT040 BKN080 14/05 Q1031 BECMG FM1430 26006KT FEW040 BKN230 RMK PP000=
SPZO Dic2013-081500Z VRB02KT 9999 SCT040 BKN100 15/05 Q1031 TEMPO FEW040 BKN230 RMK PP000=
SPZO Dic2013-081600Z VRB04KT 9999 SCT043 BKN100 16/05 Q1030 NOSIG RMK PP000=
SPZO Dic2013-081700Z VRB03KT 9999 SCT050 SCT100 17/04 Q1029 TEMPO VCSH FEW040TCU BKN100 RMK PP000=
SPZO Dic2013-081800Z VRB03KT 9999 VCSH FEW036TCU SCT046 BKN080 18/04 Q1028 NOSIG RMK PP000=
SPZO Dic2013-081900Z 01010KT 330V050 9999 SCT040TCU BKN080 19/04 Q1026 NOSIG RMK PP000=
SPZO Dic2013-082000Z 26013KT 9999 SCT040 BKN080 17/05 Q1026 NOSIG RMK PP000=
SPZO Dic2013-082100Z 26011KT 230V310 9999 SCT046 BKN100 18/05 Q1025 NOSIG RMK PP000=
SPZO Dic2013-082200Z 25012KT 210V280 9999 SCT046 SCT150 18/03 Q1025 NOSIG RMK TMAX 19.1 PP000=
SPZO Dic2013-082300Z 25010KT 220V280 9999 SCT046 SCT100 16/06 Q1026 NOSIG RMK PP000=
SPZO Dic2013-090000Z 25009KT 9999 SCT050 SCT100 15/06 Q1027 RMK PP000=
SPZO Dic2013-090100Z 26009KT 9999 SCT040 BKN080 14/05 Q1028 RMK PP000=
SPZO Dic2013-090200Z 26010KT 9999 SCT040 BKN080 13/06 Q1029 RMK PP000=
SPZO Dic2013-090300Z 27008KT 9999 SCT040 BKN080 13/05 Q1030 RMK PP000=
SPZO Dic2013-090400Z 21005KT 9999 SCT043 BKN080 13/06 Q1030 RMK PP000=
SPZO Dic2013-090500Z 07007KT 9999 RA FEW030 SCT040 BKN080 09/07 Q1031 RMK PP040=
SPZO Dic2013-090600Z VRB02KT 9999 RA FEW030 SCT040 BKN080 09/07 Q1031 RMK PP060=
SPZO Dic2013-090700Z VRB02KT 9999 -RA FEW030 SCT036 BKN080 09/07 Q1031 RMK PP020=
SPZO Dic2013-090800Z 00000KT 9999 -RA FEW020 SCT036 BKN080 08/06 Q1030 RMK PP012=
SPZO Dic2013-090900Z VRB02KT 9999 -RA FEW015 SCT030 BKN080 08/06 Q1030 RMK CLNG BLW 1200M PP014=
SPZO Dic2013-091000Z VRB02KT 9999 -RA FEW020 SCT033 BKN080 08/06 Q1030 RMK CLNG BLW 1200M PP010=
SPZO Dic2013-091100Z 00000KT 8000 -RA FEW020 SCT033 OVC080 08/06 Q1031 NOSIG RMK CLNG BLW 1200M PP010=
SPZO Dic2013-091200Z 09004KT 7000 -RA FEW010 SCT033 BKN080 08/06 Q1032 NOSIG RMK CLNG BLW 1200M PP006=
SPZO Dic2013-091300Z 08007KT 9000 -DZ FEW020 SCT036 BKN080 08/06 Q1032 NOSIG RMK CLNG BLW 1200M PP002=
SPZO Dic2013-091400Z 09006KT 9000 -DZ FEW020 SCT036 BKN080 09/06 Q1033 TEMPO FEW030 SCT046 BKN100 RMK CLNG BLW 1200M PPTRZ=
SPZO Dic2013-091500Z 09003KT 030V140 9000 -DZ FEW020 SCT036 BKN080 10/07 Q1033 NOSIG RMK CLNG BLW 1200M PPTRZ=
SPZO Dic2013-091600Z 07003KT 9000 -RA FEW025 SCT036 BKN080 11/06 Q1032 NOSIG RMK PP000=
SPZO Dic2013-091700Z VRB02KT 9999 VCSH FEW025 SCT036 BKN080 11/06 Q1032 NOSIG RMK PP000=
SPZO Dic2013-091800Z VRB02KT 9000 DZ VCSH FEW025 SCT036 BKN080 12/06 Q1031 NOSIG RMK PPTRZ=
SPZO Dic2013-091900Z 00000KT 9999 FEW025 SCT040 BKN080 14/06 Q1030 NOSIG RMK PP000=
SPZO Dic2013-092000Z VRB02KT 9999 FEW025 SCT040 BKN080 15/06 Q1028 NOSIG RMK PP000=
SPZO Dic2013-092100Z VRB02KT 9999 FEW030 SCT043 BKN080 15/06 Q1028 NOSIG RMK PP000=
SPZO Dic2013-092200Z 10004KT 060V140 9999 FEW030 SCT043 BKN080 15/06 Q1028 NOSIG RMK TMAX 15.5 PP000=
SPZO Dic2013-092300Z 09003KT 9999 FEW033TCU SCT043 BKN080 14/06 Q1028 TEMPO VCSH RMK PP000=
SPZO Dic2013-100000Z VRB01KT 9999 FEW030 SCT050 BKN100 14/06 Q1029 RMK FEWO36TCU QUAD SW PP000=
SPZO Dic2013-100100Z VRB02KT 9999 SCT050 BKN100 13/08 Q1030 RMK PP000=
SPZO Dic2013-100200Z 08003KT 9999 SCT050 BKN100 12/08 Q1031 RMK PP000=
SPZO Dic2013-100300Z 00000KT 9999 SCT050 BKN100 11/08 Q1031 RMK VIS 8000E BR PP000=
SPZO Dic2013-100400Z VRB02KT 9999 SCT050 BKN100 11/08 Q1031 RMK PP000=
SPZO Dic2013-100500Z VRB02KT 9999 SCT050 BKN100 11/08 Q1031 RMK PP000=
SPZO Dic2013-100600Z 00000KT 9999 SCT050 BKN100 11/07 Q1031 RMK PP000=
SPZO Dic2013-100700Z VRB02KT 9999 SCT046 BKN080 10/08 Q1030 RMK PP000=
SPZO Dic2013-100800Z VRB02KT 9999 SCT043 BKN080 10/07 Q1030 RMK PP000=
SPZO Dic2013-100900Z 00000KT 9999 SCT040 BKN080 11/07 Q1030 RMK PP000=
SPZO Dic2013-101000Z 00000KT 9999 FEW030 SCT040 BKN080 10/07 Q1031 RMK PP000=
SPZO Dic2013-101100Z VRB02KT 9999 FEW025 SCT040 BKN080 09/07 Q1032 TEMPO FEW020 SCT040 RMK PP000=
SPZO Dic2013-101200Z 00000KT 9999 FEW025 SCT043 BKN100 11/07 Q1033 NOSIG RMK HZ QUAD E PP000=
SPZO Dic2013-101300Z 10004KT 050V150 9999 FEW025 SCT043 BKN100 13/05 Q1033 NOSIG RMK HZ QUAD E PP000=
SPZO Dic2013-101400Z VRB04KT 9999 FEW025 SCT043 BKN100 15/05 Q1033 NOSIG RMK PP000=
SPZO Dic2013-101500Z 27010KT 240V310 9999 FEW030 SCT043 BKN080 15/06 Q1033 NOSIG RMK PP000=
SPZO Dic2013-101600Z 24006KT 200V270 9999 VCSH FEW036TCU SCT043 BKN080 17/06 Q1032 NOSIG RMK PP000=
SPZO Dic2013-101700Z 10010KT 070V140 9999 VCSH FEW040TCU SCT046 BKN080 14/05 Q1032 TEMPO -RA RMK RA QUAD E PP000=
SPZO Dic2013-101800Z VRB04KT 9999 VCSH FEW040TCU SCT046 BKN100 16/06 Q1031 TEMPO -RA RMK PP000=
SPZO Dic2013-101900Z VRB05KT 9999 VCSH FEW040TCU SCT046 BKN080 15/07 Q1030 NOSIG RMK PP000=
SPZO Dic2013-102000Z VRB03KT 9999 -RA FEW040TCU SCT050 BKN080 14/06 Q1030 NOSIG RMK PP002=
SPZO Dic2013-102100Z 32004KT 260V060 9999 SCT050 SCT100 15/07 Q1029 NOSIG RMK PP006=
SPZO Dic2013-102200Z 08007KT 9999 SCT050 SCT100 15/07 Q1028 NOSIG RMK T.MAX 18.0 PP002=
SPZO Dic2013-102300Z 09004KT 9999 VCSH FEW043TCU SCT050 15/07 Q1029 NOSIG RMK PP000=
SPZO Dic2013-110000Z 12004KT 9999 -RA FEW036TCU SCT050 BKN070 13/09 Q1030 RMK PP004=
SPZO Dic2013-110100Z VRB01KT 9999 SCT046 BKN080 13/08 Q1031 RMK PP000=
SPZO Dic2013-110200Z 08003KT 9999 SCT040 BKN080 12/08 Q1032 RERA RMK PP004=
SPZO Dic2013-110300Z 05003KT 9999 SCT040 BKN080 12/08 Q1033 RMK PP000=
SPZO Dic2013-110400Z 09007KT 9999 SCT043 BKN080 10/08 Q1033 RMK PP000=
SPZO Dic2013-110500Z VRB02KT 9999 SCT040 BKN080 10/08 Q1033 RMK PP000=
SPZO Dic2013-110600Z VRB02KT 9999 SCT036 BKN080 10/07 Q1032 RMK PP000=
SPZO Dic2013-110700Z 08004KT 9999 RA FEW025 SCT036 BKN080 09/07 Q1031 RMK PP004=
SPZO Dic2013-110800Z 10004KT 9999 FEW020 SCT040 BKN080 09/07 Q1031 RMK PP002=
SPZO Dic2013-110900Z 09005KT 9999 FEW015 SCT036 BKN070 09/07 Q1031 RMK PP000=
SPZO Dic2013-111000Z 09003KT 9999 -RA FEW015 SCT036 BKN070 09/07 Q1032 RMK CLNG BLW 1200M PP010=
SPZO Dic2013-111100Z VRB02KT 9999 FEW015 SCT036 BKN070 09/07 Q1033 RMK CLNG BLW 1200M PP002=
SPZO Dic2013-111200Z 08003KT 8000 -RA FEW010 SCT036 BKN080 09/07 Q1033 TEMPO FEW020 SCT040 BKN080 RMK CLNG BLW 1200M PP012=
SPZO Dic2013-111300Z 28003KT 8000 -RA FEW015 SCT036 BKN080 09/06 Q1034 NOSIG RMK CLNG BLW 1200M PP022=
SPZO Dic2013-111400Z 00000KT 9000 -RA FEW020 SCT043 OVC080 09/06 Q1035 FEW040 BKN100 RMK PP012=
SPZO Dic2013-111500Z VRB01KT 9999 -DZ FEW020 SCT043 OVC100 12/06 Q1034 NOSIG RMK PPTRZ=
SPZO Dic2013-111600Z VRB02KT 9999 -DZ FEW025 SCT050 BKN100 13/06 Q1033 NOSIG RMK PP008=
SPZO Dic2013-111700Z VRB03KT 9999 FEW036 SCT230 15/08 Q1032 NOSIG RMK PP000=
SPZO Dic2013-111800Z VRB03KT 9999 FEW036 BKN200 17/05 Q1030 NOSIG RMK PP000=
SPZO Dic2013-111900Z 24004KT 190V330 9999 SCT040 BKN150 17/08 Q1029 NOSIG RMK PP000=
SPZO Dic2013-112000Z 26011KT 9999 SCT046 BKN200 17/07 Q1028 TEMPO VCSH FEW040 BKN080 RMK PP000=
SPZO Dic2013-112100Z 27009KT 9999 SCT050 BKN200 16/07 Q1027 NOSIG RMK PP000=
SPZO Dic2013-112200Z 28012KT 9999 FEW036 SCT070 BKN200 15/07 Q1027 NOSIG RMK TMAX 17.3 PP000=
SPZO Dic2013-112300Z 25009KT 9999 VCSH FEW036 SCT046TCU BKN080 14/08 Q1028 TEMPO -RA RMK PP000=
SPZO Dic2013-120000Z 26007KT 9999 SCT040 BKN100 14/08 Q1029 RMK PP000=
SPZO Dic2013-120100Z 25007KT 9999 SCT040 BKN100 13/08 Q1030 RMK PP000=
SPZO Dic2013-120200Z VRB05KT 9999 SCT040 BKN080 13/06 Q1031 RMK PP000=
SPZO Dic2013-120300Z VRB02KT 9999 SCT040 OVC080 12/05 Q1032 RMK PP000=
SPZO Dic2013-120400Z VRB02KT 9999 SCT040 OVC080 12/06 Q1032 RMK PP000=
SPZO Dic2013-120500Z 00000KT 9999 SCT040 OVC080 12/05 Q1031 RMK PP000=
SPZO Dic2013-120600Z 00000KT 9999 SCT040 OVC080 12/06 Q1030 RMK PP000=
SPZO Dic2013-120700Z 00000KT 9999 FEW046 BKN080 11/07 Q1029 RMK PP000=
SPZO Dic2013-120800Z 00000KT 9999 FEW046 BKN080 11/07 Q1029 RMK PP000=
SPZO Dic2013-120900Z 08003KT 9999 FEW036 SCT050 BKN080 10/07 Q1029 RMK PP000=
SPZO Dic2013-121000Z 08003KT 9999 FEW036 SCT050 BKN080 10/07 Q1029 RMK PP000=
SPZO Dic2013-121100Z 08003KT 9999 FEW025 SCT043 OVC080 10/07 Q1030 NOSIG RMK PP000=
SPZO Dic2013-121200Z VRB02KT 9999 FEW025 SCT040 BKN080 11/07 Q1031 TEMPO FEW020 SCT040 BKN070 RMK VIS 9000E HZ PP000=
SPZO Dic2013-121300Z 08003KT 010V130 9999 DZ FEW020 SCT036 BKN080 13/07 Q1031 NOSIG RMK VIS 9000E HZ PP000=
SPZO Dic2013-121400Z 27003KT 9999 FEW025 SCT040 BKN080 14/06 Q1031 NOSIG RMK PP000=
SPZO Dic2013-121500Z 29004KT 240V040 9999 FEW036 SCT050 BKN080 15/07 Q1031 NOSIG RMK PP000=
SPZO Dic2013-121600Z VRB02KT 9999 FEW036 SCT050 BKN080 16/06 Q1030 NOSIG RMK PP000=
SPZO Dic2013-121700Z 30003KT 9999 FEW040 BKN080 17/05 Q1030 NOSIG RMK PP000=
SPZO Dic2013-121800Z 27013KT 250V340 9999 FEW036TCU SCT050 BKN080 18/06 Q1028 TEMPO VCSH RMK PP000=
SPZO Dic2013-121900Z 26011KT 9999 VCSH FEW036TCU SCT050 BKN080 17/07 Q1027 NOSIG RMK PP000=
SPZO Dic2013-122000Z 26012KT 230V300 9999 VCSH FEW036TCU SCT046 BKN080 18/06 Q1026 NOSIG RMK PP000=
SPZO Dic2013-122100Z 25011KT 210V290 9999 VCSH FEW036TCU SCT046 BKN080 17/06 Q1025 NOSIG RMK PP000=
SPZO Dic2013-122200Z 24009KT 190V280 9999 SCT046 BKN080 18/06 Q1025 NOSIG RMK T MAX 19.3 PP000=
SPZO Dic2013-122300Z 12005KT 080V200 9999 SCT046 BKN100 15/07 Q1026 NOSIG RMK PP000=
SPZO Dic2013-130000Z 09003KT 9999 BKN040 SCT060 14/07 Q1027 RMK PP000=
SPZO Dic2013-130100Z 08016KT 8000 TSRA SCT040CB BKN046 10/08 Q1030 RMK PP032=
SPZO Dic2013-130200Z 26003KT 9000 -RA SCT030 BKN040 09/07 Q1032 RMK PP090=
SPZO Dic2013-130300Z 30004KT 9000 -RA OVC040 09/06 Q1033 RMK PP042=
SPZO Dic2013-130400Z 00000KT 8000 RA OVC040 09/05 Q1032 RMK PP036=
SPZO Dic2013-130500Z 00000KT 9999 -RA SCT036 BKN043 08/05 Q1031 RMK PP012=
SPZO Dic2013-130600Z 00000KT 9999 SCT030 BKN043 09/05 Q1030 RMK PP000=
SPZO Dic2013-130700Z 00000KT 9999 SCT040 SCT060 09/05 Q1029 RMK PP000=
SPZO Dic2013-130800Z 00000KT 9999 BKN040 SCT050 08/05 Q1029 RMK PP002=
SPZO Dic2013-130900Z 00000KT 9999 BKN043 SCT060 08/05 Q1028 RMK PP000=
SPZO Dic2013-131000Z 00000KT 9999 FEW030 SCT040 BKN080 08/05 Q1028 RMK PP000=
SPZO Dic2013-131100Z 09004KT 9999 FEW036 SCT050 BKN230 08/06 Q1029 NOSIG RMK PP000=
SPZO Dic2013-131200Z 06004KT 9999 FEW030 SCT050 BKN230 08/06 Q1030 NOSIG RMK BR QUAD NE PP000=
SPZO Dic2013-131300Z VRB03KT 9999 FEW030 SCT050 BKN100 09/06 Q1030 NOSIG RMK PP000=
SPZO Dic2013-131400Z VRB03KT 9999 FEW030 SCT050 BKN100 13/07 Q1030 NOSIG RMK PP000=
SPZO Dic2013-131500Z VRB04KT 9999 SCT040 BKN100 14/06 Q1029 NOSIG RMK PP000=
SPZO Dic2013-131600Z VRB03KT 9999 SCT043 BKN100 16/06 Q1028 NOSIG RMK PP000=
SPZO Dic2013-131700Z VRB02KT 9999 SCT046 BKN100 18/06 Q1027 NOSIG RMK PP000=
SPZO Dic2013-131800Z VRB04KT 9999 SCT050 BKN100 19/05 Q1025 NOSIG RMK PP000=
SPZO Dic2013-131900Z 28015KT 250V320 9999 FEW036TCU SCT043 BKN080 17/07 Q1025 TEMPO -RA RMK PP000=
SPZO Dic2013-132000Z 27009KT 230V310 9999 VCSH FEW036 SCT043 BKN080 15/06 Q1024 TEMPO -RA RMK PP000=
SPZO Dic2013-132100Z 27009KT 250V340 9999 SCT043 BKN100 16/05 Q1024 NOSIG RMK PP000=
SPZO Dic2013-132200Z 26009KT 9999 FEW050 BKN150 16/06 Q1024 NOSIG RMK TMAX 20.1 PP000=
SPZO Dic2013-132300Z 31004KT 280V350 9999 FEW050 BKN150 16/05 Q1024 NOSIG RMK PP000=
SPZO Dic2013-140000Z 00000KT 9999 FEW050 SCT200 13/07 Q1025 RMK PP000=
SPZO Dic2013-140100Z 00000KT 9999 SCT050 13/08 Q1027 RMK PP000=
SPZO Dic2013-140200Z 00000KT 9999 SCT050 12/07 Q1028 RMK PP000=
SPZO Dic2013-140300Z 26004KT 220V290 9999 SCT050 SCT080 12/07 Q1028 RMK PP000=
SPZO Dic2013-140400Z 23004KT 180V280 9999 -RA SCT050 BKN080 12/07 Q1029 RMK PP004=
SPZO Dic2013-140500Z VRB02KT 9999 SCT050 BKN080 11/08 Q1028 RMK PP008=
SPZO Dic2013-140600Z 09009KT 050V130 9999 FEW050 SCT080 10/07 Q1028 RMK PP000=
SPZO Dic2013-140700Z 09012KT 9999 FEW030 BKN050 09/06 Q1028 RMK PP000=
SPZO Dic2013-140800Z 08004KT 030V120 9999 FEW030 BKN050 09/05 Q1028 RMK PP000=
SPZO Dic2013-140900Z VRB01KT 9999 FEW030 BKN050 08/05 Q1028 RMK PP000=
SPZO Dic2013-141000Z VRB02KT 9999 FEW030 BKN050 08/05 Q1028 RMK PP000=
SPZO Dic2013-141100Z 00000KT 9999 FEW030 SCT043 BKN080 09/05 Q1029 NOSIG RMK PP000=
SPZO Dic2013-141200Z 00000KT 9999 FEW030 SCT046 BKN080 10/06 Q1030 TEMPO FEW020 SCT040 BKN070 RMK PP000=
SPZO Dic2013-141300Z VRB03KT 9999 FEW036 SCT050 BKN100 12/07 Q1030 NOSIG RMK PP000=
SPZO Dic2013-141400Z VRB03KT 9999 FEW040 SCT050 BKN100 13/06 Q1030 NOSIG RMK PP000=
SPZO Dic2013-141500Z VRB03KT 9999 FEW040 SCT046 BKN100 14/07 Q1030 NOSIG RMK PP000=
SPZO Dic2013-141600Z VRB02KT 9999 SCT050 SCT100 17/06 Q1028 NOSIG RMK PP000=
SPZO Dic2013-141700Z VRB04KT 9999 FEW040TCU SCT050 18/06 Q1027 TEMPO VCSH SCT040TCU BKN100 RMK PP000=
SPZO Dic2013-141800Z 28017KT 250V320 9000 -RA VCSH FEW036TCU SCT046 OVC070 14/06 Q1027 NOSIG RMK PPTRZ=
SPZO Dic2013-141900Z 29003KT 190V350 9000 -RA VCSH FEW036 SCT040 OVC070 12/08 Q1028 NOSIG RMK VIS 7000 QUAD NE RA PPTRZ=
SPZO Dic2013-142000Z 09003KT 030V140 9999 DZ VCSH FEW020 SCT040 BKN070 12/07 Q1027 NOSIG RMK VIS 9000 QUAD E RA PP034=
SPZO Dic2013-142100Z 09003KT 060V120 9999 FEW020 SCT040 BKN080 13/07 Q1026 NOSIG RMK PPTRZ=
SPZO Dic2013-142200Z 09006KT 9999 SCT040 BKN080 13/07 Q1026 TEMPO VCSH FEW040TCU BKN070 RMK TMAX 19.2 PP000=
SPZO Dic2013-142300Z 09007KT 070V130 9999 SCT040 BKN080 12/07 Q1027 TEMPO VCSH FEW040TCU BKN070 RMK PP000=
SPZO Dic2013-150000Z 10005KT 060V130 9999 SCT050 BKN100 12/08 Q1028 RMK PP000=
SPZO Dic2013-150100Z 00000KT 9000 -RA SCT040 BKN080 11/07 Q1029 RMK PPTRZ=
SPZO Dic2013-150200Z 28005KT 9000 -RA SCT040 BKN070 11/08 Q1031 RMK PP012=
SPZO Dic2013-150300Z VRB01KT 7000 -RA FEW030 SCT036 BKN070 10/08 Q1031 RMK PP028=
SPZO Dic2013-150400Z VRB01KT 8000 -RA FEW020 SCT036 BKN070 10/08 Q1031 RMK PP006=
SPZO Dic2013-150500Z VRB02KT 8000 -RA FEW020 SCT036 BKN070 10/07 Q1031 RMK PP004=
SPZO Dic2013-150600Z 08004KT 9000 -DZ FEW020 SCT036 BKN070 10/07 Q1030 RMK PP004=
SPZO Dic2013-150700Z 08005KT 7000 -RA FEW010 SCT036 BKN060 09/07 Q1030 RMK CLNG BLW 1200M PP014=
SPZO Dic2013-150800Z VRB02KT 9000 -RA FEW010 SCT036 BKN060 09/07 Q1029 RMK CLNG BLW 1200M PP014=
SPZO Dic2013-150900Z 10004KT 9000 -DZ FEW010 SCT036 BKN060 09/06 Q1030 RMK CLNG BLW 1200M PP002=
SPZO Dic2013-151000Z VRB03KT 9000 -DZ FEW010 SCT036 BKN060 09/06 Q1030 RMK CLNG BLW 1200M PP002=
SPZO Dic2013-151100Z 07003KT 9000 -DZ FEW010 SCT036 OVC060 08/06 Q1031 NOSIG RMK CLNG BLW 1200M PPTRZ=
SPZO Dic2013-151200Z 00000KT 9999 FEW020 SCT036 OVC070 09/06 Q1032 NOSIG RMK PPTRZ=
SPZO Dic2013-151300Z 00000KT 9999 FEW020 SCT036 BKN070 11/06 Q1032 NOSIG RMK PP000=
SPZO Dic2013-151400Z VRB02KT 9999 FEW025 SCT040 BKN080 13/06 Q1032 BECMG FM1430 33006KT FEW040 BKN100 RMK PP000=
SPZO Dic2013-151500Z VRB02KT 9999 FEW030 SCT043 BKN080 14/06 Q1032 NOSIG RMK PP000=
SPZO Dic2013-151600Z VRB03KT 9999 FEW036 SCT046 BKN080 15/05 Q1031 TEMPO FEW040 SCT200 RMK PP000=
SPZO Dic2013-151700Z VRB03KT 9999 FEW040TCU SCT046 BKN080 18/06 Q1030 NOSIG RMK PP000=
SPZO Dic2013-151800Z 24006KT 180V270 9999 FEW040 SCT050 BKN100 16/06 Q1029 NOSIG RMK PP000=
SPZO Dic2013-151900Z VRB02KT 9999 SCT050 SCT100 18/04 Q1027 NOSIG RMK PP000=
SPZO Dic2013-152000Z 00000KT 9999 FEW043TCU SCT050 BKN100 18/04 Q1026 NOSIG RMK PP000=
SPZO Dic2013-152100Z 20004KT 9999 FEW043 SCT050 BKN100 16/06 Q1026 NOSIG RMK PP000=
SPZO Dic2013-152200Z 34006KT 260V030 9999 SCT050 SCT100 17/05 Q1026 NOSIG RMK T.MAX 19.8 PP000=
SPZO Dic2013-152300Z 32005KT 280V350 9999 SCT050 BKN100 16/06 Q1027 NOSIG RMK PP000=
SPZO Dic2013-160000Z 30006KT 270V330 9999 SCT050 BKN100 15/06 Q1028 RMK PP000=
SPZO Dic2013-160100Z VRB02KT 9999 SCT050 BKN100 13/07 Q1029 RMK PP000=
SPZO Dic2013-160200Z 24004KT 200V270 9999 SCT050 BKN100 13/07 Q1030 RMK PP000=
SPZO Dic2013-160300Z VRB02KT 9999 SCT050 BKN100 12/07 Q1031 RMK PP000=
SPZO Dic2013-160400Z 26007KT 230V290 9999 SCT050 BKN080 13/07 Q1031 RMK PP000=
SPZO Dic2013-160500Z 15004KT 100V220 9999 -DZ SCT043 BKN070 12/06 Q1031 RMK PPTRZ=
SPZO Dic2013-160600Z 00000KT 9999 SCT046 BKN070 11/07 Q1030 REDZ RMK PPTRZ=
SPZO Dic2013-160700Z 10003KT 9999 SCT046 BKN070 10/08 Q1029 RMK PP000=
SPZO Dic2013-160800Z 08004KT 9999 SCT046 BKN080 10/08 Q1029 RMK PP000=
SPZO Dic2013-160900Z 00000KT 9999 SCT046 BKN080 10/08 Q1029 RMK PP000=
SPZO Dic2013-161000Z 00000KT 9999 FEW020 SCT040 BKN080 11/08 Q1029 RMK PP000=
SPZO Dic2013-161100Z 00000KT 9999 FEW020 SCT040 BKN080 10/08 Q1030 NOSIG RMK BCBR QUAD NE PP000=
SPZO Dic2013-161200Z 08003KT 9999 FEW020 SCT040 BKN080 11/08 Q1031 NOSIG RMK PP000=
SPZO Dic2013-161300Z 00000KT 9999 FEW030 SCT043 BKN100 12/08 Q1032 NOSIG RMK PP000=
SPZO Dic2013-161400Z 00000KT 9999 SCT046 BKN100 15/06 Q1031 NOSIG RMK PP000=
SPZO Dic2013-161500Z VRB02KT 9999 SCT050 18/04 Q1031 NOSIG RMK PP000=
SPZO Dic2013-161600Z VRB03KT 9999 SCT050 19/04 Q1030 NOSIG RMK PP000=
SPZO Dic2013-161700Z VRB03KT 9999 SCT050 20/05 Q1029 NOSIG RMK PP000=
SPZO Dic2013-161800Z 04005KT 330V120 9999 SCT050 20/02 Q1027 NOSIG RMK PP000=
SPZO Dic2013-161900Z 10005KT 060V180 9999 SCT050 SCT080 20/02 Q1026 NOSIG RMK PP000=
SPZO Dic2013-162000Z 00000KT 9999 FEW040 SCT050 BKN100 20/03 Q1025 NOSIG RMK PP000=
SPZO Dic2013-162100Z 28011KT 240V310 9999 SCT050 BKN100 20/05 Q1024 NOSIG RMK FZ EDROX PP000=
SPZO Dic2013-162200Z 28008KT 250V330 9999 SCT050 BKN100 20/04 Q1024 NOSIG RMK TMAX 21.8 FZ EDROX PP000=
SPZO Dic2013-162300Z 27007KT 200V310 9999 FEW050 SCT100 18/05 Q1025 NOSIG RMK PP000=
SPZO Dic2013-170000Z 28009KT 250V330 9999 FEW050 16/05 Q1026 RMK PP000=
SPZO Dic2013-170100Z 00000KT 9999 SCT050 16/06 Q1028 RMK PP000=
SPZO Dic2013-170200Z 00000KT 9999 SCT046 SCT080 15/07 Q1029 RMK PP000=
SPZO Dic2013-170300Z 00000KT 9999 SCT046 SCT080 13/07 Q1030 RMK PP000=
SPZO Dic2013-170400Z 00000KT 9999 FEW046 12/07 Q1030 RMK PP000=
SPZO Dic2013-170500Z 00000KT 9999 FEW046 10/06 Q1029 RMK PP000=
SPZO Dic2013-170600Z 00000KT 9999 FEW040 10/07 Q1028 RMK PP000=
SPZO Dic2013-170700Z VRB02KT 9999 FEW040 11/05 Q1028 RMK PP000=
SPZO Dic2013-170800Z 00000KT 9999 FEW040 10/06 Q1028 RMK PP000=
SPZO Dic2013-170900Z 08003KT 060V120 9999 FEW040 SCT100 09/06 Q1028 RMK PP000=
SPZO Dic2013-171000Z 29004KT 9999 FEW040 SCT100 09/05 Q1028 RMK PP000=
SPZO Dic2013-171100Z 25004KT 9999 FEW040 BKN100 09/05 Q1029 NOSIG RMK PP000=
SPZO Dic2013-171200Z VRB03KT 9999 FEW040 BKN100 10/06 Q1030 NOSIG RMK HZ QUAD NE PP000=
SPZO Dic2013-171300Z 00000KT 9999 FEW050 BKN100 12/04 Q1030 NOSIG RMK HZ QUAD NE PP000=
SPZO Dic2013-171400Z VRB02KT 9999 FEW050 BKN100 13/07 Q1031 NOSIG RMK VIS 9000E HZ PP000=
SPZO Dic2013-171500Z 12004KT 040V180 9999 FEW050 OVC100 15/02 Q1030 NOSIG RMK VIS 9000E HZ PP000=
SPZO Dic2013-171600Z VRB02KT 9999 FEW050 OVC100 16/00 Q1030 NOSIG RMK PP000=
SPZO Dic2013-171700Z VRB03KT 9999 FEW050 OVC100 17/M01 Q1029 NOSIG RMK PP000=
SPZO Dic2013-171800Z 16004KT 100V280 9999 FEW040 BKN100 19/M02 Q1028 NOSIG RMK PP000=
SPZO Dic2013-171900Z VRB03KT 9999 FEW040 BKN080 19/M01 Q1027 NOSIG RMK PP000=
SPZO Dic2013-172000Z 07004KT 340V150 9999 FEW040 BKN100 19/M03 Q1026 NOSIG RMK PP000=
SPZO Dic2013-172100Z VRB04KT 9999 FEW043 BKN100 20/M03 Q1025 NOSIG RMK PP000=
SPZO Dic2013-172200Z 06004KT 340V100 9999 FEW043 BKN100 19/M03 Q1024 NOSIG RMK T MAX 20.4 PP000=
SPZO Dic2013-172300Z 09007KT 9999 FEW050 BKN100 18/01 Q1024 NOSIG RMK PP000=
SPZO Dic2013-180000Z 00000KT 9999 FEW040 BKN100 16/03 Q1025 RMK PP000=
SPZO Dic2013-180100Z 27005KT 9999 FEW050 SCT100 12/04 Q1026 RMK PP000=
SPZO Dic2013-180200Z 06004KT 9999 FEW050 SCT100 12/05 Q1027 RMK PP000=
SPZO Dic2013-180300Z 00000KT 9999 SCT043 SCT080 12/04 Q1029 RMK PP000=
SPZO Dic2013-180400Z 00000KT 9999 BKN043 SCT080 12/06 Q1028 RMK PP000=
SPZO Dic2013-180500Z 00000KT 9999 SCT050 SCT100 11/06 Q1028 RMK PP000=
SPZO Dic2013-180600Z 00000KT 9999 SCT043 SCT080 09/05 Q1028 RMK PP000=
SPZO Dic2013-180700Z 00000KT 9999 BKN043 SCT080 08/05 Q1028 RMK PP000=
SPZO Dic2013-180800Z 00000KT 9999 BKN050 08/05 Q1028 RMK PP000=
SPZO Dic2013-180900Z 00000KT 9999 FEW050 08/04 Q1028 RMK PP000=
SPZO Dic2013-181000Z 00000KT 9999 FEW040 05/03 Q1029 RMK PP000=
SPZO Dic2013-181100Z 00000KT 9999 FEW230 06/03 Q1030 NOSIG RMK PP000=
SPZO Dic2013-181200Z 00000KT 9999 FEW230 12/04 Q1030 NOSIG RMK HZ QUAD NE PP000=
SPZO Dic2013-181300Z 00000KT 9999 FEW230 15/03 Q1030 NOSIG RMK HZ QUAD NE PP000=
SPZO Dic2013-181400Z VRB04KT 9999 FEW230 17/00 Q1030 TEMPO 34008KT RMK PP000=
SPZO Dic2013-181500Z 29007KT 240V340 9999 FEW040 SCT230 18/M02 Q1029 NOSIG RMK PP000=
SPZO Dic2013-181600Z 21005KT 140V280 9999 FEW040 SCT230 19/M06 Q1028 NOSIG RMK PP000=
SPZO Dic2013-181700Z 27006KT 210V010 9999 FEW050 SCT230 20/00 Q1027 NOSIG RMK PP000=
SPZO Dic2013-181800Z 26007KT 210V350 9999 SCT050 22/M04 Q1026 NOSIG RMK PP000=
SPZO Dic2013-181900Z 26008KT 200V340 9999 SCT050 SCT230 22/M01 Q1025 NOSIG RMK PP000=
SPZO Dic2013-182000Z VRB02KT 9999 SCT050 SCT230 23/M01 Q1024 NOSIG RMK PP000=
SPZO Dic2013-182100Z VRB02KT 9999 SCT050 BKN100 23/00 Q1023 NOSIG RMK PP000=
SPZO Dic2013-182200Z 28008KT 240V330 9999 FEW050 BKN100 22/01 Q1022 NOSIG RMK TMAX 23.5 PP000=
SPZO Dic2013-182300Z 02006KT 300V070 9999 FEW050 SCT200 19/05 Q1023 TEMPO SCT150 RMK PP000=
SPZO Dic2013-190000Z 10007KT 9999 BKN080 16/07 Q1024 RMK PP000=
SPZO Dic2013-190100Z 10006KT 9999 NSC 15/07 Q1026 RMK PP000=
SPZO Dic2013-190200Z 08006KT 9999 NSC 14/07 Q1027 RMK PP000=
SPZO Dic2013-190300Z 11003KT 9999 NSC 14/08 Q1028 RMK PP000=
SPZO Dic2013-190400Z VRB02KT 9999 BKN230 13/07 Q1028 RMK PP000=
SPZO Dic2013-190500Z 00000KT 9999 BKN230 12/08 Q1028 RMK PP000=
SPZO Dic2013-190600Z VRB02KT 9999 SCT046 BKN100 13/08 Q1027 RMK PP000=
SPZO Dic2013-190700Z VRB02KT 9999 SCT040 BKN100 12/08 Q1027 RMK PP000=
SPZO Dic2013-190800Z 00000KT 9999 SCT040 BKN080 13/07 Q1026 RMK PP000=
SPZO Dic2013-190900Z 27004KT 9999 -RA FEW025 SCT040 BKN080 12/08 Q1026 RMK PPTRZ=
SPZO Dic2013-191000Z 27007KT 9999 VCSH FEW030 SCT043 BKN080 11/08 Q1027 RMK PP000=
SPZO Dic2013-191100Z 24005KT 9999 VCSH FEW020 SCT040 BKN080 12/07 Q1028 TEMPO 9000 -RA FEW010 SCT030 BKN060 RMK PP000=
SPZO Dic2013-191200Z 26007KT 9999 VCSH FEW030 SCT040 BKN080 11/07 Q1029 NOSIG RMK PP000=
SPZO Dic2013-191300Z 28007KT 250V330 9999 FEW036 SCT046 BKN100 12/06 Q1029 NOSIG RMK PP000=
SPZO Dic2013-191400Z VRB02KT 9999 FEW040 SCT050 BKN100 14/06 Q1029 NOSIG RMK PP000=
SPZO Dic2013-191500Z VRB02KT 9999 SCT050 BKN100 17/06 Q1028 NOSIG RMK PP000=
SPZO Dic2013-191600Z VRB04KT 9999 SCT050 BKN100 18/04 Q1028 NOSIG RMK PP000=
SPZO Dic2013-191700Z 27007KT 200V350 9999 SCT050 BKN100 19/06 Q1027 NOSIG RMK PP000=
SPZO Dic2013-191800Z 29006KT 230V350 9999 SCT050 BKN100 19/05 Q1025 NOSIG RMK PP000=
SPZO Dic2013-191900Z 28011KT 230V320 9999 SCT050 OVC100 20/05 Q1025 NOSIG RMK PP000=
SPZO Dic2013-192000Z 28013KT 240V320 9999 SCT050 OVC100 19/07 Q1024 NOSIG RMK PP000=
SPZO Dic2013-192100Z VRB05KT 9999 FEW050 OVC100 19/06 Q1024 NOSIG RMK PP000=
SPZO Dic2013-192200Z 29008KT 230V360 9999 FEW050 OVC100 18/06 Q1023 NOSIG RMK TMAX 19.8 PP000=
SPZO Dic2013-192300Z 33007KT 290V020 9999 SCT050 BKN100 17/06 Q1024 NOSIG RMK PP000=
SPZO Dic2013-200000Z 35008KT 300V030 9999 SCT050 BKN100 16/06 Q1026 RMK PP000=
SPZO Dic2013-200100Z 30005KT 9999 SCT050 BKN100 14/06 Q1027 RMK PP000=
SPZO Dic2013-200200Z 28004KT 240V340 9999 SCT050 BKN100 14/06 Q1027 RMK PP000=
SPZO Dic2013-200300Z 10013KT 070V140 9000 -RA SCT043 BKN080 12/07 Q1029 RMK PP002=
SPZO Dic2013-200400Z 24007KT 140V290 9000 -TSRA FEW036CB SCT043 BKN070 11/05 Q1030 RMK PP002=
SPZO Dic2013-200500Z 07006KT 030V100 9000 -RA SCT043 BKN070 11/06 Q1028 RMK PP002=
SPZO Dic2013-200600Z VRB02KT 9999 SCT043 BKN070 11/06 Q1028 RERA RMK PPTRZ=
SPZO Dic2013-200700Z 30008KT 260V330 9999 SCT046 SCT080 10/05 Q1028 RMK PP000=
SPZO Dic2013-200800Z VRB02KT 9999 SCT050 SCT080 09/05 Q1028 RMK PP000=
SPZO Dic2013-200900Z 08003KT 9999 SCT050 BKN080 09/06 Q1028 RMK PP000=
SPZO Dic2013-201000Z VRB02KT 9999 SCT050 BKN080 08/06 Q1028 RMK PP000=
SPZO Dic2013-201100Z 00000KT 9999 SCT050 SCT080 08/05 Q1029 NOSIG RMK BR QUAD NE PP000=
SPZO Dic2013-201200Z 00000KT 9999 SCT050 SCT200 11/06 Q1029 NOSIG RMK VIS 8000E HZ PP000=
SPZO Dic2013-201300Z VRB01KT 9999 FEW050 SCT100 14/05 Q1029 NOSIG RMK PP000=
SPZO Dic2013-201400Z 00000KT 9999 SCT040 SCT080 15/05 Q1029 NOSIG RMK PP000=
SPZO Dic2013-201500Z 00000KT 9999 SCT046 BKN080 15/05 Q1029 NOSIG RMK PP000=
SPZO Dic2013-201600Z 00000KT 9999 SCT050 BKN080 17/05 Q1029 TEMPO VCSH RMK PP000=
SPZO Dic2013-201700Z VRB04KT 9999 SCT046 BKN080 18/04 Q1027 TEMPO FEW030TCU RMK PP000=
SPZO Dic2013-201800Z 08007KT 030V120 9999 SCT046 SCT100 18/05 Q1026 NOSIG RMK PP000=
SPZO Dic2013-201900Z VRB03KT 9999 FEW043 SCT050 18/04 Q1025 TEMPO VCSH RMK PP000=
SPZO Dic2013-202000Z VRB04KT 9999 FEW040 SCT050 19/04 Q1024 NOSIG RMK PP000=
SPZO Dic2013-202100Z 34006KT 300V060 9999 FEW040TCU SCT050 18/08 Q1023 TEMPO VCSH RMK PP000=
SPZO Dic2013-202200Z 27019KT 9999 SCT040TCU SCT050 16/06 Q1023 TEMPO VCSH RMK PP000=
SPZO Dic2013-202300Z 27008KT 9000 RA SCT040TCU BKN046 13/09 Q1025 NOSIG RMK PP022=
SPZO Dic2013-210000Z 17004KT 8000 RA SCT040 BKN060 12/08 Q1027 RMK PP040=
SPZO Dic2013-210100Z 00000KT 6000 RA FEW020 SCT036 BKN060 10/08 Q1029 RMK PP056=
SPZO Dic2013-210200Z 00000KT 6000 +RA FEW020 SCT036 BKN060 10/08 Q1030 RMK PP062=
SPZO Dic2013-210300Z 00000KT 9000 -RA FEW020 SCT036 BKN070 10/08 Q1030 RMK PP004=
SPZO Dic2013-210400Z 00000KT 9999 FEW025 SCT036 BKN080 10/08 Q1030 RMK PP000=
SPZO Dic2013-210500Z 00000KT 9999 FEW025 SCT036 BKN080 11/08 Q1030 RMK PP000=
SPZO Dic2013-210600Z 08005KT 9999 FEW020 SCT036 BKN080 09/07 Q1029 RMK PP000=
SPZO Dic2013-210700Z 09005KT 9999 -RA FEW020 SCT036 BKN080 09/06 Q1029 RMK PP014=
SPZO Dic2013-210800Z 09003KT 9999 -RA FEW020 SCT036 BKN080 08/06 Q1029 RMK PP012=
SPZO Dic2013-210900Z VRB03KT 9000 -RA FEW025 SCT036 BKN080 08/05 Q1029 RMK PP010=
SPZO Dic2013-211000Z 00000KT 9999 -DZ FEW025 SCT040 BKN080 08/05 Q1030 RMK BCBR QUAD N/E PP002=
SPZO Dic2013-211100Z 09003KT 9000 -RA FEW025 SCT036 BKN080 08/05 Q1030 NOSIG RMK CLNG BLW 1200M PP002=
SPZO Dic2013-211200Z 06002KT 9000 SCT020 SCT036 BKN070 09/05 Q1031 NOSIG RMK CLNG BLW 1200M PP002=
SPZO Dic2013-211300Z 00000KT 9999 FEW033 SCT040 BKN080 11/06 Q1031 NOSIG RMK PP000=
SPZO Dic2013-211400Z VRB02KT 9999 FEW033 SCT043 BKN080 12/06 Q1031 NOSIG RMK PP000=
SPZO Dic2013-211500Z VRB01KT 9999 FEW036 SCT050 15/07 Q1030 NOSIG RMK PP000=
SPZO Dic2013-211600Z VRB03KT 9999 FEW040 SCT060 16/04 Q1029 NOSIG RMK PP000=
SPZO Dic2013-211700Z VRB02KT 9999 FEW043 SCT060 18/06 Q1028 NOSIG RMK PP000=
SPZO Dic2013-211800Z VRB05KT 9999 VCSH SCT040TCU SCT060 19/05 Q1026 NOSIG RMK PP000=
SPZO Dic2013-211900Z 01010KT 340V070 7000 VCSH FEW036 SCT043TCU BKN060 13/08 Q1026 NOSIG RMK RA QUAD N/E PP024=
SPZO Dic2013-212000Z 21005KT 150V260 9999 VCSH FEW036 SCT046TCU BKN060 14/07 Q1026 NOSIG RMK PP004=
SPZO Dic2013-212100Z 07003KT 030V120 9999 VCSH FEW036 SCT046 BKN060 14/07 Q1026 NOSIG RMK PP000=
SPZO Dic2013-212200Z 08004KT 040V120 9999 -RA VCSH FEW036 SCT046 BKN070 12/07 Q1028 NOSIG RMK TMAX 19.4 PP002=
SPZO Dic2013-212300Z VRB02KT 9999 SCT040 BKN080 12/08 Q1027 NOSIG RMK PP000=
SPZO Dic2013-220000Z 00000KT 9999 SCT040 BKN080 13/08 Q1028 RMK PP000=
SPZO Dic2013-220100Z 00000KT 9999 SCT040 BKN080 13/07 Q1029 RMK PP000=
SPZO Dic2013-220200Z 32006KT 9999 -RA FEW030 SCT040 BKN080 10/06 Q1031 RMK PPTRZ=
SPZO Dic2013-220300Z 00000KT 9999 -RA FEW030 SCT040 BKN080 09/06 Q1032 RMK PP006=
SPZO Dic2013-220400Z 00000KT 9999 -RA FEW030 SCT043 BKN080 09/05 Q1032 RMK PP006=
SPZO Dic2013-220500Z 25005KT 9999 -RA FEW030 SCT043 BKN080 09/04 Q1032 RMK PP000=
SPZO Dic2013-220600Z 24004KT 9999 -RA FEW025 SCT043 BKN080 09/04 Q1032 RMK PP008=
SPZO Dic2013-220700Z 26003KT 9999 FEW033 SCT043 BKN080 09/04 Q1031 RMK PP000=
SPZO Dic2013-220800Z VRB03KT 9999 SCT043 BKN080 09/03 Q1031 RMK PP000=
SPZO Dic2013-220900Z 00000KT 9999 SCT040 BKN080 08/04 Q1031 RMK PP000=
SPZO Dic2013-221000Z 00000KT 9999 FEW030 SCT050 BKN080 09/04 Q1031 RMK BCBR QUAD N/E PP000=
SPZO Dic2013-221100Z VRB01KT 9999 SCT046 BKN080 09/04 Q1031 NOSIG RMK PP000=
SPZO Dic2013-221200Z VRB02KT 9999 FEW036 SCT080 10/04 Q1032 NOSIG RMK VIS 9000E HZ PP000=
SPZO Dic2013-221300Z 00000KT 9999 FEW040 SCT080 11/04 Q1033 NOSIG RMK VIS 9000E HZ PP000=
SPZO Dic2013-221400Z VRB02KT 9999 FEW036 BKN080 12/03 Q1032 NOSIG RMK PP000=
SPZO Dic2013-221500Z VRB02KT 9999 FEW040 SCT080 14/04 Q1032 NOSIG RMK PP000=
SPZO Dic2013-221600Z VRB03KT 9999 SCT060 16/04 Q1031 NOSIG RMK PP000=
SPZO Dic2013-221700Z VRB03KT 9999 SCT040 SCT080 17/06 Q1029 NOSIG RMK PP000=
SPZO Dic2013-221800Z VRB05KT 9999 SCT043 SCT080 19/05 Q1028 NOSIG RMK PP000=
SPZO Dic2013-221900Z VRB03KT 9999 SCT040 SCT070 20/05 Q1027 NOSIG RMK PP000=
SPZO Dic2013-222000Z VRB02KT 9999 VCSH FEW046TCU SCT080 17/08 Q1026 TEMPO -RA RMK PP000=
SPZO Dic2013-222100Z 08014KT 060V120 9999 -RA FEW043TCU SCT050 BKN080 14/08 Q1027 NOSIG RMK VIS 8000E RA PP008=
SPZO Dic2013-222200Z VRB02KT 9999 VCSH FEW036TCU SCT050 BKN080 14/07 Q1026 RERA NOSIG RMK T MAX 20.1 PP002=
SPZO Dic2013-222300Z VRB02KT 9999 SCT050 BKN100 13/07 Q1027 NOSIG RMK PP000=
SPZO Dic2013-230000Z 11003KT 9999 SCT050 SCT100 12/07 Q1028 RMK PP000=
SPZO Dic2013-230100Z VRB02KT 9999 SCT050 SCT100 12/08 Q1029 RMK PP000=
SPZO Dic2013-230200Z 06004KT 9999 FEW050 10/07 Q1030 RMK PP000=
SPZO Dic2013-230300Z 00000KT 9999 FEW050 10/07 Q1031 RMK PP000=
SPZO Dic2013-230400Z 00000KT 9999 FEW050 09/07 Q1031 RMK PP000=
SPZO Dic2013-230500Z 00000KT 9999 SCT050 SCT080 10/07 Q1031 RMK PP000=
SPZO Dic2013-230600Z 00000KT 9999 SCT040 SCT060 10/07 Q1030 RMK PP000=
SPZO Dic2013-230700Z 00000KT 9999 SCT040 SCT050 10/07 Q1030 RMK PP000=
SPZO Dic2013-230800Z 00000KT 9999 BKN040 SCT050 10/07 Q1029 RMK PP000=
SPZO Dic2013-230900Z 07004KT 9999 BKN040 SCT046 10/07 Q1030 RMK PP000=
SPZO Dic2013-231000Z 00000KT 9999 FEW030 SCT040 BKN080 10/07 Q1030 RMK PP000=
SPZO Dic2013-231100Z 00000KT 9999 VCSH FEW030 SCT040 BKN080 11/07 Q1030 NOSIG RMK PP000=
SPZO Dic2013-231200Z 00000KT 9999 FEW030 SCT050 BKN070 12/07 Q1031 NOSIG RMK PP000=
SPZO Dic2013-231300Z 00000KT 9999 FEW030 SCT050 BKN070 13/06 Q1031 NOSIG RMK PP000=
SPZO Dic2013-231400Z 00000KT 9999 FEW030 SCT050 BKN070 15/08 Q1031 NOSIG RMK PP000=
SPZO Dic2013-231500Z 10005KT 060V160 9999 FEW030 SCT050 BKN070 15/06 Q1031 NOSIG RMK PP000=
SPZO Dic2013-231600Z VRB03KT 9999 FEW040 SCT050 BKN070 16/06 Q1029 NOSIG RMK PP000=
SPZO Dic2013-231700Z VRB02KT 9999 FEW036TCU SCT046 BKN080 18/06 Q1029 NOSIG RMK PP000=
SPZO Dic2013-231800Z VRB03KT 9999 SCT050 SCT080 20/08 Q1027 NOSIG RMK PP000=
SPZO Dic2013-231900Z 36012KT 330V050 9999 FEW040TCU SCT050 BKN070 19/06 Q1026 TEMPO VCSH RMK PP000=
SPZO Dic2013-232000Z 14008KT 080V220 9999 DZ VCSH SCT040TCU BKN070 16/07 Q1026 TEMPO -RA RMK VIS 9000 QUAD SE RA PPTRZ=
SPZO Dic2013-232100Z 01005KT 310V050 9999 -RA VCSH FEW036 SCT043 OVC080 14/08 Q1025 NOSIG RMK PP002=
SPZO Dic2013-232200Z 10009KT 070V130 9999 FEW040 SCT046 BKN080 15/08 Q1025 NOSIG RMK TMAX 20.4 PPTRZ=
SPZO Dic2013-232300Z 07005KT 9999 FEW040TCU SCT046 BKN080 15/07 Q1026 NOSIG RMK PP000=
SPZO Dic2013-240000Z 09009KT 9999 FEW040 SCT046 BKN080 14/07 Q1028 RMK PP000=
SPZO Dic2013-240100Z 09015KT 9999 FEW036 SCT040 BKN080 11/07 Q1030 RMK PP000=
SPZO Dic2013-240200Z 05003KT 9999 FEW036 SCT043 BKN080 10/07 Q1031 RMK PP000=
SPZO Dic2013-240300Z 11004KT 9999 -RA FEW030 SCT040 BKN080 09/07 Q1031 RMK PP010=
SPZO Dic2013-240400Z 00000KT 9999 -RA FEW030 SCT040 BKN080 09/07 Q1031 RMK PP004=
SPZO Dic2013-240500Z 05003KT 9999 FEW030 SCT040 BKN080 09/07 Q1031 RMK PP000=
SPZO Dic2013-240600Z 08003KT 9999 -RA FEW025 SCT040 BKN080 09/07 Q1030 RMK PP004=
SPZO Dic2013-240700Z 00000KT 9999 FEW025 SCT040 BKN080 09/07 Q1030 RMK PP00=
SPZO Dic2013-240800Z 10004KT 9999 FEW025 SCT036 BKN080 09/07 Q1029 RMK PP002=
SPZO Dic2013-240900Z 09005KT 9999 FEW025 SCT036 BKN080 09/07 Q1029 RMK PP000=
SPZO Dic2013-241000Z 09003KT 9999 -DZ FEW015 SCT036 BKN070 09/07 Q1029 RMK CLNG BLW 1200M PP000=
SPZO Dic2013-241100Z VRB01KT 9999 FEW015 SCT036 BKN070 09/07 Q1030 NOSIG RMK CLNG BLW 1200M PP000=
SPZO Dic2013-241200Z VRB02KT 9999 -DZ FEW020 SCT036 BKN070 10/07 Q1030 TEMPO 9000 RMK CLNG BLW 1200M PP004=
SPZO Dic2013-241300Z VRB01KT 9999 FEW030 SCT036 BKN080 10/07 Q1031 NOSIG RMK PPTRZ=
SPZO Dic2013-241400Z 10004KT 030V160 9999 FEW030 SCT040 BKN080 12/07 Q1031 NOSIG RMK PPTRZ=
SPZO Dic2013-241500Z VRB02KT 9999 FEW036 SCT046 BKN100 13/07 Q1030 NOSIG RMK PP000=
SPZO Dic2013-241600Z 09004KT 9999 FEW036 SCT046 BKN080 14/05 Q1030 NOSIG RMK PP000=
SPZO Dic2013-241700Z 00000KT 9999 FEW040 SCT060 17/06 Q1029 NOSIG RMK PP000=
SPZO Dic2013-241800Z 00000KT 9999 BKN046 SCT080 19/08 Q1027 NOSIG RMK PP000=
SPZO Dic2013-241900Z VRB07KT 9999 VCSH FEW040TCU SCT043 BKN070 19/06 Q1025 TEMPO -RA RMK PP000=
SPZO Dic2013-242000Z 25012KT 200V290 9999 VCSH FEW040TCU SCT043 BKN070 15/07 Q1025 NOSIG RMK PP000=
SPZO Dic2013-242100Z 11012KT 070V170 8000 TSRA VCSH SCT030CB SCT040 OVC060 10/07 Q1026 RMK VIS 6000 QUAD NE RA PP066=
SPZO Dic2013-242200Z 26006KT 7000 RA VCSH FEW030 SCT040 OVC060 09/07 Q1027 NOSIG RMK VIS 5000 QUAD NE RA TMAX 19.7 PP086=
SPZO Dic2013-242300Z VRB01KT 8000 RA VCSH FEW010 SCT033 OVC060 09/07 Q1027 NOSIG RMK VIS 7000 QUAD NE RA PP036=
SPZO Dic2013-250000Z VRB02KT 9999 FEW030 SCT036 BKN070 09/07 Q1028 RERA RMK PP002=
SPZO Dic2013-250100Z 00000KT 9999 FEW030 SCT040 BKN070 10/07 Q1029 RMK PP000=
SPZO Dic2013-250200Z 09003KT 9999 SCT036 BKN070 10/07 Q1030 RMK VIS 7000E BR PP000=
SPZO Dic2013-250300Z 09003KT 9999 FEW020 SCT036 BKN070 10/08 Q1031 RMK PP000=
SPZO Dic2013-250400Z VRB02KT 8000 -RA FEW020 SCT036 BKN070 10/07 Q1031 RMK PPTRZ=
SPZO Dic2013-250500Z 00000KT 9000 -RA FEW020 SCT036 BKN070 10/07 Q1030 RMK PP004=
SPZO Dic2013-250600Z 00000KT 7000 -RA FEW020 SCT036 BKN070 09/07 Q1030 RMK PP002=
SPZO Dic2013-250700Z VRB02KT 7000 -RA FEW015 SCT036 BKN070 09/07 Q1029 RMK PP004=
SPZO Dic2013-250800Z 08003KT 8000 -RA FEW015 SCT036 BKN070 09/07 Q1029 RMK PP004=
SPZO Dic2013-250900Z 08003KT 9999 FEW025 SCT036 BKN070 09/07 Q1029 RERA RMK PPTRZ=
SPZO Dic2013-251000Z 07004KT 9000 FEW020 SCT036 BKN070 08/06 Q1029 RMK VIS 7000E RA BR PP000=
SPZO Dic2013-251100Z 09003KT 9999 FEW020 SCT036 BKN060 08/06 Q1030 NOSIG RMK CLNG BLW 1200M PP000=
SPZO Dic2013-251200Z VRB02KT 9999 FEW020 SCT036 OVC070 09/06 Q1031 NOSIG RMK VIS 9000 QUAD NW PP000=
SPZO Dic2013-251300Z 00000KT 9999 FEW015 SCT040 BKN070 11/06 Q1031 NOSIG RMK PP000=
SPZO Dic2013-251400Z VRB03KT 9999 FEW015 SCT040 BKN080 13/07 Q1031 NOSIG RMK PP000=
SPZO Dic2013-251500Z VRB02KT 9999 VCSH FEW020 SCT036 BKN070 13/07 Q1031 NOSIG RMK PPTRZ=
SPZO Dic2013-251600Z VRB03KT 9999 FEW030 SCT040 BKN080 15/06 Q1030 NOSIG RMK PP000=
SPZO Dic2013-251700Z VRB03KT 9999 VCSH SCT040 FEW043TCU BKN080 16/07 Q1029 NOSIG RMK PP000=
SPZO Dic2013-251800Z 09009KT 050V150 9999 -RA SCT040TCU SCT043 BKN080 15/07 Q1028 NOSIG RMK PPTRZ=
SPZO Dic2013-251900Z 03008KT 330V060 9999 VCSH FEW043TCU SCT046 BKN080 14/06 Q1028 NOSIG RMK PP000=
SPZO Dic2013-252000Z 27004KT 9999 FEW040 SCT046 BKN080 13/06 Q1027 NOSIG RMK PP000=
SPZO Dic2013-252100Z VRB03KT 9999 FEW040 SCT050 BKN100 14/05 Q1027 NOSIG RMK PP000=
SPZO Dic2013-252200Z VRB02KT 9999 BKN050 SCT100 15/05 Q1027 NOSIG RMK T.MAX 17.0 PP000=
SPZO Dic2013-252300Z 00000KT 9999 SCT050 SCT100 15/05 Q1027 NOSIG RMK PP000=
SPZO Dic2013-260000Z 00000KT 9999 SCT050 BKN100 13/07 Q1028 RMK PP000=
SPZO Dic2013-260100Z 30005KT 240V350 9999 SCT050 BKN100 13/06 Q1029 RMK PP000=
SPZO Dic2013-260200Z VRB02KT 9999 SCT050 BKN100 12/07 Q1030 RMK PP000=
SPZO Dic2013-260300Z VRB02KT 9999 SCT050 BKN100 11/08 Q1031 RMK PP000=
SPZO Dic2013-260400Z VRB02KT 9999 SCT050 BKN080 11/07 Q1031 RMK PP000=
SPZO Dic2013-260500Z 00000KT 9999 SCT050 BKN080 11/07 Q1031 RMK PP000=
SPZO Dic2013-260600Z 00000KT 9999 SCT050 BKN080 11/06 Q1030 RMK PP000=
SPZO Dic2013-260700Z 23003KT 9999 -DZ SCT046 BKN080 11/07 Q1030 RMK PPTRZ=
SPZO Dic2013-260800Z 00000KT 9999 SCT046 BKN080 10/07 Q1029 REDZ RMK PPTRZ=
SPZO Dic2013-260900Z VRB03KT 9999 SCT046 BKN080 10/07 Q1030 RMK PP000=
SPZO Dic2013-261000Z VRB01KT 9999 FEW036 SCT046 BKN080 10/07 Q1030 RMK PP000=
SPZO Dic2013-261100Z 00000KT 9999 FEW033 SCT046 BKN080 10/07 Q1031 NOSIG RMK PP000=
SPZO Dic2013-261200Z 00000KT 9999 FEW033 SCT050 BKN100 13/07 Q1032 NOSIG RMK PP000=
SPZO Dic2013-261300Z VRB02KT 9999 FEW036 SCT050 BKN100 13/05 Q1032 NOSIG RMK PP000=
SPZO Dic2013-261400Z VRB02KT 9999 SCT050 SCT100 14/05 Q1033 NOSIG RMK PP000=
SPZO Dic2013-261500Z VRB03KT 9999 SCT050 SCT100 17/05 Q1032 NOSIG RMK PP000=
SPZO Dic2013-261600Z VRB03KT 9999 SCT050 SCT100 18/07 Q1031 NOSIG RMK PP000=
SPZO Dic2013-261700Z VRB03KT 9999 SCT050 SCT100 19/05 Q1030 NOSIG RMK PP000=
SPZO Dic2013-261800Z 26007KT 9999 SCT040TCU SCT080 19/08 Q1029 NOSIG RMK PP000=
SPZO Dic2013-261900Z 35008KT 310V060 9999 VCSH FEW040TCU BKN080 17/04 Q1024 RMK PP000=
SPZO Dic2013-262000Z 35005KT 9999 SCT040 SCT080 17/05 Q1028 NOSIG RMK PP000=
SPZO Dic2013-262100Z 36008KT 280V070 9999 SCT040TCU SCT080 17/04 Q1027 NOSIG RMK PP000=
SPZO Dic2013-262300Z 32004KT 9999 FEW043 BKN080 16/06 Q1028 NOSIG RMK PP000=
SPZO Dic2013-270000Z 33004KT 290V020 9999 FEW050 SCT080 15/06 Q1029 RMK PP000=
SPZO Dic2013-270100Z 07003KT 9999 FEW050 12/07 Q1030 RMK PP000=
SPZO Dic2013-270200Z 00000KT 9999 FEW050 13/06 Q1032 RMK PP000=
SPZO Dic2013-270300Z 09005KT 9999 FEW050 12/07 Q1033 RMK PP000=
SPZO Dic2013-270400Z 09003KT 9999 FEW050 SCT080 12/07 Q1033 RMK PP000=
SPZO Dic2013-270500Z 00000KT 9999 FEW050 SCT080 11/07 Q1032 RMK PP000=
SPZO Dic2013-270600Z 00000KT 9999 FEW043 SCT070 11/07 Q1032 RMK PP000=
SPZO Dic2013-270700Z 00000KT 9999 FEW043 SCT070 12/07 Q1031 RMK PP000=
SPZO Dic2013-270800Z 00000KT 9999 SCT043 BKN070 11/07 Q1031 RMK PP000=
SPZO Dic2013-270900Z 00000KT 9999 SCT043 BKN070 12/07 Q1031 RMK PP000=
SPZO Dic2013-271000Z 00000KT 9999 SCT043 BKN070 11/07 Q1032 RMK PP000=
SPZO Dic2013-271100Z 00000KT 9999 FEW020 SCT040 BKN080 11/07 Q1033 NOSIG RMK PP000=
SPZO Dic2013-271200Z VRB02KT 9999 SCT030 BKN070 12/07 Q1034 NOSIG RMK PP000=
SPZO Dic2013-271300Z 12004KT 090V180 9999 FEW030TCU SCT040 BKN070 13/06 Q1034 TEMPO SCT050 BKN100 RMK PP000=
SPZO Dic2013-271400Z 00000KT 9999 SCT036 BKN080 15/06 Q1034 NOSIG RMK PP000=
SPZO Dic2013-271500Z 00000KT 9999 SCT040 BKN080 16/06 Q1034 NOSIG RMK PP000=
SPZO Dic2013-271600Z 27012KT 9999 VCSH FEW033 SCT046 BKN080 16/06 Q1033 NOSIG RMK PP000=
SPZO Dic2013-271700Z 28012KT 250V320 9999 SCT040 SCT080 16/08 Q1032 NOSIG RMK PP000=
SPZO Dic2013-271800Z 27011KT 240V310 9999 VCSH FEW036TCU SCT043 BKN100 18/05 Q1031 TEMPO -RA RMK PP000=
SPZO Dic2013-271900Z VRB04KT 9000 -RA FEW036TCU SCT040CB BKN080 16/05 Q1030 TEMPO 30012G25KT 7000 -RA RMK PPTRZ=
SPZO Dic2013-272000Z 08005KT 040V110 9999 FEW036TCU SCT046 BKN080 14/07 Q1029 REDZ NOSIG RMK PPTRZ=
SPZO Dic2013-272100Z VRB01KT 9999 FEW036TCU SCT043 BKN100 16/07 Q1029 NOSIG RMK PP000=
SPZO Dic2013-272200Z VRB01KT 9999 VCSH FEW036TCU SCT043 BKN100 17/06 Q1029 NOSIG RMK T MAX 19.1 PP000=
SPZO Dic2013-272300Z 08003KT 9999 VCSH FEW036TCU SCT043 BKN080 16/06 Q1029 TEMPO -RA RMK PP000=
SPZO Dic2013-280000Z 25012KT 9999 SCT040TCU BKN050 13/06 Q1031 RMK PP000=
SPZO Dic2013-280100Z 25008KT 9000 RA SCT040TCU BKN046 11/07 Q1032 RMK PP016=
SPZO Dic2013-280200Z 00000KT 9999 BKN040 SCT050 12/07 Q1033 RMK PP000=
SPZO Dic2013-280300Z 09004KT 9999 -RA OVC040 11/08 Q1034 RMK PP002=
SPZO Dic2013-280400Z 08005KT 9999 SCT036 BKN043 10/08 Q1034 RMK PP002=
SPZO Dic2013-280500Z 00000KT 8000 RA SCT036 BKN043 10/08 Q1034 RMK PP016=
SPZO Dic2013-280600Z 00000KT 9999 -RA OVC040 10/07 Q1034 RMK PP026=
SPZO Dic2013-280700Z 00000KT 9999 -RA SCT030 BKN040 09/07 Q1033 RMK PP010=
SPZO Dic2013-280800Z 00000KT 9999 -RA SCT030 BKN046 09/06 Q1033 RMK PP014=
SPZO Dic2013-280900Z 00000KT 9000 -RA FEW020 SCT036 BKN070 08/06 Q1033 RMK PP016=
SPZO Dic2013-281000Z 00000KT 8000 -RA FEW020 SCT033 BKN070 08/06 Q1034 RMK CLNG BLW 1200M PP016=
SPZO Dic2013-281100Z 00000KT 6000 -RA FEW015 SCT033 BKN070 08/05 Q1035 NOSIG RMK CLNG BLW 1200M PP016=
SPZO Dic2013-281200Z 00000KT 5000 -RA FEW015 SCT030 BKN070 08/05 Q1035 NOSIG RMK CLNG BLW 1200M PP032=
SPZO Dic2013-281300Z VRB02KT 5000 -RA FEW015 SCT033 BKN080 08/06 Q1036 NOSIG RMK CLNG BLW 1200M PP006=
SPZO Dic2013-281400Z 00000KT 6000 -RA FEW025 SCT033 BKN080 08/06 Q1036 NOSIG RMK CLNG BLW 1200M PP004=
SPZO Dic2013-281500Z 00000KT 8000 -DZ FEW020 SCT036 BKN080 09/05 Q1036 NOSIG RMK PP008=
SPZO Dic2013-281600Z VRB02KT 9999 -DZ SCT033 OVC100 11/06 Q1035 NOSIG RMK PP000=
SPZO Dic2013-281700Z 00000KT 9999 SCT036 SCT100 13/06 Q1034 NOSIG RMK PP000=
SPZO Dic2013-281800Z 00000KT 9999 FEW025 SCT040 BKN080 15/07 Q1033 NOSIG RMK PP000=
SPZO Dic2013-281900Z VRB03KT 9999 SCT043 BKN080 16/07 Q1031 NOSIG RMK PP000=
SPZO Dic2013-282000Z 00000KT 9999 SCT043 SCT100 18/07 Q1029 NOSIG RMK PP000=
SPZO Dic2013-282100Z VRB03KT 9999 FEW040TCU BKN046 18/07 Q1028 NOSIG RMK PP000=
SPZO Dic2013-282200Z 26014KT 9999 FEW040TCU SCT046 BKN080 16/07 Q1028 NOSIG RMK TMAX 19.0 PP000=
SPZO Dic2013-282300Z 34008KT 300V030 9999 VCSH FEW040TCU SCT046 BKN080 15/06 Q1029 TEMPO RA RMK RA QUAD E PP000=
SPZO Dic2013-290000Z 00000KT 9999 SCT040 BKN100 14/07 Q1029 RMK PP000=
SPZO Dic2013-290100Z 00000KT 9999 FEW050 12/08 Q1030 RMK PP000=
SPZO Dic2013-290200Z 00000KT 9999 NSC 11/08 Q1031 RMK PP000=
SPZO Dic2013-290300Z 00000KT 9999 NSC 11/08 Q1032 RMK PP000=
SPZO Dic2013-290400Z 00000KT 9999 FEW050 10/07 Q1032 RMK PP000=
SPZO Dic2013-290500Z 00000KT 9999 FEW050 10/07 Q1031 RMK PP000=
SPZO Dic2013-290600Z 00000KT 9999 SCT050 10/07 Q1031 RMK PP000=
SPZO Dic2013-290700Z 00000KT 9999 SCT050 10/07 Q1030 RMK PP000=
SPZO Dic2013-290800Z 08004KT 9999 FEW050 09/07 Q1030 RMK PP000=
SPZO Dic2013-290900Z 00000KT 9999 FEW046 08/07 Q1030 RMK PP000=
SPZO Dic2013-291000Z VRB02KT 9999 FEW030 07/05 Q1030 RMK PP000=
SPZO Dic2013-291100Z VRB03KT 6000 FEW036 SCT100 07/06 Q1031 NOSIG RMK BR PP000=
SPZO Dic2013-291200Z 00000KT 9999 FEW020 SCT046 BKN080 10/08 Q1032 NOSIG RMK PP000=
SPZO Dic2013-291300Z 25004KT 210V300 9999 FEW030 SCT050 13/08 Q1032 NOSIG RMK PP000=
SPZO Dic2013-291400Z VRB03KT 9999 FEW036 SCT050 15/08 Q1032 NOSIG RMK PP000=
SPZO Dic2013-291500Z VRB02KT 9999 SCT050 17/08 Q1032 NOSIG RMK PP000=
SPZO Dic2013-291600Z 07004KT 340V140 9999 FEW040 SCT050 19/08 Q1031 NOSIG RMK PP000=
SPZO Dic2013-291700Z 26012KT 9999 VCSH FEW040TCU SCT050 17/06 Q1030 NOSIG RMK PP000=
SPZO Dic2013-291800Z 26007KT 230V300 9999 -RA VCSH FEW040 SCT043 BKN080 15/08 Q1029 NOSIG RMK PP002=
SPZO Dic2013-291900Z 25005KT 180V320 9999 FEW040TCU SCT043 BKN080 19/08 Q1027 TEMPO VCSH RMK PPTRZ=
SPZO Dic2013-292000Z 30010KT 240V010 9999 -RA VCSH FEW040TCU SCT043 BKN080 16/08 Q1027 NOSIG RMK PPTRZ=
SPZO Dic2013-292100Z 28004KT 240V340 9999 SCT040 BKN100 16/09 Q1026 NOSIG RMK PP002=
SPZO Dic2013-292200Z 36006KT 320V050 9999 FEW040 SCT100 17/07 Q1025 NOSIG RMK TMAX 20.0 PP000=
SPZO Dic2013-292300Z 29007KT 240V340 9999 FEW040 SCT100 16/08 Q1026 NOSIG RMK PP000=
SPZO Dic2013-300000Z VRB03KT 9999 SCT050 BKN100 15/08 Q1028 RMK PP000=
SPZO Dic2013-300100Z 27004KT 9999 SCT050 BKN100 13/08 Q1029 RMK PP000=
SPZO Dic2013-300200Z 00000KT 9999 SCT050 BKN100 14/08 Q1030 RMK VIS 8000E BR PP000=
SPZO Dic2013-300300Z 00000KT 9999 SCT050 BKN100 13/08 Q1031 RMK PP000=
SPZO Dic2013-300400Z VRB02KT 9999 SCT050 BKN080 12/08 Q1031 RMK PP000=
SPZO Dic2013-300500Z 00000KT 9999 SCT046 BKN080 12/08 Q1031 RMK PP000=
SPZO Dic2013-300600Z 00000KT 9999 SCT046 BKN080 12/08 Q1030 RMK PP000=
SPZO Dic2013-300700Z 05004KT 360V080 9999 SCT046 BKN080 12/07 Q1030 RMK PP000=
SPZO Dic2013-300800Z VRB01KT 9999 SCT046 BKN080 11/06 Q1030 RMK PP000=
SPZO Dic2013-300900Z VRB03KT 9999 SCT046 BKN080 11/06 Q1029 RMK -RA QUAD NE PP000=
SPZO Dic2013-301000Z 00000KT 9999 FEW036 SCT046 BKN080 09/06 Q1030 RMK PP000=
SPZO Dic2013-301100Z VRB02KT 9999 FEW036 SCT050 SCT100 09/06 Q1031 NOSIG RMK PP000=
SPZO Dic2013-301200Z VRB02KT 9999 FEW040 SCT100 12/06 Q1031 NOSIG RMK HZ QUAD E PP000=
SPZO Dic2013-301300Z 00000KT 9999 FEW040 SCT100 14/06 Q1031 NOSIG RMK PP000=
SPZO Dic2013-301400Z VRB02KT 9999 SCT040 16/07 Q1031 NOSIG RMK PP000=
SPZO Dic2013-301500Z 00000KT 9999 SCT040 18/07 Q1030 NOSIG RMK PP000=
SPZO Dic2013-301600Z VRB03KT 9999 SCT043 20/07 Q1029 NOSIG RMK PP000=
SPZO Dic2013-301700Z VRB02KT 9999 FEW036TCU SCT046 BKN080 20/04 Q1028 TEMPO -RA VCSH RMK PP000=
SPZO Dic2013-301800Z 35014KT 320V030 9999 VCSH SCT040TCU SCT046 BKN080 13/06 Q1030 NOSIG RMK PP018=
SPZO Dic2013-301900Z 09008KT 010V120 9999 FEW040 SCT050 BKN100 14/06 Q1029 NOSIG RMK PP002=
SPZO Dic2013-302000Z 35009KT 9999 SCT050 OVC100 13/05 Q1028 NOSIG RMK PP000=
SPZO Dic2013-302100Z 05005KT 9999 SCT050 BKN100 14/07 Q1028 NOSIG RMK PP000=
SPZO Dic2013-302200Z 09003KT 9999 SCT050 BKN100 14/06 Q1028 NOSIG RMK T.MAX 20.7 PP000=
SPZO Dic2013-302300Z 00000KT 9999 SCT046 BKN100 14/05 Q1028 NOSIG RMK PP000=
SPZO Dic2013-310000Z VRB02KT 9999 SCT050 SCT100 12/08 Q1029 RMK PP000=
SPZO Dic2013-310100Z VRB02KT 9999 BKN043 SCT080 12/08 Q1030 RMK PP000=
SPZO Dic2013-310200Z 28003KT 9999 BKN046 SCT080 12/07 Q1031 RMK PP000=
SPZO Dic2013-310300Z 28010KT 9999 BKN043 SCT050 12/07 Q1031 RMK PP000=
SPZO Dic2013-310400Z 26014KT 9999 BKN040 SCT050 11/06 Q1032 RMK PP000=
SPZO Dic2013-310500Z 27012KT 9999 BKN040 SCT050 10/05 Q1031 RMK PP000=
SPZO Dic2013-310600Z 00000KT 9999 OVC040 09/05 Q1030 RMK PP000=
SPZO Dic2013-310700Z 00000KT 9999 BKN050 08/05 Q1030 RMK PP000=
SPZO Dic2013-310800Z 00000KT 9999 FEW050 08/05 Q1029 RMK PP000=
SPZO Dic2013-310900Z 00000KT 9999 FEW050 07/04 Q1029 RMK PP000=
SPZO Dic2013-311000Z 10002KT 9999 SCT043 SCT080 07/05 Q1029 RMK PP000=
SPZO Dic2013-311100Z 00000KT 9999 FEW050 SCT230 07/05 Q1030 NOSIG RMK PP000=
SPZO Dic2013-311200Z VRB01KT 9999 SCT046 SCT080 11/06 Q1031 TEMPO FEW020 SCT040 BKN100 RMK PP000=
SPZO Dic2013-311300Z VRB02KT 9999 SCT050 SCT100 12/05 Q1031 NOSIG RMK PP000=
SPZO Dic2013-311400Z VRB02KT 9999 SCT050 SCT230 16/05 Q1031 NOSIG RMK PP000=
SPZO Dic2013-311500Z 09004KT 010V160 9999 SCT050 BKN230 17/06 Q1031 NOSIG RMK PP000=
SPZO Dic2013-311600Z VRB04KT 9999 FEW040 SCT050 BKN100 18/05 Q1030 NOSIG RMK PP000=
SPZO Dic2013-311700Z VRB06KT 9999 FEW040 SCT050 BKN100 18/05 Q1030 NOSIG RMK PP000=
SPZO Dic2013-311800Z VRB03KT 9999 FEW040 SCT080 20/05 Q1028 NOSIG RMK PP000=
SPZO Dic2013-311900Z VRB03KT 9999 FEW040 SCT080 20/05 Q1026 NOSIG RMK PP000=
SPZO Dic2013-312000Z VRB02KT 9999 SCT046 SCT080 20/03 Q1025 TEMPO VCSH RMK PP000=
SPZO Dic2013-312100Z 06008KT 010V120 7000 +TSRA VCSH SCT040CB BKN080 12/08 Q1027 TEMPO 8000 RMK PP012=
SPZO Dic2013-312200Z 17005KT 120V260 9999 SCT046 BKN080 12/07 Q1027 NOSIG RMK TMAX 21.3 PP008=
SPZO Dic2013-312300Z 27003KT 9999 SCT050 BKN100 13/07 Q1027 NOSIG RMK PP000=
SPZO Ene2014-010000Z 12004KT 080V170 9999 SCT050 SCT100 12/08 Q1028 RMK PP000=
SPZO Ene2014-010100Z 00000KT 9999 SCT050 SCT100 12/08 Q1029 RMK PP000=
SPZO Ene2014-010200Z 06004KT 9999 SCT050 11/08 Q1030 RMK VIS 9000 QUAD NE PP000=
SPZO Ene2014-010300Z 00000KT 9999 FEW050 11/08 Q1030 RMK VIS 9000 QUAD NE PP000=
SPZO Ene2014-010400Z 00000KT 9999 FEW050 10/08 Q1030 RMK VIS 9000 QUAD NE PP000=
SPZO Ene2014-010500Z 00000KT 8000 FEW050 10/07 Q1030 RMK PP000=
SPZO Ene2014-010600Z 26003KT 5000 FU FEW070 09/06 Q1029 RMK PP000=
SPZO Ene2014-010700Z 00000KT 5000 FU FEW040 SCT070 09/06 Q1028 RMK PP000=
SPZO Ene2014-010800Z VRB01KT 5000 FU FEW040 SCT070 08/06 Q1027 RMK PP000=
SPZO Ene2014-010900Z 00000KT 5000 FU FEW040 SCT070 07/05 Q1028 RMK PP000=
SPZO Ene2014-011000Z 00000KT 8000 FEW040 SCT070 07/05 Q1028 RMK VIS 6000 QUAD NE FU PP000=
SPZO Ene2014-011100Z VRB01KT 9000 FEW040 BKN100 08/06 Q1029 NOSIG RMK VIS 7000 QUAD NE FU PP000=
SPZO Ene2014-011200Z 00000KT 6000 FU SCT040 OVC080 08/06 Q1029 NOSIG RMK PP000=
SPZO Ene2014-011300Z VRB02KT 8000 SCT050 OVC100 09/07 Q1030 NOSIG RMK VIS 6000 QUAD NE FU PP000=
SPZO Ene2014-011400Z VRB01KT 8000 SCT050 OVC100 10/07 Q1031 NOSIG RMK FU PP000=
SPZO Ene2014-011500Z 08005KT 020V150 8000 VCSH SCT050 OVC100 10/07 Q1031 NOSIG RMK VIS 7000E FU PP000=
SPZO Ene2014-011600Z 07004KT 9000 SCT050 OVC100 11/07 Q1031 NOSIG RMK PP002=
SPZO Ene2014-011700Z 34005KT 270V030 9999 FEW050 OVC100 13/05 Q1030 NOSIG RMK PP000=
SPZO Ene2014-011800Z VRB01KT 9999 FEW050 OVC100 15/04 Q1029 NOSIG RMK PP000=
SPZO Ene2014-011900Z VRB01KT 9999 FEW050 OVC100 15/04 Q1029 NIOSIG RMK PP000=
SPZO Ene2014-012000Z VRB02KT 9999 FEW040 OVC100 15/05 Q1028 NOSIG RMK PP000=
SPZO Ene2014-012100Z 09009KT 9999 FEW040 OVC100 13/06 Q1028 NOSIG RMK PP000=
SPZO Ene2014-012200Z 09008KT 060V120 9999 SCT050 OVC100 13/06 Q1028 NOSIG RMK T MAX 15.1 PP000=
SPZO Ene2014-012300Z VRB03KT 9999 SCT050 BKN100 12/06 Q1028 NOSIG RMK PP000=
SPZO Ene2014-020000Z 28002KT 9999 FEW050 10/07 Q1028 RMK PP000=
SPZO Ene2014-020100Z 00000KT 9999 FEW050 SCT100 09/06 Q1028 RMK PP000=
SPZO Ene2014-020200Z 09002KT 9999 FEW040 09/06 Q1029 RMK PP000=
SPZO Ene2014-020300Z 00000KT 9999 FEW040 07/05 Q1029 RMK PP000=
SPZO Ene2014-020400Z 00000KT 9999 NSC 07/05 Q1029 RMK PP000=
SPZO Ene2014-020500Z 00000KT 9999 NSC 06/04 Q1029 RMK PP000=
SPZO Ene2014-020600Z 00000KT 9999 NSC 06/04 Q1029 RMK PP000=
SPZO Ene2014-020700Z 00000KT 9999 NSC 05/03 Q1028 RMK PP000=
SPZO Ene2014-020800Z 00000KT 9999 FEW030 05/03 Q1028 RMK PP000=
SPZO Ene2014-020900Z 00000KT 9000 SCT030 05/03 Q1028 RMK PP000=
SPZO Ene2014-021000Z 00000KT 9000 FEW020 SCT040 BKN080 06/03 Q1029 RMK PP000=
SPZO Ene2014-021100Z 00000KT 9000 FEW036 SCT043 BKN080 06/04 Q1029 NOSIG RMK PP000=
SPZO Ene2014-021200Z 00000KT 9000 FEW030 SCT040 BKN100 08/05 Q1029 NOSIG RMK VIS 8000E BR PP000=
SPZO Ene2014-021300Z VRB03KT 9000 FEW025 SCT040 BKN100 10/06 Q1030 NOSIG RMK HZ PP000=
SPZO Ene2014-021400Z VRB02KT 9999 FEW030 SCT043 BKN100 12/06 Q1030 NOSIG RMK PP000=
SPZO Ene2014-021500Z VRB02KT 9999 SCT043 BKN100 17/07 Q1029 NOSIG RMK PP000=
SPZO Ene2014-021600Z VRB02KT 9999 BKN043 18/05 Q1028 NOSIG RMK PP000=
SPZO Ene2014-021700Z 09006KT 050V150 9999 SCT046 SCT080 19/07 Q1027 NOSIG RMK PP000=
SPZO Ene2014-021800Z 21004KT 150V290 9999 BKN050 20/06 Q1026 TEMPO FEW040TCU RMK PP000=
SPZO Ene2014-021900Z 26006KT 190V330 9999 BKN050 20/05 Q1024 FEW040TCU BKN080 RMK PP000=
SPZO Ene2014-022000Z 23006KT 130V280 9999 BKN050 21/04 Q1023 NOSIG RMK PP000=
SPZO Ene2014-022100Z 27006KT 230V320 9999 BKN050 22/04 Q1022 NOSIG RMK PP000=
SPZO Ene2014-022200Z 27010KT 240V320 9999 SCT050 SCT100 21/04 Q1022 NOSIG RMK TMAX 22.5 PP000=
SPZO Ene2014-022300Z 29008KT 260V010 9999 SCT050 SCT100 19/04 Q1023 NOSIG RMK PP000=
SPZO Ene2014-030000Z 25007KT 220V290 9999 FEW050 18/06 Q1024 RMK PP000=
SPZO Ene2014-030100Z 26007KT 9999 NSC 15/07 Q1024 RMK PP000=
SPZO Ene2014-030200Z 29006KT 9999 NSC 14/07 Q1026 RMK PP000=
SPZO Ene2014-030300Z 00000KT 9999 NSC 12/07 Q1027 RMK PP000=
SPZO Ene2014-030400Z VRB02KT 9999 SCT040 11/07 Q1028 RMK PP000=
SPZO Ene2014-030500Z 07003KT 9999 SCT043 12/07 Q1028 RMK PP000=
SPZO Ene2014-030600Z VRB02KT 9999 SCT040 BKN070 12/07 Q1027 RMK PP000=
SPZO Ene2014-030700Z VRB02KT 9999 SCT040 BKN070 12/07 Q1027 RMK PP000=
SPZO Ene2014-030800Z VRB02KT 9999 RA SCT040 BKN070 10/08 Q1027 RMK PP044=
SPZO Ene2014-030900Z 25004KT 9000 RA FEW030 SCT040 BKN070 10/08 Q1027 RMK PP042=
SPZO Ene2014-031000Z VRB02KT 8000 -RA FEW025 SCT036 BKN070 10/08 Q1027 RMK CLNG BLW 1200M PP002=
SPZO Ene2014-031100Z 00000KT 9999 FEW025 SCT043 BKN080 10/08 Q1028 NOSIG RMK PP000=
SPZO Ene2014-031200Z 00000KT 9999 FEW030 SCT040 OVC050 11/08 Q1029 NOSIG RMK PP000=
SPZO Ene2014-031300Z VRB02KT 9999 FEW030 SCT040 OVC050 13/08 Q1029 NOSIG RMK PP000=
SPZO Ene2014-031400Z 29006KT 250V330 9999 FEW030 SCT040 OVC050 14/08 Q1029 NOSIG RMK PP000=
SPZO Ene2014-031500Z 30004KT 240V010 9999 FEW040 SCT050 OVC060 15/06 Q1029 NOSIG RMK PP000=
SPZO Ene2014-031600Z VRB03KT 9999 FEW040 SCT050 OVC060 16/08 Q1028 NOSIG RMK PP000=
SPZO Ene2014-031700Z VRB07KT 9999 FEW040 SCT050 OVC060 19/09 Q1027 TEMPO VCSH FEW040TCU BKN080 RMK PP000=
SPZO Ene2014-031800Z 32005KT 260V020 9999 VCSH FEW040TCU SCT050 OVC060 16/07 Q1027 TEMPO 28015KT 9000 -RA VCSH SCT040TCU BKN070 RMK PP000=
SPZO Ene2014-031900Z 35006KT 290V030 9999 FEW043 SCT050 BKN100 17/07 Q1026 NOSIG RMK PP000=
SPZO Ene2014-032000Z 35007KT 320V030 9999 FEW040 SCT050 BKN100 17/06 Q1026 NOSIG RMK PP000=
SPZO Ene2014-032100Z 27012KT 9999 VCSH FEW040TCU SCT046 BKN080 15/08 Q1025 TEMPO 28015KT 9000 RA VCSH SCT040TCU BKN070 RMK PP000=
SPZO Ene2014-032200Z 27005KT 240V320 9999 FEW040TCU SCT046 BKN080 16/07 Q1026 TEMPO -RA RMK PP000=
SPZO Ene2014-032300Z 08010KT 9999 FEW040TCU SCT046 BKN080 15/07 Q1026 NOSIG RMK PP000=
SPZO Ene2014-040000Z 09007KT 060V130 9999 FEW040TCU SCT050 BKN080 14/07 Q1028 RMK TCU QUAD WS PP000=
SPZO Ene2014-040100Z 22004KT 150V270 9000 -RA FEW030 SCT046 BKN080 12/08 Q1029 RMK PP000=
SPZO Ene2014-040200Z 26006KT 9000 -RA FEW025 SCT043 BKN070 11/08 Q1030 RMK PP000=
SPZO Ene2014-040300Z 27006KT 9000 -RA FEW025 SCT043 BKN070 11/09 Q1031 RMK PP014=
SPZO Ene2014-040400Z 00000KT 9000 -RA FEW025 SCT043 BKN070 11/08 Q1031 RMK PP008=
SPZO Ene2014-040500Z 10004KT 8000 -RA FEW020 SCT040 BKN070 11/08 Q1031 RMK PP016=
SPZO Ene2014-040600Z 09004KT 8000 -RA FEW020 SCT040 BKN070 10/08 Q1031 RMK PP020=
SPZO Ene2014-040700Z VRB03KT 8000 -RA FEW020 SCT036 BKN070 10/08 Q1031 RMK PP024=
SPZO Ene2014-040800Z VRB03KT 9000 -RA FEW015 SCT036 BKN070 09/07 Q1030 RMK CLNG BLW 1200M PP024=
SPZO Ene2014-040900Z 08005KT 9999 -DZ FEW020 SCT036 BKN070 09/06 Q1030 RMK CLNG BLW 1200M PP002=
SPZO Ene2014-041000Z 10005KT 060V130 9999 FEW030 SCT036 BKN070 09/06 Q1031 REDZ RMK PPTRZ=
SPZO Ene2014-041100Z VRB03KT 9999 FEW025 SCT040 BKN070 09/06 Q1032 NOSIG RMK PP000=
SPZO Ene2014-041200Z 10003KT 9999 FEW025 SCT043 BKN100 09/06 Q1033 NOSIG RMK PP000=
SPZO Ene2014-041300Z VRB02KT 9999 SCT020 BKN100 11/06 Q1033 NOSIG RMK PP000=
SPZO Ene2014-041400Z VRB01KT 9999 FEW030 BKN230 13/07 Q1033 NOSIG RMK PP000=
SPZO Ene2014-041500Z VRB02KT 9999 FEW036 BKN230 15/04 Q1032 NOSIG RMK PP000=
SPZO Ene2014-041600Z 00000KT 9999 FEW040 SCT050 BKN230 17/05 Q1031 NOSIG RMK PP000=
SPZO Ene2014-041700Z 10006KT 010V190 9999 FEW043 SCT050 18/08 Q1030 NOSIG RMK PP000=
SPZO Ene2014-041800Z 33004KT 210V020 9999 VCSH SCT040TCU BKN050 19/07 Q1028 NOSIG RMK PP000=
SPZO Ene2014-041900Z 28006KT 210V340 9999 VCSH FEW040TCU SCT050 BKN080 18/07 Q1028 NOSIG RMK P000=
SPZO Ene2014-042000Z 08005KT 9999 VCSH FEW040TCU SCT050 BKN080 16/06 Q1027 NOSIG RMK PP000=
SPZO Ene2014-042100Z 36006KT 290V080 9999 VCSH FEW040TCU SCT046 BKN080 15/07 Q1027 NOSIG RMK PP000=
SPZO Ene2014-042200Z 23005KT 170V230 9999 VCSH FEW040TCU SCT046 BKN080 13/07 Q1029=
SPZO Ene2014-042300Z 27003KT 210V330 9999 FEW040TCU SCT050 BKN080 13/08 Q1030 NOSIG RMK PP000=
SPZO Ene2014-050000Z 09008KT 9999 -RA VCSH FEW036TCU SCT050 BKN080 12/07 Q1031 RMK PP000=
SPZO Ene2014-050100Z 12004KT 9999 FEW036 SCT050 BKN080 12/07 Q1032 RMK PP000=
SPZO Ene2014-050200Z 10004KT 9999 SCT050 BKN080 11/07 Q1033 RMK PP000=
SPZO Ene2014-050300Z 09003KT 9999 SCT050 BKN080 11/06 Q1033 RMK PP000=
SPZO Ene2014-050400Z 00000KT 9999 SCT050 BKN080 10/06 Q1033 RMK PP000=
SPZO Ene2014-050500Z 00000KT 9999 -RA SCT050 BKN080 09/06 Q1033 RMK PP028=
SPZO Ene2014-050600Z 00000KT 9999 -RA FEW036 SCT050 BKN080 09/06 Q1032 RMK PP018=
SPZO Ene2014-050700Z 00000KT 9999 -RA FEW030 SCT040 BKN080 09/07 Q1032 RMK PP020=
SPZO Ene2014-050800Z 28003KT 9999 -RA FEW020 SCT036 BKN080 09/07 Q1031 RMK PP016=
SPZO Ene2014-050900Z 25003KT 9999 -RA FEW020 SCT036 BKN080 09/06 Q1031 RMK PP018=
SPZO Ene2014-051000Z 24003KT 9000 -RA FEW020 SCT036 BKN080 08/06 Q1032 RMK PP030=
SPZO Ene2014-051100Z 00000KT 9000 -RA FEW020 SCT036 BKN080 08/06 Q1033 NOSIG RMK CLNG BLW 1200M PP010=
SPZO Ene2014-051200Z 10002KT 9000 -DZ FEW015 SCT036 BKN080 08/06 Q1034 NOSIG RMK CLNG BLW 1200M PP006=
SPZO Ene2014-051300Z 00000KT 9999 FEW020 SCT040 BKN080 09/06 Q1034 NOSIG RMK PP002=
SPZO Ene2014-051400Z 00000KT 9999 FEW030 SCT043 BKN080 12/06 Q1034 NOSIG RMK PP000=
SPZO Ene2014-051500Z VRB02KT 9999 FEW036 SCT046 BKN100 14/05 Q1034 NOSIG RMK PP000=
SPZO Ene2014-051600Z 06005KT 350V120 9999 FEW040 SCT046 BKN080 15/08 Q1033=
SPZO Ene2014-051700Z VRB02KT 9999 VCSH FEW040TCU SCT046 BKN100 16/07 Q1032 NOSIG RMK PP000=
SPZO Ene2014-051800Z VRB05KT 9999 SCT046 BKN100 18/07 Q1030 TEMPO FEW040TCU RMK PP002=
SPZO Ene2014-051900Z 25010KT 9999 SCT040TCU BKN080 19/08 Q1029 NOSIG RMK PP000=
SPZO Ene2014-052000Z 28012KT 250V320 9999 VCSH SCT040TCU BKN080 16/07 Q1028 TEMPO -RA RMK PP000=
SPZO Ene2014-052100Z VRB03KT 9999 VCSH FEW036 SCT040TCU BKN080 15/07 Q1028 TEMPO -RA RMK VIS 8000 QUAD W PP000=
SPZO Ene2014-052200Z 26010KT 220V290 9999 FEW033 SCT046 BKN080 14/07 Q1028 NOSIG RMK TMAX 18.8 PP000=
SPZO Ene2014-052300Z 25004KT 9999 SCT036 BKN100 14/07 Q1029 NOSIG RMK PP000=
SPZO Ene2014-060000Z VRB03KT 9999 FEW036 SCT046 BKN080 13/08 Q1030 RMK PP000=
SPZO Ene2014-060100Z VRB02KT 9999 SCT046 BKN080 13/08 Q1031 RMK PP000=
SPZO Ene2014-060200Z 00000KT 9999 SCT046 BKN080 13/08 Q1031 RMK PP000=
SPZO Ene2014-060300Z 09003KT 9000 -RA SCT043 BKN080 12/09 Q1032 RMK PPTRZ=
SPZO Ene2014-060400Z 00000KT 9999 SCT046 BKN080 12/08 Q1032 RERA RMK PPTRZ=
SPZO Ene2014-060500Z 00000KT 9999 SCT046 BKN080 12/08 Q1031 RMK PP000=
SPZO Ene2014-060600Z 07004KT 9999 SCT046 BKN080 11/08 Q1031 RMK PP000=
SPZO Ene2014-060700Z VRB03KT 9999 FEW025 SCT046 BKN080 11/07 Q1031 RMK PP000=
SPZO Ene2014-060800Z 00000KT 9999 FEW030 SCT046 BKN080 11/07 Q1030 RMK PP000=
SPZO Ene2014-060900Z VRB02KT 9999 FEW030 SCT046 BKN080 11/07 Q1030 RMK PP000=
SPZO Ene2014-061000Z VRB02KT 9999 FEW025 SCT040 BKN070 11/07 Q1031 RMK PP000=
SPZO Ene2014-061100Z 00000KT 9999 FEW025 SCT036 BKN070 11/06 Q1031 TEMPO -RA RMK RA QUAD NW PP000=
SPZO Ene2014-061200Z 00000KT 9999 FEW030 SCT040 BKN080 12/07 Q1032 NOSIG RMK PP000=
SPZO Ene2014-061300Z 00000KT 9999 SCT036 BKN080 13/06 Q1032 NOSIG RMK PP000=
SPZO Ene2014-061400Z VRB02KT 9999 SCT036 SCT080 14/06 Q1032 NOSIG RMK PP000=
SPZO Ene2014-061500Z 09004KT 030V150 9999 SCT040 SCT080 16/07 Q1031 NOSIG RMK PP000=
SPZO Ene2014-061600Z 09003KT 070V150 9999 SCT040TCU SCT080 16/06 Q1030 NOSIG RMK PP000=
SPZO Ene2014-061700Z VRB05KT 9999 SCT040TCU SCT080 18/06 Q1030 TEMPO -RA RMK PP000=
SPZO Ene2014-061800Z VRB06KT 9999 FEW036TCU SCT043 SCT080 18/06 Q1028 NOSIG RMK PP000=
SPZO Ene2014-061900Z VRB03KT 9999 FEW036TCU SCT046 SCT080 19/05 Q1027 TEMPO VCSH RMK PP000=
SPZO Ene2014-062000Z 09011KT 060V130 9999 VCSH FEW036TCU SCT050 SCT100 18/07 Q1026 NOSIG RMK PP000=
SPZO Ene2014-062100Z 05005KT 350V100 9999 VCSH FEW036TCU SCT050 BKN100 18/07 Q1026 TEMPO -RA RMK PP000=
SPZO Ene2014-062200Z 26010KT 220V300 9000 -DZ FEW036TCU SCT050 BKN100 14/09 Q1027 NOSIG RMK T MAX 20.7 PP006=
SPZO Ene2014-062300Z 28007KT 9999 SCT050 SCT100 14/08 Q1027 REDZ BECMG FM FEW050 SCT150 RMK PP016=
SPZO Ene2014-070000Z 28006KT 9999 BKN040 SCT046 14/08 Q1028 RMK PP000=
SPZO Ene2014-070100Z 07008KT 8000 -RA SCT030 BKN040 12/09 Q1029 RMK PP002=
SPZO Ene2014-070200Z VRB02KT 8000 RA SCT030 BKN040 11/08 Q1030 RMK PP024=
SPZO Ene2014-070300Z 27007KT 8000 RA OVC040 10/07 Q1032 RMK PP036=
SPZO Ene2014-070400Z 20002KT 9999 -RA BKN040 SCT070 10/07 Q1032 RMK PP012=
SPZO Ene2014-070500Z 00000KT 9999 BKN043 SCT080 10/07 Q1031 RMK PPTRZ=
SPZO Ene2014-070600Z 00000KT 9999 SCT040 BKN060 10/07 Q1030 RMK PP000=
SPZO Ene2014-070700Z 00000KT 9999 SCT040 BKN070 10/08 Q1030 RMK PP002=
SPZO Ene2014-070800Z 00000KT 9999 SCT020 BKN043 10/07 Q1029 RMK PP000=
SPZO Ene2014-070900Z 00000KT 9999 FEW020 SCT040 BKN070 10/07 Q1029 RMK PP000=
SPZO Ene2014-071000Z 00000KT 9999 FEW020 SCT040 BKN080 10/07 Q1029 RMK PP000=
SPZO Ene2014-071100Z 00000KT 9999 FEW020 SCT040 BKN080 10/07 Q1030 NOSIG RMK PP000=
SPZO Ene2014-071200Z VRB02KT 9999 FEW020 SCT036 BKN080 10/07 Q1031 NOSIG RMK BR QUAD NE PP000=
SPZO Ene2014-071300Z 00000KT 9999 FEW020 SCT036 BKN100 12/07 Q1031 NOSIG RMK PP000=
SPZO Ene2014-071400Z VRB03KT 9999 FEW020 SCT036 BKN080 13/06 Q1031 RMK VCSH QUAD NE PP000=
SPZO Ene2014-071500Z 07008KT 030V120 9999 FEW020 SCT036 BKN080 13/07 Q1031 TEMPO -RA RMK RA QUAD NE PP000=
SPZO Ene2014-071600Z 08005KT 030V120 9999 FEW030 SCT040 BKN080 15/07 Q1030 NOSIG RMK RA QUAD NE PP000=
SPZO Ene2014-071700Z VRB02KT 9000 -RA FEW040TCU SCT046 BKN080 13/07 Q1030 NOSIG RMK VIS 8000E RA PP006=
SPZO Ene2014-071800Z 07005KT 030V120 8000 -RA VCSH FEW020TCU SCT040 BKN060 13/09 Q1029 TEMPO VCTS FEW040CB BKN100 RMK PP012=
SPZO Ene2014-071900Z VRB02KT 9000 FEW020TCU SCT040 BKN060 15/08 Q1028 TEMPO 31008KT -RA FEW040TCU BKN070 RMK PP002=
SPZO Ene2014-072000Z VRB01KT 9999 FEW030TCU SCT040 BKN060 17/10 Q1026 NOSIG RMK PP000=
SPZO Ene2014-072100Z 25012KT 220V280 9999 FEW030TCU SCT050 BKN070 14/06 Q1026 TEMPO -RA RMK PP000=
SPZO Ene2014-072200Z 17004KT 090V260 9000 FEW030 SCT050 BKN070 12/08 Q1026 RERA NOSIG RMK TMAX 16.9 PP014=
SPZO Ene2014-072300Z 00000KT 9999 FEW030 SCT050 BKN070 13/08 Q1027 TEMPO -RA RMK PP000=
SPZO Ene2014-080000Z VRB02KT 9999 FEW033 SCT050 BKN080 13/08 Q1028 RMK PP000=
SPZO Ene2014-080100Z 08004KT 9999 FEW033 SCT046 BKN080 11/09 Q1029 RMK PP000=
SPZO Ene2014-080200Z 00000KT 9999 -RA SCT046 BKN080 12/09 Q1030 RMK PPTRZ=
SPZO Ene2014-080300Z 08013KT 9999 FEW030 SCT043 BKN080 10/09 Q1031 RMK PP000=
SPZO Ene2014-080400Z VRB01KT 9999 RA FEW025 SCT040 BKN080 09/07 Q1031 RMK PP030=
SPZO Ene2014-080500Z 00000KT 9999 -RA FEW025 SCT040 BKN080 09/07 Q1031 RMK PP012=
SPZO Ene2014-080600Z 00000KT 9999 -RA FEW020 SCT036 BKN080 09/07 Q1031 RMK PP020=
SPZO Ene2014-080700Z 00000KT 9999 -RA FEW020 SCT036 BKN080 09/07 Q1030 RMK PP006=
SPZO Ene2014-080800Z 00000KT 9999 FEW025 SCT040 BKN080 10/07 Q1030 RMK PP000=
SPZO Ene2014-080900Z 00000KT 9999 FEW025 SCT036 BKN080 10/07 Q1029 RMK PP000=
SPZO Ene2014-081000Z 27006KT 9999 FEW030 SCT040 BKN080 10/06 Q1029 RMK PP000=
SPZO Ene2014-081100Z 26006KT 230V290 9999 FEW030 SCT036 BKN070 10/06 Q1030 TEMPO -RA FEW010 SCT036 BKN060 RMK PP000=
SPZO Ene2014-081200Z 00000KT 9999 FEW020 SCT040 OVC060 11/06 Q1031 TEMPO -RA RMK PP000=
SPZO Ene2014-081300Z VRB01KT 9999 FEW020 SCT040 BKN060 14/06 Q1032 TEMPO SCT040 BKN100 RMK PP000=
SPZO Ene2014-081400Z VRB02KT 9999 FEW030 SCT040 BKN060 13/08 Q1031 NOSIG RMK PP000=
SPZO Ene2014-081500Z VRB03KT 9999 FEW040 SCT050 BKN060 15/08 Q1031 NOSIG RMK PP000=
SPZO Ene2014-081600Z 08004KT 020V150 9999 FEW040 SCT050 BKN060 16/07 Q1030 TEMPO VCSH FEW036TCU BKN100 RMK PP000=
SPZO Ene2014-081700Z VRB03KT 9999 FEW040 SCT050 BKN060 17/07 Q1029 TEMPO VCSH FEW036TCU BKN100 RMK PP000=
SPZO Ene2014-081800Z 07008KT 360V120 9999 VCSH FEW040TCU SCT050 BKN060 16/07 Q1028 TEMPO 9000 -RA RMK PP000=
SPZO Ene2014-081900Z 23005KT 170V300 9999 VCSH FEW040TCU SCT050 BKN080 17/07 Q1027 RERA NOSIG RMK PP002=
SPZO Ene2014-082000Z VRB04KT 9999 FEW040TCU SCT050 BKN080 16/07 Q1026 NOSIG RMK PP000=
SPZO Ene2014-082100Z VRB02KT 9999 FEW040 SCT050 BKN100 16/08 Q1026 NOSIG RMK PP000=
SPZO Ene2014-082200Z 10006KT 9999 SCT050 BKN100 16/07 Q1027 NOSIG RMK T.MAX 19.6 PP000=
SPZO Ene2014-082300Z VRB02KT 9999 FEW040 SCT050 BKN100 14/07 Q1027 NOSIG RMK PP000=
SPZO Ene2014-090000Z 00000KT 9999 SCT050 BKN100 14/07 Q1028 RMK PP000=
SPZO Ene2014-090100Z 00000KT 9999 SCT050 BKN100 12/08 Q1029 RMK PP000=
SPZO Ene2014-090200Z VRB02KT 9999 SCT050 SCT100 10/07 Q1030 RMK PP000=
SPZO Ene2014-090300Z 00000KT 9999 SCT050 BKN080 10/07 Q1031 RMK PP000=
SPZO Ene2014-090400Z 09003KT 9999 SCT050 BKN080 11/08 Q1031 RMK PP000=
SPZO Ene2014-090500Z 00000KT 9999 SCT046 BKN070 11/08 Q1030 RMK RA QUAD NE PP000=
SPZO Ene2014-090600Z 08006KT 050V110 9000 -DZ FEW025 SCT040 BKN070 10/07 Q1030 RMK PP004=
SPZO Ene2014-090700Z 00000KT 9000 -DZ FEW025 SCT040 BKN070 10/07 Q1029 RMK PPTRZ=
SPZO Ene2014-090800Z VRB02KT 9999 FEW030 SCT040 BKN070 10/08 Q1029 REDZ RMK PPTRZ=
SPZO Ene2014-090900Z 00000KT 9999 FEW025 SCT040 BKN070 10/07 Q1029 RMK RA QUAD NE PP000=
SPZO Ene2014-091000Z 00000KT 9999 FEW025 SCT036 BKN070 10/07 Q1029 RMK PP000=
SPZO Ene2014-091100Z 00000KT 9999 FEW025 SCT040 BKN080 10/07 Q1030 NOSIG RMK BR QUAD NE PP000=
SPZO Ene2014-091200Z 10003KT 9999 FEW010 SCT040 OVC060 10/08 Q1031 NOSIG RMK PP000=
SPZO Ene2014-091300Z VRB03KT 9999 FEW010 SCT030 OVC060 11/08 Q1031 NOSIG RMK PP000=
SPZO Ene2014-091400Z VRB01KT 9999 FEW010 SCT030 OVC060 14/08 Q1031 NOSIG RMK PP000=
SPZO Ene2014-091500Z VRB02KT 9999 FEW040 SCT060 BKN080 16/05 Q1031 NOSIG RMK PP000=
SPZO Ene2014-091600Z VRB03KT 9999 FEW040 SCT060 BKN080 17/04 Q1030 NOSIG RMK PP000=
SPZO Ene2014-091700Z VRB03KT 9999 FEW040 SCT060 BKN080 19/06 Q1028 TEMPO VCSH RMK PP000=
SPZO Ene2014-091800Z 28006KT 230V330 9999 FEW050 SCT060 BKN070 18/06 Q1027 TEMPO VCSH FEW040TCU RMK PP000=
SPZO Ene2014-091900Z 30006KT 260V020 9999 VCSH FEW040TCU SCT050 BKN080 17/06 Q1025 NOSIG RMK PP000=
SPZO Ene2014-092000Z 35008KT 300V040 9999 VCSH FEW040TCU SCT050 BKN080 17/06 Q1025 NOSIG RMK PP000=
SPZO Ene2014-092100Z 00000KT 9999 FEW043 SCT050 BKN100 15/06 Q1025 NOSIG RMK PP000=
SPZO Ene2014-092200Z 09009KT 9999 SCT050 BKN100 14/06 Q1026 NOSIG RMK T.MAX 20.1 PP000=
SPZO Ene2014-092300Z 33007KT 280V030 9999 SCT050 BKN100 14/05 Q1026 NOSIG RMK PP000=
SPZO Ene2014-100000Z VRB03KT 9999 FEW050 BKN100 13/06 Q1027 RMK PP000=
SPZO Ene2014-100100Z 10007KT 9999 FEW050 BKN080 13/06 Q1029 RMK PP000=
SPZO Ene2014-100200Z 12003KT 9999 -RA FEW030 SCT046 BKN080 11/07 Q1030 RMK PP006=
SPZO Ene2014-100300Z 00000KT 9999 -RA FEW030 SCT046 BKN080 11/06 Q1031 RMK PP002=
SPZO Ene2014-100400Z 00000KT 9999 FEW033 SCT040 BKN080 11/07 Q1030 RMK PP000=
SPZO Ene2014-100500Z 00000KT 9999 FEW030 SCT040 BKN080 11/08 Q1030 RMK PP000=
SPZO Ene2014-100600Z 00000KT 9999 FEW030 SCT043 BKN080 10/08 Q1029 RMK PP000=
SPZO Ene2014-100700Z 00000KT 9999 FEW030 SCT043 BKN080 10/07 Q1028 RMK PP000=
SPZO Ene2014-100800Z 00000KT 9999 FEW036 SCT043 BKN080 10/07 Q1028 RMK PP000=
SPZO Ene2014-100900Z VRB02KT 9999 FEW036 SCT046 BKN080 10/07 Q1028 RMK PP000=
SPZO Ene2014-101000Z 00000KT 9999 FEW030 SCT040 BKN080 10/07 Q1028 RMK PP000=
SPZO Ene2014-101100Z 00000KT 9999 FEW033 SCT046 BKN080 10/07 Q1028 NOSIG RMK PP000=
SPZO Ene2014-101200Z 00000KT 9999 FEW030 SCT046 BKN100 11/07 Q1030 NOSIG RMK PP000=
SPZO Ene2014-101300Z VRB02KT 9999 FEW030 SCT050 12/07 Q1030 NOSIG RMK PP000=
SPZO Ene2014-101400Z VRB03KT 9999 FEW036 SCT050 14/07 Q1030 NOSIG RMK PP000=
SPZO Ene2014-101500Z 07005KT 010V130 9999 FEW040 SCT050 BKN100 15/07 Q1030 NOSIG RMK PP000=
SPZO Ene2014-101600Z VRB04KT 9999 VCSH FEW040TCU SCT050 BKN100 17/06 Q1029 NOSIG RMK PP000=
SPZO Ene2014-101700Z 09007KT 030V170 9999 FEW040TCU SCT050 BKN100 18/07 Q1028 NOSIG RMK PP000=
SPZO Ene2014-101800Z 03013KT 310V060 9999 FEW040TCU SCT050 BKN100 17/06 Q1027 NOSIG RMK PP000=
SPZO Ene2014-101900Z 11007KT 070V150 9999 VCSH SCT040TCU BKN100 16/06 Q1026 NOSIG RMK PP000=
SPZO Ene2014-102000Z VRB02KT 9999 VCSH FEW036TCU SCT050 BKN100 17/06 Q1025 NOSIG RMK PP000=
SPZO Ene2014-102100Z 01010KT 300V080 9999 FEW036TCU SCT060 BKN100 15/06 Q1025 NOSIG RMK PP000=
SPZO Ene2014-102200Z 36008KT 310V070 9999 FEW036 SCT060 BKN100 15/05 Q1025 NOSIG RMK TMAX 15.5 PP000=
SPZO Ene2014-102300Z 01008KT 9999 FEW036 SCT046TCU BKN080 14/05 Q1026 NOSIG RMK PP000=
SPZO Ene2014-110000Z 03004KT 320V120 9999 FEW036 SCT050 BKN080 14/05 Q1027 RMK PP000=
SPZO Ene2014-110100Z VRB01KT 9999 SCT043 BKN080 14/05 Q1028 RMK PP000=
SPZO Ene2014-110200Z 10008KT 9999 SCT043 BKN080 12/07 Q1030 RMK RA QUAD NE PP000=
SPZO Ene2014-110300Z 08004KT 9000 -RA SCT043 BKN070 10/07 Q1031 RMK PP008=
SPZO Ene2014-110400Z 07005KT 9999 FEW030 SCT043 BKN070 10/07 Q1031 RERA RMK PPTRZ=
SPZO Ene2014-110500Z 00000KT 9999 FEW025 SCT043 BKN070 09/07 Q1031 RMK -SHRA BTN 0420/0440 PP002=
SPZO Ene2014-110600Z 00000KT 9999 FEW025 SCT043 BKN070 10/07 Q1030 RMK PP000=
SPZO Ene2014-110700Z 08003KT 9999 SCT043 BKN070 09/07 Q1029 RMK PP000=
SPZO Ene2014-110800Z 11003KT 9999 FEW020 SCT043 BKN070 09/07 Q1029 RMK PP000=
SPZO Ene2014-110900Z 09004KT 9999 FEW020 SCT040 BKN070 09/07 Q1030 RMK PP000=
SPZO Ene2014-111000Z 00000KT 9999 FEW020 SCT036 BKN070 09/07 Q1030 RMK PP000=
SPZO Ene2014-111100Z VRB02KT 9999 FEW020 SCT036 BKN070 09/07 Q1031 TEMPO -RA FEW010 SCT030 BKN060 RMK BR QUAD NE PP000=
SPZO Ene2014-111200Z VRB02KT 9999 FEW020 SCT040 BKN070 10/07 Q1032 NOSIG RMK BCBR QUAD NE PP000=
SPZO Ene2014-111300Z VRB01KT 9999 SCT036 SCT070 13/07 Q1033 NOSIG RMK PP000=
SPZO Ene2014-111400Z VRB02KT 9999 FEW036 SCT070 15/08 Q1032 NOSIG RMK PP000=
SPZO Ene2014-111500Z 07004KT 350V120 9999 FEW036 SCT080 17/06 Q1032 NOSIG RMK PP000=
SPZO Ene2014-111600Z VRB03KT 9999 FEW040 SCT080 18/04 Q1031 NOSIG RMK PP000=
SPZO Ene2014-111700Z VRB02KT 9999 FEW040 SCT080 19/04 Q1030 NOSIG RMK PP000=
SPZO Ene2014-111800Z VRB04KT 9999 FEW036TCU SCT043 SCT080 20/07 Q1029 TEMPO 36016G26KT VCSH FEW040TCU BKN100 RMK PP000=
SPZO Ene2014-111900Z 02009KT 340V070 9999 FEW040TCU SCT046 SCT080 19/02 Q1028 NOSIG RMK PP000=
SPZO Ene2014-112000Z 36012KT 330V060 9999 FEW040TCU SCT046 20/01 Q1027 NOSIG RMK PP000=
SPZO Ene2014-112100Z 36008KT 300V090 9999 FEW040TCU SCT050 SCT100 21/04 Q1026 NOSIG RMK PP000=
SPZO Ene2014-112200Z 36008KT 300V040 9999 FEW040TCU SCT050 SCT100 21/03 Q1026 TEMPO VCTS FEW040CB BKN100 RMK T MAX 21.0 PP000=
SPZO Ene2014-112300Z VRB05KT 9999 FEW040TCU SCT050 BKN100 18/04 Q1027 TEMPO VCTS FEW040CB BKN080 RMK PP000=
SPZO Ene2014-120000Z 36005KT 9999 SCT050 SCT100 17/04 Q1028 RMK PP000=
SPZO Ene2014-120100Z VRB03KT 9999 BKN050 SCT100 16/04 Q1030 RMK PP000=
SPZO Ene2014-120200Z VRB02KT 9999 SCT050 SCT100 15/05 Q1030 RMK PP000=
SPZO Ene2014-120300Z 00000KT 9999 SCT050 14/06 Q1031 RMK PP000=
SPZO Ene2014-120400Z 08004KT 9999 SCT050 13/07 Q1031 RMK PP000=
SPZO Ene2014-120500Z 00000KT 9999 FEW040 SCT050 12/07 Q1031 RMK PP000=
SPZO Ene2014-120600Z 00000KT 9999 SCT040 SCT050 11/07 Q1031 RMK PP000=
SPZO Ene2014-120700Z 00000KT 9999 SCT043 SCT060 12/07 Q1031 RMK PP000=
SPZO Ene2014-120800Z 00000KT 9999 BKN043 SCT060 12/07 Q1031 RMK PP000=
SPZO Ene2014-120900Z 27004KT 9999 -DZ BKN040 SCT070 10/03 Q1031 RMK PP000=
SPZO Ene2014-121000Z 22004KT 9999 -DZ FEW030 SCT040 BKN070 10/04 Q1032 RMK PPTRZ=
SPZO Ene2014-121100Z VRB02KT 9999 FEW030 SCT046 BKN080 09/05 Q1033 NOSIG RMK PP000=
SPZO Ene2014-121200Z 06004KT 9999 SCT040 BKN100 09/05 Q1034 NOSIG RMK PP000=
SPZO Ene2014-121300Z VRB02KT 9999 FEW025 SCT043 BKN100 10/05 Q1034 NOSIG RMK PP000=
SPZO Ene2014-121400Z VRB02KT 9999 FEW030 SCT046 BKN100 12/05 Q1035 NOSIG RMK PP000=
SPZO Ene2014-121500Z VRB02KT 9999 SCT040 BKN100 15/05 Q1034 TEMPO FEW040TCU BKN080 RMK PP000=
SPZO Ene2014-121600Z VRB02KT 9999 SCT043 BKN100 17/04 Q1033 TEMPO FEW040TCU BKN080 RMK PP000=
SPZO Ene2014-121700Z VRB02KT 9999 SCT046 BKN100 19/02 Q1032 TEMPO SCT040TCU BKN080 RMK PP000=
SPZO Ene2014-121800Z VRB04KT 9999 FEW040TCU SCT046 BKN100 20/01 Q1030 TEMPO 30008KT VCSH SCT040TCU BKN080 RMK PP000=
SPZO Ene2014-121900Z 31005KT 240V010 9999 TS VCSH FEW040CB SCT046 BKN080 18/03 Q1030 TEMPO -RA RMK PP000=
SPZO Ene2014-122000Z 26008KT 9000 VCSH FEW040TCU SCT046 BKN080 14/07 Q1031 RMK PP004=
SPZO Ene2014-122100Z VRB03KT 8000 RA VCSH FEW040TCU SCT050 BKN080 12/05 Q1032 NOSIG RMK PP008=
SPZO Ene2014-122200Z VRB04KT 9999 SCT050 BKN100 12/07 Q1031 NOSIG RMK T.MAX 20.4 PP002=
SPZO Ene2014-122300Z VRB02KT 9999 FEW036 SCT043 BKN080 12/07 Q1032 NOSIG RMK PP000=
SPZO Ene2014-130000Z 10003KT 9999 FEW036 SCT043 BKN080 12/07 Q1032 RMK PP000=
SPZO Ene2014-130100Z 07004KT 030V100 9999 SCT043 BKN080 11/07 Q1034 RMK PP000=
SPZO Ene2014-130200Z VRB02KT 9999 SCT043 BKN080 12/07 Q1035 RMK PP000=
SPZO Ene2014-130300Z 00000KT 9000 -RA SCT040 BKN070 11/07 Q1035 RMK PP004=
SPZO Ene2014-130400Z 00000KT 8000 -RA FEW020 SCT040 BKN070 10/07 Q1036 RMK PP012=
SPZO Ene2014-130500Z 29004KT 250V340 9999 FEW030 SCT043 BKN070 10/06 Q1035 RERA RMK PP006=
SPZO Ene2014-130600Z 24003KT 9999 FEW030 SCT043 BKN070 10/05 Q1034 RMK PP000=
SPZO Ene2014-130700Z VRB02KT 9999 FEW030 SCT043 BKN080 10/06 Q1033 RMK PP000=
SPZO Ene2014-130800Z VRB01KT 9999 FEW030 SCT043 BKN080 10/06 Q1033 RMK PP000=
SPZO Ene2014-130900Z 00000KT 9999 FEW030 SCT043 SCT080 09/05 Q1032 RMK PP000=
SPZO Ene2014-131000Z VRB02KT 9999 FEW030 SCT043 BKN080 08/05 Q1033 RMK PP000=
SPZO Ene2014-131100Z VRB01KT 9999 SCT040 BKN080 08/05 Q1033 NOSIG RMK PP000=
SPZO Ene2014-131200Z VRB02KT 9999 SCT050 11/05 Q1034 NOSIG RMK PP000=
SPZO Ene2014-131300Z VRB01KT 9999 SCT043 SCT080 12/06 Q1035 NOSIG RMK PP000=
SPZO Ene2014-131400Z VRB02KT 9999 SCT050 14/06 Q1034 NOSIG RMK PP000=
SPZO Ene2014-131500Z VRB02KT 9999 SCT050 17/05 Q1034 NOSIG RMK PP000=
SPZO Ene2014-131600Z 00000KT 9999 SCT043 SCT060 16/03 Q1033 NOSIG RMK PP000=
SPZO Ene2014-131700Z VRB02KT 9999 FEW040 SCT050 BKN080 16/04 Q1032 NOSIG RMK PP000=
SPZO Ene2014-131800Z VRB03KT 9000 VCSH FEW040 SCT050 BKN060 16/06 Q1031 RERA NOSIG RMK PP008=
SPZO Ene2014-131900Z 15004KT 060V220 9999 FEW040 SCT050 BKN060 18/06 Q1030 TEMPO VCSH RMK PP000=
SPZO Ene2014-132000Z 09014KT 060V120 9999 VCSH FEW040TCU SCT050 BKN060 15/07 Q1029 TEMPO 09015G25KT RMK PP000=
SPZO Ene2014-132100Z 09011KT 9999 VCSH FEW040TCU SCT050 BKN060 14/08 Q1029 NOSIG RMK PP000=
SPZO Ene2014-132200Z 10008KT 070V140 9999 VCSH FEW040TCU SCT050 BKN060 15/07 Q1029 NOSIG RMK TMAX 18.7 PP000=
SPZO Ene2014-132300Z 09008KT 9999 FEW040 SCT050 BKN060 14/07 Q1030 NOSIG RMK PP000=
SPZO Ene2014-140000Z VRB02KT 9999 SCT043 BKN080 13/07 Q1031 RMK PP000=
SPZO Ene2014-140100Z VRB02KT 9999 SCT043 BKN080 13/07 Q1032 RMK PP000=
SPZO Ene2014-140200Z 09006KT 070V140 9999 SCT046 BKN080 12/06 Q1033 RMK PP000=
SPZO Ene2014-140300Z VRB02KT 9000 -DZ SCT043 BKN080 12/07 Q1033 RMK PPTRZ=
SPZO Ene2014-140400Z VRB02KT 9999 SCT043 SCT080 11/06 Q1033 REDZ RMK PPTRZ=
SPZO Ene2014-140500Z VRB02KT 9999 SCT043 SCT080 09/06 Q1033 RMK PP000=
SPZO Ene2014-140600Z 00000KT 9999 SCT040 SCT080 09/06 Q1032 RMK PP000=
SPZO Ene2014-140700Z 00000KT 9999 SCT040 BKN080 09/05 Q1032 RMK CB QUAD NE PP000=
SPZO Ene2014-140800Z 00000KT 9999 SCT040 BKN080 09/06 Q1032 RMK PP000=
SPZO Ene2014-140900Z 00000KT 9999 FEW020 SCT043 BKN080 09/06 Q1031 RMK PP000=
SPZO Ene2014-141000Z VRB01KT 9999 FEW020 SCT043 BKN080 09/06 Q1032 RMK PP000=
SPZO Ene2014-141100Z VRB01KT 9999 SCT043 BKN080 09/06 Q1033 NOSIG RMK BR QUAD NE PP000=
SPZO Ene2014-141200Z 00000KT 9000 FEW040 SCT050 BKN060 10/06 Q1034 NOSIG RMK BR QUAD NE PP000=
SPZO Ene2014-141300Z VRB02KT 9000 FEW040 SCT050 BKN060 13/06 Q1034 NOSIG RMK HZ QUAD NE/E PP000=
SPZO Ene2014-141400Z VRB01KT 9000 FEW040 SCT050 BKN070 15/05 Q1034 NOSIG RMK HZ QUAD NE/E PP000=
SPZO Ene2014-141500Z VRB02KT 9999 FEW040 SCT050 BKN070 17/06 Q1033 NOSIG RMK PP000=
SPZO Ene2014-141600Z 10004KT 350V160 9999 FEW040 SCT050 BKN070 17/04 Q1032 TEMPO FEW040TCU RMK PP000=
SPZO Ene2014-141700Z VRB03KT 9999 SCT050 BKN070 18/05 Q1031 NOSIG RMK PP000=
SPZO Ene2014-141800Z VRB03KT 9999 SCT050 BKN070 19/03 Q1030 NOSIG RMK PP000=
SPZO Ene2014-141900Z 36011KT 320V050 9999 SCT050 19/04 Q1028 NOSIG RMK PP000=
SPZO Ene2014-142000Z 01012KT 290V070 9999 SCT050 20/03 Q1027 NOSIG RMK PP000=
SPZO Ene2014-142100Z 01012KT 9999 SCT050 SCT100 19/03 Q1027 NOSIG RMK PP000=
SPZO Ene2014-142200Z 04011KT 330V090 9999 FEW040 SCT050 BKN100 18/02 Q1027 TEMPO FEW040TCU BKN100 RMK T.MAX 20.6 PP000=
SPZO Ene2014-142300Z VRB07KT 9999 FEW040 SCT046 BKN100 17/03 Q1028 TEMPO 29006KT VCSH FEW040TCU BKN080 RMK PP000=
SPZO Ene2014-150000Z VRB03KT 9999 SCT046 BKN080 15/02 Q1029 RMK PP000=
SPZO Ene2014-150100Z 14004KT 9999 SCT050 BKN100 14/04 Q1030 RMK PP000=
SPZO Ene2014-150200Z 09004KT 9999 SCT050 BKN200 13/05 Q1031 RMK PP000=
SPZO Ene2014-150300Z VRB02KT 9999 FEW050 BKN200 12/05 Q1032 RMK PP000=
SPZO Ene2014-150400Z VRB02KT 9999 FEW050 BKN200 11/05 Q1032 RMK PP000=
SPZO Ene2014-150500Z VRB02KT 9999 FEW050 BKN200 10/05 Q1032 RMK PP000=
SPZO Ene2014-150600Z 00000KT 9999 FEW050 BKN200 09/05 Q1031 RMK PP000=
SPZO Ene2014-150700Z 07003KT 9999 BKN200 09/05 Q1031 RMK PP000=
SPZO Ene2014-150800Z 00000KT 9999 FEW046 BKN100 10/05 Q1031 RMK PP000=
SPZO Ene2014-150900Z VRB02KT 9999 SCT046 BKN080 09/06 Q1031 RMK PP000=
SPZO Ene2014-151000Z 00000KT 9999 FEW030 SCT046 BKN080 09/06 Q1031 RMK PP000=
SPZO Ene2014-151100Z 00000KT 9999 SCT040 BKN200 09/06 Q1032 TEMPO FEW030 SCT150 RMK VIS 9000E HZ PP000=
SPZO Ene2014-151200Z 00000KT 9999 SCT043 BKN230 11/06 Q1033 NOSIG RMK PP000=
SPZO Ene2014-151300Z VRB02KT 9999 FEW046 BKN230 13/04 Q1033 NOSIG RMK PP000=
SPZO Ene2014-151400Z 00000KT 9999 FEW040 SCT046 14/04 Q1033 NOSIG RMK PP000=
SPZO Ene2014-151500Z 12004KT 070V240 9999 FEW040 SCT050 16/04 Q1032 TEMPO FEW040TCU SCT100 RMK PP000=
SPZO Ene2014-151600Z VRB04KT 9999 FEW040TCU SCT050 18/04 Q1031 TEMPO VCSH RMK PP000=
SPZO Ene2014-151700Z 27006KT 220V330 9999 FEW040 SCT060 18/07 Q1030 NOSIG RMK PP000=
SPZO Ene2014-151800Z 36007KT 9999 FEW040TCU SCT060 18/04 Q1028 TEMPO VCSH RMK PP000=
SPZO Ene2014-151900Z VRB03KT 9999 VCSH SCT036TCU SCT070 21/04 Q1026 TEMPO -RA SCT040TCU BKN100 RMK PP000=
SPZO Ene2014-152000Z 29009KT 9999 VCSH SCT040TCU BKN080 19/05 Q1025 TEMPO VIS 9000 -RA RMK PP000=
SPZO Ene2014-152100Z 33006KT 9999 SCT040 BKN080 15/05 Q1025 NOSIG RMK PP015=
SPZO Ene2014-152200Z 00000KT 9999 SCT040TCU BKN080 16/05 Q1026 TEMPO 9000 -RA VCTS SCT036 BKN070 RMK TMAX 21.0 PP000=
SPZO Ene2014-152300Z 05003KT 9999 FEW033TCU SCT040 BKN080 15/04 Q1027 TEMPO VCSH RMK PP000=
SPZO Ene2014-160000Z 21004KT 160V250 9999 FEW036 SCT046 BKN080 14/05 Q1028 RMK CB QUAD W PP000=
SPZO Ene2014-160100Z VRB06KT 9999 SCT046 BKN080 14/05 Q1030 RMK PP000=
SPZO Ene2014-160200Z VRB05KT 9999 SCT046 BKN080 13/04 Q1031 RMK PP000=
SPZO Ene2014-160300Z VRB03KT 9999 SCT046 BKN080 12/04 Q1032 RMK PP000=
SPZO Ene2014-160400Z 08007KT 9999 SCT043 BKN080 10/05 Q1032 RMK RA QUAD NE PP000=
SPZO Ene2014-160500Z 11006KT 080V140 9999 SCT043 BKN080 10/05 Q1031 RMK RA QUAD NE PP000=
SPZO Ene2014-160600Z 10005KT 080V150 9999 SCT043 BKN080 10/05 Q1031 RMK PP000=
SPZO Ene2014-160700Z VRB03KT 9999 FEW020 SCT040 BKN080 09/06 Q1030 RMK RA QUAD NE PP000=
SPZO Ene2014-160800Z 00000KT 9999 FEW020 SCT040 BKN080 09/05 Q1030 RMK PP000=
SPZO Ene2014-160900Z 00000KT 9999 FEW020 SCT036 BKN080 09/05 Q1030 RMK PP000=
SPZO Ene2014-161000Z 00000KT 9999 FEW020 SCT036 BKN070 09/05 Q1030 RMK PP000=
SPZO Ene2014-161100Z VRB01KT 9999 FEW020 SCT036 BKN070 09/05 Q1031 NOSIG RMK PP000=
SPZO Ene2014-161200Z 00000KT 9999 FEW025 SCT036 BKN070 10/06 Q1032 NOSIG RMK PP000=
SPZO Ene2014-161300Z 00000KT 9999 FEW030TCU SCT036 BKN070 12/06 Q1031 TEMPO-RA QUAD E RMK PP000=
SPZO Ene2014-161400Z 00000KT 9999 FEW030 SCT036 BKN080 12/05 Q1032 NOSIG RMK PP000=
SPZO Ene2014-161500Z 08004KT 020V120 9999 VCSH FEW030TCU SCT036 BKN070 13/06 Q1032 TEMPO 9000 -RA RMK VIS 9000E PP000=
SPZO Ene2014-161600Z 33003KT 9000 -DZ VCSH FEW030 SCT036 BKN080 13/06 Q1032 TEMPO -RA RMK PP000=
SPZO Ene2014-161700Z VRB02KT 9999 VCSH FEW030 SCT036 BKN070 11/07 Q1031 NOSIG RMK CLNG BLW 1200M VIS 9000E PP014=
SPZO Ene2014-161800Z VRB01KT 9000 VCSH FEW030 SCT040 BKN070 12/08 Q1030 NOSIG RMK -RA QUAD NE VIS 8000E PP018=
SPZO Ene2014-161900Z 08006KT 050V110 9000 FEW030 SCT040 BKN080 12/08 Q1029 NOSIG RMK RA QUAD NE -SHRA BTN 1820/1840 PP024=
SPZO Ene2014-162000Z 10005KT 060V170 9999 VCSH FEW036TCU SCT040 BKN080 14/07 Q1028 NOSIG RMK PP000=
SPZO Ene2014-162100Z 08005KT 010V130 9999 VCSH FEW036TCU SCT043 BKN080 16/08 Q1027 NOSIG RMK PP000=
SPZO Ene2014-162200Z 35006KT 300V060 9999 VCSH FEW036TCU SCT043 BKN080 14/05 Q1027 NOSIG RMK T MAX 16.3 PP000=
SPZO Ene2014-162300Z VRB03KT 9999 VCSH FEW036TCU SCT040 BKN080 14/07 Q1028 NOSIG RMK -SHRA BTN 2230/2240 PP000=
SPZO Ene2014-170000Z 00000KT 9999 -RA BKN040 SCT050 12/06 Q1029 RMK PP002=
SPZO Ene2014-170100Z 00000KT 9999 OVC040 11/07 Q1030 RMK PP000=
SPZO Ene2014-170200Z 09004KT 9999 SCT036 SCT050 11/07 Q1031 RMK PP000=
SPZO Ene2014-170300Z 00000KT 9999 OVC040 11/07 Q1032 RMK PP000=
SPZO Ene2014-170400Z 00000KT 8000 RA SCT036 BKN040 08/05 Q1033 RMK PP106=
SPZO Ene2014-170500Z 00000KT 8000 RA SCT030 BKN040 08/05 Q1033 RMK PP044=
SPZO Ene2014-170600Z 00000KT 9999 -RA SCT030 BKN043 07/04 Q1032 RMK PP014=
SPZO Ene2014-170700Z 00000KT 9999 -RA SCT030 BKN043 07/04 Q1032 RMK PP012=
SPZO Ene2014-170800Z 00000KT 9999 SCT020 BKN043 07/04 Q1031 RMK PP006=
SPZO Ene2014-170900Z 00000KT 9999 FEW020 SCT040 BKN050 07/05 Q1031 RMK PP000=
SPZO Ene2014-171000Z 08005KT 9999 FEW015 SCT040 BKN050 06/04 Q1032 RMK PP000=
SPZO Ene2014-171100Z 07003KT 9999 FEW020 SCT046 BKN080 06/04 Q1032 NOSIG RMK PP000=
SPZO Ene2014-171200Z VRB01KT 9999 FEW020 SCT036 BKN070 07/05 Q1033 NOSIG RMK PP000=
SPZO Ene2014-171300Z 00000KT 9999 FEW025 SCT036 BKN070 09/04 Q1034 NOSIG RMK PP000=
SPZO Ene2014-171400Z VRB02KT 9999 FEW025 SCT040 BKN080 12/04 Q1034 NOSIG RMK PP000=
SPZO Ene2014-171500Z 08005KT 030V120 9999 FEW030 SCT040 BKN080 13/06 Q1033 NOSIG RMK PP000=
SPZO Ene2014-171600Z 08005KT 330V140 9999 SCT040 BKN080 14/06 Q1032 NOSIG RMK PP000=
SPZO Ene2014-171700Z VRB04KT 9999 FEW036TCU SCT043 BKN080 17/05 Q1031 TEMPO VCSH RMK PP000=
SPZO Ene2014-171800Z 35005KT 310V060 9999 VCSH FEW030TCU SCT040 BKN070 16/06 Q1030 NOSIG RMK PP000=
SPZO Ene2014-171900Z 26008KT 220V300 9999 VCSH FEW030TCU SCT040 BKN070 15/06 Q1030 NOSIG RMK PP000=
SPZO Ene2014-172000Z 26007KT 200V320 9999 FEW040 SCT050 BKN070 17/06 Q1029 TEMPO VCSH RMK PP000=
SPZO Ene2014-172100Z 28012KT 250V340 9999 FEW040 SCT050 BKN070 15/06 Q1029 NOSIG RMK PP000=
SPZO Ene2014-172200Z VRB03KT 9999 FEW050 SCT060 BKN070 17/06 Q1028 NOSIG RMK TMAX 17.1 PP000=
SPZO Ene2014-172300Z 26008KT 230V290 9999 FEW050 SCT060 16/05 Q1028 NOSIG RMK PP000=
SPZO Ene2014-180000Z 28005KT 9999 FEW050 SCT080 13/06 Q1029 RMK PP000=
SPZO Ene2014-180100Z 25007KT 9999 FEW050 13/06 Q1030 RMK PP000=
SPZO Ene2014-180200Z 25005KT 9999 FEW050 12/06 Q1031 RMK PP000=
SPZO Ene2014-180300Z 07003KT 9999 SCT050 10/07 Q1032 RMK PP000=
SPZO Ene2014-180400Z 00000KT 9999 SCT050 10/06 Q1032 RMK PP000=
SPZO Ene2014-180500Z 00000KT 9999 FEW040 BKN080 10/07 Q1032 RMK PP000=
SPZO Ene2014-180600Z 00000KT 9999 -RA FEW040 BKN070 10/07 Q1032 RMK PPTRZ=
SPZO Ene2014-180700Z 00000KT 9999 FEW030 SCT040 BKN080 10/07 Q1031 RMK PP002=
SPZO Ene2014-180800Z 00000KT 9999 FEW030 SCT043 BKN080 11/07 Q1031 RMK PP000=
SPZO Ene2014-180900Z VRB01KT 9999 -RA FEW030 SCT040 BKN080 10/08 Q1031 RMK PP012=
SPZO Ene2014-181000Z VRB02KT 9999 -DZ FEW025 SCT036 BKN070 10/07 Q1032 RMK PP008=
SPZO Ene2014-181100Z VRB02KT 9999 FEW020 SCT033 BKN080 10/08 Q1033 NOSIG RMK PP000=
SPZO Ene2014-181200Z VRB01KT 9000 SCT020 SCT040 BKN080 10/08 Q1033 NOSIG RMK PP000=
SPZO Ene2014-181300Z 09003KT 9999 FEW020 SCT043 BKN080 12/08 Q1034 NOSIG RMK PP000=
SPZO Ene2014-181400Z 09006KT 030V150 9999 FEW030 SCT046 BKN080 13/07 Q1034 NOSIG RMK PP000=
SPZO Ene2014-181500Z 13005KT 080V180 9999 FEW036 SCT043 BKN080 14/07 Q1034 NOSIG RMK PP000=
SPZO Ene2014-181600Z 31011KT 270V350 9000 -RA FEW033 SCT040TCU BKN070 10/07 Q1034 RMK PP006=
SPZO Ene2014-181700Z 24007KT 200V260 9999 -RA FEW020 SCT046 BKN080 10/07 Q1034 RMK PP030=
SPZO Ene2014-181800Z 27004KT 290V330 9999 VCSH FEW020 SCT046 BKN080 14/08 Q1033 NOSIG RMK PP002=
SPZO Ene2014-181900Z 26007KT 210V300 9999 FEW025 SCT046 BKN080 15/07 Q1031 NOSIG RMK RA QUAD E PP000=
SPZO Ene2014-182000Z 28007KT 240V330 9999 SCT040 BKN080 15/07 Q1030 NOSIG RMK PP000=
SPZO Ene2014-182100Z VRB03KT 9999 SCT043 BKN100 18/07 Q1029 NOSIG RMK PP000=
SPZO Ene2014-182200Z 35007KT 250V050 9999 SCT050 SCT100 16/06 Q1029 NOSIG RMK TMAX 19.2 PP000=
SPZO Ene2014-182300Z VRB04KT 9999 SCT046 BKN080 15/06 Q1030 NOSIG RMK PP000=
SPZO Ene2014-190000Z 10004KT 9999 SCT043 BKN080 14/07 Q1030 RMK PP000=
SPZO Ene2014-190100Z 26004KT 9999 SCT043 BKN080 13/07 Q1031 RMK PP000=
SPZO Ene2014-190200Z 26005KT 9999 SCT046 BKN080 13/08 Q1032 RMK PP000=
SPZO Ene2014-190300Z 28005KT 240V320 9999 SCT043 BKN080 13/07 Q1033 RMK PP000=
SPZO Ene2014-190400Z 25004KT 9999 SCT046 BKN080 12/07 Q1032 RMK PP000=
SPZO Ene2014-190500Z 27008KT 240V300 9999 SCT046 BKN080 12/06 Q1032 RMK PP000=
SPZO Ene2014-190600Z 27004KT 240V300 9999 SCT046 BKN080 12/07 Q1031 RMK PP000=
SPZO Ene2014-190700Z 08009KT 9999 SCT043 BKN080 11/08 Q1031 RMK RA QUAD NE PP000=
SPZO Ene2014-190800Z 08011KT 9000 -RA FEW025 SCT040 BKN070 09/07 Q1032 RMK PP002=
SPZO Ene2014-190900Z 00000KT 8000 -RA FEW015 SCT036 BKN060 08/07 Q1032 RMK CLNG BLW 1200M PP028=
SPZO Ene2014-191000Z 00000KT 8000 -RA FEW020 SCT036 BKN060 08/06 Q1033 RMK CLNG BLW 1200M PP032=
SPZO Ene2014-191100Z 00000KT 6000 -RA FEW020 SCT033 OVC060 08/05 Q1034 NOSIG RMK CLNG BLW 1200M PP010=
SPZO Ene2014-191200Z 00000KT 7000 -RA FEW015 SCT033 OVC070 08/05 Q1035 NOSIG RMK CLNG BLW 1200M PP022=
SPZO Ene2014-191300Z 00000KT 9999 DZ FEW010 SCT036 OVC070 09/05 Q1035 NOSIG RMK VIS 9000 QUAD NE PP004=
SPZO Ene2014-191400Z 00000KT 9999 FEW010 SCT036 BKN080 11/05 Q1035 NOSIG RMK VIS 9000 QUAD NE PP000=
SPZO Ene2014-191500Z VRB02KT 9999 FEW015 SCT040 BKN080 12/06 Q1034 NOSIG RMK PP000=
SPZO Ene2014-191600Z VRB01KT 9999 FEW020 SCT043 BKN100 13/05 Q1034 NOSIG RMK PP000=
SPZO Ene2014-191700Z VRB02KT 9999 SCT043 BKN150 16/07 Q1033 NOSIG RMK PP000=
SPZO Ene2014-191800Z VRB03KT 9999 SCT043 SCT230 17/07 Q1031 NOSIG RMK PP000=
SPZO Ene2014-191900Z VRB03KT 9999 SCT046 SCT230 19/08 Q1029 NOSIG RMK PP000=
SPZO Ene2014-192000Z VRB03KT 9999 SCT050 SCT230 19/05 Q1027 NOSIG RMK PP000=
SPZO Ene2014-192100Z VRB02KT 9999 FEW040 SCT050 19/02 Q1026 NOSIG RMK PP000=
SPZO Ene2014-192200Z VRB03KT 9999 SCT046 SCT100 19/06 Q1026 NOSIG RMK T.MAX 20.2 PP000=
SPZO Ene2014-192300Z 12005KT 060V120 9999 FEW040TCU SCT046 BKN080 18/07 Q1026 NOSIG RMK PP000=
SPZO Ene2014-200000Z 28010KT 250V320 9999 TS VCSH FEW036TCU SCT050CB BKN080 14/06 Q1028 RMK PPTRZ=
SPZO Ene2014-200100Z 26006KT 9999 SCT050 BKN080 13/08 Q1029 RMK RA QUAD NE PP000=
SPZO Ene2014-200200Z 10007KT 070V140 9000 -TSRA FEW030 SCT046CB BKN080 11/08 Q1031 RMK PP022=
SPZO Ene2014-200300Z 07004KT 8000 -RA FEW030 SCT040 BKN070 10/07 Q1032 RMK PP038=
SPZO Ene2014-200400Z 00000KT 6000 RA FEW025 SCT036 BKN070 10/08 Q1033 RMK PP058=
SPZO Ene2014-200500Z VRB03KT 6000 RA FEW020 SCT036 BKN070 09/06 Q1033 RMK PP032=
SPZO Ene2014-200600Z 00000KT 6000 RA FEW020 SCT036 BKN070 08/06 Q1033 RMK PP032=
SPZO Ene2014-200700Z VRB02KT 4000 RA BR FEW020 SCT036 BKN070 07/05 Q1032 RMK PP048=
SPZO Ene2014-200800Z VRB03KT 6000 -RA FEW020 SCT036 OVC070 07/05 Q1032 RMK CLNG BLW 1200M PP022=
SPZO Ene2014-200900Z VRB02KT 8000 -RA FEW020 SCT036 OVC070 07/05 Q1032 RMK CLNG BLW 1200M PP010=
SPZO Ene2014-201000Z 27003KT 8000 -RA FEW015 SCT036 OVC060 07/05 Q1032 RMK CLNG BLW 1200M PP010=
SPZO Ene2014-201100Z 00000KT 8000 -RA FEW025 SCT036 OVC070 07/05 Q1032 NOSIG RMK CLNG BLW 1200M PP004=
SPZO Ene2014-201200Z 00000KT 9999 -DZ FEW015 SCT036 OVC070 08/06 Q1033 NOSIG RMK CLNG BLW 1200M PP004=
SPZO Ene2014-201300Z 00000KT 9999 FEW030 SCT043 BKN100 10/05 Q1034 NOSIG RMK PP000=
SPZO Ene2014-201400Z 07003KT 9999 FEW033 SCT043 BKN100 11/06 Q1034 NOSIG RMK PP000=
SPZO Ene2014-201500Z VRB04KT 9999 FEW036 SCT046 BKN100 13/05 Q1033 NOSIG RMK PP000=
SPZO Ene2014-201600Z 00000KT 9999 FEW036 SCT046 BKN100 15/06 Q1032 NOSIG RMK PP000=
SPZO Ene2014-201700Z VRB02KT 9999 FEW036 SCT050 BKN100 15/06 Q1031 NOSIG RMK PP000=
SPZO Ene2014-201800Z VRB04KT 9999 FEW036 SCT046 BKN100 16/07 Q1030 NOSIG RMK PP000=
SPZO Ene2014-201900Z 08007KT 010V150 9999 VCSH FEW036TCU SCT046 BKN080 16/07 Q1029 NOSIG RMK PP000=
SPZO Ene2014-202000Z 09006KT 040V120 9999 VCSH FEW036TCU SCT046CB BKN080 15/08 Q1028 TEMPO -RA RMK PP000=
SPZO Ene2014-202100Z 00000KT 9999 SCT046 BKN150 17/07 Q1027 NOSIG RMK PP000=
SPZO Ene2014-202200Z VRB02KT 9999 FEW046 BKN150 18/06 Q1027 NOSIG RMK TMAX 17.5 PP000=
SPZO Ene2014-202300Z 00000KT 9999 FEW046 SCT100 15/06 Q1027 NOSIG RMK PP000=
SPZO Ene2014-210000Z 12003KT 9999 SCT060 14/08 Q1028 RMK PP000=
SPZO Ene2014-210100Z 00000KT 9999 FEW060 13/08 Q1029 RMK PP000=
SPZO Ene2014-210200Z 00000KT 9999 FEW060 11/08 Q1030 RMK PP000=
SPZO Ene2014-210300Z 00000KT 9999 FEW050 11/08 Q1030 RMK PP000=
SPZO Ene2014-210400Z 00000KT 9999 FEW050 SCT080 11/08 Q1031 RMK PP000=
SPZO Ene2014-210500Z 06003KT 9999 FEW050 SCT080 10/07 Q1030 RMK PP000=
SPZO Ene2014-210600Z VRB02KT 9999 FEW050 SCT080 10/08 Q1030 RMK PP000=
SPZO Ene2014-210700Z 00000KT 9999 -RA SCT043 BKN080 10/07 Q1029 RMK PPTRZ=
SPZO Ene2014-210800Z 00000KT 9999 SCT043 BKN080 10/08 Q1029 RMK PP010=
SPZO Ene2014-210900Z 00000KT 9999 SCT043 BKN080 10/08 Q1029 RMK PP000=
SPZO Ene2014-211000Z 00000KT 9999 SCT043 BKN080 10/08 Q1029 RMK PP000=
SPZO Ene2014-211100Z 00000KT 9999 FEW025 SCT043 BKN080 10/08 Q1030 NOSIG RMK VIS 9000 QUAD E BR PP000=
SPZO Ene2014-211200Z 00000KT 9999 FEW020 SCT040 SCT100 12/08 Q1031 NOSIG RMK VIS 9000 QUAD E BR PP000=
SPZO Ene2014-211300Z 00000KT 9999 SCT030 BKN080 13/08 Q1031 NOSIG RMK PP000=
SPZO Ene2014-211400Z 30004KT 9999 SCT033 SCT080 16/06 Q1032 NOSIG RMK PP000=
SPZO Ene2014-211500Z 00000KT 9999 SCT043 SCT200 19/08 Q1031 NOSIG RMK PP000=
SPZO Ene2014-211600Z VRB02KT 9999 SCT046 SCT150 18/06 Q1030 NOSIG RMK PP000=
SPZO Ene2014-211700Z VRB03KT 9999 SCT046 SCT080 20/06 Q1029 NOSIG RMK PP000=
SPZO Ene2014-211800Z VRB02KT 9999 FEW036TCU SCT046 SCT080 22/08 Q1027 TEMPO VCSH RMK PP000=
SPZO Ene2014-211900Z 27013KT 230V300 9999 VCSH FEW040TCU SCT050 BKN080 19/07 Q1026 TEMPO -RA RMK PP000=
SPZO Ene2014-212000Z 27007KT 240V330 9999 FEW036TCU SCT050 BKN080 16/10 Q1026 RERA NOSIG RMK PP008=
SPZO Ene2014-212100Z 22009KT 190V260 9999 FEW036TCU SCT050 BKN100 17/06 Q1025 NOSIG RMK PP000=
SPZO Ene2014-212200Z 24004KT 210V270 9999 SCT050 BKN100 17/07 Q1025 NOSIG RMK CB QUAD S T.MAX 22.2 PP000=
SPZO Ene2014-212300Z 27006KT 230V300 9999 FEW050 BKN100 16/08 Q1026 NOSIG RMK RA QUAD NE PP000=
SPZO Ene2014-220000Z 00000KT 9999 BKN046 SCT100 15/08 Q1027 RMK PP000=
SPZO Ene2014-220100Z 26005KT 9999 BKN050 SCT100 14/09 Q1028 RMK PP000=
SPZO Ene2014-220200Z 23002KT 9999 BKN043 SCT080 14/09 Q1029 RMK PP000=
SPZO Ene2014-220300Z 00000KT 9999 SCT043 SCT080 12/08 Q1029 RMK PP000=
SPZO Ene2014-220400Z 00000KT 9999 SCT040 SCT100 13/09 Q1030 RMK PP000=
SPZO Ene2014-220500Z 00000KT 9999 BKN043 SCT060 12/09 Q1029 RMK PP000=
SPZO Ene2014-220600Z 00000KT 9999 BKN040 SCT050 13/08 Q1029 RMK PP000=
SPZO Ene2014-220700Z 25003KT 9000 -RA BKN040 SCT046 12/08 Q1028 RMK PP002=
SPZO Ene2014-220800Z 14010KT 8000 TSRA SCT040CB BKN046 08/04 Q1030 RMK PP152=
SPZO Ene2014-220900Z 24006KT 9000 RA SCT036 BKN046 08/06 Q1030 RMK PP030=
SPZO Ene2014-221000Z VRB06KT 9999 -DZ FEW030 SCT040 BKN070 09/05 Q1030 RMK PP008=
SPZO Ene2014-221100Z VRB02KT 9999 FEW030 SCT043 BKN080 09/06 Q1031 NOSIG RMK PP000=
SPZO Ene2014-221200Z 28003KT 9999 FEW040 SCT050 BKN100 09/06 Q1032 NOSIG RMK PP000=
SPZO Ene2014-221300Z VRB01KT 9999 SCT046 BKN100 11/06 Q1033 NOSIG RMK PP000=
SPZO Ene2014-221400Z 00000KT 9999 FEW030 SCT046 BKN100 13/05 Q1032 NOSIG RMK PP000=
SPZO Ene2014-221500Z VRB02KT 9999 SCT043 BKN100 14/06 Q1032 NOSIG RMK PP000=
SPZO Ene2014-221600Z VRB01KT 9999 SCT043 BKN100 16/04 Q1031 NOSIG RMK PP000=
SPZO Ene2014-221700Z VRB03KT 9999 SCT046 BKN100 17/04 Q1030 NOSIG RMK PP000=
SPZO Ene2014-221800Z VRB03KT 9999 FEW040TCU SCT050 BKN100 18/07 Q1028 NOSIG RMK PP000=
SPZO Ene2014-221900Z 34009KT 290V040 9999 FEW040TCU SCT050 BKN100 16/05 Q1028 NOSIG RMK PP000=
SPZO Ene2014-222000Z 15007KT 090V190 9999 VCSH FEW040TCU SCT050 BKN070 15/05 Q1027 RERA NOSIG RMK PP002=
SPZO Ene2014-222100Z 14006KT 090V210 9999 VCSH FEW040TCU SCT050 BKN070 14/06 Q1027 NOSIG RMK PP000=
SPZO Ene2014-222200Z 10010KT 070V140 9999 VCSH FEW040TCU SCT050 BKN070 14/06 Q1027 NOSIG RMK TMAX 19.5 PP000=
SPZO Ene2014-222300Z 07005KT 030V100 9999 FEW040 SCT050 BKN080 13/06 Q1028 NOSIG RMK PP000=
SPZO Ene2014-230000Z 00000KT 9999 FEW040 SCT060TCU BKN100 12/06 Q1029 RMK PP000=
SPZO Ene2014-230100Z 00000KT 9999 FEW040 SCT060 BKN100 12/07 Q1030 RMK PP000=
SPZO Ene2014-230200Z 26008KT 9999 FEW030 SCT050TCU BKN100 11/07 Q1031 RMK PP012=
SPZO Ene2014-230300Z 27010KT 9999 -RA FEW030 SCT046TCU BKN080 10/06 Q1032 RMK PP006=
SPZO Ene2014-230400Z 26008KT 9999 -DZ FEW030 SCT046 BKN080 10/05 Q1031 RMK PP002=
SPZO Ene2014-230500Z 25009KT 9999 FEW030 SCT040 BKN080 10/05 Q1031 RMK PP000=
SPZO Ene2014-230600Z 24006KT 9999 FEW033 SCT046 BKN080 06/05 Q1031 RMK PP000=
SPZO Ene2014-230700Z VRB02KT 9999 FEW033 SCT046 BKN080 09/05 Q1030 RMK PP000=
SPZO Ene2014-230800Z 00000KT 9999 FEW033 SCT046 BKN080 09/06 Q1030 RMK PP000=
SPZO Ene2014-230900Z 00000KT 9999 FEW030 SCT040 BKN080 09/06 Q1030 RMK PP000=
SPZO Ene2014-231000Z VRB01KT 9999 FEW030 SCT046 BKN080 09/06 Q1030 RMK PP000=
SPZO Ene2014-231100Z 00000KT 9999 FEW020 SCT036 BKN080 09/05 Q1030 NOSIG RMK PP000=
SPZO Ene2014-231200Z VRB02KT 9999 FEW015 SCT040 BKN070 10/06 Q1031 NOSIG RMK PP000=
SPZO Ene2014-231300Z 00000KT 9999 FEW015 SCT040 BKN060 11/06 Q1032 NOSIG RMK PP000=
SPZO Ene2014-231400Z 00000KT 9999 FEW015 SCT040 BKN060 12/05 Q1032 NOSIG RMK PP000=
SPZO Ene2014-231500Z VRB02KT 9999 FEW020 SCT040 BKN060 14/05 Q1032 NOSIG RMK PP000=
SPZO Ene2014-231600Z 26008KT 190V310 9999 FEW020 SCT040 BKN060 15/06 Q1031 NOSIG RMK PP000=
SPZO Ene2014-231700Z 26007KT 210V340 9999 FEW040 SCT050 BKN060 17/05 Q1030 NOSIG RMK PP000=
SPZO Ene2014-231800Z 13003KT 070V170 9999 VCSH FEW036 SCT046 BKN080 14/06 Q1030 WS R28 NOSIG RMK PP000=
SPZO Ene2014-231900Z 28011KT 250V320 9999 FEW036TCU SCT046 BKN080 16/06 Q1028 NOSIG RMK PP000=
SPZO Ene2014-232000Z 27006KT 200V010 9999 SCT050 BKN100 18/06 Q1027 NOSIG RMK PP000=
SPZO Ene2014-232100Z 25009KT 9999 SCT050 BKN100 17/05 Q1026 NOSIG RMK PP000=
SPZO Ene2014-232200Z 23006KT 180V290 9999 -TSRA FEW040CB SCT050 BKN080 16/07 Q1026 NOSIG RMK TMAX 18.3 PP000=
SPZO Ene2014-232300Z 01005KT 280V080 8000 -TSRA SCT036CB OVC050 12/08 Q1028 NOSIG RMK VIS 6000 QUAD NE RA PP032=
SPZO Ene2014-240000Z VRB04KT 9999 FEW036 SCT050 BKN080 12/07 Q1029 RERA RMK PPTRZ=
SPZO Ene2014-240100Z 08004KT 9999 SCT050 BKN080 11/08 Q1029 RMK PP000=
SPZO Ene2014-240200Z 00000KT 9999 SCT043 BKN070 12/09 Q1030 RMK -RA QUAD NE PP000=
SPZO Ene2014-240300Z 00000KT 9000 -RA SCT040 BKN070 12/08 Q1031 RMK PP002=
SPZO Ene2014-240400Z 32003KT 9000 -RA SCT040 BKN070 11/08 Q1031 RMK PP002=
SPZO Ene2014-240500Z VRB03KT 9000 -RA SCT040 BKN070 11/07 Q1031 RMK PP004=
SPZO Ene2014-240600Z 00000KT 9000 -RA FEW030 SCT040 BKN070 11/08 Q1030 RMK PP002=
SPZO Ene2014-240700Z 00000KT 9000 -DZ FEW025 SCT040 BKN070 10/07 Q1030 RMK PPTRZ=
SPZO Ene2014-240800Z 00000KT 9999 FEW025 SCT040 BKN070 10/08 Q1029 REDZ RMK PPTRZ=
SPZO Ene2014-240900Z 00000KT 9999 FEW025 SCT036 BKN070 10/08 Q1029 RMK PP000=
SPZO Ene2014-241000Z 00000KT 9999 FEW025 SCT036 BKN070 10/08 Q1030 RMK VIS 8000E BR PP000=
SPZO Ene2014-241100Z 00000KT 9999 FEW020 SCT036 BKN070 09/07 Q1030 NOSIG RMK VIS 8000E BR PP000=
SPZO Ene2014-241200Z 00000KT 9999 FEW015 SCT040 BKN150 11/07 Q1032 NOSIG RMK VIS 9000 QUAD NE BR PP000=
SPZO Ene2014-241300Z VRB01KT 9999 FEW015 SCT040 13/07 Q1032 NOSIG RMK PP000=
SPZO Ene2014-241400Z VRB02KT 9999 FEW033 SCT050 15/07 Q1032 NOSIG RMK PP000=
SPZO Ene2014-241500Z VRB01KT 9999 FEW040 SCT050 17/06 Q1031 NOSIG RMK PP000=
SPZO Ene2014-241600Z 27007KT 240V320 9999 SCT050 17/02 Q1031 NOSIG RMK PP000=
SPZO Ene2014-241700Z VRB03KT 9999 SCT050 18/02 Q1030 NOSIG RMK PP000=
SPZO Ene2014-241800Z 25006KT 170V300 9999 SCT050 20/03 Q1028 NOSIG RMK PP000=
SPZO Ene2014-241900Z VRB04KT 9999 SCT050 22/07 Q1027 NOSIG RMK PP000=
SPZO Ene2014-242000Z VRB04KT 9999 SCT050 21/04 Q1025 NOSIG RMK PP000=
SPZO Ene2014-242100Z 26011KT 230V300 9999 FEW040 SCT050 20/05 Q1025 NOSIG RMK PP000=
SPZO Ene2014-242200Z 29011KT 9999 FEW043TCU SCT050 BKN100 18/04 Q1025 TEMPO VCTS FEW036CB BKN080 RMK T.MAX 22.5 PP000=
SPZO Ene2014-242300Z VRB05KT 9999 FEW043 SCT050 BKN100 18/04 Q1025 NOSIG RMK PP000=
SPZO Ene2014-250000Z VRB03KT 9999 SCT050 BKN100 16/05 Q1026 RMK PP000=
SPZO Ene2014-250100Z 25004KT 170V320 9999 SCT050 BKN100 15/06 Q1027 RMK PP000=
SPZO Ene2014-250200Z VRB02KT 9999 SCT050 BKN100 13/06 Q1028 RMK PP000=
SPZO Ene2014-250300Z 00000KT 9999 SCT050 BKN080 11/06 Q1029 RMK PP000=
SPZO Ene2014-250400Z 00000KT 9999 SCT050 BKN080 09/06 Q1029 RMK CB QUAD NE PP000=
SPZO Ene2014-250500Z 00000KT 9999 SCT046 BKN080 10/07 Q1029 RMK CB QUAD NE PP000=
SPZO Ene2014-250600Z 00000KT 9999 SCT046 BKN080 10/06 Q1029 RMK BR QUAD E PP000=
SPZO Ene2014-250700Z 00000KT 9999 SCT046 BKN080 08/05 Q1029 RMK PP000=
SPZO Ene2014-250800Z VRB02KT 9999 SCT043 BKN080 08/05 Q1028 RMK PP000=
SPZO Ene2014-250900Z 00000KT 9999 SCT043 SCT080 08/05 Q1029 RMK CB QUAD N PP000=
SPZO Ene2014-251000Z VRB01KT 9999 FEW020 SCT043 BKN080 06/04 Q1029 RMK PP000=
SPZO Ene2014-251100Z VRB02KT 9999 FEW020 SCT040 BKN100 07/05 Q1030 NOSIG RMK VIS 9000E BR PP000=
SPZO Ene2014-251200Z 00000KT 9999 SCT036 OVC100 08/06 Q1031 NOSIG RMK PP000=
SPZO Ene2014-251300Z VRB02KT 9999 FEW040 OVC230 11/07 Q1031 NOSIG RMK PP000=
SPZO Ene2014-251400Z VRB02KT 9999 SCT046 BKN230 15/05 Q1031 NOSIG RMK PP000=
SPZO Ene2014-251500Z VRB03KT 9999 SCT050 SCT230 17/04 Q1030 NOSIG RMK PP000=
SPZO Ene2014-251600Z VRB02KT 9999 FEW050 SCT230 18/03 Q1029 NOSIG RMK PP000=
SPZO Ene2014-251700Z VRB04KT 9999 FEW050 SCT230 20/M04 Q1028 NOSIG RMK PP000=
SPZO Ene2014-251800Z 18007KT 090V240 9999 FEW046 BKN200 21/M05 Q1027 NOSIG RMK PP000=
SPZO Ene2014-251900Z VRB01KT 9999 FEW040 BKN200 21/M00 Q1025 NOSIG RMK PP000=
SPZO Ene2014-252000Z 00000KT 9999 FEW040 BKN200 22/M02 Q1024 NOSIG RMK PP000=
SPZO Ene2014-252100Z 21004KT 170V260 9999 BKN200 22/M03 Q1023 NOSIG RMK PP000=
SPZO Ene2014-252200Z 26010KT 170V260 9999 FEW036 BKN230 19/01 Q1023 NOSIG RMK TMAX 21.7 PP000=
SPZO Ene2014-252300Z 26006KT 9999 SCT040 BKN230 18/01 Q1023 NOSIG RMK PP000=
SPZO Ene2014-260000Z VRB02KT 9999 SCT050 17/03 Q1025 RMK PP000=
SPZO Ene2014-260100Z 26004KT 9999 SCT050 14/05 Q1025 RMK PP000=
SPZO Ene2014-260200Z VRB02KT 9999 SCT050 14/06 Q1027 RMK PP000=
SPZO Ene2014-260300Z 27004KT 220V300 9999 SCT050 12/06 Q1027 RMK PP000=
SPZO Ene2014-260400Z 28004KT 9999 SCT050 12/06 Q1027 RMK PP000=
SPZO Ene2014-260500Z 00000KT 9999 FEW040 SCT050 11/07 Q1026 RMK PP000=
SPZO Ene2014-260600Z 09003KT 070V150 9999 FEW040 SCT050 11/06 Q1026 RMK PP000=
SPZO Ene2014-260700Z VRB01KT 9999 FEW040 SCT050 10/06 Q1026 RMK PP000=
SPZO Ene2014-260800Z VRB01KT 9999 FEW040 SCT050 09/05 Q1026 RMK PP000=
SPZO Ene2014-260900Z 00000KT 9999 FEW040 SCT050 08/05 Q1026 RMK PP000=
SPZO Ene2014-261000Z VRB02KT 9999 FEW040 SCT050 09/05 Q1027 RMK PP000=
SPZO Ene2014-261100Z VRB02KT 9999 FEW040 OVC100 09/04 Q1028 NOSIG RMK PP000=
SPZO Ene2014-261200Z 00000KT 9999 OVC150 10/05 Q1029 NOSIG RMK PP000=
SPZO Ene2014-261300Z 00000KT 9999 FEW036 OVC150 12/05 Q1030 NOSIG RMK PP000=
SPZO Ene2014-261400Z 00000KT 9999 OVC150 14/04 Q1030 NOSIG RMK PP000=
SPZO Ene2014-261500Z VRB02KT 9999 FEW036 OVC230 16/02 Q1029 NOSIG RMK PP000=
SPZO Ene2014-261600Z 21007KT 140V270 9999 FEW036 OVC230 18/M06 Q1028 NOSIG RMK PP000=
SPZO Ene2014-261700Z 26007KT 180V330 9999 SCT060 BKN230 19/M03 Q1027 NOSIG RMK PP000=
SPZO Ene2014-261800Z VRB08KT 9999 SCT060 BKN150 19/M06 Q1026 NOSIG RMK PP000=
SPZO Ene2014-261900Z VRB03KT 9999 SCT060 BKN150 20/M03 Q1025 NOSIG RMK PP000=
SPZO Ene2014-262000Z VRB02KT 9999 FEW036TCU SCT050 BKN100 20/M04 Q1024 TEMPO VCSH SCT040TCU BKN080 RMK PP000=
SPZO Ene2014-262100Z VRB06KT 9999 FEW040TCU SCT050 BKN100 19/01 Q1024 TEMPO VCSH SCT040TCU BKN080 RMK PP000=
SPZO Ene2014-262200Z 10011KT 9999 FEW050 BKN100 17/04 Q1023 NOSIG RMK T MAX 20.8 PP000=
SPZO Ene2014-262300Z 09006KT 040V150 9999 FEW050 BKN100 16/04 Q1024 NOSIG RMK PP000=
SPZO Ene2014-270000Z 32005KT 9999 FEW050 BKN100 15/04 Q1025 RMK PP000=
SPZO Ene2014-270100Z 29003KT 9999 FEW050 BKN100 14/05 Q1026 RMK PP000=
SPZO Ene2014-270200Z 07005KT 9999 FEW043 BKN100 12/05 Q1027 RMK PP000=
SPZO Ene2014-270300Z 08004KT 9999 SCT043 SCT100 11/05 Q1028 RMK PP000=
SPZO Ene2014-270400Z 00000KT 9999 BKN040 SCT100 12/05 Q1029 RMK PP000=
SPZO Ene2014-270500Z 00000KT 9999 BKN040 SCT060 11/05 Q1029 RMK PP000=
SPZO Ene2014-270600Z 00000KT 9999 BKN043 SCT060 11/05 Q1028 RMK PP000=
SPZO Ene2014-270700Z 00000KT 9999 BKN040 SCT050 12/05 Q1027 RMK PP000=
SPZO Ene2014-270800Z 09004KT 9999 BKN040 SCT050 11/06 Q1027 RMK PP000=
SPZO Ene2014-270900Z 00000KT 9999 SCT036 BKN046 10/07 Q1027 RMK PP000=
SPZO Ene2014-271000Z 09005KT 9999 FEW030 SCT040 BKN080 10/07 Q1028 RMK PP000=
SPZO Ene2014-271100Z 08004KT 9999 FEW036 SCT043 BKN080 09/07 Q1029 NOSIG RMK PP000=
SPZO Ene2014-271200Z 00000KT 9999 FEW020 SCT040 BKN080 10/06 Q1030 TEMPO -RA RMK PP000=
SPZO Ene2014-271300Z 00000KT 9000 -RA FEW020 SCT036 BKN080 11/06 Q1030 RMK PP004=
SPZO Ene2014-271400Z VRB03KT 9999 FEW020 SCT040 BKN080 13/05 Q1030 RERA NOSIG RMK PPTRZ=
SPZO Ene2014-271500Z VRB01KT 9999 FEW030 SCT040 BKN080 16/04 Q1030 NOSIG RMK PP000=
SPZO Ene2014-271600Z VRB03KT 9999 SCT040 BKN080 17/04 Q1029 TEMPO FEW040TCU BKN100 RMK PP000=
SPZO Ene2014-271700Z VRB03KT 9999 SCT040 BKN080 19/03 Q1027 NOSIG RMK PP000=
SPZO Ene2014-271800Z 23006KT 140V300 9999 SCT050 SCT070 18/04 Q1026 NOSIG RMK PP000=
SPZO Ene2014-271900Z 35013G23KT 320V050 9999 -RA VCSH FEW040TCU SCT050 BKN070 17/04 Q1026 NOSIG RMK PPTRZ=
SPZO Ene2014-272000Z 35008G18KT 300V040 9000 -RA VCSH FEW040TCU SCT050 BKN070 14/06 Q1027 NOSIG RMK PPTRZ=
SPZO Ene2014-272100Z 24008KT 210V280 9000 -RA VCSH FEW040TCU SCT050 BKN070 14/06 Q1026 NOSIG RMK PP000=
SPZO Ene2014-272200Z 34006KT 290V090 9999 FEW040 SCT050 BKN070 15/07 Q1026 NOSIG RMK TMAX 20.3 PPTRZ=
SPZO Ene2014-272300Z 10005KT 070V160 9999 SCT050 SCT070 13/07 Q1027 NOSIG RMK PP000=
SPZO Ene2014-280000Z 09003KT 050V160 9999 FEW030 BKN080 12/07 Q1028 RMK PP000=
SPZO Ene2014-280100Z 10004KT 9999 FEW036 BKN080 12/07 Q1028 RMK PP000=
SPZO Ene2014-280200Z 05003KT 9999 FEW040 BKN080 11/07 Q1029 RMK PP000=
SPZO Ene2014-280300Z 00000KT 9999 FEW040 BKN080 12/07 Q1030 RMK PP000=
SPZO Ene2014-280400Z VRB02KT 9999 -RA FEW040 BKN080 12/07 Q1031 RMK PP002=
SPZO Ene2014-280500Z 09003KT 9999 -RA FEW036 SCT043 BKN080 11/08 Q1031 RMK PP006=
SPZO Ene2014-280600Z 09005KT 9999 -RA FEW036 SCT043 BKN080 08/06 Q1031 RMK PP018=
SPZO Ene2014-280700Z VRB01KT 9999 -RA FEW030 SCT040 BKN080 08/06 Q1030 RMK PP010=
SPZO Ene2014-280800Z VRB02KT 9999 -RA FEW020 SCT036 BKN080 08/06 Q1029 RMK PP002=
SPZO Ene2014-280900Z 00000KT 9999 FEW020 SCT040 BKN080 09/06 Q1029 RMK PP000=
SPZO Ene2014-281000Z 00000KT 9999 FEW030 SCT040 BKN080 09/06 Q1029 RMK PP000=
SPZO Ene2014-281100Z 08003KT 050V150 9999 FEW033 SCT046 BKN230 08/06 Q1030 NOSIG RMK PP000=
SPZO Ene2014-281200Z 09005KT 9999 FEW030 BKN050 08/05 Q1031 NOSIG RMK PP000=
SPZO Ene2014-281300Z 00000KT 9999 FEW030 SCT050 12/06 Q1031 NOSIG RMK PP000=
SPZO Ene2014-281400Z VRB01KT 9999 SCT050 14/06 Q1031 NOSIG RMK PP000=
SPZO Ene2014-281500Z VRB03KT 9999 SCT050 16/05 Q1030 NOSIG RMK PP000=
SPZO Ene2014-281600Z VRB02KT 9999 SCT050 18/05 Q1029 TEMPO FEW040TCU BKN100 RMK PP000=
SPZO Ene2014-281700Z VRB03KT 9999 SCT050 19/03 Q1028 TEMPO FEW040TCU BKN100 RMK PP000=
SPZO Ene2014-281800Z 00000KT 9999 SCT050 21/03 Q1027 NOSIG RMK PP000=
SPZO Ene2014-281900Z VRB03KT 9999 SCT050 21/04 Q1025 NOSIG RMK PP000=
SPZO Ene2014-282000Z VRB04KT 9999 SCT050 22/02 Q1024 TEMPO FEW036TCU RMK PP000=
SPZO Ene2014-282100Z 23004KT 120V290 9999 SCT050 SCT100 23/02 Q1023 TEMPO VCSH RMK PP000=
SPZO Ene2014-282200Z 36011KT 330V050 9999 SCT043 BKN100 19/06 Q1023 NOSIG RMK TMAX 22.7 PP000=
SPZO Ene2014-282300Z 11008KT 010V150 9999 SCT043 SCT080 18/07 Q1024 NOSIG RMK PP000=
SPZO Ene2014-290000Z VRB03KT 9999 SCT050 BKN080 15/07 Q1025 RMK PP000=
SPZO Ene2014-290100Z VRB02KT 9999 SCT050 BKN080 15/07 Q1026 RMK PP000=
SPZO Ene2014-290200Z 16004KT 110V200 9999 SCT050 BKN080 15/07 Q1028 RMK PP000=
SPZO Ene2014-290300Z 00000KT 9999 SCT050 BKN080 13/07 Q1028 RMK PP000=
SPZO Ene2014-290400Z 05004KT 010V090 9999 SCT046 BKN080 12/07 Q1029 RMK PP000=
SPZO Ene2014-290500Z 08003KT 9999 SCT046 BKN080 13/07 Q1029 RMK PP000=
SPZO Ene2014-290600Z VRB02KT 9999 SCT046 BKN080 13/07 Q1028 RMK PP000=
SPZO Ene2014-290700Z 29007KT 260V330 9999 SCT043 BKN080 12/07 Q1028 RMK PP000=
SPZO Ene2014-290800Z 26004KT 220V290 9999 SCT040 BKN080 12/07 Q1027 RMK PP000=
SPZO Ene2014-290900Z 00000KT 9999 SCT040 BKN080 12/07 Q1027 RMK PP000=
SPZO Ene2014-291000Z 06003KT 9999 FEW020 SCT036 BKN080 11/07 Q1027 RMK BR QUAD NE PP000=
SPZO Ene2014-291100Z 00000KT 9999 FEW020 SCT040 BKN080 12/07 Q1028 TEMPO -RA RMK HZ QUAD NE PP000=
SPZO Ene2014-291200Z VRB02KT 9999 FEW020 SCT040 BKN080 13/07 Q1028 TEMPO -RA RMK RA QUAD NE PP000=
SPZO Ene2014-291300Z 15004KT 110V200 9999 FEW015 SCT040 BKN080 12/06 Q1029 NOSIG RMK VIS 9000 QUAD NE RA PP000=
SPZO Ene2014-291400Z 10006KT 070V140 9999 FEW015 SCT040 BKN080 13/06 Q1029 BECMG FM1430 33006KT 9999 SCT050 BKN100 RMK RA QUAD E=
SPZO Ene2014-291500Z 12005KT 030V170 9999 FEW030 SCT040 16/07 Q1028 NOSIG RMK PP000=
SPZO Ene2014-291600Z VRB05KT 9999 -RA VCSH FEW040TCU SCT043 BKN080 17/06 Q1028 TEMPO 9000 RMK PPTRZ=
SPZO Ene2014-291700Z 06006KT 360V120 9999 -RA VCSH SCT036 BKN070 13/07 Q1028 NOSIG RMK PP016=
SPZO Ene2014-291800Z VRB02KT 9999 VCSH SCT043 BKN080 14/07 Q1027 NOSIG RMK PP004=
SPZO Ene2014-291900Z VRB02KT 9999 BKN050 SCT100 15/07 Q1026 NOSIG RMK PP000=
SPZO Ene2014-292000Z 36005KT 300V050 9999 SCT043 BKN100 15/06 Q1025 RMK NOSIG PP000=
SPZO Ene2014-292100Z 28007KT 250V330 9999 SCT043 SCT100 16/06 Q1024 RMK TEMPO 29014KT SCT040TCU BKN080 PP000=
SPZO Ene2014-292200Z 26013KT 9999 FEW043 SCT050 BKN080 16/08 Q1024 TEMPO -RA RMK T.MAX 19.2 PP000=
SPZO Ene2014-292300Z 26010KT 9999 SCT043 SCT080 13/07 Q1025 NOSIG RMK PP000=
SPZO Ene2014-300000Z 26010KT 9999 SCT050 BKN080 12/06 Q1026 RMK PP000=
SPZO Ene2014-300100Z 26007KT 9999 SCT050 BKN080 12/06 Q1027 RMK PP000=
SPZO Ene2014-300200Z 27008KT 9999 SCT050 BKN080 12/06 Q1029 RMK PP000=
SPZO Ene2014-300300Z 00000KT 9999 SCT046 BKN080 12/06 Q1030 RMK PP000=
SPZO Ene2014-300400Z 19005KT 140V240 9999 SCT046 BKN080 12/04 Q1030 RMK PP000=
SPZO Ene2014-300500Z 13005KT 080V180 9999 SCT046 BKN080 11/04 Q1030 RMK PP000=
SPZO Ene2014-300600Z 09006KT 9999 SCT046 BKN080 10/05 Q1030 RMK PP000=
SPZO Ene2014-300700Z 09007KT 9999 SCT046 BKN080 09/06 Q1029 RMK PP000=
SPZO Ene2014-300800Z 10004KT 070V140 9999 FEW020 SCT046 BKN080 08/05 Q1028 RMK PP000=
SPZO Ene2014-300900Z VRB03KT 9999 FEW020 SCT043 BKN080 08/05 Q1029 RMK PP000=
SPZO Ene2014-301000Z 00000KT 9999 FEW020 SCT043 BKN080 08/05 Q1029 RMK PP000=
SPZO Ene2014-301100Z VRB01KT 9999 FEW020 SCT043 BKN080 09/05 Q1030 NOSIG RMK PP000=
SPZO Ene2014-301200Z 10004KT 9999 FEW030 SCT043 BKN080 09/05 Q1031 NOSIG RMK PP000=
SPZO Ene2014-301300Z 08004KT 9999 FEW030 SCT046 BKN100 10/06 Q1031 NOSIG RMK PP000=
SPZO Ene2014-301400Z VRB04KT 9999 SCT050 SCT100 14/06 Q1030 NOSIG RMK PP000=
SPZO Ene2014-301500Z VRB03KT 9999 SCT050 15/05 Q1030 NOSIG RMK PP000=
SPZO Ene2014-301600Z VRB02KT 9999 FEW040 SCT050 18/06 Q1029 TEMPO VCSH FEW040TCU BKN100 RMK PP000=
SPZO Ene2014-301700Z VRB04KT 9999 FEW040TCU SCT050 BKN100 17/04 Q1028 TEMPO VCSH RMK PP000=
SPZO Ene2014-301800Z 35013KT 320V050 9999 VCSH FEW036TCU SCT050 BKN080 15/05 Q1028 TEMPO 28014 9000 -RA VCTS SCT036CB BKN070 RMK PP000=
SPZO Ene2014-301900Z 35006KT 300V030 9999 -RA VCSH FEW036TCU SCT046 BKN080 14/07 Q1028 NOSIG RMK PPTRZ=
SPZO Ene2014-302000Z VRB02KT 9999 SCT043TCU BKN100 17/06 Q1026 NOSIG RMK PP004=
SPZO Ene2014-302100Z 09009KT 050V120 9999 FEW036TCU SCT046 BKN080 16/06 Q1025 TEMPO -RA RMK PP000=
SPZO Ene2014-302200Z 09011KT 9999 FEW036 SCT046CB SCT080 15/06 Q1025 TEMPO -RA RMK TMAX 18.6 PP000=
SPZO Ene2014-302300Z 09005KT 9999 FEW036 SCT046TCU SCT080 14/07 Q1026 TEMPO -RA RMK PP000=
SPZO Ene2014-310000Z VRB02KT 9999 SCT043 BKN080 14/07 Q1027 RMK PP000=
SPZO Ene2014-310100Z VRB02KT 9999 SCT043 BKN080 13/07 Q1028 RMK PP000=
SPZO Ene2014-310200Z VRB02KT 9999 FEW050 SCT100 13/06 Q1029 RMK PP000=
SPZO Ene2014-310300Z 00000KT 9999 FEW050 SCT100 12/07 Q1030 RMK PP000=
SPZO Ene2014-310400Z 00000KT 9999 FEW050 SCT100 11/07 Q1030 RMK PP000=
SPZO Ene2014-310500Z 00000KT 9999 FEW050 SCT100 11/07 Q1030 RMK PP000=
SPZO Ene2014-310600Z 00000KT 9999 SCT046 BKN080 11/07 Q1029 RMK PP000=
SPZO Ene2014-310700Z 00000KT 9999 VCSH SCT040 OVC060 11/07 Q1029 RMK PP000=
SPZO Ene2014-310800Z 29005KT 210V330 9000 -RA SCT036 OVC060 09/06 Q1029 RMK PP018=
SPZO Ene2014-310900Z 00000KT 9999 SCT036 BKN060 09/05 Q1029 RMK PP008=
SPZO Ene2014-311000Z 00000KT 9999 SCT036 BKN060 09/06 Q1030 RMK PP000=
SPZO Ene2014-311100Z 09003KT 9999 FEW020 SCT040 BKN070 09/07 Q1030 TEMPO -RA RMK VIS 9000 QUAD E PP000=
SPZO Ene2014-311200Z VRB02KT 9999 FEW020 SCT040 BKN080 10/07 Q1031 TEMPO -RA RMK PP000=
SPZO Ene2014-311300Z 00000KT 9999 FEW025 SCT043 SCT080 12/06 Q1031 NOSIG RMK HZ QUAD N/E PP000=
SPZO Ene2014-311400Z 00000KT 9999 FEW025 SCT043 BKN080 14/05 Q1031 NOSIG RMK PP000=
SPZO Ene2014-311500Z 00000KT 9999 FEW033 SCT046 BKN080 16/05 Q1030 TEMPO FEW040 BKN100 RMK PP000=
SPZO Ene2014-311600Z VRB02KT 9999 SCT043 BKN080 17/04 Q1030 NOSIG RMK PP000=
SPZO Ene2014-311700Z VRB04KT 9999 SCT046 SCT080 19/04 Q1028 TEMPO 29012KT VCSH SCT040TCU BKN100 RMK PP000=
SPZO Ene2014-311800Z 35009KT 290V070 9999 VCSH FEW040TCU SCT050 BKN080 16/06 Q1028 TEMPO -RA RMK VIS 8000E -RA PP000=
SPZO Ene2014-311900Z 36010KT 310V060 9999 VCSH FEW036TCU SCT046 BKN100 16/05 Q1027 TEMPO -RA RMK PP000=
SPZO Ene2014-312000Z 36004KT 280V090 9999 -RA FEW036TCU SCT046 BKN080 17/05 Q1026 NOSIG RMK PPTRZ=
SPZO Ene2014-312100Z 26011KT 230V310 9000 -RA FEW036TCU SCT046 BKN080 12/08 Q1027 NOSIG RMK PP006=
SPZO Ene2014-312200Z VRB01KT 9000 -RA FEW036TCU SCT046 BKN080 10/07 Q1028 NOSIG RMK VIS 8000E -RA T MAX 18.8 RMK PP022=
SPZO Ene2014-312300Z 00000KT 9000 -RA FEW020 SCT036 BKN080 10/08 Q1028 NOSIG RMK PP006=
SPZO Feb2014-010000Z 00000KT 9000 -RA BKN040 SCT046 10/08 Q1029 RMK PP008=
SPZO Feb2014-010100Z 00000KT 9999 -RA BKN040 SCT080 11/08 Q1030 RMK PP004=
SPZO Feb2014-010200Z VRB02KT 9999 -RA SCT036 BKN043 11/08 Q1030 RMK PP006=
SPZO Feb2014-010300Z 00000KT 9000 -RA BKN040 SCT050 10/08 Q1031 RMK PP006=
SPZO Feb2014-010400Z 08002KT 8000 -RA SCT036 BKN040 10/08 Q1031 RMK PP008=
SPZO Feb2014-010500Z VRB02KT 9000 -RA OVC040 10/09 Q1031 RMK PP010=
SPZO Feb2014-010600Z 00000KT 9000 -RA BKN040 SCT050 09/07 Q1030 RMK PP028=
SPZO Feb2014-010700Z 00000KT 9999 -RA BKN040 SCT050 10/08 Q1030 RMK PP012=
SPZO Feb2014-010800Z 09006KT 9999 SCT036 BKN043 09/07 Q1030 RMK PP000=
SPZO Feb2014-010900Z 09006KT 9999 FEW030 SCT040 BKN070 09/07 Q1030 RMK PP000=
SPZO Feb2014-011000Z 09005KT 9000 -RA FEW020 SCT033 BKN070 08/06 Q1030 RMK CLNG BLW 1200M PP010=
SPZO Feb2014-011100Z 08005KT 8000 -RA FEW020 SCT036 BKN070 08/06 Q1030 NOSIG RMK CLNG BLW 1200M PP008=
SPZO Feb2014-011200Z 08004KT 030V100 8000 -RA FEW020 SCT036 OVC070 08/06 Q1031 NOSIG RMK CLNG BLW 1200M PP010=
SPZO Feb2014-011300Z 09006KT 060V120 9999 FEW025 SCT040 OVC070 09/06 Q1032 REDZ NOSIG RMK PPTRZ=
SPZO Feb2014-011400Z 08007KT 050V120 9999 FEW025 SCT040 BKN080 11/07 Q1032 NOSIG RMK PP000=
SPZO Feb2014-011500Z VRB05KT 9999 FEW020 SCT040 BKN080 13/07 Q1031 NOSIG RMK PP000=
SPZO Feb2014-011600Z VRB03KT 9999 FEW030 SCT040 BKN080 15/05 Q1030 NOSIG RMK PP000=
SPZO Feb2014-011700Z VRB05KT 9999 SCT043 SCT080 17/05 Q1029 NOSIG RMK PP000=
SPZO Feb2014-011800Z VRB03KT 9999 FEW036TCU SCT046 BKN080 20/07 Q1028 NOSIG RMK PP000=
SPZO Feb2014-011900Z 35011KT 9999 VCSH FEW036TCU SCT050CB BKN080 15/08 Q1026 NOSIG RMK VIS 8000E -RA PP000=
SPZO Feb2014-012000Z 26007KT 210V310 8000 -RA FEW036TCU SCT050 BKN080 12/07 Q1028 NOSIG RMK VIS 6000E -RA TS VC PP002=
SPZO Feb2014-012100Z 10005KT 060V130 9999 -DZ FEW030 SCT050 BKN080 11/08 Q1027 NOSIG RMK -RA QUAD NE PP012=
SPZO Feb2014-012200Z VRB03KT 9000 -DZ FEW020 SCT046 BKN080 11/08 Q1027 NOSIG RMK T MAX 20.4 PP002=
SPZO Feb2014-012300Z VRB03KT 9999 FEW025 SCT046 BKN100 11/07 Q1028 REDZ NOSIG RMK PPTRZ=
SPZO Feb2014-020000Z VRB02KT 9999 FEW020 SCT050 BKN100 11/08 Q1028 RMK PP000=
SPZO Feb2014-020100Z 00000KT 9999 FEW025 SCT050 BKN100 11/08 Q1029 RMK PP000=
SPZO Feb2014-020200Z 00000KT 9999 FEW033 SCT050 BKN100 11/08 Q1030 RMK PP000=
SPZO Feb2014-020300Z VRB02KT 9999 SCT040 BKN100 11/08 Q1031 RMK PP000=
SPZO Feb2014-020400Z 00000KT 9999 SCT040 BKN080 11/08 Q1031 RMK PP000=
SPZO Feb2014-020500Z 00000KT 9999 FEW030 SCT040 BKN080 11/08 Q1030 RMK PP000=
SPZO Feb2014-020600Z VRB02KT 9999 FEW030 SCT043 BKN080 11/06 Q1030 RMK PP000=
SPZO Feb2014-020700Z 00000KT 9999 FEW025 SCT040 BKN080 11/05 Q1030 RMK PP000=
SPZO Feb2014-020800Z VRB02KT 9999 FEW025 SCT036 BKN080 10/06 Q1030 RMK PP000=
SPZO Feb2014-020900Z VRB01KT 9999 -RA FEW020 SCT036 BKN080 09/06 Q1030 RMK PP006=
SPZO Feb2014-021000Z 00000KT 8000 -RA FEW020 SCT036 BKN070 08/06 Q1031 RMK CLNG BLW 1200M PP010=
SPZO Feb2014-021100Z 00000KT 8000 -RA FEW015 SCT036 BKN080 08/05 Q1032 NOSIG RMK CLNG BLW 1200M PP008=
SPZO Feb2014-021200Z VRB02KT 8000 -RA FEW020 SCT036 OVC070 08/06 Q1033 NOSIG RMK CLNG BLW 1200M PP002=
SPZO Feb2014-021300Z 08003KT 8000 -RA FEW015 SCT036 OVC070 08/06 Q1033 NOSIG RMK CLNG BLW 1200M PP014=
SPZO Feb2014-021400Z VRB01KT 8000 -RA FEW015 SCT033 OVC070 08/06 Q1034 NOSIG RMK CLNG BLW 1200M PP016=
SPZO Feb2014-021500Z VRB01KT 8000 -RA FEW015 SCT033 OVC060 09/06 Q1034 NOSIG RMK CLNG BLW 1200M PP006=
SPZO Feb2014-021600Z VRB01KT 9000 -DZ FEW025 SCT036 OVC070 11/06 Q1033 NOSIG RMK PP006=
SPZO Feb2014-021700Z VRB01KT 9999 FEW030 SCT036 BKN080 14/07 Q1032 REDZ NOSIG RMK PPTRZ=
SPZO Feb2014-021800Z VRB03KT 9999 SCT036 SCT080 15/08 Q1030 NOSIG RMK PP000=
SPZO Feb2014-021900Z VRB03KT 9999 VCSH FEW036 SCT040 BKN080 17/05 Q1028 NOSIG RMK PP000=
SPZO Feb2014-022000Z 27013KT 9999 SCT040 BKN080 17/07 Q1027 NOSIG RMK PP000=
SPZO Feb2014-022100Z 25010KT 210V280 9999 SCT043 BKN100 17/07 Q1026 NOSIG RMK PP000=
SPZO Feb2014-022200Z 26007KT 230V290 9999 SCT043 BKN100 17/06 Q1025 NOSIG RMK TMAX 18.4 PP000=
SPZO Feb2014-022300Z 26006KT 9999 SCT046 BKN080 17/06 Q1025 NOSIG RMK PP000=
SPZO Feb2014-030000Z 31005KT 280V340 9999 SCT050 BKN080 15/06 Q1026 RMK PP000=
SPZO Feb2014-030100Z VRB02KT 9999 SCT050 BKN080 13/08 Q1027 RMK PP000=
SPZO Feb2014-030200Z 00000KT 9999 SCT050 BKN080 13/07 Q1028 RMK PP000=
SPZO Feb2014-030300Z 27006KT 9999 SCT046 BKN080 13/07 Q1029 RMK PP000=
SPZO Feb2014-030400Z VRB03KT 9000 -RA SCT043 BKN070 12/08 Q1030 RMK PP004=
SPZO Feb2014-030500Z 24005KT 200V260 9999 SCT043 BKN070 12/07 Q1029 RERA RMK PPTRZ=
SPZO Feb2014-030600Z 26009KT 230V300 9999 SCT043 BKN070 12/07 Q1029 RMK PP000=
SPZO Feb2014-030700Z VRB02KT 9999 SCT043 BKN070 11/06 Q1028 RMK PP000=
SPZO Feb2014-030800Z VRB02KT 9999 SCT043 BKN070 09/06 Q1027 RMK PP000=
SPZO Feb2014-030900Z 00000KT 9999 SCT046 BKN080 09/06 Q1027 RMK PP000=
SPZO Feb2014-031000Z 00000KT 9999 SCT046 BKN080 09/07 Q1028 RMK PP000=
SPZO Feb2014-031100Z 00000KT 9999 SCT046 BKN100 07/05 Q1029 NOSIG RMK PP000=
SPZO Feb2014-031200Z VRB02KT 9999 FEW020 SCT046 BKN150 09/06 Q1030 NOSIG RMK BR QUAD E PP000=
SPZO Feb2014-031300Z 00000KT 9999 FEW020 SCT046 BKN200 13/06 Q1030 NOSIG RMK PP000=
SPZO Feb2014-031400Z VRB02KT 9999 FEW030 SCT043 BKN200 15/07 Q1030 NOSIG RMK PP000=
SPZO Feb2014-031500Z VRB03KT 9999 SCT043 SCT200 16/06 Q1030 NOSIG RMK PP000=
SPZO Feb2014-031600Z VRB02KT 9999 SCT050 SCT200 18/05 Q1029 NOSIG RMK PP000=
SPZO Feb2014-031700Z VRB05KT 9999 SCT050 SCT100 19/01 Q1028 NOSIG RMK PP000=
SPZO Feb2014-031800Z VRB03KT 9999 SCT050 SCT100 20/01 Q1027 NOSIG RMK PP000=
SPZO Feb2014-031900Z VRB05KT 9999 SCT050 SCT100 20/01 Q1025 NOSIG RMK PP000=
SPZO Feb2014-032000Z 03005KT 320V080 9999 SCT050 SCT100 20/01 Q1025 NOSIG RMK PP000=
SPZO Feb2014-032100Z 28010KT 240V340 9999 SCT050 SCT100 21/03 Q1024 NOSIG RMK PP000=
SPZO Feb2014-032200Z 29012KT 250V330 9999 SCT050 SCT100 19/04 Q1024 NOSIG RMK TMAX 21.2 PP000=
SPZO Feb2014-032300Z 27006KT 240V310 9999 SCT050 SCT100 17/02 Q1025 NOSIG RMK PP000=
SPZO Feb2014-040000Z 10013G27KT 060V160 9999 VCSH FEW036TCU SCT050 BKN100 16/00 Q1026 NOSIG RMK PP000=
SPZO Feb2014-040100Z 00000KT 9999 SCT050 BKN100 15/03 Q1026 RMK PP000=
SPZO Feb2014-040200Z 00000KT 9999 SCT046 BKN100 13/04 Q1027 RMK PP000=
SPZO Feb2014-040300Z 00000KT 9999 SCT046 BKN100 13/04 Q1028 RMK PP000=
SPZO Feb2014-040400Z 07003KT 9999 SCT050 11/05 Q1028 RMK PP000=
SPZO Feb2014-040500Z 00000KT 9999 FEW050 09/05 Q1028 RMK PP000=
SPZO Feb2014-040600Z VRB02KT 9999 FEW050 08/04 Q1028 RMK PP000=
SPZO Feb2014-040700Z 00000KT 9999 FEW050 08/05 Q1028 RMK PP000=
SPZO Feb2014-040800Z 00000KT 9999 NSC 08/05 Q1027 RMK PP000=
SPZO Feb2014-040900Z 00000KT 9999 NSC 07/04 Q1028 RMK PP000=
SPZO Feb2014-041000Z 00000KT 9999 SCT046 07/04 Q1028 RMK PP000=
SPZO Feb2014-041100Z 00000KT 9999 SCT080 06/03 Q1029 NOSIG RMK BR QUAD N/E PP000=
SPZO Feb2014-041200Z 00000KT 9999 SCT060 BKN070 07/04 Q1030 NOSIG RMK HZ QUAD E PP000=
SPZO Feb2014-041300Z 00000KT 8000 SCT060 BKN070 10/05 Q1031 NOSIG RMK HZ QUAD E PP000=
SPZO Feb2014-041400Z 00000KT 9000 SCT060 BKN070 14/01 Q1030 NOSIG RMK HZ QUAD E PP000=
SPZO Feb2014-041500Z VRB05KT 9999 SCT060 BKN070 16/M03 Q1030 NOSIG RMK PP000=
SPZO Feb2014-041600Z VRB08KT 9999 SCT060 SCT070 15/M00 Q1029 NOSIG RMK PP000=
SPZO Feb2014-041700Z VRB09KT 9999 BKN060 SCT070 17/M01 Q1029 NOSIG RMK PP000=
SPZO Feb2014-041800Z 29006KT 230V360 9999 SCT060 BKN100 17/M01 Q1027 NOSIG RMK PP000=
SPZO Feb2014-041900Z 29005KT 220V350 9999 SCT050 BKN100 17/M01 Q1026 NOSIG RMK PP000=
SPZO Feb2014-042000Z 29004KT 230V330 9999 SCT060 BKN150 17/M01 Q1026 NOSIG RMK PP000=
SPZO Feb2014-042100Z 00000KT 9999 FEW060 BKN150 17/M01 Q1025 NOSIG RMK PP000=
SPZO Feb2014-042200Z 35004KT 310V030 9999 FEW050 BKN150 17/M01 Q1025 NOSIG RMK TMAX 17.7 PP000=
SPZO Feb2014-042300Z VRB02KT 9999 FEW050 BKN100 17/00 Q1025 NOSIG RMK PP000=
SPZO Feb2014-050000Z 00000KT 9999 FEW050 SCT100 14/03 Q1025 RMK PP000=
SPZO Feb2014-050100Z 06005KT 350V100 9999 FEW050 SCT100 12/04 Q1027 RMK PP000=
SPZO Feb2014-050200Z 00000KT 9999 FEW060 11/04 Q1028 RMK PP000=
SPZO Feb2014-050300Z VRB02KT 9999 FEW060 09/04 Q1029 RMK PP000=
SPZO Feb2014-050400Z 27005KT 9999 FEW060 08/04 Q1030 RMK PP000=
SPZO Feb2014-050500Z 26003KT 9999 FEW060 07/04 Q1029 RMK PP000=
SPZO Feb2014-050600Z 00000KT 9999 FEW060 07/04 Q1029 RMK PP000=
SPZO Feb2014-050700Z 00000KT 9999 FEW050 06/04 Q1028 RMK PP000=
SPZO Feb2014-050800Z VRB02KT 9999 SCT050 06/04 Q1028 RMK PP000=
SPZO Feb2014-050900Z VRB01KT 9999 SCT046 SCT080 07/04 Q1028 RMK PP000=
SPZO Feb2014-051000Z 28004KT 9999 SCT046 SCT080 07/04 Q1029 RMK BR QUAD E PP000=
SPZO Feb2014-051100Z 00000KT 9999 SCT046 SCT080 07/04 Q1030 NOSIG RMK VIS 9000 QUAD NE BR PP000=
SPZO Feb2014-051200Z 00000KT 9999 SCT036 SCT080 09/04 Q1031 NOSIG RMK VIS 8000 QUAD NE HZ PP000=
SPZO Feb2014-051300Z VRB02KT 9999 SCT036 SCT080 10/04 Q1031 NOSIG RMK VIS 9000 QUAD NE HZ PP000=
SPZO Feb2014-051400Z VRB01KT 9999 SCT036 SCT080 14/04 Q1031 NOSIG RMK PP000=
SPZO Feb2014-051500Z 04004KT 300V090 9999 FEW040 SCT080 16/04 Q1030 NOSIG RMK PP000=
SPZO Feb2014-051600Z VRB04KT 9999 SCT040 SCT080 16/05 Q1029 NOSIG RMK PP000=
SPZO Feb2014-051700Z VRB02KT 9999 FEW036TCU SCT046 BKN080 17/03 Q1029 NOSIG RMK PP000=
SPZO Feb2014-051800Z 36006KT 320V070 9999 FEW036TCU SCT050 BKN100 17/04 Q1028 TEMPO VCSH RMK PP000=
SPZO Feb2014-051900Z 36010KT 320V060 9999 VCSH FEW036TCU SCT050 BKN100 17/04 Q1027 NOSIG RMK PP000=
SPZO Feb2014-052000Z 35009KT 310V050 9999 VCSH FEW036TCU SCT046 BKN080 17/05 Q1026 NOSIG RMK PP000=
SPZO Feb2014-052100Z VRB08KT 9999 FEW036TCU SCT046 BKN080 16/04 Q1025 NOSIG RMK PP000=
SPZO Feb2014-052200Z 30008KT 260V350 9999 FEW036TCU SCT046 BKN080 15/05 Q1026 NOSIG RMK CB QUAD W T MAX 18.3 PP000=
SPZO Feb2014-052300Z 27010KT 250V310 9999 VCSH FEW033TCU SCT043 BKN080 14/06 Q1026 TEMPO -RA RMK PP000=
SPZO Feb2014-060000Z 27011KT 9999 FEW040 SCT046 BKN100 13/06 Q1027 RMK PP000=
SPZO Feb2014-060100Z 31006KT 270V350 9999 SCT050 BKN100 13/05 Q1028 RMK PP000=
SPZO Feb2014-060200Z 08004KT 9999 SCT050 BKN100 12/06 Q1029 RMK PP000=
SPZO Feb2014-060300Z VRB02KT 9999 SCT050 BKN100 12/05 Q1030 RMK PP000=
SPZO Feb2014-060400Z VRB02KT 9999 BKN050 12/05 Q1030 RMK PP000=
SPZO Feb2014-060500Z 00000KT 9999 BKN050 12/06 Q1029 RMK PP000=
SPZO Feb2014-060600Z 00000KT 9999 BKN050 10/06 Q1029 RMK PP000=
SPZO Feb2014-060700Z 00000KT 9999 FEW043 SCT060 11/05 Q1028 RMK PP000=
SPZO Feb2014-060800Z 00000KT 9999 FEW043 SCT060 11/06 Q1028 RMK PP000=
SPZO Feb2014-060900Z 00000KT 9999 SCT043 BKN080 11/06 Q1028 RMK PP000=
SPZO Feb2014-061000Z 08002KT 9999 SCT043 BKN080 10/06 Q1029 RMK PP000=
SPZO Feb2014-061100Z 00000KT 9999 FEW025 SCT043 BKN080 10/06 Q1029 NOSIG RMK PP000=
SPZO Feb2014-061200Z VRB01KT 9999 FEW025 SCT036 BKN070 11/06 Q1030 NOSIG RMK VIS 9000E -RA PP000=
SPZO Feb2014-061300Z 00000KT 9999 VCSH FEW025 SCT040 BKN080 12/05 Q1031 NOSIG RMK HZ QUAD NE PP000=
SPZO Feb2014-061400Z VRB02KT 9999 FEW030 SCT040 BKN080 13/06 Q1031 NOSIG RMK PP000=
SPZO Feb2014-061500Z VRB03KT 9999 VCSH FEW036 SCT043 BKN080 13/05 Q1031 TEMPO -RA RMK VIS 9000E -RA PP000=
SPZO Feb2014-061600Z VRB02KT 9000 -RA SCT040 BKN080 14/06 Q1030 NOSIG RMK PPTRZ=
SPZO Feb2014-061700Z 06004KT 330V090 9999 SCT040 BKN080 12/07 Q1029 RERA NOSIG RMK PP014=
SPZO Feb2014-061800Z 03006KT 350V080 9000 VCSH FEW030TCU SCT040 BKN100 15/07 Q1028 NOSIG RMK PP000=
SPZO Feb2014-061900Z 09007KT 050V130 9999 FEW040 SCT050 BKN100 16/08 Q1027 TEMPO VCSH RMK PP000=
SPZO Feb2014-062000Z VRB01KT 9999 FEW040 SCT050 BKN070 16/07 Q1026 TEMPO -RA RMK PP000=
SPZO Feb2014-062100Z 23004KT 180V270 9999 FEW040 SCT050 BKN070 15/06 Q1025 RERA TEMPO VCSH RMK PPTRZ=
SPZO Feb2014-062200Z VRB03KT 9999 FEW040 SCT050 BKN060 15/06 Q1026 NOSIG RMK TMAX 16.3 PP000=
SPZO Feb2014-062300Z 08007KT 040V120 9999 -DZ FEW040 SCT050 BKN060 14/07 Q1026 TEMPO -RA RMK PPTRZ=
SPZO Feb2014-070000Z 06004KT 020V100 9999 VCSH FEW033 SCT040TCU BKN070 13/07 Q1027 RMK PP000=
SPZO Feb2014-070100Z 01003KT 060V160 9999 FEW033 SCT040TCU BKN070 13/07 Q1028 RMK PP000=
SPZO Feb2014-070200Z VRB03KT 9999 -RA FEW033 SCT040TCU BKN070 12/06 Q1030 RMK PP002=
SPZO Feb2014-070300Z VRB02KT 9999 FEW033 SCT040 BKN070 11/06 Q1031 RMK PP000=
SPZO Feb2014-070400Z VRB02KT 9999 FEW036 SCT040 BKN070 11/06 Q1031 RMK PP000=
SPZO Feb2014-070500Z VRB02KT 9999 FEW036 SCT043 BKN070 10/06 Q1031 RMK PP000=
SPZO Feb2014-070600Z 00000KT 9999 FEW036 SCT043 BKN070 10/07 Q1030 RMK PP000=
SPZO Feb2014-070700Z VRB02KT 9999 FEW036 SCT043 BKN070 09/07 Q1030 RMK PP000=
SPZO Feb2014-070800Z VRB02KT 9999 FEW036 SCT046 BKN070 09/06 Q1029 RMK PP000=
SPZO Feb2014-070900Z 08003KT 9999 FEW036 SCT046 BKN080 08/06 Q1029 RMK PP000=
SPZO Feb2014-071000Z VRB01KT 9999 FEW020 SCT040 BKN080 09/06 Q1030 RMK PP000=
SPZO Feb2014-071100Z VRB01KT 9999 FEW020 SCT040 BKN080 08/06 Q1030 NOSIG RMK BR QUAD N/E PP000=
SPZO Feb2014-071200Z VRB02KT 9000 FEW010 SCT040 BKN070 09/06 Q1031 NOSIG RMK HZ QUAD E PP000=
SPZO Feb2014-071300Z VRB02KT 9000 FEW010 SCT040 BKN070 11/06 Q1032 NOSIG RMK HZ QUAD E PP000=
SPZO Feb2014-071400Z 00000KT 9000 FEW010 SCT040 BKN070 12/05 Q1032 NOSIG RMK PP000=
SPZO Feb2014-071500Z VRB02KT 9999 FEW030 SCT040 BKN070 14/05 Q1032 NOSIG RMK PP000=
SPZO Feb2014-071600Z VRB02KT 9999 FEW040 SCT050 BKN070 16/06 Q1031 NOSIG RMK PP000=
SPZO Feb2014-071700Z VRB02KT 9999 FEW040 SCT050 BKN070 17/06 Q1030 NOSIG RMK PP000=
SPZO Feb2014-071800Z VRB02KT 9999 VCSH FEW040 SCT046 BKN080 19/04 Q1028 NOSIG RMK PP000=
SPZO Feb2014-071900Z 06008KT 020V080 9999 BKN046 SCT080 18/07 Q1027 NOSIG RMK RA QUAD E PP000=
SPZO Feb2014-072000Z 09009KT 030V130 9999 FEW036TCU SCT043 BKN080 17/06 Q1026 NOSIG RMK RA QUAD E PP000=
SPZO Feb2014-072100Z 10004KT 040V150 9999 FEW036TCU SCT043 BKN070 16/06 Q1026 NOSIG RMK PP000=
SPZO Feb2014-072200Z VRB03KT 9999 FEW036 SCT043 BKN070 15/07 Q1026 REDZ NOSIG RMK RA QUAD S TMAX 19.4 PPTRZ=
SPZO Feb2014-072300Z VRB02KT 9999 SCT040 BKN080 14/06 Q1027 NOSIG RMK PP000=
SPZO Feb2014-080000Z 08005KT 9999 SCT046 BKN080 13/06 Q1028 RMK PP000=
SPZO Feb2014-080100Z 09004KT 9999 SCT050 BKN100 13/06 Q1029 RMK PP000=
SPZO Feb2014-080200Z 00000KT 9999 SCT050 BKN100 13/06 Q1030 RMK PP000=
SPZO Feb2014-080300Z VRB02KT 9999 SCT046 BKN080 12/07 Q1030 RMK PP000=
SPZO Feb2014-080400Z VRB01KT 9000 -RA SCT043 BKN070 11/08 Q1031 RMK PP022=
SPZO Feb2014-080500Z 00000KT 9999 SCT040 BKN070 11/08 Q1030 RERA RMK PPTRZ=
SPZO Feb2014-080600Z 00000KT 9999 SCT040 BKN070 11/08 Q1030 RMK PP000=
SPZO Feb2014-080700Z 00000KT 9999 FEW033 SCT040 BKN070 11/08 Q1029 RMK PP000=
SPZO Feb2014-080800Z 00000KT 9999 FEW033 SCT040 BKN070 11/06 Q1029 RMK PP000=
SPZO Feb2014-080900Z 08005KT 9999 FEW030 SCT040 BKN080 10/08 Q1029 RMK PP000=
SPZO Feb2014-081000Z 08006KT 9999 FEW020 SCT040 BKN070 10/07 Q1030 RMK PP000=
SPZO Feb2014-081100Z 08003KT 9999 FEW020 SCT040 BKN070 10/06 Q1030 NOSIG RMK PP000=
SPZO Feb2014-081200Z 08004KT 9999 FEW020 SCT040 BKN080 10/06 Q1031 NOSIG RMK PP000=
SPZO Feb2014-081300Z 07003KT 360V130 9999 FEW025 SCT040 BKN080 11/06 Q1031 NOSIG RMK PP000=
SPZO Feb2014-081400Z VRB02KT 9999 FEW025 SCT040 BKN080 14/06 Q1031 NOSIG RMK PP000=
SPZO Feb2014-081500Z VRB03KT 9999 SCT043 BKN080 15/07 Q1031 NOSIG RMK PP000=
SPZO Feb2014-081600Z 28003KT 230V350 9999 SCT043 BKN080 16/06 Q1030 NOSIG RMK PP000=
SPZO Feb2014-081700Z 27008KT 220V320 9999 SCT043 BKN080 17/05 Q1028 NOSIG RMK PP000=
SPZO Feb2014-081800Z 26013KT 220V280 9999 FEW036 SCT043 BKN080 15/05 Q1028 NOSIG RMK PP000=
SPZO Feb2014-081900Z 31007KT 300V060 9999 FEW036TCU SCT043 BKN080 16/06 Q1027 NOSIG RMK PP000=
SPZO Feb2014-082000Z 36011KT 320V060 9999 SCT043 BKN080 15/05 Q1027 NOSIG RMK PP000=
SPZO Feb2014-082100Z 34007KT 300V040 9999 SCT050 BKN080 15/05 Q1027 NOSIG RMK PP000=
SPZO Feb2014-082200Z 09008KT 9999 SCT050 BKN100 14/07 Q1026 NOSIG RMK TMAX 18.0 PP000=
SPZO Feb2014-082300Z 08007KT 9999 -RA VCSH FEW036TCU SCT050 BKN080 13/07 Q1027 NOSIG RMK PPTRZ=
SPZO Feb2014-090000Z 07004KT 030V100 9000 -RA FEW030 SCT040 BKN070 12/08 Q1028 RMK CB QUAD NW PP006=
SPZO Feb2014-090100Z VRB01KT 8000 4000E -RA BR FEW030 SCT036 BKN060 11/08 Q1030 RMK PP036=
SPZO Feb2014-090200Z 00000KT 9000 -DZ FEW030 SCT036 BKN070 10/07 Q1031 RMK PP022=
SPZO Feb2014-090300Z 09004KT 060V130 9999 FEW030 SCT040 BKN070 10/07 Q1032 REDZ RMK PPTRZ=
SPZO Feb2014-090400Z VRB03KT 9999 FEW025 SCT040 BKN070 10/07 Q1031 RMK PP000=
SPZO Feb2014-090500Z 00000KT 9999 FEW025 SCT040 BKN070 09/07 Q1031 RMK PP000=
SPZO Feb2014-090600Z VRB02KT 9000 -RA FEW025 SCT036 BKN070 10/07 Q1030 RMK PPTRZ=
SPZO Feb2014-090700Z VRB02KT 9999 -DZ FEW020 SCT036 BKN070 10/07 Q1030 RMK PPTRZ=
SPZO Feb2014-090800Z 07003KT 9999 FEW030 SCT040 BKN080 09/07 Q1029 REDZ RMK PPTRZ=
SPZO Feb2014-090900Z 00000KT 9999 -DZ FEW030 SCT040 BKN080 09/07 Q1029 RMK PP002=
SPZO Feb2014-091000Z 09003KT 9999 FEW030 SCT040 BKN080 09/07 Q1030 REDZ RMK PPTRZ=
SPZO Feb2014-091100Z 00000KT 9999 FEW020 SCT043 BKN080 09/07 Q1030 NOSIG RMK PP000=
SPZO Feb2014-091200Z 00000KT 9999 FEW025 SCT043 BKN080 10/07 Q1030 NOSIG RMK BR QUAD E PP000=
SPZO Feb2014-091300Z 00000KT 9999 FEW015 SCT040 BKN080 11/07 Q1031 NOSIG RMK PP000=
SPZO Feb2014-091400Z VRB02KT 9999 FEW015 SCT040 BKN080 13/06 Q1031 NOSIG RMK PP000=
SPZO Feb2014-091500Z 00000KT 9999 FEW025 SCT040 BKN070 16/07 Q1030 NOSIG RMK PP000=
SPZO Feb2014-091600Z VRB02KT 9999 FEW030 SCT046 BKN080 18/08 Q1029 NOSIG RMK PP000=
SPZO Feb2014-091700Z VRB04KT 9999 BKN046 SCT100 18/05 Q1028 NOSIG RMK PP000=
SPZO Feb2014-091800Z 15008KT 100V250 9999 SCT046TCU SCT080 17/05 Q1028 NOSIG RMK CB S/E PP000=
SPZO Feb2014-091900Z 21009KT 170V250 9999 -RA VCSH FEW040 SCT046CB BKN080 15/05 Q1027 NOSIG RMK PPTRZ=
SPZO Feb2014-092000Z VRB03KT 9999 SCT046 SCT080 17/08 Q1025 NOSIG RMK PP000=
SPZO Feb2014-092100Z VRB03KT 9999 FEW036TCU SCT046 SCT150 20/06 Q1024 TEMPO VCSH RMK PP000=
SPZO Feb2014-092200Z 26011KT 240V300 9999 VCSH SCT040 BKN100 18/07 Q1023 NOSIG RMK TMAX 20.6 PP000=
SPZO Feb2014-092300Z 27008KT 9999 SCT040 BKN200 17/05 Q1024 NOSIG RMK PP000=
SPZO Feb2014-100000Z 35006KT 300V020 9999 SCT043 SCT100 15/06 Q1025 RMK PP000=
SPZO Feb2014-100100Z 32006KT 280V010 9999 SCT050 SCT100 14/06 Q1026 RMK PP000=
SPZO Feb2014-100200Z 28005KT 240V340 9999 SCT050 SCT100 14/06 Q1027 RMK PP000=
SPZO Feb2014-100300Z 25004KT 190V290 9999 SCT050 SCT100 13/07 Q1028 RMK PP000=
SPZO Feb2014-100400Z 05003KT 360V090 9999 SCT046 SCT080 12/07 Q1029 RMK PP000=
SPZO Feb2014-100500Z 26008KT 9999 SCT046 BKN080 13/07 Q1029 RMK PP000=
SPZO Feb2014-100600Z 09008KT 060V130 9000 -RA FEW036 SCT040 BKN070 10/06 Q1029 RMK PP006=
SPZO Feb2014-100700Z VRB02KT 9000 RA FEW030 SCT040 BKN070 08/06 Q1030 RMK PP050=
SPZO Feb2014-100800Z 27003KT 9000 -RA FEW030 SCT040 BKN070 08/06 Q1030 RMK PP026=
SPZO Feb2014-100900Z VRB02KT 9000 -RA FEW030 SCT040 BKN070 08/06 Q1030 RMK PP010=
SPZO Feb2014-101000Z 00000KT 9999 DZ FEW025 SCT040 BKN070 08/05 Q1030 RMK PP004=
SPZO Feb2014-101100Z 08003KT 9999 DZ FEW015 SCT040 BKN070 08/06 Q1031 NOSIG RMK PPTRZ=
SPZO Feb2014-101200Z 00000KT 9999 FEW015 SCT036 BKN080 08/06 Q1031 NOSIG RMK PP002=
SPZO Feb2014-101300Z 00000KT 9999 DZ FEW015 SCT040 BKN080 10/06 Q1032 NOSIG RMK PPTRZ=
SPZO Feb2014-101400Z 00000KT 9999 FEW020 SCT046 BKN100 11/06 Q1032 NOSIG RMK PP000=
SPZO Feb2014-101500Z 00000KT 9999 FEW025 SCT046 BKN100 12/06 Q1032 NOSIG RMK PP000=
SPZO Feb2014-101600Z VRB02KT 9999 SCT046 BKN100 15/04 Q1031 NOSIG RMK PP000=
SPZO Feb2014-101700Z VRB02KT 9999 SCT046 BKN080 17/05 Q1030 TEMPO FEW036TCU RMK PP000=
SPZO Feb2014-101800Z 14004KT 080V200 9999 SCT050 BKN080 17/06 Q1029 NOSIG RMK HZ QUAD NE PP000=
SPZO Feb2014-101900Z VRB02KT 9999 SCT050 SCT080 19/05 Q1027 TEMPO FEW036TCU RMK PP000=
SPZO Feb2014-102000Z 35008KT 290V030 9999 VCSH FEW036TCU SCT050 SCT080 18/07 Q1026 NOSIG RMK PP000=
SPZO Feb2014-102100Z 33006KT 280V050 9999 VCSH FEW036TCU SCT050 BKN080 18/06 Q1025 NOSIG RMK CB QUAD SE PP000=
SPZO Feb2014-102200Z 13010KT 050V180 6000 +TSRA FEW036TCU SCT043CB BKN080 11/07 Q1027 NOSIG RMK T MAX 19.7 PP092=
SPZO Feb2014-102300Z 11007KT 070V150 9000 -RA FEW025 SCT046 BKN080 11/07 Q1028 TEMPO -DZ RMK PP054=
SPZO Feb2014-110000Z 00000KT 9000 -RA FEW030 SCT046 OVC080 10/07 Q1029 RMK PP004=
SPZO Feb2014-110100Z 00000KT 9999 SCT040 OVC080 11/08 Q1030 RMK PPTRZ=
SPZO Feb2014-110200Z 07004KT 030V110 9999 SCT040 BKN080 10/08 Q1030 RERA RMK PP002=
SPZO Feb2014-110300Z VRB03KT 9999 SCT030 BKN080 10/08 Q1031 RMK PP000=
SPZO Feb2014-110400Z 00000KT 9999 SCT030 BKN080 11/07 Q1031 RMK PP000=
SPZO Feb2014-110500Z 00000KT 9999 SCT036 BKN080 11/08 Q1031 RMK PP000=
SPZO Feb2014-110600Z 00000KT 9999 SCT036 BKN080 11/08 Q1030 RMK PP000=
SPZO Feb2014-110700Z 00000KT 9999 SCT043 BKN070 10/08 Q1029 RMK PP000=
SPZO Feb2014-110800Z 09003KT 9999 SCT043 BKN070 10/08 Q1029 RMK PP000=
SPZO Feb2014-110900Z 00000KT 9999 FEW025 SCT043 BKN070 10/08 Q1029 RMK PP000=
SPZO Feb2014-111000Z 00000KT 9000 -RA FEW025 SCT036 BKN070 10/08 Q1029 RMK PP002=
SPZO Feb2014-111100Z 00000KT 9000 -RA FEW015 SCT036 OVC070 10/08 Q1030 NOSIG RMK CLNG BLW 1200M VIS 8000 QUAD NE PP002=
SPZO Feb2014-111200Z 00000KT 8000 -RA FEW020 SCT036 OVC070 10/08 Q1031 NOSIG RMK CLNG BLW 1200M PP020=
SPZO Feb2014-111300Z 00000KT 9000 -DZ FEW020 SCT036 OVC070 11/08 Q1031 NOSIG RMK PP002=
SPZO Feb2014-111400Z VRB02KT 9000 -DZ FEW025 SCT036 BKN070 12/07 Q1032 RMK PPTRZ=
SPZO Feb2014-111500Z VRB03KT 9999 FEW030 SCT040 BKN080 14/06 Q1031 REDZ NOSIG RMK PPTRZ=
SPZO Feb2014-111600Z VRB01KT 9999 FEW030 SCT040 BKN080 16/05 Q1030 NOSIG RMK PP000=
SPZO Feb2014-111700Z VRB05KT 9999 SCT043 BKN080 17/07 Q1029 NOSIG RMK PP000=
SPZO Feb2014-111800Z VRB05KT 9999 BKN050 SCT100 19/06 Q1027 TEMPO FEW036TCU RMK PP000=
SPZO Feb2014-111900Z 36009KT 300V050 9999 BKN050 SCT100 17/07 Q1026 NOSIG RMK PP000=
SPZO Feb2014-112000Z VRB05KT 9000 -RAGS FEW040TCU BKN050 SCT100 18/06 Q1025 NOSIG RMK PP000=
SPZO Feb2014-112100Z 08007KT 050V140 8000 FEW030TCU SCT050 BKN070 12/07 Q1026 RETSRA RMK PP084=
SPZO Feb2014-112200Z 27005KT 240V310 8000 -RA FEW020TCU SCT050 BKN070 11/08 Q1027 NOSIG RMK TMAX 20.0 PP008=
SPZO Feb2014-112300Z 06003KT 020V100 8000 -RA FEW033TCU SCT050 BKN080 11/09 Q1028 NOSIGN RMK PP008=
SPZO Feb2014-120000Z 09003KT 070V130 9000 -DZ FEW033 SCT050 BKN080 12/09 Q1029 RMK PPTRZ=
SPZO Feb2014-120100Z 00000KT 9000 -RA FEW036 SCT050 BKN080 12/09 Q1030 RMK PP002=
SPZO Feb2014-120200Z 10005KT 9999 FEW036 SCT046 BKN080 11/08 Q1031 RMK PP000=
SPZO Feb2014-120300Z VRB02KT 9999 FEW033 SCT046 BKN080 11/08 Q1032 RMK PP000=
SPZO Feb2014-120400Z VRB01KT 9999 FEW030 SCT043 BKN080 10/06 Q1032 RMK PP000=
SPZO Feb2014-120500Z 27006KT 9999 -RA FEW030 SCT043 BKN080 09/06 Q1032 RMK PP014=
SPZO Feb2014-120600Z 00000KT 9999 FEW025 SCT040 BKN080 09/06 Q1031 RMK PP000=
SPZO Feb2014-120700Z 00000KT 9999 FEW020 SCT040 BKN080 08/06 Q1031 RMK PP000=
SPZO Feb2014-120800Z VRB01KT 9999 SCT040 BKN080 09/06 Q1029 RMK PP000=
SPZO Feb2014-120900Z VRB02KT 9999 SCT040 BKN080 09/06 Q1029 RMK PP000=
SPZO Feb2014-121000Z VRB02KT 9999 FEW030 SCT040 BKN080 09/06 Q1030 RMK PP000=
SPZO Feb2014-121100Z VRB02KT 9999 FEW036 SCT046 BKN080 09/06 Q1030 NOSIG RMK PP000=
SPZO Feb2014-121200Z 00000KT 9999 FEW040 SCT050 BKN070 10/06 Q1031 NOSIG RMK PP000=
SPZO Feb2014-121300Z 00000KT 9999 FEW040 SCT050 BKN070 12/06 Q1031 NOSIG RMK PP000=
SPZO Feb2014-121400Z VRB01KT 9999 FEW040 SCT050 BKN070 13/06 Q1031 NOSIG RMK PP000=
SPZO Feb2014-121500Z 00000KT 9999 BKN050 SCT070 14/04 Q1031 NOSIG RMK PP000=
SPZO Feb2014-121600Z 00000KT 9999 BKN050 SCT070 15/05 Q1031 NOSIG RMK PP000=
SPZO Feb2014-121700Z 00000KT 9999 BKN050 SCT090 18/05 Q1029 NOSIG RMK PP000=
SPZO Feb2014-121800Z VRB03KT 9999 FEW040TCU SCT046 BKN080 18/04 Q1028 NOSIG RMK PP000=
SPZO Feb2014-121900Z 29005KT 230V350 9999 VCSH FEW040 SCT046 BKN080 15/09 Q1027 NOSIG RMK VIS 9000 QUAD E RA PP004=
SPZO Feb2014-122000Z 10003KT 060V140 9999 VCSH FEW040 SCT046 BKN080 18/06 Q1026 NOSIG RMK VIS 9000 QUAD E RA PP000=
SPZO Feb2014-122100Z 11009KT 070V140 9000 -TSRA SCT036CB OVC070 13/07 Q1026 NOSIG RMK PPTRZ=
SPZO Feb2014-122200Z 08006KT 020V120 9999 SCT036 BKN070 13/07 Q1026 NOSIG RMK TMAX 18.6 PP002=
SPZO Feb2014-122300Z 00000KT 9999 FEW040 BKN100 13/07 Q1027 NOSIG RMK PP000=
SPZO Feb2014-130000Z VRB02KT 9999 FEW050 BKN100 12/08 Q1027 RMK PP000=
SPZO Feb2014-130100Z 27003KT 9999 FEW050 BKN100 10/08 Q1028 RMK BR QUAD NE PP000=
SPZO Feb2014-130200Z 31003KT 9999 FEW050 BKN100 10/08 Q1029 RMK PP000=
SPZO Feb2014-130300Z 00000KT 9999 SCT050 BKN100 11/08 Q1030 RMK BR QUAD NE PP000=
SPZO Feb2014-130400Z VRB02KT 8000 SCT046 BKN080 11/08 Q1030 RMK BR PP000=
SPZO Feb2014-130500Z 10007KT 060V160 9999 SCT043 BKN080 11/07 Q1030 RMK PP000=
SPZO Feb2014-130600Z 00000KT 9999 SCT043 BKN080 10/07 Q1030 RMK -SHRA BTN 0530/0540 PPTRZ=
SPZO Feb2014-130700Z 00000KT 9999 SCT043 BKN080 10/07 Q1029 RMK PP000=
SPZO Feb2014-130800Z 00000KT 9999 SCT043 BKN080 10/07 Q1028 RMK PP000=
SPZO Feb2014-130900Z 10003KT 9000 FEW020 SCT040 BKN080 10/08 Q1028 RMK BR PP000=
SPZO Feb2014-131000Z 09003KT 9000 FEW020 SCT040 BKN080 09/07 Q1028 RMK BR PP000=
SPZO Feb2014-131100Z 00000KT 8000 FEW020 SCT036 BKN080 09/07 Q1029 NOSIG RMK BR PP000=
SPZO Feb2014-131200Z 00000KT 8000 FEW015 SCT036 BKN060 10/07 Q1030 NOSIG RMK BR PP000=
SPZO Feb2014-131300Z 00000KT 9999 FEW015 SCT036 BKN070 13/08 Q1030 NOSIG RMK VIS 9000 QUAD NE BR PP000=
SPZO Feb2014-131400Z 12003KT 100V190 9999 FEW020 SCT040 BKN070 13/07 Q1030 NOSIG RMK PP000=
SPZO Feb2014-131500Z VRB02KT 9999 SCT043 BKN070 15/06 Q1030 NOSIG RMK PP000=
SPZO Feb2014-131600Z VRB02KT 9999 SCT046 BKN070 18/07 Q1029 NOSIG RMK PP000=
SPZO Feb2014-131700Z 00000KT 9999 SCT046 BKN070 18/05 Q1028 NOSIG RMK PP000=
SPZO Feb2014-131800Z 24005KT 160V330 9999 BKN050 SCT070 19/04 Q1027 NOSIG RMK PP000=
SPZO Feb2014-131900Z 22006KT 150V280 8000 VCTS FEW040CB SCT050 BKN070 18/04 Q1026 TEMPO 7000 TSRA RMK PP000=
SPZO Feb2014-132000Z 36011KT 300V050 8000 VCTS FEW040CB SCT050 BKN070 14/06 Q1026 NOSIG RMK PP000=
SPZO Feb2014-132100Z VRB03KT 9999 FEW040 SCT050 BKN070 15/05 Q1026 NOSIG RMK PP000=
SPZO Feb2014-132200Z 33004KT 260V030 9999 BKN050 SCT070 15/06 Q1026 NOSIG RMK TMAX 19.6 PP000=
SPZO Feb2014-132300Z 10008KT 060V130 9999 BKN050 SCT070 13/06 Q1027 NOSIG RMK PP000=
SPZO Feb2014-140000Z 09010KT 9999 SCT040 BKN080 13/07 Q1028 RMK -RA QUAD NE PP000=
SPZO Feb2014-140100Z 12008KT 080V160 9999 SCT040 BKN080 12/06 Q1030 RMK -RA QUAD NE PP000=
SPZO Feb2014-140200Z VRB02KT 9000 -RA SCT040 BKN080 11/07 Q1030 RMK PP002=
SPZO Feb2014-140300Z 00000KT 9000 -RA SCT040 BKN080 11/07 Q1032 RMK PP002=
SPZO Feb2014-140400Z VRB03KT 9000 -RA FEW033 SCT040 BKN070 10/07 Q1032 RMK PP006=
SPZO Feb2014-140500Z 00000KT 9000 -RA FEW030 SCT040 BKN070 10/07 Q1032 RMK PP004=
SPZO Feb2014-140600Z VRB03KT 9000 -DZ FEW033 SCT040 BKN080 10/06 Q1031 RMK PPTRZ=
SPZO Feb2014-140700Z 26006KT 220V290 9999 FEW025 SCT040 BKN080 09/05 Q1030 REDZ RMK PPTRZ=
SPZO Feb2014-140800Z VRB02KT 9999 FEW025 SCT040 BKN080 09/05 Q1030 RMK PP000=
SPZO Feb2014-140900Z 00000KT 9999 FEW025 SCT040 BKN080 09/06 Q1029 RMK PP000=
SPZO Feb2014-141000Z 00000KT 9999 FEW025 SCT040 BKN080 09/06 Q1030 RMK BR QUAD NE PP000=
SPZO Feb2014-141100Z 00000KT 9999 FEW025 SCT040 BKN100 09/06 Q1031 NOSIG RMK BR QUAD NE PP000=
SPZO Feb2014-141200Z VRB02KT 9999 FEW020 SCT050 BKN100 09/06 Q1032 NOSIG RMK PP000=
SPZO Feb2014-141300Z 00000KT 9999 FEW020 SCT050 BKN100 11/06 Q1032 NOSIG RMK PP000=
SPZO Feb2014-141400Z 00000KT 9999 FEW020 SCT050 BKN100 12/06 Q1033 NOSIG RMK PP000=
SPZO Feb2014-141500Z VRB02KT 9999 FEW030 SCT050 BKN100 14/06 Q1032 NOSIG RMK PP000=
SPZO Feb2014-141600Z VRB02KT 9999 FEW030 SCT050 BKN100 16/06 Q1032 TEMPO FEW036TCU RMK PP000=
SPZO Feb2014-141700Z VRB04KT 9999 FEW030 SCT050 BKN080 16/07 Q1031 TEMPO VCSH FEW036TCU RMK PP000=
SPZO Feb2014-141800Z 06004KT 350V120 9999 FEW036TCU SCT050 BKN080 16/06 Q1030 RMK PP000=
SPZO Feb2014-141900Z 34005KT 290V050 9999 SCT046 BKN100 17/07 Q1029 TEMPO FEW036TCU RMK PP000=
SPZO Feb2014-142100Z 07007KT 350V120 9999 VCSH FEW036 SCT046TCU BKN080 16/05 Q1027 TEMPO -RA RMK PP000=
SPZO Feb2014-142200Z VRB04KT 9999 -RA VCSH FEW036 SCT046CB BKN080 14/06 Q1028 NOSIG RMK VIS 8000W PPTRZ=
SPZO Feb2014-142300Z 26006KT 9999 -DZ VCSH FEW036 SCT046CB BKN080 12/08 Q1029 RMK PPTRZ NOSIG=
SPZO Feb2014-150000Z 00000KT 9999 SCT036 BKN080 12/07 Q1030 RMK PPTRZ=
SPZO Feb2014-150100Z 09005KT 9999 FEW036 BKN100 12/08 Q1031 RMK PP000=
SPZO Feb2014-150200Z VRB02KT 9999 FEW036 BKN100 11/07 Q1032 RMK PP000=
SPZO Feb2014-150300Z 00000KT 9999 FEW036 BKN100 12/07 Q1033 RMK PP000=
SPZO Feb2014-150400Z 00000KT 9999 SCT040 BKN100 12/07 Q1033 RMK PP000=
SPZO Feb2014-150500Z 24004KT 190V270 9999 SCT040 BKN100 11/06 Q1032 RMK PP000=
SPZO Feb2014-150600Z 27003KT 9999 SCT040 BKN080 11/06 Q1032 RMK PP000=
SPZO Feb2014-150700Z 00000KT 9999 SCT046 BKN080 11/06 Q1031 RMK PP000=
SPZO Feb2014-150800Z 00000KT 9999 SCT046 BKN080 10/06 Q1031 RMK PP000=
SPZO Feb2014-150900Z 00000KT 9999 SCT046 BKN080 10/06 Q1031 RMK PP000=
SPZO Feb2014-151000Z 07003KT 9999 SCT046 BKN080 10/06 Q1031 RMK PP000=
SPZO Feb2014-151100Z 00000KT 9999 FEW025 SCT046 BKN080 10/07 Q1032 NOSIG RMK BR QUAD E PP000=
SPZO Feb2014-151200Z 11004KT 080V150 9999 FEW025 SCT036 BKN080 11/07 Q1033 NOSIG RMK 9000E HZ PP000=
SPZO Feb2014-151300Z 00000KT 9999 FEW033 SCT046 BKN080 12/07 Q1033 NOSIG RMK 9000E HZ PP000=
SPZO Feb2014-151400Z 00000KT 9999 SCT046 BKN080 14/06 Q1033 NOSIG RMK PP000=
SPZO Feb2014-151500Z 00000KT 9999 SCT040 BKN080 16/04 Q1033 NOSIG RMK PP000=
SPZO Feb2014-151600Z VRB02KT 9999 SCT046 BKN080 17/05 Q1032 NOSIG RMK PP000=
SPZO Feb2014-151700Z VRB05KT 9999 SCT040 SCT080 18/07 Q1031 NOSIG RMK PP000=
SPZO Feb2014-151800Z 06006KT 010V150 9999 VCSH FEW036TCU SCT043 BKN100 19/05 Q1029 NOSIG RMK PP000=
SPZO Feb2014-151900Z 02011KT 320V080 9999 VCSH FEW036TCU SCT043 BKN080 19/06 Q1028 NOSIG RMK PP000=
SPZO Feb2014-152000Z 35008KT 280V030 9999 VCSH FEW036TCU SCT046 BKN080 18/04 Q1027 TEMPO -RA RMK CB QUAD W PP000=
SPZO Feb2014-152100Z 28013KT 250V310 9999 VCSH FEW036TCU SCT050 BKN080 15/06 Q1028 TEMPO -RA RMK PP000=
SPZO Feb2014-152200Z 26009KT 200V290 9999 VCSH FEW036TCU SCT046 BKN080 16/07 Q1028 NOSIG RMK T MAX 20.3 PP000=
SPZO Feb2014-152300Z 36006KT 300V050 9999 VCSH FEW036TCU SCT043 BKN080 15/06 Q1028 NOSIG RMK PP000=
SPZO Feb2014-160000Z 28007KT 250V330 9999 FEW040 SCT050 BKN100 14/06 Q1029 RMK PP000=
SPZO Feb2014-160100Z 00000KT 9999 SCT050 BKN100 13/07 Q1030 RMK PP000=
SPZO Feb2014-160200Z 21003KT 110V260 9999 -RA SCT043 BKN080 13/08 Q1032 RMK PPTRZ=
SPZO Feb2014-160300Z 00000KT 9000 -RA FEW030 SCT043 OVC070 09/07 Q1034 RMK PP070=
SPZO Feb2014-160400Z VRB02KT 9000 -RA FEW030 SCT043 OVC070 09/07 Q1034 RMK PP024=
SPZO Feb2014-160500Z 09003KT 020V130 9000 -RA FEW020 SCT036 BKN070 09/07 Q1033 RMK PP008=
SPZO Feb2014-160600Z 00000KT 9999 FEW020 SCT036 BKN070 09/07 Q1032 RMK PPTRZ=
SPZO Feb2014-160700Z 00000KT 9999 FEW020 SCT036 BKN070 09/07 Q1031 RMK PP000=
SPZO Feb2014-160800Z 08003KT 9999 FEW020 SCT036 BKN070 09/07 Q1031 RMK PP000=
SPZO Feb2014-160900Z 11003KT 060V130 9000 FEW015 SCT036 BKN070 09/07 Q1031 RMK BR PP000=
SPZO Feb2014-161000Z 08004KT 8000 FEW015 SCT036 BKN080 09/07 Q1031 REDZ RMK BR PP002=
SPZO Feb2014-161100Z 06004KT 9000 FEW020 SCT036 BKN080 09/07 Q1031 NOSIG RMK VIS 8000 QUAD NE BR PPTRZ=
SPZO Feb2014-161200Z VRB01KT 9000 FEW020 SCT036 BKN080 09/07 Q1032 NOSIG RMK SCT015 QUAD SW PP000=
SPZO Feb2014-161300Z VRB01KT 9000 FEW020 SCT036 BKN080 11/08 Q1032 NOSIG RMK BCBR QUAD NE RMK PP000=
SPZO Feb2014-161400Z 08004KT 330V130 9999 FEW025 SCT036 BKN080 13/09 Q1032 NOSIG RMK PP000=
SPZO Feb2014-161500Z 08004KT 030V130 9999 FEW030 SCT036 BKN080 13/08 Q1032 NOSIG RMK PP000=
SPZO Feb2014-161600Z VRB02KT 9999 FEW030 SCT040 BKN080 16/07 Q1031 NOSIG RMK PP000=
SPZO Feb2014-161700Z VRB04KT 9999 SCT040 BKN100 17/06 Q1029 NOSIG RMK PP000=
SPZO Feb2014-161800Z VRB03KT 9999 SCT043 SCT100 19/06 Q1028 NOSIG RMK PP000=
SPZO Feb2014-161900Z 33009KT 280V020 9999 VCSH FEW036TCU SCT043 BKN100 18/07 Q1027 NOSIG RMK PP000=
SPZO Feb2014-162000Z 04009KT 330V140 9000 TS DZ FEW036TCU SCT046CB BKN080 17/06 Q1026 NOSIG RMK PPTRZ=
SPZO Feb2014-162100Z 10006KT 030V150 9999 SCT043 BKN100 17/07 Q1026 REDZ NOSIG RMK PPTRZ=
SPZO Feb2014-162200Z 08008KT 9999 SCT050 BKN100 15/07 Q1025 NOSIG RMK T MAX 19.9 PP000=
SPZO Feb2014-162300Z 08006KT 9999 FEW050 BKN100 14/07 Q1026 NOSIG RMK PP000=
SPZO Feb2014-170000Z 07004KT 9999 FEW050 BKN200 13/07 Q1027 RMK PP000=
SPZO Feb2014-170100Z VRB02KT 9999 BKN100 12/08 Q1028 RMK PP000=
SPZO Feb2014-170200Z VRB01KT 9999 FEW043 BKN100 12/08 Q1029 RMK PP000=
SPZO Feb2014-170300Z 13003KT 9999 FEW040 BKN080 13/08 Q1030 RMK PP000=
SPZO Feb2014-170400Z 12005KT 9999 TSRA FEW030 SCT040CB BKN080 09/06 Q1032 RMK PP040=
SPZO Feb2014-170500Z 00000KT 9999 TSRA FEW020 SCT036CB BKN080 08/07 Q1032 RMK PP040=
SPZO Feb2014-170600Z VRB02KT 9999 -RA FEW020 SCT036CB BKN080 08/07 Q1031 RMK PP022=
SPZO Feb2014-170700Z 26006KT 9999 -RA FEW020 SCT036 BKN080 08/07 Q1030 RMK PP020=
SPZO Feb2014-170800Z 08004KT 9999 FEW020 SCT036 BKN080 09/07 Q1029 RMK PP020=
SPZO Feb2014-170900Z 08003KT 9999 FEW025 SCT036 BKN080 09/06 Q1030 RMK PP000=
SPZO Feb2014-171000Z 00000KT 9999 FEW036 SCT043 SCT080 09/06 Q1030 RMK PP000=
SPZO Feb2014-171100Z 07003KT 9999 FEW015 SCT040 SCT080 08/06 Q1031 NOSIG TEMPO FEW020 SCT040 BKN080 RMK PP000=
SPZO Feb2014-171200Z 00000KT 9999 FEW010 SCT040 BKN070 09/06 Q1031 NOSIG RMK PP000=
SPZO Feb2014-171300Z 00000KT 9000 FEW010 SCT040 BKN070 10/06 Q1032 NOSIG RMK HZ QUAD E PP000=
SPZO Feb2014-171400Z 00000KT 9999 FEW020 BKN040 13/07 Q1032 NOSIG RMK PP000=
SPZO Feb2014-171500Z 00000KT 9999 FEW040 BKN050 15/07 Q1032 NOSIG RMK PP000=
SPZO Feb2014-171600Z 00000KT 9999 FEW040 BKN050 16/06 Q1031 NOSIG RMK PP000=
SPZO Feb2014-171700Z VRB04KT 9999 FEW040 BKN050 17/07 Q1029 NOSIG RMK PP000=
SPZO Feb2014-171800Z VRB03KT 9999 FEW040 BKN050 19/06 Q1028 NOSIG RMK PP000=
SPZO Feb2014-171900Z VRB03KT 9999 FEW040CB SCT046 BKN080 18/05 Q1026 TEMPO 30012G24KT -RA NOSIG RMK RA QUAD N PP000=
SPZO Feb2014-172000Z 36008KT 280V060 9999 VCSH FEW036 SCT046 BKN080 16/05 Q1026 NOSIG RMK PP000=
SPZO Feb2014-172100Z 27008KT 9999 SCT043 BKN080 15/07 Q1026 NOSIG RMK PP000=
SPZO Feb2014-172200Z 25007KT 210V290 9999 SCT043 BKN100 17/08 Q1026 NOSIG RMK TMAX 20.2 PP000=
SPZO Feb2014-172300Z 25008KT 9999 SCT040 BKN080 15/07 Q1026 NOSIG RMK RA QUAD E PP000=
SPZO Feb2014-180000Z 08010KT 040V110 9999 SCT040 BKN080 14/06 Q1027 RMK PP000=
SPZO Feb2014-180100Z 12003KT 080V180 9999 SCT050 BKN080 13/06 Q1029 RMK PP000=
SPZO Feb2014-180200Z 00000KT 9999 SCT050 BKN100 11/07 Q1030 RMK PP000=
SPZO Feb2014-180300Z 00000KT 9999 SCT050 BKN080 10/07 Q1031 RMK PP000=
SPZO Feb2014-180400Z 00000KT 9999 SCT050 BKN080 11/07 Q1031 RMK PP000=
SPZO Feb2014-180500Z 00000KT 9999 SCT043 BKN080 11/07 Q1031 RMK PP000=
SPZO Feb2014-180600Z 27005KT 9999 SCT043 SCT080 09/05 Q1030 RMK PP000=
SPZO Feb2014-180700Z 00000KT 9999 SCT043 SCT080 09/05 Q1029 RMK PP000=
SPZO Feb2014-180800Z 00000KT 9999 SCT043 SCT080 07/05 Q1029 RMK PP000=
SPZO Feb2014-180900Z 00000KT 9999 SCT043 BKN080 07/05 Q1029 RMK PP000=
SPZO Feb2014-181000Z 26003KT 9999 SCT043 BKN080 07/05 Q1029 RMK PP000=
SPZO Feb2014-181100Z 00000KT 9999 SCT040 BKN080 09/05 Q1030 NOSIG RMK BR QUAD NE PP000=
SPZO Feb2014-181200Z 00000KT 9999 SCT040 OVC080 09/06 Q1031 NOSIG RMK PP000=
SPZO Feb2014-181300Z 00000KT 9999 FEW020 SCT040 OVC080 10/06 Q1031 NOSIG RMK VIS 9000 QUAD NE BR PP000=
SPZO Feb2014-181400Z 00000KT 9999 FEW020 SCT040 BKN080 12/06 Q1032 NOSIG RMK VIS 9000 QUAD NE BR PP000=
SPZO Feb2014-181500Z 00000KT 9999 FEW020 SCT040 BKN080 13/06 Q1032 NOSIG RMK PP000=
SPZO Feb2014-181600Z VRB02KT 9999 SCT043 BKN080 15/05 Q1031 NOSIG RMK PP000=
SPZO Feb2014-181700Z VRB02KT 9999 SCT043 BKN080 17/06 Q1030 NOSIG RMK PP000=
SPZO Feb2014-181800Z 35006KT 280V070 9999 BKN050 18/06 Q1028 NOSIG RMK PP000=
SPZO Feb2014-181900Z 02005KT 320V070 9999 BKN050 18/06 Q1027 TEMPO FEW040TCU RMK PP000=
SPZO Feb2014-182000Z 35008KT 290V070 9999 BKN050 19/06 Q1026 TEMPO FEW040TCU RMK PP000=
SPZO Feb2014-182100Z 31009KT 280V340 9999 SCT050 SCT100 17/05 Q1026 NOSIG RMK PP000=
SPZO Feb2014-182200Z 31006KT 220V030 9999 SCT050 SCT100 19/06 Q1026 NOSIG RMK TMAX 19.1 PP000=
SPZO Feb2014-182300Z 27010KT 240V300 9999 SCT050 SCT100 16/07 Q1026 NOSIG RMK PP000=
SPZO Feb2014-190000Z 27008KT 9999 SCT050 BKN100 14/06 Q1027 RMK PP000=
SPZO Feb2014-190100Z 26005KT 240V300 9999 SCT050 SCT080 14/06 Q1029 RMK PP000=
SPZO Feb2014-190200Z VRB03KT 9999 SCT050 BKN080 14/07 Q1030 RMK PP000=
SPZO Feb2014-190300Z 10014KT 9000 -RA SCT043 BKN080 10/06 Q1032 RMK PPTRZ=
SPZO Feb2014-190400Z 00000KT 9000 -RA FEW025 SCT040 BKN080 09/06 Q1032 RMK PP028=
SPZO Feb2014-190500Z 24006KT 200V270 9000 -DZ FEW030 SCT040 BKN080 10/06 Q1030 RMK PP002=
SPZO Feb2014-190600Z 11005KT 080V160 9999 SCT040 BKN080 09/06 Q1030 REDZ RMK PPTRZ=
SPZO Feb2014-190700Z 08007KT 9999 SCT040 BKN080 08/06 Q1029 RMK PP000=
SPZO Feb2014-190800Z 00000KT 9999 SCT040 SCT080 08/06 Q1029 RMK FEW010 QUAD SW PP000=
SPZO Feb2014-190900Z 00000KT 9999 FEW020 SCT036 BKN080 07/06 Q1030 RMK BR QUAD NE PP000=
SPZO Feb2014-191000Z 00000KT 8000 FEW015 SCT036 BKN070 07/06 Q1030 RMK BR CLNG BLW 1200M PP000=
SPZO Feb2014-191100Z 06004KT 9000 FEW020 SCT036 BKN070 08/06 Q1031 TEMPO FEW020 SCT040 BKN080 RMK BR CLNG BLW 1200M PP000=
SPZO Feb2014-191200Z 08002KT 8000 FEW015 BKN040 08/06 Q1031 NOSIG RMK HZ QUAD E PP000=
SPZO Feb2014-191300Z VRB02KT 9000 FEW015 SCT040 11/07 Q1031 NOSIG RMK HZ QUAD E PP000=
SPZO Feb2014-191400Z VRB03KT 9999 FEW020 SCT040 13/07 Q1031 NOSIG RMK PP000=
SPZO Feb2014-191500Z VRB02KT 9999 FEW040 SCT050 16/04 Q1031 NOSIG RMK PP000=
SPZO Feb2014-191600Z VRB04KT 9999 FEW040 SCT050 17/07 Q1030 NOSIG RMK PP000=
SPZO Feb2014-191700Z VRB02KT 9999 BKN050 18/04 Q1029 NOSIG RMK PP000=
SPZO Feb2014-191800Z VRB02KT 9999 BKN050 19/02 Q1027 NOSIG RMK PP000=
SPZO Feb2014-191900Z VRB03KT 9999 FEW040TCU SCT070 22/04 Q1026 NOSIG RMK PP000=
SPZO Feb2014-192000Z 36010KT 320V040 9999 FEW040 SCT080 21/05 Q1024 NOSIG RMK PP000=
SPZO Feb2014-192100Z 36009KT 320V040 9999 FEW040 SCT080 20/04 Q1024 NOSIG RMK PP000=
SPZO Feb2014-192200Z 36007KT 310V060 9999 FEW040 SCT060TCU 19/06 Q1023 NOSIG RMK TMAX 21.7 PP000=
SPZO Feb2014-192300Z 28008KT 230V330 9999 FEW040 SCT080 17/06 Q1025 NOSIG RMK PP000=
SPZO Feb2014-200000Z 28005KT 250V320 9999 SCT043 SCT100 15/07 Q1025 RMK PP000=
SPZO Feb2014-200100Z VRB02KT 9999 SCT050 14/08 Q1026 RMK PP000=
SPZO Feb2014-200200Z 00000KT 9999 SCT050 13/08 Q1027 RMK PP000=
SPZO Feb2014-200300Z 00000KT 9999 SCT050 12/08 Q1028 RMK PP000=
SPZO Feb2014-200400Z 00000KT 9999 SCT050 12/08 Q1028 RMK PP000=
SPZO Feb2014-200500Z VRB01KT 9999 SCT046 SCT080 12/08 Q1028 RMK PP000=
SPZO Feb2014-200600Z 00000KT 9999 SCT046 SCT080 12/08 Q1027 RMK PP000=
SPZO Feb2014-200700Z 00000KT 9999 -RA SCT046 BKN080 12/08 Q1027 RMK PPTRZ=
SPZO Feb2014-200800Z VRB02KT 9000 FEW030 SCT043 BKN080 12/09 Q1027 RMK PP016=
SPZO Feb2014-200900Z 08004KT 040V140 9000 -RA FEW020 SCT040 BKN070 11/09 Q1027 RMK PP006=
SPZO Feb2014-201000Z 00000KT 9000 -RA FEW020 SCT040 BKN070 10/08 Q1027 RMK VIS 8000 QUAD NE RA PP022=
SPZO Feb2014-201100Z VRB02KT 9999 FEW015 SCT040 BKN070 10/08 Q1028 TEMPO 8000 QUAD E RMK VIS 9000 QUAD NE PPTRZ=
SPZO Feb2014-201200Z 00000KT 9999 FEW025 SCT040 BKN080 11/08 Q1029 NOSIG RMK PP000=
SPZO Feb2014-201300Z 00000KT 9999 FEW030 SCT040 BKN080 12/07 Q1030 NOSIG RMK PP000=
SPZO Feb2014-201400Z 00000KT 9999 FEW033 SCT040 BKN080 13/07 Q1030 NOSIG RMK PP000=
SPZO Feb2014-201500Z 07006KT 030V120 9999 FEW033 SCT040 BKN080 13/07 Q1030 NOSIG RMK VIS 9000E HZ PP000=
SPZO Feb2014-201600Z VRB05KT 9999 FEW033 SCT046 BKN080 14/07 Q1030 NOSIG RMK PP000=
SPZO Feb2014-201700Z 09009KT 050V130 9999 FEW033TCU SCT046 BKN080 14/07 Q1030 NOSIG RMK PP000=
SPZO Feb2014-201800Z 08009KT 040V110 9999 FEW036TCU SCT046 BKN070 15/07 Q1029 TEMPO VCSH RMK PP000=
SPZO Feb2014-201900Z 26010KT 240V310 9999 VCSH FEW036TCU SCT050 BKN080 16/08 Q1028 NOSIG RMK PP000=
SPZO Feb2014-202000Z 25007KT 200V300 9999 FEW036TCU SCT043 BKN080 16/07 Q1027 TEMPO VCSH RMK PP000=
SPZO Feb2014-202100Z 28010KT 240V320 9999 FEW040TCU SCT046 BKN080 16/07 Q1026 RMK PP000=
SPZO Feb2014-202200Z 29013KT 260V340 9999 FEW040TCU SCT046 BKN100 15/07 Q1026 NOSIG RMK T MAX. 16.2 PP000=
SPZO Feb2014-202300Z 29007KT 260V340 9999 VCSH FEW040TCU SCT050 BKN100 15/07 Q1028 NOSIG RMK PP000=
SPZO Feb2014-210000Z 00000KT 9999 -RA FEW036TCU SCT043 BKN070 12/05 Q1030 RMK VIS 9000 QUAD E RA PP004=
SPZO Feb2014-210100Z VRB01KT 9999 -RA FEW036 SCT043 BKN070 10/06 Q1031 RMK PP002=
SPZO Feb2014-210200Z 05003KT 360V080 9999 -RA FEW036 SCT043 BKN070 10/06 Q1031 RMK PP004=
SPZO Feb2014-210300Z 26004KT 230V300 9999 SCT040 BKN080 09/06 Q1031 RMK PPTRZ=
SPZO Feb2014-210400Z 00000KT 9999 SCT040 BKN080 10/06 Q1030 RMK PP000=
SPZO Feb2014-210500Z 00000KT 9999 SCT040 BKN080 09/06 Q1030 RMK PP000=
SPZO Feb2014-210600Z 27003KT 9999 SCT040 BKN080 08/06 Q1030 RMK PP000=
SPZO Feb2014-210700Z 00000KT 9999 SCT043 BKN080 09/06 Q1030 RMK PP000=
SPZO Feb2014-210800Z 09004KT 9999 SCT043 BKN080 08/06 Q1029 RMK PP000=
SPZO Feb2014-210900Z 00000KT 9999 SCT043 BKN080 08/06 Q1029 RMK PP000=
SPZO Feb2014-211000Z 00000KT 9999 SCT043 BKN080 08/06 Q1029 RMK BR PP000=
SPZO Feb2014-211100Z VRB01KT 9999 SCT043 BKN100 08/06 Q1030 NOSIG RMK VIS 9000 QUAD NE BR PP000=
SPZO Feb2014-211200Z 06003KT 9999 FEW030 SCT043 BKN080 08/06 Q1031 NOSIG RMK VIS 8000E BR PP000=
SPZO Feb2014-211300Z 00000KT 9999 FEW030 SCT040 BKN100 10/06 Q1031 NOSIG RMK VIS 9000E BR PP000=
SPZO Feb2014-211400Z VRB03KT 9999 FEW025 SCT040 BKN100 13/06 Q1031 NOSIG RMK PP000=
SPZO Feb2014-211500Z VRB02KT 9999 FEW030 SCT040 BKN100 16/05 Q1031 NOSIG RMK PP000=
SPZO Feb2014-211600Z VRB01KT 9999 SCT043 BKN080 18/07 Q1030 NOSIG RMK PP000=
SPZO Feb2014-211700Z 23007KT 160V270 9999 FEW036TCU SCT043 BKN080 19/07 Q1029 NOSIG RMK PP000=
SPZO Feb2014-211800Z VRB02KT 9999 SCT040 SCT050 18/04 Q1028 NOSIG RMK PP000=
SPZO Feb2014-211900Z VRB02KT 9999 SCT050 SCT060 20/05 Q1027 NOSIG RMK PP000=
SPZO Feb2014-212000Z VRB02KT 9999 SCT050 SCT060 21/06 Q1025 NOSIG RMK PP000=
SPZO Feb2014-212100Z 28007KT 230V350 9999 SCT050 SCT060 20/05 Q1025 NOSIG RMK PP000=
SPZO Feb2014-212200Z 01009KT 330V050 9999 SCT050 SCT060 18/07 Q1025 NOSIG RMK TMAX 21.1 PP000=
SPZO Feb2014-212300Z VRB05KT 9999 SCT050 SCT060 17/06 Q1026 NOSIG RMK PP000=
SPZO Feb2014-220000Z 08005KT 360V110 9999 FEW040TCU BKN100 15/08 Q1027 RMK PP000=
SPZO Feb2014-220100Z 00000KT 9999 SCT046 SCT100 14/08 Q1029 RMK PP000=
SPZO Feb2014-220200Z VRB02KT 9999 SCT046 BKN100 14/08 Q1029 RMK PP000=
SPZO Feb2014-220300Z VRB05KT 9999 -RA FEW036 SCT040 BKN080 12/07 Q1032 RMK PPTRZ=
SPZO Feb2014-220400Z 25006KT 9999 -TSRA FEW036CB SCT040 BKN080 10/07 Q1031 RMK PP006=
SPZO Feb2014-220500Z 22003KT 9999 FEW036 SCT040 BKN080 11/06 Q1030 RMK PP000=
SPZO Feb2014-220600Z 26009KT 9999 FEW036 SCT040 BKN080 11/05 Q1030 RMK PP000=
SPZO Feb2014-220700Z 26004KT 9999 SCT040 BKN080 10/05 Q1030 RMK PP000=
SPZO Feb2014-220800Z 00000KT 9999 SCT040 BKN080 10/06 Q1029 RMK PP000=
SPZO Feb2014-220900Z 00000KT 9999 SCT043 BKN080 10/06 Q1029 RMK PP000=
SPZO Feb2014-221000Z 00000KT 9999 SCT046 BKN080 10/06 Q1029 RMK PP000=
SPZO Feb2014-221100Z VRB02KT 9999 FEW040 SCT080 OVC200 10/07 Q1030 NOSIG RMK BR QUAD NE PP000=
SPZO Feb2014-221200Z 00000KT 9999 FEW040 SCT060 BKN100 10/07 Q1031 NOSIG RMK PP000=
SPZO Feb2014-221300Z VRB01KT 9999 FEW036 SCT060 BKN100 12/06 Q1031 NOSIG RMK PP000=
SPZO Feb2014-221400Z VRB02KT 9999 FEW030 SCT050 BKN080 13/06 Q1032 NOSIG RMK PP000=
SPZO Feb2014-221500Z VRB01KT 9999 SCT040 BKN080 14/04 Q1031 NOSIG RMK PP000=
SPZO Feb2014-221600Z VRB01KT 9999 SCT040 BKN080 16/05 Q1031 NOSIG RMK PP000=
SPZO Feb2014-221700Z 36008KT 320V060 9999 FEW036TCU SCT043 BKN080 15/06 Q1031 NOSIG RMK PP000=
SPZO Feb2014-221800Z 36009KT 310V040 9999 FEW036TCU SCT043 BKN080 16/07 Q1030 NOSIG RMK PP000=
SPZO Feb2014-221900Z 34008KT 250V060 9999 SCT043 BKN080 16/05 Q1029 NOSIG RMK PP000=
SPZO Feb2014-222000Z 32007KT 300V040 9999 SCT046 BKN100 17/05 Q1028 NOSIG RMK PP000=
SPZO Feb2014-222100Z VRB03KT 9999 SCT050 BKN100 18/05 Q1027 NOSIG RMK PP000=
SPZO Feb2014-222200Z 00000KT 9999 SCT046 SCT070 18/06 Q1026 NOSIG RMK TMAX 18.1 PP000=
SPZO Feb2014-222300Z VRB01KT 9999 FEW046 SCT070 16/04 Q1027 NOSIG RMK PP000=
SPZO Feb2014-230000Z VRB02KT 9999 SCT050 SCT080 15/05 Q1028 RMK PP000=
SPZO Feb2014-230100Z VRB03KT 9999 SCT050 SCT080 14/06 Q1029 RMK PP000=
SPZO Feb2014-230200Z 07003KT 9999 SCT050 SCT080 12/07 Q1030 RMK PP000=
SPZO Feb2014-230300Z VRB01KT 9999 SCT050 BKN080 12/06 Q1031 RMK PP000=
SPZO Feb2014-230400Z 00000KT 9999 SCT050 BKN080 11/07 Q1031 RMK PP000=
SPZO Feb2014-230500Z 00000KT 9999 SCT050 BKN080 11/07 Q1031 RMK PP000=
SPZO Feb2014-230600Z VRB01KT 9999 SCT050 BKN080 11/07 Q1030 RMK VIS 8000E BR PP000=
SPZO Feb2014-230700Z 00000KT 9999 SCT050 BKN080 10/07 Q1030 RMK PP000=
SPZO Feb2014-230800Z 00000KT 9999 SCT046 BKN080 10/07 Q1029 RMK PP000=
SPZO Feb2014-230900Z 00000KT 9999 SCT046 BKN080 10/07 Q1029 RMK PP000=
SPZO Feb2014-231000Z 00000KT 9999 FEW030 SCT043 BKN080 10/06 Q1030 RMK BR QUAD NE PP000=
SPZO Feb2014-231100Z 00000KT 9999 FEW030 SCT043 BKN080 10/06 Q1030 NOSIG RMK BR QUAD NE PP000=
SPZO Feb2014-231200Z 00000KT 9999 SCT040 BKN100 11/07 Q1031 NOSIG RMK VIS 9000 QUAD NE BR PP000=
SPZO Feb2014-231300Z 00000KT 9999 SCT040 15/06 Q1032 NOSIG RMK VIS 9000 QUAD NE BR PP000=
SPZO Feb2014-231400Z 07004KT 030V110 9999 SCT040 SCT080 14/06 Q1031 NOSIG RMK PP000=
SPZO Feb2014-231500Z 10004KT 020V160 9999 SCT043 SCT080 17/06 Q1031 NOSIG RMK PP000=
SPZO Feb2014-231600Z 00000KT 9999 SCT043 SCT080 17/04 Q1031 NOSIG RMK PP000=
SPZO Feb2014-231700Z 01009KT 290V060 9999 SCT050 BKN080 19/05 Q1030 NOSIG RMK PP000=
SPZO Feb2014-231800Z 34009KT 270V060 9999 SCT046 SCT080 20/04 Q1029 NOSIG RMK PP000=
SPZO Feb2014-231900Z 01011KT 310V050 9999 SCT046 SCT070 20/04 Q1027 NOSIG RMK PP000=
SPZO Feb2014-232000Z 35009KT 290V050 9999 SCT050 SCT100 20/03 Q1026 NOSIG RMK PP000=
SPZO Feb2014-232100Z 01010KT 330V060 9999 FEW036TCU SCT050 BKN100 20/04 Q1025 NOSIG RMK PP000=
SPZO Feb2014-232200Z 01009KT 320V050 9999 SCT050 BKN100 18/04 Q1025 NOSIG RMK T MAX 21.1 PP000=
SPZO Feb2014-232300Z 23006KT 190V310 9999 FEW050 BKN100 17/05 Q1026 NOSIG RMK PP000=
SPZO Feb2014-240000Z 36007KT 300V070 9999 SCT046 SCT100 16/06 Q1027 RMK VCTS QUAD S PP000=
SPZO Feb2014-240100Z 00000KT 9999 SCT046 SCT100 15/06 Q1029 RMK PP000=
SPZO Feb2014-240200Z 00000KT 9999 SCT046 SCT100 14/07 Q1030 RMK PP000=
SPZO Feb2014-240300Z 00000KT 9999 FEW043 SCT080 14/06 Q1031 RMK PP000=
SPZO Feb2014-240400Z VRB01KT 9999 FEW043 SCT080 14/07 Q1031 RMK PP000=
SPZO Feb2014-240500Z 19003KT 150V220 9999 -RA FEW036 SCT043 BKN080 12/08 Q1031 RMK PP008=
SPZO Feb2014-240600Z 00000KT 9000 -RA FEW030 SCT043 BKN080 11/08 Q1031 RMK PP006=
SPZO Feb2014-240700Z VRB02KT 9000 -RA FEW030 SCT043 BKN080 10/07 Q1031 RMK PP020=
SPZO Feb2014-240800Z 27004KT 230V310 8000 RA FEW025 SCT036 BKN070 10/07 Q1031 RMK PP028=
SPZO Feb2014-240900Z 09008KT 040V120 8000 -RA FEW025 SCT036 BKN070 09/06 Q1031 RMK PP032=
SPZO Feb2014-241000Z 09012KT 8000 -RA FEW025 SCT036 BKN070 07/05 Q1032 RMK PP002=
SPZO Feb2014-241100Z 09004KT 030V140 8000 -RA FEW015 SCT036 OVC070 07/05 Q1033 NOSIG RMK PP010=
SPZO Feb2014-241200Z VRB02KT 8000 -RA FEW010 SCT030 OVC060 07/05 Q1033 TEMPO VIS 9000 QUAD E RMK PP000=
SPZO Feb2014-241300Z 00000KT 9999 FEW010 SCT030 OVC060 09/06 Q1034 NOSIG RMK PPTRZ=
SPZO Feb2014-241400Z VRB03KT 9999 FEW025 SCT036 OVC060 11/06 Q1034 NOSIG RMK PP000=
SPZO Feb2014-241500Z 00000KT 9999 FEW040 SCT050 BKN100 14/06 Q1033 NOSIG RMK PP000=
SPZO Feb2014-241600Z VRB03KT 9999 SCT050 SCT100 16/06 Q1032 NOSIG RMK PP000=
SPZO Feb2014-241700Z VRB03KT 9999 SCT050 SCT100 17/06 Q1030 NOSIG RMK PP000=
SPZO Feb2014-241800Z VRB02KT 9999 SCT050 SCT100 18/05 Q1029 NOSIG RMK PP000=
SPZO Feb2014-241900Z VRB03KT 9999 SCT050 SCT100 19/07 Q1027 NOSIG RMK PP000=
SPZO Feb2014-242000Z VRB02KT 9999 SCT050 SCT080 19/05 Q1026 NOSIG RMK PP000=
SPZO Feb2014-242100Z 02008KT 330V080 9999 FEW050 SCT080 21/04 Q1025 NOSIG RMK PP000=
SPZO Feb2014-242200Z 00000KT 9999 SCT040 SCT080 18/07 Q1025 NOSIG RMK TMAX 21.5 PP000=
SPZO Feb2014-242300Z VRB06KT 9999 SCT046 BKN080 17/05 Q1026 NOSIG RMK PP000=
SPZO Feb2014-250000Z VRB02KT 9999 SCT040TCU BKN080 16/06 Q1028 RMK PP000=
SPZO Feb2014-250100Z 28006KT 250V330 9999 SCT040TCU BKN080 15/06 Q1029 RMK PP000=
SPZO Feb2014-250200Z VRB01KT 9999 SCT043 SCT100 14/06 Q1030 RMK PP000=
SPZO Feb2014-250300Z VRB02KT 9999 SCT050 SCT100 12/08 Q1031 RMK PP000=
SPZO Feb2014-250400Z 00000KT 9999 FEW050 SCT100 11/07 Q1031 RMK PP000=
SPZO Feb2014-250500Z VRB02KT 9999 FEW050 SCT100 10/07 Q1031 RMK PP000=
SPZO Feb2014-250600Z 00000KT 9999 FEW046 SCT080 10/07 Q1031 RMK PP000=
SPZO Feb2014-250700Z 00000KT 9999 FEW046 SCT080 09/07 Q1030 RMK PP000=
SPZO Feb2014-250800Z 00000KT 9999 FEW046 SCT080 09/06 Q1030 RMK PP000=
SPZO Feb2014-250900Z VRB02KT 9999 FEW046 SCT080 08/06 Q1030 RMK PP000=
SPZO Feb2014-251000Z VRB01KT 9999 FEW043 SCT080 08/06 Q1031 RMK BR PP000=
SPZO Feb2014-251100Z 00000KT 9999 FEW040 SCT100 08/06 Q1031 NOSIG RMK BR QUAD NE PP000=
SPZO Feb2014-251200Z 00000KT 9999 SCT040 BKN080 09/07 Q1032 NOSIG RMK VIS 9000 BR QUAD NE PP000=
SPZO Feb2014-251300Z 00000KT 9999 SCT040 SCT200 14/07 Q1032 NOSIG RMK VIS 9000 HZ QUAD NE PP000=
SPZO Feb2014-251400Z 00000KT 9999 SCT046 16/06 Q1032 NOSIG RMK PP000=
SPZO Feb2014-251500Z 22005KT 140V260 9999 SCT046 17/07 Q1031 NOSIG RMK PP000=
SPZO Feb2014-251600Z 00000KT 9999 SCT050 19/06 Q1030 NOSIG RMK PP000=
SPZO Feb2014-251700Z 07005KT 9999 SCT050 19/04 Q1029 NOSIG RMK PP000=
SPZO Feb2014-251800Z VRB06KT 9999 SCT050 SCT080 20/02 Q1028 NOSIG RMK PP000=
SPZO Feb2014-251900Z 33005KT 240V050 9999 SCT050 BKN080 22/05 Q1027 NOSIG RMK PP000=
SPZO Feb2014-252000Z 01006KT 290V070 9999 SCT050 BKN080 22/04 Q1025 NOSIG RMK PP000=
SPZO Feb2014-252100Z VRB05KT 9999 FEW036TCU SCT050 SCT100 21/04 Q1024 TEMPO VCSH RMK PP000=
SPZO Feb2014-252200Z 11010KT 070V150 9999 FEW036TCU SCT050 SCT080 20/04 Q1024 TEMPO -RA RMK TS VC CB QUAD S T.MAX 22.7 PP000=
SPZO Feb2014-252300Z 09005KT 050V150 9999 FEW036TCU SCT050 SCT080 16/05 Q1025 TEMPO SCT040 RMK TS VC CB QUAD W PP000=
SPZO Feb2014-260000Z 20003KT 9999 SCT050 15/06 Q1027 RMK PP000=
SPZO Feb2014-260100Z 06004KT 9999 SCT080 13/07 Q1028 RMK PP000=
SPZO Feb2014-260200Z 00000KT 9999 SCT040 SCT100 13/07 Q1029 RMK PP000=
SPZO Feb2014-260300Z 00000KT 9999 SCT040 SCT100 14/08 Q1030 RMK PP000=
SPZO Feb2014-260400Z VRB02KT 9999 SCT046 BKN080 13/08 Q1031 RMK PP000=
SPZO Feb2014-260500Z VRB06KT 9999 FEW030 SCT046 BKN080 13/07 Q1031 RMK PP000=
SPZO Feb2014-260600Z 24006KT 9999 -RA FEW030 SCT040 BKN080 13/04 Q1030 RMK PPTRZ=
SPZO Feb2014-260700Z 36012KT 330V060 9999 -RA FEW030 SCT040 BKN080 12/04 Q1030 RMK PPTRZ=
SPZO Feb2014-260800Z 22005KT 9999 -RA FEW030 SCT040 BKN080 10/05 Q1031 RMK PP024=
SPZO Feb2014-260900Z 25006KT 9999 FEW025 SCT040 BKN080 10/04 Q1031 RMK PP002=
SPZO Feb2014-261000Z 00000KT 9999 FEW025 BKN100 09/05 Q1031 RMK PP000=
SPZO Feb2014-261100Z 07003KT 9999 SCT040 SCT080 07/05 Q1032 NOSIG RMK BR QUAD NE PP000=
SPZO Feb2014-261200Z 00000KT 9999 SCT050 BKN100 09/05 Q1033 NOSIG RMK PP000=
SPZO Feb2014-261300Z VRB01KT 9999 SCT046 BKN100 11/05 Q1033 NOSIG RMK PP000=
SPZO Feb2014-261400Z VRB01KT 9999 FEW030 SCT046 BKN100 12/04 Q1034 NOSIG RMK PP000=
SPZO Feb2014-261500Z VRB03KT 9999 SCT040 BKN080 15/06 Q1033 NOSIG RMK PP000=
SPZO Feb2014-261600Z 34006KT 290V030 9999 SCT040 BKN080 16/05 Q1033 NOSIG RMK PP000=
SPZO Feb2014-261700Z 35009KT 320V050 9000 -DZ SCT040 BKN080 13/04 Q1033 NOSIG RMK PP004=
SPZO Feb2014-261800Z VRB02KT 9999 SCT050 SCT070 17/05 Q1031 REDZ NOSIG RMK PPTRZ=
SPZO Feb2014-261900Z 10006KT 020V200 9999 SCT050 SCT070 17/06 Q1030 TEMPO VCSH FEW036TCU RMK PP000=
SPZO Feb2014-262000Z 09009KT 050V120 9999 SCT050 SCT070 15/06 Q1029 TEMPO VCSH FEW036TCU RMK PP000=
SPZO Feb2014-262100Z 07007KT 020V110 9999 -DZ BKN050 SCT070 14/07 Q1029 NOSIG RMK PPTRZ=
SPZO Feb2014-262200Z 11004KT 090V150 9999 -DZ FEW030 SCT050 BKN070 13/07 Q1029 NOSIG RMK TMAX 17.4 PP006=
SPZO Feb2014-262300Z VRB02KT 9999 SCT050 SCT070 13/07 Q1029 NOSIG RMK PPTRZ=
SPZO Feb2014-270000Z 00000KT 9999 SCT050 BKN100 12/08 Q1030 RMK PP000=
SPZO Feb2014-270100Z 00000KT 9999 SCT050 BKN100 11/07 Q1031 RMK PP000=
SPZO Feb2014-270200Z 00000KT 9999 SCT050 BKN100 09/07 Q1032 RMK PP000=
SPZO Feb2014-270300Z 00000KT 9999 SCT050 BKN100 10/07 Q1033 RMK PP000=
SPZO Feb2014-270400Z VRB01KT 9999 SCT046 BKN080 10/07 Q1033 RMK PP000=
SPZO Feb2014-270500Z VRB02KT 9999 SCT046 BKN080 11/07 Q1033 RMK PP000=
SPZO Feb2014-270600Z 11003KT 9000 -RA SCT043 BKN070 10/08 Q1033 RMK PP006=
SPZO Feb2014-270700Z VRB01KT 9999 FEW020 SCT043 BKN070 10/07 Q1032 RERA RMK PP008=
SPZO Feb2014-270800Z 10003KT 9999 FEW030 SCT043 BKN070 10/07 Q1032 RMK PP000=
SPZO Feb2014-270900Z VRB01KT 9999 FEW030 SCT043 BKN080 09/07 Q1031 RMK PP000=
SPZO Feb2014-271000Z VRB02KT 9999 FEW030 SCT036 BKN070 09/07 Q1032 RMK PP000=
SPZO Feb2014-271100Z VRB02KT 9999 FEW025 SCT036 BKN070 09/07 Q1032 TEMPO -DZ RMK PP000=
SPZO Feb2014-271200Z VRB01KT 9999 FEW015 SCT040 BKN070 09/07 Q1033 TEMPO -DZ RMK HZ QUAD E PP000=
SPZO Feb2014-271300Z VRB01KT 9999 FEW015 SCT040 BKN070 12/08 Q1033 TEMPO -DZ RMK HZ QUAD E PP000=
SPZO Feb2014-271400Z VRB01KT 9999 SCT040 SCT070 14/07 Q1034 NOSIG RMK PP000=
SPZO Feb2014-271500Z VRB02KT 9999 SCT050 SCT070 15/07 Q1033 NOSIG RMK PP000=
SPZO Feb2014-271600Z VRB04KT 9999 SCT050 SCT070 16/07 Q1033 NOSIG RMK PP000=
SPZO Feb2014-271700Z VRB02KT 9999 SCT050 SCT070 18/05 Q1032 NOSIG RMK PP000=
SPZO Feb2014-271800Z 03007KT 310V090 9999 SCT050 SCT070 18/06 Q1031 NOSIG RMK PP000=
SPZO Feb2014-271900Z 03010KT 320V100 9999 SCT050 20/05 Q1030 WS R28 NOSIG RMK PP000=
SPZO Feb2014-272000Z 01006KT 310V110 9999 SCT050 20/04 Q1029 NOSIG RMK PP000=
SPZO Feb2014-272100Z 34008KT 280V030 9999 SCT046 SCT100 19/01 Q1028 NOSIG RMK PP000=
SPZO Feb2014-272200Z 11007KT 080V150 9999 FEW040TCU SCT046 BKN080 18/05 Q1028 NOSIG RMK TMAX 20.5 PP000=
SPZO Feb2014-272300Z 10008KT 070V140 9999 FEW040TCU SCT046 BKN080 16/06 Q1029 NOSIG RMK PP000=
SPZO Feb2014-280000Z 09005KT 060V120 9999 FEW036TCU SCT046 BKN080 14/06 Q1030 RMK PP000=
SPZO Feb2014-280100Z VRB02KT 9999 SCT046 BKN080 14/07 Q1031 RMK PP000=
SPZO Feb2014-280200Z VRB02KT 9999 SCT043 BKN080 12/07 Q1032 RMK PP000=
SPZO Feb2014-280300Z 06003KT 9999 SCT043 BKN080 10/06 Q1033 RMK PP000=
SPZO Feb2014-280400Z 00000KT 9999 SCT043 BKN080 10/06 Q1033 RMK PP000=
SPZO Feb2014-280500Z 00000KT 9999 SCT043 BKN080 09/06 Q1033 RMK PP000=
SPZO Feb2014-280600Z 00000KT 9999 SCT043 BKN080 09/06 Q1032 RMK PP000=
SPZO Feb2014-280700Z VRB02KT 9999 SCT043 BKN080 09/06 Q1031 RMK CB QUAD NE PP000=
SPZO Feb2014-280800Z 00000KT 9999 SCT043 BKN080 09/06 Q1031 RMK PP000=
SPZO Feb2014-280900Z VRB02KT 9999 FEW030 SCT043 BKN080 09/06 Q1031 RMK PP000=
SPZO Feb2014-281000Z VRB03KT 9999 FEW025 SCT040 BKN080 09/06 Q1031 RMK PP000=
SPZO Feb2014-281100Z VRB02KT 9999 FEW025 SCT040 BKN080 09/06 Q1031 RMK BR QUAD NE PP000=
SPZO Feb2014-281200Z VRB03KT 9999 FEW015 SCT043 OVC080 09/06 Q1032 NOSIG RMK PP000=
SPZO Feb2014-281300Z VRB03KT 9999 FEW015 SCT043 OVC080 11/06 Q1032 NOSIG RMK PP000=
SPZO Feb2014-281400Z 00000KT 9999 FEW020 SCT043 BKN100 13/06 Q1033 NOSIG RMK PP000=
SPZO Feb2014-281500Z VRB01KT 9999 FEW030 SCT043 BKN100 15/06 Q1033 NOSIG RMK PP000=
SPZO Feb2014-281600Z VRB02KT 9999 FEW036 SCT046 BKN080 16/06 Q1032 NOSIG RMK PP000=
SPZO Feb2014-281700Z 36008KT 300V060 9999 SCT046 BKN080 17/06 Q1031 NOSIG RMK PP000=
SPZO Feb2014-281800Z VRB05KT 9999 SCT050 SCT100 18/05 Q1030 NOSIG RMK PP000=
SPZO Feb2014-281900Z VRB07KT 9999 SCT050 SCT100 20/07 Q1029 NOSIG RMK PP000=
SPZO Feb2014-282000Z 26008KT 220V300 9999 SCT050 SCT100 19/06 Q1028 TEMPO FEW040TCU RMK PP000=
SPZO Feb2014-282100Z 21008KT 160V250 9999 SCT050 SCT100 17/03 Q1028 TEMPO -DZ RMK PP000=
SPZO Feb2014-282200Z 32006KT 280V360 9999 -RA FEW040TCU SCT050 BKN100 14/06 Q1028 NOSIG RMK TMAX 19.9 PP002=
SPZO Feb2014-282300Z 05004KT 360V110 9999 FEW040TCU SCT050 BKN100 14/07 Q1029 TEMPO -RA RMK PPTRZ=
SPZO Mar2014-010000Z 27005KT 240V310 9999 FEW040TCU SCT050 BKN100 12/06 Q1030 RMK PP000=
SPZO Mar2014-010100Z VRB02KT 9999 SCT050 BKN100 12/06 Q1030 RMK PP000=
SPZO Mar2014-010200Z VRB02KT 9999 SCT050 BKN100 12/07 Q1032 RMK PP000=
SPZO Mar2014-010300Z 00000KT 9999 SCT046 BKN080 11/07 Q1033 RMK PP000=
SPZO Mar2014-010400Z 07004KT 9999 SCT046 BKN080 10/07 Q1032 RMK PP000=
SPZO Mar2014-010500Z 00000KT 9999 SCT046 BKN080 10/07 Q1032 RMK VIS 8000E BR PP000=
SPZO Mar2014-010600Z VRB02KT 9999 SCT046 BKN080 09/06 Q1032 RMK PP000=
SPZO Mar2014-010700Z 00000KT 9999 SCT046 BKN080 09/06 Q1031 RMK PP000=
SPZO Mar2014-010800Z 00000KT 9999 SCT043 BKN080 07/05 Q1031 RMK BR QUAD NE PP000=
SPZO Mar2014-010900Z 00000KT 9999 SCT043 BKN080 08/05 Q1031 RMK PP000=
SPZO Mar2014-011000Z VRB02KT 9999 FEW030 SCT043 BKN080 07/05 Q1031 RMK BR QUAD NE PP000=
SPZO Mar2014-011100Z 00000KT 9999 FEW025 SCT036 BKN080 07/05 Q1031 RMK BR QUAD NE PP000=
SPZO Mar2014-011200Z 00000KT 9999 FEW030 SCT040 BKN100 08/05 Q1032 NOSIG RMK BR QUAD NE PP000=
SPZO Mar2014-011300Z VRB02KT 9999 FEW030 SCT043 BKN080 11/07 Q1033 NOSIG RMK VIS 9000E BR PP000=
SPZO Mar2014-011400Z VRB02KT 9999 FEW030 SCT043 BKN100 14/06 Q1033 NOSIG RMK PP000=
SPZO Mar2014-011500Z VRB03KT 9999 FEW030 SCT043 BKN080 16/06 Q1032 NOSIG RMK PP000=
SPZO Mar2014-011600Z VRB02KT 9999 SCT040 18/06 Q1032 NOSIG RMK PP000=
SPZO Mar2014-011700Z VRB05KT 9999 FEW050 SCT080 20/03 Q1031 NOSIG RMK PP000=
SPZO Mar2014-011800Z VRB04KT 9999 FEW050 SCT100 21/04 Q1029 NOSIG RMK PP000=
SPZO Mar2014-011900Z VRB02KT 9999 SCT050 SCT100 22/03 Q1027 NOSIG RMK PP000=
SPZO Mar2014-012000Z VRB05KT 9999 SCT050 SCT150 22/02 Q1026 NOSIG RMK PP000=
SPZO Mar2014-012100Z 25004KT 180V310 9999 SCT050 SCT150 23/03 Q1025 NOSIG RMK PP000=
SPZO Mar2014-012200Z 36006KT 320V060 9999 SCT050 SCT150 22/02 Q1025 NOSIG RMK TMAX 23.8 PP000=
SPZO Mar2014-012300Z 32007KT 290V350 9999 SCT050 SCT150 19/03 Q1026 NOSIG RMK PP000=
SPZO Mar2014-020000Z 09006KT 060V140 9999 SCT043 SCT080 17/01 Q1028 RMK PP000=
SPZO Mar2014-020100Z VRB04KT 9999 SCT043 SCT080 17/02 Q1029 RMK PP000=
SPZO Mar2014-020200Z VRB02KT 9999 SCT043 SCT080 15/03 Q1031 RMK VCTS QUAD NW PP000=
SPZO Mar2014-020300Z VRB02KT 9999 SCT043 SCT080 14/04 Q1031 RMK PP000=
SPZO Mar2014-020400Z 27003KT 240V320 9999 SCT043 SCT080 12/04 Q1031 RMK PP000=
SPZO Mar2014-020500Z 26005KT 9999 SCT043 SCT080 12/04 Q1031 RMK PP000=
SPZO Mar2014-020600Z 00000KT 9999 FEW050 SCT100 11/05 Q1031 RMK PP000=
SPZO Mar2014-020700Z 27003KT 9999 FEW050 SCT100 09/04 Q1030 RMK PP000=
SPZO Mar2014-020800Z 00000KT 9999 FEW050 SCT100 09/05 Q1029 RMK PP000=
SPZO Mar2014-020900Z 00000KT 9999 FEW050 SCT100 08/04 Q1029 RMK PP000=
SPZO Mar2014-021000Z 00000KT 9999 FEW050 SCT100 07/04 Q1030 RMK PP000=
SPZO Mar2014-021100Z 00000KT 9999 FEW043 SCT200 06/03 Q1030 NOSIG RMK BR PP000=
SPZO Mar2014-021200Z 00000KT 9999 SCT230 09/05 Q1031 NOSIG RMK HZ QUAD NE PP000=
SPZO Mar2014-021300Z VRB01KT 9999 SCT230 12/05 Q1032 NOSIG RMK HZ QUAD NE PP000=
SPZO Mar2014-021400Z VRB03KT 9999 FEW050 14/04 Q1031 NOSIG RMK PP000=
SPZO Mar2014-021500Z VRB02KT 9999 FEW050 17/05 Q1031 NOSIG RMK PP000=
SPZO Mar2014-021600Z VRB03KT 9999 SCT050 19/03 Q1030 NOSIG RMK PP000=
SPZO Mar2014-021700Z VRB01KT 9999 SCT050 21/04 Q1028 NOSIG RMK PP000=
SPZO Mar2014-021800Z VRB03KT 9999 FEW050 SCT060 22/02 Q1026 NOSIG RMK PP000=
SPZO Mar2014-021900Z VRB02KT 9999 FEW036TCU SCT050 SCT070 24/02 Q1025 NOSIG RMK PP000=
SPZO Mar2014-022000Z 01011KT 300V060 9999 -TSRA VCSH FEW036TCU SCT050CB BKN080 18/04 Q1025 RMK VIS 8000E -RA PPTRZ=
SPZO Mar2014-022100Z 19005KT 120V240 9999 FEW036TCU SCT050 BKN080 19/05 Q1025 RERA NOSIG RMK PPTRZ=
SPZO Mar2014-022200Z 26006KT 210V290 9999 FEW036TCU SCT046 BKN080 18/04 Q1025 NOSIG RMK T MAX 24.3 PP000=
SPZO Mar2014-022300Z VRB05KT 9999 VCSH FEW036TCU SCT050 BKN100 16/02 Q1027 TEMPO -RA RMK PP000=
SPZO Mar2014-030000Z VRB02KT 9999 SCT040TCU BKN060 15/02 Q1028 RMK PP000=
SPZO Mar2014-030100Z 25004KT 9999 FEW040 SCT060 14/03 Q1029 RMK PP000=
SPZO Mar2014-030200Z 26012KT 9999 FEW040 SCT060 12/05 Q1030 RMK PP000=
SPZO Mar2014-030300Z 26007KT 230V290 9999 SCT060 12/05 Q1031 RMK PP000=
SPZO Mar2014-030400Z 26005KT 220V300 9999 SCT060 12/05 Q1031 RMK PP000=
SPZO Mar2014-030500Z 00000KT 9999 SCT060 11/06 Q1031 RMK PP000=
SPZO Mar2014-030600Z 00000KT 9999 FEW050 SCT100 09/05 Q1030 RMK PP000=
SPZO Mar2014-030700Z 09003KT 9999 FEW050 SCT100 09/05 Q1029 RMK PP000=
SPZO Mar2014-030800Z 00000KT 9999 FEW050 SCT100 09/05 Q1028 RMK PP000=
SPZO Mar2014-030900Z 00000KT 9999 FEW050 SCT100 07/04 Q1029 RMK PP000=
SPZO Mar2014-031000Z 00000KT 9999 FEW050 SCT100 07/04 Q1029 RMK PP000=
SPZO Mar2014-031100Z 26005KT 9999 FEW050 BKN150 06/03 Q1029 NOSIG RMK PP000=
SPZO Mar2014-031200Z VRB02KT 9999 BKN200 08/04 Q1030 NOSIG RMK BR QUAD NE PP000=
SPZO Mar2014-031300Z 00000KT 9999 FEW050 BKN200 12/06 Q1029 NOSIG RMK HZ QUAD NE PP000=
SPZO Mar2014-031400Z VRB02KT 9999 FEW050 BKN200 15/05 Q1029 NOSIG RMK PP000=
SPZO Mar2014-031500Z VRB02KT 9999 SCT050 BKN150 17/07 Q1029 NOSIG RMK PP000=
SPZO Mar2014-031600Z VRB03KT 9999 SCT050 BKN150 19/04 Q1029 NOSIG RMK PP000=
SPZO Mar2014-031700Z VRB03KT 9999 FEW036TCU SCT050 BKN100 20/06 Q1027 NOSIG RMK PP000=
SPZO Mar2014-031800Z VRB06KT 9999 BKN050 SCT100 20/04 Q1026 NOSIG RMK PP000=
SPZO Mar2014-031900Z 08008KT 030V120 9999 BKN050 SCT100 18/05 Q1025 NOSIG RMK PP000=
SPZO Mar2014-032000Z 11004KT 060V190 9999 FEW040 SCT050 BKN100 18/04 Q1025 NOSIG RMK PP000=
SPZO Mar2014-032100Z 26015KT 230V300 9999 FEW040TCU SCT050 BKN070 16/04 Q1025 TEMPO VCSH RMK PP000=
SPZO Mar2014-032200Z 08013KT 040V150 9999 -RA FEW040TCU SCT050 BKN070 13/04 Q1026 NOSIG RMK TMAX 20.9 PP006=
SPZO Mar2014-032300Z VRB01KT 9999 FEW040 SCT050 BKN070 11/04 Q1028 NOSIG RMK PPTRZ=
SPZO Mar2014-040000Z 35007KT 310V060 9999 FEW036 SCT050 BKN100 11/03 Q1028 RMK PP000=
SPZO Mar2014-040100Z 25007KT 210V300 9999 SCT050 11/03 Q1029 RMK PP000=
SPZO Mar2014-040200Z 00000KT 9999 SCT050 10/04 Q1030 RMK PP000=
SPZO Mar2014-040300Z 00000KT 9999 SCT080 11/04 Q1031 RMK PP000=
SPZO Mar2014-040400Z 08004KT 9999 SCT080 09/05 Q1031 RMK PP000=
SPZO Mar2014-040500Z 09002KT 9999 SCT080 09/05 Q1030 RMK PP000=
SPZO Mar2014-040600Z 00000KT 9999 SCT080 09/05 Q1030 RMK PP000=
SPZO Mar2014-040700Z 07002KT 9999 FEW060 09/05 Q1030 RMK PP000=
SPZO Mar2014-040800Z 08002KT 9999 FEW060 09/05 Q1029 RMK PP000=
SPZO Mar2014-040900Z 00000KT 9999 FEW040 SCT200 08/05 Q1029 RMK PP000=
SPZO Mar2014-041000Z 00000KT 9999 FEW040 SCT200 07/05 Q1030 RMK PP000=
SPZO Mar2014-041100Z 08002KT 9999 FEW040 OVC200 06/04 Q1030 NOSIG RMK BR PP000=
SPZO Mar2014-041200Z 00000KT 9999 FEW050 SCT100 BKN200 07/04 Q1031 NOSIG RMK PP000=
SPZO Mar2014-041300Z 00000KT 9999 SCT050 SCT100 BKN200 09/05 Q1031 NOSIG RMK PP000=
SPZO Mar2014-041400Z 00000KT 9999 SCT050 SCT100 BKN200 11/05 Q1032 NOSIG RMK PP000=
SPZO Mar2014-041500Z 00000KT 9999 SCT050 SCT100 BKN230 14/05 Q1032 NOSIG RMK PP000=
SPZO Mar2014-041600Z 00000KT 9999 SCT050 SCT100 BKN230 16/06 Q1031 NOSIG RMK PP000=
SPZO Mar2014-041700Z VRB03KT 9999 SCT050 SCT100 BKN230 17/04 Q1030 NOSIG RMK PP000=
SPZO Mar2014-041800Z 10004KT 060V200 9999 SCT050 SCT100 BKN230 18/04 Q1028 NOSIG RMK PP000=
SPZO Mar2014-041900Z 08008KT 030V140 9999 BKN050 SCT200 19/04 Q1027 NOSIG RMK PP000=
SPZO Mar2014-042000Z VRB07KT 9999 BKN050 SCT100 20/03 Q1025 NOSIG RMK PP000=
SPZO Mar2014-042100Z 08009KT 030V110 9999 FEW040 SCT046 BKN100 18/05 Q1025 NOSIG RMK PP000=
SPZO Mar2014-042200Z 36010KT 320V060 9999 FEW040TCU SCT046 BKN100 16/04 Q1025 NOSIG RMK TMAX 20.2 PP000=
SPZO Mar2014-042300Z 36010KT 320V060 9999 FEW040TCU SCT046 BKN080 16/04 Q1027 NOSIG RMK PP000=
SPZO Mar2014-050000Z 34007KT 290V040 9999 SCT050 BKN080 15/05 Q1028 RMK PP000=
SPZO Mar2014-050100Z 11006KT 070V150 9999 SCT050 BKN080 14/06 Q1029 RMK PP000=
SPZO Mar2014-050200Z 10009KT 9999 SCT046 BKN080 13/06 Q1031 RMK PP000=
SPZO Mar2014-050300Z 09007KT 070V150 9999 SCT046 BKN080 11/07 Q1031 RMK -RA QUAD NE PP000=
SPZO Mar2014-050400Z VRB02KT 9999 SCT046 BKN080 11/06 Q1031 RMK PP000=
SPZO Mar2014-050500Z 00000KT 9999 SCT046 BKN080 10/07 Q1031 RMK PP000=
SPZO Mar2014-050600Z VRB02KT 9999 -DZ SCT043 BKN080 10/07 Q1031 RMK PPTRZ=
SPZO Mar2014-050700Z 08003KT 9999 -DZ SCT043 BKN080 10/07 Q1030 RMK PPTRZ=
SPZO Mar2014-050800Z 08003KT 9999 -DZ FEW030 SCT043 BKN080 10/07 Q1030 RMK PPTRZ=
SPZO Mar2014-050900Z VRB02KT 9999 -DZ FEW030 SCT040 BKN080 10/07 Q1030 RMK PP002=
SPZO Mar2014-051000Z VRB02KT 9999 FEW025 SCT040 BKN080 10/07 Q1030 REDZ RMK PPTRZ=
SPZO Mar2014-051100Z 08003KT 9999 -DZ FEW020 SCT036 BKN070 10/07 Q1031 NOSIG RMK SCT015 QUAD SW PPTRZ=
SPZO Mar2014-051200Z 10003KT 050V130 9000 FEW015 SCT033 BKN070 10/07 Q1032 NOSIG RMK PPTRZ=
SPZO Mar2014-051300Z 00000KT 9999 FEW020 SCT036 BKN070 13/07 Q1033 NOSIG RMK PP000=
SPZO Mar2014-051400Z 00000KT 9999 FEW025 SCT040 BKN230 15/07 Q1032 NOSIG RMK PP000=
SPZO Mar2014-051500Z 09004KT 010V140 9999 FEW025 SCT043 BKN230 16/07 Q1032 NOSIG RMK PP000=
SPZO Mar2014-051600Z VRB02KT 9999 SCT043 SCT080 16/05 Q1032 NOSIG RMK PP000=
SPZO Mar2014-051700Z 08009KT 030V120 9999 FEW040TCU SCT046 BKN080 17/05 Q1031 TEMPO VCSH RMK PP000=
SPZO Mar2014-051800Z 26011KT 230V300 9999 BKN050 SCT070 16/05 Q1030 NOSIG RMK PP000=
SPZO Mar2014-051900Z 27011KT 240V320 9999 SCT050 SCT070 19/04 Q1029 NOSIG RMK PP000=
SPZO Mar2014-052000Z 10012KT 060V140 9999 SCT050 SCT070 16/07 Q1028 NOSIG RMK PP000=
SPZO Mar2014-052100Z VRB02KT 9999 SCT050 SCT070 16/06 Q1028 NOSIG RMK PP000=
SPZO Mar2014-052200Z 29006KT 250V320 9999 SCT050 SCT070 16/06 Q1028 NOSIG RMK TMAX 19.4 PP000=
SPZO Mar2014-052300Z 31006KT 270V330 9999 SCT050 15/05 Q1028 NOSIG RMK PP000=
SPZO Mar2014-060000Z 26005KT 230V300 9999 FEW050 13/06 Q1029 RMK PP000=
SPZO Mar2014-060100Z 28003KT 9999 FEW050 12/06 Q1031 RMK PP000=
SPZO Mar2014-060200Z 00000KT 9999 SCT050 11/06 Q1032 RMK PP000=
SPZO Mar2014-060300Z 00000KT 9999 SCT050 10/06 Q1033 RMK PP000=
SPZO Mar2014-060400Z 00000KT 9999 SCT060 10/06 Q1033 RMK PP000=
SPZO Mar2014-060500Z 00000KT 9999 FEW040 SCT050 10/06 Q1033 RMK PP000=
SPZO Mar2014-060600Z 00000KT 9999 SCT043 SCT050 10/06 Q1032 RMK PP000=
SPZO Mar2014-060700Z 00000KT 9999 SCT040 SCT050 10/06 Q1032 RMK PP000=
SPZO Mar2014-060800Z VRB02KT 9999 SCT040 SCT080 10/06 Q1031 RMK PP000=
SPZO Mar2014-060900Z 00000KT 9999 SCT043 SCT080 09/06 Q1032 RMK PP000=
SPZO Mar2014-061000Z 00000KT 9999 SCT043 SCT080 08/05 Q1032 RMK PP000=
SPZO Mar2014-061100Z 07003KT 9999 SCT046 SCT080 08/05 Q1033 NOSIG RMK PP000=
SPZO Mar2014-061200Z 00000KT 9999 SCT050 SCT100 09/05 Q1034 NOSIG RMK HZ PP000=
SPZO Mar2014-061300Z 00000KT 9999 SCT050 SCT100 12/07 Q1034 NOSIG RMK HZ PP000=
SPZO Mar2014-061400Z 00000KT 9999 SCT050 SCT100 15/06 Q1035 NOSIG RMK HZ PP000=
SPZO Mar2014-061500Z VRB03KT 9999 SCT050 SCT100 16/05 Q1034 NOSIG RMK PP000=
SPZO Mar2014-061600Z VRB02KT 9999 SCT050 SCT100 18/03 Q1037 NOSIG RMK PP000=
SPZO Mar2014-061700Z VRB03KT 9999 SCT050 SCT100 18/03 Q1032 NOSIG RMK PP000=
SPZO Mar2014-061800Z VRB05KT 9999 FEW040TCU SCT050 BKN100 20/03 Q1030 TEMPO VCSH RMK PP000=
SPZO Mar2014-061900Z 03008KT 320V070 9999 VCSH FEW040TCU SCT050 BKN100 18/04 Q1029 RERA TEMPO -RA RMK PPTRZ=
SPZO Mar2014-062000Z 28011KT 220V320 9999 FEW036TCU SCT050 20/06 Q1027 NOSIG RMK PP000=
SPZO Mar2014-062100Z 01010KT 320V060 9999 FEW036TCU SCT050 21/02 Q1027 NOSIG RMK PP000=
SPZO Mar2014-062200Z 36008KT 300V050 9999 FEW036TCU SCT046 SCT070 20/03 Q1027 NOSIG RMK T MAX 21.2 PP000=
SPZO Mar2014-062300Z 36008KT 300V060 9999 FEW036TCU SCT046 SCT070 18/05 Q1028 NOSIG RMK PP000=
SPZO Mar2014-070000Z VRB04KT 9999 SCT040 SCT080 17/04 Q1029 RMK PP000=
SPZO Mar2014-070100Z 00000KT 9999 FEW040 SCT080 15/04 Q1031 RMK PP000=
SPZO Mar2014-070200Z VRB03KT 9999 SCT100 14/05 Q1032 RMK PP000=
SPZO Mar2014-070300Z VRB02KT 9999 SCT100 12/05 Q1033 RMK PP000=
SPZO Mar2014-070400Z 00000KT 9999 SCT100 12/06 Q1033 RMK PP000=
SPZO Mar2014-070500Z 00000KT 9999 FEW043 SCT080 12/06 Q1033 RMK PP000=
SPZO Mar2014-070600Z 19004KT 120V250 9999 FEW043 SCT080 13/06 Q1032 RMK PP000=
SPZO Mar2014-070700Z 22003KT 180V240 9999 FEW043 SCT080 13/05 Q1032 RMK PP000=
SPZO Mar2014-070800Z 21004KT 150V280 9999 SCT043 SCT080 12/04 Q1032 RMK PP000=
SPZO Mar2014-070900Z VRB02KT 9999 SCT043 SCT080 12/05 Q1032 RMK PP000=
SPZO Mar2014-071000Z 00000KT 9999 SCT043 SCT080 12/05 Q1032 RMK PP000=
SPZO Mar2014-071100Z VRB02KT 9999 SCT043 BKN080 11/05 Q1032 NOSIG RMK PP000=
SPZO Mar2014-071200Z 00000KT 9999 SCT050 SCT070 12/05 Q1033 NOSIG RMK PP000=
SPZO Mar2014-071300Z VRB02KT 9999 SCT050 SCT070 13/05 Q1033 NOSIG RMK PP000=
SPZO Mar2014-071400Z 00000KT 9999 SCT050 SCT070 15/05 Q1033 NOSIG RMK PP000=
SPZO Mar2014-071500Z 23004KT 130V290 9999 SCT050 SCT070 16/04 Q1033 NOSIG RMK PP000=
SPZO Mar2014-071600Z VRB03KT 9999 SCT050 SCT070 18/06 Q1032 NOSIG RMK PP000=
SPZO Mar2014-071700Z VRB05KT 9999 BKN050 SCT070 18/04 Q1031 NOSIG RMK PP000=
SPZO Mar2014-071800Z VRB03KT 9999 VCSH FEW036TCU SCT050 BKN080 19/06 Q1030 TEMPO -RA RMK PP000=
SPZO Mar2014-071900Z VRB06KT 9999 VCSH FEW040TCU SCT050 BKN080 18/06 Q1028 NOSIG RMK PP000=
SPZO Mar2014-072000Z VRB03KT 9999 FEW040TCU SCT046 BKN080 19/05 Q1028 TEMPO VCSH RMK PP000=
SPZO Mar2014-072100Z 07004KT 020V110 9999 VCSH FEW040TCU SCT050 BKN080 18/06 Q1027 RERA NOSIG RMK PPTRZ=
SPZO Mar2014-072200Z 09010KT 060V120 9999 SCT050 BKN100 17/05 Q1027 NOSIG RMK T MAX 19.7 PP000=
SPZO Mar2014-072300Z 12005KT 090V170 9999 FEW050 BKN100 16/06 Q1028 NOSIG RMK PP000=
SPZO Mar2014-080000Z 06005KT 020V100 9999 SCT050 BKN100 15/06 Q1029 RMK PP000=
SPZO Mar2014-080100Z 00000KT 9999 SCT050 SCT100 13/07 Q1031 RMK PP000=
SPZO Mar2014-080200Z 00000KT 9999 SCT050 SCT100 13/07 Q1032 RMK PP000=
SPZO Mar2014-080300Z 00000KT 9999 SCT040 SCT060 13/07 Q1032 RMK PP000=
SPZO Mar2014-080400Z 00000KT 9999 BKN060 13/07 Q1032 RMK PP000=
SPZO Mar2014-080500Z VRB02KT 9999 BKN050 12/07 Q1032 RMK PP000=
SPZO Mar2014-080600Z 06004KT 9999 -RA BKN040 SCT050 11/08 Q1032 RMK PP002=
SPZO Mar2014-080700Z 32004KT 9000 RA OVC040 10/06 Q1033 RMK PP030=
SPZO Mar2014-080800Z 21004KT 9999 -DZ BKN040 SCT080 10/05 Q1032 RMK PP006=
SPZO Mar2014-080900Z 00000KT 9999 BKN040 SCT080 10/06 Q1032 RMK PP000=
SPZO Mar2014-081000Z 00000KT 9000 -RA FEW030 SCT036 BKN080 10/07 Q1032 RMK PPTRZ=
SPZO Mar2014-081100Z 09003KT 9000 -RA FEW015 SCT036 BKN080 09/07 Q1033 NOSIG RMK CLNG BLW 1200M PPTRZ=
SPZO Mar2014-081200Z VRB01KT 9000 -RA FEW020 SCT036 OVC070 09/07 Q1034 NOSIG RMK CLNG BLW 1200M PP006=
SPZO Mar2014-081300Z VRB01KT 9999 FEW030 SCT043 BKN080 10/07 Q1034 REDZ NOSIG RMK PP002=
SPZO Mar2014-081400Z 08005KT 020V140 9999 FEW030 SCT040 BKN100 13/07 Q1034 NOSIG RMK PP000=
SPZO Mar2014-081500Z VRB02KT 9999 FEW036 SCT046 BKN100 15/06 Q1034 NOSIG RMK PP000=
SPZO Mar2014-081600Z VRB03KT 9999 SCT040 BKN100 18/06 Q1033 NOSIG RMK PP000=
SPZO Mar2014-081700Z 01005KT 300V110 9999 SCT046 BKN100 17/05 Q1032 NOSIG RMK PP000=
SPZO Mar2014-081800Z 35008KT 260V040 9999 SCT050 SCT100 18/04 Q1031 NOSIG RMK PP000=
SPZO Mar2014-081900Z 36008KT 300V080 9999 SCT050 SCT100 19/04 Q1029 NOSIG RMK PP000=
SPZO Mar2014-082000Z 35011KT 9999 FEW050 SCT230 19/04 Q1028 NOSIG RMK PP000=
SPZO Mar2014-082100Z 36010KT 300V030 9999 FEW050 BKN230 18/04 Q1027 NOSIG RMK PP000=
SPZO Mar2014-082200Z 36011KT 310V050 9999 FEW050 SCT230 17/04 Q1027 NOSIG RMK T.MAX 19.7 PP000=
SPZO Mar2014-082300Z 36008KT 310V080 9999 FEW050 SCT230 16/04 Q1028 NOSIG RMK PP000=
SPZO Mar2014-090000Z VRB02KT 9999 FEW050 BKN100 14/05 Q1029 RMK PP000=
SPZO Mar2014-090100Z 26005KT 140V310 9999 SCT050 BKN100 12/06 Q1031 RMK PP000=
SPZO Mar2014-090200Z VRB02KT 9999 SCT050 BKN080 14/05 Q1032 RMK -RA QUAD NE PP000=
SPZO Mar2014-090300Z VRB02KT 9999 SCT050 SCT080 12/05 Q1032 RMK PP000=
SPZO Mar2014-090400Z 00000KT 9999 SCT050 SCT080 11/05 Q1032 RMK PP000=
SPZO Mar2014-090500Z 00000KT 9999 SCT050 SCT080 10/06 Q1033 RMK PP000=
SPZO Mar2014-090600Z 00000KT 9999 SCT050 SCT080 11/06 Q1032 RMK PP000=
SPZO Mar2014-090700Z 00000KT 9999 SCT050 SCT080 09/06 Q1032 RMK PP000=
SPZO Mar2014-090800Z 08003KT 9999 SCT050 SCT080 08/06 Q1032 RMK PP000=
SPZO Mar2014-090900Z 00000KT 9999 SCT046 SCT080 08/05 Q1031 RMK PP000=
SPZO Mar2014-091000Z 00000KT 9999 SCT046 SCT080 07/05 Q1032 RMK BR QUAD NE PP000=
SPZO Mar2014-091100Z VRB01KT 9999 FEW043 SCT100 07/05 Q1032 NOSIG RMK BR QUAD NE PP000=
SPZO Mar2014-091200Z 25002KT 9999 FEW040 BKN230 08/05 Q1033 TEMPO SCT040 BKN080 RMK PP000=
SPZO Mar2014-091300Z 00000KT 9999 FEW043 BKN230 13/06 Q1034 NOSIG RMK PP000=
SPZO Mar2014-091400Z VRB02KT 9999 FEW043 BKN230 15/06 Q1034 NOSIG RMK PP000=
SPZO Mar2014-091500Z VRB02KT 9999 SCT046 BKN230 16/06 Q1033 NOSIG RMK PP000=
SPZO Mar2014-091600Z 00000KT 9999 BKN046 SCT230 17/06 Q1032 NOSIG RMK PP000=
SPZO Mar2014-091700Z VRB02KT 9999 FEW040 BKN050 18/03 Q1031 NOSIG RMK PP000=
SPZO Mar2014-091800Z VRB02KT 9999 SCT046 SCT100 19/04 Q1030 NOSIG RMK PP000=
SPZO Mar2014-091900Z 36007KT 290V080 9999 SCT046 BKN230 20/02 Q1029 NOSIG RMK PP000=
SPZO Mar2014-092000Z 02009KT 330V050 9999 SCT046 BKN230 21/03 Q1027 NOSIG RMK PP000=
SPZO Mar2014-092100Z 02008KT 310V080 9999 SCT046 BKN230 21/03 Q1026 NOSIG RMK PP000=
SPZO Mar2014-092200Z 01007KT 300V060 9999 FEW040 SCT050 BKN230 19/02 Q1026 NOSIG RMK TMAX 21.6 PP000=
SPZO Mar2014-092300Z VRB07KT 9999 FEW040 SCT050 BKN230 16/03 Q1028 NOSIG RMK PP000=
SPZO Mar2014-100000Z VRB02KT 9999 SCT050 BKN100 15/04 Q1030 RMK PP000=
SPZO Mar2014-100100Z VRB02KT 9999 SCT050 BKN100 13/05 Q1031 RMK PP000=
SPZO Mar2014-100200Z 00000KT 9999 SCT050 BKN100 12/05 Q1031 RMK PP000=
SPZO Mar2014-100300Z 00000KT 9999 SCT050 BKN080 11/05 Q1032 RMK PP000=
SPZO Mar2014-100400Z VRB02KT 9999 SCT050 BKN080 11/05 Q1032 RMK PP000=
SPZO Mar2014-100500Z 00000KT 9999 SCT050 BKN080 11/05 Q1031 RMK PP000=
SPZO Mar2014-100600Z VRB02KT 9999 SCT050 BKN080 11/06 Q1031 RMK PP000=
SPZO Mar2014-100700Z 00000KT 9999 SCT050 BKN080 11/06 Q1031 RMK PP000=
SPZO Mar2014-100800Z 00000KT 9999 SCT050 SCT080 10/06 Q1031 RMK PP000=
SPZO Mar2014-100900Z 00000KT 9999 SCT046 SCT080 08/05 Q1030 RMK PP000=
SPZO Mar2014-101000Z 00000KT 9999 SCT046 SCT100 08/05 Q1031 RMK PP000=
SPZO Mar2014-101100Z 00000KT 9999 SCT050 BKN100 07/04 Q1031 NOSIG RMK PP000=
SPZO Mar2014-101200Z 00000KT 9999 FEW040 SCT100 BKN230 11/06 Q1032 NOSIG RMK BR QUAD NE PP000=
SPZO Mar2014-101300Z VRB02KT 9999 FEW040 SCT100 BKN230 14/06 Q1032 NOSIG RMK PP000=
SPZO Mar2014-101400Z VRB03KT 9999 FEW040 SCT230 17/03 Q1032 NOSIG RMK PP000=
SPZO Mar2014-101500Z 00000KT 9999 FEW043 SCT230 18/04 Q1032 NOSIG RMK PP000=
SPZO Mar2014-101600Z VRB02KT 9999 SCT043 20/04 Q1031 NOSIG RMK PP000=
SPZO Mar2014-101700Z VRB04KT 9999 SCT050 21/03 Q1029 NOSIG RMK PP000=
SPZO Mar2014-101800Z VRB04KT 9999 SCT050 22/03 Q1028 NOSIG RMK PP000=
SPZO Mar2014-101900Z 08010KT 040V120 9999 FEW040TCU SCT050 18/04 Q1027 TEMPO -RA VCSH SCT040TCU BKN080 RMK PP000=
SPZO Mar2014-102000Z 26013KT 220V290 9999 FEW040TCU BKN050 18/05 Q1026 NOSIG RMK PP000=
SPZO Mar2014-102100Z 26013KT 230V290 9999 FEW040TCU SCT050 BKN070 17/06 Q1026 NOSIG RMK PP000=
SPZO Mar2014-102200Z 26013KT 230V290 9999 BKN050 SCT070 16/06 Q1027 NOSIG RMK TMAX 22.7 PP000=
SPZO Mar2014-102300Z 26009KT 230V300 9999 BKN050 SCT070 16/06 Q1027 NOSIG RMK PP000=
SPZO Mar2014-110000Z 27009KT 240V300 9999 SCT050 BKN100 15/06 Q1028 RMK PP000=
SPZO Mar2014-110100Z 26009KT 230V300 9999 SCT050 BKN100 15/06 Q1029 RMK PP000=
SPZO Mar2014-110200Z 29008KT 9999 SCT050 BKN100 14/05 Q1030 RMK PP000=
SPZO Mar2014-110300Z 27004KT 9999 SCT050 BKN100 12/05 Q1031 RMK PP000=
SPZO Mar2014-110400Z VRB02KT 9999 SCT050 BKN100 11/06 Q1031 RMK PP000=
SPZO Mar2014-110500Z 00000KT 9999 SCT050 BKN100 11/07 Q1031 RMK PP000=
SPZO Mar2014-110600Z VRB01KT 9999 SCT050 BKN100 11/06 Q1030 RMK PP000=
SPZO Mar2014-110700Z VRB02KT 9999 SCT050 BKN100 11/06 Q1030 RMK PP000=
SPZO Mar2014-110800Z 00000KT 9999 SCT050 BKN100 10/06 Q1029 RMK PP000=
SPZO Mar2014-110900Z VRB03KT 9999 SCT046 BKN080 09/06 Q1029 RMK BR QUAD NE PP000=
SPZO Mar2014-111000Z VRB02KT 9999 SCT046 BKN080 09/06 Q1030 RMK PP000=
SPZO Mar2014-111100Z 25003KT 9999 SCT046 BKN100 08/05 Q1030 NOSIG RMK PP000=
SPZO Mar2014-111200Z VRB02KT 9999 BKN050 SCT060 11/06 Q1031 NOSIG RMK PP000=
SPZO Mar2014-111300Z 00000KT 9999 SCT050 SCT060 14/06 Q1031 NOSIG RMK PP000=
SPZO Mar2014-111400Z 00000KT 9999 SCT050 SCT070 17/04 Q1031 NOSIG RMK PP000=
SPZO Mar2014-111500Z VRB03KT 9999 SCT050 SCT100 17/04 Q1030 NOSIG RMK PP000=
SPZO Mar2014-111600Z VRB02KT 9999 SCT050 SCT100 19/04 Q1030 NOSIG RMK PP000=
SPZO Mar2014-111700Z VRB04KT 9999 SCT050 SCT100 21/05 Q1028 NOSIG RMK PP000=
SPZO Mar2014-111800Z VRB05KT 9999 FEW036TCU SCT050 BKN100 20/03 Q1027 TEMPO VCSH RMK PP000=
SPZO Mar2014-111900Z 26013KT 230V300 9999 FEW036TCU SCT050 BKN100 21/04 Q1026 NOSIG RMK PP000=
SPZO Mar2014-112000Z 28010KT 240V320 9999 VCSH FEW036TCU SCT050 BKN100 20/04 Q1025 NOSIG RMK PP000=
SPZO Mar2014-112100Z 01007KT 320V070 9999 FEW036TCU SCT050 BKN100 19/04 Q1025 TEMPO 11008KT VCTS SCT036CB BKN070 RMK PP000=
SPZO Mar2014-112200Z 10008KT 060V140 9999 FEW036TCU SCT046 BKN100 18/03 Q1025 TEMPO VCTS SCT036CB BKN070 RMK T MAX 21.7 PP000=
SPZO Mar2014-112300Z VRB03KT 9999 TS VCSH FEW036TCU SCT043CB BKN100 17/05 Q1027 TEMPO -RA RMK PP000=
SPZO Mar2014-120000Z 23006KT 110V280 9000 -RA VCSH FEW030 SCT040 BKN080 14/07 Q1028 RMK PPTRZ=
SPZO Mar2014-120100Z VRB03KT 9999 -RA FEW030 SCT040 BKN080 12/07 Q1029 RMK PP018=
SPZO Mar2014-120200Z VRB02KT 9999 SCT040 BKN080 13/07 Q1030 RMK PPTRZ=
SPZO Mar2014-120300Z 00000KT 9999 SCT040 BKN080 13/08 Q1031 RMK PP000=
SPZO Mar2014-120400Z 28003KT 9999 SCT040 BKN080 12/08 Q1031 RMK PP000=
SPZO Mar2014-120500Z 27011KT 9999 SCT043 SCT080 11/07 Q1031 RMK PP000=
SPZO Mar2014-120600Z 26008KT 9999 SCT043 SCT080 11/06 Q1031 RMK PP000=
SPZO Mar2014-120700Z 28008KT 250V330 9000 -RA FEW036 SCT043 BKN080 10/05 Q1030 RMK PP008=
SPZO Mar2014-120800Z 28007KT 9000 -RA FEW030 SCT040 BKN070 09/05 Q1030 RMK PP016=
SPZO Mar2014-120900Z 27006KT 9000 -RA FEW030 SCT040 BKN070 09/06 Q1030 RMK PP008=
SPZO Mar2014-121000Z 25004KT 200V340 9000 DZ FEW030 SCT040 BKN070 09/05 Q1030 RMK PP002=
SPZO Mar2014-121100Z 09003KT 9999 FEW025 SCT040 OVC070 09/06 Q1030 NOSIG RMK PPTRZ=
SPZO Mar2014-121200Z 09003KT 9000 -DZ FEW020 SCT040 OVC070 09/06 Q1031 NOSIG RMK PPTRZ=
SPZO Mar2014-121300Z 08003KT 8000 FEW020 SCT040 OVC070 10/07 Q1032 NOSIG RMK PPTRZ=
SPZO Mar2014-121400Z VRB02KT 9999 FEW020 SCT040 OVC070 10/06 Q1033 NOSIG RMK PP000=
SPZO Mar2014-121500Z VRB02KT 9999 FEW030 SCT040 OVC070 12/06 Q1032 NOSIG RMK PP000=
SPZO Mar2014-121600Z VRB02KT 9999 FEW030 SCT050 OVC070 13/06 Q1032 NOSIG RMK PP000=
SPZO Mar2014-121700Z VRB02KT 9999 FEW033 SCT050 OVC070 14/05 Q1031 NOSIG RMK PP000=
SPZO Mar2014-121800Z 09004KT 010V170 9999 FEW040 SCT046 OVC100 16/05 Q1030 TEMPO 29010KT VCSH SCT040TCU BKN080 RMK PP000=
SPZO Mar2014-121900Z VRB02KT 9999 SCT050 BKN100 18/04 Q1028 TEMPO 28012KT VCSH SCT040TCU BKN080 RMK PP000=
SPZO Mar2014-122000Z VRB02KT 9999 SCT050 BKN100 19/05 Q1027 NOSIG RMK PP000=
SPZO Mar2014-122100Z VRB07KT 9999 FEW040TCU SCT050 BKN100 17/06 Q1026 TEMPO VCSH RMK PP000=
SPZO Mar2014-122200Z 35006KT 300V030 9999 SCT050 BKN100 17/05 Q1026 NOSIG RMK T MAX 18.9 PP000=
SPZO Mar2014-122300Z 02005KT 320V120 9999 SCT050 BKN100 15/05 Q1027 NOSIG RMK PP000=
SPZO Mar2014-130000Z 04008KT 9999 SCT050 SCT100 14/04 Q1029 RMK PP000=
SPZO Mar2014-130100Z VRB02KT 9999 SCT050 SCT100 13/05 Q1030 RMK PP000=
SPZO Mar2014-130200Z 09014KT 9999 BKN040 SCT070 11/07 Q1032 RMK PP000=
SPZO Mar2014-130300Z 00000KT 9999 -RA BKN040 SCT070 10/08 Q1032 RMK PP008=
SPZO Mar2014-130400Z 09003KT 9999 BKN040 SCT080 10/07 Q1032 RMK PP000=
SPZO Mar2014-130500Z 08002KT 9999 BKN043 SCT100 10/07 Q1032 RMK PP000=
SPZO Mar2014-130600Z 00000KT 9999 BKN046 SCT100 10/07 Q1031 RMK PP000=
SPZO Mar2014-130700Z 07002KT 9999 BKN046 SCT080 10/07 Q1031 RMK PP000=
SPZO Mar2014-130800Z 08002KT 9999 BKN050 SCT100 10/07 Q1030 RMK PP000=
SPZO Mar2014-130900Z 10002KT 9999 BKN043 SCT080 10/07 Q1030 RMK PP000=
SPZO Mar2014-131000Z 00000KT 9999 FEW020 SCT040 BKN080 10/07 Q1031 RMK PP000=
SPZO Mar2014-131100Z VRB01KT 9000 FEW020 SCT036 BKN070 10/07 Q1031 TEMPO -RA RMK CLNG BLW 1200M PP000=
SPZO Mar2014-131200Z VRB02KT 9999 FEW020 SCT036 BKN070 10/07 Q1032 NOSIG RMK CLNG BLW 1200M PP000=
SPZO Mar2014-131300Z 00000KT 9999 FEW020 SCT040 BKN080 13/07 Q1033 NOSIG RMK PP000=
SPZO Mar2014-131400Z VRB02KT 9999 FEW030 SCT040 BKN080 15/07 Q1033 NOSIG RMK PP000=
SPZO Mar2014-131500Z VRB02KT 9999 FEW025 SCT040 BKN080 14/05 Q1033 NOSIG RMK PP000=
SPZO Mar2014-131600Z 00000KT 9999 SCT043 BKN080 16/06 Q1032 NOSIG RMK PP000=
SPZO Mar2014-131700Z VRB02KT 9999 SCT046 BKN080 17/04 Q1031 TEMPO VCSH FEW040TCU BKN070 RMK PP000=
SPZO Mar2014-131800Z 09007KT 050V140 9999 SCT046 SCT080 18/04 Q1030 TEMPO VCSH FEW040TCU BKN070 RMK PP000=
SPZO Mar2014-131900Z 35008KT 300V050 9999 SCT050 SCT100 20/07 Q1028 NOSIG RMK PP000=
SPZO Mar2014-132000Z 01008KT 300V060 9999 VCSH FEW040TCU SCT050 BKN100 21/06 Q1027 TEMPO SCT040TCU BKN080 RMK PP000=
SPZO Mar2014-132100Z 09012KT 010V140 9999 VCSH FEW043TCU SCT050 BKN080 14/07 Q1027 TEMPO 9000 -RA RMK PP000=
SPZO Mar2014-132200Z VRB03KT 9999 FEW046 BKN100 15/09 Q1027 NOSIG RMK T.MAX 20.7 PP004=
SPZO Mar2014-132300Z VRB02KT 9999 FEW050 SCT230 15/05 Q1028 NOSIG RMK PP000=
SPZO Mar2014-140000Z VRB01KT 9999 SCT043 14/06 Q1029 RMK PP000=
SPZO Mar2014-140100Z 00000KT 9999 SCT043 13/07 Q1031 RMK PP000=
SPZO Mar2014-140200Z 00000KT 9999 SCT043 11/07 Q1031 RMK PP000=
SPZO Mar2014-140300Z 27003KT 9999 SCT050 09/06 Q1032 RMK PP000=
SPZO Mar2014-140400Z VRB01KT 9999 SCT050 SCT080 10/06 Q1032 RMK PP000=
SPZO Mar2014-140500Z 00000KT 9999 SCT050 SCT080 10/07 Q1031 RMK PP000=
SPZO Mar2014-140600Z 10003KT 9999 SCT050 SCT080 10/07 Q1031 RMK PP000=
SPZO Mar2014-140700Z 00000KT 9999 SCT050 SCT100 11/07 Q1031 RMK PP000=
SPZO Mar2014-140800Z 00000KT 9999 SCT050 SCT100 11/07 Q1030 RMK PP000=
SPZO Mar2014-140900Z 08004KT 9999 SCT043 BKN100 10/07 Q1030 RMK PP000=
SPZO Mar2014-141000Z 10007KT 060V120 9999 FEW025 SCT043 BKN080 10/07 Q1031 RMK PP000=
SPZO Mar2014-141100Z 09009KT 9000 DZ FEW020 SCT036 OVC070 09/07 Q1032 TEMPO -RA 8000 4000E FEW010 SCT030 OVC060 RMK VIS 8000 QUAD NE RA PP002=
SPZO Mar2014-141200Z 08007KT 9000 -DZ FEW015 SCT036 BKN080 09/06 Q1033 NOSIG RMK CLNG BLW 1200M PPTRZ=
SPZO Mar2014-141300Z 10003KT 9999 FEW030 SCT046 BKN100 11/07 Q1034 NOSIG RMK PP000=
SPZO Mar2014-141400Z VRB03KT 9999 SCT043 SCT100 13/07 Q1034 NOSIG RMK PP000=
SPZO Mar2014-141500Z 10006KT 9999 SCT046 SCT100 15/07 Q1034 NOSIG RMK PP000=
SPZO Mar2014-141600Z VRB03KT 9999 SCT046 SCT100 17/06 Q1032 TEMPO VCSH FEW040TCU BKN100 RMK PP000=
SPZO Mar2014-141700Z VRB02KT 9999 FEW040 SCT050 17/05 Q1031 NOSIG RMK PP000=
SPZO Mar2014-141800Z 09008KT 050V140 9999 VCSH FEW036TCU SCT046 BKN060 17/07 Q1030 TEMPO 36008KT SCT040TCU BKN100 RMK PP000=
SPZO Mar2014-141900Z 34010KT 290V020 9999 VCSH FEW036TCU SCT046 BKN080 14/06 Q1029 NOSIG RMK PP000=
SPZO Mar2014-142000Z 22007KT 190V260 9999 SCT040 BKN080 15/06 Q1028 TEMPO 29012KT -RA VCSH SCT040TCU BKN100 RMK PP000=
SPZO Mar2014-142100Z 24004KT 170V330 9999 SCT040 BKN080 16/06 Q1027 TEMPO 29012KT -RA VCSH SCT040TCU BKN100 RMK RA QUAD E PP000=
SPZO Mar2014-142200Z 22003KT 190V280 9999 FEW040TCU SCT046 BKN080 16/05 Q1027 TEMPO 11010KT -RA VCSH SCT036CB BKN070 RMK TMAX 19.4 PP000=
SPZO Mar2014-142300Z 00000KT 9999 FEW040 SCT050 BKN100 15/07 Q1027 NOSIG RMK PP000=
SPZO Mar2014-150000Z 00000KT 9999 SCT050 BKN100 14/08 Q1028 RMK PP000=
SPZO Mar2014-150100Z 08003KT 9999 SCT050 BKN100 13/08 Q1029 RMK PP000=
SPZO Mar2014-150200Z 00000KT 9999 SCT050 BKN100 12/07 Q1030 RMK PP000=
SPZO Mar2014-150300Z VRB02KT 9999 SCT050 BKN100 12/08 Q1031 RMK PP000=
SPZO Mar2014-150400Z 07004KT 020V110 9999 SCT046 BKN080 12/08 Q1031 RMK -RA QUAD NE PP000=
SPZO Mar2014-150500Z VRB02KT 9000 -RA SCT043 BKN080 11/08 Q1030 RMK PPTRZ=
SPZO Mar2014-150600Z 00000KT 9999 SCT043 BKN080 11/08 Q1030 RERA RMK PPTRZ=
SPZO Mar2014-150700Z 25004KT 9999 SCT043 BKN080 11/07 Q1029 RMK PP000=
SPZO Mar2014-150800Z VRB03KT 9999 SCT043 BKN080 11/07 Q1029 RMK PP000=
SPZO Mar2014-150900Z 25003KT 180V330 9999 SCT043 BKN080 11/07 Q1028 RMK PP000=
SPZO Mar2014-151000Z 00000KT 9999 SCT046 BKN080 11/07 Q1028 RMK PP000=
SPZO Mar2014-151100Z 00000KT 9999 SCT046 BKN080 11/07 Q1029 TEMPO 12006KT FEW020 SCT040 BKN070 RMK PP000=
SPZO Mar2014-151200Z VRB03KT 9999 FEW025 SCT043 BKN080 11/07 Q1030 TEMPO FEW020 SCT040 BKN070 RMK BR QUAD E PP000=
SPZO Mar2014-151300Z VRB01KT 9999 FEW025 SCT043 BKN080 12/08 Q1031 NOSIG RMK BR QUAD E PP000=
SPZO Mar2014-151400Z 00000KT 9999 FEW020 SCT043 BKN080 14/07 Q1031 NOSIG RMK PP000=
SPZO Mar2014-151500Z VRB01KT 9999 FEW020 SCT043 BKN080 15/07 Q1031 NOSIG RMK PP000=
SPZO Mar2014-151600Z 07006KT 350V140 9999 FEW036 SCT046 BKN080 17/08 Q1030 NOSIG RMK PP000=
SPZO Mar2014-151700Z 09015KT 050V120 9999 FEW040TCU SCT046 BKN080 17/08 Q1030 TEMPO VCSH RMK PP000=
SPZO Mar2014-151800Z 08014KT 9999 VCSH FEW036TCU SCT043 BKN080 16/06 Q1029 TEMPO -RA RMK CB QUAD W PP000=
SPZO Mar2014-151900Z 08009KT 050V140 9999 FEW036TCU SCT040 BKN080 18/06 Q1027 TEMPO VCSH RMK PP000=
SPZO Mar2014-152000Z 12006KT 040V190 9999 FEW036TCU SCT043 BKN080 19/05 Q1026 TEMPO 10010KT VCSH SCT040TCU BKN100 RMK PP000=
SPZO Mar2014-152100Z 08005KT 050V120 9999 FEW036TCU SCT043 BKN080 17/05 Q1025 NOSIG RMK PP000=
SPZO Mar2014-152200Z 27014KT 240V300 9999 FEW036TCU SCT043 BKN100 17/06 Q1025 NOSIG RMK T MAX 19.4 PP000=
SPZO Mar2014-152300Z 26012KT 9999 SCT040 BKN100 15/06 Q1025 NOSIG RMK PP000=
SPZO Mar2014-160000Z 25008KT 9999 SCT040 SCT100 15/07 Q1027 RMK PP000=
SPZO Mar2014-160100Z 25009KT 9999 BKN043 SCT080 14/06 Q1028 RMK PP000=
SPZO Mar2014-160200Z 24006KT 9999 SCT046 SCT100 13/07 Q1029 RMK PP000=
SPZO Mar2014-160300Z 26006KT 9999 SCT046 SCT100 12/07 Q1030 RMK PP000=
SPZO Mar2014-160400Z 29003KT 9999 BKN046 SCT100 11/07 Q1030 RMK PP000=
SPZO Mar2014-160500Z 00000KT 9999 BKN050 SCT100 11/07 Q1030 RMK PP000=
SPZO Mar2014-160600Z 00000KT 9999 SCT050 SCT100 10/07 Q1030 RMK PP000=
SPZO Mar2014-160700Z 29003KT 9999 BKN043 SCT080 11/07 Q1029 RMK PP000=
SPZO Mar2014-160800Z 00000KT 9999 BKN043 SCT080 11/07 Q1029 RMK PP000=
SPZO Mar2014-160900Z 00000KT 9999 SCT043 BKN080 10/07 Q1029 RMK PP000=
SPZO Mar2014-161000Z 05004KT 9999 FEW030 SCT043 BKN080 10/07 Q1029 RMK PP000=
SPZO Mar2014-161100Z 00000KT 9999 FEW030 SCT036 BKN080 10/07 Q1030 TEMPO FEW020 SCT036 BKN070 RMK PP000=
SPZO Mar2014-161200Z VRB03KT 9999 FEW030 SCT040 BKN080 11/07 Q1030 NOSIG RMK PP000=
SPZO Mar2014-161300Z VRB02KT 9999 FEW030 SCT040 BKN080 13/06 Q1031 NOSIG RMK PP000=
SPZO Mar2014-161400Z VRB02KT 9999 FEW025 SCT040 BKN080 14/05 Q1031 NOSIG RMK PP000=
SPZO Mar2014-161500Z VRB03KT 9999 SCT040 BKN080 16/05 Q1030 NOSIG RMK PP000=
SPZO Mar2014-161600Z VRB03KT 9999 BKN043 SCT080 19/06 Q1029 TEMPO 28008KT VCSH FEW036TCU BKN070 RMK PP000=
SPZO Mar2014-161700Z VRB02KT 9999 SCT043 SCT080 20/07 Q1028 TEMPO 28008KT VCSH FEW036TCU BKN070 RMK PP000=
SPZO Mar2014-161800Z 04012KT 010V080 9999 FEW036TCU SCT046 BKN080 19/03 Q1026 NOSIG RMK PP000=
SPZO Mar2014-161900Z 11010KT 070V140 9999 VCSH FEW036TCU SCT046 BKN080 18/05 Q1025 TEMPO -RA RMK PP000=
SPZO Mar2014-162000Z VRB03KT 9999 VCSH FEW036TCU SCT050 BKN080 17/05 Q1025 TEMPO -RA RMK PP000=
SPZO Mar2014-162100Z 00000KT 9999 VCSH FEW036TCU SCT050 BKN080 17/06 Q1024 NOSIG RMK PP000=
SPZO Mar2014-162200Z 09008KT 060V140 9999 FEW036TCU SCT050 BKN080 15/07 Q1025 TEMPO -RA RMK T MAX 21.0 PP000=
SPZO Mar2014-162300Z 10004KT 060V150 9999 FEW036TCU SCT050 BKN100 16/06 Q1025 TEMPO -RA RMK PP000=
SPZO Mar2014-170000Z 26010KT 230V300 9999 BKN046 14/06 Q1026 RMK PP000=
SPZO Mar2014-170100Z 26008KT 220V280 9999 SCT070 13/07 Q1027 RMK PP000=
SPZO Mar2014-170200Z VRB01KT 9999 SCT070 13/06 Q1029 RMK PP000=
SPZO Mar2014-170300Z 07004KT 9999 FEW043 SCT070 12/06 Q1029 RMK PP000=
SPZO Mar2014-170400Z 00000KT 9999 FEW043 SCT070 11/06 Q1029 RMK PP000=
SPZO Mar2014-170500Z 08002KT 9999 FEW043 BKN080 12/07 Q1029 RMK PP000=
SPZO Mar2014-170600Z VRB02KT 9999 FEW043 BKN080 12/07 Q1029 RMK PP000=
SPZO Mar2014-170700Z VRB02KT 9999 FEW040 OVC080 12/06 Q1029 RMK PP000=
SPZO Mar2014-170800Z 29005KT 250V330 9999 FEW040 OVC080 11/06 Q1029 RMK PP000=
SPZO Mar2014-170900Z 00000KT 9999 FEW040 BKN080 11/07 Q1029 RMK PP000=
SPZO Mar2014-171000Z 11003KT 9999 -RA SCT040 BKN080 10/07 Q1029 RMK PPTRZ=
SPZO Mar2014-171100Z 08003KT 9999 FEW020 SCT040 BKN080 09/07 Q1030 TEMPO FEW010 SCT036 BKN060 RMK PPTRZ=
SPZO Mar2014-171200Z 08003KT 9999 FEW015 SCT040 OVC070 10/07 Q1031 TEMPO SCT040 BKN100 RMK PP000=
SPZO Mar2014-171300Z VRB02KT 9999 FEW015 SCT040 OVC070 11/07 Q1031 NOSIG RMK PP000=
SPZO Mar2014-171400Z VRB03KT 9999 FEW030 SCT040 OVC070 12/06 Q1032 NOSIG RMK PP000=
SPZO Mar2014-171500Z VRB04KT 9999 FEW040 SCT050 BKN070 15/05 Q1031 NOSIG RMK PP000=
SPZO Mar2014-171600Z VRB05KT 9999 FEW040 SCT050 BKN070 16/06 Q1030 TEMPO VCSH SCT040TCU BKN080 RMK PP000=
SPZO Mar2014-171700Z VRB03KT 9999 FEW040 SCT050 BKN070 17/05 Q1029 TEMPO VCSH SCT040TCU BKN080 RMK PP000=
SPZO Mar2014-171800Z VRB02KT 9999 VCSH FEW036TCU SCT046 BKN080 19/04 Q1027 NOSIG RMK PP000=
SPZO Mar2014-171900Z 35009KT 270V060 9999 VCSH FEW036TCU SCT046 BKN080 19/05 Q1026 TEMPO -RA RMK PP000=
SPZO Mar2014-172000Z 27007KT 240V330 9999 FEW036TCU SCT043 BKN080 16/06 Q1029 NOSIG RMK PP000=
SPZO Mar2014-172100Z 33007KT 280V040 9999 FEW036TCU SCT040 BKN080 16/04 Q1025 TEMPO -RA RMK PP000=
SPZO Mar2014-172200Z 01007KT 330V060 9999 FEW036TCU SCT040 BKN080 16/05 Q1025 NOSIG RMK T MAX 20.8 PP000=
SPZO Mar2014-172300Z 30006KT 270V340 9999 FEW030 SCT043 BKN100 15/05 Q1026 NOSIG RMK PP000=
SPZO Mar2014-180000Z 27007KT 9999 SCT043 SCT100 13/07 Q1027 RMK PP000=
SPZO Mar2014-180100Z 27005KT 9999 SCT046 SCT100 13/06 Q1028 RMK PP000=
SPZO Mar2014-180200Z 00000KT 9999 SCT050 BKN100 12/07 Q1029 RMK PP000=
SPZO Mar2014-180300Z 00000KT 9999 SCT050 BKN100 12/07 Q1030 RMK PP000=
SPZO Mar2014-180400Z 00000KT 9999 SCT043 SCT100 11/06 Q1030 RMK PP000=
SPZO Mar2014-180500Z 00000KT 9999 SCT043 SCT080 10/06 Q1030 RMK PP000=
SPZO Mar2014-180600Z 00000KT 9999 SCT046 SCT100 10/06 Q1030 RMK PP000=
SPZO Mar2014-180700Z 00000KT 9999 BKN043 SCT080 10/06 Q1029 RMK PP000=
SPZO Mar2014-180800Z 00000KT 9999 SCT046 BKN100 10/06 Q1029 RMK PP000=
SPZO Mar2014-180900Z 00000KT 9999 SCT046 BKN100 09/06 Q1029 RMK PP000=
SPZO Mar2014-181000Z 00000KT 9999 SCT040 OVC100 09/06 Q1030 RMK PP000=
SPZO Mar2014-181100Z 00000KT 9999 FEW036 SCT046 BKN100 08/05 Q1031 NOSIG RMK PP000=
SPZO Mar2014-181200Z 00000KT 9999 FEW030 SCT040 BKN100 09/06 Q1031 NOSIG RMK BR QUAD NE PP000=
SPZO Mar2014-181300Z VRB01KT 9999 FEW030 SCT040 BKN150 12/06 Q1032 NOSIG RMK HZ QUAD NE PP000=
SPZO Mar2014-181400Z 09004KT 010V160 9999 FEW030 SCT040 BKN200 15/06 Q1032 NOSIG RMK PP000=
SPZO Mar2014-181500Z 05005KT 320V110 9999 FEW036 SCT046 BKN100 17/06 Q1032 NOSIG RMK PP000=
SPZO Mar2014-181600Z 27005KT 230V340 9999 FEW040 SCT046 BKN100 17/05 Q1031 NOSIG RMK PP000=
SPZO Mar2014-181700Z 25006KT 200V310 9000 -RA FEW033TCU SCT046 BKN080 17/05 Q1030 NOSIG RMK PPTRZ=
SPZO Mar2014-181800Z VRB04KT 9999 FEW040TCU SCT046 BKN080 13/08 Q1030 NOSIG RMK PP030=
SPZO Mar2014-181900Z 00000KT 9999 SCT046 SCT080 16/07 Q1028 NOSIG RMK PP000=
SPZO Mar2014-182000Z 27006KT 240V020 9999 -RA FEW040TCU SCT043 BKN080 15/08 Q1028 RMK PPTRZ=
SPZO Mar2014-182100Z 14005KT 110V190 9999 -RA FEW040TCU SCT046 BKN080 13/08 Q1028 NOSIG RMK PP020=
SPZO Mar2014-182200Z 05004KT 9999 -RA FEW040TCU SCT046 BKN080 13/08 Q1028 NOSIG RMK T.MAX 17.9 PP004=
SPZO Mar2014-182300Z 11004KT 9999 FEW040 SCT050 BKN080 12/07 Q1029 NOSIG RMK PP000=
SPZO Mar2014-190000Z 07003KT 9999 SCT043 BKN080 12/07 Q1030 RMK PP000=
SPZO Mar2014-190100Z 00000KT 9999 SCT040 SCT080 11/08 Q1031 RMK PP000=
SPZO Mar2014-190200Z 00000KT 9999 FEW040 SCT080 11/08 Q1031 RMK PP000=
SPZO Mar2014-190300Z 00000KT 9999 FEW050 SCT100 10/08 Q1032 RMK PP000=
SPZO Mar2014-190400Z 00000KT 9999 FEW050 SCT100 09/07 Q1032 RMK PP000=
SPZO Mar2014-190500Z 00000KT 9999 SCT050 SCT100 09/07 Q1032 RMK PP000=
SPZO Mar2014-190600Z 00000KT 9999 SCT046 BKN080 08/07 Q1032 RMK PP000=
SPZO Mar2014-190700Z 08002KT 9999 SCT046 BKN080 09/07 Q1031 RMK PP000=
SPZO Mar2014-190800Z VRB01KT 9999 SCT046 BKN080 09/07 Q1031 RMK PP000=
SPZO Mar2014-190900Z VRB01KT 9999 SCT046 BKN080 09/07 Q1031 RMK PP000=
SPZO Mar2014-191000Z 00000KT 9000 -RA FEW025 SCT040 BKN080 09/07 Q1031 RMK VIS 8000 QUAD E RA PP002=
SPZO Mar2014-191100Z 00000KT 9000 FEW015 SCT036 BKN070 09/07 Q1031 TEMPO 9000 E RMK VIS 7000 QUAD SE RA PP004=
SPZO Mar2014-191200Z 00000KT 9000 FEW030 SCT046 BKN080 10/08 Q1032 NOSIG RMK PP000=
SPZO Mar2014-191300Z 00000KT 9999 FEW020 SCT046 BKN080 11/08 Q1033 NOSIG RMK PP000=
SPZO Mar2014-191400Z VRB02KT 9999 FEW030 SCT050 BKN100 15/07 Q1033 NOSIG RMK PP000=
SPZO Mar2014-191500Z VRB02KT 9999 VCSH FEW040TCU SCT050 BKN080 16/07 Q1032 NOSIG RMK PP000=
SPZO Mar2014-191600Z VRB02KT 9999 VCSH SCT046 SCT080 12/08 Q1032 NOSIG RMK PP000=
SPZO Mar2014-191700Z 14004KT 070V220 9999 FEW040 SCT050 BKN100 16/07 Q1031 NOSIG RMK PP000=
SPZO Mar2014-191800Z 27012KT 230V340 9999 VCSH FEW036TCU SCT043 BKN080 14/08 Q1030 NOSIG RMK VIS 9000 QUAD NW RA PP000=
SPZO Mar2014-191900Z 26007KT 220V300 9999 -RA VCSH FEW036 SCT043 BKN070 12/07 Q1030 NOSIG RMK PP008=
SPZO Mar2014-192000Z 25008KT 9000 -RA VCSH FEW036 SCT043 BKN070 11/07 Q1029 NOSIG RMK PP004=
SPZO Mar2014-192100Z VRB01KT 9999 FEW025 SCT046 BKN100 12/07 Q1028 NOSIG RMK PP008=
SPZO Mar2014-192200Z 00000KT 9999 FEW025 SCT046 BKN230 15/07 Q1028 NOSIG RMK TMAX 16.6 PP000=
SPZO Mar2014-192300Z 10004KT 9999 FEW040 SCT050 BKN230 12/07 Q1029 NOSIG RMK PP000=
SPZO Mar2014-200000Z 06003KT 9999 SCT050 SCT100 11/07 Q1030 RMK PP000=
SPZO Mar2014-200100Z 00000KT 9999 SCT050 SCT100 10/07 Q1030 RMK PP000=
SPZO Mar2014-200200Z 00000KT 9999 SCT043 BKN080 11/08 Q1031 RMK PP000=
SPZO Mar2014-200300Z 00000KT 9999 SCT036 BKN050 11/08 Q1031 RMK PP000=
SPZO Mar2014-200400Z 00000KT 9999 -RA OVC040 10/07 Q1033 RMK PP006=
SPZO Mar2014-200500Z 00000KT 9999 -RA SCT036 BKN043 10/07 Q1033 RMK PP012=
SPZO Mar2014-200600Z 00000KT 9999 -RA SCT040 BKN050 09/07 Q1032 RMK PP002=
SPZO Mar2014-200700Z 00000KT 9999 BKN043 SCT080 09/06 Q1031 RMK PP000=
SPZO Mar2014-200800Z 00000KT 9999 BKN046 SCT100 09/06 Q1031 RMK PP000=
SPZO Mar2014-200900Z 00000KT 9999 BKN046 SCT080 08/06 Q1030 RMK PP000=
SPZO Mar2014-201000Z 11002KT 9999 FEW030 SCT040 BKN080 08/06 Q1030 RMK PP000=
SPZO Mar2014-201100Z 06002KT 9999 FEW020 SCT043 BKN100 08/06 Q1031 RNOSIG MK PP000=
SPZO Mar2014-201200Z VRB02KT 9000 FEW015 SCT040 BKN080 09/06 Q1031 NOSIG RMK PP000=
SPZO Mar2014-201300Z 00000KT 9999 FEW015 SCT040 BKN080 12/06 Q1031 NOSIG RMK PP000=
SPZO Mar2014-201400Z VRB01KT 9999 FEW020 SCT043 BKN080 12/06 Q1032 NOSIG RMK PP000=
SPZO Mar2014-201500Z VRB01KT 9999 FEW020 SCT043 OVC080 13/06 Q1032 NOSIG RMK PP000=
SPZO Mar2014-201600Z VRB02KT 9999 SCT043 BKN100 16/05 Q1031 NOSIG RMK PP000=
SPZO Mar2014-201700Z VRB03KT 9999 SCT043 SCT080 18/04 Q1030 NOSIG RMK PP000=
SPZO Mar2014-201800Z 30004KT 250V050 9999 SCT050 SCT070 19/03 Q1028 NOSIG RMK PP000=
SPZO Mar2014-201900Z 35008KT 290V030 9999 SCT050 SCT070 20/06 Q1026 NOSIG RMK PP000=
SPZO Mar2014-202000Z 33008KT 290V040 8000 -RA VCSH FEW040TCU SCT050 BKN070 15/08 Q1027=
SPZO Mar2014-202100Z 01009KT 330V060 9999 VCSH FEW040TCU SCT050 BKN070 16/05 Q1026 TEMPO -RA RMK PP000=
SPZO Mar2014-202200Z VRB02KT 9999 FEW040 SCT050 BKN090 16/06 Q1027 RERA NOSIG RMK TMAX 20.4 PP002=
SPZO Mar2014-202300Z 09005KT 060V130 9999 FEW040 SCT050 BKN090 13/08 Q1027 NOSIG RMK PP000=
SPZO Mar2014-210000Z 09006KT 9999 SCT046 BKN100 13/07 Q1028 RMK PP000=
SPZO Mar2014-210100Z 00000KT 9999 SCT050 SCT100 12/08 Q1029 RMK PP000=
SPZO Mar2014-210200Z VRB02KT 9999 SCT046 BKN080 11/08 Q1031 RMK PP000=
SPZO Mar2014-210300Z 00000KT 9999 SCT043 SCT080 11/06 Q1031 RMK PP000=
SPZO Mar2014-210400Z 08003KT 9999 SCT050 SCT100 10/05 Q1031 RMK PP000=
SPZO Mar2014-210500Z 26003KT 9999 SCT050 SCT100 08/05 Q1031 RMK PP000=
SPZO Mar2014-210600Z 00000KT 9999 SCT050 08/05 Q1031 RMK PP000=
SPZO Mar2014-210700Z 00000KT 9999 SCT050 08/05 Q1030 RMK PP000=
SPZO Mar2014-210800Z 00000KT 9999 SCT050 SCT100 08/05 Q1030 RMK PP000=
SPZO Mar2014-210900Z 09003KT 9999 FEW043 07/05 Q1030 RMK PP000=
SPZO Mar2014-211000Z 00000KT 9999 FEW040 SCT100 06/04 Q1030 RMK PP000=
SPZO Mar2014-211100Z 00000KT 9999 FEW040 SCT050 BKN100 07/05 Q1031 NOSIG RMK PP000=
SPZO Mar2014-211200Z 00000KT 9999 FEW040 SCT050 BKN060 08/05 Q1032 NOSIG RMK PP000=
SPZO Mar2014-211300Z 00000KT 9999 FEW040 SCT050 SCT060 10/05 Q1032 NOSIG RMK PP000=
SPZO Mar2014-211400Z 00000KT 9999 FEW040 SCT050 BKN060 12/05 Q1033 NOSIG RMK PP000=
SPZO Mar2014-211500Z VRB02KT 9999 FEW040 SCT050 BKN060 14/06 Q1033 NOSIG RMK PP000=
SPZO Mar2014-211600Z VRB02KT 9999 FEW040 SCT050 BKN070 16/06 Q1032 NOSIG RMK PP000=
SPZO Mar2014-211700Z VRB03KT 9999 FEW040 SCT050 BKN070 17/05 Q1031 NOSIG RMK PP000=
SPZO Mar2014-211800Z 00000KT 9999 FEW040 SCT050 BKN100 20/05 Q1029 NOSIG RMK PP000=
SPZO Mar2014-211900Z VRB03KT 9999 VCSH FEW036TCU SCT046 BKN080 18/05 Q1029 NOSIG RMK RA QUAD NW PP000=
SPZO Mar2014-212000Z 25007KT 210V270 9999 FEW036 SCT046 BKN080 16/05 Q1029 RERA NOSIG RMK PPTRZ=
SPZO Mar2014-212100Z 27013KT 240V320 9999 SCT043 BKN080 14/07 Q1028 NOSIG RMK PP000=
SPZO Mar2014-212200Z 25009KT 9999 SCT043 BKN100 15/04 Q1028 NOSIG RMK TMAX 19.8 PP000=
SPZO Mar2014-212300Z 30010KT 260V330 9999 FEW043 SCT100 14/06 Q1029 NOSIG RMK PP000=
SPZO Mar2014-220000Z 00000KT 9999 FEW043 SCT100 13/05 Q1031 RMK PP000=
SPZO Mar2014-220100Z 27003KT 9999 FEW043 SCT080 10/06 Q1031 RMK PP000=
SPZO Mar2014-220200Z 25005KT 9999 SCT043 SCT080 12/06 Q1033 RMK PP000=
SPZO Mar2014-220300Z 25005KT 9999 SCT043 SCT080 11/07 Q1034 RMK PP000=
SPZO Mar2014-220400Z 00000KT 9999 FEW030 SCT043 BKN080 10/07 Q1035 RMK PP018=
SPZO Mar2014-220500Z 00000KT 9999 FEW030 SCT040 BKN060 10/06 Q1034 RMK PP000=
SPZO Mar2014-220600Z 10002KT 9999 SCT040 BKN060 10/06 Q1034 RMK PP000=
SPZO Mar2014-220700Z 04003KT 9999 SCT040 BKN060 09/06 Q1033 RMK PP000=
SPZO Mar2014-220800Z VRB02KT 9999 SCT040 BKN060 09/06 Q1033 RMK PP000=
SPZO Mar2014-220900Z 15003KT 9999 SCT043 BKN080 09/06 Q1033 RMK PP000=
SPZO Mar2014-221000Z VRB02KT 9999 FEW030 SCT043 BKN080 09/07 Q1033 RMK PP000=
SPZO Mar2014-221100Z 08002KT 9999 FEW050 BKN200 08/06 Q1034 NOSIG RMK BR PP000=
SPZO Mar2014-221200Z VRB02KT 9000 FEW033 SCT060 BKN200 09/06 Q1035 NOSIG RMK BR PP000=
SPZO Mar2014-221300Z 00000KT 9999 FEW036 BKN230 14/07 Q1035 NOSIG RMK VIS 9000E HZ PP000=
SPZO Mar2014-221400Z 00000KT 9999 SCT046 SCT100 15/06 Q1035 NOSIG RMK PP000=
SPZO Mar2014-221500Z VRB03KT 9999 SCT046 BKN100 16/05 Q1035 NOSIG RMK PP000=
SPZO Mar2014-221600Z 09006KT 9999 SCT046 BKN080 16/05 Q1034 NOSIG RMK PP000=
SPZO Mar2014-221700Z VRB02KT 9999 SCT046 SCT080 18/04 Q1033 TEMPO FEW030TCU RMK PP000=
SPZO Mar2014-221800Z VRB02KT 9999 SCT050 BKN100 19/04 Q1031 NOSIG RMK PP000=
SPZO Mar2014-221900Z VRB04KT 9999 SCT050 BKN100 22/05 Q1030 NOSIG RMK PP000=
SPZO Mar2014-222000Z 02009KT 340V060 9999 SCT050 BKN100 21/04 Q1029 NOSIG RMK PP000=
SPZO Mar2014-222100Z 01009KT 330V050 9999 VCSH FEW036TCU SCT050 BKN100 19/04 Q1029 NOSIG RMK PP000=
SPZO Mar2014-222200Z 02008KT 330V090 9999 FEW036TCU SCT046 BKN100 19/04 Q1029 NOSIG RMK T MAX 21.8 PP000=
SPZO Mar2014-222300Z 12007KT 060V170 9999 FEW036TCU SCT050 BKN100 17/05 Q1030 NOSIG RMK PP000=
SPZO Mar2014-230000Z VRB03KT 9999 SCT050 BKN100 14/06 Q1032 RMK PP000=
SPZO Mar2014-230100Z 00000KT 9999 SCT050 SCT100 13/05 Q1033 RMK PP000=
SPZO Mar2014-230200Z 00000KT 9999 SCT043 BKN080 12/06 Q1034 RMK PP000=
SPZO Mar2014-230300Z 00000KT 9999 BKN043 SCT080 12/05 Q1035 RMK PP000=
SPZO Mar2014-230400Z 00000KT 9999 BKN046 SCT080 13/06 Q1035 RMK PP000=
SPZO Mar2014-230500Z 00000KT 9999 BKN043 SCT080 12/07 Q1035 RMK PP000=
SPZO Mar2014-230600Z 09003KT 8000 RA SCT036 BKN043 11/07 Q1035 RMK PP056=
SPZO Mar2014-230700Z 09005KT 9999 -RA SCT036 BKN046 09/07 Q1035 RMK PP032=
SPZO Mar2014-230800Z 00000KT 9999 BKN040 SCT050 09/07 Q1034 RMK PP004=
SPZO Mar2014-230900Z 10004KT 9999 FEW030 SCT040 BKN080 09/07 Q1034 RMK PP000=
SPZO Mar2014-231000Z 07003KT 9999 FEW020 SCT040 BKN080 08/06 Q1034 RMK PP000=
SPZO Mar2014-231100Z 00000KT 9999 FEW015 SCT043 BKN080 09/06 Q1034 NOSIG RMK PP000=
SPZO Mar2014-231200Z 09004KT 9999 FEW025 SCT040 BKN080 09/07 Q1035 NOSIG RMK SCT015 QUAD W PP000=
SPZO Mar2014-231300Z 09004KT 040V120 9999 FEW020 SCT036 BKN080 10/07 Q1036 RMK PP000=
SPZO Mar2014-231400Z VRB01KT 9999 FEW020 SCT036 BKN080 12/06 Q1036 NOSIG RMK PP000=
SPZO Mar2014-231500Z VRB02KT 9000 -DZ FEW020 SCT040 BKN080 12/06 Q1036 NOSIG RMK PPTRZ=
SPZO Mar2014-231600Z 10005KT 070V130 9999 -DZ FEW020 SCT040 BKN080 11/07 Q1035 NOSIG RMK VIS 9000E -RA PP004=
SPZO Mar2014-231700Z VRB03KT 9999 FEW025 SCT040 BKN080 15/06 Q1034 REDZ NOSIG RMK PPTRZ=
SPZO Mar2014-231800Z 07004KT 350V150 9999 FEW030 SCT046 BKN080 16/08 Q1033 RMK PP000=
SPZO Mar2014-231900Z VRB03KT 9999 SCT046 SCT100 17/06 Q1031 NOSIG RMK PP000=
SPZO Mar2014-232000Z 35009KT 300V040 9999 FEW040 SCT040 BKN100 16/05 Q1030 NOSIG RMK PP000=
SPZO Mar2014-232100Z 36013KT 9999 FEW040TCU SCT050 BKN100 16/05 Q1030 NOSIG RMK PP000=
SPZO Mar2014-232200Z 36008KT 9999 VCSH FEW040TCU SCT046 BKN080 14/06 Q1030 NOSIG RMK PP000=
SPZO Mar2014-232300Z 35005KT 290V050 9999 SCT050 BKN080 14/05 Q1030 NOSIG RMK PP000=
SPZO Mar2014-240000Z 06007KT 020V110 9999 SCT046 BKN080 13/07 Q1031 RMK PP000=
SPZO Mar2014-240100Z 07003KT 9999 SCT040 BKN080 12/07 Q1032 RMK PP000=
SPZO Mar2014-240200Z 10003KT 9999 SCT040 BKN060 12/06 Q1034 RMK PP000=
SPZO Mar2014-240300Z 09012KT 9999 -RA FEW040 SCT046 BKN080 10/06 Q1035 RMK PPTRZ=
SPZO Mar2014-240400Z VRB02KT 9999 -RA FEW033 SCT043 BKN080 09/07 Q1036 RMK PP016=
SPZO Mar2014-240500Z VRB01KT 9999 -RA FEW033 SCT043 BKN080 09/06 Q1035 RMK PP002=
SPZO Mar2014-240600Z 00000KT 9999 -RA FEW030 SCT040 BKN080 08/06 Q1035 RMK PP002=
SPZO Mar2014-240700Z 26003KT 9000 RA FEW025 SCT040 BKN070 08/06 Q1034 RMK PP020=
SPZO Mar2014-240800Z 00000KT 9999 -RA SCT036 BKN080 09/06 Q1033 RMK PP006=
SPZO Mar2014-240900Z 12003KT 9999 SCT036 BKN080 08/06 Q1033 RMK PP000=
SPZO Mar2014-241000Z 00000KT 9999 FEW015 SCT036 BKN080 08/06 Q1033 RMK BR QUAD NE PP000=
SPZO Mar2014-241100Z VRB01KT 9999 FEW015 SCT043 BKN080 08/06 Q1034 NOSIG RMK PP000=
SPZO Mar2014-241200Z 00000KT 9999 FEW020 SCT046 BKN100 08/06 Q1034 NOSIG RMK PP000=
SPZO Mar2014-241300Z 00000KT 9999 FEW030 OVC100 10/07 Q1034 NOSIG RMK PP000=
SPZO Mar2014-241400Z VRB01KT 9999 FEW036 SCT100 13/06 Q1035 NOSIG RMK PP000=
SPZO Mar2014-241500Z 00000KT 9999 FEW050 15/06 Q1034 NOSIG RMK PP000=
SPZO Mar2014-241600Z 00000KT 9999 FEW050 18/06 Q1033 NOSIG RMK PP000=
SPZO Mar2014-241700Z 00000KT 9999 FEW050 18/05 Q1031 NOSIG RMK PP000=
SPZO Mar2014-241800Z VRB03KT 9999 SCT050 20/07 Q1030 NOSIG RMK PP000=
SPZO Mar2014-241900Z VRB03KT 9999 SCT050 20/03 Q1028 NOSIG RMK PP000=
SPZO Mar2014-242000Z VRB04KT 9999 SCT046 SCT080 21/05 Q1027 NOSIG RMK PP000=
SPZO Mar2014-242100Z 33007KT 260V060 9999 FEW040TCU SCT046 BKN080 20/05 Q1027 NOSIG RMK PP000=
SPZO Mar2014-242200Z 13005KT 070V200 9999 FEW040 SCT050 BKN100 18/06 Q1027 NOSIG RMK TMAX 21.3 PP000=
SPZO Mar2014-242300Z 13004KT 090V170 9999 FEW040 SCT050 BKN100 17/07 Q1028 NOSIG RMK PP000=
SPZO Mar2014-250000Z 10006KT 050V150 9999 SCT050 BKN100 14/07 Q1029 RMK PP000=
SPZO Mar2014-250100Z 00000KT 9999 SCT050 BKN100 14/07 Q1030 RMK PP000=
SPZO Mar2014-250200Z 08004KT 9999 SCT050 BKN100 12/07 Q1031 RMK PP000=
SPZO Mar2014-250300Z VRB02KT 9999 SCT050 BKN100 12/08 Q1032 RMK PP000=
SPZO Mar2014-250400Z 00000KT 9999 SCT046 BKN080 12/07 Q1032 RMK PP000=
SPZO Mar2014-250500Z VRB02KT 9999 SCT046 BKN080 13/07 Q1032 RMK PP000=
SPZO Mar2014-250600Z VRB03KT 9999 SCT046 BKN080 12/06 Q1032 RMK PP000=
SPZO Mar2014-250700Z 00000KT 9999 SCT046 BKN080 10/07 Q1031 RMK PP000=
SPZO Mar2014-250800Z 08003KT 9999 SCT046 BKN080 09/07 Q1031 RMK PP000=
SPZO Mar2014-250900Z 00000KT 9999 SCT040 BKN080 10/06 Q1031 RMK PP000=
SPZO Mar2014-251000Z 00000KT 9999 SCT040 BKN080 10/07 Q1031 RMK PP000=
SPZO Mar2014-251100Z 09004KT 9999 SCT040 BKN080 10/07 Q1032 NOSIG RMK PP000=
SPZO Mar2014-251200Z 00000KT 9999 FEW033 SCT043 BKN100 11/07 Q1033 NOSIG RMK PP000=
SPZO Mar2014-251300Z VRB01KT 9999 FEW030 SCT043 BKN100 13/07 Q1033 NOSIG RMK PP000=
SPZO Mar2014-251400Z VRB03KT 9999 FEW030 SCT043 BKN100 14/07 Q1034 NOSIG RMK HZ QUAD E PP000=
SPZO Mar2014-251500Z 09006KT 050V140 9999 FEW030 SCT043 16/09 Q1033 NOSIG RMK PP000=
SPZO Mar2014-251600Z VRB02KT 9999 SCT043 18/06 Q1032 NOSIG RMK PP000=
SPZO Mar2014-251700Z VRB03KT 9999 SCT046 20/07 Q1031 NOSIG RMK PP000=
SPZO Mar2014-251800Z VRB02KT 9999 BKN050 19/04 Q1029 REDZ NOSIG RMK PP006=
SPZO Mar2014-251900Z VRB04KT 9999 -RA FEW040TCU BKN050 19/05 Q1028 NOSIG RMK PPTRZ=
SPZO Mar2014-252000Z 27015KT 230V310 9999 FEW040TCU BKN050 17/07 Q1028 NOSIG RMK PP000=
SPZO Mar2014-252100Z 26014KT 230V330 9999 FEW040TCU BKN050 19/05 Q1027 NOSIG RMK PP000=
SPZO Mar2014-252200Z 01005KT 330V060 9999 FEW040TCU BKN050 18/06 Q1028 NOSIG RMK TMAX 20.2 PP000=
SPZO Mar2014-252300Z 26011KT 210V310 9999 FEW040 BKN050 16/08 Q1029 NOSIG RMK PP000=
SPZO Mar2014-260000Z 26007KT 9999 SCT046 BKN080 15/07 Q1030 RMK PP000=
SPZO Mar2014-260100Z 27007KT 9999 SCT050 BKN100 14/07 Q1031 RMK PP000=
SPZO Mar2014-260200Z 32004KT 9999 SCT043 BKN050 15/06 Q1032 RMK PP000=
SPZO Mar2014-260300Z 14007KT 9999 SCT040 BKN046 12/04 Q1034 RMK PP000=
SPZO Mar2014-260400Z 00000KT 9000 -RA BKN040 SCT050 10/05 Q1035 RMK PP012=
SPZO Mar2014-260500Z 26003KT 9999 BKN043 SCT050 11/06 Q1034 RMK PP000=
SPZO Mar2014-260600Z 08004KT 9999 BKN040 SCT050 10/06 Q1034 RMK PP000=
SPZO Mar2014-260700Z 00000KT 9999 BKN043 SCT080 09/06 Q1033 RMK PP000=
SPZO Mar2014-260800Z VRB02KT 9999 FEW030 SCT080 08/06 Q1032 RMK PP000=
SPZO Mar2014-260900Z 00000KT 9999 SCT040 BKN100 08/05 Q1032 RMK PP000=
SPZO Mar2014-261000Z 00000KT 9999 FEW030 SCT043 BKN080 09/06 Q1032 RMK PP000=
SPZO Mar2014-261100Z VRB02KT 9999 FEW036 SCT043 BKN100 09/06 Q1033 NOSIG RMK PP000=
SPZO Mar2014-261200Z 08003KT 9999 FEW040 SCT050 BKN100 09/06 Q1034 NOSIG RMK PP000=
SPZO Mar2014-261300Z 10005KT 070V150 9999 FEW040 SCT050 BKN100 11/06 Q1034 NOSIG RMK PP000=
SPZO Mar2014-261400Z VRB03KT 9999 FEW040 SCT050 BKN100 13/06 Q1034 NOSIG RMK PP000=
SPZO Mar2014-261500Z VRB02KT 9999 FEW040 SCT050 BKN100 15/06 Q1034 NOSIG RMK PP000=
SPZO Mar2014-261600Z VRB02KT 9999 FEW040 SCT050 BKN100 17/06 Q1033 NOSIG RMK PP000=
SPZO Mar2014-261700Z VRB05KT 9999 FEW040 SCT050 BKN100 18/05 Q1032 NOSIG RMK PP000=
SPZO Mar2014-261800Z VRB03KT 9999 SCT050 BKN100 19/05 Q1030 NOSIG RMK PP000=
SPZO Mar2014-261900Z 03007KT 320V120 9999 FEW040TCU SCT050 BKN100 19/06 Q1029 NOSIG RMK PP000=
SPZO Mar2014-262000Z 36011KT 320V060 9999 VCSH FEW040 SCT050TCU BKN080 17/04 Q1029 NOSIG RMK PP000=
SPZO Mar2014-262100Z 35006KT 9999 FEW040 SCT050 BKN080 16/04 Q1029 NOSIG RMK PP000=
SPZO Mar2014-262200Z 36007KT 320V060 9999 FEW040TCU SCT050 BKN080 15/04 Q1029 NOSIG RMK PP000=
SPZO Mar2014-262300Z VRB02KT 9999 SCT046 BKN080 14/05 Q1030 NOSIG RMK PP000=
SPZO Mar2014-270000Z 30005KT 240V330 9999 SCT043 SCT080 13/05 Q1032 RMK PP000=
SPZO Mar2014-270100Z 00000KT 9999 FEW043 SCT080 12/06 Q1033 RMK PP000=
SPZO Mar2014-270200Z 08003KT 9999 FEW043 SCT080 11/06 Q1034 RMK PP000=
SPZO Mar2014-270300Z VRB02KT 9999 FEW043 SCT080 11/06 Q1034 RMK PP000=
SPZO Mar2014-270400Z 09002KT 9999 FEW043 SCT080 11/07 Q1034 RMK PP000=
SPZO Mar2014-270500Z VRB02KT 9999 FEW043 SCT080 11/06 Q1034 RMK PP000=
SPZO Mar2014-270600Z 30003KT 260V340 9999 FEW046 SCT100 10/06 Q1033 RMK PP000=
SPZO Mar2014-270700Z 00000KT 9999 FEW046 SCT100 11/06 Q1032 RMK PP000=
SPZO Mar2014-270800Z 00000KT 9999 FEW046 SCT100 10/06 Q1032 RMK PP000=
SPZO Mar2014-270900Z 07002KT 9999 FEW046 SCT100 10/06 Q1032 RMK PP000=
SPZO Mar2014-271000Z 09003KT 9999 FEW040 SCT080 09/06 Q1032 RMK PP000=
SPZO Mar2014-271100Z VRB02KT 9999 FEW025 SCT043 BKN150 09/06 Q1032 NOSIG RMK VIS 9000 QUAD E BR PP000=
SPZO Mar2014-271200Z 00000KT 9999 FEW036 SCT046 BKN080 09/06 Q1033 NOSIG RMK VIS 9000 QUAD E BR PP000=
SPZO Mar2014-271300Z 00000KT 9999 SCT040 SCT080 12/06 Q1034 NOSIG RMK VIS 9000 QUAD E HZ PP000=
SPZO Mar2014-271400Z 04004KT 310V090 9999 SCT040 SCT080 13/05 Q1033 NOSIG RMK PP000=
SPZO Mar2014-271500Z VRB02KT 9999 SCT040 BKN080 15/05 Q1033 NOSIG RMK PP000=
SPZO Mar2014-271600Z 02003KT 320V090 9999 SCT040 BKN080 16/06 Q1032 NOSIG RMK PP000=
SPZO Mar2014-271700Z VRB02KT 9999 SCT043 BKN080 17/04 Q1031 NOSIG RMK PP000=
SPZO Mar2014-271800Z VRB01KT 9999 FEW036TCU SCT050 BKN100 18/06 Q1030 TEMPO VCSH RMK PP000=
SPZO Mar2014-271900Z 05005KT 330V130 9999 VCSH FEW036TCU SCT050 BKN100 18/06 Q1028 TEMPO -RA RMK PP000=
SPZO Mar2014-272000Z 29007KT 240V350 9999 VCSH FEW036TCU SCT050 BKN080 20/06 Q1027 TEMPO -RA RMK PP000=
SPZO Mar2014-272100Z 35008KT 300V030 9999 -RA VCSH FEW036TCU SCT046 BKN080 17/06 Q1026 NOSIG RMK PPTRZ=
SPZO Mar2014-272200Z VRB03KT 9999 -TSRA FEW040TCU SCT050CB BKN080 15/08 Q1027 NOSIG RMK T MAX 19.9 VIS 9000E -RA PP042=
SPZO Mar2014-272300Z 04006KT 010V100 9999 VCSH FEW036TCU SCT046 BKN080 14/08 Q1028 RERA NOSIG RMK -RA QUAD NE PPTRZ=
SPZO Mar2014-280000Z 07004KT 020V120 9999 DZ SCT040 BKN070 13/08 Q1030 RMK PPTRZ=
SPZO Mar2014-280100Z 08006KT 9999 SCT040 BKN070 11/08 Q1030 RMK PPTRZ=
SPZO Mar2014-280200Z 07003KT 9999 SCT040 BKN070 11/08 Q1031 RMK PP000=
SPZO Mar2014-280300Z 00000KT 9999 SCT040 BKN070 10/08 Q1031 RMK PP000=
SPZO Mar2014-280400Z 00000KT 9999 FEW050 SCT080 10/08 Q1032 RMK PP000=
SPZO Mar2014-280500Z 00000KT 9999 FEW050 SCT080 09/07 Q1031 RMK PP000=
SPZO Mar2014-280600Z 04002KT 9999 FEW043 SCT080 10/07 Q1031 RMK PP000=
SPZO Mar2014-280700Z 00000KT 9999 FEW043 SCT080 10/07 Q1030 RMK PP000=
SPZO Mar2014-280800Z 00000KT 9999 FEW043 SCT080 10/07 Q1029 RMK PP000=
SPZO Mar2014-280900Z VRB02KT 9999 FEW040 SCT080 10/07 Q1029 RMK PP000=
SPZO Mar2014-281000Z VRB02KT 9999 FEW025 SCT040 BKN080 10/08 Q1030 RMK BR PP000=
SPZO Mar2014-281100Z 00000KT 9000 FEW015 SCT036 BKN070 10/08 Q1030 TEMPO FEW010 SCT036 BKN060 RMK PP002=
SPZO Mar2014-281200Z VRB01KT 9999 FEW020 SCT036 BKN060 10/08 Q1031 NOSIG RMK SCT015 QUAD W PP000=
SPZO Mar2014-281300Z 00000KT 9999 FEW020 SCT036 BKN060 11/08 Q1032 REDZ NOSIG RMK PP002=
SPZO Mar2014-281400Z VRB02KT 9999 FEW020 SCT040 BKN080 14/07 Q1032 NOSIG RMK PP000=
SPZO Mar2014-281500Z VRB05KT 9999 SCT040 BKN080 17/06 Q1031 NOSIG RMK PP000=
SPZO Mar2014-281600Z 24007KT 160V290 9000 -RA VCSH FEW036TCU SCT040 BKN080 17/07 Q1030 NOSIG RMK PPTRZ=
SPZO Mar2014-281700Z 28015KT 240V300 9999 -DZ VCSH FEW036TCU SCT043 BKN080 14/06 Q1030 RMK PPTRZ=
SPZO Mar2014-281800Z 27013KT 240V310 9999 SCT050 SCT060 18/06 Q1028 NOSIG RMK PPTRZ=
SPZO Mar2014-281900Z 26008KT 210V330 9999 SCT050 SCT060 18/07 Q1027 NOSIG RMK PP000=
SPZO Mar2014-282000Z 30012KT 250V350 9999 SCT050 SCT060 19/05 Q1025 NOSIG RMK PP000=
SPZO Mar2014-282100Z 29010KT 250V330 9999 SCT050 SCT060 17/05 Q1025 NOSIG RMK PP000=
SPZO Mar2014-282200Z 29011KT 250V340 9999 SCT050 SCT060 18/06 Q1025 NOSIG RMK TMAX 19.3 PP000=
SPZO Mar2014-282300Z 29006KT 260V340 9999 FEW050 15/05 Q1026 NOSIG RMK PP000=
SPZO Mar2014-290000Z 24006KT 210V290 9999 FEW036 12/06 Q1027 RMK PP000=
SPZO Mar2014-290100Z VRB01KT 9999 NSC 12/06 Q1028 RMK PP000=
SPZO Mar2014-290200Z 05003KT 9999 NSC 10/06 Q1029 RMK PP000=
SPZO Mar2014-290300Z 00000KT 9999 NSC 09/05 Q1029 RMK PP000=
SPZO Mar2014-290400Z VRB02KT 9999 NSC 08/05 Q1030 RMK PP000=
SPZO Mar2014-290500Z 00000KT 9999 NSC 08/05 Q1030 RMK PP000=
SPZO Mar2014-290600Z 00000KT 9999 NSC 07/04 Q1029 RMK PP000=
SPZO Mar2014-290700Z 00000KT 9999 NSC 06/04 Q1029 RMK PP000=
SPZO Mar2014-290800Z 00000KT 9999 NSC 05/03 Q1029 RMK PP000=
SPZO Mar2014-290900Z 00000KT 9999 SCT230 05/03 Q1029 RMK PP000=
SPZO Mar2014-291000Z 00000KT 9999 SCT230 05/03 Q1029 RMK PP000=
SPZO Mar2014-291100Z 00000KT 9999 NSC 05/03 Q1030 NOSIG RMK BR QUAD E PP000=
SPZO Mar2014-291200Z 00000KT 9999 NSC 06/04 Q1031 NOSIG RMK BR QUAD E PP000=
SPZO Mar2014-291300Z VRB02KT 9999 FEW050 11/05 Q1031 NOSIG RMK PP000=
SPZO Mar2014-291400Z VRB02KT 9999 FEW050 14/04 Q1031 NOSIG RMK PP000=
SPZO Mar2014-291500Z VRB03KT 9999 FEW050 16/01 Q1031 NOSIG RMK PP000=
SPZO Mar2014-291600Z VRB07KT 9999 FEW050 18/M04 Q1030 NOSIG RMK PP000=
SPZO Mar2014-291700Z 26009KT 240V300 9999 FEW050 19/M07 Q1029 NOSIG RMK PP000=
SPZO Mar2014-291800Z VRB06KT 9999 FEW050 19/M01 Q1027 NOSIG RMK PP000=
SPZO Mar2014-291900Z 27009KT 200V330 9999 FEW050 20/M03 Q1026 NOSIG RMK PP000=
SPZO Mar2014-292000Z 26008KT 210V310 9999 NSC 20/M06 Q1025 NOSIG RMK PP000=
SPZO Mar2014-292100Z 24006KT 170V300 9999 NSC 20/M06 Q1024 NOSIG RMK PP000=
SPZO Mar2014-292200Z 30009KT 260V350 9999 NSC 19/M03 Q1024 NOSIG RMK TMAX 20.8 PP000=
SPZO Mar2014-292300Z 28011KT 250V320 9999 NSC 17/M02 Q1024 NOSIG RMK PP000=
SPZO Mar2014-300000Z VRB03KT 9999 FEW050 14/00 Q1025 RMK PP000=
SPZO Mar2014-300100Z VRB01KT 9999 FEW050 11/02 Q1026 RMK PP000=
SPZO Mar2014-300200Z 00000KT 9999 FEW050 10/02 Q1027 RMK VIS 8000E BR PP000=
SPZO Mar2014-300300Z 00000KT 9999 FEW050 09/02 Q1028 RMK PP000=
SPZO Mar2014-300400Z 00000KT 9999 FEW050 08/02 Q1028 RMK PP000=
SPZO Mar2014-300500Z 00000KT 9999 FEW050 07/02 Q1028 RMK PP000=
SPZO Mar2014-300600Z 28003KT 9999 SCT050 06/02 Q1028 RMK PP000=
SPZO Mar2014-300700Z VRB02KT 9999 SCT050 06/03 Q1028 RMK PP000=
SPZO Mar2014-300800Z 00000KT 9999 SCT050 06/02 Q1027 RMK PP000=
SPZO Mar2014-300900Z VRB01KT 9999 SCT050 04/02 Q1027 RMK PP000=
SPZO Mar2014-301000Z 00000KT 9999 FEW050 05/02 Q1028 RMK PP000=
SPZO Mar2014-301100Z 00000KT 9999 FEW040 05/02 Q1029 TEMPO FEW030 SCT050 RMK PP000=
SPZO Mar2014-301200Z VRB02KT 9999 SCT040 06/03 Q1030 NOSIG RMK VIS 8000 QUAD E BR PP000=
SPZO Mar2014-301300Z VRB01KT 9999 SCT040 11/05 Q1031 NOSIG RMK VIS 9000 QUAD E HZ PP000=
SPZO Mar2014-301400Z VRB04KT 9999 SCT040 14/05 Q1031 NOSIG RMK PP000=
SPZO Mar2014-301500Z VRB04KT 9999 SCT046 16/04 Q1030 NOSIG RMK PP000=
SPZO Mar2014-301600Z VRB02KT 9999 SCT046 18/01 Q1030 NOSIG RMK PP000=
SPZO Mar2014-301700Z VRB04KT 9999 FEW046 SCT080 19/M01 Q1029 NOSIG RMK PP000=
SPZO Mar2014-301800Z VRB02KT 9999 FEW046 SCT080 19/M00 Q1027 TEMPO 29010KT FEW040TCU BKN100 RMK PP000=
SPZO Mar2014-301900Z VRB02KT 9999 SCT050 SCT080 20/02 Q1025 NOSIG RMK PP000=
SPZO Mar2014-302000Z 28012KT 230V330 9999 VCSH SCT046TCU SCT080 19/02 Q1025 TEMPO -RA RMK PP000=
SPZO Mar2014-302100Z 28011KT 240V310 9999 SCT060 SCT100 18/03 Q1025 NOSIG RMK PP000=
SPZO Mar2014-302200Z 32009KT 9999 FEW050 SCT080 17/02 Q1025 NOSIG RMK TMAX 20.3 PP000=
SPZO Mar2014-302300Z 26008KT 220V310 9999 FEW050 16/02 Q1025 NOSIG RMK PP000=
SPZO Mar2014-310000Z 28007KT 9999 FEW050 13/04 Q1027 RMK PP000=
SPZO Mar2014-310100Z 27004KT 9999 NSC 10/03 Q1028 RMK PP000=
SPZO Mar2014-310200Z 00000KT 9999 NSC 10/03 Q1029 RMK PP000=
SPZO Mar2014-310300Z 07003KT 9999 NSC 08/03 Q1029 RMK PP000=
SPZO Mar2014-310400Z 00000KT 9999 NSC 07/03 Q1030 RMK PP000=
SPZO Mar2014-310500Z 00000KT 9999 NSC 07/03 Q1031 RMK PP000=
SPZO Mar2014-310600Z 00000KT 9999 NSC 07/03 Q1030 RMK PP000=
SPZO Mar2014-310700Z 00000KT 9999 NSC 07/03 Q1030 RMK PP000=
SPZO Mar2014-310800Z 00000KT 9999 NSC 06/03 Q1030 RMK PP000=
SPZO Mar2014-310900Z 00000KT 9999 FEW043 06/03 Q1030 RMK PP000=
SPZO Mar2014-311000Z 00000KT 9999 SCT043 BKN080 07/04 Q1031 RMK PP000=
SPZO Mar2014-311100Z 08003KT 9999 FEW036 SCT043 BKN080 07/04 Q1031 NOSIG RMK PP000=
SPZO Mar2014-311200Z VRB01KT 9999 FEW040 SCT050 BKN060 08/04 Q1032 NOSIG RMK PP000=
SPZO Mar2014-311300Z 00000KT 9999 FEW040 SCT050 BKN070 10/05 Q1033 NOSIG RMK PP000=
SPZO Mar2014-311400Z 00000KT 9999 FEW040 SCT050 BKN100 14/05 Q1032 NOSIG RMK PP000=
SPZO Mar2014-311500Z VRB03KT 9999 FEW040 SCT050 16/04 Q1032 NOSIG RMK PP000=
SPZO Mar2014-311600Z 05004KT 350V110 9999 FEW040 SCT050 16/03 Q1032 NOSIG RMK PP000=
SPZO Mar2014-311700Z VRB03KT 9999 FEW040 BKN050 18/02 Q1030 TEMPO VCSH FEW040TCU BKN100 RMK PP000=
SPZO Mar2014-311800Z 07005KT 350V120 9999 FEW040 BKN070 18/02 Q1029 NOSIG RMK PP000=
SPZO Mar2014-311900Z 03008KT 320V060 9999 VCSH FEW040CB BKN100 17/M00 Q1029 NOSIG RMK PP000=
SPZO Mar2014-312000Z 28009KT 240V310 9999 SCT040TCU SCT080 15/04 Q1028 NOSIG RMK PP000=
SPZO Mar2014-312100Z 26005KT 210V330 9999 SCT040 SCT080 19/03 Q1027 NOSIG RMK PP000=
SPZO Mar2014-312200Z 27005KT 210V320 9999 VCSH SCT040 SCT080 19/03 Q1027 TEMPO -RA RMK TMAX 19.5 PP000=
SPZO Mar2014-312300Z 00000KT 9999 VCSH SCT043TCU SCT080 15/04 Q1028 NOSIG RMK PP000=
