SPZO Nov2009-010000Z VRB02KT 9999 FEW050 SCT230 16/04 Q1025 RMK PP000=
SPZO Nov2009-010100Z 30004KT 260V350 9999 SCT100 15/04 Q1027 RMK PP000=
SPZO Nov2009-010200Z 00000KT 9999 FEW050 14/04 Q1029 RMK PP000=
SPZO Nov2009-010300Z 26003KT 9999 FEW050 SCT100 14/04 Q1028 RMK PP000=
SPZO Nov2009-010400Z 00000KT 9999 FEW050 SCT100 13/04 Q1028 RMK PP000=
SPZO Nov2009-010500Z 00000KT 9999 FEW050 12/03 Q1028 RMK PP000=
SPZO Nov2009-010600Z 00000KT 9999 SKC 10/04 Q1028 RMK PP000=
SPZO Nov2009-010700Z 00000KT 9999 SKC 11/04 Q1028 RMK PP000=
SPZO Nov2009-010800Z 00000KT 9999 FEW040 SCT080 10/03 Q1029 RMK PP000=
SPZO Nov2009-010900Z 00000KT 9999 FEW050 08/04 Q1028 RMK PP000=
SPZO Nov2009-011000Z 26001KT 9999 FEW040 07/03 Q1028 RMK PP000=
SPZO Nov2009-011100Z 27002KT 9999 FEW230 08/04 Q1029 NOSIG RMK PP000=
SPZO Nov2009-011200Z 00000KT 9999 FEW050 SCT230 14/05 Q1030 NOSIG RMK PP000=
SPZO Nov2009-011300Z 02002KT 310V070 9999 FEW050 16/05 Q1030 NOSIG RMK PP000=
SPZO Nov2009-011400Z VRB02KT 9999 SCT050 18/03 Q1029 NOSIG RMK PP000=
SPZO Nov2009-011500Z 03003KT 280V060 9999 SCT050 SCT230 20/M03 Q1029 NOSIG RMK PP000=
SPZO Nov2009-011600Z 28005KT 250V360 9999 SCT050 SCT230 22/M03 Q1028 NOSIG RMK WIND RWY10 VRB06KT PP000=
SPZO Nov2009-011700Z 29007KT 250V350 9999 SCT050 SCT230 23/M03 Q1026 NOSIG RMK WIND RWY10 VRB05KT PP000=
SPZO Nov2009-011800Z 34007KT 250V070 9999 SCT050 SCT230 25/M01 Q1024 RMK PP000=
SPZO Nov2009-011900Z 02006KT 250V070 9999 SCT050 SCT230 24/M00 Q1022 NOSIG RMK PP000=
SPZO Nov2009-012000Z 01004G14KT 250V070 9999 SCT050 SCT230 24/02 Q1022 NOSIG RMK PP000=
SPZO Nov2009-012100Z 35011KT 320V030 9999 FEW050 SCT230 22/02 Q1021 NOSIG RMK PP000=
SPZO Nov2009-012200Z 35014G24KT 300V020 9999 FEW050 SCT230 20/03 Q1022 NOSIG RMK TMAX 25.3 PP000=
SPZO Nov2009-012300Z 36011KT 300V060 9999 FEW050 17/03 Q1024 NOSIG RMK PP000=
SPZO Nov2009-020000Z 34005KT 300V060 9999 FEW050 16/03 Q1025 RMK PP000=
SPZO Nov2009-020100Z 34007KT 320V070 9999 BKN050 16/03 Q1027 RMK PP000=
SPZO Nov2009-020200Z 28003KT 250V330 9999 BKN050 15/04 Q1027 RMK PP000=
SPZO Nov2009-020300Z 03006KT 9999 BKN046 SCT100 14/06 Q1027 RMK PP000=
SPZO Nov2009-020400Z 01015KT 340V050 9999 BKN046 SCT100 13/03 Q1029 RMK PP000=
SPZO Nov2009-020500Z 32010KT 270V010 9999 OVC046 12/02 Q1029 RMK PP000=
SPZO Nov2009-020600Z 33004KT 300V030 9999 SCT046 BKN100 12/02 Q1028 RMK PP000=
SPZO Nov2009-020700Z 26006KT 9999 SCT046 BKN100 11/05 Q1028 RMK PP000=
SPZO Nov2009-020800Z 00000KT 9999 SCT046 BKN100 11/04 Q1028 RMK PP000=
SPZO Nov2009-020900Z 00000KT 9999 SCT050 BKN100 10/04 Q1028 RMK PP000=
SPZO Nov2009-021000Z 00000KT 9999 SCT046 BKN100 09/04 Q1029 RMK PP000=
SPZO Nov2009-021100Z 00000KT 9999 FEW036 OVC100 10/04 Q1030 NOSIG RMK PP000=
SPZO Nov2009-021200Z 00000KT 9999 FEW050 OVC100 14/04 Q1031 NOSIG RMK PP000=
SPZO Nov2009-021300Z 00000KT 9999 FEW043 SCT100 BKN230 14/04 Q1031 NOSIG RMK PP000=
SPZO Nov2009-021400Z VRB02KT 9999 FEW046 BKN230 15/04 Q1031 NOSIG RMK PP000=
SPZO Nov2009-021500Z 32004KT 260V360 9999 SCT050 BKN230 18/03 Q1030 NOSIG RMK PP000=
SPZO Nov2009-021600Z 28004KT 260V010 9999 SCT050 SCT230 20/01 Q1029 NOSIG RMK PP000=
SPZO Nov2009-021700Z 31004KT 260V060 9999 SCT050 22/M03 Q1027 NOSIG RMK PP000=
SPZO Nov2009-021800Z 35006KT 270V060 9999 VCSH FEW040TCU BKN050 22/M02 Q1025 TEMPO 9000 RMK PP000=
SPZO Nov2009-021900Z 01012G27KT 320V060 9999 -RA VCSH SCT036TCU BKN050 19/04 Q1024 NOSIG RMK PPTRZ=
SPZO Nov2009-022000Z 27013KT 9999 VCSH FEW036TCU BKN050 17/03 Q1025 NOSIG RMK RERA=
SPZO Nov2009-022100Z 26013KT 9999 FEW036TCU BKN050 16/03 Q1024 TEMPO=
SPZO Nov2009-022200Z 26012KT 9999 SCT050 16/04 Q1024 NOSIG RMK TMAX 23.0 PP000=
SPZO Nov2009-022300Z 27010KT 9999 FEW050 SCT070 14/04 Q1026 NOSIG RMK PP000=
SPZO Nov2009-030000Z 29005KT 250V340 9999 FEW050 15/03 Q1027 RMK PP000=
SPZO Nov2009-030100Z 27012KT 9999 FEW046 BKN050 14/05 Q1028 RMK PP000=
SPZO Nov2009-030200Z 35008KT 250V070 9999 SCT040 BKN050 13/04 Q1030 RMK PP000=
SPZO Nov2009-030300Z 30005KT 250V340 9999 SCT040 BKN050 11/06 Q1031 RMK RERA PP002=
SPZO Nov2009-030400Z 29002KT 9999 SCT040 BKN050 11/05 Q1030 RMK PP000=
SPZO Nov2009-030500Z 00000KT 9999 FEW046 BKN100 11/05 Q1030 RMK PP000=
SPZO Nov2009-030600Z 00000KT 9999 FEW050 OVC230 09/05 Q1028 RMK PP000=
SPZO Nov2009-030700Z 00000KT 9999 FEW050 SCT230 07/04 Q1027 RMK PP000=
SPZO Nov2009-030800Z 00000KT 9999 FEW050 SCT230 08/04 Q1027 RMK PP000=
SPZO Nov2009-030900Z 00000KT 9999 SCT050 BKN100 07/04 Q1028 RMK PP000=
SPZO Nov2009-031000Z 00000KT 9999 SCT036 BKN080 07/04 Q1029 RMK PP000=
SPZO Nov2009-031100Z 00000KT 9999 FEW036 OVC080 08/04 Q1029 NOOSIG RMK PP000=
SPZO Nov2009-031200Z 00000KT 9999 OVC100 10/05 Q1030 NOSIG RMK PP000=
SPZO Nov2009-031300Z 00000KT 9999 FEW043 OVC100 12/06 Q1030 NOSIG RMK PP000=
SPZO Nov2009-031400Z VRB02KT 9999 SCT043 BKN100 13/04 Q1030 NOSIG RMK PP000=
SPZO Nov2009-031500Z VRB02KT 9999 SCT043 BKN100 16/04 Q1030 NOSIG RMK PP000=
SPZO Nov2009-031600Z 04004KT 360V070 9999 SCT043 BKN100 16/04 Q1029 NOSIG RMK PP000=
SPZO Nov2009-031700Z VRB03KT 9999 SCT050 BKN100 19/05 Q1028 NOSIG RMK PP000=
SPZO Nov2009-031800Z VRB03KT 9999 SCT050 BKN100 20/02 Q1026 NOSIG RMK PP000=
SPZO Nov2009-031900Z VRB02KT 9999 SCT050 SCT100 20/03 Q1024 NOSIG RMK PP000=
SPZO Nov2009-032000Z 26008KT 9999 SCT050 SCT230 20/03 Q1023 NOSIG RMK PP000=
SPZO Nov2009-032100Z 27006KT 260V330 9999 SCT050 SCT230 20/02 Q1022 NOSIG RMK PP000=
SPZO Nov2009-032200Z 36011KT 320V050 9999 FEW043TCU SCT050 BKN230 19/02 Q1022 TEMPO VCSH RMK T.MAX 21.5 PPO00=
SPZO Nov2009-032300Z 36011KT 320V030 9999 VCSH SCT043TCU BKN046 16/04 Q1024 RESHRA NOSIG RMK PP010=
SPZO Nov2009-040000Z 27013KT 9999 FEW040CB OVC050 13/05 Q1026 RMK PP000=
SPZO Nov2009-040100Z 30008KT 250V340 9999 BKN050 SCT100 14/04 Q1027 RMK PP000=
SPZO Nov2009-040200Z 32009KT 280V350 9999 BKN050 SCT100 13/03 Q1028 RMK PP000=
SPZO Nov2009-040300Z 26012KT 9999 BKN050 SCT100 11/05 Q1029 RMK PP000=
SPZO Nov2009-040400Z 28008KT 9999 BKN050 SCT100 11/05 Q1029 RMK PP000=
SPZO Nov2009-040500Z 27004KT 9999 BKN050 SCT100 11/05 Q1029 RMK PP000=
SPZO Nov2009-040600Z 00000KT 9999 BKN050 SCT100 11/05 Q1028 RMK PP000=
SPZO Nov2009-040700Z 00000KT 9999 BKN050 SCT100 11/04 Q1027 RMK PP000=
SPZO Nov2009-040800Z 05005KT 9999 BKN050 SCT100 11/05 Q1027 RMK PP000=
SPZO Nov2009-040900Z 04004KT 340V070 9000 -RA FEW040 SCT050 BKN100 09/06 Q1027 RMK PP004=
SPZO Nov2009-041000Z 04007KT 010V070 9999 FEW040 SCT050 BKN080 09/05 Q1028 RMK RERA PPTRZ=
SPZO Nov2009-041100Z 04005KT 9999 BKN050 SCT060 09/05 Q1029 NOSIG RMK PP000=
SPZO Nov2009-041200Z 00000KT 9999 FEW036 SCT043 BKN060 10/06 Q1030 NOSIG RMK PP000=
SPZO Nov2009-041300Z VRB02KT 9999 FEW030 SCT046 BKN080 12/06 Q1030 NOSIG RMK PP000=
SPZO Nov2009-041400Z VRB02KT 9999 FEW036 SCT050 15/04 Q1030 NOSIG RMK PP000=
SPZO Nov2009-041500Z VRB03KT 9999 FEW040 SCT050 18/04 Q1029 NOSIG RMK PP000=
SPZO Nov2009-041600Z 32005KT 270V020 9999 SCT046 SCT080 18/05 Q1028 NOSIG RMK PP000=
SPZO Nov2009-041700Z 31007KT 260V050 9999 FEW043TCU SCT050 20/03 Q1027 TEMPO VCSH RMK PP000=
SPZO Nov2009-041800Z 36011KT 320V050 9999 VCSH SCT043TCU BKN050 17/04 Q1026 TEMPO RA RMK WIND RWY10 02007KT 320V080 PP000=
SPZO Nov2009-041900Z 33010KT 280V010 9999 VCSH SCT043TCU BKN050 16/05 Q1026 TEMPO RA RMK WIND RWY10 32010KT 310V360 PP000=
SPZO Nov2009-042000Z 30007KT 250V340 9999 -RA SCT043TCU BKN050 15/07 Q1025 NOSIG RMK PPTRZ=
SPZO Nov2009-042100Z 26005KT 9999 SCT043TCU BKN050 15/06 Q1025 TEMPO -RA RMK PPTRZ=
SPZO Nov2009-042200Z 33006KT 250V010 9999 SCT046 BKN060 16/04 Q1025 TEMPO=
SPZO Nov2009-042300Z 35008KT 300V020 9999 FEW050 OVC230 14/04 Q1026 NOSIG RMK PP000=
SPZO Nov2009-050000Z 28007KT 250V320 9999 SCT050 SCT100 14/06 Q1027 RMK PP000=
SPZO Nov2009-050100Z 28008KT 9999 SCT043 SCT060 13/06 Q1028 RMK PP000=
SPZO Nov2009-050200Z 30007KT 260V360 9999 -RA BKN040 SCT046 11/06 Q1030 RMK PP002=
SPZO Nov2009-050300Z 00000KT 9000 -RA OVC040 10/07 Q1030 RMK PP014=
SPZO Nov2009-050400Z 00000KT 9000 -RA BKN040 SCT046 09/07 Q1030 RMK PP022=
SPZO Nov2009-050500Z 00000KT 9999 -RA BKN040 SCT050 10/06 Q1029 RMK PP004=
SPZO Nov2009-050600Z 00000KT 9999 OVC040 10/07 Q1029 RMK PP000=
SPZO Nov2009-050700Z 00000KT 9999 BKN043 SCT080 10/07 Q1028 RMK PP000=
SPZO Nov2009-050800Z 00000KT 9999 SCT043 SCT080 10/07 Q1028 RMK PP000=
SPZO Nov2009-050900Z 00000KT 9999 BKN040 SCT050 09/07 Q1028 RMK PP000=
SPZO Nov2009-051000Z 00000KT 9999 FEW036 SCT043 BKN070 09/06 Q1028 RMK PP000=
SPZO Nov2009-051100Z 00000KT 9999 FEW020 SCT043 BKN100 09/06 Q1029 NOSIG RMK PP000=
SPZO Nov2009-051200Z 00000KT 9999 FEW040 SCT100 11/07 Q1029 NOSIG RMK PP000=
SPZO Nov2009-051300Z 00000KT 9999 FEW040 SCT100 13/07 Q1030 NOSIG RMK PP000=
SPZO Nov2009-051400Z VRB02KT 9999 FEW043 SCT050 17/06 Q1029 NOSIG RMK PP000=
SPZO Nov2009-051500Z VRB03KT 9999 FEW046 SCT080 18/04 Q1029 NOSIG RMK PP000=
SPZO Nov2009-051600Z 28002KT 9999 FEW050 SCT080 19/04 Q1028 NOSIG RMK PP000=
SPZO Nov2009-051700Z 04004KT 250V070 9999 FEW043TCU SCT050 20/03 Q1026 RMK TEMPO VCSH PP000=
SPZO Nov2009-051800Z 05012KT 360V070 9999 VCSH FEW043TCU BKN050 21/04 Q1025 =
SPZO Nov2009-051900Z 34012KT 300V030 9999 VCSH FEW043TCU BKN050 18/02 Q1024 NOSIG RMK PP000=
SPZO Nov2009-052000Z 27014G24KT 9999 VCSH FEW040TCU BKN050 16/04 Q1024 NOSIG RMK PP000=
SPZO Nov2009-052100Z 26013KT 9999 VCSH SCT043TCU BKN050 14/04 Q1024 TEMPO -RA RMK PP000=
SPZO Nov2009-052200Z 26008KT 9999 VCSH FEW040 BKN050 14/04 Q1025 TEMPO -RA RMK TMAX 22.2 PP000=
SPZO Nov2009-052300Z 28004KT 250V340 9999 SCT050 SCT100 14/05 Q1025 NOSIG RMK PP000=
SPZO Nov2009-060000Z 06004KT 9999 SCT050 BKN100 12/06 Q1026 RMK PP000=
SPZO Nov2009-060100Z 00000KT 9999 SCT050 BKN100 12/05 Q1027 RMK PP000=
SPZO Nov2009-060200Z 00000KT 9999 SCT050 BKN100 12/06 Q1027 RMK PP000=
SPZO Nov2009-060300Z 00000KT 9999 SCT050 BKN100 12/06 Q1028 RMK PP000=
SPZO Nov2009-060400Z 04004KT 9999 FEW050 BKN100 12/06 Q1028 RMK PP000=
SPZO Nov2009-060500Z 00000KT 9999 FEW050 BKN100 12/06 Q1027 RMK PP000=
SPZO Nov2009-060600Z 00000KT 9999 SCT046 BKN100 11/06 Q1027 RMK PP000=
SPZO Nov2009-060700Z 00000KT 9999 BKN046 SCT100 12/06 Q1026 RMK PP000=
SPZO Nov2009-060800Z 00000KT 9999 BKN046 SCT100 11/06 Q1026 RMK PP000=
SPZO Nov2009-060900Z 00000KT 9999 BKN046 SCT100 11/06 Q1026 RMK PP000=
SPZO Nov2009-061000Z 00000KT 9999 FEW040 SCT046 BKN100 11/07 Q1026 RMK PP000=
SPZO Nov2009-061100Z 00000KT 9999 FEW030 SCT046 BKN100 11/06 Q1027 NOSIG RMK PP000=
SPZO Nov2009-061200Z 26008KT 250V310 9999 FEW036 SCT043 BKN230 12/05 Q1028 NOSIG RMK PP000=
SPZO Nov2009-061300Z 29006KT 250V330 9999 FEW040 SCT046 BKN230 13/05 Q1029 NOSIG RMK PP000=
SPZO Nov2009-061400Z 29003KT 260V010 9999 FEW040 SCT100 BKN230 14/04 Q1028 NOSIG RMK PP000=
SPZO Nov2009-061500Z 34005KT 260V070 9999 FEW043 BKN100 16/04 Q1028 NOSIG RMK PP000=
SPZO Nov2009-061600Z VRB03KT 9999 FEW046 SCT100 BKN230 18/04 Q1027 NOSIG RMK PP000=
SPZO Nov2009-061700Z 37004KT 270V070 9999 FEW046 BKN200 19/02 Q1026 NOSIG RMK PP000=
SPZO Nov2009-061800Z VRB03KT 9999 FEW050 SCT100 BKN230 21/01 Q1024 NOSIG RMK PP000=
SPZO Nov2009-061900Z 28008KT 250V340 9999 FEW050 SCT100 BKN230 22/M03 Q1022 NOSIG RMK PP000=
SPZO Nov2009-062000Z 29009G19KT 250V350 9999 FEW050 SCT100 21/M04 Q1021 NOSIG RMK PP000=
SPZO Nov2009-062100Z 28011G21KT 250V330 9999 FEW050 SCT100 23/M03 Q1021 NOSIG RMK PP000=
SPZO Nov2009-062200Z 28010KT 250V320 9999 FEW050 SCT100 21/M03 Q1021 NOSIG RMK TMA=
SPZO Nov2009-062300Z 29009KT 250V330 9999 FEW100 SCT230 19/M01 Q1021 NOSIG RMK PP000=
SPZO Nov2009-070000Z 01011KT 330V060 9999 SCT100 11/05 Q1023 RMK PP000=
SPZO Nov2009-070100Z VRB04KT 9999 SCT100 15/05 Q1027 RMK PP000=
SPZO Nov2009-070200Z 00000KT 9999 SCT100 14/05 Q1025 RMK PP000=
SPZO Nov2009-070300Z 26007KT 9999 SCT100 13/05 Q1027 RMK PP000=
SPZO Nov2009-070400Z 27009KT 9999 FEW100 13/05 Q1027 RMK PP000=
SPZO Nov2009-070500Z 26005KT 9999 BKN100 12/05 Q1026 RMK PP000=
SPZO Nov2009-070600Z 26004KT 9999 SCT100 11/04 Q1026 RMK PP000=
SPZO Nov2009-070700Z 00000KT 9999 SCT100 11/04 Q1026 RMK PP000=
SPZO Nov2009-070800Z 00000KT 9999 BKN100 10/04 Q1025 RMK PP000=
SPZO Nov2009-070900Z 00000KT 9999 BKN100 09/04 Q1026 RMK PP000=
SPZO Nov2009-071000Z 00000KT 9999 SCT046 BKN100 08/04 Q1028 RMK PP000=
SPZO Nov2009-071100Z 00000KT 9999 FEW050 OVC150 09/04 Q1027 NOSIG RMK PP000=
SPZO Nov2009-071200Z 00000KT 9999 FEW040 OVC100 11/05 Q1028 NOSIG RMK PP000=
SPZO Nov2009-071300Z VRB02KT 9999 FEW040 OVC100 14/03 Q1028 NOSIG RMK PP000=
SPZO Nov2009-071400Z 28005KT 250V330 9999 FEW040 OVC100 14/02 Q1028 NOSIG RMK PP000=
SPZO Nov2009-071500Z 30005KT 250V360 9999 FEW050 OVC230 15/02 Q1028 NOSIG RMK PP000=
SPZO Nov2009-071600Z 27006KT 250V330 9999 FEW050 OVC230 17/01 Q1027 NOSIG RMK PP000=
SPZO Nov2009-071700Z 29007KT 250V010 9999 FEW050 OVC230 19/M00 Q1025 NOSIG RMK PP000=
SPZO Nov2009-071800Z 29008KT 250V070 9999 OVC230 20/M01 Q1024 NOSIG RMK PP000=
SPZO Nov2009-071900Z 30013KT 250V340 9999 FEW050 OVC230 21/M02 Q1023 NOSIG RMK PP000=
SPZO Nov2009-072000Z 29012KT 250V350 9999 FEW050 OVC230 22/M05 Q1022 NOSIG RMK PP000=
SPZO Nov2009-072100Z 29011KT 260V330 9999 FEW050 BKN230 21/M04 Q1021 NOSIG RMK PP000=
SPZO Nov2009-072200Z 28012KT 250V310 9999 FEW050 SCT230 21/M02 Q1022 NOSIG RMK T.MAX 22.2 PP000=
SPZO Nov2009-072300Z 31008KT 270V340 9999 BKN230 18/00 Q1023 NOSIG RMK PP000=
SPZO Nov2009-080000Z 26010KT 9999 FEW230 16/03 Q1024 RMK PP000=
SPZO Nov2009-080100Z 26008KT 9999 SKC 13/03 Q1025 RMK PP000=
SPZO Nov2009-080200Z 26006KT 9999 SKC 13/04 Q1026 RMK PP000=
SPZO Nov2009-080300Z 28004KT 9999 SKC 13/04 Q1027 RMK PP000=
SPZO Nov2009-080400Z 29003KT 9999 FEW230 11/04 Q1027 RMK PP000=
SPZO Nov2009-080500Z 26005KT 9999 SCT230 11/03 Q1027 RMK PP000=
SPZO Nov2009-080600Z 00000KT 9999 BKN230 09/03 Q1027 RMK PP000=
SPZO Nov2009-080700Z 00000KT 9999 BKN230 08/03 Q1026 RMK PP000=
SPZO Nov2009-080800Z 00000KT 9999 BKN230 08/03 Q1027 RMK PP000=
SPZO Nov2009-080900Z 00000KT 9999 BKN230 08/03 Q1027 RMK PP000=
SPZO Nov2009-081000Z 00000KT 9999 SCT230 06/03 Q1028 RMK PP000=
SPZO Nov2009-081100Z 00000KT 9999 FEW230 07/03 Q1029 NOSIG RMK PP000=
SPZO Nov2009-081200Z 00000KT 9999 FEW230 11/04 Q1029 NOSIG RMK PP000=
SPZO Nov2009-081300Z 27003KT 250V040 9999 FEW230 15/00 Q1030 NOSIG RMK PP000=
SPZO Nov2009-081400Z VRB04KT 9999 SCT230 17/M01 Q1029 NOSIG RMK PP000=
SPZO Nov2009-081500Z 01005KT 280V040 9999 SCT230 18/M03 Q1028 NOSIG RMK PP000=
SPZO Nov2009-081600Z 01005KT 250V060 9999 SCT230 20/M05 Q1027 WS RYW28 NOSIG RMK PP000=
SPZO Nov2009-081700Z VRB06KT 9999 FEW050 22/M04 Q1025 WS RWY28 NOSIG RMK PP000=
SPZO Nov2009-081800Z VRB05G15KT 9999 FEW050 23/M07 Q1024 NOSIG RMK PP000=
SPZO Nov2009-081900Z 30004KT 250V060 9999 FEW050 24/M06 Q1022 NOSIG RMK=
SPZO Nov2009-082000Z 27014KT 250V340 9999 FEW050 24/M05 Q1021 NOSIG RMK=
SPZO Nov2009-082100Z 28009KT 250V010 9999 FEW050 24/M07 Q1021 NOSIG RMK=
SPZO Nov2009-082200Z 26013KT 250V320 9999 FEW060 23/M08 Q1021 NOSIG RMK=
SPZO Nov2009-082300Z 34007KT 280V020 9999 FEW060 20/00 Q1022 NOSIG RMK=
SPZO Nov2009-090000Z VRB02KT 9999 SKC 17/03 Q1024 RMK PP000=
SPZO Nov2009-090100Z VRB02KT 9999 SKC 15/05 Q1025 RMK PP000=
SPZO Nov2009-090200Z 00000KT 9999 SKC 14/05 Q1026 RMK PP000=
SPZO Nov2009-090300Z 00000KT 9999 SKC 13/05 Q1028 RMK PP000=
SPZO Nov2009-090400Z 26003KT 9999 SKC 12/05 Q1028 RMK PP000=
SPZO Nov2009-090500Z 26008KT 9999 SCT050 12/05 Q1028 RMK PP000=
SPZO Nov2009-090600Z 27009KT 9999 SCT050 12/05 Q1027 RMK PP000=
SPZO Nov2009-090700Z 27006KT 9999 FEW050 11/05 Q1027 RMK PP000=
SPZO Nov2009-090800Z 26005KT 9999 FEW060 10/03 Q1026 RMK PP000=
SPZO Nov2009-090900Z 28004KT 9999 SKC 09/03 Q1027 RMK PP000=
SPZO Nov2009-091000Z 00000KT 9999 SCT040 SCT230 07/02 Q1028 RMK PP000=
SPZO Nov2009-091100Z 04002KT 9999 SCT043 SCT100 09/03 Q1029 NOSIG RMK PP000=
SPZO Nov2009-091200Z 00000KT 9999 SCT043 BKN100 10/03 Q1029 NOSIG RMK PP000=
SPZO Nov2009-091300Z 27005KT 250V310 9999 SCT046 OVC230 14/M01 Q1030 NOSIG RMK PP000=
SPZO Nov2009-091400Z 32003KT 250V050 9999 FEW050 BKN230 16/01 Q1029 NOSIG RMK PP000=
SPZO Nov2009-091500Z VRB02KT 9999 SCT050 BKN230 19/02 Q1029 NOSIG RMK PP000=
SPZO Nov2009-091600Z 29004KT 250V010 9999 SCT046 OVC230 20/01 Q1028 NOSIG RMK WIND=
SPZO Nov2009-091700Z 31004KT 250V070 9999 FEW046TCU OVC230 20/00 Q1027 NOSIG RMK P=
SPZO Nov2009-091800Z 27009KT 250V320 9999 SCT050 SCT150 21/M01 Q1026 NOSIG RMK PP000=
SPZO Nov2009-091900Z 35010KT 310V030 9999 SCT050 SCT150 20/02 Q1025 NOSIG RMK PP000=
SPZO Nov2009-092000Z 02005KT 300V070 9999 SCT050 OVC150 20/01 Q1024 NOSIG RMK PP000=
SPZO Nov2009-092100Z 30006KT 280V030 9999 SCT050 OVC150 21/01 Q1024 NOSIG RMK PP000=
SPZO Nov2009-092200Z 26007KT 9999 FEW050 OVC150 20/01 Q1024 NOSIG RMK TMAX 21.5 PP000=
SPZO Nov2009-092300Z 06008KT 9999 OVC150 18/03 Q1025 NOSIG RMK PP000=
SPZO Nov2009-100000Z VRB05KT 9999 OVC100 17/03 Q1026 RMK PP000=
SPZO Nov2009-100100Z 04002KT 9999 OVC100 15/03 Q1027 RMK PP000=
SPZO Nov2009-100200Z 06007KT 010V080 9999 BKN100 14/04 Q1028 RMK PP000=
SPZO Nov2009-100300Z 00000KT 9999 FEW100 13/05 Q1029 RMK PP000=
SPZO Nov2009-100400Z 00000KT 9999 SKC 11/04 Q1028 RMK PP000=
SPZO Nov2009-100500Z 00000KT 9999 SKC 08/03 Q1029 RMK PP000=
SPZO Nov2009-100600Z 00000KT 9999 SKC 09/04 Q1028 RMK PP000=
SPZO Nov2009-100700Z 00000KT 9999 SKC 09/04 Q1028 RMK PP000=
SPZO Nov2009-100800Z 00000KT 9999 SKC 08/03 Q1028 RMK PP000=
SPZO Nov2009-100900Z 00000KT 9999 SKC 07/03 Q1028 RMK PP000=
SPZO Nov2009-101000Z 06002KT 9999 FEW040 SCT230 07/03 Q1029 RMK PP000=
SPZO Nov2009-101100Z 26001KT 9999 FEW043 SCT230 08/03 Q1029 NOSIG RMK PP000=
SPZO Nov2009-101200Z 00000KT 9999 FEW043 SCT230 11/04 Q1030 NOSIG RMK PP000=
SPZO Nov2009-101300Z VRB01KT 9999 FEW046 SCT230 14/05 Q1030 NOSIG RMK PP000=
SPZO Nov2009-101400Z 00000KT 9999 FEW050 17/04 Q1029 NOSIG RMK PP000=
SPZO Nov2009-101500Z 03005KT 300V070 9999 SCT050 19/02 Q1028 NOSIG RMK PP000=
SPZO Nov2009-101600Z VRB04KT 9999 SCT050 21/02 Q1027 NOSIG RMK PP000=
SPZO Nov2009-101700Z 29007KT 260V070 9999 SCT050 23/00 Q1025 NOSIG RMK PP000=
SPZO Nov2009-101800Z 03007KT 330V070 9999 FEW043 SCT050 24/01 Q1023 NOSIG RMK PP000=
SPZO Nov2009-101900Z 35012KT 330V030 9999 VCSH FEW043TCU SCT050 24/M00 Q1023 NOSIG RMK PP000=
SPZO Nov2009-102000Z 36009KT 320V070 9999 SCT050 SCT230 21/00 Q1022 NOSIG RMK PP000=
SPZO Nov2009-102100Z 35007KT 290V070 9999 FEW040TCU SCT050 BKN230 20/03 Q1023 NOSIG RMK PP000=
SPZO Nov2009-102200Z 36008KT 330V060 9999 SCT050 SCT230 19/02 Q1023 NOSIG RMK TMA=
SPZO Nov2009-102300Z 35011KT 320V040 9999 SCT230 18/04 Q1024 NOSIG RMK PP000=
SPZO Nov2009-110000Z VRB02KT 9999 FEW100 16/05 Q1026 RMK PP000=
SPZO Nov2009-110100Z 27006KT 250V350 9999 SKC 15/05 Q1026 RMK PP000=
SPZO Nov2009-110200Z 26004KT 9999 SKC 13/05 Q1028 RMK PP000=
SPZO Nov2009-110300Z 00000KT 9999 SKC 12/05 Q1028 RMK PP000=
SPZO Nov2009-110400Z 00000KT 9999 SKC 10/04 Q1028 RMK PP000=
SPZO Nov2009-110500Z 00000KT 9999 SKC 10/04 Q1028 RMK PP000=
SPZO Nov2009-110600Z 00000KT 9999 SKC 11/05 Q1028 RMK PP000=
SPZO Nov2009-110700Z 06003KT 9999 FEW030 10/05 Q1027 RMK PP000=
SPZO Nov2009-110800Z 04003KT 9999 FEW030 SCT050 11/05 Q1027 RMK PP000=
SPZO Nov2009-110900Z 00000KT 9999 SCT040 BKN050 11/05 Q1027 RMK PP000=
SPZO Nov2009-111000Z 00000KT 9999 SCT040 BKN050 11/05 Q1027 RMK PP000=
SPZO Nov2009-111100Z 00000KT 9999 VCSH FEW036 SCT040 BKN046 12/05 Q1028 TEMPO SCT036 BKN046 RMK PP000=
SPZO Nov2009-111200Z VRB02KT 8000 FEW036 SCT043 BKN060 12/07 Q1029 BECMG 9999 RMK PPTRZ=
SPZO Nov2009-111300Z 00000KT 9999 FEW036 SCT043 BKN080 15/07 Q1029 BECMG SCT040 SCT100 RMK PP000=
SPZO Nov2009-111400Z VRB03KT 9999 SCT043 17/06 Q1029 NOSIG RMK PP000=
SPZO Nov2009-111500Z 36004KT 260V070 9999 VCSH FEW043 SCT050 19/06 Q1029 NOSIG RMK PP000=
SPZO Nov2009-111600Z 35003KT 270V070 9999 VCSH FEW043TCU SCT050 19/03 Q1028 NOSIG RMK PP000=
SPZO Nov2009-111700Z 03003KT 260V070 9999 VCSH FEW040 SCT043 FEW050TCU 21/04 Q1026 NOSIG RMK PP000=
SPZO Nov2009-111800Z 06015KT 9999 SCT050CB SCT230 19/03 Q1026 NOSIG RMK RESHRA PP004=
SPZO Nov2009-111900Z 04008KT 340V070 9999 FEW050 SCT230 22/02 Q1024 NOSIG RMK PP000=
SPZO Nov2009-112000Z 25010KT 300V040 9999 FEW050CB SCT060 23/01 Q1023 NOSIG RMK PP000=
SPZO Nov2009-112100Z 35008KT 260V060 9999 FEW050CB SCT230 20/03 Q1023 NOSIG RMK PP000=
SPZO Nov2009-112200Z VRB08KT 9999 FEW050 BKN230 19/04 Q1023 NOSIG RMK T.MAX 23.7 PP000=
SPZO Nov2009-112300Z 01005KT 290V070 9999 FEW050 BKN230 18/03 Q1025 NOSIG RMK PP000=
SPZO Nov2009-120000Z VRB02KT 9999 FEW050 SCT230 16/04 Q1026 RMK PP000=
SPZO Nov2009-120100Z VRB02KT 9999 FEW050 14/04 Q1026 RMK PP000=
SPZO Nov2009-120200Z 00000KT 9999 FEW050 13/04 Q1027 RMK PP000=
SPZO Nov2009-120300Z 00000KT 9999 FEW050 14/04 Q1029 RMK PP000=
SPZO Nov2009-120400Z 00000KT 9999 FEW050 13/04 Q1029 RMK PP000=
SPZO Nov2009-120500Z 06002KT 9999 FEW050 13/04 Q1028 RMK PP000=
SPZO Nov2009-120600Z 04003KT 9999 SCT050 12/04 Q1027 RMK PP000=
SPZO Nov2009-120700Z VRB02KT 9999 SCT050 12/04 Q1027 RMK PP000=
SPZO Nov2009-120800Z 00000KT 9999 BKN050 12/04 Q1027 RMK PP000=
SPZO Nov2009-120900Z 00000KT 9999 SCT050 SCT060 11/04 Q1027 RMK PP000=
SPZO Nov2009-121000Z 00000KT 9999 SCT050 SCT060 11/04 Q1027 RMK PP000=
SPZO Nov2009-121100Z VRB02KT 9999 SCT050 11/05 Q1028 NOSIG RMK PP000=
SPZO Nov2009-121200Z 00000KT 9999 FEW046 15/05 Q1029 NOSIG RMK PP000=
SPZO Nov2009-121300Z VRB02KT 9999 SCT046 17/05 Q1029 NOSIG RMK PP000=
SPZO Nov2009-121400Z VRB02KT 9999 SCT050 19/04 Q1029 NOSIG RMK PP000=
SPZO Nov2009-121500Z 36004KT 260V060 9999 FEW040 SCT050 19/04 Q1028 NOSIG RMK PP000=
SPZO Nov2009-121600Z 31004KT 260V350 9999 SCT050 20/02 Q1027 PP000 NOSIG RMK PP000=
SPZO Nov2009-121700Z 34005G15KT 260V050 9999 SCT050 22/02 Q1025 NOSIG RMK PP000=
SPZO Nov2009-121800Z 36011KT 320V060 9999 SCT050 23/00 Q1024 NOSIG RMK PP000=
SPZO Nov2009-121900Z 01014KT 300V060 9999 SCT050 23/M00 Q1023 NOSIG RMK=
SPZO Nov2009-122000Z 35013KT 300V040 9999 FEW050 SCT200 23/02 Q1022 NOSIG RMK WIND=
SPZO Nov2009-122100Z 35010KT 300V040 9999 FEW050 SCT200 22/01 Q1021 NOSIG RMK WIND RWY10 VRB08KT PP000=
SPZO Nov2009-122200Z 02008KT 330V070 9999 FEW050TCU SCT230 21/02 Q1022 NOSIG RMK T.MAX.23.8 PP000=
SPZO Nov2009-122300Z 34008KT 300V320 9999 SCT050TCU BKN230 18/02 Q1023 NOSIG RMK PP000=
SPZO Nov2009-130000Z 34008KT 300V020 9999 SCT040 SCT060 17/03 Q1025 RMK PP000=
SPZO Nov2009-130100Z 32008KT 300V360 9999 SCT043 SCT080 17/03 Q1026 RMK PP000=
SPZO Nov2009-130200Z 31007KT 270V350 9999 SCT040 SCT050 16/04 Q1027 RMK PP000=
SPZO Nov2009-130300Z VRB04KT 9999 BKN040 SCT046 12/05 Q1030 RMK PP000=
SPZO Nov2009-130400Z 04003KT 9999 -RA SCT036 BKN043 10/06 Q1031 RMK PP018=
SPZO Nov2009-130500Z VRB03KT 9999 -RA BKN040 SCT046 09/05 Q1030 RMK PP004=
SPZO Nov2009-130600Z 00000KT 9999 SCT036 BKN043 10/05 Q1029 RMK PP000=
SPZO Nov2009-130700Z 26009KT 9999 SCT040 BKN050 07/04 Q1029 RMK PP000=
SPZO Nov2009-130800Z 29009KT 9999 -RA SCT036 BKN043 09/04 Q1029 RMK PP002=
SPZO Nov2009-130900Z 29005KT 9000 -RA SCT036 BKN043 08/05 Q1029 RMK PP008=
SPZO Nov2009-131000Z 27004KT 9000 -RA FEW030 SCT036 BKN046 08/05 Q1030 RMK CLNG BLW 1200M PP006=
SPZO Nov2009-131100Z VRB02KT 8000 -RA FEW025 SCT036 BKN046 08/05 Q1031 NOSIG RMK CLNG BLW 1200M PP004=
SPZO Nov2009-131200Z 00000KT 8000 -RA FEW020 SCT033 BKN046 08/05 Q1032 NOSIG RMK CLNG BLW 1200M PP002=
SPZO Nov2009-131300Z 00000KT 7000 -RA FEW020 SCT033 BKN046 09/05 Q1033 NOSIG RMK CLNG BLW 1200M PP002=
SPZO Nov2009-131400Z 00000KT 9999 DZ FEW020 SCT036 BKN050 10/06 Q1033 NOSIG RMK PP004=
SPZO Nov2009-131500Z 00000KT 9999 DZ FEW020 SCT040 BKN060 12/06 Q1032 BECMG FM1600=
SPZO Nov2009-131600Z 00000KT 9999 VCSH FEW020 SCT040 BKN080 14/05 Q1031 NOSIG RMK PPTRZ=
SPZO Nov2009-131700Z 05004KT 340V070 9999 SCT046 BKN080 16/06 Q1030 NOSIG RMK PP000=
SPZO Nov2009-131800Z 32004KT 250V070 9999 SCT040 SCT080 17/05 Q1028 NOSIG RMK PP000=
SPZO Nov2009-131900Z 01010KT 340V040 8000 VCSH FEW036TCU SCT040 BKN080 17/05 Q1027 TEMPO 7000 RMK PP000=
SPZO Nov2009-132000Z 33008KT 290V020 9000 VCSH FEW036 SCT040 BKN080 15/05 Q1026 BE=
SPZO Nov2009-132100Z 04004KT 330V070 9999 SCT040 SCT060 15/06 Q1026 NOSIG RMK PP000=
SPZO Nov2009-132200Z VRB03KT 9999 SCT050 17/05 Q1026 NOSIG RMK TMAX 18.3 PP000=
SPZO Nov2009-132300Z 04008KT 350V070 9999 FEW050 15/06 Q1026 NOSIG RMK PP000=
SPZO Nov2009-140000Z 05005KT 010V080 9999 FEW046 14/06 Q1027 RMK PP000=
SPZO Nov2009-140100Z 26009KT 250V010 9999 BKN046 13/07 Q1028 RMK PP000=
SPZO Nov2009-140200Z 28007KT 250V360 9999 OVC046 13/06 Q1030 RMK PP000=
SPZO Nov2009-140300Z 05006KT 9999 OVC046 11/06 Q1030 RMK PP000=
SPZO Nov2009-140400Z 00000KT 9999 SCT050 11/05 Q1029 RMK PP000=
SPZO Nov2009-140500Z 00000KT 9999 SKC 10/06 Q1029 RMK PP000=
SPZO Nov2009-140600Z 00000KT 9999 SKC 10/06 Q1029 RMK PP000=
SPZO Nov2009-140700Z 00000KT 9999 BKN050 11/06 Q1029 RMK PP000=
SPZO Nov2009-140800Z 00000KT 9999 OVC050 10/02 Q1029 RMK RERA PP002=
SPZO Nov2009-140900Z 00000KT 9999 OVC050 10/07 Q1029 RMK PP000=
SPZO Nov2009-141000Z 00000KT 9999 SCT046 BKN050 10/07 Q1029 RMK PP000=
SPZO Nov2009-141100Z 06004KT 9999 SCT036 BKN046 10/07 Q1030 TEMPO VCSH RMK PP000=
SPZO Nov2009-141200Z 27002KT 9999 FEW036 SCT046 BKN060 12/07 Q1031 NOSIG RMK PP000=
SPZO Nov2009-141300Z 00000KT 9999 FEW036 BKN230 15/06 Q1031 NOSIG RMK PP000=
SPZO Nov2009-141400Z 04003KT 330V070 9999 FEW040 SCT046 BKN060 16/06 Q1031 TEMPO VCSH RMK PP00=
SPZO Nov2009-141500Z 00000KT 9999 SCT043 SCT050 17/06 Q1030 NOSIG RMK PP000=
SPZO Nov2009-141600Z 01009KT 330V060 9999 SCT043 BKN060 18/04 Q1029 NOSIG RMK PP000=
SPZO Nov2009-141700Z VRB02KT 9999 FEW043TCU SCT050 19/04 Q1028 NOSIG RMK PP000=
SPZO Nov2009-141800Z VRB08G18KT 9999 VCSH FEW043TCU SCT050 21/03 Q1027 NOSIG RMK W=
SPZO Nov2009-141900Z 26017KT 9999 FEW043TCU SCT050 20/06 Q1026 NOSIG RMK WIND RWY10 28014KT PP000=
SPZO Nov2009-142000Z 28014KT 250V350 9999 SCT046CB SCT060 21/05 Q1025 NOSIG RMK WIND RWY10 28012KT 250V330 PP000=
SPZO Nov2009-142100Z 06011KT 9999 VCSH SCT043TCU SCT050CB 16/07 Q1025 TEMPO -RA RMK PP000=
SPZO Nov2009-142200Z 26009KT 250V310 9999 TS VCSH SCT043CB FEW050TCU BKN150 15/06 Q1027 BECMG NSW RMK T.MAX 22.2 PPTRZ=
SPZO Nov2009-142300Z 27009KT 250V350 9999 -RA FEW043TCU BKN080 13/07 Q1027 NOSIG RMK PP002=
SPZO Nov2009-150000Z 30003KT 9999 OVC046 13/07 Q1028 RMK RERA PP002=
SPZO Nov2009-150100Z 00000KT 9999 BKN046 12/07 Q1029 RMK PP000=
SPZO Nov2009-150200Z 00000KT 9999 SKC 11/07 Q1030 RMK PP000=
SPZO Nov2009-150300Z 00000KT 9999 SKC 10/07 Q1030 RMK PP000=
SPZO Nov2009-150400Z 00000KT 9999 SKC 10/07 Q1030 RMK PP000=
SPZO Nov2009-150500Z 00000KT 9999 BKN046 11/07 Q1030 RMK PP000=
SPZO Nov2009-150600Z 31004KT 250V010 9999 SCT043 BKN046 12/06 Q1030 RMK PP000=
SPZO Nov2009-150700Z 03005KT 350V060 9999 RA SCT040 BKN046 09/07 Q1030 RMK PP018=
SPZO Nov2009-150800Z 04006KT 010V080 9999 -RA SCT040 BKN046 09/06 Q1030 RMK PP020=
SPZO Nov2009-150900Z 00000KT 9999 RA SCT040 BKN046 08/05 Q1030 RMK PP028=
SPZO Nov2009-151000Z 00000KT 8000 RA FEW020 OVC040 07/05 Q1031 RMK CLNG BLW 1200M =
SPZO Nov2009-151100Z 06003KT 7000 FEW020 SCT030 BKN050 07/05 Q1031 NOSIG RMK PP006=
SPZO Nov2009-151200Z 00000KT 6000 -RA VCSH FEW020 SCT030 OVC050 08/05 Q1032 BECMG 7000 FEW020 SCT033 OVC060 RMK CLNG BLW 1200M PP004=
SPZO Nov2009-151300Z 00000KT 9999 FEW020 SCT030 OVC070 09/06 Q1032 BECMG SCT033 OVC100 RMK RERA PP002=
SPZO Nov2009-151400Z 00000KT 9999 SCT033 SCT100 BKN230 12/06 Q1032 NOSIG RMK PP000=
SPZO Nov2009-151500Z 00000KT 9999 FEW030 SCT036 BKN150 14/06 Q1032 NOSIG RMK PP000=
SPZO Nov2009-151600Z 00000KT 9999 SCT040 BKN150 15/07 Q1031 NOSIG RMK PP000=
SPZO Nov2009-151700Z VRB03KT 9999 FEW033 SCT046 17/07 Q1029 NOSIG RMK PP000=
SPZO Nov2009-151800Z 01004KT 260V070 9999 FEW046TCU BKN050 18/05 Q1027 NOSIG RMK PP000=
SPZO Nov2009-151900Z 33005KT 250V070 9999 FEW040 SCT050 19/05 Q1025 NOSIG RMK PP000=
SPZO Nov2009-152000Z 32004KT 250V070 9999 VCSH FEW046TCU BKN050 21/04 Q1024 NOSIG RMK PP000=
SPZO Nov2009-152100Z 31001KT 250V050 9999 VCSH FEW046TCU SCT050 BKN230 20/04 Q1023 NOSIG RMK PP000=
SPZO Nov2009-152200Z 00000KT 9999 FEW046 SCT050 BKN100 19/05 Q1024 NOSIG RMK T MAX 21.1 PP000=
SPZO Nov2009-152300Z 05009KT 030V070 9999 FEW046TCU SCT050 BKN100 17/05 Q1025 NOSIG RMK PP000=
SPZO Nov2009-160000Z VRB03KT 9999 BKN050 SCT100 16/05 Q1026 RMK PP000=
SPZO Nov2009-160100Z 04005KT 340V070 9999 OVC050 15/05 Q1028 RMK PP000=
SPZO Nov2009-160200Z 05012KT 010V070 8000 -RA FEW040 OVC050 11/06 Q1031 RMK PPTRZ=
SPZO Nov2009-160300Z 06004KT 360V070 5000 -RA FEW040 OVC050 10/07 Q1032 RMK PP008=
SPZO Nov2009-160400Z 05004KT 5000 -RA FEW030 OVC050 09/07 Q1033 RMK PP020=
SPZO Nov2009-160500Z VRB02KT 9999 FEW030 OVC050 09/06 Q1031 RMK PP000=
SPZO Nov2009-160600Z 00000KT 7000 -RA FEW030 OVC050 09/06 Q1030 RMK PP008=
SPZO Nov2009-160700Z 00000KT 8000 -RA FEW030 SCT040 OVC050 09/06 Q1030 RMK PP002=
SPZO Nov2009-160800Z 00000KT 8000 -RA FEW030 SCT040 OVC050 09/06 Q1030 RMK PP002=
SPZO Nov2009-160900Z 00000KT 8000 -RA FEW030 SCT040 OVC050 09/06 Q1029 RMK PP002=
SPZO Nov2009-161000Z 00000KT 7000 -RA VCSH FEW025 SCT036 BKN050 09/07 Q1030 RMK CLNG BLW 1200M=
SPZO Nov2009-161100Z 00000KT 8000 -RA VCSH FEW025 SCT036 BKN060 09/07 Q1030 BECMG 9999 NSW SCT033 SCT046 OVC080 RMK CLNG BLW 1200M PP006=
SPZO Nov2009-161200Z VRB02KT 9999 SCT020 OVC100 10/07 Q1031 NOSIG RMK PP002=
SPZO Nov2009-161300Z VRB02KT 9999 SCT030 OVC230 12/06 Q1030 NOSIG RMK PP000=
SPZO Nov2009-161400Z 06006KT 9999 FEW030 SCT036 BKN230 13/07 Q1030 NOSIG RMK PP000=
SPZO Nov2009-161500Z 05005KT 010V070 9999 FEW036 SCT043 BKN060 13/06 Q1030 NOSIG RMK PP000=
SPZO Nov2009-161600Z 05003KT 360V070 9999 FEW036 SCT046 BKN060 15/06 Q1030 NOSIG RMK PP000=
SPZO Nov2009-161700Z VRB02KT 9999 SCT046 BKN080 17/07 Q1029 NOSIG RMK PP000=
SPZO Nov2009-161800Z VRB03KT 9999 FEW046TCU SCT050 BKN100 17/06 Q1027 NOSIG RMK PP000=
SPZO Nov2009-161900Z VRB01KT 9999 VCSH SCT040TCU SCT050 17/06 Q1026 TEMPO RA RMK P=
SPZO Nov2009-162000Z 35004KT 300V020 9999 VCRA SCT040TCU BKN050 14/07 Q1025 TEMPO 8000 RMK PPTRZ=
SPZO Nov2009-162100Z 00000KT 9999 VCSH SCT043TCU BKN050 14/07 Q1025 NOSIG RMK RERA PP002=
SPZO Nov2009-162200Z 00000KT 9999 VCSH FEW046TCU BKN080 15/06 Q1025 NOSIG RMK T MAX 17.8 PP000=
SPZO Nov2009-162300Z 05001KT 9999 VCSH SCT046TCU BKN100 14/07 Q1026 NOSIG RMK PP000=
SPZO Nov2009-170000Z 00000KT 9999 BKN043 SCT100 14/07 Q1027 RMK PP000=
SPZO Nov2009-170100Z 05002KT 9999 BKN040 SCT080 14/07 Q1029 RMK PP000=
SPZO Nov2009-170200Z 32007KT 280V020 9999 SCT036 BKN043 13/06 Q1030 RMK PP000=
SPZO Nov2009-170300Z 30006KT 9999 SCT033 BKN040 12/06 Q1031 RMK PP000=
SPZO Nov2009-170400Z 28008KT 9999 SCT036 BKN043 10/06 Q1031 RMK PP000=
SPZO Nov2009-170500Z 00000KT 9000 RA OVC040 09/06 Q1031 RMK PP016=
SPZO Nov2009-170600Z 00000KT 9999 -RA SCT036 BKN043 09/06 Q1030 RMK PP000=
SPZO Nov2009-170700Z 07004KT 9999 SCT030 BKN040 09/07 Q1030 RMK PP000=
SPZO Nov2009-170800Z 00000KT 9999 SCT036 BKN046 09/06 Q1029 RMK PP000=
SPZO Nov2009-170900Z 00000KT 9999 SCT030 BKN040 09/05 Q1029 RMK PP000=
SPZO Nov2009-171000Z 00000KT 9999 VCSH FEW030 SCT036 BKN043 10/06 Q1030 RMK CLNG BLW 1200M=
SPZO Nov2009-171100Z 00000KT 9999 FEW030 SCT036 BKN043 10/05 Q1030 TEMPO=
SPZO Nov2009-171200Z 00000KT 9999 FEW030 SCT040 BKN060 11/06 Q1031 NOSIG RMK PP000=
SPZO Nov2009-171300Z 00000KT 9999 FEW030 SCT043 BKN100 12/05 Q1031 NOSIG RMK PP000=
SPZO Nov2009-171400Z 00000KT 9999 SCT043 BKN050 13/05 Q1032 NOSIG RMK PP000=
SPZO Nov2009-171500Z VRB02KT 9999 SCT043 SCT050 15/05 Q1031 NOSIG RMK PP000=
SPZO Nov2009-171600Z VRB02KT 9999 SCT043 17/06 Q1030 NOSIG RMK PP000=
SPZO Nov2009-171700Z 29003KT 250V070 9999 SCT043 18/06 Q1029 NOSIG RMK PP000=
SPZO Nov2009-171800Z 30005KT 250V060 9999 SCT050 20/04 Q1026 NOSIG RMK PP000=
SPZO Nov2009-171900Z 36006KT 310V060 9999 VCSH FEW040TCU SCT050 20/06 Q1025 TEMPO -RA RMK PP000=
SPZO Nov2009-172000Z 05006KT 9999 -RA VCSH FEW040TCU SCT050 14/08 Q1024 NOSIG RMK PPTRZ=
SPZO Nov2009-172100Z 34006KT 300V030 9999 FEW040TCU BKN050 17/07 Q1024 RERA TEMPO -RA RMK PP020=
SPZO Nov2009-172200Z VRB02KT 8000 -RA FEW036TCU BKN046 15/08 Q1025 NOSIG RMK TMAX 21.6 PP004=
SPZO Nov2009-172300Z 00000KT 9999 -RA FEW036TCU BKN046 13/09 Q1026 BECMG FM 2330 NSW RMK PP012=
SPZO Nov2009-180000Z 39003KT 9999 OVC046 14/08 Q1027 RMK PPTRZ=
SPZO Nov2009-180100Z 33007KT 260V040 9999 -RA OVC040 14/06 Q1029 RMK PP004=
SPZO Nov2009-180200Z 26007KT 9999 RA OVC040 11/07 Q1030 RMK PP012=
SPZO Nov2009-180300Z 35004KT 9000 -RA OVC040 10/08 Q1031 RMK PP010=
SPZO Nov2009-180400Z 00000KT 9000 -RA OVC040 10/07 Q1031 RMK PP000=
SPZO Nov2009-180500Z 00000KT 9000 RA OVC040 10/07 Q1031 RMK PP018=
SPZO Nov2009-180600Z 00000KT 9000 RA OVC040 09/06 Q1030 RMK PP020=
SPZO Nov2009-180700Z 00000KT 9999 RA OVC040 09/06 Q1030 RMK PP024=
SPZO Nov2009-180800Z 00000KT 9000 RA OVC040 08/06 Q1030 RMK PP032=
SPZO Nov2009-180900Z 00000KT 9000 RA FEW030 OVC040 08/06 Q1030 RMK PP028=
SPZO Nov2009-181000Z 00000KT 8000 RA FEW025 OVC036 08/06 Q1031 RMK CLNG BLW 1200M PP032=
SPZO Nov2009-181100Z 06002KT 6000 RA FEW015 SCT030 BKN040 08/07 Q1031 NOSIG RMK CLNG BLW 1200M PP034=
SPZO Nov2009-181200Z 00000KT 6000 -RA SCT015 SCT030 BKN040 08/07 Q1032 BECMG FM1300 8000 RMK CLNG BLW 1200M PP012=
SPZO Nov2009-181300Z 00000KT 9999 SCT020 SCT036 BKN046 09/07 Q1033 BECMG FM1340 SC=
SPZO Nov2009-181400Z 00000KT 9999 FEW025 SCT040 BKN070 11/07 Q1033 NOSIG RMK PP000=
SPZO Nov2009-181500Z 03004KT 310V060 9999 FEW030 SCT043 BKN080 12/05 Q1032 NOSIG RMK PP000=
SPZO Nov2009-181600Z 06005KT 350V070 9999 FEW033 SCT046 BKN080 14/06 Q1032 NOSIG RMK PP000=
SPZO Nov2009-181700Z 36002KT 9999 FEW036 SCT046 BKN100 16/06 Q1030 NOSIG RMK PP000=
SPZO Nov2009-181800Z 28004KT 250V030 9999 VCSH BKN050 SCT100 17/07 Q1029 NOSIG RMK PP000=
SPZO Nov2009-181900Z 27010G20KT 250V320 9999 VCSH SCT050 SCT100 19/09 Q1027 RMK PP000=
SPZO Nov2009-182000Z 26008KT 250V350 9999 SCT050 19/07 Q1026 NOSIG RMK PP000=
SPZO Nov2009-182100Z 27010KT 9999 FEW043TCU SCT050 20/06 Q1025 NOSIG RMK PP000=
SPZO Nov2009-182200Z 29012KT 250V320 9000 -RA VCSH FEW043CB BKN050 14/08 Q1026 BECMG NSW RMK TMAX 20.3 PP004=
SPZO Nov2009-182300Z VRB02KT 9999 BKN050 12/08 Q1027 RERA NOSIG RMK PP038=
SPZO Nov2009-190000Z 30007KT 270V010 9999 OVC046 13/07 Q1029 RMK PP000=
SPZO Nov2009-190100Z 26010KT 9000 -RA OVC046 11/07 Q1030 RMK PP002=
SPZO Nov2009-190200Z 06006KT 9000 -RA OVC046 10/07 Q1031 RMK PP008=
SPZO Nov2009-190300Z 00000KT 9999 SCT043 BKN046 11/07 Q1031 RMK PPTRZ=
SPZO Nov2009-190400Z 00000KT 9999 SCT043 BKN046 11/07 Q1031 RMK PP000=
SPZO Nov2009-190500Z 00000KT 9999 SCT043 BKN046 11/08 Q1031 RMK PP000=
SPZO Nov2009-190600Z 27003KT 9999 SCT040 BKN046 11/07 Q1030 RMK PP000=
SPZO Nov2009-190700Z 00000KT 9999 SCT040 BKN046 12/07 Q1030 RMK PP000=
SPZO Nov2009-190800Z 00000KT 9999 SCT040 BKN046 11/07 Q1030 RMK PP000=
SPZO Nov2009-190900Z 00000KT 9999 SCT040 BKN046 10/07 Q1030 RMK PP000=
SPZO Nov2009-191000Z 00000KT 9999 SCT040 SCT100 09/06 Q1030 RMK PP000=
SPZO Nov2009-191100Z 00000KT 9999 FEW036 SCT050 09/07 Q1031 NOSIG RMK PP000=
SPZO Nov2009-191200Z VRB01KT 9999 SCT036 SCT300 13/06 Q1032 NOSIG RMK PP000=
SPZO Nov2009-191300Z 00000KT 9999 SCT036 SCT300 15/06 Q1032 NOSIG RMK PP000=
SPZO Nov2009-191400Z 27003KT 250V340 9999 SCT040 17/07 Q1032 NOSIG RMK PP000=
SPZO Nov2009-191500Z VRB03KT 9999 SCT046 18/07 Q1031 NOSIG RMK PP000=
SPZO Nov2009-191600Z 28013KT 9999 VCSH FEW040TCU BKN050 19/06 Q1030 NOSIG RMK PP000=
SPZO Nov2009-191700Z 36013G23KT 330V040 9999 VCSH SCT036TCU BKN046 18/06 Q1029 NOSIG RMK PP000=
SPZO Nov2009-191800Z 27005KT 250V320 9999 -RA VCSH FEW043TCU SCT050 BKN230 15/07 Q1029 RESHRA BECMG NSW RMK PP016=
SPZO Nov2009-191900Z 28007KT 250V350 9999 SCT050 19/08 Q1027 NOSIG RMK PP000=
SPZO Nov2009-192000Z 30008KT 250V350 9999 SCT050 20/06 Q1026 NOSIG RMK PP000=
SPZO Nov2009-192100Z 27011KT 250V310 9999 FEW050 SCT230 20/07 Q1025 NOSIG RMK WIND RWY10 29010KT 250V340 PP000=
SPZO Nov2009-192200Z 35006KT 280V060 9999 SCT046TCU SCT230 18/06 Q1026 NOSIG RMK T MAX 20.6 PP000=
SPZO Nov2009-192300Z 30002KT 9999 -RA SCT043TCU BKN046 16/08 Q1027 RMK PPTRZ=
SPZO Nov2009-200000Z VRB03KT 9999 OVC050 14/08 Q1028 RMK RERA PP002=
SPZO Nov2009-200100Z 00000KT 8000 -RA FEW040 OVC050 14/08 Q1029 RMK PPTRZ=
SPZO Nov2009-200200Z 00000KT 9000 FEW040 OVC050 13/09 Q1030 RMK RERA PP002=
SPZO Nov2009-200300Z 30002KT 9999 OVC050 13/09 Q1030 RMK PP000=
SPZO Nov2009-200400Z 00000KT 9999 OVC050 13/09 Q1030 RMK PP000=
SPZO Nov2009-200500Z 00000KT 9999 OVC050 13/08 Q1030 RMK PP000=
SPZO Nov2009-200600Z 00000KT 9999 OVC050 13/08 Q1029 RMK PP000=
SPZO Nov2009-200700Z 00000KT 9999 OVC050 12/09 Q1028 RMK PP000=
SPZO Nov2009-200800Z 00000KT 9999 BKN050 SCT060 12/09 Q1029 RMK PP000=
SPZO Nov2009-200900Z 00000KT 9999 SCT050 SCT060 12/09 Q1029 RMK PP000=
SPZO Nov2009-201000Z 00000KT 9999 FEW040 SCT050 BKN060 12/08 Q1030 RMK PP000=
SPZO Nov2009-201100Z 00000KT 9999 FEW030 SCT040 BKN060 12/08 Q1031 BECMG FEW030 SCT060 RMK PP000=
SPZO Nov2009-201200Z 00000KT 9999 FEW030 SCT046 15/06 Q1031 NOSIG RMK PP000=
SPZO Nov2009-201300Z VRB01KT 9999 FEW040 SCT050 14/06 Q1032 NOSIG RMK PP000=
SPZO Nov2009-201400Z 00000KT 9999 SCT050 17/06 Q1031 NOSIG RMK PP000=
SPZO Nov2009-201500Z 35003KT 250V060 9999 SCT050 19/07 Q1030 NOSIG RMK PP000=
SPZO Nov2009-201600Z VRB04KT 9999 SCT050 21/04 Q1029 NOSIG RMK PP000=
SPZO Nov2009-201700Z 33004KT 260V060 9999 SCT050 22/05 Q1028 NOSIG RMK PP000=
SPZO Nov2009-201800Z 30005KT 250V030 9999 SCT046TCU SCT100 21/04 Q1027 NOSIG RMK PP000=
SPZO Nov2009-201900Z 34006KT 290V040 9999 -RA FEW040TCU BKN050 21/04 Q1026 NOSIG RMK WIND RWY10 VRB05KT PP004=
SPZO Nov2009-202000Z 30007KT 250V020 9999 VCSH FEW046TCU BKN060 18/06 Q1025 NOSIG RERA RMK PP002=
SPZO Nov2009-202100Z 26009KT 9999 SCT043TCU SCT100 18/16 Q1025 TEMPO-RA RMK PP000=
SPZO Nov2009-202200Z 26007KT 9999 SCT050 SCT100 17/06 Q1026 NOSIG RMK=
SPZO Nov2009-202300Z 27006KT 9999 FEW050 SCT230 16/05 Q1026 NOSIG RMK PP000=
SPZO Nov2009-210000Z 26005KT 9999 SCT043 SCT060 14/07 Q1028 RMK PP000=
SPZO Nov2009-210100Z 32006KT 260V050 9999 BKN040 SCT050 14/06 Q1030 RMK PP000=
SPZO Nov2009-210200Z 00000KT 9999 -RA SCT036 BKN043 12/07 Q1031 RMK PP014=
SPZO Nov2009-210300Z 00000KT 9999 BKN043 SCT050 11/08 Q1031 RMK PP002=
SPZO Nov2009-210400Z 00000KT 9999 BKN040 SCT080 11/08 Q1031 RMK PP000=
SPZO Nov2009-210500Z 00000KT 9999 SCT040 SCT100 11/08 Q1030 RMK PP000=
SPZO Nov2009-210600Z 00000KT 9999 SCT040 SCT100 11/07 Q1029 RMK PP000=
SPZO Nov2009-210800Z 00000KT 9999 SCT043 SCT080 11/08 Q1028 RMK PP000=
SPZO Nov2009-210900Z 00000KT 9999 BKN040 SCT080 11/08 Q1029 RMK PP000=
SPZO Nov2009-211000Z 02002KT 9999 FEW036 SCT043 BKN060 11/08 Q1029 RMK PP000=
SPZO Nov2009-211100Z 05002KT 9999 FEW036 OVC100 11/08 Q1030 NOSIG RMK PP000=
SPZO Nov2009-211200Z 00000KT 9999 FEW036 SCT046 BKN100 11/08 Q1031 NOSIG RMK PP000=
SPZO Nov2009-211300Z 00000KT 9999 FEW025 SCT043 BKN100 13/08 Q1031 NOSIG RMK PP000=
SPZO Nov2009-211400Z 05003KT 010V070 9999 FEW030 SCT043 BKN080 14/07 Q1031 NOSIG RMK PP000=
SPZO Nov2009-211500Z VRB05KT 9999 SCT040 BKN080 16/08 Q1031 NOSIG RMK PP000=
SPZO Nov2009-211600Z 02006KT 300V070 9999 SCT040 SCT100 17/06 Q1030 NOSIG RMK PP000=
SPZO Nov2009-211700Z 00000KT 9999 FEW040TCU BKN050 19/06 Q1029 NOSIG RMK PP000=
SPZO Nov2009-211800Z 02005KT 300V060 9999 VCSH FEW043 SCT046 19/06 Q1027 NOSIG RMK PP000=
SPZO Nov2009-211900Z 36010KT 320V030 9999 VCSH FEW043 BKN046 18/05 Q1027 NOSIG RMK PP000=
SPZO Nov2009-212000Z 27016KT 9999 VCSH FEW046TCU BKN050 17/06 Q1026 NOSIG RMK PP000=
SPZO Nov2009-212100Z 28007KT 250V320 9000 -RA VCSH FEW046TCU BKN050 16/07 Q1027 NO=
SPZO Nov2009-212200Z 29011KT 250V330 8000 -RA VCSH FEW046TCU SCT046 BKN050 14/07 Q1029 NOSIG RMK T MAX 20.9 PP018=
SPZO Nov2009-212300Z 28007KT 250V320 9999 FEW040 BKN050 12/07 Q1028 NOSIG RMK RERA PPTRZ=
SPZO Nov2009-220000Z 27004KT 9999 OVC046 11/07 Q1029 RMK PP000=
SPZO Nov2009-220100Z 27007KT 9999 BKN050 11/06 Q1030 RMK PP000=
SPZO Nov2009-220200Z 00000KT 9999 BKN050 10/07 Q1031 RMK PP000=
SPZO Nov2009-220300Z 00000KT 9999 SCT050 09/07 Q1031 RMK PP000=
SPZO Nov2009-220400Z 00000KT 9999 SCT050 09/06 Q1031 RMK PP000=
SPZO Nov2009-220500Z 00000KT 9999 SCT046 SCT050 09/07 Q1031 RMK PP000=
SPZO Nov2009-220600Z 00000KT 9999 SCT040 BKN050 10/07 Q1030 RMK PP000=
SPZO Nov2009-220700Z 00000KT 9999 SCT040 BKN050 10/07 Q1030 RMK PP000=
SPZO Nov2009-220800Z 00000KT 9999 SCT040 BKN050 10/07 Q1030 RMK PP000=
SPZO Nov2009-220900Z 00000KT 9999 SCT040 BKN050 10/07 Q1030 RMK PP000=
SPZO Nov2009-221000Z 00000KT 9999 SCT040 BKN050 10/07 Q1030 RMK PP000=
SPZO Nov2009-221100Z 05003KT 9999 FEW036 SCT040 BKN050 10/08 Q1031 NOSIG RMK PP000=
SPZO Nov2009-221200Z 00000KT 9999 FEW036 SCT043 BKN060 11/08 Q1032 NOSIG RMK PP000=
SPZO Nov2009-221300Z VRB01KT 9999 FEW030 SCT046 BKN080 14/07 Q1032 NOSIG RMK PP000=
SPZO Nov2009-221400Z VRB01KT 9999 SCT040 BKN230 15/06 Q1032 NOSIG RMK PP000=
SPZO Nov2009-221500Z 00000KT 9999 FEW040 SCT046 BKN230 16/05 Q1031 NOSIG RMK PP000=
SPZO Nov2009-221600Z VRB02KT 9999 FEW040 SCT046 BKN080 18/05 Q1031 NOSIG RMK PP000=
SPZO Nov2009-221700Z 31005KT 250V030 9999 FEW043TCU SCT050 BKN080 19/05 Q1029 NOSIG RMK PP000=
SPZO Nov2009-221800Z 31004KT 250V050 9999 VCSH FEW040TCU SCT046 BKN100 20/06 Q1028=
SPZO Nov2009-221900Z 27009KT 250V330 9999 VCSH SCT043TCU SCT050 BKN100 19/05 Q1027 NOSIG RMK PP000=
SPZO Nov2009-222000Z 03011KT 010V070 9999 VCSH FEW030 SCT043TCU BKN100 15/08 Q1027 NOSIG RMK PP000=
SPZO Nov2009-222100Z 27003KT 250V350 9999 FEW050 SCT270 18/08 Q1026 NOSIG RMK PP000=
SPZO Nov2009-222200Z 05006KT 9999 FEW040 SCT046 16/07 Q1026 NOSIG RMK T MAX 20.9 PP000=
SPZO Nov2009-222300Z 00000KT 9999 FEW046 SCT050 16/07 Q1027 NOSIG RMK PP000=
SPZO Nov2009-230000Z 06005KT 9999 OVC046 15/08 Q1029 RMK PP000=
SPZO Nov2009-230100Z 05018KT 9999 SCT040 BKN046 14/07 Q1029 RMK PP000=
SPZO Nov2009-230200Z 36004KT 310V070 9999 -RA OVC040 12/07 Q1031 RMK PP004=
SPZO Nov2009-230300Z 30004KT 250V330 8000 RA OVC040 10/07 Q1032 RMK PP046=
SPZO Nov2009-230400Z 00000KT 8000 RA OVC040 10/07 Q1032 RMK PP044=
SPZO Nov2009-230500Z 00000KT 9999 OVC040 10/07 Q1031 RMK PP024=
SPZO Nov2009-230600Z 00000KT 9999 OVC040 10/07 Q1030 RMK PP000=
SPZO Nov2009-230700Z 26005KT 250V330 9999 OVC040 10/07 Q1030 RMK PP000=
SPZO Nov2009-230800Z 28006KT 9999 OVC040 09/06 Q1030 RMK PP000=
SPZO Nov2009-230900Z 28003KT 9999 SCT036 BKN043 10/06 Q1030 RMK PP000=
SPZO Nov2009-231000Z 27002KT 9000 -RA FEW020 SCT036 BKN040 09/06 Q1031 RMK CLNG BLW 1200M PP004=
SPZO Nov2009-231100Z 00000KT 9000 FEW020 SCT033 OVC060 09/06 Q1031 BECMG 9999 SCT030 OVC080 RMK CLNG BLW 1200M PP002=
SPZO Nov2009-231200Z 00000KT 9999 FEW020 SCT033 BKN090 11/06 Q1032 BECMG SCT033 SCT100 RMK PP000=
SPZO Nov2009-231300Z 00000KT 9999 FEW020 SCT033 BKN090 12/06 Q1032 NOSIG RMK PP000=
SPZO Nov2009-231400Z 05004KT 350V070 9999 FEW025 SCT033 BKN080 13/07 Q1032 NOSIG RMK PP000=
SPZO Nov2009-231500Z VRB02KT 9999 FEW025 SCT036 BKN080 14/07 Q1032 NOSIG RMK PP000=
SPZO Nov2009-231600Z VRB03KT 9999 SCT046 SCT100 17/07 Q1031 NOSIG RMK PP000=
SPZO Nov2009-231700Z 29003KT 250V020 9999 FEW025 SCT043 18/08 Q1030 NOSIG RMK WIND RWY10 30006KT 250V010 PP000=
SPZO Nov2009-231800Z 29014KT 9999 VCSH FEW043TCU SCT046 18/07 Q1028 NOSIG RMK PP000=
SPZO Nov2009-231900Z 27006KT 240V030 9999 SCT043 SCT050 20/06 Q1027 NOSIG RMK PP000=
SPZO Nov2009-232000Z VRB01KT 9999 SCT046 SCT230 19/06 Q1025 PP000 NOSIG RMK PP000=
SPZO Nov2009-232100Z 27010KT 250V340 9999 VCSH SCT043TCU SCT050 19/08 Q1025 NOSIG RMK PP000=
SPZO Nov2009-232200Z 26007KT 9999 VCSH FEW043TCU SCT050 19/07 Q1025 RESHRA NOSIG RMK T MAX 20.8 PP002=
SPZO Nov2009-232300Z 27010KT 9999 FEW040TCU SCT050 17/08 Q1025 NOSIG RMK PP000=
SPZO Nov2009-240000Z 26009KT 9000 BKN050 16/08 Q1027 RMK RERA PP002=
SPZO Nov2009-240100Z 27008KT 250V320 9999 BKN050 15/08 Q1028 RMK PP000=
SPZO Nov2009-240200Z 26010KT 9999 BKN050 14/08 Q1028 RMK PP000=
SPZO Nov2009-240300Z 26003KT 9999 OVC050 15/08 Q1029 RMK PP000=
SPZO Nov2009-240400Z 00000KT 9999 OVC050 14/08 Q1029 RMK PP000=
SPZO Nov2009-240500Z 00000KT 9999 OVC050 14/08 Q1028 RMK PP000=
SPZO Nov2009-240600Z 00000KT 9999 OVC050 13/08 Q1028 RMK PP000=
SPZO Nov2009-240700Z 00000KT 9999 OVC050 13/08 Q1027 RMK PP000=
SPZO Nov2009-240800Z 00000KT 9999 OVC050 12/08 Q1027 RMK PP000=
SPZO Nov2009-240900Z 00000KT 9999 BKN050 SCT060 12/08 Q1028 RMK PP000=
SPZO Nov2009-241000Z 00000KT 9999 FEW040 SCT050 BKN060 12/08 Q1028 RMK PP000=
SPZO Nov2009-241100Z 26004KT 9000 -DZ VCSH FEW036 SCT040 BKN050 12/08 Q1029 TEMPO FEW025 SCT036 BKN043 RMK PPTRZ=
SPZO Nov2009-241200Z 05004KT 9999 VCSH FEW030 SCT036 BKN060 12/08 Q1030 TEMPO 9000 -DZ RMK PP000=
SPZO Nov2009-241300Z 31005KT 250V360 9999 VCSH FEW025 SCT043 BKN080 12/07 Q1031 NOSIG RMK PP000=
SPZO Nov2009-241400Z 27003KT 250V320 9999 VCSH FEW025 SCT043 BKN060 14/06 Q1031 NOSIG RMK PP000=
SPZO Nov2009-241500Z 29008KT 250V340 9999 FEW040 SCT100 16/07 Q1030 NOSIG RMK PP000=
SPZO Nov2009-241600Z 27006KT 9999 SCT046 SCT100 18/07 Q1029 NOSIG RMK PP000=
SPZO Nov2009-241700Z 00000KT 9999 SCT050 19/06 Q1027 NOSIG RMK PP000=
SPZO Nov2009-241800Z 36006G19KT 250V060 9999 VCSH SCT043TCU SCT050 20/06 Q1026 NOSIG RMK PP000=
SPZO Nov2009-241900Z 36011KT 310V050 9999 FEW043TCU BKN100 20/06 Q1028 NOSIG RMK WIND RWY10 VRB05KT PP000=
SPZO Nov2009-242000Z 30007KT 250V050 9999 SCT043TCU SCT100 21/05 Q1024 NOSIG RMK WIND RWY10 28010KT 250V350 PP000=
SPZO Nov2009-242100Z 28013KT 250V330 9999 SCT043TCU SCT080 19/08 Q1024 TEMPO VCSH RMK WIND RWY10 30010KT 270V340 PP000=
SPZO Nov2009-242200Z 06007KT 010V070 9999 VCSH SCT043TCU OVC050 15/07 Q1025 TEMPO RA RMK T MAX 21.3 PP000=
SPZO Nov2009-242300Z 06010KT 9999 SCT043 OVC080 13/08 Q1026 NOSIG RMK RERA PP000=
SPZO Nov2009-250000Z 00000KT 9999 SCT043 SCT100 13/07 Q1027 RMK PP000=
SPZO Nov2009-250100Z 06001KT 9999 SCT050 13/08 Q1028 RMK PP000=
SPZO Nov2009-250200Z 00000KT 9999 BKN040 SCT080 13/08 Q1028 RMK PP000=
SPZO Nov2009-250300Z 00000KT 9999 SCT043 SCT080 13/08 Q1029 RMK PP000=
SPZO Nov2009-250400Z 00000KT 9999 SCT040 SCT100 13/05 Q1029 RMK PP000=
SPZO Nov2009-250500Z 26008KT 9999 BKN040 SCT050 12/07 Q1029 RMK PP000=
SPZO Nov2009-250600Z 00000KT 9999 BKN040 SCT050 11/06 Q1028 RMK PP000=
SPZO Nov2009-250700Z 27007KT 9999 BKN040 SCT050 11/06 Q1028 RMK PP000=
SPZO Nov2009-250800Z 00000KT 9999 OVC040 11/06 Q1028 RMK PP000=
SPZO Nov2009-250900Z 27005KT 9999 SCT036 BKN043 11/06 Q1028 RMK PP000=
SPZO Nov2009-251000Z 00000KT 9999 -RA FEW030 SCT036 BKN046 11/07 Q1028 RMK PP002=
SPZO Nov2009-251100Z 28002KT 9999 VCSH FEW036 SCT040 BKN046 10/07 Q1029 NOSIG RMK PP002=
SPZO Nov2009-251200Z 00000KT 9999 FEW036 SCT043 OVC080 12/08 Q1030 NOSIG RMK RERA PP002=
SPZO Nov2009-251300Z VRB02KT 9999 FEW036 SCT043 OVC080 13/07 Q1030 NOSIG RMK PP000=
SPZO Nov2009-251400Z 06004KT 9999 FEW030 SCT043 OVC080 14/07 Q1030 NOSIG RMK WIND RWY10 VRB05KT PP000=
SPZO Nov2009-251500Z 05013KT 020V080 9999 VCSH FEW020 SCT043TCU BKN060 15/09 Q1030 NOSIG RMK WIND RWY10 10009KT 050V120 PP000=
SPZO Nov2009-251600Z 05016KT 9999 VCSH FEW020 SCT043TCU BKN060 12/08 Q1030 NOSIG RMK WIND RWY10 10015KT PP000=
SPZO Nov2009-251700Z 04003KT 9999 DZ FEW025 SCT043 BKN060 13/06 Q1029 NOSIG RMK PPTRZ=
SPZO Nov2009-251800Z 28005KT 250V060 9999 VCSH FEW043 BKN100 17/06 Q1028 NOSIG RMK PP000=
SPZO Nov2009-251900Z 26016KT 9999 FEW050 SCT080 18/05 Q1027 NOSIG RMK PP000=
SPZO Nov2009-252000Z 27016KT 240V300 9999 FEW050 SCT150 19/07 Q1025 NOSIG RMK PP000=
SPZO Nov2009-252100Z 26014KT 9999 FEW050 SCT150 BKN230 19/06 Q1024 NOSIG RMK PP000=
SPZO Nov2009-252200Z 26014KT 9999 SCT050 SCT150 BKN230 18/04 Q1024 NOSIG RMK T MAX 19.3 PP000=
SPZO Nov2009-252300Z 27011KT 9999 SCT060 BKN230 17/07 Q1025 NOSIG RMK PP000=
SPZO Nov2009-260000Z 27014KT 9999 BKN050 15/07 Q1026 RMK PP000=
SPZO Nov2009-260100Z 26007KT 9999 BKN050 14/07 Q1027 RMK PP000=
SPZO Nov2009-260200Z 27007KT 9999 BKN050 15/06 Q1028 RMK PP000=
SPZO Nov2009-260300Z 26006KT 9999 SCT050 SCT100 14/06 Q1029 RMK PP000=
SPZO Nov2009-260400Z 01005KT 260V020 9999 -RA BKN043 14/07 Q1029 RMK PPTRZ=
SPZO Nov2009-260500Z 26003KT 9999 RA OVC043 11/09 Q1029 RMK PP064=
SPZO Nov2009-260600Z 00000KT 9999 SCT043 BKN050 11/08 Q1028 RMK PP010=
SPZO Nov2009-260700Z 00000KT 9999 SCT043 BKN050 11/08 Q1028 RMK PP000=
SPZO Nov2009-260800Z 00000KT 9999 SCT040 BKN050 11/09 Q1028 RMK PP000=
SPZO Nov2009-260900Z 05005KT 9999 SCT040 BKN050 11/08 Q1028 RMK PP000=
SPZO Nov2009-261000Z 04002KT 9999 SCT040 BKN046 11/09 Q1029 RMK PP000=
SPZO Nov2009-261100Z 05003KT 9999 FEW020 SCT040 BKN080 11/09 Q1029 NOSIG RMK PP000=
SPZO Nov2009-261200Z 00000KT 9999 SCT025 SCT100 13/09 Q1030 NOSIG RMK PP000=
SPZO Nov2009-261300Z 00000KT 9999 FEW030 SCT060 15/08 Q1031 NOSIG RMK PP000=
SPZO Nov2009-261400Z 00000KT 9999 FEW036 SCT050 17/08 Q1030 NOSIG RMK PP000=
SPZO Nov2009-261500Z 04003KT 350V070 9999 FEW040 SCT050 18/07 Q1030 NOSIG RMK PP000=
SPZO Nov2009-261600Z VRB04KT 9999 FEW043 SCT050 20/06 Q1029 NOSIG RMK PP000=
SPZO Nov2009-261700Z 01008KT 250V060 9999 FEW046TCU SCT050 20/06 Q1027 TEMPO VCSH RMK PP000=
SPZO Nov2009-261800Z 36009KT 330V040 8000 -RA VCSH FEW040TCU BKN050 19/08 Q1026 NOSIG RMK PP002=
SPZO Nov2009-261900Z 36007KT 310V070 9999 FEW043TCU SCT050 BKN230 20/04 Q1025 NOSIG RMK PPTRZ=
SPZO Nov2009-262000Z 05008KT 010V070 9999 -SHRA FEW030TCU SCT043TCU BKN230 19/07 Q1024 BECMG NSW RMK PPTRZ=
SPZO Nov2009-262100Z 29006KT 250V340 9999 FEW030 SCT046 BKN230 19/08 Q1024 NOSIG RMK PP000=
SPZO Nov2009-262200Z 29011KT 250V350 9999 4000N TS VCSH SCT043CB BKN050 19/06 Q1025 TEMPO -TSRA RMK T MAX 21.9 PP000=
SPZO Nov2009-262300Z VRB03KT 9999 -RA VCSH SCT043TCU OVC050 15/08 Q1026 BECMG NSW RMK PP004=
SPZO Nov2009-270000Z 26006KT 9999 SCT046 BKN050 13/08 Q1028 RMK PP006=
SPZO Nov2009-270100Z 27003KT 9999 DZ OVC043 13/08 Q1029 RMK PPTRZ=
SPZO Nov2009-270200Z 30004KT 9999 DZ OVC043 12/09 Q1030 RMK PP004=
SPZO Nov2009-270300Z 28004KT 9999 SCT043 BKN050 12/08 Q1030 RMK PP000=
SPZO Nov2009-270400Z 28004KT 9999 SCT043 BKN050 11/08 Q1031 RMK PP000=
SPZO Nov2009-270500Z 05005KT 9999 FEW025 OVC046 11/08 Q1030 RMK PP000=
SPZO Nov2009-270600Z 03002KT 9000 RA FEW025 OVC046 10/08 Q1030 RMK PP012=
SPZO Nov2009-270700Z 25004KT 9000 -RA FEW030 OVC046 10/08 Q1030 RMK PP013=
SPZO Nov2009-270800Z 28005KT 9000 FEW030 OVC046 10/06 Q1029 RMK RERA PP002=
SPZO Nov2009-270900Z 27002KT 9999 FEW030 BKN046 10/06 Q1029 RMK PP000=
SPZO Nov2009-271000Z 28003KT 9999 FEW033 BKN046 09/06 Q1029 RMK PP000=
SPZO Nov2009-271100Z 00000KT 9000 FEW030 SCT060 09/06 Q1030 BECMG 9999 RMK PP000=
SPZO Nov2009-271200Z 00000KT 9999 SCT020 BKN050 13/06 Q1031 BECMG SCT036 RMK PP000=
SPZO Nov2009-271300Z 00000KT 9999 SCT033 SCT050 13/07 Q1031 NOSIG RMK PP000=
SPZO Nov2009-271400Z 34009KT 250V030 9999 SCT036 15/07 Q1031 NOSIG RMK PP000=
SPZO Nov2009-271500Z 00000KT 9999 SCT036 17/06 Q1030 NOSIG RMK PP000=
SPZO Nov2009-271600Z 04005KT 350V070 9999 BKN040 17/06 Q1029 NOSIG RMK PP000=
SPZO Nov2009-271700Z 35007KT 300V040 9999 FEW046TCU SCT050 19/04 Q1028 NOSIG RMK PP000=
SPZO Nov2009-271800Z 33008KT 260V040 9999 FEW043TCU SCT050 20/05 Q1027 NOSIG RMK PP000=
SPZO Nov2009-271900Z 36012KT 300V040 9999 FEW036TCU SCT050 20/08 Q1026 NOSIG RMK PP000=
SPZO Nov2009-272000Z 35011KT 300V030 9999 FEW040 SCT100 18/06 Q1025 NOSIG RMK PP000=
SPZO Nov2009-272100Z 29009KT 250V350 9999 FEW046 SCT230 19/06 Q1024 NOSIG RMK PP000=
SPZO Nov2009-272200Z 33010KT 290V360 9999 FEW036 FEW046TCU 19/05 Q1024 NOSIG RMK T MAX 20.9 PP000=
SPZO Nov2009-272300Z 33006KT 270V070 9999 FEW046 SCT230 17/05 Q1025 NOSIG RMK PP00=
SPZO Nov2009-280000Z 26009KT 9999 SCT050 15/07 Q1027 RMK PP000=
SPZO Nov2009-280100Z 34010KT 290V040 9999 BKN050 14/04 Q1029 RMK PP000=
SPZO Nov2009-280200Z 04004KT 340V070 8000 RA SCT030 OVC050 11/06 Q1031 RMK PP012=
SPZO Nov2009-280300Z 26004KT 5000 +RA SCT030TCU OVC050 09/07 Q1032 RMK PP058=
SPZO Nov2009-280400Z 27005KT 250V320 5000 +RA SCT030TCU OVC050 09/06 Q1032 RMK PP044=
SPZO Nov2009-280500Z 26003KT 5000 +RA SCT030TCU OVC050 08/06 Q1031 RMK PP044=
SPZO Nov2009-280600Z 00000KT 7000 -RA FEW030TCU OVC050 08/06 Q1030 RMK PP006=
SPZO Nov2009-280700Z 00000KT 8000 -RA FEW030TCU OVC050 08/06 Q1030 RMK PP002=
SPZO Nov2009-280800Z 00000KT 9000 SCT030 OVC050 08/06 Q1029 RERA RMK PP002=
SPZO Nov2009-280900Z 06003KT 8000 -DZ FEW020 SCT030 OVC050 08/06 Q1029 RMK PPTRZ=
SPZO Nov2009-281000Z 06002KT 7000 DZ FEW020 SCT030 OVC050 08/06 Q1029 RMK CLNG BLW 1200M PP008=
SPZO Nov2009-281100Z 00000KT 9000 FEW010 SCT020 BKN050 09/06 Q1030 BECMG FEW010 SCT033 BKN060 RMK CLNG BLW 1200M PPTRZ=
SPZO Nov2009-281200Z 00000KT 9999 SCT020 SCT046 BKN080 09/07 Q1030 NOSIG RMK PP000=
SPZO Nov2009-281300Z 00000KT 9999 SCT030 13/07 Q1031 NOSIG RMK PP000=
SPZO Nov2009-281400Z 29003KT 250V350 9999 FEW033 SCT050 14/07 Q1030 NOSIG RMK PP000=
SPZO Nov2009-281500Z 30004KT 250V030 9999 FEW036 SCT050 16/07 Q1030 NOSIG RMK PP000=
SPZO Nov2009-281600Z 03003KT 250V060 9999 SCT050 SCT100 17/08 Q1028 NOSIG RMK PP00=
SPZO Nov2009-281700Z 04004KT 340V070 9999 SCT046 SCT080 18/06 Q1027 NOSIG RMK PP000=
SPZO Nov2009-281800Z 32010KT 290V360 9999 VCSH FEW043TCU BKN050 20/08 Q1026 NOSIG RMK WIND RWY10 VRB07KT PP000=
SPZO Nov2009-281900Z 05005KT 350V070 9999 VCSH SCT043TCU BKN150 19/06 Q1028 NOSIG RMK WIND RWY10 VRB05KT PP000=
SPZO Nov2009-282000Z 35007KT 250V060 9999 SCT043TCU BKN100 18/07 Q1024 NOSIG RMK WIND RWY10 11006KT PP000=
SPZO Nov2009-282100Z 00000KT 9999 SCT043TCU SCT200 19/07 Q1023 NOSIG RMK WIND RWY10 VRB05KT PP000=
SPZO Nov2009-282200Z 04008KT 9999 SCT050 BKN230 17/07 Q1024 NOSIG RMK=
SPZO Nov2009-282300Z 05006KT 360V060 9999 SCT050 SCT230 16/07 Q1025 NOSIG RMK PP000=
SPZO Nov2009-290000Z 06006KT 9999 SCT043 SCT080 15/07 Q1026 RMK PP000=
SPZO Nov2009-290100Z VRB02KT 9999 BKN040 SCT080 15/06 Q1027 RMK PP000=
SPZO Nov2009-290200Z 00000KT 9999 BKN046 SCT060 14/06 Q1028 RMK PP000=
SPZO Nov2009-290300Z 00000KT 9999 SCT046 SCT100 14/06 Q1029 RMK PP000=
SPZO Nov2009-290400Z 00000KT 9999 BKN040 SCT050 13/06 Q1029 RMK PP000=
SPZO Nov2009-290500Z 29007KT 9999 BKN040 SCT050 13/07 Q1028 RMK PP000=
SPZO Nov2009-290600Z 00000KT 9999 -RA OVC040 11/09 Q1028 RMK PP014=
SPZO Nov2009-290700Z 00000KT 9999 -RA BKN040 SCT050 11/07 Q1028 RMK PP004=
SPZO Nov2009-290800Z 00000KT 9999 SCT036 BKN040 11/07 Q1028 RMK PP000=
SPZO Nov2009-290900Z 00000KT 9999 SCT036 BKN043 11/07 Q1028 RMK PP000=
SPZO Nov2009-291000Z 00000KT 9999 VCSH SCT036 BKN043 11/07 Q1028 RMK PP000=
SPZO Nov2009-291100Z 05001KT 9999 VCSH FEW030 SCT040 BKN050 11/08 Q1029 NOSIG RMK PP000=
SPZO Nov2009-291200Z 05004KT 9999 VCSH FEW015 SCT036 BKN050 11/08 Q1030 NOSIG RMK PP000=
SPZO Nov2009-291300Z 06004KT 9999 VCSH FEW020 SCT036 OVC050 12/09 Q1031 NOSIG RMK PP000=
SPZO Nov2009-291400Z 05005KT 9999 VCSH FEW025 SCT040 OVC050 13/08 Q1031 NOSIG RMK PP000=
SPZO Nov2009-291500Z 28004KT 250V340 9999 VCSH FEW030 SCT043 BKN050 14/08 Q1030 NOSIG RMK PPTRZ=
SPZO Nov2009-291600Z 30003KT 250V020 9999 -RA FEW030 SCT043 OVC050 14/07 Q1030 NOS=
SPZO Nov2009-291700Z 26003KT 250V340 9999 VCSH FEW030 SCT043 OVC050 15/08 Q1029 NOSIG RMK PP006=
SPZO Nov2009-291800Z 27010KT 9999 -RA VCSH FEW030TCU SCT036 BKN050 14/09 Q1028 NOSIG RMK PPTRZ=
SPZO Nov2009-291900Z 30007KT 260V330 9999 VCSH FEW030TCU SCT036 BKN050 15/08 Q1027 NOSIG RMK RERA PPTRZ=
SPZO Nov2009-292000Z 29008KT 9999 -RA VCSH FEW030TCU SCT036 BKN050 13/08 Q1027 NOSIG RMK PP000=
SPZO Nov2009-292100Z VRB02KT 9999 VCSH FEW030TCU SCT036 BKN050 14/09 Q1026 NOSIG RMK RERA PPTRZ=
SPZO Nov2009-292200Z 04002KT 9999 FEW046 BKN050 14/08 Q1026 TEMPO VCSH RMK T MAX 15.5 PP000=
SPZO Nov2009-292300Z 00000KT 9999 BKN050 14/08 Q1027 NOSIG RMK PP000=
SPZO Nov2009-300000Z 26004KT 9999 SCT043 BKN050 13/09 Q1028 RMK PP000=
SPZO Nov2009-300100Z 26005KT 9999 SCT040 OVC050 13/08 Q1029 RMK PP000=
SPZO Nov2009-300200Z 26005KT 9999 SCT040 OVC050 13/08 Q1029 RMK PP000=
SPZO Nov2009-300300Z 33002KT 9999 SCT040 OVC050 13/08 Q1030 RMK PP000=
SPZO Nov2009-300400Z 00000KT 9999 RA OVC040 11/07 Q1031 RMK PP018=
SPZO Nov2009-300500Z 00000KT 9999 OVC040 10/08 Q1030 RMK PP010=
SPZO Nov2009-300600Z 00000KT 9999 OVC040 10/08 Q1030 RMK PP000=
SPZO Nov2009-300700Z 00000KT 9999 OVC040 10/08 Q1029 RMK PP000=
SPZO Nov2009-300800Z 00000KT 9999 OVC040 11/08 Q1029 RMK PP000=
SPZO Nov2009-300900Z 00000KT 9999 SCT040 SCT080 10/07 Q1028 RMK PP000=
SPZO Nov2009-301000Z 00000KT 9999 FEW025 SCT040 BKN080 11/05 Q1029 RMK PP000=
SPZO Nov2009-301100Z 28002KT 9999 FEW025 BKN046 10/06 Q1029 NOSIG RMK PP000=
SPZO Nov2009-301200Z 30002KT 9999 SCT040 BKN050 11/06 Q1030 NOSIG RMK PP000=
SPZO Nov2009-301300Z 01001KT 9999 FEW030 SCT043 BKN080 13/05 Q1031 NOSIG RMK PP000=
SPZO Nov2009-301400Z VRB03KT 9999 FEW036 SCT043 BKN060 14/06 Q1030 NOSIG RMK PP000=
SPZO Nov2009-301500Z VRB02KT 9999 FEW036 SCT046 BKN060 17/05 Q1030 NOSIG RMK PP000=
SPZO Nov2009-301600Z VRB03KT 9999 FEW036 SCT046 BKN080 18/05 Q1029 NOSIG RMK PP000=
SPZO Nov2009-301700Z 29004KT 250V350 9999 FEW043TCU SCT046 BKN060 18/05 Q1028 NOSIG RMK PP000=
SPZO Nov2009-301800Z 31006KT 270V350 9999 FEW040 BKN050 18/06 Q1026 TEMPO=
SPZO Nov2009-301900Z VRB02KT 9999 FEW040 BKN050 20/04 Q1025 NOSIG RMK PP000=
SPZO Nov2009-302000Z 11008KT 330V060 9999 FEW036 SCT043 BKN060 18/06 Q1025 NOSIG RMK PP000=
SPZO Nov2009-302100Z 31004KT 250V030 9999 -RA VCSH FEW030 FEW043TCU SCT050TCU 16/08 Q1024 BECMG NSW RMK PP018=
SPZO Nov2009-302200Z 03004KT 340V070 9999 FEW030 SCT043TCU BKN050 15/07 Q1024 TEMPO VCSH RMK RERA T MAX 20.3 PP034=
SPZO Nov2009-302300Z 27005KT 250V340 9999 FEW040 SCT050 15/07 Q1025 NOSIG RMK PP000=
SPZO Dic2009-010000Z 00000KT 9999 SCT050 14/08 Q1026 RMK PP000=
SPZO Dic2009-010100Z 00000KT 9999 BKN050 13/09 Q1027 RMK PP000=
SPZO Dic2009-010200Z 06007KT 9999 SCT046 BKN100 13/08 Q1028 RMK PP000=
SPZO Dic2009-010300Z 32004KT 270V010 9999 -RA OVC043 14/07 Q1029 RMK PPTRZ=
SPZO Dic2009-010400Z 28002KT 9999 -RA OVC043 11/08 Q1030 RMK PP014=
SPZO Dic2009-010500Z 00000KT 9999 DZ OVC043 11/08 Q1029 RMK PP002=
SPZO Dic2009-010600Z 00000KT 9999 OVC043 11/08 Q1029 RMK PP000=
SPZO Dic2009-010700Z 00000KT 9999 SCT043 OVC100 11/07 Q1028 RMK PP000=
SPZO Dic2009-010800Z 00000KT 9999 SCT043 OVC100 10/08 Q1027 RMK PP000=
SPZO Dic2009-010900Z 00000KT 9999 SCT043 OVC100 10/08 Q1027 RMK PP000=
SPZO Dic2009-011000Z 00000KT 9999 FEW030 SCT043 BKN100 10/07 Q1028 RMK PP000=
SPZO Dic2009-011100Z 00000KT 9999 FEW020 SCT043 OVC150 10/07 Q1028 NOSIG RMK PP000=
SPZO Dic2009-011200Z 00000KT 9999 FEW010 SCT030 BKN050 11/08 Q1029 NOSIG RMK PP000=
SPZO Dic2009-011300Z 00000KT 9999 FEW010 SCT030 BKN046 12/08 Q1030 NOSIG RMK PP000=
SPZO Dic2009-011400Z VRB02KT 9999 SCT025 SCT040 BKN080 14/08 Q1030 NOSIG RMK PP000=
SPZO Dic2009-011500Z 04009KT 9999 SCT025 SCT040 BKN080 14/09 Q1029 NOSIG RMK PP000=
SPZO Dic2009-011600Z 05007KT 360V070 9999 VCSH SCT025 FEW043TCU BKN080 16/09 Q1029 NOSIG RMK PP000=
SPZO Dic2009-011700Z 01008KT 300V070 9999 3000N -RA VCSH FEW030TCU SCT040TCU BKN060 14/08 Q1029 BECMG FM1730 9999 NSW RMK PP002=
SPZO Dic2009-011800Z 27004KT 5000 2000W RA VCSH FEW043TCU SCT043TCU BKN050 13/08 Q1029 BECMG F=
SPZO Dic2009-011900Z 00000KT 8000 -RA VCSH FEW020 SCT040TCU BKN050 11/08 Q1028 BECMG 9999 RMK PP056=
SPZO Dic2009-012000Z VRB02KT 9999 -RA FEW020 SCT046TCU BKN070 11/08 Q1027 BECMG NSW RMK PP008=
SPZO Dic2009-012100Z 00000KT 9999 FEW030 SCT050 BKN080 12/07 Q1026 NOSIG RMK PP000=
SPZO Dic2009-012200Z 00000KT 9999 SCT046 BKN100 12/08 Q1026 NOSIG RMK TMAX 16.4 PP000=
SPZO Dic2009-012300Z 00000KT 9999 SCT040 SCT230 12/07 Q1026 NOSIG RMK PP000=
SPZO Dic2009-020000Z 00000KT 9999 SCT050 12/09 Q1027 RMK PP000=
SPZO Dic2009-020200Z 00000KT 9999 BKN050 11/09 Q1029 RMK REDZ PP002=
SPZO Dic2009-020300Z 00000KT 9999 BKN050 10/08 Q1029 RMK PP000=
SPZO Dic2009-020400Z 00000KT 9999 BKN050 10/08 Q1029 RMK PP000=
SPZO Dic2009-020500Z 00000KT 9999 BKN050 10/08 Q1029 RMK PP000=
SPZO Dic2009-020600Z 00000KT 9999 BKN050 SCT100 10/08 Q1027 RMK PP000=
SPZO Dic2009-020700Z 00000KT 9999 SCT050 SCT100 09/08 Q1027 RMK PP000=
SPZO Dic2009-020800Z 00000KT 9999 SCT050 SCT100 09/07 Q1027 RMK PP000=
SPZO Dic2009-020900Z 00000KT 9999 SCT050 SCT100 09/07 Q1027 RMK PP000=
SPZO Dic2009-021000Z 00000KT 9999 SCT050 SCT100 09/07 Q1027 RMK PP000=
SPZO Dic2009-021100Z 00000KT 8000 FEW030 SCT036 BKN050 09/07 Q1028 NOSIG RMK HZ FU PP000=
SPZO Dic2009-021200Z 00000KT 8000 FEW030 SCT033 BKN046 10/08 Q1029 BECMG FM1400 9999 RMK HZ-FU PP000=
SPZO Dic2009-021300Z 00000KT 9999 FEW036 SCT043 BKN080 12/09 Q1029 BECMG FM1400 99=
SPZO Dic2009-021400Z VRB02KT 9999 FEW036 SCT043 BKN230 14/07 Q1029 NOSIG RMK PP000=
SPZO Dic2009-021500Z 01003KT 260V050 9999 SCT046 BKN230 17/06 Q1029 NOSIG RMK PP000=
SPZO Dic2009-021600Z 00000KT 9999 SCT050 BKN230 18/05 Q1028 NOSIG RMK PP000=
SPZO Dic2009-021700Z VRB03KT 9999 SCT050 SCT230 20/05 Q1027 NOSIG RMK PP000=
SPZO Dic2009-021800Z 04007KT 340V070 9999 SCT046 SCT230 20/05 Q1026 NOSIG RMK WIND RWY10 12008KT 090V160 PP000=
SPZO Dic2009-021900Z 00000KT 9999 SCT050 SCT230 21/02 Q1024 NOSIG RMK PP000=
SPZO Dic2009-022000Z 00000KT 9999 FEW046TCU SCT050 20/05 Q1026 TEMPO VCSH RMK WIND=
SPZO Dic2009-022100Z 28013KT 9999 VCSH SCT046TCU SCT230 17/07 Q1023 NOSIG RMK28013KT 240V330 PP000=
SPZO Dic2009-022200Z 05010KT 9999 VCSH SCT046TCU BKN080 13/08 Q1024 TEMPO -RA RMK WIND RWY1009006KT 020V130 T MAX 22.2 PP000=
SPZO Dic2009-022300Z 02003KT 9999 SCT050 BKN230 13/08 Q1024 NOSIG RMK PP000=
SPZO Dic2009-030000Z 00000KT 9999 SCT043 SCT050 14/09 Q1025 RMK PP000=
SPZO Dic2009-030100Z 00000KT 9999 FEW040 SCT050 13/09 Q1027 RMK PP000=
SPZO Dic2009-030200Z 04002KT 9999 BKN040 SCT060 13/09 Q1028 RMK PP000=
SPZO Dic2009-030300Z 00000KT 9999 TSRA OVC040 10/06 Q1030 RMK PP018=
SPZO Dic2009-030400Z 00000KT 9999 -RA BKN040 SCT050 10/07 Q1030 RMK PP002=
SPZO Dic2009-030500Z 00000KT 9999 BKN043 SCT060 10/08 Q1029 RMK PP000=
SPZO Dic2009-030600Z 00000KT 9999 BKN040 SCT060 10/08 Q1029 RMK PP000=
SPZO Dic2009-030700Z 00000KT 9999 BKN040 SCT050 10/07 Q1028 RESHRA RMK PP004=
SPZO Dic2009-030800Z 00000KT 9999 SCT043 SCT080 10/08 Q1028 RMK PP000=
SPZO Dic2009-030900Z 00000KT 9999 SCT040 SCT080 10/08 Q1028 RMK PP000=
SPZO Dic2009-031000Z 00000KT 9999 FEW025 SCT040 BKN060 10/08 Q1028 RMK PP000=
SPZO Dic2009-031100Z 00000KT 9999 SCT036 SCT080 11/08 Q1029 NOSIG RMK PP000=
SPZO Dic2009-031200Z 00000KT 9999 FEW015 SCT036 14/07 Q1030 NOSIG RMK PP000=
SPZO Dic2009-031300Z VRB02KT 9999 FEW036 SCT050 13/07 Q1030 NOSIG RMK PP000=
SPZO Dic2009-031400Z VRB03KT 9999 FEW040 BKN080 16/08 Q1030 NOSIG RMK PP000=
SPZO Dic2009-031500Z VRB03KT 9999 SCT046 17/08 Q1029 NOSIG RMK PP000=
SPZO Dic2009-031600Z 30003KT 250V060 9999 SCT046 19/07 Q1028 NOSIG RMK WIND RWY10 =
SPZO Dic2009-031800Z 32009KT 280V360 8000 VCSH FEW040TCU SCT050 21/06 Q1025 NOSIG RMK PP000=
SPZO Dic2009-031900Z 36006KT 260V070 8000 TS VCSH FEW036CB BKN050 20/06 Q1025 TEMPO -RA RMK PP000=
SPZO Dic2009-032000Z 01008KT 300V050 9000 -RA VCSH FEW033TCU BKN050 13/07 Q1026 RETS NOSIG RMK PPTRZ=
SPZO Dic2009-032100Z VRB03KT 9000 -RA VCSH FEW033TCU BKN050 13/08 Q1026 NOSIG RMK PP004=
SPZO Dic2009-032200Z VRB02KT 9000 -RA VCSH FEW033 BKN050 13/08 Q1027 NOSIG RMK TMAX 22.3 PP004=
SPZO Dic2009-032300Z 06007KT 010V070 9999 BKN050 12/07 Q1028 RERA NOSIG RMK PPTRZ=
SPZO Dic2009-040000Z 00000KT 9999 OVC050 12/07 Q1028 RMK PP000=
SPZO Dic2009-040100Z 00000KT 9999 BKN050 11/07 Q1028 RMK PP000=
SPZO Dic2009-040200Z 00000KT 9999 SCT050 10/08 Q1029 RMK PP000=
SPZO Dic2009-040300Z 00000KT 9999 SCT050 10/07 Q1030 RMK PP000=
SPZO Dic2009-040400Z 00000KT 9999 SCT050 BKN100 10/08 Q1030 RMK PP000=
SPZO Dic2009-040500Z 00000KT 9999 SCT050 BKN100 11/08 Q1029 RMK PP000=
SPZO Dic2009-040600Z 00000KT 9999 SCT050 BKN100 10/07 Q1029 RMK PP000=
SPZO Dic2009-040700Z 00000KT 9999 SCT050 BKN100 10/08 Q1028 RMK PP000=
SPZO Dic2009-040800Z 00000KT 9999 FEW036 SCT050 BKN100 10/08 Q1027 RMK PP000=
SPZO Dic2009-040900Z 00000KT 9999 FEW036 SCT050 BKN100 10/08 Q1027 RMK PP000=
SPZO Dic2009-041000Z 00000KT 9999 FEW036 SCT043 09/07 Q1028 RMK PP000=
SPZO Dic2009-041100Z 00000KT 9999 FEW043 SCT100 09/07 Q1029 NOSIG RMK PP000=
SPZO Dic2009-041200Z 00000KT 9999 FEW030 SCT230 12/08 Q1029 NOSIG RMK PP000=
SPZO Dic2009-041300Z 00000KT 9999 FEW030 SCT046 14/08 Q1029 NOSIG RMK PP000=
SPZO Dic2009-041400Z VRB02KT 9999 FEW036 SCT043 BKN050 14/08 Q1029 NOSIG RMK PP000=
SPZO Dic2009-041500Z 00000KT 9999 FEW040 SCT050 16/07 Q1029 NOSIG RMK PP000=
SPZO Dic2009-041600Z 32004KT 250V070 9999 SCT050 SCT230 19/07 Q1028 NOSIG RMK PP000=
SPZO Dic2009-041700Z VRB04KT 9999 SCT050 20/09 Q1027 NOSIG RMK PP000=
SPZO Dic2009-041800Z VRB05KT 9999 SCT050 SCT230 21/08 Q1025 NOSIG RMK PP000=
SPZO Dic2009-041900Z 00000KT 9999 FEW040TCU SCT050 BKN100 22/06 Q1024 TEMPO VCSH RMK PP000=
SPZO Dic2009-042000Z 36008G20KT 280V070 9999 VCTS FEW040CB SCT043TCU BKN230 21/06 Q1023 TEMPO VCSH RMK PP000=
SPZO Dic2009-042100Z 36015KT 320V040 9999 VCTS SCT040CB SCT050 BKN230 18/06 Q1023 NOSIG RMK PP000=
SPZO Dic2009-042200Z 36008G20KT 290V060 9999 VCSH FEW040CB SCT050 BKN230 17/06 Q1024 NOSIG RMK TMAX 22.8 PP000=
SPZO Dic2009-042300Z 28008KT 250V330 9999 SCT050 SCT230 16/06 Q1024 NOSIG RMK PP000=
SPZO Dic2009-050000Z 01006KT 9999 SCT050 15/06 Q1025 RMK PP000=
SPZO Dic2009-050100Z 05004KT 9999 SCT050 SCT100 14/07 Q1027 RMK PP000=
SPZO Dic2009-050200Z 06003KT 9999 SCT043 SCT100 14/07 Q1028 RMK PP000=
SPZO Dic2009-050300Z 32002KT 9999 RA OVC043 12/08 Q1030 RMK PP016=
SPZO Dic2009-050400Z 05002KT 9999 -RA OVC043 10/08 Q1030 RMK PP034=
SPZO Dic2009-050500Z 29004KT 9999 FEW036 OVC043 10/08 Q1029 RMK RERA PP014=
SPZO Dic2009-050600Z 00000KT 9999 FEW036 OVC043 10/08 Q1028 RMK PP000=
SPZO Dic2009-050700Z 05002KT 9999 FEW036 SCT043 SCT100 09/08 Q1027 RMK PP000=
SPZO Dic2009-050800Z 00000KT 9999 FEW036 SCT043 SCT100 10/08 Q1027 RMK PP000=
SPZO Dic2009-050900Z 00000KT 9999 FEW020 SCT043 BKN100 10/08 Q1027 RMK PP000=
SPZO Dic2009-051000Z 00000KT 9999 FEW020 SCT043 BKN100 09/07 Q1027 RMK PP000=
SPZO Dic2009-051100Z 00000KT 8000 FEW020 BKN230 09/07 Q1028 TEMPO 7000 RMK HZ FU PP000=
SPZO Dic2009-051200Z 00000KT 8000 SCT010 SCT040 BKN230 11/08 Q1029 BECMG 9999 RMK HZ FU PP000=
SPZO Dic2009-051300Z 00000KT 9999 FEW030 BKN230 13/08 Q1029 NOSIG RMK PP000=
SPZO Dic2009-051400Z 00000KT 9999 SCT040 17/08 Q1029 NOSIG RMK PP000=
SPZO Dic2009-051500Z 30003KT 250V060 9999 SCT043 19/08 Q1028 NOSIG RMK PP000=
SPZO Dic2009-051600Z VRB02KT 9999 SCT046 SCT050 20/06 Q1027 NOSIG RMK PP000=
SPZO Dic2009-051700Z 27008KT 250V330 9999 FEW043TCU SCT050 19/06 Q1025 TEMPO VCSH RMK PP000=
SPZO Dic2009-051800Z 35007KT 310V040 9999 FEW043TCU SCT050 BKN230 19/07 Q1024 NOSIG RMK PP000=
SPZO Dic2009-051900Z 27017KT 9999 VCSH SCT043CB SCT050 BKN230 17/07 Q1024 NOSIG RMK WIND RWY10 31010KT 240V010 PP000=
SPZO Dic2009-052000Z 27012KT 9999 FEW043TCU SCT050 BKN230 17/06 Q1024 NOSIG RMK PP000=
SPZO Dic2009-052100Z 26009KT 9999 FEW046 BKN230 18/07 Q1024 NOSIG RMK PP000=
SPZO Dic2009-052200Z 28004KT 9999 SCT060 BKN230 18/05 Q1024 NOSIG RMK T MAX 21.4 PP000=
SPZO Dic2009-052300Z 05013KT 9999 FEW046 BKN230 15/07 Q1025 NOSIG RMK PP000=
SPZO Dic2009-060000Z 05008KT 9999 SCT050 14/05 Q1026 RMK PP000=
SPZO Dic2009-060100Z VRB03KT 9999 SCT050 13/06 Q1027 RMK PP000=
SPZO Dic2009-060200Z 27003KT 9999 SCT050 11/07 Q1027 RMK PP000=
SPZO Dic2009-060300Z 00000KT 9999 SCT050 11/07 Q1028 RMK PP000=
SPZO Dic2009-060400Z 00000KT 9999 SCT050 10/06 Q1028 RMK PP000=
SPZO Dic2009-060500Z VRB03KT 9999 SCT050 09/06 Q1027 RMK PP000=
SPZO Dic2009-060600Z 00000KT 9999 SCT050 10/07 Q1027 RMK PP000=
SPZO Dic2009-060700Z 00000KT 9999 BKN050 10/07 Q1027 RMK PP000=
SPZO Dic2009-060800Z 00000KT 9999 BKN050 09/06 Q1026 RMK PP000=
SPZO Dic2009-060900Z 00000KT 9999 SCT050 08/06 Q1027 RMK PP000=
SPZO Dic2009-061000Z 00000KT 9999 SCT050 07/04 Q1027 RMK PP000=
SPZO Dic2009-061100Z 00000KT 9999 FEW050 09/06 Q1028 NOSIG RMK PP000=
SPZO Dic2009-061200Z 00000KT 9000 FEW050 BKN230 12/07 Q1029 BECMG 9999 RMK PP000=
SPZO Dic2009-061300Z VRB02KT 9999 FEW043 BKN230 13/07 Q1029 NOSIG RMK PP000=
SPZO Dic2009-061400Z VRB02KT 9999 FEW050 SCT230 17/08 Q1029 NOSIG RMK PP000=
SPZO Dic2009-061500Z VRB04KT 9999 FEW050 SCT230 18/08 Q1028 NOSIG RMK PP000=
SPZO Dic2009-061600Z 31007KT 250V030 9999 SCT050 19/07 Q1027 NOSIG RMK PP000=
SPZO Dic2009-061700Z VRB04KT 9999 FEW043 SCT050 21/08 Q1026 NOSIG RMK PP000=
SPZO Dic2009-061800Z 31013G26KT 260V020 9999 VCTS FEW030 SCT043CB BKN230 18/08 Q1028 TEMPO -RA RMK WIND RWY10 VRB08G20KT PP000=
SPZO Dic2009-061900Z 34008KT 290V040 9999 -RA SCT043TCU BKN060 15/07 Q1029 NOSIG RMK WIND RWY10 09KT PP000=
SPZO Dic2009-062000Z VRB02KT 9999 FEW043TCU BKN100 17/07 Q1025 NOSIG RMK WIND RWY10 VRB09KT PP000=
SPZO Dic2009-062100Z 06004KT 9999 SCT050 SCT100 18/09 Q1024 NOSIG RMK PP000=
SPZO Dic2009-062200Z 06005KT 010V080 9999 SCT050 SCT230 18/08 Q1024 NOSIG RMK WIND RWY10 11005KT 080V160 T.MAX.22.7 PP000=
SPZO Dic2009-062300Z 04006KT 9999 SCT050 SCT230 16/07 Q1025 NOSIG RMK PP000=
SPZO Dic2009-070000Z 27010KT 9999 -TSRA SCT040CB BKN046 15/05 Q1026 RMK PPTRZ=
SPZO Dic2009-070100Z 05006KT 9999 SCT036 BKN043 12/07 Q1027 RMK PP010=
SPZO Dic2009-070200Z VRB02KT 9999 OVC040 13/08 Q1029 RMK PP000=
SPZO Dic2009-070300Z 28005KT 9999 BKN040 SCT050 13/09 Q1028 RMK PP000=
SPZO Dic2009-070400Z 01003KT 9999 SCT040 SCT080 13/08 Q1028 RMK PP000=
SPZO Dic2009-070500Z 27004KT 9999 SCT036 SCT050 11/07 Q1027 RMK PP000=
SPZO Dic2009-070600Z 00000KT 9999 FEW050 10/07 Q1027 RMK PP000=
SPZO Dic2009-070700Z 00000KT 9999 FEW050 10/07 Q1027 RMK PP000=
SPZO Dic2009-070800Z 00000KT 9999 FEW050 09/07 Q1026 RMK PP000=
SPZO Dic2009-070900Z 00000KT 9999 FEW036 09/06 Q1027 RMK PP000=
SPZO Dic2009-071000Z VRB01KT 9999 FEW036 08/06 Q1028 RMK PP000=
SPZO Dic2009-071100Z 26003KT 9999 FEW060 08/06 Q1029 NOSIG RMK PP000=
SPZO Dic2009-071200Z 00000KT 9999 FEW046 12/07 Q1029 NOSIG RMK PP000=
SPZO Dic2009-071300Z 04004KT 350V070 9999 FEW046 14/07 Q1030 NOSIG RMK PP000=
SPZO Dic2009-071400Z VRB02KT 9999 SCT046 17/07 Q1030 NOSIG RMK PP000=
SPZO Dic2009-071500Z 26004KT 250V360 9999 SCT046 18/08 Q1029 NOSIG RMK=
SPZO Dic2009-071600Z VRB05KT 9999 SCT050 20/07 Q1028 NOSIG RMK PP000=
SPZO Dic2009-071700Z VRB06KT 9999 SCT050 22/07 Q1026 NOOSIG RMK PP000=
SPZO Dic2009-071800Z 26009KT 9999 SCT050 22/08 Q1024 NOSIG RMK PP000=
SPZO Dic2009-071900Z 34006KT 250V060 9999 FEW046TCU SCT050 23/06 Q1023 NOSIG RMK W=
SPZO Dic2009-072000Z 01009KT 300V070 8000 -TSRA VCSH FEW043CB BKN050 15/07 Q1025 N=
SPZO Dic2009-072100Z 31004KT 250V040 9000 -RA VCSH FEW043TCU BKN050 13/07 Q1025 NOSIG RMK PP056=
SPZO Dic2009-072200Z VRB02KT 9000 VCSH FEW043 SCT050 BKN060 14/08 Q1025 TEMPO -RA RMK RERA T MAX 23.7 PPTRZ=
SPZO Dic2009-072300Z 00000KT 9999 VCSH FEW043 BKN060 14/08 Q1026 TEMPO -RA RMK PP000=
SPZO Dic2009-080000Z 00000KT 9999 SCT046 BKN060 13/05 Q1027 RMK PP000=
SPZO Dic2009-080100Z 32006KT 9999 VCSH SCT043 BKN050 12/08 Q1029 RMK PP000=
SPZO Dic2009-080200Z 29002KT 9999 SCT043 BKN050 13/08 Q1029 RMK PP000=
SPZO Dic2009-080300Z 26002KT 9999 SCT043 BKN050 13/07 Q1029 RMK PP000=
SPZO Dic2009-080400Z 06002KT 9999 SCT043 BKN050 12/07 Q1030 RMK PP000=
SPZO Dic2009-080500Z 00000KT 9999 SCT043 BKN050 11/07 Q1029 RMK PP000=
SPZO Dic2009-080600Z 00000KT 9999 SCT043 BKN050 11/07 Q1029 RMK PP000=
SPZO Dic2009-080700Z 00000KT 9999 SCT043 BKN050 12/08 Q1028 RMK PP000=
SPZO Dic2009-080800Z 00000KT 9999 FEW043 SCT100 11/07 Q1028 RMK PP000=
SPZO Dic2009-080900Z 26004KT 9999 FEW043 SCT100 10/06 Q1028 RMK PP000=
SPZO Dic2009-081000Z 31002KT 9999 FEW040 SCT050 09/06 Q1028 RMK PP000=
SPZO Dic2009-081100Z 00000KT 9999 SCT040 OVC230 09/06 Q1029 NOSIG RMK PP000=
SPZO Dic2009-081200Z 00000KT 9999 FEW040 OVC230 10/07 Q1030 NOSIG RMK PP000=
SPZO Dic2009-081300Z 00000KT 9999 FEW040 SCT100 BKN230 11/07 Q1031 NOSIG RMK PP000=
SPZO Dic2009-081400Z 00000KT 9999 FEW036 SCT100 BKN230 13/07 Q1031 NOSIG RMK PP000=
SPZO Dic2009-081500Z 00000KT 9999 FEW036 SCT100 BKN230 14/06 Q1030 NOSIG RMK PP000=
SPZO Dic2009-081600Z 00000KT 9999 FEW043 OVC230 15/06 Q1029 NOSIG RMK PP000=
SPZO Dic2009-081700Z 00000KT 9999 FEW040TCU SCT050 BKN230 18/05 Q1028 NOSIG RMK PP000=
SPZO Dic2009-081800Z 05008KT 9999 VCSH FEW040TCU SCT050 BKN100 17/06 Q1027 NOSIG RMK PP000=
SPZO Dic2009-081900Z 34005G15KT 250V070 9999 FEW050 SCT100 BKN230 17/07 Q1026 NOSIG RMK PP000=
SPZO Dic2009-082000Z 33009KT 290V030 9999 SCT040 SCT230 19/05 Q1025 NOSIG RMK PP000=
SPZO Dic2009-082200Z 29008KT 260V340 9999 BKN050 16/07 Q1025 NOSIG TMAX 19/0 RMK PP000=
SPZO Dic2009-082300Z 27012KT 9999 BKN050 15/07 Q1026 NOSIG RMK PP000=
SPZO Dic2009-090000Z 28012KT 9999 VCSH OVC046 13/06 Q1028 RMK PP000=
SPZO Dic2009-090100Z 00000KT 9999 -RA OVC046 11/08 Q1029 RMK PP006=
SPZO Dic2009-090200Z 00000KT 9999 OVC046 12/07 Q1031 RMK PP000=
SPZO Dic2009-090300Z 00000KT 9999 DZ OVC046 10/07 Q1032 RMK PP002=
SPZO Dic2009-090400Z 00000KT 9999 RA OVC046 09/07 Q1032 RMK PP042=
SPZO Dic2009-090500Z 00000KT 9999 RA FEW040 OVC046 09/07 Q1031 RMK PP052=
SPZO Dic2009-090600Z 00000KT 9999 FEW040 OVC046 09/06 Q1030 RMK PP016=
SPZO Dic2009-090700Z 26004KT 9999 FEW040 OVC046 09/06 Q1030 RMK PP000=
SPZO Dic2009-090800Z 00000KT 9999 FEW040 OVC046 09/07 Q1029 RMK PP000=
SPZO Dic2009-090900Z 00000KT 9999 FEW040 OVC046 08/06 Q1029 RMK PP000=
SPZO Dic2009-091000Z 00000KT 9999 SCT043 08/06 Q1029 RMK PP000=
SPZO Dic2009-091100Z 00000KT 9000 FEW025 08/06 Q1030 BECMG 9999 RMK PP000=
SPZO Dic2009-091200Z 00000KT 9000 FEW025 12/07 Q1030 BECMG 9999 RMK PP000=
SPZO Dic2009-091300Z 05003KT 350V070 9999 FEW025 13/06 Q1030 NOSIG RMK PP000=
SPZO Dic2009-091400Z VRB03KT 9999 FEW030 15/08 Q1031 NOSIG RMK PP000=
SPZO Dic2009-091500Z VRB02KT 9999 FEW025 SCT043 BKN080 16/06 Q1030 NOSIG RMK PP000=
SPZO Dic2009-091600Z VRB02KT 9999 FEW040TCU SCT046 BKN050 18/07 Q1029 TEMPO VCSH RMK PP000=
SPZO Dic2009-091700Z 27008KT 250V310 9999 VCSH FEW036TCU SCT040 BKN050 18/08 Q1028 NOSIG RMK PP000=
SPZO Dic2009-091800Z 26013KT 9999 VCSH FEW043TCU BKN050 16/07 Q1027 NOSIG RMK PP000=
SPZO Dic2009-091900Z 27010KT 250V350 9999 FEW043 SCT050 19/08 Q1026 NOSIG RMK PP000=
SPZO Dic2009-092000Z 30010KT 270V350 9999 FEW043 SCT050 19/06 Q1025 NOSIG RMK PP000=
SPZO Dic2009-092100Z 01007KT 320V060 9999 FEW043 SCT050 18/07 Q1024 NOSIG RMK PP000=
SPZO Dic2009-092200Z 34004KT 9999 VCSH SCT046 17/06 Q1024 NOSIG RMK TMAX 20.10 PP000=
SPZO Dic2009-092300Z 30008KT 270V350 9999 -RA FEW043TCU BKN046 14/08 Q1025 NOSIG RMK PPTRZ=
SPZO Dic2009-100000Z 28004KT 250V320 9999 BKN050 13/08 Q1027 RERA RMK PP012=
SPZO Dic2009-100100Z 00000KT 9999 SCT050 11/09 Q1028 RMK PP000=
SPZO Dic2009-100200Z 26004KT 9999 SCT050 10/08 Q1029 RMK PP000=
SPZO Dic2009-100300Z 00000KT 9999 BKN050 12/09 Q1030 RMK PP000=
SPZO Dic2009-100400Z 00000KT 8000 -RA FEW040 BKN050 11/09 Q1029 RMK PP002=
SPZO Dic2009-100500Z 00000KT 9000 OVC050 12/09 Q1029 RERA RMK PP002=
SPZO Dic2009-100600Z 00000KT 8000 -RA FEW030 OVC050 12/09 Q1028 RMK PP002=
SPZO Dic2009-100700Z 04004KT 5000 +RA FEW020TCU SCT030 OVC050 10/07 Q1029 RMK PP050=
SPZO Dic2009-100800Z 00000KT 5000 RA FEW020TCU SCT030 OVC050 09/07 Q1029 RMK PP010=
SPZO Dic2009-100900Z 00000KT 7000 -RA FEW020 SCT030 OVC050 09/07 Q1029 RMK PP004=
SPZO Dic2009-101000Z 00000KT 8000 SCT020 SCT050 BKN060 09/07 Q1030 RMK RERA PPTRZ=
SPZO Dic2009-101100Z 00000KT 9999 FEW020 SCT050 BKN070 09/06 Q1030 NOSIG RMK PP000=
SPZO Dic2009-101200Z VRB02KT 9999 FEW025 BKN100 10/07 Q1031 NOSIG RMK PP000=
SPZO Dic2009-101300Z 06005KT 010V070 9999 FEW025 SCT043 BKN100 12/07 Q1032 NOSIG RMK PP000=
SPZO Dic2009-101400Z 04006KT 350V070 9999 FEW030 SCT046 BKN100 13/05 Q1032 NOSIG RMK PP000=
SPZO Dic2009-101500Z 05009KT 360V070 9999 FEW036 SCT050 15/06 Q1031 NOSIG RMK PP000=
SPZO Dic2009-101600Z 04005KT 270V050 9999 FEW043TCU SCT050 17/07 Q1029 NOSIG RMK PP000=
SPZO Dic2009-101700Z 26014KT 9999 VCSH FEW040CB SCT043 BKN100 14/08 Q1030 TEMPO -RA RMK PP000=
SPZO Dic2009-101800Z 06005KT 9999 -RA VCSH FEW036 SCT043 BKN080 14/07 Q1030 BECMG NSW RMK PP004=
SPZO Dic2009-101900Z 02007KT 340V060 9999 VCSH FEW040 BKN080 15/07 Q1029 NOSIG RMK RERA PP000=
SPZO Dic2009-102000Z 05009KT 020V070 9999 FEW040 BKN080 14/08 Q1024 NOSIG RMK WIND RWY10 10008KT PP000=
SPZO Dic2009-102100Z 34004KT 250V060 9999 FEW043 OVC100 14/05 Q1027 TEMPO=
SPZO Dic2009-102200Z 26009KT 9999 SCT043 OVC230 15/07 Q1027 NOSIG RMK T MAX 17.9 PP000=
SPZO Dic2009-102300Z 26007KT 9999 SCT050 BKN230 13/06 Q1028 NOSIG RMK PP000=
SPZO Dic2009-110000Z 00000KT 9999 BKN043 SCT100 12/07 Q1029 RMK PP000=
SPZO Dic2009-110100Z 00000KT 9999 SCT043 SCT080 12/07 Q1030 RMK PP000=
SPZO Dic2009-110200Z 00000KT 9999 BKN040 SCT050 13/07 Q1032 RMK PP000=
SPZO Dic2009-110300Z 26011KT 9999 BKN040 SCT046 11/06 Q1033 RMK PP000=
SPZO Dic2009-110400Z 26006KT 9999 -RA OVC040 10/06 Q1033 RMK PP012=
SPZO Dic2009-110500Z 00000KT 9000 RA OVC040 10/06 Q1033 RMK PP014=
SPZO Dic2009-110600Z 00000KT 9999 SCT036 BKN043 09/06 Q1031 RMK PP002=
SPZO Dic2009-110700Z 00000KT 9999 SCT036 BKN043 09/06 Q1030 RMK PP000=
SPZO Dic2009-110800Z 00000KT 9999 BKN040 SCT080 09/06 Q1029 RMK PP000=
SPZO Dic2009-110900Z 00000KT 9999 SCT036 BKN043 09/06 Q1028 RMK PP000=
SPZO Dic2009-111000Z 00000KT 9999 FEW030 SCT043 BKN080 08/06 Q1030 RMK PP000=
SPZO Dic2009-111100Z 00000KT 9999 FEW036 SCT050 08/06 Q1030 NOSIG RMK PP000=
SPZO Dic2009-111200Z 00000KT 9999 SCT036 SCT050 09/06 Q1031 NOSIG RMK PP000=
SPZO Dic2009-111300Z 00000KT 9999 FEW025 SCT040 BKN080 11/06 Q1032 NOSIG RMK PP000=
SPZO Dic2009-111400Z 00000KT 9999 FEW030 SCT046 BKN230 14/06 Q1032 NOSIG RMK PP000=
SPZO Dic2009-111500Z 00000KT 9999 SCT043 SCT080 15/05 Q1031 NOSIG RMK PP000=
SPZO Dic2009-111600Z 05005KT 350V070 9999 SCT040 SCT080 17/05 Q1030 NOSIG RMK PP000=
SPZO Dic2009-111700Z VRB05KT 9999 SCT050 BKN230 18/05 Q1029 NOSIG RMK PP000=
SPZO Dic2009-111800Z VRB03KT 9999 SCT050 BKN150 20/03 Q1028 NOSIG RMK PP000=
SPZO Dic2009-111900Z 00000KT 9999 SCT050 BKN150 20/02 Q1026 NOSIG RMK PP000=
SPZO Dic2009-112000Z 00000KT 9999 SCT050 BKN100 21/04 Q1025 TEMPO VCSH RMK PP000=
SPZO Dic2009-112100Z VRB02KT 9999 FEW040TCU OVC100 19/07 Q1026 TEMPO=
SPZO Dic2009-112200Z 03009KT 360V070 9999 FEW040 OVC100 15/06 Q1027 NOSIG RMK TMAX 21.3 PP000=
SPZO Dic2009-112300Z 05002KT 9999 FEW050 BKN100 15/06 Q1027 NOSIG RMK PP000=
SPZO Dic2009-120000Z 00000KT 9999 SCT046 OVC100 14/06 Q1028 RMK PP000=
SPZO Dic2009-120100Z 00000KT 9999 SCT046 OVC100 13/07 Q1029 RMK PP000=
SPZO Dic2009-120200Z 05004KT 9999 SCT100 12/07 Q1030 RMK PP000=
SPZO Dic2009-120300Z 00000KT 9999 FEW050 SCT100 12/07 Q1031 RMK PP000=
SPZO Dic2009-120400Z 00000KT 9999 FEW050 SCT100 12/07 Q1031 RMK PP000=
SPZO Dic2009-120500Z 00000KT 9999 FEW050 SCT100 12/07 Q1030 RMK PP000=
SPZO Dic2009-120600Z 00000KT 9999 FEW050 SCT100 11/07 Q1029 RMK PP000=
SPZO Dic2009-120700Z 00000KT 9999 SCT050 11/07 Q1029 RMK PP000=
SPZO Dic2009-120800Z 00000KT 9999 FEW043 09/06 Q1029 RMK PP000=
SPZO Dic2009-120900Z 00000KT 9999 FEW043 09/06 Q1029 RMK PP000=
SPZO Dic2009-121000Z 00000KT 9999 FEW043 SCT080 08/06 Q1030 RMK PP000=
SPZO Dic2009-121100Z 00000KT 9999 FEW036 09/06 Q1030 BECMG FM1200 9999 RMK PP000=
SPZO Dic2009-121200Z 00000KT 9999 FEW033 12/07 Q1031 NOSIG RMK PP000=
SPZO Dic2009-121300Z 00000KT 9999 FEW036 14/06 Q1031 NOSIG RMK PP000=
SPZO Dic2009-121400Z VRB02KT 9999 SCT050 16/05 Q1031 NOSIG RMK PP000=
SPZO Dic2009-121500Z VRB02KT 9999 SCT050 18/05 Q1030 NOSIG RMK PP000=
SPZO Dic2009-121600Z VRB03KT 9999 SCT050 20/06 Q1029 NOSIG RMK PP000=
SPZO Dic2009-121700Z 30005KT 260V050 9999 FEW043 SCT050 21/04 Q1028 NOSIG RMK PP000=
SPZO Dic2009-121800Z 36007KT 260V070 9999 VCSH SCT046 BKN230 21/03 Q1027 NOSIG RMK PP000=
SPZO Dic2009-121900Z 05011KT 9999 SCT046 FEW050TCU 20/06 Q1026 NOSIG RMK PP000=
SPZO Dic2009-122000Z 06007KT 360V070 9999 FEW040 SCT050 BKN230 21/04 Q1025 NOSIG RMK PP000=
SPZO Dic2009-122100Z 02008KT 320V070 9999 FEW043 SCT050 BKN230 19/04 Q1025 NOSIG RMK PP000=
SPZO Dic2009-122200Z 36004KT 290V060 9999 SCT050 SCT230 19/04 Q1025 NOSIG RMK T MAX 22.4 PP000=
SPZO Dic2009-122300Z 01007KT 330V050 9999 SCT050 SCT230 18/05 Q1026 NOSIG RMK PP000=
SPZO Dic2009-130000Z 00000KT 9999 FEW050 SCT230 16/05 Q1027 RMK PP000=
SPZO Dic2009-130100Z 00000KT 9999 SCT230 14/06 Q1028 RMK PP000=
SPZO Dic2009-130200Z 35002KT 9999 SCT230 14/07 Q1029 RMK PP000=
SPZO Dic2009-130300Z 00000KT 9999 SCT230 12/07 Q1030 RMK PP000=
SPZO Dic2009-130400Z 00000KT 9999 SCT230 12/07 Q1030 RMK PP000=
SPZO Dic2009-130500Z 00000KT 9999 SCT050 11/07 Q1030 RMK PP000=
SPZO Dic2009-130600Z 00000KT 9999 SCT050 12/07 Q1029 RMK PP000=
SPZO Dic2009-130700Z 06002KT 9999 SCT050 SCT100 11/07 Q1029 RMK PP000=
SPZO Dic2009-130800Z 00000KT 9999 SCT050 BKN100 12/07 Q1029 RMK PP000=
SPZO Dic2009-130900Z 00000KT 9999 SCT050 BKN100 11/07 Q1029 RMK PP000=
SPZO Dic2009-131000Z 26003KT 9999 FEW036 SCT043 BKN080 10/07 Q1030 RMK PP000=
SPZO Dic2009-131100Z 00000KT 9999 SCT043 SCT080 BKN100 11/07 Q1030 NOSIG RMK PP000=
SPZO Dic2009-131200Z 00000KT 9999 FEW030 SCT043 BKN080 11/08 Q1031 NOSIG RMK PP000=
SPZO Dic2009-131300Z 00000KT 9999 FEW040 SCT060 BKN080 12/07 Q1032 NOSIG RMK PP000=
SPZO Dic2009-131400Z 05003KT 350V070 9999 FEW036 SCT060 BKN100 13/07 Q1032 NOSIG RMK PP000=
SPZO Dic2009-131500Z 00000KT 9999 FEW036 SCT060 OVC100 14/06 Q1032 NOSIG RMK PP000=
SPZO Dic2009-131600Z 03004KT 330V070 9999 SCT046 SCT100 BKN230 16/06 Q1030 NOSIG RMK PP000=
SPZO Dic2009-131700Z VRB03KT 9999 SCT046 BKN230 17/05 Q1029 NOSIG RMK PP000=
SPZO Dic2009-131800Z 00000KT 9999 SCT046 BKN230 19/06 Q1028 NOSIG RMK PP000=
SPZO Dic2009-131900Z VRB03KT 9999 SCT046 BKN230 19/06 Q1026 NOSIG RMK PP000=
SPZO Dic2009-132000Z 28008KT 260V030 9999 FEW040 SCT050 BKN230 20/06 Q1025 NOSIG RMK PP000=
SPZO Dic2009-132100Z 27012KT 9999 FEW043TCU SCT050 BKN230 18/06 Q1025 NOSIG RMK PP000=
SPZO Dic2009-132200Z 27012KT 9999 FEW043TCU SCT050 BKN230 19/06 Q1025 NOSIG RMK T.MAX 20.4 PP000=
SPZO Dic2009-132300Z VRB03KT 8000 -TSRA VCSH FEW036 SCT043CB BKN046 12/06 Q1029 NOSIG RMK PP034=
SPZO Dic2009-140000Z 04003KT 7000 -DZ FEW030 BKN040 09/06 Q1032 RMK PP002=
SPZO Dic2009-140100Z 06006KT 6000 -RA FEW030TCU BKN050 09/06 Q1032 RMK PP020=
SPZO Dic2009-140200Z 04003KT 7000 -DZ FEW030 BKN040 09/06 Q1032 RMK PP002=
SPZO Dic2009-140300Z 06005KT 9000 OVC040 09/06 Q1032 RMK REDZ PP002=
SPZO Dic2009-140400Z 00000KT 9999 OVC040 08/06 Q1030 RMK PP000=
SPZO Dic2009-140500Z 00000KT 9999 OVC050 08/05 Q1030 RMK PP000=
SPZO Dic2009-140600Z 05003KT 9999 OVC050 08/05 Q1029 RMK PP000=
SPZO Dic2009-140700Z 00000KT 9999 BKN050 07/05 Q1028 RMK PP000=
SPZO Dic2009-140800Z 00000KT 9999 BKN050 07/05 Q1028 RMK PP000=
SPZO Dic2009-140900Z 00000KT 9999 FEW015 SCT040 BKN050 07/05 Q1028 RMK PP000=
SPZO Dic2009-141000Z 00000KT 9999 FEW015 SCT040 BKN050 07/05 Q1028 RMK PP000=
SPZO Dic2009-141100Z 00000KT 8000 FEW010 SCT030 OVC040 07/05 Q1029 BECMG=
SPZO Dic2009-141200Z 00000KT 9999 FEW010 SCT030 BKN043 08/05 Q1030 BECMG FM1300 SCT036 BKN046 RMK CLNG BLW 1200M PP000=
SPZO Dic2009-141300Z 00000KT 9999 SCT008 SCT025 BKN040 09/06 Q1031 BECMG FM1330 SCT036 BKN043 RMK CLNG BLW 1200M PP000=
SPZO Dic2009-141400Z 00000KT 9999 FEW030 SCT050 10/06 Q1031 NOSIG RMK PP000=
SPZO Dic2009-141500Z 00000KT 9999 FEW036 14/07 Q1030 NOSIG RMK PP000=
SPZO Dic2009-141600Z VRB02KT 9999 FEW043 17/08 Q1028 NOSIG RMK PP000=
SPZO Dic2009-141700Z 02003KT 280V070 9999 FEW050 19/07 Q1027 NOSIG RMK PP000=
SPZO Dic2009-141800Z 28005KT 250V010 9999 SCT050 22/06 Q1026 NOSIG RMK=
SPZO Dic2009-141900Z 05005KT 260V080 9999 SCT050 22/04 Q1024 NOSIG RMK PP000=
SPZO Dic2009-142000Z 01011KT 320V050 9999 SCT043TCU 23/03 Q1024 TEMPO=
SPZO Dic2009-142100Z 35007KT 270V060 9999 FEW050 SCT080 21/M00 Q1023 NOSIG RMK PP000=
SPZO Dic2009-142200Z 02008KT 330V060 9999 FEW050 21/M02 Q1024 NOSIG RMK=
SPZO Dic2009-142300Z 35012KT 300V050 9999 FEW050 SCT230 19/M03 Q1024 NOSIG RMK WIND RWY10 VRB09KT PP000=
SPZO Dic2009-150000Z 36008KT 310V040 9999 FEW050 17/M03 Q1026 RMK PP000=
SPZO Dic2009-150100Z 00000KT 9999 FEW050 SCT080 16/00 Q1027 RMK PP000=
SPZO Dic2009-150200Z 00000KT 9999 FEW060 14/03 Q1028 RMK PP000=
SPZO Dic2009-150300Z 00000KT 9999 FEW050 12/04 Q1029 RMK PP000=
SPZO Dic2009-150400Z 00000KT 9999 SKC 10/05 Q1029 RMK PP000=
SPZO Dic2009-150500Z 00000KT 9999 SKC 09/05 Q1029 RMK PP000=
SPZO Dic2009-150600Z 00000KT 9999 SKC 08/03 Q1029 RMK PP000=
SPZO Dic2009-150700Z 00000KT 9999 SKC 08/03 Q1029 RMK PP000=
SPZO Dic2009-150800Z 00000KT 9999 SKC 07/03 Q1029 RMK PP000=
SPZO Dic2009-150900Z 00000KT 9999 SKC 06/03 Q1028 RMK PP000=
SPZO Dic2009-151000Z 00000KT 9999 SKC 06/03 Q1029 RMK PP000=
SPZO Dic2009-151100Z 00000KT 9999 SKC 06/03 Q1030 NOSIG RMK PP000=
SPZO Dic2009-151200Z 00000KT 9999 SKC 11/04 Q1030 NOSIG RMK PP000=
SPZO Dic2009-151300Z 00000KT 9999 SKC 14/03 Q1031 NOSIG RMK PP000=
SPZO Dic2009-151400Z 03002KT 9999 SKC 15/03 Q1030 NOSIG RMK PP000=
SPZO Dic2009-151500Z 28003KT 250V060 9999 SKC 18/04 Q1030 NOSIG RMK PP000=
SPZO Dic2009-151600Z 01004KT 270V070 9999 SKC 19/01 Q1029 NOSIG RMK PP000=
SPZO Dic2009-151700Z 29005KT 250V340 9999 FEW060 20/M01 Q1028 NOSIG RMK PP000=
SPZO Dic2009-151800Z 31004KT 250V340 9999 FEW060 21/M02 Q1027 NOSIG RMK PP000=
SPZO Dic2009-151900Z VRB05KT 9999 FEW060 22/M01 Q1026 NOSIG RMK PP000=
SPZO Dic2009-152000Z 33005KT 250V030 9999 FEW060 22/M01 Q1024 NOSIG RMK PP000=
SPZO Dic2009-152100Z 01008KT 330V060 9999 FEW060 22/02 Q1024 NOSIG RMK PP000=
SPZO Dic2009-152200Z 36013KT 320V050 9999 FEW060 20/01 Q1024 NOSIG RMK TMAX 22.9 PP000=
SPZO Dic2009-152300Z 35012KT 320V050 9999 FEW060 18/01 Q1024 NOSIG RMK PP000=
SPZO Dic2009-160000Z 12004KT 9999 SKC 15/01 Q1027 RMK PP000=
SPZO Dic2009-160100Z 00000KT 9999 SKC 14/03 Q1028 RMK PP000=
SPZO Dic2009-160200Z 02003KT 9999 SKC 12/03 Q1029 RMK PP000=
SPZO Dic2009-160300Z 00000KT 9999 SKC 11/04 Q1030 RMK PP000=
SPZO Dic2009-160400Z 00000KT 9999 SKC 09/04 Q1031 RMK PP000=
SPZO Dic2009-160500Z 00000KT 9999 SKC 09/04 Q1030 RMK PP000=
SPZO Dic2009-160600Z 00000KT 9999 SKC 10/04 Q1030 RMK PP000=
SPZO Dic2009-160700Z 00000KT 9999 SKC 09/04 Q1030 RMK PP000=
SPZO Dic2009-160800Z 00000KT 9999 SKC 09/04 Q1029 RMK PP000=
SPZO Dic2009-160900Z 00000KT 9999 SKC 07/04 Q1030 RMK PP000=
SPZO Dic2009-161000Z 00000KT 9999 FEW036 SCT100 07/04 Q1030 RMK PP000=
SPZO Dic2009-161100Z 00000KT 9999 FEW036 SCT100 08/05 Q1031 NOSIG RMK PP000=
SPZO Dic2009-161200Z 00000KT 9999 FEW043 SCT230 11/05 Q1031 NOSIG RMK PP000=
SPZO Dic2009-161300Z VRB02KT 9999 FEW046 SCT230 14/05 Q1031 NOSIG RMK PP000=
SPZO Dic2009-161400Z 00000KT 9999 FEW050 SCT230 16/05 Q1031 NOSIG RMK PP000=
SPZO Dic2009-161500Z VRB02KT 9999 SCT050 18/05 Q1030 NOSIG RMK PP000=
SPZO Dic2009-161600Z VRB03KT 9999 FEW043 SCT050 19/04 Q1029 NOSIG RMK PP000=
SPZO Dic2009-161700Z 01005KT 300V060 9999 FEW043 SCT050 21/04 Q1028 NOSIG RMK PP000=
SPZO Dic2009-161800Z VRB02KT 9999 FEW040TCU SCT050 21/03 Q1026 NOSIG RMK PP000=
SPZO Dic2009-161900Z 31006KT 250V010 9999 VCSH FEW040TCU BKN050 20/01 Q1025 NOSIG RMK PP000=
SPZO Dic2009-162000Z 27013KT 9999 VCSH FEW040TCU BKN060 18/07 Q1025 NOSIG RMK PP000=
SPZO Dic2009-162100Z 26007KT 9999 FEW040TCU BKN060 20/05 Q1024 PP000 TEMPO VCSH RMK PP000=
SPZO Dic2009-162200Z 00000KT 9999 FEW040TCU BKN060 19/06 Q1024 TEMPO=
SPZO Dic2009-162300Z 04008KT 9999 -TSRA VCSH FEW040CB BKN050 17/07 Q1026 NOSIG RMK PP000=
SPZO Dic2009-170000Z 25007KT 9999 -DZ OVC040 14/08 Q1027 RMK PP002=
SPZO Dic2009-170100Z 27004KT 9999 BKN046 13/09 Q1028 RMK PP000=
SPZO Dic2009-170200Z 00000KT 9999 SCT050 14/09 Q1029 RMK PP000=
SPZO Dic2009-170300Z 00000KT 9999 SCT050 13/08 Q1029 RMK PP000=
SPZO Dic2009-170400Z 00000KT 9999 SCT050 13/08 Q1030 RMK PP000=
SPZO Dic2009-170500Z 00000KT 9999 SCT050 SCT100 13/07 Q1030 RMK PP000=
SPZO Dic2009-170600Z 26009KT 9999 BKN043 SCT100 12/07 Q1029 RMK PP000=
SPZO Dic2009-170700Z 27007KT 9999 BKN043 11/06 Q1029 RMK PP000=
SPZO Dic2009-170800Z 26005KT 9999 BKN043 11/06 Q1028 RMK PP000=
SPZO Dic2009-170900Z 00000KT 9999 SCT046 19/06 Q1028 RMK PP000=
SPZO Dic2009-171000Z 00000KT 9999 FEW040 09/05 Q1028 RMK PP000=
SPZO Dic2009-171100Z 00000KT 9999 FEW050 09/06 Q1029 NOSIG RMK PP000=
SPZO Dic2009-171200Z 00000KT 9999 FEW050 SCT230 12/06 Q1030 NOSIG RMK PP000=
SPZO Dic2009-171300Z 00000KT 9999 FEW050 SCT230 15/07 Q1030 NOSIG RMK PP000=
SPZO Dic2009-171400Z 00000KT 9999 FEW050 BKN230 17/05 Q1030 NOSIG RMK PP000=
SPZO Dic2009-171500Z 05004KT 290V070 9999 SCT050 BKN230 17/04 Q1029 NOSIG RMK PP000=
SPZO Dic2009-171600Z 05004KT 350V070 9999 SCT050 BKN230 18/04 Q1028 NOSIG RMK PP000=
SPZO Dic2009-171700Z VRB03KT 9999 SCT050 SCT230 19/05 Q1027 NOSIG RMK PP000=
SPZO Dic2009-171800Z 01007KT 290V070 9999 SCT043TCU BKN080 19/05 Q1026 TEMPO VCSH RMK PP000=
SPZO Dic2009-171900Z 36004KT 290V060 9999 FEW046TCU BKN230 20/05 Q1025 NOSIG RMK WIND RWY10 VRB07KT PP000=
SPZO Dic2009-172000Z 01012KT 330V040 9999 SCT046TCU BKN230 18/04 Q1024 NOSIG RMK WIND RWY10 VRB10KT PP000=
SPZO Dic2009-172100Z 02010KT 330V060 9999 FEW043TCU SCT050 BKN230 17/04 Q1024 NOSIG RMK PP000=
SPZO Dic2009-172200Z 03003KT 280V070 9999 FEW043TCU BKN230 17/04 Q1025 NOSIG RMK T MAX 20.5 PP000=
SPZO Dic2009-172300Z 03005KT 290V060 9999 FEW050 SCT100 BKN230 16/05 Q1025 NOSIG RMK PP000=
SPZO Dic2009-180000Z 04005KT 340V070 9999 SCT050 SCT100 14/04 Q1027 RMK PP000=
SPZO Dic2009-180100Z 03004KT 320V070 9999 BKN050 SCT100 14/04 Q1028 RMK PP000=
SPZO Dic2009-180200Z VRB03KT 9999 BKN050 SCT100 13/04 Q1029 RMK PP000=
SPZO Dic2009-180300Z VRB03KT 9999 BKN050 SCT100 13/04 Q1030 RMK PP000=
SPZO Dic2009-180400Z 28008KT 9999 BKN050 SCT100 12/05 Q1030 RMK PP000=
SPZO Dic2009-180500Z 28008KT 9999 BKN050 SCT100 11/05 Q1030 RMK PP000=
SPZO Dic2009-180600Z 26008KT 8000 -RA FEW040 SCT050 BKN060 09/05 Q1030 RMK PP004=
SPZO Dic2009-180700Z 26006KT 8000 -RA FEW040 SCT050 BKN060 09/06 Q1030 RMK PP016=
SPZO Dic2009-180800Z VRB03KT 8000 -RA FEW040 SCT050 BKN060 09/05 Q1029 RMK PP006=
SPZO Dic2009-180900Z 00000KT 8000 FEW030 SCT050 BKN060 09/05 Q1029 RERA RMK PPTRZ=
SPZO Dic2009-181000Z 00000KT 9000 FEW030 SCT050 BKN070 09/06 Q1030 RMK HZ PP000=
SPZO Dic2009-181100Z 00000KT 9999 FEW050 SCT080 BKN230 09/06 Q1031 NOSIG RMK PP000=
SPZO Dic2009-181200Z 00000KT 9999 VCSH FEW025 SCT050 BKN230 10/07 Q1031 NOSIG RMK PP000=
SPZO Dic2009-181300Z 00000KT 9999 VCSH SCT020 SCT060 BKN230 11/06 Q1032 NOSIG RMK PP000=
SPZO Dic2009-181400Z 05005KT 010V070 9999 SCT030 SCT050 BKN100 12/06 Q1032 NOSIG RMK PP000=
SPZO Dic2009-181500Z VRB02KT 9999 VCSH FEW036 SCT046 BKN100 13/07 Q1032 NOSIG RMK PP000=
SPZO Dic2009-181600Z 03003KT 290V070 9999 FEW036 SCT050 BKN100 15/05 Q1031 NOSIG RMK PP000=
SPZO Dic2009-181700Z VRB02KT 9999 SCT050 SCT230 17/03 Q1029 NSOIG RMK PP000=
SPZO Dic2009-181800Z 00000KT 9999 SCT050 SCT230 19/08 Q1028 NOSIG RMK=
SPZO Dic2009-181900Z 06011KT 9999 VCSH SCT046TCU BKN060 17/05 Q1026 NOSIG RMK WIND RWY10 VRB07KT PP000=
SPZO Dic2009-182000Z 06008KT 320V070 9999 SCT050 BKN100 17/05 Q1026 NOSIG RMK=
SPZO Dic2009-182100Z 06003KT 360V070 9999 FEW043TCU SCT050 BKN100 18/04 Q1025 TEMPO VCSH RMK WIND RWY10 VRB05KT PP000=
SPZO Dic2009-182300Z 02007KT 330V070 9999 SCT046 SCT100 16/05 Q1026 NOSIG RMK PP000=
SPZO Dic2009-190000Z 36005KT 310V060 9999 SCT040 SCT050 15/05 Q1027 RMK PP000=
SPZO Dic2009-190100Z VRB02KT 9999 SCT060 14/05 Q1029 RMK PP000=
SPZO Dic2009-190200Z 06003KT 9999 SCT050 12/06 Q1030 RMK PP000=
SPZO Dic2009-190300Z 00000KT 9999 FEW050 12/06 Q1030 RMK PP000=
SPZO Dic2009-190400Z 00000KT 9999 FEW050 SCT100 11/06 Q1031 RMK PP000=
SPZO Dic2009-190500Z 00000KT 9999 SCT050 12/06 Q1030 RMK PP000=
SPZO Dic2009-190600Z 00000KT 9999 SCT040 SCT050 12/06 Q1030 RMK PP000=
SPZO Dic2009-190700Z 04006KT 9999 BKN040 SCT050 11/06 Q1029 RMK PP000=
SPZO Dic2009-190800Z 00000KT 9999 SCT036 BKN043 11/06 Q1029 RMK PP000=
SPZO Dic2009-190900Z 00000KT 9999 SCT036 BKN046 11/06 Q1029 RMK PP000=
SPZO Dic2009-191000Z 27007KT 9000 -RA SCT020 SCT033 BKN040 10/07 Q1030 RMK CLNG BLW 1200M PP006=
SPZO Dic2009-191100Z 28005KT 6000 -RA SCT010 SCT030 BKN040 09/06 Q1031 NOSIG RMK CLNG BLW 1200M PP016=
SPZO Dic2009-191200Z 26007KT 9000 -RA FEW015 SCT030 BKN040 09/06 Q1032 BECMG FM1300 SCT036 BKN046 RMK CLNG BLW 1200M PP008=
SPZO Dic2009-191300Z 00000KT 9999 VCSH FEW025 SCT036 BKN046 10/06 Q1033 NOSIG RMK PPTRZ=
SPZO Dic2009-191400Z 00000KT 9999 VCSH FEW025 SCT036 BKN046 12/07 Q1033 NOSIG RMK PP000=
SPZO Dic2009-191500Z 00000KT 9999 VCSH FEW025 SCT036 BKN050 13/07 Q1033 NOSIG RMK PP000=
SPZO Dic2009-191600Z VRB02KT 9999 VCSH FEW025 SCT036 BKN050 14/07 Q1032 NOSIG RMK PP000=
SPZO Dic2009-191700Z VRB04KT 9999 VCSH FEW025 SCT046 BKN060 15/07 Q1031 NOSIG RMK PP000=
SPZO Dic2009-191800Z 27008KT 250V320 9999 VCSH FEW033TCU SCT040 BKN050 15/07 Q1030 TEMPO 8000 RMK PP000=
SPZO Dic2009-191900Z 28009KT 250V320 9999 VCSH FEW033TCU SCT043 BKN050 15/09 Q1029 TEMPO -RA RMK PP000=
SPZO Dic2009-192000Z 27011KT 7000 -RA VCSH FEW033TCU SCT043 BKN050 13/06 Q1029 NOSIG RMK PP004=
SPZO Dic2009-192100Z 00000KT 9000 -RA VCSH FEW030TCU SCT040 BKN050 12/09 Q1029 NOSIG RMK PP004=
SPZO Dic2009-192200Z VRB02KT 9000 -RA FEW033 SCT040 BKN050 12/08 Q1029 NOSIG RMK TMAX 16.9 PP006=
SPZO Dic2009-192300Z 00000KT 9999 SCT040 BKN050 12/08 Q1029 NOSIG RMK RERA PP002=
SPZO Dic2009-200000Z 00000KT 9999 SCT040 BKN100 12/08 Q1030 RMK PP000=
SPZO Dic2009-200100Z 00000KT 9999 FEW050 SCT100 11/08 Q1030 RMK PP000=
SPZO Dic2009-200200Z 00000KT 9999 FEW050 SCT100 10/08 Q1031 RMK PP000=
SPZO Dic2009-200300Z 00000KT 9999 SCT046 BKN100 09/07 Q1032 RMK PP000=
SPZO Dic2009-200400Z 00000KT 9999 SCT043 BKN100 10/08 Q1032 RMK PP000=
SPZO Dic2009-200500Z 00000KT 9999 SCT043 BKN100 10/08 Q1032 RMK PP000=
SPZO Dic2009-200600Z 00000KT 9999 SCT043 BKN100 10/08 Q1031 RMK PP000=
SPZO Dic2009-200700Z 00000KT 9999 SCT040 BKN080 10/07 Q1031 RMK RERA PP002=
SPZO Dic2009-200800Z 00000KT 9999 SCT040 BKN080 10/08 Q1031 RMK PP000=
SPZO Dic2009-200900Z 00000KT 9999 SCT040 BKN080 10/08 Q1031 RMK PP000=
SPZO Dic2009-201000Z 00000KT 9999 FEW036 SCT040 OVC080 10/08 Q1031 RMK PP000=
SPZO Dic2009-201100Z 00000KT 9999 VCSH SCT033 BKN046 10/08 Q1032 NOSIG RMK PP000=
SPZO Dic2009-201200Z 00000KT 9999 VCSH FEW030 SCT040 BKN046 11/08 Q1033 NOSIG RMK PP000=
SPZO Dic2009-201300Z 00000KT 9999 SCT030 BKN060 14/08 Q1033 NOSIG RMK PP000=
SPZO Dic2009-201400Z VRB02KT 9999 FEW030 SCT043 BKN060 14/07 Q1033 NOSIG RMK PP000=
SPZO Dic2009-201500Z VRB02KT 9999 SCT040 SCT060 16/06 Q1033 NOSIG RMK PP000=
SPZO Dic2009-201600Z VRB01KT 9999 FEW040TCU SCT043 BKN060 17/06 Q1032 TEMPO VCSH RMK PP000=
SPZO Dic2009-201700Z 04009KT 350V060 9999 VCSH FEW030 SCT043TCU BKN070 16/07 Q1031 TEMPO -RA RMK PP000=
SPZO Dic2009-201800Z 00000KT 9999 VCSH FEW036TCU SCT043 BKN050 17/06 Q1030 TEMPO -RA RMK PP000=
SPZO Dic2009-201900Z 01007KT 290V040 9999 VCSH FEW036TCU SCT080 BKN100 16/05 Q1029 TEMPO -DZ RMK PP000=
SPZO Dic2009-202000Z 34006KT 290V030 9999 FEW050 SCT080 BKN100 16/06 Q1029 NOSIG RMK PP000=
SPZO Dic2009-202100Z VRB02KT 9999 FEW050 SCT080 BKN100 16/06 Q1028 NOSIG RMK PP000=
SPZO Dic2009-202200Z 32005KT 270V350 9999 FEW050 BKN230 16/06 Q1028 PP000 NOSIG RMK T MAX 18.6 PP000=
SPZO Dic2009-202300Z 00000KT 9999 FEW050 SCT230 16/06 Q1028 NOSIG RMK PP000=
SPZO Dic2009-210000Z 02002KT 9999 FEW050 BKN230 13/07 Q1029 RMK PP000=
SPZO Dic2009-210100Z 00000KT 9999 SCT046 BKN100 11/07 Q1030 RMK PP000=
SPZO Dic2009-210200Z 06012KT 020V090 9999 SCT040 BKN050 12/05 Q1032 RMK PP000=
SPZO Dic2009-210300Z 06003KT 9999 DZ SCT040 BKN050 10/07 Q1033 RMK PP002=
SPZO Dic2009-210400Z 00000KT 9999 DZ SCT040 BKN050 10/07 Q1033 RMK PP002=
SPZO Dic2009-210500Z 00000KT 9999 SCT040 BKN050 10/06 Q1032 RMK PP000=
SPZO Dic2009-210600Z 00000KT 9999 SCT040 BKN050 10/07 Q1030 RMK PP000=
SPZO Dic2009-210700Z 06003KT 9999 SCT043 BKN050 09/07 Q1030 RMK PP000=
SPZO Dic2009-210800Z 06003KT 9999 -RA SCT040 BKN050 09/07 Q1030 RMK PP006=
SPZO Dic2009-210900Z 00000KT 8000 -RA SCT036 BKN046 09/07 Q1030 RMK PP008=
SPZO Dic2009-211000Z 00000KT 7000 -RA FEW020 SCT030 BKN046 09/07 Q1031 RMK PP008=
SPZO Dic2009-211100Z 00000KT 9999 -DZ FEW020 SCT080 OVC100 09/07 Q1032 BECMG NSW RMK PPTRZ=
SPZO Dic2009-211200Z 00000KT 9999 SCT025 SCT080 OVC100 10/08 Q1032 NOSIG RMK PPTRZ=
SPZO Dic2009-211300Z 00000KT 9999 SCT025 SCT080 OVC100 11/07 Q1033 NOSIG RMK PP000=
SPZO Dic2009-211400Z 00000KT 9999 FEW030 SCT060 OVC080 12/07 Q1034 NOSIG RMK PP000=
SPZO Dic2009-211500Z 00000KT 9999 FEW033 SCT080 OVC230 13/07 Q1033 NOSIG RMK PP000=
SPZO Dic2009-211600Z 00000KT 9999 FEW040 SCT060 BKN100 14/06 Q1033 NOSIG RMK PP000=
SPZO Dic2009-211700Z 00000KT 9999 FEW040 SCT060 OVC100 16/07 Q1032 NOSIG RMK PP000=
SPZO Dic2009-211800Z 27006KT 9999 VCSH SCT040 OVC100 16/07 Q1031 NOSIG RMK PP000=
SPZO Dic2009-211900Z 06005KT 010V070 9999 FEW043TCU OVC100 16/07 Q1030 NOSIG RMK PP000=
SPZO Dic2009-212000Z 03006KT 330V070 9999 FEW043 SCT100 BKN230 17/05 Q1030 NOSIG RMK PP000=
SPZO Dic2009-212100Z 34008KT 290V020 9999 FEW043 SCT100 BKN230 17/06 Q1029 NOSIG RMK PP000=
SPZO Dic2009-212200Z 05007KT 9999 SCT046 BKN230 16/07 Q1029 NOSIG RMK T.MAX 17.5 PP000=
SPZO Dic2009-212300Z 04008KT 9999 FEW050 BKN230 15/07 Q1029 NOSIG RMK PP000=
SPZO Dic2009-220000Z 02002KT 9999 FEW040TCU SCT100 14/06 Q1030 NOSIG RMK PP000=
SPZO Dic2009-220100Z 00000KT 9999 FEW050 SCT100 13/06 Q1031 NOSIG RMK PP000=
SPZO Dic2009-220200Z 00000KT 9999 BKN230 11/07 Q1031 NOSIG RMK PP000=
SPZO Dic2009-220300Z 00000KT 9999 SCT050 BKN230 11/07 Q1031 NOSIG RMK PP000=
SPZO Dic2009-220400Z 00000KT 9999 SCT050 10/07 Q1031 NOSIG RMK PP000=
SPZO Dic2009-220500Z 00000KT 9999 SKC 09/06 Q1031 RMK PP000=
SPZO Dic2009-220600Z 00000KT 9999 SKC 09/07 Q1030 RMK PP000=
SPZO Dic2009-220700Z 00000KT 9999 SKC 07/06 Q1030 RMK PP000=
SPZO Dic2009-220800Z 00000KT 9999 FEW100 08/06 Q1030 RMK PP000=
SPZO Dic2009-220900Z 00000KT 9999 SCT080 09/06 Q1030 RMK PP000=
SPZO Dic2009-221000Z 00000KT 9999 FEW050 SCT080 09/06 Q1031 RMK PP000=
SPZO Dic2009-221100Z 00000KT 9999 FEW030 SCT036 BKN050 10/06 Q1032 BECMG FEW036 SCT040 BKN080 RMK PP000=
SPZO Dic2009-221200Z 00000KT 9999 FEW036 SCT040 BKN080 10/07 Q1033 NOSIG RMK PP000=
SPZO Dic2009-221300Z 00000KT 9999 FEW030 BKN100 12/08 Q1033 BECMG SCT043 RMK PP000=
SPZO Dic2009-221400Z 05003KT 360V070 9999 FEW036 SCT046 BKN100 14/06 Q1033 NOSIG RMK PP000=
SPZO Dic2009-221500Z 00000KT 9999 SCT050 SCT230 16/06 Q1033 NOSIG RMK PP000=
SPZO Dic2009-221600Z VRB03KT 9999 FEW043TCU SCT050 19/08 Q1032 TEMPO=
SPZO Dic2009-221700Z 00000KT 9999 VCSH FEW043TCU SCT050 BKN080 18/06 Q1031 NOSIG RMK PP000=
SPZO Dic2009-221800Z 32009KT 260V030 9999 FEW043TCU SCT050 BKN100 17/05 Q1030 TEMPO VCSH RMK WIND RWY10 30007 250V030 PP000=
SPZO Dic2009-221900Z 27007KT 250V320 9999 SCT046 BKN100 16/05 Q1029 TEMPO=
SPZO Dic2009-222000Z 26007KT 240V310 9999 VCSH FEW043TCU BKN050 17/05 Q1028 TEMPO -RA RMK PP000=
SPZO Dic2009-222100Z 09010KT 250V330 9999 VCSH SCT043TCU BKN050 16/07 Q1028 NOSIG RMK WIND RWY10 31011KT 250V360 PP000=
SPZO Dic2009-222200Z 33006KT 280V070 9999 -RA SCT043 BKN050 12/08 Q1029 NOSIG RMK WIND RWY10 14006KT 080V170 T.MAX.18.7 PP010=
SPZO Dic2009-222300Z 00000KT 9999 FEW040 BKN100 11/08 Q1029 NOSIG RMK PP000=
SPZO Dic2009-230000Z 00000KT 9999 BKN050 11/08 Q1030 RMK PP000=
SPZO Dic2009-230100Z 00000KT 9999 BKN050 11/08 Q1031 RMK PP000=
SPZO Dic2009-230200Z 00000KT 9999 BKN050 11/08 Q1032 RMK PP000=
SPZO Dic2009-230300Z 00000KT 9999 OVC050 11/08 Q1033 RMK PP000=
SPZO Dic2009-230400Z 34007KT 260V060 8000 -DZ SCT040 OVC050 11/04 Q1033 RMK PPTRZ=
SPZO Dic2009-230500Z 28005KT 250V320 9000 SCT040 OVC050 11/05 Q1033 RMK REDZ PPTRZ=
SPZO Dic2009-230600Z 28006KT 250V320 9999 FEW040 OVC050 10/05 Q1032 RMK PP000=
SPZO Dic2009-230700Z 00000KT 9999 FEW040 OVC050 10/05 Q1032 RMK PP000=
SPZO Dic2009-230800Z 00000KT 9999 OVC050 10/06 Q1032 RMK PP000=
SPZO Dic2009-230900Z 00000KT 9999 BKN050 SCT060 10/05 Q1032 RMK PP000=
SPZO Dic2009-231000Z 00000KT 9999 BKN050 SCT060 10/05 Q1032 RMK PP000=
SPZO Dic2009-231100Z 00000KT 9999 BKN050 SCT070 09/06 Q1032 NOSIG RMK PP000=
SPZO Dic2009-231200Z 00000KT 9999 FEW030 SCT043 BKN100 11/06 Q1033 NOSIG RMK PP000=
SPZO Dic2009-231300Z 00000KT 9999 FEW036 BKN046 13/05 Q1033 NOSIG RMK PP000=
SPZO Dic2009-231400Z VRB02KT 9999 FEW040 BKN060 15/05 Q1033 NOSIG RMK PP000=
SPZO Dic2009-231500Z VRB02KT 9999 FEW046 BKN060 16/05 Q1033 NOSIG RMK PP000=
SPZO Dic2009-231600Z 04005KT 300V070 9999 SCT046 SCT060 17/05 Q1032 NOSIG RMK PP000=
SPZO Dic2009-231700Z VRB02KT 9999 SCT046 SCT060 19/05 Q1030 NOSIG RMK PP000=
SPZO Dic2009-231800Z 03013KT 9999 VCSH FEW036TCU SCT046 BKN080 16/07 Q1030 TEMPO 9000 -RA RMK VRB08KT PP000=
SPZO Dic2009-231900Z 05006KT 010V070 9999 VCSH FEW036TCU SCT043 BKN100 16/07 Q1030 NOSIG RMK PP000=
SPZO Dic2009-232000Z 05006KT 9999 VCSH FEW036TCU SCT046 BKN060 15/09 Q1029 NOSIG R=
SPZO Dic2009-232100Z 05007KT 9999 VCSH FEW036TCU BKN060 15/08 Q1028 NOSIG RMK WIND RWY10 11006KT PP000=
SPZO Dic2009-232200Z 00000KT 9999 VCSH FEW036TCU SCT046 BKN230 16/07 Q1028 NOSIG RMK WIND RWY10 29006KT 250V340 T MAX 19.3 PP000=
SPZO Dic2009-232300Z 00000KT 9999 FEW040 SCT230 15/07 Q1028 NOSIG RMK PP000=
SPZO Dic2009-240000Z 05005KT 9999 SCT046 SCT080 13/07 Q1029 RMK PP000=
SPZO Dic2009-240100Z 00000KT 9999 SCT050 BKN100 13/08 Q1030 RMK PP000=
SPZO Dic2009-240200Z 00000KT 9999 BKN040 SCT050 13/08 Q1031 RMK PP000=
SPZO Dic2009-240300Z 00000KT 9999 SCT040 SCT080 13/08 Q1031 RMK PP000=
SPZO Dic2009-240400Z 00000KT 9999 SCT040 SCT100 12/09 Q1032 RMK PP000=
SPZO Dic2009-240500Z 00000KT 9999 SCT050 SCT100 11/08 Q1031 RMK PP000=
SPZO Dic2009-240600Z 00000KT 9999 BKN040 SCT100 11/08 Q1031 RMK PP000=
SPZO Dic2009-240700Z 00000KT 9999 BKN040 SCT050 11/08 Q1030 RMK PP000=
SPZO Dic2009-240800Z 00000KT 9999 BKN040 SCT060 11/08 Q1030 RMK PP000=
SPZO Dic2009-240900Z 00000KT 9999 SCT040 SCT060 11/08 Q1030 RMK PP000=
SPZO Dic2009-241000Z 00000KT 9999 FEW030 SCT040 BKN046 11/08 Q1030 RMK PP000=
SPZO Dic2009-241100Z 00000KT 9999 FEW030 SCT040 BKN046 11/08 Q1031 TEMPO=
SPZO Dic2009-241200Z 00000KT 9999 FEW033 SCT043 BKN050 12/09 Q1032 NOSIG RMK PP000=
SPZO Dic2009-241300Z 00000KT 9999 FEW030 SCT043 BKN050 13/07 Q1032 NOSIG RMK PP000=
SPZO Dic2009-241400Z VRB03KT 9999 FEW033 SCT046 BKN230 15/07 Q1032 NOSIG RMK PP000=
SPZO Dic2009-241500Z 04004KT 9999 SCT043 SCT060 16/06 Q1032 NOSIG RMK PP000=
SPZO Dic2009-241600Z VRB02KT 9999 FEW043TCU SCT060 18/07 Q1031 NOSIG RMK PP000=
SPZO Dic2009-241700Z 03005KT 9999 FEW043TCU BKN050 20/06 Q1029 TEMPO=
SPZO Dic2009-241800Z 36011KT 310V070 9999 VCSH FEW040TCU BKN050 17/06 Q1029 NOSIG RMK WIND RWY10 VRB10 PP000=
SPZO Dic2009-241900Z 35009KT 300V040 9999 SCT050 BKN230 18/05 Q1028 NOSIG RMK PP000=
SPZO Dic2009-242000Z 03008KT 300V070 9999 FEW030TCU FEW040TCU SCT050 19/06 Q1027 NOSIG RMK PP000=
SPZO Dic2009-242100Z 26012KT 9999 -RA VCTS SCT040CB SCT046CB 16/07 Q1027=
SPZO Dic2009-242200Z 28005KT 9999 FEW050 SCT100 BKN230 15/07 Q1027 NOSIG RMK TMAX 20.8 PP000=
SPZO Dic2009-242300Z 26005KT 9999 SCT060 BKN230 15/07 Q1027 NOSIG RMK PP000=
SPZO Dic2009-250000Z 27007KT 9999 FEW050 SCT230 13/07 Q1028 RMK PP000=
SPZO Dic2009-250100Z 00000KT 9999 FEW050 SCT230 12/07 Q1029 RMK PP000=
SPZO Dic2009-250200Z 00000KT 9999 FEW050 SCT230 11/07 Q1030 RMK PP000=
SPZO Dic2009-250300Z 00000KT 9999 SCT050 SCT100 11/07 Q1031 RMK PP000=
SPZO Dic2009-250400Z 00000KT 9999 SCT046 SCT100 12/07 Q1030 RMK PP000=
SPZO Dic2009-250500Z 00000KT 9999 SCT046 SCT100 12/07 Q1030 RMK PP000=
SPZO Dic2009-250600Z 05003KT 9000 SCT040 BKN050 12/08 Q1029 RMK PP000=
SPZO Dic2009-250700Z 28002KT 9000 RA OVC040 10/07 Q1029 RMK PP008=
SPZO Dic2009-250800Z 00000KT 9000 RA OVC040 10/08 Q1030 RMK PP028=
SPZO Dic2009-250900Z 00000KT 9000 -RA SCT030 BKN040 09/08 Q1030 RMK PP018=
SPZO Dic2009-251000Z 00000KT 7000 -RA FEW020 OVC036 09/07 Q1030 RMK CLNG BLW 1200M PP020=
SPZO Dic2009-251100Z 05004KT 7000 -RA SCT010 SCT036 OVC070 08/06 Q1031 NOSIG RMK CLNG BLW 1200M PP010=
SPZO Dic2009-251200Z 00000KT 9999 -RA SCT010 SCT036 OVC070 09/07 Q1032 NOSIG RMK CLNG BLW 1200M PP002=
SPZO Dic2009-251300Z 00000KT 9999 -RA SCT010 SCT036 OVC070 09/07 Q1032 NOSIG RMK CLNG BLW 1200M PPTRZ=
SPZO Dic2009-251400Z 00000KT 9999 -RA SCT015 BKN070 OVC100 10/07 Q1033 BECMG NSW RMK PP006=
SPZO Dic2009-251500Z 00000KT 9999 SCT020 SCT080 BKN230 12/08 Q1032 NOSIG RMK PP002=
SPZO Dic2009-251600Z 00000KT 9999 SCT030 15/08 Q1031 NOSIG RMK PP000=
SPZO Dic2009-251700Z 01004KT 300V060 9999 VCSH FEW030TCU SCT080 17/09 Q1030 NOSIG RMK PP000=
SPZO Dic2009-251800Z 27010KT 9999 SCT043TCU BKN060 13/08 Q1030 BECMG NSW RMK PP004=
SPZO Dic2009-251900Z 27006KT 250V320 9999 FEW040 SCT070 BKN100 13/09 Q1029 NOSIG RMK RERA PP002=
SPZO Dic2009-252000Z 03003KT 340V070 9999 SCT033 BKN230 14/08 Q1028 NOSIG RMK PP000=
SPZO Dic2009-252100Z 00000KT 9999 SCT036 SCT080 BKN230 14/07 Q1027 NOSIG RMK PP000=
SPZO Dic2009-252200Z 00000KT 9999 SCT036 SCT100 BKN230 15/07 Q1027 NOSIG RMK TMAX 17.0 PP000=
SPZO Dic2009-252300Z 00000KT 9999 SCT043 SCT100 BKN230 14/08 Q1028 NOSIG RMK PP000=
SPZO Dic2009-260000Z 00000KT 9999 SCT043 SCT080 BKN230 13/09 Q1029 RMK PP000=
SPZO Dic2009-260100Z 00000KT 9999 SCT050 BKN230 13/09 Q1029 RMK PP000=
SPZO Dic2009-260200Z 29010KT 9999 SCT040 SCT060 12/07 Q1030 RMK PP000=
SPZO Dic2009-260300Z 28005KT 9999 SCT040 BKN050 11/07 Q1031 RMK PP012=
SPZO Dic2009-260400Z VRB02KT 9999 -RA SCT036 BKN050 09/08 Q1031 RMK PP036=
SPZO Dic2009-260500Z 00000KT 9999 -RA SCT036 BKN050 09/07 Q1030 RMK PP012=
SPZO Dic2009-260600Z 00000KT 9999 -RA SCT040 BKN060 10/07 Q1029 RMK PP002=
SPZO Dic2009-260700Z 00000KT 9999 SCT040 BKN060 10/08 Q1029 RMK PP000=
SPZO Dic2009-260800Z 00000KT 9999 -RA SCT036 BKN050 10/08 Q1028 RMK PP008=
SPZO Dic2009-260900Z VRB02KT 9999 DZ SCT036 BKN050 10/08 Q1028 RMK PPTRZ=
SPZO Dic2009-261000Z 26005KT 9999 -DZ FEW033 SCT050 BKN070 10/07 Q1029 RMK PP004=
SPZO Dic2009-261100Z 27002KT 9999 4000W FEW025 SCT033 OVC046 10/07 Q1030 NOSIG RMK CLNG BLW 1200M RA W/NE PP002=
SPZO Dic2009-261200Z 26005KT 9000 SCT020 SCT040 BKN060 10/07 Q1030 BECMG 9999 RMK REDZ PPTRZ=
SPZO Dic2009-261300Z 27005KT 9999 SCT025 SCT040 BKN060 11/07 Q1031 NOSIG RMK PP000=
SPZO Dic2009-261400Z VRB02KT 9999 SCT030 SCT060 BKN100 13/07 Q1031 NOSIG RMK PP000=
SPZO Dic2009-261500Z VRB02KT 9999 SCT030 SCT060 BKN230 14/08 Q1031 NOSIG RMK PP000=
SPZO Dic2009-261600Z 05005KT 330V070 9999 SCT030 SCT100 BKN230 14/09 Q1030 NOSIG RMK PP000=
SPZO Dic2009-261700Z 31004KT 250V070 9999 SCT033 SCT100 BKN230 16/06 Q1029 NOSIG RMK PP000=
SPZO Dic2009-261800Z 34012KT 300V010 9999 4000NE -TSRA VCSH FEW033 SCT043CB BKN050 15/07 Q1029 BECMG FM1900 NSW RMK PP002=
SPZO Dic2009-261900Z 27007KT 9999 -RA FEW030 SCT040TCU BKN046 12/08 Q1029 NOSIG RMK PP026=
SPZO Dic2009-262000Z 00000KT 9999 -RA FEW030 SCT040 BKN050 12/08 Q1028 TEMPO 8000 RMK PP006=
SPZO Dic2009-262100Z 00000KT 9999 VCSH FEW033 SCT043 BKN080 12/08 Q1028 NOSIG RMK PP002=
SPZO Dic2009-262200Z 00000KT 9999 FEW036 OVC100 13/08 Q1027 NOSIG RMK T.MAX 18.3 P=
SPZO Dic2009-262300Z 00000KT 9999 FEW033 SCT100 BKN230 13/08 Q1027 NOSIG RMK PP000=
SPZO Dic2009-270000Z 00000KT 9999 SCT080 11/08 Q1028 RMK PP000=
SPZO Dic2009-270100Z 00000KT 9999 SCT050 11/08 Q1029 RMK PP000=
SPZO Dic2009-270200Z 00000KT 9999 FEW050 12/08 Q1030 RMK PP000=
SPZO Dic2009-270300Z 00000KT 9999 SCT050 11/09 Q1031 RMK PP000=
SPZO Dic2009-270400Z 00000KT 9999 DZ SCT030 SCT050 12/08 Q1031 RMK PPTRZ=
SPZO Dic2009-270500Z 00000KT 9999 SCT050 11/08 Q1030 RMK PP000=
SPZO Dic2009-270600Z 26005KT 9999 SCT050 SCT080 11/07 Q1030 RMK PP000=
SPZO Dic2009-270700Z 26004KT 9999 -RA SCT040 SCT080 10/07 Q1029 RMK PPTRZ=
SPZO Dic2009-270800Z 00000KT 9999 -RA SCT040 SCT050 10/07 Q1029 PP1029 RMK PP006=
SPZO Dic2009-270900Z 05003KT 010V070 9999 FEW020 SCT050 09/07 Q1029 RMK PP000=
SPZO Dic2009-271000Z VRB02KT 9999 FEW020 SCT050 09/06 Q1029 RMK PP000=
SPZO Dic2009-271100Z 00000KT 9999 FEW020 SCT036 BKN043 10/06 Q1030 BECMG FM1130 SCT036 BKN046 RMK CLNG BLW 1200M PP000=
SPZO Dic2009-271200Z 00000KT 9999 FEW025 SCT043 BKN080 10/06 Q1031 NOSIG RMK PP000=
SPZO Dic2009-271300Z 03003KT 330V060 9999 FEW030 SCT043 BKN080 12/07 Q1031 NOSIG RMK PP000=
SPZO Dic2009-271400Z 00000KT 9999 FEW033 SCT046 BKN100 15/07 Q1031 NOSIG RMK PP000=
SPZO Dic2009-271500Z VRB03KT 9999 FEW036 SCT043 BKN080 15/06 Q1031 NOSIG RMK PP000=
SPZO Dic2009-271600Z 05005KT 9999 SCT046 SCT080 16/07 Q1030 NOSIG RMK PP000=
SPZO Dic2009-271700Z VRB02KT 9999 FEW040 SCT050 19/06 Q1028 NOSIG RMK PP000=
SPZO Dic2009-271800Z VRB02KT 9999 VCSH FEW043TCU BKN050 19/07 Q1027 NOSIG RMK PP000=
SPZO Dic2009-271900Z 30010KT 250V360 9999 VCSH SCT043TCU BKN060 18/06 Q1026 TEMPO -RA RMK WIND RWY10 VRB06KT PP000=
SPZO Dic2009-272000Z 02003KT 340V070 9999 FEW043TCU BKN080 16/06 Q1026 TEMPO VCSH RMK WIND RWY10 VRB06KT PP000=
SPZO Dic2009-272100Z 00000KT 9999 SCT046 OVC080 16/06 Q1026 TEMPO VCSH RMK WIND RWY10 12005KT 080V160 PP000=
SPZO Dic2009-272200Z 06003KT 320V070 9999 FEW043TCU OVC080 15/07 Q1026 NOSIG RMK T.MAX.20.5 PP000=
SPZO Dic2009-272300Z 26007KT 240V310 9999 FEW043TCU BKN100 15/07 Q1026 NOSIG WIND RWY10 28006KT 250V350 RMK PP000=
SPZO Dic2009-280000Z VRB03KT 9999 BKN050 12/06 Q1027 RMK PP000=
SPZO Dic2009-280100Z 00000KT 9999 BKN050 12/07 Q1028 RMK PP000=
SPZO Dic2009-280200Z 00000KT 9999 BKN050 11/07 Q1030 RMK PP000=
SPZO Dic2009-280300Z 26002KT 9999 OVC050 12/07 Q1030 RMK PP000=
SPZO Dic2009-280400Z 00000KT 9999 OVC050 12/07 Q1030 RMK PP000=
SPZO Dic2009-280500Z 00000KT 9999 OVC050 11/07 Q1029 RMK PP000=
SPZO Dic2009-280600Z 06003KT 9999 OVC050 11/07 Q1029 RMK PP000=
SPZO Dic2009-280700Z 00000KT 9999 OVC050 10/08 Q1028 RMK PP000=
SPZO Dic2009-280800Z 00000KT 9999 OVC050 11/08 Q1028 RMK PP000=
SPZO Dic2009-280900Z 00000KT 9999 BKN050 SCT060 10/07 Q1027 RMK PP000=
SPZO Dic2009-281000Z 00000KT 8000 SCT050 SCT060 10/07 Q1028 RMK HZ FU PP000=
SPZO Dic2009-281100Z 00000KT 8000 SCT050 SCT060 10/08 Q1029 NOSIG RMK HZ FU PP000=
SPZO Dic2009-281200Z 00000KT 9999 FEW040 BKN060 12/07 Q1029 NOSIG RMK PP000=
SPZO Dic2009-281300Z 28003KT 250V010 9999 FEW036 BKN050 14/08 Q1030 NOSIG RMK WIND RWY10 VRB05KT PP000=
SPZO Dic2009-281400Z 28007KT 250V330 9999 FEW046 BKN100 15/07 Q1030 RMK PP000=
SPZO Dic2009-281500Z VRB03KT 9999 SCT046 17/06 Q1029 NOSIG RMK PP000=
SPZO Dic2009-281600Z 06007KT 260V060 9999 SCT046 19/08 Q1028 NOSIG RMK PP000=
SPZO Dic2009-281700Z 28007KT 250V070 9999 FEW043TCU SCT050 19/06 Q1027 NOSIG RMK WIND RWY10 31009KT 250V020 PP000=
SPZO Dic2009-281800Z 34012KT 280V020 9999 VCSH SCT046TCU SCT050 16/05 Q1027 NOSIG RMK WIND RWY10 VRB08KT PP000=
SPZO Dic2009-281900Z VRB02KT 9999 FEW043TCU SCT050 BKN100 18/06 Q1026 NOSIG RMK PP000=
SPZO Dic2009-282000Z 33006KT 270V020 9999 -TSRA SCT043CB BKN050 16/06 Q1025 BECMG FM2000 NSW RMK PP000=
SPZO Dic2009-282100Z 26003KT 9999 FEW036 BKN080 14/08 Q1025 NOSIG RMK PP006=
SPZO Dic2009-282200Z 28004KT 9999 FEW046 BKN230 15/08 Q1025 NOSIG RMK PP000=
SPZO Dic2009-282300Z 00000KT 9999 FEW046 SCT230 14/08 Q1025 NOSIG RMK PP000=
SPZO Dic2009-290000Z 00000KT 9999 FEW040 SCT230 13/08 Q1026 RMK PP000=
SPZO Dic2009-290100Z 00000KT 9999 FEW043 SCT080 12/08 Q1027 RMK PP000=
SPZO Dic2009-290200Z 30008KT 9999 -RA SCT036 BKN043 13/06 Q1028 RMK PP002=
SPZO Dic2009-290300Z 29004KT 9999 SCT040 BKN046 12/07 Q1030 RMK PP000=
SPZO Dic2009-290400Z 00000KT 9999 SCT040 BKN050 12/07 Q1030 RMK PP000=
SPZO Dic2009-290500Z 00000KT 9999 -RA SCT036 BKN043 11/08 Q1029 RMK PP002=
SPZO Dic2009-290600Z 00000KT 9999 -RA OVC040 10/07 Q1029 RMK PP006=
SPZO Dic2009-290700Z 00000KT 9999 -RA OVC040 10/08 Q1028 RMK PP004=
SPZO Dic2009-290800Z 00000KT 9000 -RA SCT036 BKN043 10/08 Q1027 RMK PP006=
SPZO Dic2009-290900Z 00000KT 9000 -RA SCT033 BKN040 10/08 Q1027 RMK PP004=
SPZO Dic2009-291000Z 00000KT 9999 -DZ FEW020 SCT040 BKN050 10/08 Q1027 RMK PPTRZ=
SPZO Dic2009-291100Z 00000KT 9999 FEW010 SCT043 BKN050 10/08 Q1027 NOSIG RMK PP000=
SPZO Dic2009-291200Z 00000KT 9999 FEW020 SCT036 OVC070 10/08 Q1029 NOSIG RMK PP000=
SPZO Dic2009-291300Z 00000KT 9999 SCT025 SCT080 BKN100 12/08 Q1030 NOSIG RMK PP000=
SPZO Dic2009-291400Z 00000KT 9999 SCT040 SCT080 BKN230 13/07 Q1030 NOSIG RMK PP000=
SPZO Dic2009-291500Z 00000KT 9999 SCT040 BKN230 16/06 Q1029 NOSIG RMK PP000=
SPZO Dic2009-291600Z VRB03KT 9999 SCT030 SCT050 19/09 Q1028 NOSIG RMK PP000=
SPZO Dic2009-291700Z 29010KT 9999 VCSH FEW036 SCT050 BKN070 15/07 Q1028 NOSIG RMK PP000=
SPZO Dic2009-291800Z 00000KT 9999 FEW050 BKN230 17/05 Q1026 NOSIG RMK PP000=
SPZO Dic2009-291900Z 27013KT 8000 VCSH SCT046TCU BKN060 16/07 Q1026 TEMPO 7000 RMK PP000=
SPZO Dic2009-292000Z 27007KT 9999 -RA VCSH SCT046TCU BKN060 12/08 Q1026 BECMG NSW RMK PP002=
SPZO Dic2009-292100Z 28005KT 250V010 9999 FEW036 BKN060 16/07 Q1025 NOSIG RMK PP002=
SPZO Dic2009-292200Z 27006KT 250V320 9999 FEW060 BKN230 17/07 Q1025 NOSIG RMK PP000=
SPZO Dic2009-292300Z 26008KT 9999 SCT060 BKN230 15/08 Q1025 NOSIG RMK PP000=
SPZO Dic2009-300000Z 26003KT 9999 SCT040 OVC230 13/07 Q1026 RMK PP000=
SPZO Dic2009-300100Z 26008KT 9999 SCT046 BKN230 13/07 Q1027 RMK PP000=
SPZO Dic2009-300200Z 28008KT 9999 SCT046 SCT230 13/07 Q1028 RMK PP000=
SPZO Dic2009-300300Z 00000KT 9999 SCT046 SCT230 11/08 Q1029 RMK PP000=
SPZO Dic2009-300400Z 00000KT 9999 SCT046 BKN050 11/08 Q1029 RMK PP000=
SPZO Dic2009-300500Z 00000KT 9999 SCT043 BKN050 11/08 Q1028 RMK PP000=
SPZO Dic2009-300600Z 00000KT 9999 SCT043 BKN050 12/08 Q1027 RMK PP000=
SPZO Dic2009-300700Z 00000KT 9999 SCT043 BKN050 12/08 Q1027 RMK PP000=
SPZO Dic2009-300800Z 26005KT 9999 FEW040 OVC043 12/07 Q1027 RMK PP000=
SPZO Dic2009-300900Z 00000KT 9999 FEW040 OVC043 11/07 Q1027 RMK PP000=
SPZO Dic2009-301000Z 00000KT 9999 FEW030 OVC043 11/08 Q1028 RMK PPTRZ=
SPZO Dic2009-301100Z 00000KT 9999 FEW025 SCT043 BKN060 11/08 Q1028 NOSIG RMK PP000=
SPZO Dic2009-301200Z 00000KT 9999 FEW025 SCT046 BKN070 12/08 Q1029 NOSIG RMK PP000=
SPZO Dic2009-301300Z VRB01KT 9999 FEW025 SCT046 BKN080 13/09 Q1029 NOSIG RMK PP000=
SPZO Dic2009-301400Z 00000KT 9999 FEW030 SCT040 BKN080 15/08 Q1029 NOSIG RMK PP000=
SPZO Dic2009-301500Z VRB05KT 9999 FEW040 BKN100 16/06 Q1030 NOSIG RMK PP000=
SPZO Dic2009-301600Z VRB02KT 9999 FEW040TCU SCT050 BKN080 17/06 Q1029 NOSIG RMK PP000=
SPZO Dic2009-301700Z 27011KT 250V320 9999 VCSH SCT043CB BKN050 15/06 Q1029 TEMPO -RA RMK WIND RWY10 33007KT 120V290 PP000=
SPZO Dic2009-301900Z 04010KT 010V070 8000 -RA VCSH FEW040CB BKN050 11/08 Q1028 TEMPO 7000 RWK PPTZS=
SPZO Dic2009-302000Z 06008KT 8000 -RA VCSH FEW030 SCT040 BKN050 11/08 Q1028 TEMPO 7000 RMK PP010=
SPZO Dic2009-302100Z 06005KT 8000 FEW020 SCT040 BKN050 11/08 Q1028 NOSIG RMK RERA PP006=
SPZO Dic2009-302200Z 04005KT 310V050 8000 -RA FEW020 SCT040 BKN050 11/08 Q1028 NOSIG RMK PP004 TMAX 17.9=
SPZO Dic2009-302300Z 00000KT 9000 FEW030 SCT050 BKN060 11/08 Q1028 NOSIG RMK RERA PP002=
SPZO Dic2009-310000Z 00000KT 9999 FEW030 SCT050 BKN230 11/08 Q1029 RMK PP000=
SPZO Dic2009-310100Z 00000KT 9999 FEW030 SCT050 BKN230 10/08 Q1029 RMK PP000=
SPZO Dic2009-310200Z 00000KT 9999 FEW040 SCT070 11/08 Q1029 RMK PP000=
SPZO Dic2009-310300Z 00000KT 9999 FEW050 SCT230 11/08 Q1030 RMK PP000=
SPZO Dic2009-310400Z 00000KT 9999 SCT050 SCT230 10/08 Q1030 RMK PP000=
SPZO Dic2009-310500Z 00000KT 9999 SCT050 SCT230 09/07 Q1029 RMK PP000=
SPZO Dic2009-310600Z 00000KT 9999 SCT050 BKN230 09/07 Q1029 RMK PP000=
SPZO Dic2009-310700Z 00000KT 9999 SCT046 BKN100 09/07 Q1029 RMK PP000=
SPZO Dic2009-310800Z 00000KT 9999 SCT046 BKN100 08/06 Q1027 RMK PP000=
SPZO Dic2009-310900Z 00000KT 9999 FEW030 SCT046 BKN050 08/06 Q1027 RMK PP000=
SPZO Dic2009-311000Z 00000KT 9999 FEW025 SCT040 BKN050 08/07 Q1027 RMK PP000=
SPZO Dic2009-311100Z 00000KT 4000 BR SCT010 BKN043 08/07 Q1029 BECMG FM1130 6000 RMK PP000=
SPZO Dic2009-311200Z 00000KT 4000 BR SCT008 BKN040 09/07 Q1031 BECMG FM1240 6000 RMK PP000=
SPZO Dic2009-311300Z 00000KT 5000 BR SCT008 BKN040 11/08 Q1031 BECMG FM1340 8000 RMK PP000=
SPZO Dic2009-311400Z 00000KT 9000 SCT030 BKN050 13/08 Q1031 NOSIG RMK PP000=
SPZO Dic2009-311500Z VRB03KT 9999 SCT040 BKN070 16/07 Q1031 NOSIG RMK PP000=
SPZO Dic2009-311600Z VRB03KT 9999 SCT040 BKN080 18/06 Q1030 NOSIG RMK PP000=
SPZO Dic2009-311700Z 31004KT 250V060 9999 SCT050 BKN090 19/07 Q1029 NOSIG RMK PP000=
SPZO Dic2009-311800Z 27006KT 9999 SCT050 SCT230 19/06 Q1028 TEMPO VCSH RMK PP000=
SPZO Dic2009-311900Z 26013KT 9999 -RA FEW043TCU SCT046 BKN080 18/07 Q1027 NOSIG RMK PP000=
SPZO Dic2009-312000Z 28009KT 9999 VCSH FEW043TCU SCT050 BKN080 16/06 Q1027 NOSIG RMK PP000=
SPZO Dic2009-312100Z 02005KT 320V070 9999 FEW046 OVC100 16/07 Q1027 NOSIG RMK WIND RWY10 VRB06KT PP000=
SPZO Dic2009-312200Z 05007KT 9999 FEW043 OVC100 14/07 Q1027 RMK T.MAX 20.1 PP000=
SPZO Dic2009-312300Z 06005KT 9999 FEW046 OVC100 13/08 Q1027 NOSIG RMK PP000=
SPZO Ene2010-010000Z 02004KT 340V050 9999 FEW050 BKN100 13/07 Q1028 RMK PP000=
SPZO Ene2010-010100Z 00000KT 9999 SCT100 13/08 Q1029 RMK PP000=
SPZO Ene2010-010200Z VRB03KT 9999 SCT050 14/07 Q1031 RMK PP000=
SPZO Ene2010-010300Z 00000KT 9999 -RA SCT050 11/07 Q1032 RMK PP002=
SPZO Ene2010-010400Z 00000KT 9999 SCT040 BKN060 10/07 Q1032 RMK PP001=
SPZO Ene2010-010500Z 00000KT 9999 BKN040 10/08 Q1031 RMK PP000=
SPZO Ene2010-010600Z 00000KT 4000 -RA FEW050 BKN230 10/08 Q1030 RMK PP000=
SPZO Ene2010-010700Z 06004KT 2000 SCT050 10/08 Q1029 RMK PP000=
SPZO Ene2010-010800Z 00000KT 3000 SCT050 10/08 Q1029 RMK PP000=
SPZO Ene2010-010900Z 00000KT 5000 -RA FU SCT050 BKN060 10/08 Q1029 RMK PP000=
SPZO Ene2010-011000Z 00000KT 5000 FU FEW030 SCT050 10/08 Q1030 RMK PP000=
SPZO Ene2010-011100Z 00000KT 5000 BR FU FEW010 SCT050 10/07 Q1030 BECMG FM1130 8000 RMK PP000=
SPZO Ene2010-011200Z 00000KT 7000 BR FU FEW010 SCT040 12/08 Q1030 BECMG FM1230 8000 RMK PP000=
SPZO Ene2010-011300Z VRB02KT 9999 FEW025 SCT046 12/08 Q1031 NOSIG RMK PP000=
SPZO Ene2010-011400Z VRB02KT 9999 FEW036 SCT050 14/08 Q1031 NOSIG RMK PP000=
SPZO Ene2010-011500Z 00000KT 9999 FEW040 SCT050 16/06 Q1031 NOSIG RMK PP000=
SPZO Ene2010-011600Z VRB02KT 9999 SCT050 17/07 Q1029 NOSIG RMK PP000=
SPZO Ene2010-011700Z 05003KT 250V060 9999 VCSH FEW043TCU SCT050 19/06 Q1029 NOSIG RMK PP000=
SPZO Ene2010-011800Z 28008KT 250V060 9999 VCSH FEW043TCU SCT050 18/05 Q1027 NOSIG RMK PP000=
SPZO Ene2010-011900Z 06002KT 9999 SCT046 18/06 Q1026 NOSIG RMK PP000=
SPZO Ene2010-012000Z 32006KT 300V060 9999 VCSH FEW043TCU SCT050 21/05 Q1025 NOSIG RMK PP000=
SPZO Ene2010-012100Z 28011KT 9999 VCSH FEW043TCU BKN050 17/06 Q1025 NOSIG RMK WIND RWY10 29006KT 250V340 PP000=
SPZO Ene2010-012200Z 26004KT 9999 FEW046 BKN230 17/08 Q1024 NOSIG RMK T.MAX. 21.1 PP000=
SPZO Ene2010-012300Z 05003KT 9999 FEW050 BKN230 16/08 Q1025 NOSIG RMK PP000=
SPZO Ene2010-020000Z 06003KT 9999 SCT050 14/09 Q1026 RMK PP000=
SPZO Ene2010-020100Z 00000KT 9999 SCT050 13/08 Q1027 RMK PP000=
SPZO Ene2010-020200Z 00000KT 9999 SCT050 11/08 Q1027 RMK PP000=
SPZO Ene2010-020300Z 00000KT 9999 SCT050 11/08 Q1029 RMK PP000=
SPZO Ene2010-020400Z 00000KT 9999 BKN050 12/09 Q1029 RMK PP000=
SPZO Ene2010-020500Z 00000KT 9999 BKN050 13/07 Q1029 RMK PP000=
SPZO Ene2010-020600Z 00000KT 9999 BKN050 12/06 Q1028 RMK PP000=
SPZO Ene2010-020700Z 00000KT 9999 BKN050 11/06 Q1028 RMK PP000=
SPZO Ene2010-020800Z 00000KT 9999 BKN050 09/05 Q1027 RMK PP000=
SPZO Ene2010-020900Z 00000KT 9999 SCT050 09/06 Q1027 RMK PP000=
SPZO Ene2010-021000Z 00000KT 9999 FEW050 07/04 Q1027 RMK PP000=
SPZO Ene2010-021100Z 00000KT 9999 FEW050 07/05 Q1028 NOSIG RMK PP000=
SPZO Ene2010-021200Z 00000KT 9999 FEW046 BKN100 09/07 Q1029 NOOSIG RMK PP000=
SPZO Ene2010-021300Z 00000KT 9999 FEW046 BKN100 13/06 Q1028 NOSIG RMK PP000=
SPZO Ene2010-021400Z 00000KT 9999 FEW040 SCT050 15/07 Q1029 NOSIG RMK PP000=
SPZO Ene2010-021500Z 00000KT 9999 SCT040 BKN050 16/06 Q1029 NOSIG RMK PP000=
SPZO Ene2010-021600Z 34002KT 9999 FEW043 SCT060 19/06 Q1028 NOSIG RMK PP000=
SPZO Ene2010-021700Z 35008KT 310V070 9999 FEW043TCU SCT060 19/05 Q1027 NOSIG RMK WIND RWY10 31007KT 250V020 PP000=
SPZO Ene2010-021800Z 35010KT 300V040 9999 FEW046TCU SCT060 21/05 Q1027 NOSIG RMK W=
SPZO Ene2010-021900Z 34012KT 300V040 9999 FEW046TCU SCT060 21/06 Q1025 TEMPO VCSH RMK WIND RWY10 VRB08KT PP000=
SPZO Ene2010-022000Z 35016KT 320V040 9999 SCT046TCU 20/06 Q1024 TEMPO=
SPZO Ene2010-022100Z 36012KT 310V040 9999 SCT046 19/04 Q1023 NOSIG RMK=
SPZO Ene2010-022200Z 32011KT 290V010 9999 SCT046TCU 19/05 Q1024 NOSIG RMK T MAX 21.5 PP000=
SPZO Ene2010-022300Z 26012KT 9999 SCT050 18/06 Q1025 NOSIG RMK PP000=
SPZO Ene2010-030000Z 26010KT 9999 SCT050 15/08 Q1026 RMK PP000=
SPZO Ene2010-030100Z 28005KT 9999 FEW050 13/07 Q1027 RMK PP000=
SPZO Ene2010-030200Z 28008KT 9999 FEW040 SCT060 14/08 Q1027 RMK PP000=
SPZO Ene2010-030300Z 26004KT 9999 SCT040 SCT046 14/08 Q1028 RMK PP000=
SPZO Ene2010-030400Z 00000KT 7000 TSRA SCT040CB BKN043 11/07 Q1030 RMK PP036=
SPZO Ene2010-030500Z 06006KT 9999 -RA SCT040 BKN046 10/07 Q1030 RMK PP004=
SPZO Ene2010-030600Z 00000KT 9999 -RA OVC040 09/07 Q1029 RMK PP008=
SPZO Ene2010-030700Z 00000KT 9999 SCT036 BKN046 09/07 Q1029 RMK PP004=
SPZO Ene2010-030800Z 00000KT 9999 SCT036 BKN050 09/07 Q1028 RMK PP000=
SPZO Ene2010-030900Z 00000KT 9999 SCT040 BKN050 09/07 Q1028 RMK PP000=
SPZO Ene2010-031000Z 00000KT 9999 -RA SCT030 BKN043 09/07 Q1028 RMK PPTRZ=
SPZO Ene2010-031100Z 00000KT 9999 SCT020 SCT080 09/07 Q1029 TEMPO 9000 RMK PP002=
SPZO Ene2010-031200Z 00000KT 9999 FEW020 SCT060 13/08 Q1029 NOSIG RMK PP000=
SPZO Ene2010-031300Z 02003KT 320V070 9999 FEW030 SCT046 14/07 Q1030 NOSIG RMK PP000=
SPZO Ene2010-031400Z 00000KT 9999 SCT040 15/06 Q1029 NOSIG RMK PP000=
SPZO Ene2010-031500Z 00000KT 9999 SCT046 17/07 Q1029 NOSIG RMK PP000=
SPZO Ene2010-031600Z 00000KT 9999 FEW040 SCT050 18/04 Q1028 NOSIG RMK PP000=
SPZO Ene2010-031700Z 00000KT 9999 FEW040 SCT060 20/06 Q1027 NOSIG RMK PP000=
SPZO Ene2010-031800Z 00000KT 9999 FEW040TCU SCT050 BKN080 19/05 Q1026 TEMPO VCSH RMK PP000=
SPZO Ene2010-031900Z 35013KT 320V050 9999 FEW050 BKN080 18/06 Q1025 TEMPO VCSH RMK=
SPZO Ene2010-032000Z 02004KT 220V070 9999 SCT040 BKN080 19/06 Q1027 NOSIG RMK PP000=
SPZO Ene2010-032100Z 05006KT 360V070 9999 FEW040TCU BKN080 18/07 Q1024 TEMPO VCSH RMK PP000=
SPZO Ene2010-032200Z 04009KT 350V070 9999 FEW046 BKN100 17/07 Q1025 NOSIG RMK TMAX 20.0 PP000=
SPZO Ene2010-032300Z 04010KT 9999 SCT046 BKN080 16/06 Q1026 NOSIG RMK PP000=
SPZO Ene2010-040000Z 31010KT 270V020 9999 SCT046 BKN080 14/06 Q1027 RMK PP000=
SPZO Ene2010-040100Z 28002KT 9999 SCT046 BKN080 13/06 Q1027 RMK PP000=
SPZO Ene2010-040200Z 26010KT 9999 SCT046 BKN080 12/07 Q1029 RMK PP000=
SPZO Ene2010-040300Z 28009KT 9999 SCT040 BKN050 12/06 Q1030 RMK PP000=
SPZO Ene2010-040400Z 27006KT 9999 SCT040 BKN050 12/06 Q1030 RMK PP000=
SPZO Ene2010-040500Z 02002KT 9999 DZ SCT040 BKN050 10/07 Q1030 RMK PPTRZ=
SPZO Ene2010-040600Z 03003KT 9999 FEW040 SCT100 10/07 Q1029 RMK PP000=
SPZO Ene2010-040700Z 05003KT 9999 SCT040 SCT080 10/08 Q1028 RMK PP000=
SPZO Ene2010-040800Z 04005KT 9999 SCT040 BKN080 10/08 Q1028 RMK PP000=
SPZO Ene2010-040900Z 00000KT 9999 FEW030 SCT040 BKN046 10/08 Q1027 RMK PP000=
SPZO Ene2010-041000Z 00000KT 9999 FEW030 SCT040 BKN046 10/08 Q1028 RMK PP000=
SPZO Ene2010-041100Z 03004KT 9999 FEW025 SCT043 BKN046 10/08 Q1029 NOSIG RMK PP000=
SPZO Ene2010-041200Z 04004KT 9999 FEW030 SCT036 BKN046 10/08 Q1030 TEMPO=
SPZO Ene2010-041300Z 00000KT 9999 FEW020 SCT040 BKN050 11/08 Q1030 NOSIG RMK BCFG NE PP000=
SPZO Ene2010-041400Z 00000KT 9999 FEW030 SCT040 BKN050 13/08 Q1031 NOSIG RMK PP000=
SPZO Ene2010-041500Z 00000KT 9999 FEW030 SCT040 BKN050 18/13 Q1030 NOSIG RMK PP000=
SPZO Ene2010-041600Z 04005KT 9999 FEW036 SCT043 BKN050 16/08 Q1029 NOSIG RMK PP000=
SPZO Ene2010-041700Z 00000KT 9999 FEW030 SCT040 BKN060 17/07 Q1029 NOSIG RMK PP000=
SPZO Ene2010-041800Z 35006KT 300V040 9999 SCT036 BKN050 17/07 Q1028 TEMPO=
SPZO Ene2010-041900Z 02008KT 320V070 9999 SCT036 BKN050 16/07 Q1027 TEMPO=
SPZO Ene2010-042000Z 03006KT 280V070 9999 SCT036 BKN050 16/07 Q1027 TEMPO=
SPZO Ene2010-042100Z 31004KT 250V070 9999 SCT040 SCT050 17/06 Q1027 NOSIG RMK PP000=
SPZO Ene2010-042200Z 00000KT 9999 SCT040 SCT050 17/06 Q1027 NOSIG RMK TMAX 18.0 PP000=
SPZO Ene2010-042300Z 04005KT 010V070 9999 SCT040 SCT050 16/06 Q1027 TEMPO=
SPZO Ene2010-050000Z 00000KT 9999 SCT040 SCT050 15/06 Q1027 RMK PP000=
SPZO Ene2010-050100Z 00000KT 9999 SCT036 SCT050 13/05 Q1028 RMK PP000=
SPZO Ene2010-050200Z 00000KT 9999 SCT040 SCT050 13/06 Q1030 RMK PP000=
SPZO Ene2010-050300Z 00000KT 9999 SCT050 12/07 Q1031 RMK PP000=
SPZO Ene2010-050400Z 00000KT 9999 SCT050 12/06 Q1031 RMK PP000=
SPZO Ene2010-050500Z 00000KT 9999 SCT040 BKN050 10/07 Q1031 RMK PP000=
SPZO Ene2010-050600Z 00000KT 9999 SCT040 BKN050 10/07 Q1030 RMK PP000=
SPZO Ene2010-050700Z 00000KT 9999 SCT036 BKN050 10/07 Q1029 RMK PP000=
SPZO Ene2010-050800Z 00000KT 9999 SCT036 BKN050 10/07 Q1029 RMK PP000=
SPZO Ene2010-050900Z 00000KT 9999 FEW025 SCT036 BKN050 11/07 Q1029 RMK PP000=
SPZO Ene2010-051000Z 00000KT 9999 FEW025 SCT036 BKN046 10/06 Q1030 RMK PP000=
SPZO Ene2010-051100Z 00000KT 9999 DZ VCSH FEW030 SCT036 BKN043 12/09 Q1031 NOSIG RMK PP000=
SPZO Ene2010-051200Z 00000KT 9999 SCT030 SCT050 14/09 Q1032 NOSIG RMK REDZ PP002=
SPZO Ene2010-051300Z VRB02KT 9999 SCT030 SCT050 15/09 Q1032 NOSIG RMK PP000=
SPZO Ene2010-051400Z 00000KT 9999 SCT033 SCT050 16/08 Q1032 NOSIG RMK REDZ PPTRZ=
SPZO Ene2010-051500Z 05005KT 360V070 9999 SCT036 SCT050 18/07 Q1031 NOSIG RMK PP000=
SPZO Ene2010-051600Z VRB02KT 9999 SCT040 SCT050 19/07 Q1031 NOSIG RMK PP000=
SPZO Ene2010-051700Z VRB03KT 9999 SCT043 SCT050 19/07 Q1030 TEMPO VCSH RMK PP000=
SPZO Ene2010-051800Z 30007KT 250V340 9999 FEW040 SCT050 23/05 Q1029 NOSIG RMK PP000=
SPZO Ene2010-051900Z 28007KT 260V060 9999 FEW043 SCT050 23/07 Q1027 NOSIG RMK PP000=
SPZO Ene2010-052000Z 36009KT 290V030 9999 FEW043 SCT050 23/06 Q1026 NOSIG RMK PP000=
SPZO Ene2010-052100Z 36005KT 260V060 9999 FEW043TCU SCT050 22/07 Q1026 TEMPO VCSH RMK PP000=
SPZO Ene2010-052200Z 35009KT 310V050 9999 SCT050 20/06 Q1026 NOSIG RMK T.MAX 24.5 PP000=
SPZO Ene2010-052300Z 32004KT 260V050 9999 FEW043 SCT050 17/09 Q1026 NOSIG RMK PP000=
SPZO Ene2010-060000Z 00000KT 9999 SCT040 SCT050 16/06 Q1028 RMK PP000=
SPZO Ene2010-060100Z 00000KT 9999 SKC 14/03 Q1029 RMK PP000=
SPZO Ene2010-060200Z 00000KT 9999 FEW050 13/04 Q1029 RMK PP000=
SPZO Ene2010-060300Z 00000KT 9999 SKC 12/04 Q1031 RMK PP000=
SPZO Ene2010-060400Z 00000KT 9999 SKC 10/04 Q1031 RMK PP000=
SPZO Ene2010-060500Z 00000KT 9999 FEW050 09/04 Q1032 RMK PP000=
SPZO Ene2010-060600Z 06050KT 9999 SCT050 10/04 Q1030 RMK PP000=
SPZO Ene2010-060700Z 00000KT 9999 SCT050 11/07 Q1029 RMK PP000=
SPZO Ene2010-060800Z 05010KT 9999 SCT050 10/06 Q1029 RMK PP000=
SPZO Ene2010-060900Z 00000KT 9999 FEW050 10/06 Q1029 RMK PP000=
SPZO Ene2010-061000Z 00000KT 9999 FEW030 SCT050 09/06 Q1030 RMK PP000=
SPZO Ene2010-061100Z 00000KT 9999 FEW040 BKN100 09/06 Q1031 NOSIG RMK PP000=
SPZO Ene2010-061200Z VRB01KT 9999 FEW040 SCT046 BKN230 11/07 Q1032 NOSIG RMK PP000=
SPZO Ene2010-061300Z 00000KT 9999 FEW040 BKN230 14/06 Q1032 NOSIG RMK PP000=
SPZO Ene2010-061400Z VRB02KT 9999 FEW043 SCT050 14/06 Q1031 NOSIG RMK PP000=
SPZO Ene2010-061500Z 00000KT 9999 FEW043 SCT050 16/05 Q1031 NOSIG RMK PP000=
SPZO Ene2010-061600Z VRB02KT 9999 FEW043TCU SCT050 18/05 Q1030 NOSIG RMK PP000=
SPZO Ene2010-061700Z 00000KT 9999 SCT050 20/06 Q1029 NOSIG RMK PP000=
SPZO Ene2010-061800Z 35010KT 290V040 9999 VCSH FEW043TCU BKN050 19/06 Q1028 NOSIG RMK WIND RWY10 VRB07KT PP000=
SPZO Ene2010-061900Z 35005KT 280V060 9999 FEW043 SCT050 19/06 Q1028 NOSIG RMK PP000=
SPZO Ene2010-062000Z 26005KT 250V070 9999 BKN050 18/04 Q1027 NOSIG RMK=
SPZO Ene2010-062100Z VRB08KT 9999 BKN050 19/05 Q1027 NOSIG RMK WIND RWY10 28010KT 250V010 PP000=
SPZO Ene2010-062200Z 28009KT 250V320 9999 FEW043TCU BKN050 19/05 Q1027 NOSIG RMK WIND RWY10 30010KT 260V360 T.MAX.20.5 PP000=
SPZO Ene2010-062300Z 28011KT 250V350 9999 FEW043TCU SCT050 SCT080 17/06 Q1027 TEMPO VCSH RMK WIND RWY10 29009KT 230V340 PP000=
SPZO Ene2010-070000Z 05005KT 5000 -RA FEW036TCU OVC050 11/08 Q1029 RMK PP012=
SPZO Ene2010-070100Z VRB03KT 9999 OVC050 12/08 Q1029 RMK RERA PP004=
SPZO Ene2010-070200Z 00000KT 9999 BKN050 12/08 Q1030 RMK PP000=
SPZO Ene2010-070300Z 00000KT 9999 SCT050 10/07 Q1031 RMK PP000=
SPZO Ene2010-070400Z 00000KT 9999 SCT050 10/08 Q1031 RMK PP000=
SPZO Ene2010-070500Z 00000KT 9999 SCT050 10/07 Q1031 RMK PP000=
SPZO Ene2010-070600Z 00000KT 9999 SCT050 08/06 Q1031 RMK PP000=
SPZO Ene2010-070700Z 26003KT 9999 SCT050 08/06 Q1030 RMK PP000=
SPZO Ene2010-070800Z 00000KT 9999 SCT050 08/06 Q1030 RMK PP000=
SPZO Ene2010-070900Z 00000KT 9999 SCT050 07/05 Q1030 RMK PP000=
SPZO Ene2010-071000Z 00000KT 9999 FEW050 06/05 Q1030 RMK RERA PP002=
SPZO Ene2010-071100Z 00000KT 9999 FEW100 06/05 Q1031 NOSIG RMK PP000=
SPZO Ene2010-071200Z 00000KT 9999 FEW040 10/06 Q1032 NOSIG RMK PP000=
SPZO Ene2010-071300Z 00000KT 9999 FEW040 SCT080 13/06 Q1032 NOSIG RMK PP000=
SPZO Ene2010-071400Z 03004KT 260V070 9999 SCT043 15/07 Q1032 NOSIG RMK PP000=
SPZO Ene2010-071500Z VRB03KT 9999 SCT050 17/07 Q1031 NOSIG RMK PP000=
SPZO Ene2010-071600Z 05003KT 260V070 9999 SCT050 19/06 Q1031 NOSIG RMK PP000=
SPZO Ene2010-071700Z 03004KT 280V060 9999 SCT050 20/05 Q1029 NOSIG WIND RWY10 VRB05KT RMK PP000=
SPZO Ene2010-071800Z 30009KT 250V040 9999 TSRA SCT036CB SCT050 15/07 Q1028=
SPZO Ene2010-071900Z 29010KT 270V330 9999 -RA SCT040 SCT050 15/08 Q1028 BECMG FM1340 NSW RMK WIND RWY10 26015KT 270V040 PP040=
SPZO Ene2010-072000Z 27004KT 250V340 9999 VCSH FEW040TCU SCT050 19/08 Q1027 NOSIG RMK PPTRZ=
SPZO Ene2010-072100Z 26004KT 9999 FEW040TCU BKN200 19/07 Q1027 NOSIG RMK PP000=
SPZO Ene2010-072200Z 36012KT 320V050 9999 SCT046TCU BKN200 17/07 Q1026 NOSIG RMK T MAX 21.5 PP000=
SPZO Ene2010-072300Z VRB05KT 9999 FEW046TCU BKN200 17/06 Q1027 NOSIG RMK PP000=
SPZO Ene2010-080000Z 26006KT 9999 FEW046 SCT230 14/07 Q1028 RMK PP000=
SPZO Ene2010-080100Z 26004KT 9999 FEW050 13/07 Q1029 RMK PP000=
SPZO Ene2010-080200Z 00000KT 9999 FEW050 11/07 Q1029 RMK PP000=
SPZO Ene2010-080300Z 00000KT 9999 FEW043 SCT080 12/07 Q1030 RMK PP000=
SPZO Ene2010-080400Z 00000KT 9999 SCT050 10/07 Q1031 RMK PP000=
SPZO Ene2010-080500Z 00000KT 9999 FEW050 09/06 Q1031 RMK PP000=
SPZO Ene2010-080600Z 00000KT 9999 SCT040 SCT050 10/07 Q1030 RMK PP000=
SPZO Ene2010-080700Z 00000KT 9999 SCT040 SCT060 09/06 Q1029 RMK PP000=
SPZO Ene2010-080800Z 00000KT 9999 SCT043 SCT080 10/07 Q1029 RMK PP000=
SPZO Ene2010-080900Z 00000KT 9999 FEW040 SCT060 09/07 Q1027 RMK PP000=
SPZO Ene2010-081000Z 00000KT 9999 FEW036 SCT230 08/06 Q1029 RMK PP000=
SPZO Ene2010-081100Z 00000KT 9999 FEW036 BKN230 08/06 Q1029 NOSIG RMK PP000=
SPZO Ene2010-081200Z 00000KT 9000 FEW036 BKN100 09/07 Q1030 BECMG FM1300 9999 RMK PP000=
SPZO Ene2010-081300Z 05004KT 360V070 9999 FEW033 BKN200 11/08 Q1031 NOSIG RMK PP000=
SPZO Ene2010-081400Z 00000KT 9999 SCT030 BKN200 13/08 Q1031 NOSIG RMK PP000=
SPZO Ene2010-081500Z 00000KT 9999 FEW040 BKN230 15/07 Q1030 NOSIG RMK PP000=
SPZO Ene2010-081600Z VRB02KT 9999 SCT046 BKN230 18/07 Q1029 NOSIG RMK PP000=
SPZO Ene2010-081800Z 28005KT 9999 FEW040 SCT060 22/07 Q1027 NOSIG RMK PP000=
SPZO Ene2010-081900Z 30006KT 250V010 9999 FEW036TCU SCT040 20/05 Q1025 NOSIG RMK PP000=
SPZO Ene2010-082000Z 02010KT 340V070 9999 VCSH SCT040TCU SCT050 20/07 Q1024 TEMPO RA RMK PP000=
SPZO Ene2010-082100Z 01007KT 260V070 9999 +RA SCT040CB SCT046 14/09 Q1025 NOSIG RMK WIND RWY10 20005KT PP000=
SPZO Ene2010-082200Z 26006KT 9999 FEW036TCU SCT060 BKN230 14/09 Q1025 RETSRA NOSIG RMK PP008=
SPZO Ene2010-082300Z 01002KT 290V020 9999 FEW040 SCT050 BKN100 14/10 Q1027 NOSIG RMK PP000=
SPZO Ene2010-090000Z 00000KT 9999 SCT040 BKN100 14/09 Q1027 RMK PP000=
SPZO Ene2010-090100Z 30010KT 250V350 9999 FEW040 OVC050 15/06 Q1029 RMK PP000=
SPZO Ene2010-090200Z 28006KT 250V340 9999 SCT040 BKN050 14/06 Q1030 RMK PP000=
SPZO Ene2010-090300Z 34005KT 280V040 9999 SCT040 BKN046 13/07 Q1029 RMK PP000=
SPZO Ene2010-090400Z 29002KT 9999 RA OVC040 11/08 Q1031 RMK PP016=
SPZO Ene2010-090500Z 27003KT 9999 OVC040 11/08 Q1031 RMK PP002=
SPZO Ene2010-090600Z 28002KT 9999 SCT040 BKN046 11/07 Q1030 RMK PP000=
SPZO Ene2010-090700Z 28006KT 250V310 9999 SCT040 BKN050 10/07 Q1029 RMK PP000=
SPZO Ene2010-090800Z 00000KT 9999 FEW040 SCT050 10/07 Q1028 RMK PP000=
SPZO Ene2010-090900Z 00000KT 9999 SCT040 BKN050 10/07 Q1028 RMK PP000=
SPZO Ene2010-091000Z 00000KT 9999 SCT036 BKN050 10/07 Q1026 RMK PP000=
SPZO Ene2010-091100Z 00000KT 9999 SCT036 BKN046 10/08 Q1029 NOSIG RMK PP000=
SPZO Ene2010-091200Z 00000KT 9999 FEW036 SCT040 BKN080 11/08 Q1029 NOSIG RMK PP000=
SPZO Ene2010-091300Z 00000KT 9999 FEW036 SCT043 BKN100 13/08 Q1030 NOSIG RMK PP000=
SPZO Ene2010-091400Z 00000KT 9999 FEW036 SCT046 BKN100 14/08 Q1031 NOSIG RMK PP000=
SPZO Ene2010-091500Z 00000KT 9999 FEW040 SCT050 BKN200 16/07 Q1031 NOSIG RMK PP000=
SPZO Ene2010-091600Z 00000KT 9999 FEW040 SCT230 16/07 Q1029 NOSIG RMK PP000=
SPZO Ene2010-091700Z 04003KT 290V070 9999 FEW040TCU SCT050 18/08 Q1028 NOSIG RMK PP000=
SPZO Ene2010-091800Z VRB03KT 9999 SCT050 SCT150 19/08 Q1027 NOSIG RMK PP000=
SPZO Ene2010-091900Z 34008KT 280V070 9999 VCSH SCT050 SCT100 20/09 Q1025 NOSIG RMK PP000=
SPZO Ene2010-092000Z 36008KT 310V060 9999 VCSH SCT050 SCT090 18/06 Q1025 NOSIG RMK PP000=
SPZO Ene2010-092100Z 26012KT 9999 VCSH SCT050 SCT080 16/05 Q1025 NOSIG RMK PP000=
SPZO Ene2010-092200Z 27008KT 9000 VCSH SCT050 SCT080 16/07 Q1025 TEMPO -RA RMK TMAX 20.6 PP000=
SPZO Ene2010-092300Z 04005KT 330V070 8000 -RA VCSH SCT036 SCT070 12/08 Q1027 NOSIG RMK PP006=
SPZO Ene2010-100000Z 29004KT 9999 SCT036 BKN060 12/08 Q1027 RMK PP000=
SPZO Ene2010-100100Z 00000KT 9999 SCT040 SCT050 12/08 Q1027 RMK PP000=
SPZO Ene2010-100200Z 00000KT 9999 SCT040 SCT050 11/08 Q1029 RMK PP000=
SPZO Ene2010-100300Z 00000KT 9999 SCT050 11/08 Q1030 RMK PP000=
SPZO Ene2010-100400Z 00000KT 9999 SCT050 11/08 Q1030 RMK PP000=
SPZO Ene2010-100500Z 00000KT 9999 SCT050 11/08 Q1029 RMK PP000=
SPZO Ene2010-100600Z 00000KT 9999 SCT040 BKN060 11/08 Q1029 RMK PP000=
SPZO Ene2010-100700Z 00000KT 9999 SCT040 BKN050 11/08 Q1028 RMK PP000=
SPZO Ene2010-100800Z 00000KT 9999 SCT036 BKN050 10/08 Q1028 RMK PP000=
SPZO Ene2010-100900Z 00000KT 9999 FEW025 SCT036 BKN050 10/08 Q1028 RMK PP000=
SPZO Ene2010-101000Z 00000KT 9999 FEW030 SCT040 BKN050 11/08 Q1028 RMK PP000=
SPZO Ene2010-101100Z 00000KT 9999 FEW036 BKN046 10/08 Q1028 NOSIG RMK PP000=
SPZO Ene2010-101200Z 00000KT 8000 SCT033 OVC050 11/08 Q1029 NOSIG RMK HZ FU PP000=
SPZO Ene2010-101300Z 00000KT 8000 SCT033 OVC050 11/09 Q1029 NOSIG RMK HZ FU PP000=
SPZO Ene2010-101400Z 00000KT 9000 FEW033 SCT050 BKN060 16/09 Q1030 NOSIG RMK HZ FU PP000=
SPZO Ene2010-101500Z 00000KT 9999 SCT040 BKN060 17/08 Q1029 NOSIG RMK PP000=
SPZO Ene2010-101600Z 00000KT 9999 SCT040 BKN060 19/08 Q1028 NOSIG RMK PP000=
SPZO Ene2010-101700Z 00000KT 9999 SCT043 BKN060 18/08 Q1027 TEMPO VCSH RMK PP000=
SPZO Ene2010-101800Z 27004KT 260V340 9999 FEW043TCU SCT050 19/07 Q1026 TEMPO VCSH RMK PP000=
SPZO Ene2010-101900Z 32005KT 260V050 9999 VCSH SCT043TCU SCT050 19/08 Q1026 TEMPO -RA RMK PP000=
SPZO Ene2010-102000Z 34012KT 310V010 9000 TSRA FEW033 SCT043CB BKN046 13/08 Q1025 NOSIG RMK PP072=
SPZO Ene2010-102100Z 28008KT 260V330 9000 5000W -RA FEW030 SCT040TCU BKN043 12/07 Q1026 NOSIG RMK PP004=
SPZO Ene2010-102200Z 26006KT 7000 RA FEW010 SCT033 BKN043 10/08 Q1027 NOSIG RMK CLNG BLW 1200M T.MAX 19.8 PP028=
SPZO Ene2010-102300Z 00000KT 6000 RA FEW010 SCT033 BKN043 10/08 Q1027 NOSIG RMK CLNG BLW 1200M PP052=
SPZO Ene2010-110000Z 00000KT 4000 RA FEW010 SCT033 BKN040 10/08 Q1029 RMK CLNG BLW 1200M PP042=
SPZO Ene2010-110100Z 00000KT 5000 RA FEW010 SCT033 BKN040 10/08 Q1029 RMK CLNG BLW 1200M PP006=
SPZO Ene2010-110200Z 04002KT 5000 RA FEW010 SCT033 BKN040 10/07 Q1031 RMK CLNG BLW 1200M PP018=
SPZO Ene2010-110300Z 05003KT 5000 FEW010 SCT033 BKN040 09/07 Q1031 RMK CLNG BLW 1200M PP008=
SPZO Ene2010-110400Z 00000KT 8000 FEW010 SCT033 BKN040 09/07 Q1031 RMK PP016=
SPZO Ene2010-110500Z 00000KT 8000 RA FEW020 SCT040 BKN050 09/07 Q1031 RMK PP026=
SPZO Ene2010-110600Z 00000KT 9999 RA SCT036 BKN046 09/07 Q1030 RMK PP030=
SPZO Ene2010-110700Z 00000KT 9999 RA SCT036 BKN046 09/07 Q1029 RMK PP010=
SPZO Ene2010-110800Z 00000KT 9999 RA SCT036 BKN046 09/07 Q1029 RMK PP016=
SPZO Ene2010-110900Z 00000KT 9999 RA SCT036 BKN046 08/06 Q1029 RMK PP010=
SPZO Ene2010-111000Z 00000KT 9999 -RA SCT036 BKN046 08/07 Q1029 RMK PP004=
SPZO Ene2010-111100Z 00000KT 8000 DZ FEW015 SCT030 BKN043 08/06 Q1032 NOSIG RMK PPTRZ=
SPZO Ene2010-111200Z 00000KT 9000 SCT020 SCT043 BKN080 09/07 Q1032 NOSIG RMK PP000=
SPZO Ene2010-111300Z 00000KT 9999 FEW020 SCT046 BKN080 11/06 Q1031 NOSIG RMK PP000=
SPZO Ene2010-111400Z 00000KT 9999 FEW030 SCT046 BKN100 13/04 Q1032 NOSIG RMK PP000=
SPZO Ene2010-111500Z VRB02KT 9999 FEW036 SCT046 BKN100 16/06 Q1031 NOSIG RMK PP000=
SPZO Ene2010-111600Z 30004KT 260V040 9999 FEW036 SCT050 17/07 Q1031 NOSIG RMK PP000=
SPZO Ene2010-111700Z 31004KT 260V060 9999 FEW043TCU SCT050 19/07 Q1030 TEMPO VCSH RMK PP000=
SPZO Ene2010-111800Z 28012KT 250V340 9999 FEW043TCU SCT050 20/08 Q1028 NOSIG RMK WIND RWY10 28008KT 220V360 PP000=
SPZO Ene2010-111900Z 26016KT 9999 FEW043TCU BKN046 20/08 Q1027 TEMPO=
SPZO Ene2010-112000Z 28011KT 250V320 9999 FEW043TCU BKN046 18/07 Q1026 TEMPO VCSH =
SPZO Ene2010-112100Z 27008KT 9999 FEW043TCU BKN046 18/09 Q1025 TEMPO=
SPZO Ene2010-112200Z 27006KT 240V310 9999 FEW043TCU BKN046 17/07 Q1030 TEMPO VCSH RMK WIND RWY10 22005KT 200V310 T.MAX.20.6 PP000=
SPZO Ene2010-112300Z 05007KT 330V070 9999 FEW043TCU BKN050 15/07 Q1026 NOSIG RMK PP000=
SPZO Ene2010-120000Z 05005KT 9999 OVC050 14/08 Q1027 RMK PP000=
SPZO Ene2010-120100Z 06004KT 8000 -RA SCT040 BKN050 13/09 Q1028 RMK PPTRZ=
SPZO Ene2010-120200Z VRB02KT 8000 -RA FEW040 SCT050 BKN060 12/09 Q1029 RMK PP008=
SPZO Ene2010-120300Z VRB03KT 8000 -RA FEW040 SCT050 BKN060 12/09 Q1029 RMK PP004=
SPZO Ene2010-120400Z VRB04KT 8000 -RA FEW040 SCT050 BKN060 11/09 Q1030 RMK PP002=
SPZO Ene2010-120500Z 05005KT 5000 +RA FEW010 SCT030 BKN050 09/08 Q1031 RMK PP094=
SPZO Ene2010-120600Z 06003KT 5000 +RA FEW010 SCT030 BKN040 09/07 Q1031 RMK PP020=
SPZO Ene2010-120700Z 06003KT 5000 RA FEW010 SCT030 BKN040 09/07 Q1030 RMK PP014=
SPZO Ene2010-120800Z 00000KT 5000 -RA FEW010 SCT030 BKN040 09/07 Q1030 RMK PP004=
SPZO Ene2010-120900Z 00000KT 6000 FEW010 SCT030 BKN040 08/06 Q1029 RMK RERA BR PPTRZ=
SPZO Ene2010-121000Z 00000KT 7000 -DZ FEW010 SCT030 BKN050 08/06 Q1029 RMK BR PPTRZ=
SPZO Ene2010-121100Z 00000KT 9000 FEW010 SCT033 BKN050 08/06 Q1030 BECMG FM1230 9999 RMK BR PP002=
SPZO Ene2010-121200Z 00000KT 9000 FEW010 SCT043 BKN100 09/07 Q1031 NOSIG RMK BCFG CDTES NE-SE PP000=
SPZO Ene2010-121300Z 00000KT 9999 FEW010 SCT040 BKN100 10/07 Q1032 NOSIG RMK PP000=
SPZO Ene2010-121400Z 00000KT 9999 FEW020 BKN100 12/07 Q1030 NOSIG RMK PP000=
SPZO Ene2010-121500Z 00000KT 9999 FEW020 BKN100 13/07 Q1032 NOSIG RMK PP000=
SPZO Ene2010-121600Z 00000KT 9999 FEW036 BKN080 14/07 Q1031 NOSIG RMK PP000=
SPZO Ene2010-121700Z 00000KT 9999 SCT040 BKN080 15/06 Q1030 NOSIG RMK PP000=
SPZO Ene2010-121800Z 00000KT 9999 SCT040 BKN100 17/08 Q1028 NOSIG RMK PP000=
SPZO Ene2010-121900Z 00000KT 9999 VCSH FEW036TCU SCT040 BKN060 18/08 Q1027 TEMPO RA RMK PP000=
SPZO Ene2010-122000Z 00000KT 9999 -RA FEW030TCU SCT046 BKN070 13/08 Q1027 NOSIG RMK WIND RWY10 27004KT PP004=
SPZO Ene2010-122100Z 00000KT 9999 VCSH SCT040 BKN060 13/08 Q1027 NOSIG RERA RMK PPTRZ=
SPZO Ene2010-122200Z 00000KT 9999 FEW040 BKN080 14/08 Q1027 NOSIG RMK T MAX 18.3 PP000=
SPZO Ene2010-122300Z 00000KT 9999 FEW040 BKN080 14/09 Q1027 NOSIG RMK PP000=
SPZO Ene2010-130000Z 00000KT 9999 FEW036 BKN080 13/09 Q1028 RMK PP000=
SPZO Ene2010-130100Z 27004KT 260V360 9999 SCT040 SCT060 13/09 Q1029 RMK PP000=
SPZO Ene2010-130200Z 26008KT 9999 SCT043 SCT080 12/08 Q1030 RMK PP000=
SPZO Ene2010-130300Z 00000KT 9999 SCT043 SCT080 12/08 Q1031 RMK PP000=
SPZO Ene2010-130400Z 00000KT 9999 SCT040 SCT100 11/08 Q1031 RMK PP000=
SPZO Ene2010-130500Z 00000KT 9999 SCT036 BKN046 11/09 Q1031 RMK PP000=
SPZO Ene2010-130600Z 05004KT 9999 SCT036 BKN050 11/09 Q1030 RMK PP000=
SPZO Ene2010-130700Z 00000KT 9999 -RA SCT036 BKN043 11/09 Q1030 RMK PP002=
SPZO Ene2010-130800Z 00000KT 9999 BKN040 SCT050 11/09 Q1029 RMK PP000=
SPZO Ene2010-130900Z 00000KT 9999 BKN040 SCT050 11/09 Q1029 RMK PP000=
SPZO Ene2010-131000Z 00000KT 9999 FEW036 SCT040 BKN050 11/09 Q1029 RMK PP000=
SPZO Ene2010-131100Z 00000KT 9999 FEW036 SCT040 BKN050 11/09 Q1030 NOSIG RMK PP000=
SPZO Ene2010-131200Z 00000KT 9999 FEW036 BKN046 11/09 Q1031 NOSIG RMK PP000=
SPZO Ene2010-131300Z 00000KT 9999 FEW036 BKN050 13/09 Q1031 NOSIG RMK PP000=
SPZO Ene2010-131400Z 00000KT 9999 FEW036 BKN050 15/09 Q1031 NOSIG RMK=
SPZO Ene2010-131500Z 05005KT 330V070 9999 FEW040 BKN060 17/09 Q1031 NOSIG RMK PP000=
SPZO Ene2010-131600Z VRB03KT 9999 FEW040TCU SCT050 19/07 Q1029 TEMPO=
SPZO Ene2010-131700Z 35009KT 300V060 9999 VCSH SCT040TCU BKN050 17/06 Q1029 NOSIG RMK WIND RWY10 VRB06KT PP000=
SPZO Ene2010-131800Z 00000KT 9999 SCT046 BKN080 18/07 Q1029 TEMPO VCSH RMK PP000=
SPZO Ene2010-131900Z 00000KT 9999 FEW040TCU SCT050 BKN080 19/06 Q1028 NOSIG RMK PP000=
SPZO Ene2010-132000Z 34005KT 300V020 9999 FEW040TCU BKN080 19/06 Q1027 TEMPO -RA RMK PP000=
SPZO Ene2010-132100Z VRB04KT 9999 VCSH SCT046 BKN200 18/07 Q1027 NOSIG RMK PP000=
SPZO Ene2010-132200Z 26005KT 9999 SCT040 BKN100 17/07 Q1027 TEMPO VCSH RMK T MAX 19.8 PP000=
SPZO Ene2010-132300Z 29006KT 9999 SCT043 BKN100 16/07 Q1027 NOSIG RMK PP000=
SPZO Ene2010-140000Z 27008KT 9999 SCT046 BKN100 15/08 Q1028 RMK PP000=
SPZO Ene2010-140100Z 26002KT 9999 SCT046 BKN100 14/08 Q1029 RMK PP000=
SPZO Ene2010-140200Z 26006KT 9999 SCT043 BKN100 14/08 Q1030 RMK PP000=
SPZO Ene2010-140300Z 33009KT 280V020 9999 OVC040 12/05 Q1031 RMK PP000=
SPZO Ene2010-140400Z 28007KT 9999 RA OVC040 10/07 Q1032 RMK PP022=
SPZO Ene2010-140500Z 33002KT 9000 -RA OVC040 10/07 Q1032 RMK PP006=
SPZO Ene2010-140600Z 00000KT 9000 -RA OVC040 09/07 Q1031 RMK PP0032=
SPZO Ene2010-140700Z 00000KT 9000 DZ OVC040 10/07 Q1031 RMK PP006=
SPZO Ene2010-140800Z 00000KT 8000 -RA OVC040 10/07 Q1031 RMK PP004=
SPZO Ene2010-140900Z 00000KT 8000 -RA OVC040 09/07 Q1031 RMK PP008=
SPZO Ene2010-141000Z 30006KT 7000 -RA SCT036 OVC040 09/06 Q1031 RMK PP018=
SPZO Ene2010-141100Z 28003KT 9000 DZ FEW010 SCT033 BKN043 08/06 Q1032 NOSIG RMK CLNG BLW 1200M PP002=
SPZO Ene2010-141200Z 00000KT 9999 FEW010 SCT036 BKN046 09/06 Q1032 BECMG FM1240 SC=
SPZO Ene2010-141300Z VRB01KT 9999 SCT036 BKN060 10/06 Q1033 NOSIG RMK PP000=
SPZO Ene2010-141400Z 27002KT 250V330 9999 FEW030 SCT040 BKN080 12/07 Q1033 NOSIG RMK PP000=
SPZO Ene2010-141500Z VRB02KT 9999 FEW036 SCT200 15/09 Q1032 NOSIG RMK PP000=
SPZO Ene2010-141600Z VRB03KT 9999 FEW036 SCT040 BKN080 16/07 Q1032 TEMPO=
SPZO Ene2010-141700Z 05006KT 9999 FEW036 SCT040 BKN050 15/07 Q1031 TEMPO=
SPZO Ene2010-141800Z VRB03KT 9999 VCSH FEW033 SCT040 BKN050 17/06 Q1029 NOSIG RMK PP000=
SPZO Ene2010-141900Z 35007KT 290V040 9999 VCSH FEW033 SCT040 BKN050 15/07 Q1029 TEMPO RA RMK PP000=
SPZO Ene2010-142000Z 28005KT 250V320 8000 -RA VCSH FEW033 SCT040 BKN050 14/08 Q1029 NOSIG RMK PPTRZ=
SPZO Ene2010-142100Z 28006KT 250V320 9999 FEW040 SCT050 BKN060 15/08 Q1028 NOSIG RMK RERA PP002=
SPZO Ene2010-142200Z 00000KT 9999 FEW040 SCT050 BKN060 16/07 Q1028 TEMPO=
SPZO Ene2010-142300Z 06004KT 9999 SCT040 BKN050 15/07 Q1028 NOSIG RMK PP000=
SPZO Ene2010-150000Z 26006KT 9999 SCT040 BKN050 14/07 Q1028 RMK PP000=
SPZO Ene2010-150100Z 00000KT 9999 SCT046 BKN050 14/07 Q1030 RMK PP000=
SPZO Ene2010-150200Z 00000KT 9999 SCT046 BKN060 13/06 Q1031 RMK PP000=
SPZO Ene2010-150300Z 00000KT 9999 SCT050 BKN060 12/05 Q1032 RMK PP000=
SPZO Ene2010-150400Z 00000KT 9999 SCT050 BKN100 10/06 Q1032 RMK PP000=
SPZO Ene2010-150500Z 00000KT 9999 SCT046 BKN100 10/07 Q1031 RMK PP000=
SPZO Ene2010-150600Z 00000KT 9999 SCT043 BKN050 09/06 Q1032 RMK PP000=
SPZO Ene2010-150700Z 34005KT 9999 SCT043 BKN050 09/06 Q1031 RMK PP000=
SPZO Ene2010-150800Z 00000KT 9999 SCT046 BKN050 09/07 Q1031 RMK PP000=
SPZO Ene2010-150900Z 05004KT 9999 FEW020 SCT036 BKN050 09/07 Q1030 RMK PP000=
SPZO Ene2010-151000Z 05006KT 9000 -RA FEW010 SCT033 BKN050 09/07 Q1031 RMK PP005=
SPZO Ene2010-151100Z 04004KT 010V070 8000 RA FEW010 SCT025 BKN046 10/08 Q1032 NOSIG RMK CLNG BLW 1200M PP002=
SPZO Ene2010-151200Z 06005KT 7000 -RA VCSH FEW010 SCT020 BKN040 09/07 Q1033 NOSIG RMK CLNG BLW 1200M PP005=
SPZO Ene2010-151300Z 03004KT 350V060 8000 FEW010 SCT020 BKN040 10/07 Q1033 RERA BECMG FM1340 SCT036 BKN046 RMK BR CLNG BLW 1200M PPTRZ=
SPZO Ene2010-151400Z VRB03KT 9000 SCT015 SCT040 BKN070 11/07 Q1034 NOSIG RMK BR PP000=
SPZO Ene2010-151500Z 04004KT 320V070 9999 FEW015 SCT040 BKN070 13/07 Q1033 NOSIG RMK PP000=
SPZO Ene2010-151600Z 05006KT 350V070 9999 FEW020 SCT040 BKN070 15/06 Q1032 NOSIG RMK PP000=
SPZO Ene2010-151700Z 05006KT 9999 FEW030 SCT040 BKN070 15/07 Q1032 NOSIG RMK PP000=
SPZO Ene2010-151800Z 05004KT 360V060 9999 VCSH FEW030 SCT043CB BKN070 15/06 Q1031 NOSIG RMK PP000=
SPZO Ene2010-151900Z 28014KT 250V320 9999 VCSH FEW040CB SCT046 BKN070 16/09 Q1030 NOSIG RMK PP000=
SPZO Ene2010-152000Z 27011KT 9999 VCSH FEW040TCU SCT050 BKN080 15/08 Q1029 NOSIG RMK PP000=
SPZO Ene2010-152100Z 02005KT 330V060 9999 VCSH FEW043TCU SCT050 BKN080 14/09 Q1029 NOSIG RMK PP000=
SPZO Ene2010-152200Z VRB01KT 9999 VCSH FEW040 SCT050 BKN080 15/09 Q1029 RESHRA NOSIG RMK T.MAX 17.1 PP002=
SPZO Ene2010-152300Z 00000KT 9999 SCT050 14/09 Q1029 NOSIG RMK PP000=
SPZO Ene2010-160000Z 04004KT 360V070 9999 FEW040 SCT050 13/08 Q1030 RMK PP000=
SPZO Ene2010-160100Z 00000KT 9999 FEW050 12/09 Q1031 RMK PP000=
SPZO Ene2010-160200Z 00000KT 9999 FEW050 12/08 Q1032 RMK PP000=
SPZO Ene2010-160300Z 00000KT 9999 FEW050 13/09 Q1032 RMK PP000=
SPZO Ene2010-160400Z 00000KT 9999 FEW050 12/08 Q1032 RMK PP000=
SPZO Ene2010-160500Z 07004KT 9999 RA FEW030 SCT050 10/08 Q1032 RMK PP012=
SPZO Ene2010-160600Z 00000KT 9999 FEW030 SCT040 10/08 Q1031 RMK PP000=
SPZO Ene2010-160700Z 00000KT 9999 FEW040 SCT050 11/08 Q1031 RMK PP000=
SPZO Ene2010-160800Z 00000KT 9999 FEW040 SCT050 11/08 Q1031 RMK PP000=
SPZO Ene2010-160900Z 05003KT 9999 FEW040 SCT050 10/08 Q1031 RMK PP000=
SPZO Ene2010-161000Z 00000KT 9999 FEW030 SCT040 10/08 Q1031 RMK PP000=
SPZO Ene2010-161100Z 00000KT 9999 DZ VCSH FEW010 SCT030 BKN043 11/09 Q1031 NOSIG RMK PP000=
SPZO Ene2010-161200Z 00000KT 9999 VCSH FEW010 SCT033 BKN043 11/08 Q1032 NOSIG RMK PP000=
SPZO Ene2010-161300Z 00000KT 9999 FEW020 SCT036 BKN060 12/08 Q1032 NOSIG RMK PP000=
SPZO Ene2010-161400Z 00000KT 9999 VCSH FEW030 SCT046 BKN080 15/08 Q1032 NOSIG RMK PP000=
SPZO Ene2010-161500Z 05005KT 330V060 9999 FEW036 SCT046 BKN080 15/08 Q1032 NOSIG RMK PP000=
SPZO Ene2010-161600Z 05004KT 340V060 9999 FEW036 SCT046 BKN100 16/08 Q1032 NOSIG RMK PP000=
SPZO Ene2010-161700Z VRB03KT 9999 VCSH FEW036 SCT046 BKN080 17/07 Q1031 NOSIG RMK PP000=
SPZO Ene2010-161800Z 26010KT 250V340 9999 VCSH SCT043 BKN050 18/08 Q1030 NOSIG RMK PP000=
SPZO Ene2010-161900Z 26005KT 250V330 9999 VCSH SCT043 BKN050 17/08 Q1029 NOSIG RMK WIND RWY10 28007KT 240V340 PP000=
SPZO Ene2010-162000Z 28012KT 240V310 9999 VCSH SCT043 SCT050 19/08 Q1028 NOSIG RMK WIND RWY10 240V030 PP000=
SPZO Ene2010-162100Z 29004KT 250V350 9999 VCSH SCT043 SCT050 19/07 Q1027 NOSIG RMK PP000=
SPZO Ene2010-162200Z 03006KT 350V070 9999 RA SCT043TCU BKN050 15/09 Q1028 BECMG 22=
SPZO Ene2010-162300Z 03004KT 9999 DZ SCT043 SCT080 14/08 Q1027 BECMG FM2330 NSW RMK PP000=
SPZO Ene2010-170000Z 00000KT 9999 BKN050 14/09 Q1029 REDZ RMK PP026=
SPZO Ene2010-170100Z 00000KT 9999 BKN050 12/09 Q1030 RMK PP000=
SPZO Ene2010-170200Z 00000KT 9999 BKN050 13/10 Q1031 RMK PP000=
SPZO Ene2010-170300Z 06009KT 9999 OVC050 12/09 Q1032 RMK PP000=
SPZO Ene2010-170400Z 02004KT 350V060 9999 OVC050 11/08 Q1032 RMK PP000=
SPZO Ene2010-170500Z 03002KT 9999 OVC050 11/08 Q1032 RMK PP000=
SPZO Ene2010-170600Z 00000KT 5000 -RA SCT040 OVC050 11/08 Q1032 RMK PP004=
SPZO Ene2010-170700Z 00000KT 5000 +RA SCT020TCU SCT040 BKN050 10/08 Q1032 RMK PP102=
SPZO Ene2010-170800Z 00000KT 7000 FEW020 SCT040 BKN050 10/08 Q1032 RERA RMK PP004=
SPZO Ene2010-170900Z 00000KT 7000 RA FEW020 SCT040 BKN050 10/08 Q1032 RMK PP018=
SPZO Ene2010-171000Z 00000KT 8000 FEW020 SCT040 BKN050 10/08 Q1032 RERA RMK PP006=
SPZO Ene2010-171100Z 00000KT 9000 SCT040 SCT050 10/08 Q1032 NOSIG RMK BR PP000=
SPZO Ene2010-171200Z 00000KT 9999 FEW030 SCT050 12/08 Q1033 NOSIG RMK PP000=
SPZO Ene2010-171300Z 00000KT 9999 FEW030 SCT100 12/09 Q1033 NOSIG RMK PP000=
SPZO Ene2010-171400Z 34003KT 250V040 9999 SCT036 16/07 Q1033 NOSIG RMK PP000=
SPZO Ene2010-171500Z VRB03KT 9999 SCT040 18/07 Q1033 NOSIG RMK PP000=
SPZO Ene2010-171600Z 00000KT 9999 SCT040 20/06 Q1032 NOSIG RMK PP000=
SPZO Ene2010-171700Z 29011KT 260V340 9999 VCSH SCT040TCU SCT050 17/08 Q1032 NOSIG RMK PP000=
SPZO Ene2010-171800Z 27007KT 9999 FEW046 BKN080 17/09 Q1031 NOSIG RMK PP000=
SPZO Ene2010-171900Z 30006KT 250V030 9999 SCT050 18/10 Q1029 NOSIG RMK=
SPZO Ene2010-172000Z 26012KT 9999 SCT043TCU SCT050 20/09 Q1028 TEMPO=
SPZO Ene2010-172100Z 28008KT 250V310 9999 VCSH FEW043TCU BKN050 16/10 Q1028 TEMPO -RA RMK PP002=
SPZO Ene2010-172200Z 26008KT 9999 VCSH FEW040TCU BKN050 17/09 Q1028 NOSIG RMK T MAX 22.5 PP000=
SPZO Ene2010-172300Z 27007KT 9999 FEW040TCU BKN100 16/09 Q1029 TEMPO=
SPZO Ene2010-180000Z 28010KT 9999 SCT040TCU BKN046 14/08 Q1031 RMK PP000=
SPZO Ene2010-180100Z 28003KT 9999 SCT040 SCT046 13/09 Q1031 RMK PP000=
SPZO Ene2010-180200Z 26006KT 9999 SCT043 SCT080 13/08 Q1032 RMK PP000=
SPZO Ene2010-180300Z 29004KT 9999 BKN043 SCT060 12/09 Q1032 RMK PP000=
SPZO Ene2010-180400Z 27007KT 9999 BKN040 SCT050 11/08 Q1032 RMK PP000=
SPZO Ene2010-180500Z 00000KT 9999 -RA SCT036 BKN043 10/08 Q1032 RMK PP000=
SPZO Ene2010-180600Z 00000KT 9999 BKN040 SCT050 11/08 Q1032 RMK PPTRZ=
SPZO Ene2010-180700Z 00000KT 9999 OVC040 10/08 Q1032 RMK PP000=
SPZO Ene2010-180800Z 00000KT 9999 BKN043 SCT050 10/08 Q1031 RMK PP000=
SPZO Ene2010-180900Z 00000KT 9999 BKN040 SCT046 10/08 Q1031 RMK PP000=
SPZO Ene2010-181000Z 06003KT 9999 FEW033 SCT040 BKN046 11/08 Q1031 RMK PP000=
SPZO Ene2010-181100Z 00000KT 9999 FEW033 SCT040 BKN046 12/08 Q1032 NOSIG RMK PP000=
SPZO Ene2010-181200Z 00000KT 9999 FEW033 SCT043 BKN070 12/08 Q1033 NOSIG RMK PP000=
SPZO Ene2010-181300Z 00000KT 9999 SCT033 BKN080 12/08 Q1033 NOSIG RMK PP000=
SPZO Ene2010-181400Z 00000KT 9999 FEW030 SCT043 BKN060 15/07 Q1034 NOSIG RMK PP000=
SPZO Ene2010-181500Z 05003KT 300V070 9999 FEW030 SCT043 BKN070 15/07 Q1033 NOSIG RMK PP000=
SPZO Ene2010-181600Z 05008KT 9999 VCSH FEW036 SCT046 BKN050 15/08 Q1033 NOSIG RMK PP000=
SPZO Ene2010-181700Z 00000KT 9999 SCT046 BKN060 17/07 Q1032 TEMPO VCSH RMK PP000=
SPZO Ene2010-181800Z VRB03KT 9999 SCT043 BKN060 18/06 Q1003 NOSIG RMK PP000=
SPZO Ene2010-181900Z 27005KT 250V030 9999 TS VCSH FEW040CB SCT043 BKN050 17/08 Q1030 TEMPO -RA RMK WIND RWY10 27011KT 230V350 PP000=
SPZO Ene2010-182000Z 26009KT 9999 RA FEW010 SCT040 BKN046 11/08 Q1031 TEMPO 9000 RMK PP000=
SPZO Ene2010-182100Z 00000KT 9999 DZ VCSH SCT043 BKN100 12/08 Q1029 BECMG FM2130 NSW RMK PP010=
SPZO Ene2010-182200Z 06003KT 350V070 9999 FEW030 SCT040 BKN100 14/09 Q1029 RMK T MAX 18.8 PPTRZ=
SPZO Ene2010-182300Z 00000KT 9999 FEW040 SCT100 14/08 Q1029 NOSIG RMK PP000=
SPZO Ene2010-190000Z 04004KT 9999 SCT050 BKN100 12/08 Q1030 RMK PP000=
SPZO Ene2010-190100Z 02002KT 9999 FEW050 SCT100 11/08 Q1031 RMK PP000=
SPZO Ene2010-190200Z 00000KT 9999 SCT043 BKN080 11/08 Q1032 RMK PP000=
SPZO Ene2010-190300Z 00000KT 9999 SCT040 BKN080 11/08 Q1032 RMK PP000=
SPZO Ene2010-190400Z 05004KT 9999 SCT040 BKN080 11/08 Q1032 RMK PP000=
SPZO Ene2010-190500Z 00000KT 9999 DZ OVC040 11/09 Q1032 RMK PPTRZ=
SPZO Ene2010-190600Z 01002KT 9999 OVC040 11/08 Q1031 RMK PP000=
SPZO Ene2010-190700Z 00000KT 9999 FEW020 OVC040 10/09 Q1031 RMK PP000=
SPZO Ene2010-190800Z 00000KT 9999 FEW020 OVC040 10/08 Q1031 RMK PP000=
SPZO Ene2010-190900Z 00000KT 9999 FEW020 OVC040 10/08 Q1030 RMK PP000=
SPZO Ene2010-191000Z 00000KT 9999 FEW015 OVC040 10/08 Q1031 RMK PP000=
SPZO Ene2010-191100Z 00000KT 9999 FEW015 SCT040 BKN080 10/08 Q1031 NOSIG RMK PP000=
SPZO Ene2010-191200Z 00000KT 9999 SCT040 BKN060 11/09 Q1032=
SPZO Ene2010-191300Z 00000KT 9999 FEW020 SCT040 BKN060 12/09 Q1032 NOSIG RMK BCBR/ NE-SE PP000=
SPZO Ene2010-191400Z 06004KT 9999 FEW020 SCT043 BKN050 14/10 Q1032 NOSIG RMK PP000=
SPZO Ene2010-191500Z 00000KT 9999 FEW030 SCT050 16/07 Q1032 NOSIG RMK PP000=
SPZO Ene2010-191600Z 00000KT 9999 FEW040TCU BKN050 17/08 Q1031 NOSIG RMK PP000=
SPZO Ene2010-191700Z 29011KT 250V330 9000 RA SCT043TCU SCT050 13/08 Q1030 BECMG FM1740 NSW RMK PP008=
SPZO Ene2010-191800Z 06008KT 8000 VCSH FEW036TCU OVC050 13/08 Q1030 TEMPO -RA RMK PP012=
SPZO Ene2010-191900Z VRB02KT 8000 VCSH FEW036TCU OVC050 14/07 Q1030 TEMPO -RA RMK PP000=
SPZO Ene2010-192000Z VRB02KT 9000 VCSH FEW036 OVC050 15/09 Q1029 RERA NOSIG RMK PP002=
SPZO Ene2010-192100Z 05002KT 9999 FEW040 SCT050 BKN060 15/07 Q1028 NOSIG RMK PP000=
SPZO Ene2010-192200Z 00000KT 9999 SCT050 SCT060 15/08 Q1027 NOSIG RMK TMAX 18.0 PP000=
SPZO Ene2010-192300Z 00000KT 9999 SCT050 SCT060 14/07 Q1028 NOSIG RMK PP000=
SPZO Ene2010-200000Z 00000KT 9999 SCT050 BKN100 13/09 Q1029 RMK PP000=
SPZO Ene2010-200100Z 00000KT 9999 SCT050 11/08 Q1029 RMK PP000=
SPZO Ene2010-200200Z 00000KT 9999 SCT050 10/07 Q1030 RMK PP000=
SPZO Ene2010-200300Z 00000KT 9999 SCT050 10/08 Q1030 RMK PP000=
SPZO Ene2010-200400Z 00000KT 9999 SCT050 10/08 Q1030 RMK PP000=
SPZO Ene2010-200500Z 00000KT 9999 SCT046 BKN050 10/08 Q1030 RMK PP000=
SPZO Ene2010-200600Z 00000KT 9999 SCT043 BKN050 10/08 Q1029 RMK PP000=
SPZO Ene2010-200700Z 00000KT 9999 SCT043 BKN050 10/08 Q1029 RMK PP000=
SPZO Ene2010-200800Z 00000KT 9999 SCT043 BKN050 10/08 Q1029 RMK PP000=
SPZO Ene2010-200900Z 00000KT 9999 FEW030 SCT043 BKN050 10/08 Q1029 RMK PP000=
SPZO Ene2010-201000Z 00000KT 9000 SCT046 BKN050 10/08 Q1029 RMK PP000=
SPZO Ene2010-201100Z 00000KT 7000 -RA FEW025 SCT040 BKN046 11/08 Q1030 BECMG FM1130 8000 RMK PP002=
SPZO Ene2010-201200Z 00000KT 8000 -RA FEW020 SCT030 BKN050 11/09 Q1031 BECMG FM1300 SCT036 BKN046 RMK CLNG BLW 1200M PPTRZ=
SPZO Ene2010-201300Z 00000KT 8000 FEW020 SCT030 BKN050 12/09 Q1031 RERA NOSIG RMK BR PPTRZ=
SPZO Ene2010-201400Z 00000KT 8000 FEW020 SCT030 BKN050 14/08 Q1031 NOSIG RMK BR PP000=
SPZO Ene2010-201500Z 00000KT 8000 -RA VCSH FEW020 SCT030 BKN050 14/09 Q1031 NOSIG RMK PP002=
SPZO Ene2010-201600Z 00000KT 9000 SCT033 BKN050 15/09 Q1031 TEMPO VCSH RMK PP004=
SPZO Ene2010-201700Z 02004KT 330V070 6000 -TSRA FEW020CB SCT033 BKN050 11/08 Q1031 BECMG FM1720 8000 RMK PP048=
SPZO Ene2010-201800Z 06005KT 9999 VCSH FEW036 SCT043 BKN070 12/08 Q1030 NOSIG RMK PP008=
SPZO Ene2010-201900Z VRB02KT 9999 FEW036 SCT046 BKN230 15/08 Q1028 TEMPO=
SPZO Ene2010-202000Z 00000KT 9999 VCSH FEW036 SCT043TCU BKN050 16/07 Q1028 TEMPO -RA RMK PP000=
SPZO Ene2010-202100Z 28006KT 260V350 9999 FEW050 SCT230 18/06 Q1027 NOSIG RMK PP000=
SPZO Ene2010-202200Z 26011KT 9999 SCT043 17/06 Q1025 NOSIG RMK WIND RWY10 27008KT PP000=
SPZO Ene2010-202300Z 26007KT 9999 FEW046 SCT230 16/08 Q1027 NOSIG RMK PP000=
SPZO Ene2010-210000Z 26003KT 9999 FEW060 13/07 Q1028 RMK PP000=
SPZO Ene2010-210100Z 00000KT 9999 FEW060 13/08 Q1029 RMK PP000=
SPZO Ene2010-210200Z 00000KT 9999 FEW030 SCT050 13/09 Q1030 RMK PP000=
SPZO Ene2010-210300Z 05010KT 9999 FEW030 SCT050 10/07 Q1032 RMK PP000=
SPZO Ene2010-210400Z 00000KT 9999 RA FEW050 SCT080 10/07 Q1032 RMK PP018=
SPZO Ene2010-210500Z 00000KT 9999 -DZ FEW050 SCT080 10/07 Q1031 RMK PPTRZ=
SPZO Ene2010-210600Z 00000KT 9999 RA FEW050 SCT080 10/08 Q1031 PP1031 RMK PP016=
SPZO Ene2010-210700Z 00000KT 9999 -DZ FEW040 SCT050 10/08 Q1030 RMK PP004=
SPZO Ene2010-210800Z 05004KT 9999 FEW040 SCT050 10/08 Q1031 RMK PP002=
SPZO Ene2010-210900Z 00000KT 9999 FEW050 09/08 Q1029 RMK PP000=
SPZO Ene2010-211000Z 00000KT 9999 -DZ FEW030 SCT050 09/08 Q1030 RMK PPTRZ=
SPZO Ene2010-211100Z 00000KT 9999 DZ FEW020 SCT033 BKN046 10/08 Q1030 NOSIG RMK CLNG BLW 1200M PP000=
SPZO Ene2010-211200Z 00000KT 9999 FEW025 SCT033 BKN046 10/08 Q1031 NOSIG RMK PP000=
SPZO Ene2010-211300Z 00000KT 9999 FEW020 SCT036 BKN046 11/08 Q1032 TEMPO=
SPZO Ene2010-211400Z 00000KT 9999 FEW025 SCT040 BKN050 12/07 Q1032 NOSIG RMK BCFG CDTE / E PP000=
SPZO Ene2010-211500Z VRB02KT 9999 FEW030 SCT043 BKN050 14/07 Q1032 NOSIG RMK PP000=
SPZO Ene2010-211600Z 02003KT 290V070 9999 FEW036 SCT046 BKN050 15/07 Q1031 NOSIG RMK PP000=
SPZO Ene2010-211700Z VRB02KT 9999 FEW036 SCT046 BKN050 16/07 Q1030 NOSIG RMK PP000=
SPZO Ene2010-211800Z 04007KT 250V070 9999 VCSH FEW043TCU SCT046 BKN100 17/09 Q1029 NOSIG RMK PP000=
SPZO Ene2010-211900Z 35006KT 310V040 9999 RA SCT040TCU BKN046 15/06 Q1029 NOSIG RMK WIND RWY10 VRB06KT PPTRZ=
SPZO Ene2010-212000Z 28919KT 250V310 9999 VCSH SCT043TCU BKN050 14/07 Q1028 RERA T=
SPZO Ene2010-212100Z 07005KT 9999 SCT043 BKN100 16/07 Q1026 TEMPO VCSH RMK PP000=
SPZO Ene2010-212200Z 00000KT 9999 VCSH FEW043TCU BKN050 17/07 Q1026 TEMPO -RA RMK T.MAX.17.6 PP000=
SPZO Ene2010-212300Z 05006KT 9999 VCSH SCT043TCU BKN050 15/09 Q1028 NOSIG RMK PP000=
SPZO Ene2010-220000Z 05009KT 9999 OVC040 14/09 Q1029 RMK PP000=
SPZO Ene2010-220100Z 00000KT 5000 +RA SCT020 SCT040 BKN050 12/09 Q1031 RMK PP040=
SPZO Ene2010-220200Z 00000KT 6000 -RA SCT020 SCT040 BKN050 12/09 Q1032 RMK PP010=
SPZO Ene2010-220300Z 00000KT 6000 -RA SCT020 SCT040 BKN050 11/09 Q1033 RMK PP016=
SPZO Ene2010-220400Z 00000KT 7000 -RA FEW020 SCT040 BKN050 11/09 Q1033 RMK PP010=
SPZO Ene2010-220500Z 26004KT 5000 -RA FEW020 SCT040 BKN050 10/09 Q1032 RMK PP010=
SPZO Ene2010-220600Z 26004KT 5000 -RA FEW020 SCT040 BKN050 10/08 Q1031 RMK PP010=
SPZO Ene2010-220700Z 00000KT 5000 -RA FEW020 SCT040 BKN050 10/08 Q1031 RMK PP006=
SPZO Ene2010-220800Z 00000KT 6000 -RA FEW020 SCT036 BKN050 09/08 Q1031 RMK PP006=
SPZO Ene2010-220900Z 00000KT 7000 FEW020 SCT033 BKN050 09/08 Q1030 RERA RMK CLNG BLW 1200M PP008=
SPZO Ene2010-221000Z 00000KT 8000 FEW020 SCT033 BKN050 09/08 Q1031 RMK CLNG BLW 1200M PP000=
SPZO Ene2010-221100Z 00000KT 8000 FEW020 SCT036 BKN050 09/08 Q1031 NOSIG RMK PP000=
SPZO Ene2010-221200Z 00000KT 9999 FEW020 SCT040 BKN050 10/08 Q1032 NOSIG RMK PP000=
SPZO Ene2010-221300Z 00000KT 9999 FEW030 SCT040 BKN050 11/08 Q1033 NOSIG RMK PP000=
SPZO Ene2010-221400Z 00000KT 9999 FEW025 SCT040 BKN050 12/07 Q1033 TEMPO=
SPZO Ene2010-221500Z 00000KT 9999 SCT033 BKN050 14/08 Q1033 NOSIG RMK PP000=
SPZO Ene2010-221600Z 03002KT 9999 SCT036 BKN050 15/08 Q1032 TEMPO VCSH RMK PP000=
SPZO Ene2010-221700Z 27006KT 250V360 9999 SCT040 BKN050 16/08 Q1032 TEMPO=
SPZO Ene2010-221800Z 32006KT 270V080 9999 SCT040TCU BKN050 17/07 Q1030 TEMPO -RA RMK VRB06KT PP000=
SPZO Ene2010-221900Z 34008KT 280V020 9999 VCSH FEW036TCU SCT040 BKN080 17/07 Q1029 NOSIG RMK PP000=
SPZO Ene2010-222000Z 30012KT 250V350 9999 VCSH FEW036TCU SCT043 BKN060 16/08 Q1028 TEMPO RA RMK PP000=
SPZO Ene2010-222100Z 26010KT 9999 RA FEW030TCU SCT040 BKN046 13/08 Q1028 TEMPO 8000 RMK PPTRZ=
SPZO Ene2010-222200Z 26006KT 7000 RA FEW010TCU SCT036 BKN046 12/09 Q1029 TEMPO 6000 RMK T MAX 17.1 PP012=
SPZO Ene2010-222300Z 00000KT 8000 RA FEW010TCU SCT030 BKN046 11/09 Q1029 NOSIG RMK PP016=
SPZO Ene2010-230000Z 00000KT 9999 RA FEW030 SCT040 BKN050 11/08 Q1031 RMK PP000=
SPZO Ene2010-230100Z 03005KT 310V070 8000 RA FEW030 SCT040 BKN050 10/08 Q1032 RMK PP024=
SPZO Ene2010-230200Z 00000KT 8000 RA FEW030 SCT040 BKN050 10/08 Q1032 RMK PP022=
SPZO Ene2010-230300Z 05005KT 8000 RA FEW020 SCT030 BKN040 09/08 Q1033 RMK PP018=
SPZO Ene2010-230400Z 00000KT 5000 RA FEW020 SCT030 BKN040 09/07 Q1033 RMK PP000=
SPZO Ene2010-230500Z 00000KT 5000 RA FEW020 SCT030 BKN040 09/07 Q1033 RMK PP000=
SPZO Ene2010-230600Z 00000KT 5000 RA FEW020 SCT030 BKN040 08/06 Q1033 RMK PP044=
SPZO Ene2010-230700Z 00000KT 8000 +RA FEW020 SCT030 BKN040 07/05 Q1032 RMK PP040=
SPZO Ene2010-230800Z 00000KT 8000 +RA FEW020 SCT030 BKN040 07/05 Q1032 RMK PP034=
SPZO Ene2010-230900Z 05004KT 9999 RA FEW030 SCT040 BKN050 07/06 Q1032 RMK PP010=
SPZO Ene2010-231000Z 05008KT 9999 RA FEW030 SCT040 BKN050 06/05 Q1032 RMK PP010=
SPZO Ene2010-231100Z 04005KT 9000 RA FEW010 SCT030 BKN043 06/04 Q1033 NOSIG RMK CLNG BLW 1200M PP002=
SPZO Ene2010-231200Z 05005KT 8000 -RA FEW010 SCT020 BKN043 06/04 Q1033 NOSIG RMK PP006=
SPZO Ene2010-231300Z 00000KT 9000 DZ FEW004 SCT008 BKN050 07/05 Q1033 BECMG FM1340 SCT033 BKN050 RMK CLNG BLW 1200M PP002=
SPZO Ene2010-231400Z VRB02KT 9999 SCT033 SCT046 09/05 Q1033 BECMG FM1330 SCT040 SCT050 REDZ RMK PPTRZ=
SPZO Ene2010-231500Z 05004KT 9999 SCT036 SCT050 12/06 Q1033 NOSIG RMK PP000=
SPZO Ene2010-231600Z 05004KT 340V040 9999 SCT040 BKN050 12/05 Q1032 NOSIG RMK PP000=
SPZO Ene2010-231700Z 00000KT 9999 SCT040 BKN060 14/07 Q1032 NOSIG RMK PP000=
SPZO Ene2010-231800Z VRB03KT 9999 SCT050 16/09 Q1029 NOSIG RMK PP000=
SPZO Ene2010-231900Z 01003KT 300V070 9999 SCT050 17/08 Q1028 NOSIG RMK PP000=
SPZO Ene2010-232000Z 04005KT 9999 SCT043TCU 18/06 Q1026 TEMPO VCSH RMK PP000=
SPZO Ene2010-232100Z 29013KT 250V330 9999 VCSH FEW040TCU BKN050 16/07 Q1027 TEMPO RA RMK PP000=
SPZO Ene2010-232200Z 00000KT 9999 VCSH FEW036TCU BKN060 14/08 Q1026 NOSIG RMK TMAX 19.1 PP000=
SPZO Ene2010-232300Z 00000KT 9999 SCT043 BKN050 15/08 Q1026 NOSIG RMK PP000=
SPZO Ene2010-240000Z 32003KT 300V020 9999 RA OVC043 13/09 Q1028 RMK PP002=
SPZO Ene2010-240100Z 00000KT 9999 OVC043 12/08 Q1029 RMK PP000=
SPZO Ene2010-240200Z 26007KT 9999 RA OVC043 11/09 Q1029 RMK PP012=
SPZO Ene2010-240300Z 26007KT 9999 DZ OVC043 11/08 Q1030 RMK PPTRZ=
SPZO Ene2010-240400Z 26005KT 9999 OVC040 11/08 Q1031 RMK PP000=
SPZO Ene2010-240500Z 27006KT 9999 OVC040 11/08 Q1030 RMK PP000=
SPZO Ene2010-240600Z 30004KT 9999 RA OVC040 10/07 Q1030 RMK PP010=
SPZO Ene2010-240700Z 06002KT 9999 DZ FEW036 OVC040 09/08 Q1029 RMK PP002=
SPZO Ene2010-240800Z 00000KT 9000 DZ FEW036 OVC040 09/08 Q1029 RMK PP002=
SPZO Ene2010-240900Z 00000KT 9000 DZ FEW036 OVC040 09/08 Q1028 RMK PP006=
SPZO Ene2010-241000Z 00000KT 7000 -RA FEW033 OVC036 09/07 Q1029 RMK CLNG BLW 1200M PP010=
SPZO Ene2010-241100Z 00000KT 4000 RA FEW005 SCT015 BKN043 09/07 Q1030 NOSIG RMK CLNG BLW 1200M PP018=
SPZO Ene2010-241200Z 00000KT 3000 RA SCT010 BKN036 09/07 Q1031 NOSIG RMK CLNG BLW 1200M RMK PP031=
SPZO Ene2010-241300Z 00000KT 4000 +RA FEW005 SCT030 BKN046 08/06 Q1032 BCMG FM1340 5000 RMK NOSIG RMK CLNG BLW 1200M PP056=
SPZO Ene2010-241400Z 00000KT 4000 +RA FEW005 SCT033 BKN043 08/05 Q1033 NOSIG RMK CLNG BLW 1200M=
SPZO Ene2010-241500Z 00000KT 5000 +RA FEW005 SCT008 BKN040 08/06 Q1033 NOSIG RMK CLNG BLW 1200M=
SPZO Ene2010-241600Z 00000KT 7000 RA FEW010 SCT020 BKN040 08/05 Q1032 NOSIG RMK CLNG BLW 1200M PP018=
SPZO Ene2010-241700Z 00000KT 8000 RA FEW010 SCT020 BKN043 09/07 Q1032 NOSIG RMK CLNG BLW 1200M PP008=
SPZO Ene2010-241800Z 00000KT 9999 DZ VCSH FEW020 SCT036 BKN046 11/07 Q1031 NOSIG RMK PP000=
SPZO Ene2010-241900Z 00000KT 9999 FEW020 BKN050 13/07 Q1028 NOSIG RMK PP000=
SPZO Ene2010-242000Z 00000KT 9999 FEW033 BKN050 14/06 Q1026 NOSIG RMK PP000=
SPZO Ene2010-242100Z 00000KT 9999 FEW040TCU BKN050 16/08 Q1025 NOSIG RMK PP000=
SPZO Ene2010-242200Z 00000KT 9999 -RA SCT040TCU BKN050 15/08 Q1025 NOSIG RMK TMAX 16.3 PPTRZ=
SPZO Ene2010-250000Z 27008KT 8000 -RA SCT040 BKN046 11/08 Q1027 RMK PP010=
SPZO Ene2010-250100Z 00000KT 8000 -RA SCT033 BKN040 11/08 Q1029 RMK PP032=
SPZO Ene2010-250200Z 00000KT 9000 RA SCT033 OVC043 10/08 Q1029 RMK PP082=
SPZO Ene2010-250300Z 00000KT 9000 RA FEW020 SCT033 BKN040 10/08 Q1031 RMK PP040=
SPZO Ene2010-250400Z 06004KT 9000 +RA FEW020 SCT033 BKN040 09/08 Q1032 RMK PP062=
SPZO Ene2010-250500Z 27003KT 8000 +RA FEW010 SCT030 BKN040 08/06 Q1032 RMK PP044=
SPZO Ene2010-250600Z 00000KT 8000 -RA FEW010 SCT030 BKN040 08/06 Q1032 RMK PP014=
SPZO Ene2010-250700Z 00000KT 8000 -RA SCT030 BKN043 08/06 Q1030 RMK PP008=
SPZO Ene2010-250800Z 00000KT 9000 -RA SCT030 BKN040 08/05 Q1030 RMK PP008=
SPZO Ene2010-250900Z 00000KT 9000 -RA FEW025 SCT030 BKN043 08/06 Q1030 RMK PP004=
SPZO Ene2010-251000Z 00000KT 8000 -RA FEW020 SCT030 BKN043 07/05 Q1030 RMK PP006=
SPZO Ene2010-251100Z 00000KT 4000 DZ FEW005 SCT020 BKN036 08/05 Q1031 NOSIG RMK CLNG BLW 1200M PP002=
SPZO Ene2010-251200Z 00000KT 4000 DZ FEW005 SCT020 BKN040 08/06 Q1032 NOSIG RMK CLNG BLW 1200M PPTRZ=
SPZO Ene2010-251300Z 00000KT 4000 DZ BR FEW005 SCT008 BKN040 09/06 Q1033 NOSIG RMK CLNG BLW 1200M PPTRZ=
SPZO Ene2010-251400Z 05002KT 9000 DZ VCSH FEW005 SCT020 BKN043 09/06 Q1033 NOSIG RMK CLNG BLW 1200M PP002=
SPZO Ene2010-251500Z 00000KT 9999 DZ VCSH FEW015 SCT036 BKN046 11/06 Q1033 BECMG FM1520 SCT036 BKN046 RMK CLNG BLW 1200M PPTRZ=
SPZO Ene2010-251600Z 00000KT 9999 DZ VCSH FEW025 SCT040 BKN050 13/06 Q1033 NOSIG RMK PPTRZ=
SPZO Ene2010-251700Z 03004KT 340V070 9999 SCT040 BKN080 14/06 Q1032 NOSIG RMK PP000=
SPZO Ene2010-251800Z VRB02KT 9999 VCSH SCT043 SCT050 15/07 Q1030 NOSIG RMK PP000=
SPZO Ene2010-251900Z 00000KT 9999 VCSH FEW043TCU BKN046 17/06 Q1029 TEMPO -RA RMK PP000=
SPZO Ene2010-252000Z 26005KT 9999 VCSH FEW036 SCT043TCU BKN080 16/07 Q1027 NOSIG RMK PP000=
SPZO Ene2010-252100Z 35006KT 310V020 9999 SCT043 SCT080 17/08 Q1027 TEMPO=
SPZO Ene2010-252200Z 36004KT 260V060 9999 FEW043TCU SCT050 17/07 Q1026 TEMPO VCSH RMK T.MAX 17.7 PP000=
SPZO Ene2010-252300Z 06006KT 9999 SCT043 SCT050 14/08 Q1027 NOSIG RMK PP000=
SPZO Ene2010-260000Z 04004KT 9999 SCT040 BKN050 13/08 Q1028 RMK PP000=
SPZO Ene2010-260100Z 00000KT 9999 FEW030 SCT040 BKN050 13/08 Q1029 RMK PP000=
SPZO Ene2010-260200Z 05007KT 9999 FEW040 SCT050 12/08 Q1030 RMK PP000=
SPZO Ene2010-260300Z 03010KT 9999 +RA FEW040 SCT050 BKN060 10/07 Q1031 RMK PP002=
SPZO Ene2010-260400Z 06003KT 5000 +RA FEW030 SCT040 BKN050 09/07 Q1032 RMK PP050=
SPZO Ene2010-260500Z 00000KT 4000 +RA FEW020 SCT030 BKN043 09/07 Q1032 RMK PP040=
SPZO Ene2010-260600Z 00000KT 5000 FEW010 SCT030 BKN040 09/07 Q1031 RMK CLNG BLW 1200M PP028=
SPZO Ene2010-260700Z 06006KT 8000 FEW010 SCT030 BKN040 08/07 Q1032 RMK CLNG BLW 1200M PP016=
SPZO Ene2010-260800Z 27004KT 5000 +RA FEW010 SCT030 BKN040 08/06 Q1032 RMK CLNG BLW 1200M PP024=
SPZO Ene2010-260900Z 00000KT 5000 +RA FEW010 SCT020 BKN043 07/05 Q1032 RMK CLNG BLW 1200M PP052=
SPZO Ene2010-261000Z 00000KT 8000 +RA FEW010 SCT030 BKN043 08/05 Q1032 RMK CLNG BLW 1200M PP000=
SPZO Ene2010-261100Z 26003KT 3000 RA BR FEW010 SCT030 BKN043 07/05 Q1033 NOSIG RMK CLNG BLW 1200M PP034=
SPZO Ene2010-261200Z 26004KT 4000 RA BR FEW010 SCT030 BKN046 07/04 Q1033 NOSIG RMK CLNG BLW 1200M PP008=
SPZO Ene2010-261300Z 26004KT 8000 FEW010 SCT036 BKN050 08/05 Q1033 TEMPO=
SPZO Ene2010-261400Z VRB03KT 9999 FEW020 SCT043 BKN100 08/05 Q1033 TEMPO=
SPZO Ene2010-261500Z VRB03KT 9999 FEW030 SCT046 BKN100 12/05 Q1032 NOSIG RMK PP000=
SPZO Ene2010-261600Z 00000KT 9999 FEW036 SCT046 BKN100 14/05 Q1032 NOSIG RMK PP000=
SPZO Ene2010-261700Z 04003KT 9999 SCT043 BKN100 16/07 Q1029 NOSIG RMK PP000=
SPZO Ene2010-261800Z 03004KT 250V050 9999 SCT046 BKN100 17/07 Q1029 TEMPO=
SPZO Ene2010-261900Z 04005KT 280V070 9999 SCT046 BKN100 18/06 Q1027 NOOSIG RMK PP000=
SPZO Ene2010-262000Z 06006KT 360V070 9999 FEW043TCU SCT046 BKN100 18/08 Q1026 TEMPO VCSH RMK PP000=
SPZO Ene2010-262100Z 30002KT 9999 RA SCT043 BKN100 15/07 Q1026 NOSIG RMK WIND RWY10 14006KT 080V170 PP002=
SPZO Ene2010-262200Z 34002KT 9999 FEW046 SCT100 18/05 Q1025 NOSIG RMK T.MAX.18.4 PP000=
SPZO Ene2010-262300Z 04005KT 9999 FEW050 SCT120 17/07 Q1026 NOSIG RMK PP000=
SPZO Ene2010-270000Z 00000KT 9999 FEW050 SCT060 14/07 Q1027 RMK PP000=
SPZO Ene2010-270100Z 00000KT 9999 FEW040 SCT050 13/08 Q1028 RMK PP000=
SPZO Ene2010-270200Z 00000KT 9999 SCT050 12/09 Q1030 RMK PP000=
SPZO Ene2010-270300Z 00000KT 9999 SCT060 12/09 Q1029 RMK PP000=
SPZO Ene2010-270400Z 00000KT 9999 FEW040 SCT060 12/09 Q1029 RMK PP000=
SPZO Ene2010-270500Z 03005KT 350V070 5000 +RA FEW030 SCT040 BKN050 10/08 Q1029 RMK PP0302=
SPZO Ene2010-270600Z 30004KT 270V330 9000 RA FEW030 SCT040 BKN050 10/07 Q1029 RMK PP010=
SPZO Ene2010-270700Z 00000KT 9999 RERA FEW030 SCT040 BKN050 09/07 Q1029 RMK PP004=
SPZO Ene2010-270800Z 00000KT 9999 -RA FEW030 SCT040 BKN050 10/08 Q1028 RMK PP006=
SPZO Ene2010-270900Z 00000KT 9999 DZ FEW030 SCT040 BKN050 10/08 Q1028 RMK PP002=
SPZO Ene2010-271000Z 00000KT 9999 DZ FEW030 SCT040 BKN050 10/08 Q1029 RMK PP002=
SPZO Ene2010-271100Z 00000KT 9999 RA FEW010 SCT025 BKN040 10/08 Q1030 NOSIG RMK CLNG BLW 1200M PP=
SPZO Ene2010-271200Z 00000KT 9999 -RA FEW010 SCT020 BKN046 10/08 Q1031 NOSIG RMK CLNG BLW 1200M=
SPZO Ene2010-271300Z 26006KT 9999 RA FEW005 SCT033 BKN046 11/07 Q1031 BECMG FM1340 SCT033 BKN046 RMK CLNG BLW 1200M PP010=
SPZO Ene2010-271400Z 27006KT 240V310 9999 DZ FEW020 SCT040 BKN060 12/07 Q1031 NOSIG RMK PPTRZ=
SPZO Ene2010-271500Z 26007KT 9999 FEW020 SCT040 BKN060 14/07 Q1031 RMK TEMPO VCSH RMK PP000=
SPZO Ene2010-271600Z 28004KT 250V020 9999 SCT040 BKN080 15/06 Q1030 NOSIG RMK PP000=
SPZO Ene2010-271700Z 00000KT 9999 SCT040 BKN080 17/09 Q1029 NOSIG RMK PP000=
SPZO Ene2010-271800Z 00000KT 9999 FEW043 BKN080 18/05 Q1028 NOSIG RMK PP000=
SPZO Ene2010-271900Z 00000KT 9999 FEW046 BKN080 18/06 Q1027 NOSIG RMK PP000=
SPZO Ene2010-272000Z 27005KT 250V360 9999 SCT046 SCT100 20/06 Q1025 NOSIG RMK PP000=
SPZO Ene2010-272100Z 27006KT 250V330 9999 SCT046 SCT100 20/06 Q1025 NOSIG RMK PP000=
SPZO Ene2010-272200Z 26011KT 9999 SCT046 SCT200 19/06 Q1024 NOSIG RMK TMAX21.9 PP000=
SPZO Ene2010-272300Z 33007KT 270V360 9999 SCT043 SCT200 18/07 Q1025 NOSIG RMK PP000=
SPZO Ene2010-280000Z 32008KT 300V360 9999 FEW036 SCT043 15/07 Q1026 RMK PP000=
SPZO Ene2010-280100Z 27007KT 9999 FEW050 14/07 Q1027 RMK PP000=
SPZO Ene2010-280200Z 26003KT 9999 FEW043 SCT080 13/08 Q1029 RMK PP000=
SPZO Ene2010-280300Z 00000KT 9999 SCT040 SCT046 12/08 Q1029 RMK PP000=
SPZO Ene2010-280400Z 35009KT 9999 BKN040 SCT046 11/08 Q1031 RMK PP000=
SPZO Ene2010-280500Z 06005KT 9999 -RA OVC040 11/08 Q1032 RMK PP006=
SPZO Ene2010-280600Z 00000KT 9999 BKN040 SCT046 11/08 Q1031 RMK PP008=
SPZO Ene2010-280700Z 00000KT 9999 BKN040 SCT050 10/08 Q1030 RMK PP000=
SPZO Ene2010-280800Z 00000KT 9999 SCT036 BKN043 09/08 Q1029 RMK PP000=
SPZO Ene2010-280900Z 00000KT 9999 SCT030 BKN046 09/08 Q1029 RMK PP000=
SPZO Ene2010-281000Z 00000KT 9999 SCT020 BKN046 08/05 Q1029 RMK PP000=
SPZO Ene2010-281100Z 00000KT 9999 FEW015 SCT040 BKN050 08/06 Q1030 NOSIG RMK PP000=
SPZO Ene2010-281200Z 00000KT 9999 FEW020 SCT100 09/04 Q1030 NOSIG RMK PP000=
SPZO Ene2010-281300Z 05006KT 9999 SCT033 11/06 Q1031 NOSIG RMK PP000=
SPZO Ene2010-281400Z 03003KT 290V070 9999 SCT033 14/05 Q1031 NOSIG RMK PP000=
SPZO Ene2010-281500Z 00000KT 9999 SCT036 16/06 Q1030 NOSIG RMK PP000=
SPZO Ene2010-281600Z VRB03KT 9999 SCT040 18/06 Q1029 NOSIG RMK PP000=
SPZO Ene2010-281700Z VRB02KT 9999 FEW040 SCT050 19/06 Q1029 NOSIG RMK PP000=
SPZO Ene2010-281800Z 01003KT 260V070 9999 SCT050 19/06 Q1027 NOSIG RMK PP000=
SPZO Ene2010-281900Z 29005KT 250V340 9999 FEW040TCU SCT050 20/07 Q1025 NOSIG RMK PP000=
SPZO Ene2010-282000Z 27010KT 9999 FEW040TCU BKN080 19/08 Q1025 TEMPO=
SPZO Ene2010-282100Z 35008KT 300V030 9999 SCT043 BKN060 16/07 Q1025 TEMPO RA RMK P=
SPZO Ene2010-282200Z 03008KT 9999 VCSH SCT043TCU BKN060 15/08 Q1025 NOSIG RMK TMAX 20.9 PP000=
SPZO Ene2010-282300Z 05008KT 9999 FEW040 SCT050 14/09 Q1025 NOSIG RMK PP000=
SPZO Ene2010-290000Z 33005KT 250V050 5000 +RA SCT030 SCT050 12/08 Q1027 RMK PP020=
SPZO Ene2010-290100Z 00000KT 8000 -RA FEW030 SCT040 BKN050 11/08 Q1028 RMK PP024=
SPZO Ene2010-290200Z 00000KT 9000 SCT040 BKN050 11/08 Q1028 RMK RERA PP002=
SPZO Ene2010-290300Z 00000KT 9999 SCT040 BKN050 11/08 Q1029 RMK PP000=
SPZO Ene2010-290400Z 00000KT 9999 SCT040 BKN050 11/08 Q1030 RMK PP000=
SPZO Ene2010-290500Z 26004KT 250V330 9000 SCT040 BKN050 11/06 Q1030 RMK RERA PP002=
SPZO Ene2010-290600Z VRB02KT 9999 SCT040 BKN050 10/07 Q1029 RMK PP000=
SPZO Ene2010-290700Z 05010KT 9999 FEW040 BKN050 09/07 Q1029 RMK PP000=
SPZO Ene2010-290800Z 05006KT 9999 FEW040 BKN050 09/05 Q1029 RMK PP000=
SPZO Ene2010-290900Z 00000KT 9999 BKN050 09/05 Q1028 RMK PP000=
SPZO Ene2010-291000Z 00000KT 9999 BKN050 08/05 Q1028 RMK PP000=
SPZO Ene2010-291100Z 00000KT 9999 SCT050 SCT060 07/05 Q1028 NOSIG RMK PP000=
SPZO Ene2010-291200Z 00000KT 9999 FEW046 SCT300 08/05 Q1029 NOSIG RMK PP000=
SPZO Ene2010-291300Z 00000KT 9999 FEW040 SCT230 11/06 Q1030 NOSIG RMK PP000=
SPZO Ene2010-291400Z 03001KT 270V070 9999 FEW040 BKN230 14/06 Q1029 NOSIG RMK PP000=
SPZO Ene2010-291500Z 00000KT 9999 FEW050 SCT300 15/06 Q1029 NOSIG RMK PP000=
SPZO Ene2010-291600Z 00000KT 9999 SCT050 17/07 Q1030 NOPSIG RMK PP000=
SPZO Ene2010-291700Z 36003KT 260V070 9999 SCT060 18/04 Q1027 NOSIGRMK PP000=
SPZO Ene2010-291800Z VRB03KT 9999 SCT050 SCT230 21/05 Q1026 NOSIG RMK PP000=
SPZO Ene2010-291900Z 27005KT 250V070 9999 SCT050 SCT150 21/05 Q1025 NOSIG RMK PP000=
SPZO Ene2010-292000Z 26008KT 9999 SCT050 SCT150 20/04 Q1024 NOSIG RMK PP000=
SPZO Ene2010-292100Z 27008KT 250V060 9999 SCT050 SCT150 21/02 Q1022 NOSIG RMK PP000=
SPZO Ene2010-292200Z 28012KT 250V320 9999 SCT050 SCT150 20/04 Q1022 NOSIG RMK TMAX 21.8 PP000=
SPZO Ene2010-292300Z 28009KT 250V340 9999 SCT050 SCT150 18/03 Q1022 NOSIG RMK PP000=
SPZO Ene2010-300000Z 00000KT 9999 SCT050 SCT200 16/07 Q1024 RMK PP000=
SPZO Ene2010-300100Z 00000KT 9999 SCT050 SCT200 15/08 Q1026 RMK PP000=
SPZO Ene2010-300200Z 05022KT 9999 SCT050 BKN100 12/07 Q1028 RMK PP000=
SPZO Ene2010-300300Z 06004KT 9999 -RA FEW030 SCT046 BKN050 09/07 Q1030 RMK PP000=
SPZO Ene2010-300400Z 06006KT 9999 -RA FEW030 SCT046 BKN050 09/07 Q1031 RMK PP066=
SPZO Ene2010-300500Z 03006KT 9999 -RA FEW020 SCT040 BKN050 09/06 Q1031 RMK PP012=
SPZO Ene2010-300600Z 00000KT 9999 -RA FEW020 SCT040 BKN050 08/06 Q1031 RMK PP032=
SPZO Ene2010-300800Z 00000KT 9999 FEW020 SCT036 BKN050 08/06 Q1031 RERA RMK PP002=
SPZO Ene2010-300900Z 00000KT 9999 FEW030 SCT036 BKN050 08/06 Q1031 RMK PP000=
SPZO Ene2010-301000Z VRB02KT 9999 FEW025 SCT036 BKN070 08/06 Q1029 RMK PP006=
SPZO Ene2010-301100Z 00000KT 9999 SCT036 SCT060 08/05 Q1029 NOSIG RMK PP000=
SPZO Ene2010-301200Z 00000KT 9000 SCT030 SCT050 10/05 Q1030 NOSIG RMK BR PP000=
SPZO Ene2010-301300Z 00000KT 9000 SCT033 SCT050 12/05 Q1031 NOSIG RMK BR PP000=
SPZO Ene2010-301400Z 00000KT 9999 SCT036 SCT050 13/04 Q1031 NOSIG RMK PP000=
SPZO Ene2010-301500Z 00000KT 9999 SCT040 SCT050 15/06 Q1030 NOSIG RMK PP000=
SPZO Ene2010-301600Z VRB03KT 9999 SCT040 SCT050 16/06 Q1030 NOSIG RMK PP000=
SPZO Ene2010-301700Z VRB02KT 9999 SCT050 SCT060 18/07 Q1029 NOSIG RMK PP000=
SPZO Ene2010-301800Z VRB02KT 9999 VCSH FEW043TCU SCT050 19/07 Q1027 NOSIG PP000=
SPZO Ene2010-301900Z 01012KT 330V060 9999 VCSH SCT043TCU BKN046 17/06 Q1027 TEMPO VCSH RMK PP000=
SPZO Ene2010-302000Z 28007KT 260V320 9999 FEW036 SCT046 BKN080 16/05 Q1027 NOSIG RMK PP000=
SPZO Ene2010-302100Z 05003KT 350V060 9999 FEW046 SCT230 17/06 Q1026 NOSIG RMK PP000=
SPZO Ene2010-302200Z 05009KT 9999 SCT046 17/07 Q1026 NOSIG RMK T.MAX 19.1 PP000=
SPZO Ene2010-302300Z 06005KT 9999 FEW050 15/06 Q1026 NOSIG RMK PP000=
SPZO Ene2010-310000Z 00000KT 9999 SCT050 14/07 Q1027 RMK PP000=
SPZO Ene2010-310100Z 32003KT 9999 SCT050 14/06 Q1029 RMK PP000=
SPZO Ene2010-310200Z 26006KT 9999 -RA FEW030 SCT040 BKN050 10/07 Q1031 RMK PP014=
SPZO Ene2010-310300Z 26005KT 9999 -RA FEW030 SCT040 BKN050 10/07 Q1031 RMK PP002=
SPZO Ene2010-310400Z 00000KT 9999 FEW030 SCT040 BKN050 10/07 Q1031 RMK PP000=
SPZO Ene2010-310500Z 00000KT 9999 RA FEW030 SCT040 BKN050 10/07 Q1031 RMK PPTRZ=
SPZO Ene2010-310600Z 00000KT 9999 FEW030 SCT040 BKN050 10/07 Q1030 RMK PP000=
SPZO Ene2010-310700Z 00000KT 9999 FEW030 SCT040 BKN050 09/07 Q1030 RMK PP000=
SPZO Ene2010-310800Z 00000KT 9999 SCT040 BKN050 09/07 Q1030 RMK PP000=
SPZO Ene2010-310900Z 00000KT 9999 SCT040 BKN050 09/07 Q1030 RMK PP000=
SPZO Ene2010-311000Z 00000KT 9999 SCT040 BKN050 07/06 Q1030 RMK PP000=
SPZO Ene2010-311100Z 00000KT 9999 FEW025 07/05 Q1031 NOSIG RMK PP000=
SPZO Ene2010-311200Z 00000KT 9999 FEW030 11/08 Q1032 NOSIG RMK PP000=
SPZO Ene2010-311300Z 00000KT 9999 FEW030 SCT050 13/07 Q1032 NOSIG RMK PP000=
SPZO Ene2010-311400Z VRB02KT 9999 FEW036 SCT050 15/06 Q1032 NOSIG RMK PP000=
SPZO Ene2010-311500Z 00000KT 9999 SCT050 16/07 Q1032 NOSIG RMK PP000=
SPZO Ene2010-311600Z 00000KT 9999 FEW043 SCT050 19/06 Q1030 NOSIG RMK PP000=
SPZO Ene2010-311700Z VRB02KT 9999 VCSH FEW043TCU SCT050 19/06 Q1030 NOSIG RMK PP000=
SPZO Ene2010-311800Z 27008KT 250V350 9999 VCSH SCT046 SCT050 18/09 Q1029 NOSIG RMK PP000=
SPZO Ene2010-311900Z 27007KT 250V310 9999 SCT046 SCT050 19/08 Q1029 NOSIG RMK PP000=
SPZO Ene2010-312000Z 27011KT 250V020 9999 SCT046 SCT050 19/06 Q1027 TEMPO=
SPZO Ene2010-312100Z 27010KT 250V320 9999 SCT043TCU BKN050 16/08 Q1027 TEMPO VCSH RMK WIND RWY10 31005KT 250V020 PP000=
SPZO Ene2010-312200Z 02005KT 250V060 9999 FEW046 BKN100 18/09 Q1027 NOSIG RMK T.MAX.20.2 PP000=
SPZO Ene2010-312300Z 36006KT 310V010 9999 VCSH FEW043TCU SCT046 BKN100 16/07 Q1028 NOSIG RMK PP000=
SPZO Feb2010-010000Z 26008KT 9999 BKN050 SCT090 15/07 Q1029 RMK PP000=
SPZO Feb2010-010100Z 26007KT 9999 BKN050 SCT080 14/06 Q1030 RMK PP000=
SPZO Feb2010-010200Z 27004KT 9999 BKN050 SCT070 13/06 Q1031 RMK PP000=
SPZO Feb2010-010300Z 00000KT 9999 BKN050 12/07 Q1031 RMK PP000=
SPZO Feb2010-010400Z 00000KT 9999 BKN050 11/07 Q1031 RMK PP000=
SPZO Feb2010-010500Z 00000KT 9999 BKN050 11/07 Q1031 RMK PP000=
SPZO Feb2010-010600Z 00000KT 9999 OVC050 10/08 Q1031 RMK PP000=
SPZO Feb2010-010700Z 00000KT 9999 OVC050 10/08 Q1031 RMK PP000=
SPZO Feb2010-010800Z 00000KT 9999 SCT050 SCT060 10/07 Q1031 RMK PP000=
SPZO Feb2010-010900Z 00000KT 9999 SCT050 SCT060 09/07 Q1031 RMK PP000=
SPZO Feb2010-011000Z 00000KT 9999 SCT050 SCT060 09/07 Q1031 RMK PP000=
SPZO Feb2010-011100Z 00000KT 9999 SCT050 SCT060 10/07 Q1031 NOSIG RMK PP000=
SPZO Feb2010-011200Z 00000KT 9999 FEW043 SCT060 11/08 Q1032 NOSIG RMK PP000=
SPZO Feb2010-011300Z 00000KT 9999 SCT043 15/08 Q1033 NOSIG RMK PP000=
SPZO Feb2010-011400Z 00000KT 9999 SCT043 BKN050 15/07 Q1033 NOSIG RMK PP000=
SPZO Feb2010-011500Z 30004KT 250V340 9999 SCT046 BKN050 15/06 Q1033 NOSIG RMK PP000=
SPZO Feb2010-011600Z 04003KT 260V060 9999 SCT046 SCT050 18/08 Q1032 NOSIG RMK WIND RWY10 13007KT 080V210 PP000=
SPZO Feb2010-011700Z 02002KT 9999 SCT046 SCT050 16/09 Q1031 TEMPO VCSH RMK PP000=
SPZO Feb2010-011800Z VRB04KT 9999 SCT040 SCT050 17/07 Q1030 NOSIG RERA RMK PPTRZ=
SPZO Feb2010-011900Z 03012KT 350V070 9999 SCT046TCU SCT050 17/05 Q1031 NOSIG RMK PP000=
SPZO Feb2010-012000Z 05011KT 9999 SCT050 17/06 Q1028 NOSIG RMK PP000=
SPZO Feb2010-012100Z 06005KT 9999 BKN050 18/05 Q1027 NOSIG RMK PP000=
SPZO Feb2010-012200Z 04005KT 010V080 9999 SCT050 19/06 Q1027 NOSIG RMK T MAX 18.7 PP000=
SPZO Feb2010-012300Z 05006KT 9999 SCT050 17/06 Q1027 NOSIG RMK PP000=
SPZO Feb2010-020000Z 33005KT 9999 SCT040TCU SCT050 16/06 Q1028 RMK PP000=
SPZO Feb2010-020100Z 32007KT 9999 FEW050 15/07 Q1029 RMK PP000=
SPZO Feb2010-020200Z 00000KT 9999 SKC 13/07 Q1030 RMK PP000=
SPZO Feb2010-020300Z 00000KT 9999 SKC 11/07 Q1031 RMK PP000=
SPZO Feb2010-020400Z 28004KT 9999 FEW050 11/07 Q1031 RMK PP000=
SPZO Feb2010-020500Z 00000KT 9999 SCT080 12/08 Q1029 RMK PP000=
SPZO Feb2010-020600Z 00000KT 9999 BKN060 11/08 Q1030 RMK PP000=
SPZO Feb2010-020700Z 05002KT 9999 BKN050 10/07 Q1029 RMK PP000=
SPZO Feb2010-020800Z 00000KT 9999 BKN050 10/07 Q1029 RMK PP000=
SPZO Feb2010-020900Z 00000KT 9999 OVC050 10/07 Q1029 RMK PP000=
SPZO Feb2010-021000Z 00000KT 9999 BKN050 SCT100 10/07 Q1030 RMK PP000=
SPZO Feb2010-021100Z 00000KT 9999 BKN050 SCT070 10/07 Q1031 NOSIG RMK PP000=
SPZO Feb2010-021200Z 00000KT 9999 FEW036 BKN050 10/08 Q1032 NOSIG RMK PP000=
SPZO Feb2010-021300Z 00000KT 9999 SCT036 BKN050 13/08 Q1032 NOSIG RMK PP000=
SPZO Feb2010-021400Z 00000KT 9999 FEW030 SCT040 BKN050 14/07 Q1032 TEMPO=
SPZO Feb2010-021500Z 00000KT 9999 FEW033 SCT040 BKN050 16/06 Q1032 NOSIG RMK PP000=
SPZO Feb2010-021600Z 06005KT 9999 VCSH SCT040 BKN050 16/09 Q1032 NOSIG RMK PP000=
SPZO Feb2010-021700Z 06007KT 9999 VCSH FEW030 BKN050 15/08 Q1032 NOSIG RMK PP000=
SPZO Feb2010-021800Z 04005KT 340V070 9999 VCSH FEW030TCU SCT043 BKN050 17/08 Q1030 TEMPO RA RMK PP000=
SPZO Feb2010-021900Z 05003KT 9999 FEW040 FEW050TCU SCT043 16/08 Q1029 NOSIG RMK PP=
SPZO Feb2010-022000Z 06007KT 9999 FEW040 SCT043 FEW050TCU 18/08 Q1028 NOSIG RMK PP000=
SPZO Feb2010-022100Z 05005KT 9999 FEW040 SCT050 BKN080 17/09 Q1026 NOSIG RMK PP000=
SPZO Feb2010-022200Z 06003KT 9999 FEW040 SCT050 17/08 Q1027 NOSIG RMK PP000=
SPZO Feb2010-022300Z 00000KT 9999 FEW040 SCT050 17/08 Q1028 NOSIG RMK PP000=
SPZO Feb2010-030000Z 28009KT 9999 SCT046 15/08 Q1029 RMK PP000=
SPZO Feb2010-030100Z 28005KT 9999 FEW046 13/08 Q1030 RMK PP000=
SPZO Feb2010-030200Z 28005KT 9999 SKC 12/08 Q1030 RMK PP000=
SPZO Feb2010-030300Z 00000KT 9999 SKC 11/07 Q1031 RMK PP000=
SPZO Feb2010-030400Z 00000KT 9999 SKC 09/06 Q1031 RMK PP000=
SPZO Feb2010-030500Z 00000KT 9999 SCT100 10/09 Q1029 RMK PP000=
SPZO Feb2010-030600Z 00000KT 9999 FEW050 SCT100 10/08 Q1029 RMK PP000=
SPZO Feb2010-030700Z 00000KT 9999 FEW050 OVC100 10/07 Q1030 RMK PP000=
SPZO Feb2010-030800Z 00000KT 9999 FEW050 OVC100 09/07 Q1030 RMK PP000=
SPZO Feb2010-030900Z 00000KT 9999 FEW050 BKN100 08/06 Q1030 RMK PP000=
SPZO Feb2010-031000Z 00000KT 9999 FEW046 BKN100 09/07 Q1030 RMK PP000=
SPZO Feb2010-031100Z 00000KT 9999 SCT043 BKN080 09/07 Q1032 NOSIG RMK PP000=
SPZO Feb2010-031200Z 00000KT 9999 FEW040 SCT050 BKN080 10/08 Q1032 NOSIG RMK PP000=
SPZO Feb2010-031300Z 00000KT 9999 FEW040 SCT150 15/08 Q1033 NOSIG RMK PP000=
SPZO Feb2010-031400Z 00000KT 9999 FEW025 SCT036 BKN080 15/08 Q1033 NOSIG RMK PP000=
SPZO Feb2010-031500Z 03002KT 260V070 9999 VCSH FEW030 SCT036 BKN080 16/07 Q1032 NOSIG RMK PP000=
SPZO Feb2010-031600Z 00000KT 9999 VCSH FEW030 SCT043 BKN080 17/09 Q1032 NOSIG RMK PP000=
SPZO Feb2010-031700Z 02007KT 280V070 9999 FEW040 SCT043 BKN080 16/07 Q1032 NOSIG RMK PP000=
SPZO Feb2010-031800Z 27006KT 9999 FEW040 SCT050 BKN060 16/08 Q1031 NOSIG RMK PP000=
SPZO Feb2010-031900Z 26010KT 9999 FEW040 SCT050 BKN060 16/08 Q1030 NOSIG RMK PP000=
SPZO Feb2010-032000Z 26005KT 9999 SCT050 SCT060 18/08 Q1029 NOSIG RMK PP000=
SPZO Feb2010-032100Z 29011KT 9999 SCT050 19/07 Q1027 NOSIG RMK PP000=
SPZO Feb2010-032200Z VRB02KT 9999 SCT050 20/06 Q1027 NOSIG RMK TMAX 20.2 PP000=
SPZO Feb2010-032300Z 26012KT 9999 SCT050 18/07 Q1027 NOSIG RMK PP000=
SPZO Feb2010-040000Z 28007KT 9999 BKN230 16/09 Q1028 RMK PP000=
SPZO Feb2010-040100Z 26005KT 9999 SCT230 13/08 Q1029 RMK PP000=
SPZO Feb2010-040200Z 26005KT 9999 SCT230 13/08 Q1030 RMK PP000=
SPZO Feb2010-040300Z 26003KT 9999 SKC 13/08 Q1031 RMK PP000=
SPZO Feb2010-040600Z 00000KT 9999 SCT050 BKN100 09/07 Q1031 RMK PP000=
SPZO Feb2010-040700Z 00000KT 9999 SCT050 BKN100 10/07 Q1031 RMK PP000=
SPZO Feb2010-040800Z 00000KT 9999 SCT050 BKN080 09/07 Q1030 RMK PP000=
SPZO Feb2010-040900Z 00000KT 9999 SCT050 BKN080 09/07 Q1030 RMK PP000=
SPZO Feb2010-041000Z 00000KT 9999 FEW030 08/06 Q1030 RMK PP000=
SPZO Feb2010-041100Z 00000KT 9999 FEW036 08/06 Q1031 NOSIG RMK PP000=
SPZO Feb2010-041200Z 26005KT 9999 SCT036 SCT046 10/08 Q1032 NOSIG RMK PP000=
SPZO Feb2010-041300Z 00000KT 9999 SCT036 SCT046 13/08 Q1033 NOSIG RMK PP000=
SPZO Feb2010-041400Z 00000KT 9999 SCT033 BKN100 16/08 Q1032 NOSIG RMK PP000=
SPZO Feb2010-041500Z VRB03KT 9999 SCT033 BKN100 17/07 Q1032 NOSIG RMK PP000=
SPZO Feb2010-041600Z 31004KT 250V020 9999 FEW036 SCT040 BKN100 18/06 Q1031 NOSIG RMK PP000=
SPZO Feb2010-041700Z 01004KT 250V070 9999 SCT040 BKN100 20/09 Q1030 NOSIG RMK PP000=
SPZO Feb2010-041800Z VRB03KT 9999 SCT046 SCT100 20/07 Q1028 NOSIG RMK PP000=
SPZO Feb2010-041900Z 02009KT 340V050 9999 FEW043TCU SCT046 SCT100 18/09 Q1027 NOSIG RMK WIND RWY10 05007KT 330V150 PP000=
SPZO Feb2010-042000Z 01014KT 310V040 9999 SCT046 SCT100 19/08 Q1027 NOSIG RMK WIND RWY10 VRB10KT PP000=
SPZO Feb2010-042100Z 01009KT 320V050 9999 SCT046 SCT100 19/07 Q1027 NOSIG RMK WIND RWY10 03009KT 340V110 PP000=
SPZO Feb2010-042200Z 35006KT 260V060 9999 SCT046 SCT100 20/07 Q1026 NOSIG RMK T.MAX.19.8 PP000=
SPZO Feb2010-042300Z 03007KT 360V070 9999 SCT046 BKN100 18/08 Q1029 NOSIG RMK PP000=
SPZO Feb2010-050000Z 04005KT 330V070 9999 SCT050 BKN100 15/09 Q1025 RMK PP000=
SPZO Feb2010-050100Z 00000KT 9999 SCT050 15/09 Q1029 RMK PP000=
SPZO Feb2010-050200Z 06003KT 9999 SCT050 14/09 Q1026 RMK PP000=
SPZO Feb2010-050300Z 00000KT 9999 FEW050 14/08 Q1031 RMK PP000=
SPZO Feb2010-050400Z 05005KT 9999 FEW030 14/08 Q1031 RMK PP000=
SPZO Feb2010-050500Z 04003KT 360V070 9999 FEW050 13/08 Q1031 RMK PP000=
SPZO Feb2010-050600Z 05009KT 9999 SCT050 13/08 Q1031 RMK PP000=
SPZO Feb2010-050700Z 05003KT 9999 +RA FEW030 SCT040 10/08 Q1031 RMK PP032=
SPZO Feb2010-050800Z 00000KT 9999 RA FEW030 SCT040 BKN050 10/08 Q1030 RMK PP018=
SPZO Feb2010-050900Z 00000KT 9999 -RA FEW030 SCT040 BKN050 10/07 Q1030 RMK PP004=
SPZO Feb2010-051000Z 00000KT 9999 RA FEW015 SCT030 BKN040 10/08 Q1030 RMK CLNG BLW 1200M PP004=
SPZO Feb2010-051100Z 00000KT 4000 RA BR FEW005 SCT015 BKN040 10/08 Q1031 RMK CLNG BLW 1200M=
SPZO Feb2010-051200Z 00000KT 4000 RA BR FEW010 SCT020 BKN043 10/08 Q1032 NOSIG RMK CLNG BLW 1200M PP031=
SPZO Feb2010-051300Z 26003KT 9000 RA FEW010 SCT025 BKN046 10/07 Q1033 NOSIG RMK CLNG BLW 1200M PP022=
SPZO Feb2010-051400Z 00000KT 9999 VCSH FEW025 SCT040 BKN046 11/06 Q1033 NOSIG RERA RMK PPTRZ=
SPZO Feb2010-051500Z 26007KT 9999 DZ VCSH FEW020 SCT040 BKN050 12/08 Q1033 NOSIG RMK PP002=
SPZO Feb2010-051600Z 28008KT 9999 VCSH FEW020 SCT040 BKN050 12/07 Q1033 NOSIG REDZ RMK BCBR CDTE NE PPTRZ=
SPZO Feb2010-051700Z 26008KT 9999 -RA FEW020 SCT040 BKN050 12/08 Q1033 NOSIG RMK PPTRZ=
SPZO Feb2010-051800Z 27006KT 9999 RA FEW020 SCT040 BKN046 12/08 Q1032 TEMPO 8000 RMK PP002=
SPZO Feb2010-051900Z 28005KT 8000 RA FEW010 SCT036 BKN046 12/08 Q1032 TEMPO 7000 RMK PP014=
SPZO Feb2010-052000Z 26003KT 250V350 9999 DZ FEW020 SCT040 BKN050 13/07 Q1030 NOSIG RMK WIND RWY10 29006KT 210V340 PPTRZ=
SPZO Feb2010-052100Z VRB03KT 9999 VCSH SCT040 SCT080 15/08 Q1029 NOSIG RMK REDZ PPTRZ=
SPZO Feb2010-052200Z 03002KT 9999 FEW036 SCT040 BKN080 14/08 Q1028 TEMPO=
SPZO Feb2010-052300Z 03007KT 9999 FEW040 SCT046 BKN080 13/09 Q1028 NOSIG RMK WIND RWY10 11007KT 070V160 PP000=
SPZO Feb2010-060000Z 05005KT 9999 OVC050 12/08 Q1029 RMK PP000=
SPZO Feb2010-060100Z 06005KT 9999 OVC050 11/08 Q1029 RMK PP000=
SPZO Feb2010-060200Z 00000KT 9999 OVC050 11/09 Q1031 RMK PP000=
SPZO Feb2010-060300Z 00000KT 5000 RA SCT030 OVC050 11/08 Q1032 RMK PP016=
SPZO Feb2010-060400Z 00000KT 6000 -RA SCT030 OVC050 10/08 Q1032 RMK PP010=
SPZO Feb2010-060500Z 00000KT 7000 -RA SCT030 OVC050 10/08 Q1031 RMK PP004=
SPZO Feb2010-060600Z 00000KT 8000 -RA SCT030 OVC050 10/08 Q1031 RMK PP004=
SPZO Feb2010-060700Z 29014KT 260V330 7000 RA FEW030 SCT040 BKN050 10/06 Q1031 RMK PP016=
SPZO Feb2010-060800Z 30004KT 260V350 7000 -RA FEW030 SCT040 BKN050 09/05 Q1031 RMK=
SPZO Feb2010-060900Z 00000KT 8000 FEW030 SCT040 BKN060 09/05 Q1030 RERA RMK PPTRZ=
SPZO Feb2010-061000Z 29005KT 9000 FEW040 SCT050 BKN060 09/05 Q1030 RMK PP000=
SPZO Feb2010-061100Z VRB03KT 9999 FEW050 SCT060 BKN070 09/05 Q1031 NOSIG RMK PP000=
SPZO Feb2010-061200Z 00000KT 9999 SCT040 BKN080 09/06 Q1031 NOSIG RMK PP000=
SPZO Feb2010-061300Z 00000KT 9999 SCT040 BKN100 10/05 Q1032 NOSIG RMK PP000=
SPZO Feb2010-061400Z 00000KT 9999 SCT040 BKN100 13/05 Q1032 NOSIG RMK PP000=
SPZO Feb2010-061500Z VRB02KT 9999 SCT040 BKN100 16/08 Q1033 NOSIG RMK PP000=
SPZO Feb2010-061600Z VRB02KT 9999 SCT043 BKN100 17/05 Q1031 NOSIG RMK PP000=
SPZO Feb2010-061700Z 26010KT 9999 SCT043 BKN100 16/06 Q1031 TEMPO VCSH RMK WIND RWY10 29008KT 250V340 PP000=
SPZO Feb2010-061800Z 28010KT 9999 VCSH SCT043 BKN080 17/07 Q1029 NOSIG RMK WIND RWY10 30008KT 260V360 PP000=
SPZO Feb2010-061900Z 33008KT 280V030 9999 VCSH FEW033 SCT050 OVC100 17/07 Q1029 RESHRA NOSIG RMK PP006=
SPZO Feb2010-062000Z 29006KT 250V330 9999 FEW050 OVC100 16/05 Q1029 NOSIG RMK PP000=
SPZO Feb2010-062100Z 27009KT 250V320 9999 FEW033 SCT050 OVC100 15/05 Q1028 NOSIG RMK PP000=
SPZO Feb2010-062200Z 03010KT 9999 FEW036 SCT050 OVC100 12/06 Q1029 NOSIG RMK T MAX 17.2 PP000=
SPZO Feb2010-062300Z 06005KT 9999 FEW036 SCT046 BKN100 11/06 Q1029 NOSIG RMK PP000=
SPZO Feb2010-070000Z 06002KT 9999 FEW036 SCT040 BKN100 11/06 Q1026 RMK PP000=
SPZO Feb2010-070100Z 00000KT 9999 FEW030 SCT040 BKN060 11/07 Q1031 RMK PP010=
SPZO Feb2010-070200Z 00000KT 9999 -RA FEW030 SCT040 BKN050 11/08 Q1032 RMK PPTRZ=
SPZO Feb2010-070300Z 00000KT 9999 -RA FEW030 SCT040 BKN050 10/08 Q1032 RMK PPTRZ=
SPZO Feb2010-070400Z 00000KT 9999 -RA FEW030 SCT040 BKN060 10/07 Q1032 RMK PP002=
SPZO Feb2010-070500Z 00000KT 9999 -RA FEW030 SCT040 BKN050 10/08 Q1032 RMK PP002=
SPZO Feb2010-070600Z 00000KT 5000 -RA SCT030 OVC050 10/08 Q1031 RMK PP008=
SPZO Feb2010-070700Z 00000KT 5000 -RA SCT030 SCT040 BKN050 09/08 Q1031 RMK PP008=
SPZO Feb2010-070800Z 00000KT 6000 -RA SCT030 SCT040 BKN050 09/08 Q1031 RMK PPTRZ=
SPZO Feb2010-070900Z 00000KT 7000 SCT030 SCT040 BKN050 09/07 Q1030 RERA RMK PPTRZ=
SPZO Feb2010-071000Z 00000KT 8000 FEW030 SCT040 BKN050 09/07 Q1030 RMK PP000=
SPZO Feb2010-071100Z 05003KT 9999 FEW010 SCT033 BKN043 09/08 Q1031 NOSIG RMK PP000=
SPZO Feb2010-071200Z 06004KT 9999 FEW010 SCT033 BKN050 10/08 Q1032 NOSIG RMK PP000=
SPZO Feb2010-071300Z 00000KT 9999 FEW015 SCT036 BKN070 11/07 Q1033 NOSIG RMK PP000=
SPZO Feb2010-071400Z 00000KT 9999 FEW020 SCT036 BKN080 13/07 Q1033 NOSIG RMK PP000=
SPZO Feb2010-071500Z VRB02KT 9999 SCT030 BKN100 15/06 Q1033 NOSIG RMK PP000=
SPZO Feb2010-071600Z VRB02KT 9999 SCT040 BKN200 16/06 Q1032 NOSIG RMK PP000=
SPZO Feb2010-071700Z VRB01KT 9999 SCT040 SCT100 18/08 Q1031 NOSIG RMK PP000=
SPZO Feb2010-071800Z 32004KT 250V070 9999 FEW040 SCT050 19/06 Q1030 NOSIG RMK PP000=
SPZO Feb2010-071900Z 36008KT 310V020 9999 SCT043 20/04 Q1029 NOSIG RMK=
SPZO Feb2010-072000Z 34006KT 250V030 9999 SCT050 21/07 Q1028 NOSIG RMK PP000=
SPZO Feb2010-072100Z 33006KT 290V030 9999 FEW040TCU SCT050 14/05 Q1027 NOSIG RMK PP000=
SPZO Feb2010-072200Z 26016KT 9999 FEW040 SCT050 15/07 Q1028 NOSIG RMK=
SPZO Feb2010-072300Z 26008KT 9999 FEW050 15/08 Q1028 NOSIG RMK WIND RWY10 26007KT PP000=
SPZO Feb2010-080000Z 00000KT 9999 FEW050 14/08 Q1029 RMK PP000=
SPZO Feb2010-080100Z 32003KT 250V060 9999 SKC 13/08 Q1031 RMK PP000=
SPZO Feb2010-080200Z 00000KT 9999 SKC 11/07 Q1032 RMK PP000=
SPZO Feb2010-080300Z 00000KT 9999 FEW100 10/07 Q1033 RMK PP000=
SPZO Feb2010-080400Z 00000KT 9999 FEW100 10/07 Q1033 RMK PP000=
SPZO Feb2010-080500Z 00000KT 9999 SKC 09/07 Q1033 RMK PP000=
SPZO Feb2010-080600Z 00000KT 9999 SKC 08/06 Q1033 RMK PP000=
SPZO Feb2010-080700Z 00000KT 9999 SKC 08/06 Q1031 RMK PP000=
SPZO Feb2010-080800Z 00000KT 9999 SKC 08/07 Q1032 RMK PP000=
SPZO Feb2010-080900Z 00000KT 9999 SKC 08/06 Q1032 RMK PP000=
SPZO Feb2010-081000Z 00000KT 9999 SKC 08/06 Q1033 RMK PP000=
SPZO Feb2010-081100Z 00000KT 9999 FEW040 07/05 Q1033 NOSIG RMK PP000=
SPZO Feb2010-081200Z 00000KT 9999 FEW050 10/07 Q1033 NOSIG RMK PP000=
SPZO Feb2010-081300Z 00000KT 9999 FEW036 13/08 Q1034 NOSIG RMK PP000=
SPZO Feb2010-081400Z 00000KT 9999 SCT040 15/09 Q1034 NOSIG RMK PP000=
SPZO Feb2010-081500Z 04003KT 350V070 9999 SCT050 17/09 Q1033 NOSIG RMK PP000=
SPZO Feb2010-081600Z 00000KT 9999 SCT050 20/09 Q1033 NOSIG RMK PP000=
SPZO Feb2010-081700Z 00000KT 9999 FEW050 20/07 Q1031 NOSIG RMK PP000=
SPZO Feb2010-081800Z 27004KT 250V030 9999 SCT050 22/07 Q1029 NOSIG RMK PP000=
SPZO Feb2010-081900Z 30004KT 250V060 9999 BKN050 23/05 Q1028 TEMPO VCSH RMK PP000=
SPZO Feb2010-082000Z VRB02KT 9999 VCSH BKN050 SCT060 22/03 Q1027 TEMPO -RA RMK PP000=
SPZO Feb2010-082100Z 26004KT 9999 BKN050 SCT060 19/08 Q1027 TEMPO VCSH RMK PP000=
SPZO Feb2010-082200Z 03004KT 320V070 9999 SCT060 SCT070 20/09 Q1026 NOSIG RMK TMAX 23.8 PP000=
SPZO Feb2010-082300Z 00000KT 9999 SCT060 SCT070 19/09 Q1026 NOSIG RMK PP000=
SPZO Feb2010-090000Z 00000KT 9999 BKN230 17/09 Q1027 RMK PP000=
SPZO Feb2010-090100Z 00000KT 9999 SCT050 14/10 Q1028 RMK PP000=
SPZO Feb2010-090200Z 00000KT 9999 SCT050 13/09 Q1029 RMK PP000=
SPZO Feb2010-090300Z 00000KT 9999 SCT050 12/09 Q1029 RMK PP000=
SPZO Feb2010-090400Z 00000KT 9999 SCT050 12/09 Q1029 RMK PP000=
SPZO Feb2010-090500Z 00000KT 9999 SCT050 SCT070 11/08 Q1030 RMK PP000=
SPZO Feb2010-090600Z 00000KT 9999 SCT050 SCT070 12/09 Q1029 RMK PP000=
SPZO Feb2010-090700Z 00000KT 9999 SCT046 BKN050 12/09 Q1029 RMK PP000=
SPZO Feb2010-090800Z 05005KT 9999 SCT046 BKN050 12/09 Q1028 RMK PP000=
SPZO Feb2010-090900Z 05005KT 9999 SCT046 BKN050 12/09 Q1028 RMK PP000=
SPZO Feb2010-091000Z 03006KT 9000 -RA FEW020 SCT030 BKN046 12/09 Q1029 RMK PP000=
SPZO Feb2010-091100Z 00000KT 6000 -RA FEW010 SCT030 BKN046 11/07 Q1030 NOSIG RMK CLNG BLW 1200M PP074=
SPZO Feb2010-091200Z 00000KT 3000 -RA BR FEW005 SCT020 OVC043 11/08 Q1032 NOSIG RMK CLNG BLW 1200M PP016=
SPZO Feb2010-091300Z 26009KT 4000 -RA BR FEW005 SCT020 OVC046 10/08 Q1033 BECMG FM1230 6000 RMK CLNG BLW 1200M PP026=
SPZO Feb2010-091400Z 31007KT 250V010 8000 -DZ SCT020 SCT040 BKN050 13/06 Q1033 NOSIG RMK BR PPTRZ=
SPZO Feb2010-091500Z 29009KT 250V350 9999 FEW025 SCT040 BKN060 14/08 Q1033 REDZ TEMPO VCSH RMK PPTRZ=
SPZO Feb2010-091600Z 28008KT 250V320 9999 FEW033 SCT040 BKN060 15/07 Q1033 NOSIG RMK PP000=
SPZO Feb2010-091700Z VRB02KT 9999 FEW036 SCT043 BKN060 16/07 Q1032 NOSIG RMK PP000=
SPZO Feb2010-091800Z 29008KT 250V340 9999 SCT040 BKN080 15/07 Q1030 NOSIG RMK WIND RWY10 24006KT 160V280 PP000=
SPZO Feb2010-091900Z 28005KT 250V010 9999 SCT046 BKN080 16/06 Q1029 NOSIG RMK PP000=
SPZO Feb2010-092000Z 25002KT 9999 FEW046 OVC100 19/07 Q1027 NOSIG RMK PP000=
SPZO Feb2010-092100Z 06005KT 350V070 9999 FEW050 OVC100 18/08 Q1027 NOSIG RMK WIND RWY10 11006KT 050V170 PP000=
SPZO Feb2010-092200Z 01004KT 320V070 9999 FEW050 OVC100 18/08 Q1027 NOSIG RMK T.MAX. 19.5 PP000=
SPZO Feb2010-092300Z 00000KT 9999 FEW050 OVC100 17/07 Q1027 NOSIG RMK PP000=
SPZO Feb2010-100000Z 00000KT 9999 FEW050 15/09 Q1028 RMK PP000=
SPZO Feb2010-100100Z 00000KT 9999 SCT050 OVC060 14/09 Q1029 RMK PP000=
SPZO Feb2010-100200Z 33009KT 9999 SCT050 OVC060 15/09 Q1031 RMK PP000=
SPZO Feb2010-100300Z 06006KT 9999 SKC 14/07 Q1031 RMK PP000=
SPZO Feb2010-100400Z 26006KT 9999 SKC 12/07 Q1030 RMK PP000=
SPZO Feb2010-100500Z 00000KT 9999 SCT050 11/07 Q1029 RMK PP000=
SPZO Feb2010-100600Z 00000KT 9999 SCT050 BKN060 11/07 Q1028 RMK PP000=
SPZO Feb2010-100700Z 00000KT 9999 SCT050 BKN060 11/06 Q1027 RMK PP000=
SPZO Feb2010-100800Z 00000KT 9999 SCT050 BKN060 10/07 Q1027 RMK PP000=
SPZO Feb2010-100900Z 06003KT 9999 SCT040 BKN050 09/06 Q1027 RMK PP000=
SPZO Feb2010-101000Z 00000KT 9999 SKC 09/06 Q1027 RMK PP000=
SPZO Feb2010-101100Z 00000KT 9999 FEW040 SCT060 08/05 Q1028 RMK PP000=
SPZO Feb2010-101200Z 00000KT 9999 FEW040 SCT100 10/07 Q1029 NOSIG RMK PP000=
SPZO Feb2010-101300Z 00000KT 9999 SCT046 14/06 Q1029 NOSIG RMK PP000=
SPZO Feb2010-101400Z 00000KT 9999 FEW040 SCT230 15/06 Q1029 NOSIG RMK PP000=
SPZO Feb2010-101500Z 00000KT 9999 SCT043 17/06 Q1029 NOSIG RMK PP000=
SPZO Feb2010-101600Z 00000KT 9999 SCT046 19/08 Q1027 NOSIG RMK PP000=
SPZO Feb2010-101700Z 28006KT 250V340 9999 SCT046 21/09 Q1027 NOSIG RMK PP000=
SPZO Feb2010-101800Z VRB03KT 9999 SCT050 23/07 Q1025 NOSIG RMK PP000=
SPZO Feb2010-101900Z VRB02KT 9999 FEW043TCU SCT050 24/06 Q1030 NOSIG RMK PP000=
SPZO Feb2010-102000Z 34008KT 300V060 9999 VCSH FEW043TCU SCT050 21/09 Q1029 NOSIG RMK PP000=
SPZO Feb2010-102100Z 06011KT 9999 SCT043 BKN050 17/06 Q1024 NOSIG RMK PP018=
SPZO Feb2010-102200Z 33009KT 290V360 9999 SCT043 BKN050 15/06 Q1024 NOSIG RMK T.MAX.24.2 RERA PP002=
SPZO Feb2010-102300Z VRB02KT 9999 SCT043 BKN080 16/04 Q1025 NOSIG RMK PP000=
SPZO Feb2010-110000Z 27013KT 9999 BKN050 SCT070 14/05 Q1027 RMK PP000=
SPZO Feb2010-110100Z VRB03KT 9999 OVC050 14/06 Q1027 RMK PP000=
SPZO Feb2010-110200Z VRB03KT 9999 BKN050 14/05 Q1028 RMK PP000=
SPZO Feb2010-110300Z VRB02KT 9999 BKN050 13/06 Q1029 RMK PP000=
SPZO Feb2010-110400Z 26006KT 9999 BKN050 12/06 Q1029 RMK PP000=
SPZO Feb2010-110500Z 27004KT 9999 BKN050 11/06 Q1029 RMK PP000=
SPZO Feb2010-110600Z 00000KT 9999 BKN050 10/07 Q1028 RMK PP000=
SPZO Feb2010-110700Z 00000KT 9999 BKN050 09/07 Q1027 RMK PP000=
SPZO Feb2010-110800Z 00000KT 9999 BKN050 09/07 Q1027 RMK PP000=
SPZO Feb2010-110900Z 00000KT 9999 BKN050 08/05 Q1027 RMK PP000=
SPZO Feb2010-111000Z 00000KT 9999 SCT050 07/05 Q1028 RMK PP000=
SPZO Feb2010-111100Z 00000KT 9999 SCT050 07/05 Q1029 NOSIG RMK PP000=
SPZO Feb2010-111200Z 00000KT 9999 FEW050 BKN230 08/06 Q1030 NOSIG RMK PP000=
SPZO Feb2010-111300Z 00000KT 9999 FEW050 BKN230 11/07 Q1030 NOSIG RMK PP000=
SPZO Feb2010-111400Z 00000KT 9999 FEW040 BKN230 14/06 Q1030 NOSIG RMK PP000=
SPZO Feb2010-111500Z 00000KT 9999 FEW043 BKN230 16/05 Q1029 NOSIG RMK PP000=
SPZO Feb2010-111600Z VRB03KT 9999 FEW046 BKN230 18/06 Q1029 NOSIG RMK PP000=
SPZO Feb2010-111700Z VRB03KT 9999 SCT050 19/07 Q1027 NOSIG RMK PP000=
SPZO Feb2010-111800Z VRB05KT 9999 SCT050 22/08 Q1026 NOSIG RMK PP000=
SPZO Feb2010-111900Z 35006KT 250V060 9999 VCSH FEW040TCU SCT046CB BKN150 21/06 Q1024 TEMPO -SHRA RMK PP000=
SPZO Feb2010-112000Z 06023G36KT 9999 SQ -RA FEW040TCU BKN046CB BKN150 13/06 Q1027 WS RWY28 BECMG FM2015 -RA RMK WIND RYW10 10022G33KT 050V140 PPTRZ=
SPZO Feb2010-112100Z 02006KT 9000 -RA SCT060TCU OVC080 11/07 Q1027 BECMG 9999 RMK PP016=
SPZO Feb2010-112200Z 29011KT 9999 FEW060CB SCT080 OVC230 12/07 Q1026 NOSIG RMK TMAX 23.2 PP010=
SPZO Feb2010-112300Z 00000KT 9999 SCT080 BKN230 12/07 Q1027 NOSIG RMK PP000=
SPZO Feb2010-120000Z 00000KT 9999 SCT040TCU BKN050 12/08 Q1029 RMK PP000=
SPZO Feb2010-120100Z 05005KT 9999 SCT040 BKN050 12/08 Q1030 RMK PP000=
SPZO Feb2010-120200Z 27003KT 9999 SCT040 BKN050 12/07 Q1029 RMK PP000=
SPZO Feb2010-120300Z 00000KT 9999 SCT050 BKN060 11/07 Q1030 RMK PP000=
SPZO Feb2010-120400Z 00000KT 9999 SCT050 BKN060 11/08 Q1030 RMK PP000=
SPZO Feb2010-120500Z 00000KT 9999 SCT050 BKN060 11/08 Q1030 RMK PP000=
SPZO Feb2010-120600Z 00000KT 9999 SCT050 BKN060 10/08 Q1029 RMK PP000=
SPZO Feb2010-120700Z 00000KT 9999 BKN050 11/08 Q1029 RMK PP000=
SPZO Feb2010-120800Z 00000KT 9999 SCT050 11/08 Q1028 RMK PP000=
SPZO Feb2010-120900Z 00000KT 9999 SCT050 11/08 Q1028 RMK PP000=
SPZO Feb2010-121000Z 00000KT 9999 FEW040 10/08 Q1029 RMK PP000=
SPZO Feb2010-121100Z 00000KT 9999 FEW060 OVC230 10/08 Q1029 NOSIG RMK PP000=
SPZO Feb2010-121200Z 00000KT 9000 FEW050 BKN100 OVC230 11/08 Q1030 BECMG 9999 RMK PP000=
SPZO Feb2010-121300Z 05002KT 9999 FEW046 BKN100 OVC230 13/08 Q1031 NOSIG RMK PP000=
SPZO Feb2010-121400Z 00000KT 9999 FEW030 SCT046 BKN060 14/07 Q1031 NOSIG RMK PP000=
SPZO Feb2010-121500Z 03002KT 9999 SCT043 BKN100 16/08 Q1031 NOSIG RMK PP000=
SPZO Feb2010-121600Z 00000KT 9999 SCT046 BKN060 17/07 Q1031 NOSIG RMK PP000=
SPZO Feb2010-121700Z 35011KT 310V030 9000 4000W -RA VCSH FEW040 SCT046TCU BKN080 12/07 Q1031 BECMG 9999 NSW RMK PP012=
SPZO Feb2010-121800Z 28004KT 250V040 9999 FEW040 SCT050 BKN080 16/07 Q1029 NOSIG RMK PP000=
SPZO Feb2010-121900Z 35009KT 310V050 9999 FEW040 BKN050 17/07 Q1029 NOSIG RMK PP000=
SPZO Feb2010-122000Z 34007KT 290V030 9999 SCT050 SCT230 19/06 Q1027 NOSIG RMK PP000=
SPZO Feb2010-122100Z 33008KT 280V030 9999 SCT050 SCT230 19/05 Q1027 NOSIG RMK PP000=
SPZO Feb2010-122200Z 36012KT 310V040 9999 FEW050 BKN230 17/05 Q1027 NOSIG RMK TMAX 18.8 PP000=
SPZO Feb2010-122300Z 35008KT 310V020 9999 FEW050 BKN230 17/04 Q1028 NOSIG RMK PP000=
SPZO Feb2010-130000Z 95995KT 9999 SCT050 SCT230 16/03 Q1029 RMK PP000=
SPZO Feb2010-130100Z 00000KT 9999 FEW050 BKN230 15/04 Q1030 RMK PP000=
SPZO Feb2010-130200Z 04002KT 9999 FEW050 BKN230 14/06 Q1030 RMK PP000=
SPZO Feb2010-130300Z 00000KT 9999 FEW050 SCT230 12/07 Q1030 RMK PP000=
SPZO Feb2010-130400Z 00000KT 9999 SCT050 SCT230 12/07 Q1032 RMK PP000=
SPZO Feb2010-130500Z 00000KT 9999 SCT046 BKN100 12/08 Q1031 RMK PP000=
SPZO Feb2010-130600Z 00000KT 9999 SCT046 BKN100 12/07 Q1032 RMK PP000=
SPZO Feb2010-130700Z 00000KT 9999 SCT040 BKN100 12/08 Q1030 RMK PP000=
SPZO Feb2010-130800Z 00000KT 9999 SCT040 BKN080 12/07 Q1030 RMK PP000=
SPZO Feb2010-130900Z 00000KT 9999 SCT040 BKN080 11/07 Q1030 RMK PP000=
SPZO Feb2010-131000Z 00000KT 9999 SCT040 BKN080 11/08 Q1030 RMK PP000=
SPZO Feb2010-131100Z 00000KT 9999 SCT043 10/07 Q1031 NOSIG RMK PP000=
SPZO Feb2010-131200Z 04001KT 9999 FEW036 11/07 Q1032 NOSIG RMK PP000=
SPZO Feb2010-131300Z 00000KT 9999 FEW040 14/07 Q1032 NOSIG RMK PP000=
SPZO Feb2010-131400Z VRB03KT 9999 SCT040 15/07 Q1032 NOSIG RMK PP000=
SPZO Feb2010-131500Z VRB02KT 9999 SCT040 18/07 Q1032 NOSIG RMK PP000=
SPZO Feb2010-131600Z 00000KT 9999 SCT050 18/03 Q1031 NOSIG RMK PP000=
SPZO Feb2010-131700Z VRB03KT 9999 BKN050 20/05 Q1031 NOSIG RMK PP000=
SPZO Feb2010-131800Z 30004KT 250V030 9999 BKN050 21/05 Q1028 NOSIG RMK PP000=
SPZO Feb2010-131900Z 33005KT 250V070 9999 BKN050 21/07 Q1027 NOSIG RMK PP000=
SPZO Feb2010-132000Z 32005KT 260V070 9999 BKN050 22/06 Q1025 TEMPO VCSH RMK PP000=
SPZO Feb2010-132100Z 04018KT 360V070 9999 VCSH FEW040 SCT050 BKN060 15/07 Q1026 TEMPO -RA RMK PP000=
SPZO Feb2010-132200Z VRB03KT 9999 FEW050 SCT060 BKN070 15/07 Q1026 NOSIG RMK TMAX 22.2 PP000=
SPZO Feb2010-132300Z 00000KT 9999 FEW050 SCT060 BKN080 15/08 Q1027 NOSIG RMK PP000=
SPZO Feb2010-140000Z 00000KT 9999 SCT050 BKN100 14/09 Q1028 RMK PP000=
SPZO Feb2010-140100Z 00000KT 9999 SCT050 BKN080 14/09 Q1029 RMK PP000=
SPZO Feb2010-140200Z 27007KT 9999 DZ SCT036 BKN050 14/08 Q1031 RMK PPTRZ=
SPZO Feb2010-140300Z 26004KT 9999 SCT036 BKN050 13/08 Q1031 RMK PP000=
SPZO Feb2010-140400Z VRB02KT 9999 SCT040 BKN060 12/09 Q1031 RMK PP000=
SPZO Feb2010-140500Z 00000KT 9999 SCT046 BKN060 12/08 Q1031 RMK PP000=
SPZO Feb2010-140600Z 00000KT 9999 SCT043 BKN050 12/08 Q1030 RMK PP000=
SPZO Feb2010-140700Z 00000KT 9999 SCT050 10/07 Q1029 RMK PP000=
SPZO Feb2010-140800Z 00000KT 9999 SCT050 09/07 Q1029 RMK PP000=
SPZO Feb2010-140900Z 00000KT 9999 SCT046 09/06 Q1029 RMK PP000=
SPZO Feb2010-141000Z 00000KT 9999 FEW036 08/06 Q1029 RMK PP000=
SPZO Feb2010-141100Z 00000KT 9999 SCT040 BKN050 09/06 Q1030 NOSIG RMK PP000=
SPZO Feb2010-141200Z 00000KT 9999 BKN050 SCT060 10/07 Q1031 NOSIG RMK PP000=
SPZO Feb2010-141300Z 00000KT 9999 FEW040 SCT050 BKN060 12/08 Q1031 NOSIG RMK PP000=
SPZO Feb2010-141400Z 05004KT 350V070 9999 FEW040 SCT050 BKN070 14/07 Q1031 NOSIG RMK PP000=
SPZO Feb2010-141500Z VRB02KT 9999 FEW040 SCT050 BKN080 17/08 Q1031 NOSIG RMK PP000=
SPZO Feb2010-141600Z 03004KT 290V070 9999 FEW040 SCT050 BKN080 18/08 Q1031 NOSIG RMK PP000=
SPZO Feb2010-141700Z 29004KT 260V330 9999 -DZ FEW040 SCT050 BKN080 17/08 Q1030 NOSIG RMK PPTRZ=
SPZO Feb2010-141800Z 32004KT 250V050 9999 SCT050 SCT230 20/07 Q1028 NOOSIG RMK PP000=
SPZO Feb2010-141900Z 00000KT 9999 SCT050 SCT230 21/02 Q1026 NOSIG RMK PP000=
SPZO Feb2010-142000Z 26014KT 9999 FEW043TCU SCT050 21/07 Q1025 NOSIG RMK WIND RWY10 28013KT 240V340 PP000=
SPZO Feb2010-142100Z 27015KT 9999 SCT043CB SCT050 20/07 Q1025 TEMPO VCSH RMK WIND RWY10 30012KT 240V030 PP000=
SPZO Feb2010-142200Z /////KT 5000 -TSRA BKN040CB SCT046TCU 11/08 Q1028 NOSIG RMK T.MAX.21.6 PP048=
SPZO Feb2010-142300Z /////KT 9999 -RA FEW040 OVC060 12/09 Q1028 NOSIG RMK PP014=
SPZO Feb2010-150000Z /////KT 9999 FEW040 OVC050 12/09 Q1029 RMK PP000=
SPZO Feb2010-150100Z /////KT 9999 -RA FEW040 SCT050 12/08 Q1030 RMK PP002=
SPZO Feb2010-150200Z /////KT 9999 SCT050 12/07 Q1031 RMK PP000=
SPZO Feb2010-150300Z /////KT 9999 FEW040 SCT050 BKN060 12/09 Q1032 RMK PP000=
SPZO Feb2010-150400Z /////KT 9999 FEW040 SCT050 BKN060 12/08 Q1032 RMK PP000=
SPZO Feb2010-150500Z /////KT 9999 FEW040 SCT050 BKN060 12/08 Q1032 RMK PP000=
SPZO Feb2010-150600Z /////KT 9999 FEW040 SCT050 BKN060 12/08 Q1031 RMK PP000=
SPZO Feb2010-150700Z /////KT 9999 FEW030 SCT040 BKN050 12/07 Q1030 RMK PP000=
SPZO Feb2010-150800Z /////KT 9999 FEW025 SCT030 BKN050 12/08 Q1030 RMK PP000=
SPZO Feb2010-150900Z /////KT 9999 FEW025 SCT030 BKN050 11/07 Q1029 RMK PP000=
SPZO Feb2010-151000Z /////KT 9999 FEW030 SCT040 BKN050 10/07 Q1029 RMK PP000=
SPZO Feb2010-151100Z /////KT 9999 FEW036 SCT230 09/06 Q1029 NOSIG RMK=
SPZO Feb2010-151200Z /////KT 9000 FEW036 OVC230 11/07 Q1030 BECMG 9999 RMK WIND RYW10 VRB02KT PP000=
SPZO Feb2010-151300Z /////KT 9999 FEW036 BKN230 13/07 Q1031 NOSIG RMK=
SPZO Feb2010-151400Z /////KT 9999 SCT036 OVC230 14/07 Q1031 NOSIG RMK=
SPZO Feb2010-151500Z /////KT 9999 SCT036 OVC230 15/06 Q1031 NOSIG RMK=
SPZO Feb2010-151600Z /////KT 9999 SCT036 OVC230 16/07 Q1031 NOSIG RMK=
SPZO Feb2010-151700Z /////KT 9999 SCT036 OVC230 17/06 Q1030 NOSIG RMK=
SPZO Feb2010-151800Z /////KT 9999 SCT043 OVC100 18/07 Q1029 NOSIG RMK PP000=
SPZO Feb2010-151900Z /////KT 9999 SCT050 OVC230 19/06 Q1027 NOSIG RMK PP000=
SPZO Feb2010-152000Z 02005KT 310V070 9999 FEW050 OVC230 20/07 Q1026 NOSIG RMK PP000=
SPZO Feb2010-152100Z 05007KT 9999 FEW050 OVC230 18/07 Q1025 NOSIG RMK PP000=
SPZO Feb2010-152200Z 06004KT 9999 FEW050 OVC230 18/08 Q1024 NOSIG RMK T.MAX.20.5 PP000=
SPZO Feb2010-152300Z 03004KT 300V060 9999 SCT050 OVC230 18/05 Q1025 NOSIG RMK PP000=
SPZO Feb2010-160000Z /////KT 9999 BKN050 SCT230 16/04 Q1026 RMK PP000=
SPZO Feb2010-160100Z 01002KT 9999 OVC050 16/07 Q1028 RMK PP000=
SPZO Feb2010-160200Z 05007KT 9999 OVC050 13/06 Q1029 RMK PP000=
SPZO Feb2010-160300Z 00000KT 9999 BKN050 12/06 Q1030 RMK PP000=
SPZO Feb2010-160400Z 00000KT 9999 BKN050 12/07 Q1030 RMK PP000=
SPZO Feb2010-160500Z 00000KT 9999 BKN050 12/07 Q1030 RMK PP000=
SPZO Feb2010-160600Z 00000KT 9999 BKN050 12/07 Q1029 RMK PP000=
SPZO Feb2010-160700Z 00000KT 9999 BKN050 12/08 Q1029 RMK PP000=
SPZO Feb2010-160800Z 00000KT 9999 BKN050 11/08 Q1028 RMK PP000=
SPZO Feb2010-160900Z 00000KT 9999 SCT050 SCT060 10/08 Q1028 RMK PP000=
SPZO Feb2010-161000Z 00000KT 9999 SCT050 SCT060 10/08 Q1028 RMK PP000=
SPZO Feb2010-161100Z 00000KT 9999 SCT050 SCT060 10/08 Q1029 TEMPO FEW030 SCT040 RMK PP000=
SPZO Feb2010-161200Z 00000KT 9999 FEW025 BKN040 11/08 Q1030 NOOSIG RMK PP000=
SPZO Feb2010-161300Z 00000KT 9999 SCT036 BKN050 13/08 Q1031 NOSIG RMK PP000=
SPZO Feb2010-161400Z 00000KT 9999 SCT040 15/07 Q1031 NOSIG RMK PP000=
SPZO Feb2010-161500Z 00000KT 9999 SCT046 17/07 Q1030 NOSIG RMK PP000=
SPZO Feb2010-161600Z VRB03KT 9999 FEW040 SCT050 17/07 Q1029 NOSIG RMK PP000=
SPZO Feb2010-161700Z 00000KT 9999 BKN050 19/08 Q1028 NOSIG RMK PP000=
SPZO Feb2010-161800Z 28014KT 9999 FEW040 BKN050 19/08 Q1027 NOSIG RMK PP000=
SPZO Feb2010-161900Z 27008KT 9999 BKN050 19/06 Q1026 NOSIG RMK PP000=
SPZO Feb2010-162000Z VRB02KT 9999 BKN050 20/06 Q1025 NOSIG RMK PP000=
SPZO Feb2010-162100Z 35009KT 300V010 9999 BKN050 22/04 Q1024 NOSIG RMK PP000=
SPZO Feb2010-162200Z 36012KT 300V040 9999 SCT050 BKN200 19/05 Q1024 NOSIG RMK TMAX 21.8 PP000=
SPZO Feb2010-162300Z 33009KT 270V040 9999 FEW040 OVC230 17/05 Q1025 NOSIG RMK PP000=
SPZO Feb2010-170000Z 33004KT 250V060 9999 FEW040TCU BKN050 16/06 Q1027 RMK PP000=
SPZO Feb2010-170100Z 00000KT 9999 FEW040 SCT050 BKN060 15/06 Q1028 RMK PP000=
SPZO Feb2010-170200Z 00000KT 9999 FEW040 SCT050 BKN060 13/06 Q1030 RMK PP000=
SPZO Feb2010-170300Z 00000KT 9999 FEW050 SCT060 14/06 Q1030 RMK PP000=
SPZO Feb2010-170400Z 00000KT 9999 FEW050 SCT060 13/07 Q1032 RMK PP000=
SPZO Feb2010-170500Z 00000KT 9999 FEW040 SCT050 BKN060 13/07 Q1031 RMK PP000=
SPZO Feb2010-170600Z VRB02KT 5000 +RA FEW030 SCT040 BKN050 10/08 Q1031 RMK PP020=
SPZO Feb2010-170700Z 04003KT 7000 FEW030 SCT040 BKN050 10/08 Q1031 RERA RMK PPTRZ=
SPZO Feb2010-170800Z 00000KT 8000 FEW030 SCT040 BKN050 10/08 Q1030 RMK PP000=
SPZO Feb2010-170900Z 00000KT 9999 FEW030 SCT040 BKN070 10/08 Q1030 RMK PP000=
SPZO Feb2010-171000Z 00000KT 9999 FEW033 SCT040 BKN070 10/07 Q1029 RMK PP000=
SPZO Feb2010-171100Z 00000KT 9000 FEW010 SCT040 BKN060 10/07 Q1030 NOSIG RMK BR PP000=
SPZO Feb2010-171200Z 00000KT 9999 FEW030 BKN046 11/08 Q1031 NOSIG RMK PP000=
SPZO Feb2010-171300Z 00000KT 9999 FEW030 SCT046 12/07 Q1031 NOSIG RMK PP000=
SPZO Feb2010-171400Z 00000KT 9999 FEW036 SCT050 14/07 Q1031 NOSIG RMK PP000=
SPZO Feb2010-171500Z 00000KT 9999 FEW036 BKN046 15/06 Q1031 NOSIG RMK PP000=
SPZO Feb2010-171600Z 00000KT 9999 SCT036 BKN050 17/08 Q1032 NOSIG RMK PP000=
SPZO Feb2010-171700Z 05010KT 9999 SCT040 BKN050 15/08 Q1030 TEMPO VCSH RMK WIND RWY10 12010KT 050V140 PP000=
SPZO Feb2010-171800Z 05009KT 9999 VCSH SCT040 BKN050 15/08 Q1029 NOSIG RMK PP000=
SPZO Feb2010-171900Z 00000KT 9999 VCSH SCT040 BKN050 17/07 Q1029 TEMPO RA RMK PP000=
SPZO Feb2010-172000Z 04008KT 9999 SCT040 BKN050 15/09 Q1028 TEMPO -RA RMK PP000=
SPZO Feb2010-172100Z 02003KT 250V050 9999 RA SCT036 BKN046 14/08 Q1028 NOSIG RMK PP002=
SPZO Feb2010-172200Z 03004KT 9999 SCT040 BKN060 14/09 Q1029 RERA TEMPO VCSH RMK PP004=
SPZO Feb2010-172300Z 05005KT 9999 FEW040 BKN200 14/09 Q1028 NOSIG RMK PP000=
SPZO Feb2010-180000Z 05005KT 9999 FEW046 SCT230 12/08 Q1029 RMK PP000=
SPZO Feb2010-180100Z 00000KT 9999 FEW046 SCT230 12/09 Q1030 RMK PP000=
SPZO Feb2010-180200Z 00000KT 9999 FEW046 SCT230 12/09 Q1031 MK PP000=
SPZO Feb2010-180300Z 00000KT 9999 SCT046 11/08 Q1032 RMK PP000=
SPZO Feb2010-180400Z 00000KT 9999 SCT043 10/08 Q1033 RMK PP000=
SPZO Feb2010-180500Z 00000KT 9999 FEW100 10/09 Q1032 RMK PP000=
SPZO Feb2010-180600Z 00000KT 9999 SKC 09/07 Q1032 RMK PP000=
SPZO Feb2010-180700Z 00000KT 9999 SKC 08/06 Q1032 RMK PP000=
SPZO Feb2010-180800Z 00000KT 9999 SKC 08/06 Q1032 RMK PP000=
SPZO Feb2010-180900Z 00000KT 9999 SKC 07/06 Q1031 RMK PP000=
SPZO Feb2010-181000Z 00000KT 9999 SKC 07/05 Q1031 RMK PP000=
SPZO Feb2010-181100Z 00000KT 9999 SCT040 06/05 Q1032 NOSIG RMK PP000=
SPZO Feb2010-181200Z 00000KT 9999 FEW040 SCT200 08/06 Q1033 NOSIG RMK PP000=
SPZO Feb2010-181300Z 00000KT 9999 FEW040 SCT230 13/07 Q1033 NOSIG RMK PP000=
SPZO Feb2010-181400Z 00000KT 9999 FEW040 SCT050 15/07 Q1033 NOSIG RMK PP000=
SPZO Feb2010-181500Z 00000KT 9999 FEW040 BKN050 15/05 Q1033 NOSIG RMK PP000=
SPZO Feb2010-181600Z 00000KT 9999 FEW043 BKN060 16/06 Q1033 NOSIG RMK PP000=
SPZO Feb2010-181700Z 00000KT 9999 FEW043 BKN060 19/05 Q1032 TEMPO VCSH RMK PP000=
SPZO Feb2010-181800Z 36015KT 330V040 8000 -TSRA VCSH FEW020CB SCT040 BKN050 14/09 Q1031 NOSIG RMK PPTRZ=
SPZO Feb2010-181900Z VRB02KT 9999 SCT040 SCT050 16/07 Q1030 NOSIG RMK PP010=
SPZO Feb2010-182000Z 34004KT 250V070 9999 SCT040 SCT050 19/09 Q1029 RERA NOSIG RMK PP002=
SPZO Feb2010-182100Z 34006KT 290V030 9999 BKN050 18/07 Q1028 NOSIG RMK PP000=
SPZO Feb2010-182200Z 35006KT 310V060 9999 BKN050 18/07 Q1028 NOSIG RMK TMAX 19.8 PP000=
SPZO Feb2010-182300Z 34006KT 300V020 9999 BKN050 17/08 Q1028 NOSIG RMK PP000=
SPZO Feb2010-190000Z 34005KT 9999 BKN050 16/08 Q1029 RMK PP000=
SPZO Feb2010-190100Z 00000KT 9999 SCT050 15/07 Q1031 RMK PP000=
SPZO Feb2010-190200Z 00000KT 9999 SCT050 14/07 Q1032 RMK PP000=
SPZO Feb2010-190300Z 00000KT 9999 SCT050 13/08 Q1032 RMK PP000=
SPZO Feb2010-190400Z 27004KT 9999 SCT046 11/07 Q1033 RMK PP000=
SPZO Feb2010-190500Z 00000KT 9999 SCT050 11/07 Q1032 RMK PP000=
SPZO Feb2010-190600Z 00000KT 9999 SCT050 10/07 Q1032 RMK PP000=
SPZO Feb2010-190700Z 00000KT 9999 SCT060 09/07 Q1032 RMK PP000=
SPZO Feb2010-190800Z 00000KT 9999 SCT040 BKN050 08/06 Q1031 RMK PP000=
SPZO Feb2010-190900Z 00000KT 9999 SCT040 BKN050 08/06 Q1031 RMK PP000=
SPZO Feb2010-191000Z 00000KT 9999 FEW030 SCT050 07/05 Q1032 RMK PP000=
SPZO Feb2010-191100Z 00000KT 9999 FEW040 BKN230 08/06 Q1032 NOSIG RMK PP000=
SPZO Feb2010-191200Z 00000KT 9999 SCT230 08/05 Q1033 NOSIG RMK PP000=
SPZO Feb2010-191300Z 00000KT 9999 FEW040 SCT230 13/07 Q1034 NOSIG RMK PP000=
SPZO Feb2010-191400Z 00000KT 9999 SCT030 13/08 Q1034 NOSIG RMK PP000=
SPZO Feb2010-191500Z 06006KT 9999 SCT033 17/09 Q1034 NOSIG RMK PP000=
SPZO Feb2010-191600Z 04005KT 350V070 9999 SCT036 18/09 Q1034 NOSIG RMK PP000=
SPZO Feb2010-191700Z 05007KT 350V070 9999 FEW036TCU SCT040 20/08 Q1032 NOSIG RMK PP000=
SPZO Feb2010-191800Z 26012KT 9999 VCSH SCT040TCU SCT050 18/07 Q1031 NOSIG RMK WIND RWY10 27008KT PP000=
SPZO Feb2010-191900Z 26009KT 9999 FEW040TCU SCT050 BKN080 15/08 Q1030 NOSIG RMK PP008=
SPZO Feb2010-192000Z 28004KT 9999 VCSH SCT043TCU BKN080 17/05 Q1029 NOSIG RMK PP000=
SPZO Feb2010-192100Z 05004KT 9999 FEW033 SCT040 BKN080 17/09 Q1029 NOSIG RMK PP000=
SPZO Feb2010-192200Z 28006KT 240V340 9999 FEW033TCU SCT050 BKN080 16/08 Q1030 TEMPO -RA RMK LLUVIA AL W TMAX 20.9 PP000=
SPZO Feb2010-192300Z 29006KT 260V350 9999 -RA FEW040 SCT043 BKN080 14/06 Q1031 NOSIG RMK PP000=
SPZO Feb2010-200000Z 00000KT 9999 SCT040 BKN050 13/08 Q1031 RMK PP000=
SPZO Feb2010-200100Z 00000KT 9999 SCT040 BKN050 13/08 Q1031 RMK PP000=
SPZO Feb2010-200200Z 26004KT 9999 SCT040 BKN050 13/08 Q1033 RMK PP000=
SPZO Feb2010-200300Z 00000KT 9999 SCT040 BKN050 11/08 Q1033 RMK PP000=
SPZO Feb2010-200400Z 00000KT 9999 SKC 11/08 Q1033 RMK PP000=
SPZO Feb2010-200500Z 00000KT 9999 FEW040 SCT050 11/08 Q1033 RMK PP000=
SPZO Feb2010-200600Z 00000KT 9999 SCT040 BKN050 11/08 Q1033 RMK PP000=
SPZO Feb2010-200700Z 00000KT 9999 FEW030 SCT040 BKN050 11/08 Q1032 RMK PP000=
SPZO Feb2010-200800Z 00000KT 9999 FEW030 SCT040 BKN050 11/08 Q1032 RMK PP000=
SPZO Feb2010-200900Z 00000KT 9999 FEW030 SCT040 BKN050 11/08 Q1032 RMK PP000=
SPZO Feb2010-201000Z 00000KT 9999 -RA FEW030 SCT040 BKN050 11/08 Q1033 RMK PP002=
SPZO Feb2010-201100Z 29006KT 260V320 4000 RA VCSH FEW020 BKN030 OVC060 10/08 Q1034 NOSIG RMK CLNG BLW 1200M PP018=
SPZO Feb2010-201200Z VRB05KT 3000 RA VCSH FEW020 BKN030 OVC070 10/08 Q1036 NOSIG RMK CLNG BLW 1200M PP044=
SPZO Feb2010-201300Z 26003KT 4000 RA VCSH FEW010 BKN036 OVC070 10/08 Q1036 BECMG 5MT RMK CLNG BLW 1200M PP000=
SPZO Feb2010-201400Z 00000KT 5000 -RA VCSH FEW010 SCT033 OVC080 10/07 Q1037 BECMG 6000 RMK CLNG BLW 1200M PP014=
SPZO Feb2010-201500Z 00000KT 8000 -RA FEW010 SCT033 OVC080 11/08 Q1037 NOSIG RMK PP004=
SPZO Feb2010-201600Z 27003KT 8000 -RA FEW015 SCT030 OVC100 12/08 Q1036 BECMG 9999 NSW RMK PP004=
SPZO Feb2010-201700Z 27009KT 250V320 9999 FEW025 SCT040 BKN100 13/08 Q1035 NOSIG RMK PP000=
SPZO Feb2010-201800Z 26008KT 240V310 9999 SCT036 BKN120 15/07 Q1034 NOSIG RMK WIND RWY10 27008KT 210V310 P000=
SPZO Feb2010-201900Z 29002KT 9999 FEW046 BKN230 17/07 Q1032 NOSIG RMK=
SPZO Feb2010-202000Z VRB01KT 9999 FEW050 SCT230 19/07 Q1030 NOSIG RMK PP000=
SPZO Feb2010-202100Z 04002KT 9999 FEW050 SCT230 19/06 Q1028 NOSIG RMK PP000=
SPZO Feb2010-202200Z 00000KT 9999 FEW050 SCT230 20/04 Q1027 NOSIG RMK=
SPZO Feb2010-202300Z 26009KT 9999 FEW050 SCT100 17/05 Q1029 NOSIG RMK=
SPZO Feb2010-210000Z 28006KT 9999 SCT050 SCT100 16/08 Q1029 RMK PP000=
SPZO Feb2010-210100Z 26005KT 9999 BKN050 15/08 Q1030 RMK PP000=
SPZO Feb2010-210200Z 28005KT 250V340 7000 -RA SCT040 BKN050 14/09 Q1032 RMK PP002=
SPZO Feb2010-210300Z 00000KT 7000 -RA FEW040 SCT050 BKN060 13/10 Q1032 RMK PP006=
SPZO Feb2010-210400Z 32007KT 250V030 8000 -RA FEW040 SCT050 BKN060 12/06 Q1033 RMK PP016=
SPZO Feb2010-210500Z 05002KT 5000 +RA FEW040 SCT050 BKN060 11/08 Q1034 RMK PP030=
SPZO Feb2010-210600Z 05004KT 5000 +RA SCT010 SCT040 BKN050 10/08 Q1034 RMK PP072=
SPZO Feb2010-210700Z 05005KT 6000 +RA FEW010 SCT040 BKN050 09/07 Q1033 RMK PP034=
SPZO Feb2010-210800Z 00000KT 6000 RA FEW008 SCT020 BKN040 08/06 Q1033 RMK PP022=
SPZO Feb2010-210900Z 00000KT 6000 RA FEW008 SCT020 BKN040 08/07 Q1033 RMK PP012=
SPZO Feb2010-211000Z 06005KT 7000 -RA FEW008 SCT025 BKN043 08/06 Q1033 RMK CLNG BLW 1200M PP004=
SPZO Feb2010-211100Z 06004KT 8000 FEW010 SCT025 BKN046 08/06 Q1033 RERA NOSIG RMK CLNG BLW 1200M BR PP002=
SPZO Feb2010-211200Z 04004KT 010V080 9999 FEW010 SCT030 BKN046 08/06 Q1034 BECMG FM1300 SCT036 BKN046 RMK CLNG BLW 1200M PP000=
SPZO Feb2010-211300Z 00000KT 9999 SCT036 BKN046 10/06 Q1035 NOSIG RMK PP000=
SPZO Feb2010-211400Z 00000KT 9999 SCT036 BKN080 12/08 Q1035 NOSIG RMK PP000=
SPZO Feb2010-211500Z 00000KT 9999 SCT040 BKN080 13/07 Q1034 NOSIG RMK PP000=
SPZO Feb2010-211600Z 00000KT 9999 SCT040 SCT080 15/06 Q1034 NOSIG RMK PP000=
SPZO Feb2010-211700Z 34002KT 9999 SCT046 SCT100 17/05 Q1032 NOSIG RMK PP000=
SPZO Feb2010-211800Z VRB02KT 9999 SCT040 SCT060 19/09 Q1031 NOSIG RMK PP000=
SPZO Feb2010-211900Z 00000KT 9999 FEW040 BKN050 19/08 Q1029 NOSIG RMK PP000=
SPZO Feb2010-212000Z 32007KT 270V010 9999 FEW043TCU BKN050 18/06 Q1028 NOSIG RMK PP000=
SPZO Feb2010-212100Z 36009KT 330V050 9999 FEW040TCU BKN050 18/07 Q1027 NOSIG RMK PP000=
SPZO Feb2010-212200Z 28008KT 250V320 9999 SCT040 SCT050 16/07 Q1027 NOSIG RMK TMAX 19.3 PP000=
SPZO Feb2010-212300Z 27007KT 9999 VCSH SCT036 BKN050 15/08 Q1028 NOSIG RMK PP000=
SPZO Feb2010-220000Z 27006KT 9999 -RA SCT030 BKN040 OVC050 13/08 Q1029 RMK PPTRZ=
SPZO Feb2010-220100Z 28004KT 9999 SCT030 BKN040 13/08 Q1029 RMK PP000=
SPZO Feb2010-220200Z 00000KT 9999 SCT040 BKN050 13/09 Q1031 RMK PP000=
SPZO Feb2010-220300Z 27005KT 9999 RA SCT030 BKN040 OVC050 11/09 Q1032 RMK PP030=
SPZO Feb2010-220400Z 26006KT 9999 RA SCT030 BKN040 OVC050 11/09 Q1032 RMK PP046=
SPZO Feb2010-220500Z 06007KT 8000 RA SCT030 OVC050 10/08 Q1032 RMK PP046=
SPZO Feb2010-220600Z 06006KT 6000 RA FEW020 SCT040 BKN050 09/07 Q1032 RMK PP016=
SPZO Feb2010-220700Z 05005KT 6000 RA FEW010 SCT040 BKN050 09/07 Q1032 RMK PP014=
SPZO Feb2010-220800Z 05003KT 6000 RA FEW010 SCT040 BKN050 09/07 Q1032 RMK PP010=
SPZO Feb2010-220900Z 00000KT 6000 RA FEW010 SCT036 BKN050 09/07 Q1032 RMK PP014=
SPZO Feb2010-221000Z 00000KT 7000 -RA FEW010 SCT036 BKN050 09/07 Q1032 RMK CLNG BLW 1200M BR PP010=
SPZO Feb2010-221100Z 00000KT 4000 -RA BR FEW010 SCT036 BKN050 09/07 Q1032 NOSIG RMK CLNG BLW 1200M PP002=
SPZO Feb2010-221200Z 00000KT 8000 FEW005 SCT025 BKN046 09/07 Q1032 NOSIG RERA RMK CLNG BLW 1200M PP002=
SPZO Feb2010-221300Z 00000KT 9999 FEW010 SCT030 BKN046 10/07 Q1036 BECMG FM1320 SCT036 BKN046 RMK CLNG BLW 1200M PP000=
SPZO Feb2010-221400Z 00000KT 9999 FEW020 SCT036 BKN046 12/07 Q1033 NOSIG RMK PP000=
SPZO Feb2010-221500Z 00000KT 9999 DZ FEW020 SCT040 BKN050 12/07 Q1033 NOSIG RMK PP000=
SPZO Feb2010-221600Z 00000KT 9999 FEW030 SCT043 BKN050 14/08 Q1032 NOSIG RMK PP000=
SPZO Feb2010-221700Z VRB02KT 9999 SCT036 BKN050 15/07 Q1032 TEMPO VCSH RMK PP000=
SPZO Feb2010-221800Z 03003KT 270V070 9999 DZ VCSH SCT040 BKN046 16/06 Q1030 NOSIG RMK PPTRZ=
SPZO Feb2010-221900Z 27008KT 9999 SCT030 SCT050 BKN100 15/08 Q1029 BECMG NSW RMK PPTRZ=
SPZO Feb2010-222000Z 27003KT 9999 -RA FEW033 SCT046 BKN100 16/08 Q1029 NOSIG RMK PPTRZ=
SPZO Feb2010-222100Z 04004KT 9999 FEW036 SCT050 BKN100 15/09 Q1028 NOSIG RMK PP000=
SPZO Feb2010-222200Z 05003KT 9999 FEW036 SCT050 BKN100 15/09 Q1027 NOSIG RMK PP000=
SPZO Feb2010-222300Z 30003KT 260V020 9999 VCSH SCT030 SCT046 BKN100 15/08 Q1028 NOSIG RMK PP000=
SPZO Feb2010-230000Z 28005KT 240V310 9999 SCT043 BKN100 13/08 Q1029 RMK PP000=
SPZO Feb2010-230100Z 28002KT 9999 SCT046 BKN100 13/08 Q1029 RMK PP000=
SPZO Feb2010-230200Z 00000KT 9999 FEW046 SCT100 12/09 Q1029 RMK PP000=
SPZO Feb2010-230300Z 00000KT 9999 SCT046 SCT100 12/09 Q1031 RMK PP000=
SPZO Feb2010-230400Z 00000KT 9999 SCT046 BKN100 11/09 Q1031 RMK PP000=
SPZO Feb2010-230500Z 00000KT 9999 SCT043 BKN100 11/08 Q1031 RMK PP000=
SPZO Feb2010-230600Z 00000KT 9999 SCT040 BKN080 11/09 Q1030 RMK PP000=
SPZO Feb2010-230700Z 00000KT 9999 SCT040 BKN080 11/09 Q1030 RMK PP000=
SPZO Feb2010-230800Z 06002KT 9999 -RA SCT040 BKN080 10/09 Q1029 RMK PP004=
SPZO Feb2010-230900Z 00000KT 9999 SCT040 BKN080 10/09 Q1029 RMK RERA PP002=
SPZO Feb2010-231000Z 00000KT 9999 FEW020 SCT040 BKN050 10/09 Q1029 RMK PP000=
SPZO Feb2010-231100Z 00000KT 9999 SCT040 BKN100 10/08 Q1030 NOSIG RMK PP000=
SPZO Feb2010-231200Z 00000KT 9999 FEW030 SCT040 BKN100 10/08 Q1031 NOSIG RMK PP000=
SPZO Feb2010-231300Z 00000KT 9999 FEW030 SCT040 BKN100 12/09 Q1032 NOSIG RMK PP000=
SPZO Feb2010-231400Z 00000KT 9999 SCT030 SCT040 BKN100 13/08 Q1032 NOSIG RMK PP000=
SPZO Feb2010-231500Z 00000KT 9999 -RA VCSH SCT030 SCT046 BKN100 14/09 Q1032 BECMG NSW RMK PP000=
SPZO Feb2010-231600Z 05004KT 350V070 9999 FEW025 SCT046 BKN230 16/10 Q1031 NOSIG R=
SPZO Feb2010-231700Z 01003KT 250V070 9999 VCSH FEW030CB SCT040TCU BKN080 16/09 Q1030 TEMPO -RA RMK PP000=
SPZO Feb2010-231800Z 27006KT 9999 -RA VCSH FEW030TCU SCT040 BKN070 13/09 Q1030 NOSIG RMK PP096=
SPZO Feb2010-231900Z 00000KT 7000 -RA VCSH FEW025 SCT046TCU BKN070 13/09 Q1029 BECMG FM1915 9999 RMK PP004=
SPZO Feb2010-232000Z 00000KT 9000 4000W -RA VCSH FEW025 SCT046TCU BKN070 12/09 Q1029 BECMG 9000 NOSIG RMK PP004=
SPZO Feb2010-232100Z 26003KT 9999 FEW025 SCT040 BKN080 13/08 Q1028 RERA NOSIG RMK PP004=
SPZO Feb2010-232200Z 00000KT 7000 3000W -RA VCSH FEW030 SCT043TCU BKN070 13/08 Q1028 BECMG FM2230 9999 RMK TMAX 17.2 PP008=
SPZO Feb2010-232300Z 00000KT 9999 FEW030 SCT040 BKN070 12/09 Q1029 RERA NOSIG RMK PP020=
SPZO Feb2010-240000Z 00000KT 9999 SCT030 BKN060 12/09 Q1029 RMK PP000=
SPZO Feb2010-240100Z 00000KT 9999 SCT030 BKN060 11/09 Q1029 RMK PP000=
SPZO Feb2010-240200Z 00000KT 9999 SCT050 10/08 Q1030 RMK PP000=
SPZO Feb2010-240300Z 00000KT 9999 SCT050 BKN080 10/08 Q1031 RMK PP000=
SPZO Feb2010-240400Z 00000KT 9999 SCT050 BKN080 09/08 Q1031 RMK PP002=
SPZO Feb2010-240500Z 00000KT 9999 SCT030 BKN050 09/08 Q1031 RMK PP000=
SPZO Feb2010-240600Z 00000KT 9999 SCT030 BKN050 10/08 Q1030 RMK PP000=
SPZO Feb2010-240700Z 00000KT 9999 SCT036 BKN050 10/08 Q1030 RMK PP000=
SPZO Feb2010-240800Z 00000KT 9999 FEW020 SCT036 BKN050 09/08 Q1030 RMK PP000=
SPZO Feb2010-240900Z 00000KT 9999 -RA FEW015 SCT030 BKN050 10/08 Q1030 RMK PP012=
SPZO Feb2010-241000Z 00000KT 8000 -RA FEW010 SCT030 BKN050 10/08 Q1030 RMK CLNG BLW 1200M PP004=
SPZO Feb2010-241100Z 00000KT 9000 FEW005 SCT020 BKN060 10/09 Q1031 BECMG 9999 RMK CLNG BLW 1200M PP006=
SPZO Feb2010-241200Z 00000KT 9000 FEW010 SCT020 BKN050 10/09 Q1031 BECMG FEW015 SCT030 OVC080 RMK BR PP000=
SPZO Feb2010-241300Z 00000KT 9000 FEW010 SCT040 OVC070 12/09 Q1032 BECMG 9999 RMK PP000=
SPZO Feb2010-241400Z VRB02KT 9999 SCT025 BKN230 13/08 Q1032 NOSIG RMK PP000=
SPZO Feb2010-241500Z 05003KT 360V070 9999 SCT030 SCT080 14/07 Q1032 NOSIG RMK PP000=
SPZO Feb2010-241600Z 06006KT 9999 SCT033 BKN100 16/09 Q1031 NOSIG RMK PP000=
SPZO Feb2010-241700Z 05004KT 320V070 9999 VCSH FEW030TCU SCT040 BKN070 16/08 Q1031 NOSIG RMK PP000=
SPZO Feb2010-241800Z 02009KT 310V070 9999 VCSH FEW040TCU SCT043 BKN080 16/07 Q1031 NOSIG RMK WIND RWY10 VRB09KT PP000=
SPZO Feb2010-241900Z 34008KT 270V030 9999 -RA SCT040 BKN080 15/07 Q1030 NOSIG RMK WIND RWY10 VRB06KT PPTRZ=
SPZO Feb2010-242000Z 33006KT 250V060 9999 SCT040 BKN080 15/06 Q1029 NOSIG RMK WIND RWY10 VRB07KT RERA PP002=
SPZO Feb2010-242100Z VRB03KT 9999 SCT046 BKN200 17/07 Q1028 NOSIG RMK PP000=
SPZO Feb2010-242200Z 32002KT 9999 SCT046 BKN230 17/06 Q1028 NOSIG RMK T.MAX.17.5 PP000=
SPZO Feb2010-242300Z 05005KT 010V080 9999 FEW046 SCT230 15/08 Q1028 NOSIG RMK PP000=
SPZO Feb2010-250000Z 26003KT 9999 FEW040TCU 13/08 Q1029 RMK PP000=
SPZO Feb2010-250100Z 28006KT 9999 SKC 12/07 Q1030 RMK PP000=
SPZO Feb2010-250200Z 00000KT 9999 FEW060 11/07 Q1031 RMK PP000=
SPZO Feb2010-250300Z 00000KT 9999 FEW060 11/08 Q1032 RMK PP000=
SPZO Feb2010-250400Z 00000KT 9999 SCT040 SCT050 11/08 Q1032 RMK PP000=
SPZO Feb2010-250500Z 00000KT 9999 SCT040 SCT050 11/08 Q1032 RMK PP000=
SPZO Feb2010-250600Z 00000KT 9999 FEW040 SCT050 10/08 Q1032 RMK PP000=
SPZO Feb2010-250700Z 00000KT 9999 FEW040 SCT050 10/08 Q1031 RMK PP000=
SPZO Feb2010-250800Z 00000KT 9999 FEW040 SCT050 10/08 Q1031 RMK PP000=
SPZO Feb2010-250900Z 00000KT 9999 FEW040 SCT050 09/08 Q1031 RMK PP000=
SPZO Feb2010-251000Z 06003KT 9999 FEW040 SCT050 BKN060 09/07 Q1031 RMK PP000=
SPZO Feb2010-251100Z 00000KT 9999 FEW033 BKN046 09/07 Q1031 NOSIG RMK PP000=
SPZO Feb2010-251200Z 00000KT 9999 SCT036 SCT080 09/07 Q1032 NOSIG RMK PP000=
SPZO Feb2010-251300Z 00000KT 9999 FEW030 BKN046 11/08 Q1033 NOSIG RMK PP000=
SPZO Feb2010-251400Z 00000KT 9999 FEW036 BKN050 14/08 Q1033 NOSIG RMK PP000=
SPZO Feb2010-251500Z 00000KT 9999 FEW036 BKN050 15/08 Q1033 NOSIG RMK PP000=
SPZO Feb2010-251600Z 00000KT 9999 SCT036 SCT050 16/06 Q1032 NOSIG RMK PP000=
SPZO Feb2010-251700Z 05004KT 360V070 9999 VCSH FEW040TCU BKN050 17/07 Q1031 NOSIG RMK WIND RWY10 11007KT 050V150 PP000=
SPZO Feb2010-251800Z 04002KT 9999 SCT043 SCT050 18/05 Q1030 TEMPO VCSH RMK PP000=
SPZO Feb2010-251900Z 33006KT 300V060 9999 VCSH SCT043 BKN050 15/08 Q1029 NOSIG RMK WIND RWY10 13006KT 020V160 RA BTN 1846/1853 RERA PP008=
SPZO Feb2010-252000Z 01002KT 9999 VCSH SCT043 BKN100 18/06 Q1028 NOSIG RMK PP000=
SPZO Feb2010-252100Z 06005KT 310V080 9999 SCT043 BKN100 17/08 Q1028 NOSIG RMK WIND RWY10 VRB07KT PP000=
SPZO Feb2010-252200Z 35004KT 280V070 9999 SCT043 BKN100 16/10 Q1028 TEMPO -RA RMK T.MAX.18.9 PP000=
SPZO Feb2010-252300Z 06006KT 9999 SCT043 BKN100 13/07 Q1027 NOSIG RMK PP000=
SPZO Feb2010-260000Z 06003KT 9999 BKN050 SCT100 12/07 Q1030 RMK PP000=
SPZO Feb2010-260100Z 00000KT 9999 BKN050 12/07 Q1031 RMK PP000=
SPZO Feb2010-260200Z 00000KT 9999 BKN050 10/07 Q1031 RMK PP000=
SPZO Feb2010-260300Z 00000KT 9999 BKN050 10/07 Q1032 RMK PP000=
SPZO Feb2010-260400Z 00000KT 9999 BKN050 09/07 Q1032 RMK PP000=
SPZO Feb2010-260500Z 00000KT 9999 BKN050 09/07 Q1032 RMK PP000=
SPZO Feb2010-260600Z 00000KT 9999 BKN050 09/07 Q1031 RMK PP000=
SPZO Feb2010-260700Z 00000KT 9999 BKN050 10/07 Q1031 RMK PP000=
SPZO Feb2010-260800Z 00000KT 9999 BKN050 09/07 Q1031 RMK PP000=
SPZO Feb2010-260900Z 00000KT 9999 BKN050 SCT070 09/07 Q1030 RMK PP000=
SPZO Feb2010-261000Z 00000KT 9999 BKN050 SCT080 09/07 Q1030 RMK PP000=
SPZO Feb2010-261100Z 00000KT 9999 BKN050 SCT090 09/07 Q1030 NOSIG RMK PP000=
SPZO Feb2010-261200Z 00000KT 9999 FEW040 BKN050 10/08 Q1031 NOSIG RMK PP000=
SPZO Feb2010-261300Z 00000KT 9999 SCT040 BKN050 12/08 Q1031 NOSIG RMK PP000=
SPZO Feb2010-261400Z 00000KT 9999 SCT040 BKN060 13/07 Q1032 NOSIG RMK PP000=
SPZO Feb2010-261500Z 06006KT 350V070 9999 SCT040 BKN100 14/07 Q1032 NOSIG RMK PP000=
SPZO Feb2010-261600Z VRB03KT 9999 SCT043 BKN100 16/07 Q1031 NOSIG RMK PP000=
SPZO Feb2010-261700Z 00000KT 9999 SCT043 BKN100 17/07 Q1031 NOSIG RMK PP000=
SPZO Feb2010-261800Z VRB04KT 9999 SCT040 BKN100 18/07 Q1029 NOSIG RMK PP000=
SPZO Feb2010-261900Z 04004KT 340V070 9999 FEW040 SCT043 BKN100 18/09 Q1028 NOSIG RMK PP000=
SPZO Feb2010-262000Z 05004KT 360V070 9999 FEW036 SCT060TCU BKN100 17/07 Q1027 TEMPO VCSH RMK PP000=
SPZO Feb2010-262100Z 28009KT 9999 VCSH FEW036 SCT060TCU BKN100 17/07 Q1027 NOSIG RMK PP000=
SPZO Feb2010-262200Z 31007KT 270V360 9999 VCSH SCT036TCU BKN060 15/08 Q1027 NOSIG RMK TMAX 18.6 PP000=
SPZO Feb2010-262300Z 27005KT 250V320 9999 -RA SCT036 BKN060 14/08 Q1028 NOSIG RMK PP000=
SPZO Feb2010-270000Z 00000KT 9999 RA SCT040 BKN050 14/09 Q1029 RMK PP034=
SPZO Feb2010-270100Z 28002KT 9999 RA SCT040 BKN050 12/08 Q1030 RMK PP030=
SPZO Feb2010-270200Z 00000KT 9999 RA SCT040 BKN050 11/06 Q1031 RMK PP000=
SPZO Feb2010-270300Z 00000KT 9999 -RA SCT040 BKN050 11/06 Q1031 RMK PPTRZ=
SPZO Feb2010-270400Z 00000KT 9999 SCT030 BKN043 10/08 Q1031 RMK PP000=
SPZO Feb2010-270500Z 00000KT 9999 SCT030 BKN043 10/06 Q1031 RMK PP000=
SPZO Feb2010-270600Z 00000KT 9999 OVC050 10/06 Q1032 RMK PP000=
SPZO Feb2010-270700Z 00000KT 9999 OVC050 10/07 Q1030 RMK PP000=
SPZO Feb2010-270800Z 00000KT 5000 RA FEW030 SCT050 BKN060 09/07 Q1030 RMK PP010=
SPZO Feb2010-270900Z 00000KT 6000 -RA FEW010 SCT030 BKN050 09/07 Q1029 RMK CLNG BLW 1200M PP006=
SPZO Feb2010-271000Z 26004KT 7000 -RA VCSH FEW010 SCT030 BKN050 09/07 Q1029 RMK CLNG BLW 1200M PP006=
SPZO Feb2010-271100Z 26002KT 9000 -RA VCSH FEW010 SCT033 BKN050 09/08 Q1030 BECMG 9999 NSW RMK CLNG BLW 1200M PP004=
SPZO Feb2010-271200Z 00000KT 9999 SCT030 BKN050 11/08 Q1031 NOSIG RMK PP002=
SPZO Feb2010-271300Z 00000KT 9999 FEW033 SCT043 BKN080 12/08 Q1032 NOSIG RMK PP000=
SPZO Feb2010-271400Z 00000KT 9999 SCT030 BKN080 16/08 Q1032 NOSIG RMK PP000=
SPZO Feb2010-271500Z VRB03KT 9999 SCT033 SCT100 17/07 Q1031 NOSIG RMK PP000=
SPZO Feb2010-271600Z 06007KT 9999 SCT033 BKN080 17/08 Q1030 NOSIG RMK PP000=
SPZO Feb2010-271700Z 00000KT 9999 VCSH SCT033 BKN060 19/07 Q1029 NOSIG RMK PP000=
SPZO Feb2010-271800Z 04005KT 360V070 9999 FEW036 SCT043TCU BKN060 18/08 Q1029 TEMPO VCSH RMK PP000=
SPZO Feb2010-271900Z 28008KT 250V310 9999 VCSH FEW033TCU SCT046 BKN080 18/08 Q1031 NOSIG RMK PP000=
SPZO Feb2010-272000Z 29009KT 250V350 9999 4000W VCSH FEW033TCU SCT043 BKN100 16/07 Q1028 TEMPO -SHRA RMK PP000=
SPZO Feb2010-272100Z 26005KT 250V320 9999 FEW043 SCT080 BKN230 15/05 Q1027 NOSIG RMK PP000=
SPZO Feb2010-272200Z 26008KT 9999 FEW030 SCT043 BKN230 16/09 Q1027 NOSIG RMK PP000=
SPZO Feb2010-272300Z 28009KT 9999 VCSH BKN040 SCT080 15/09 Q1028 TEMPO -RA RMK PP000=
SPZO Feb2010-280000Z 03006KT 9999 VCSH OVC040 12/09 Q1029 RMK PP032=
SPZO Feb2010-280100Z 05003KT 9999 RA OVC040 11/09 Q1031 RMK PP018=
SPZO Feb2010-280200Z 00000KT 9999 RA FEW036 OVC040 10/08 Q1032 RMK PP032=
SPZO Feb2010-280300Z 00000KT 9000 RA FEW030 OVC040 10/08 Q1032 RMK PP040=
SPZO Feb2010-280400Z 00000KT 9000 RA FEW025 OVC040 10/08 Q1033 RMK PP030=
SPZO Feb2010-280500Z 00000KT 9000 RA FEW025 OVC036 10/09 Q1033 RMK CLNG BLW 1200M PP014=
SPZO Feb2010-280600Z 29005KT 8000 RA FEW020 OVC036 09/07 Q1033 RMK CLNG BLW 1200M PP030=
SPZO Feb2010-280700Z 00000KT 8000 RA FEW020 OVC036 09/07 Q1032 RMK CLNG BLW 1200M PP056=
SPZO Feb2010-280800Z 00000KT 9999 DZ FEW020 OVC040 09/07 Q1032 RMK PP012=
SPZO Feb2010-280900Z 00000KT 9999 FEW020 OVC040 09/07 Q1031 RMK PP000=
SPZO Feb2010-281000Z 00000KT 9999 FEW020 OVC040 09/07 Q1032 RMK PP000=
SPZO Feb2010-281100Z 00000KT 9999 FEW020 OVC040 09/07 Q1033 NOSIG RMK PP000=
SPZO Feb2010-281200Z 00000KT 9999 FEW040 SCT100 OVC230 09/07 Q1033 NOSIG RMK PP000=
SPZO Feb2010-281300Z 00000KT 9999 FEW025 SCT100 OVC230 11/07 Q1034 NOSIG RMK PP000=
SPZO Feb2010-281400Z 00000KT 9999 FEW025 SCT100 OVC230 12/05 Q1034 NOSIG RMK PP000=
SPZO Feb2010-281500Z 00000KT 9999 SCT030 OVC230 13/04 Q1034 NOSIG RMK PP000=
SPZO Feb2010-281600Z VRB02KT 9999 SCT030 BKN230 16/06 Q1033 NOSIG RMK PP000=
SPZO Feb2010-281700Z 00000KT 9999 SCT036 BKN230 17/06 Q1032 NOSIG RMK PP000=
SPZO Feb2010-281800Z 00000KT 9999 FEW040 SCT046 19/06 Q1030 NOSIG RMK PP000=
SPZO Feb2010-281900Z 35005KT 290V070 9999 VCSH SCT040 SCT046 19/07 Q1028 TEMPO -RA RMK PP000=
SPZO Feb2010-282000Z 02009KT 340V050 9999 VCSH SCT040 SCT050 17/08 Q1028 NOSIG RMK PP000=
SPZO Feb2010-282100Z 34006KT 290V020 9000 -RA VCSH SCT040 SCT050 17/07 Q1027 NOSIG RMK PPTRZ=
SPZO Feb2010-282200Z 06005KT 8000 VCSH FEW033 SCT040 BKN050 12/09 Q1028 NOSIG RMK TMAX 19.7 PP014=
SPZO Feb2010-282300Z 00000KT 9000 SCT040 BKN050 12/09 Q1029 RERA NOSIG RMK PPTRZ=
SPZO Mar2010-010100Z 00000KT 9999 -RA SCT030 BKN050 12/10 Q1030 RMK PP002=
SPZO Mar2010-010200Z 00000KT 9999 RA FEW030 SCT040 BKN050 12/09 Q1031 RMK =
SPZO Mar2010-010300Z 05003KT 010V070 9999 FEW020 SCT040 BKN100 13/09 Q1029 NOSIG RMK PP000=
SPZO Mar2010-010400Z 27006KT 5000 RA FEW025 SCT030 BKN040 11/08 Q1033 RMK PP046=
SPZO Mar2010-010500Z 00000KT 1000 +RA FEW015 SCT020 BKN030 10/08 Q1034 RMK CLNG BLW 1200M PP090=
SPZO Mar2010-010600Z 00000KT 5000 +RA FEW015 SCT020 BKN030 09/08 Q1033 RMK CLNG BLW 1200M PP056=
SPZO Mar2010-010700Z 00000KT 8000 RA FEW015 SCT020 BKN030 09/07 Q1032 RMK CLNG BLW 1200M PP018=
SPZO Mar2010-010800Z 00000KT 8000 -RA FEW015 SCT020 BKN030 09/07 Q1032 RMK CLNG BLW 1200M PP006=
SPZO Mar2010-010900Z 00000KT 9999 -RA SCT015 SCT020 BKN030 09/07 Q1031 RMK CLNG BLW 1200M PP008=
SPZO Mar2010-011000Z 00000KT 9999 -RA SCT010 SCT020 BKN030 09/07 Q1031 RMK CLNG BLW 1200M PP004=
SPZO Mar2010-011100Z 00000KT 8000 DZ FEW010 SCT036 BKN043 09/07 Q1032 BECMG FM 1200 SCT036 BKN046 RMK CLNG BLW 1200M PP000=
SPZO Mar2010-011200Z 00000KT 8000 FEW010 SCT020 BKN043 09/07 Q1033 BECMG FM 1230 SCT036 BKN046 RMK CLNG BLW 1200M PP000=
SPZO Mar2010-011300Z 00000KT 8000 FEW010 SCT020 BKN046 11/08 Q1033 RERA NOSIG RMK BR PP004=
SPZO Mar2010-011400Z VRB02KT 8000 FEW020 SCT050 BKN060 12/08 Q1033 NOSIG RMK BR PP000=
SPZO Mar2010-011500Z 05007KT 9000 FEW030 SCT050 BKN060 14/09 Q1033 NOSIG RMK BR PP000=
SPZO Mar2010-011600Z 05004KT 260V070 9999 FEW033 SCT050 BKN060 15/09 Q1033 NOSIG RMK PP000=
SPZO Mar2010-011700Z 05006KT 010V070 9999 VCSH FEW036TCU SCT050 BKN060 16/10 Q1032 NOSIG RMK PP000=
SPZO Mar2010-011800Z 26012KT 9999 -RA SCT040 BKN050 15/10 Q1030 NOSIG RMK PPTRZ=
SPZO Mar2010-011900Z 05004KT 9999 VCSH SCT040 BKN050 17/10 Q1029 NOSIG RMK RERA PP002=
SPZO Mar2010-012000Z 06007KT 020V070 9999 VCSH SCT040 BKN050 15/10 Q1029 TEMPO -RA RMK WIND RWY10 30007KT 250V320 PP000=
SPZO Mar2010-012100Z 26003KT 9999 VCSH SCT036 BKN050 15/09 Q1029 NOSIG RMK PP000=
SPZO Mar2010-012200Z 27003KT 9000 VCSH SCT033 BKN046 14/09 Q1029 NOSIG RMK T.MAX.17.6PP000=
SPZO Mar2010-020000Z 00000KT 9999 FEW030 BKN046 12/09 Q1030 RMK PP000=
SPZO Mar2010-020100Z 00000KT 9999 SCT030 BKN050 12/10 Q1031 RMK PP000=
SPZO Mar2010-020200Z 00000KT 9999 SCT030 BKN040 13/10 Q1031 RMK PP000=
SPZO Mar2010-020300Z 00000KT 9999 SCT040 OVC050 12/10 Q1032 RMK PP000=
SPZO Mar2010-020400Z 00000KT 9999 RA SCT040 OVC050 12/10 Q1032 RMK PP002=
SPZO Mar2010-020500Z 00000KT 5000 RA FEW030 SCT040 BKN050 12/10 Q1032 RMK PP008=
SPZO Mar2010-020600Z 00000KT 9999 FEW020 SCT030 BKN040 11/09 Q1031 RMK PP010=
SPZO Mar2010-020700Z 00000KT 5000 RA FEW020 SCT030 BKN040 11/09 Q1031 RMK PP034=
SPZO Mar2010-020800Z 00000KT 5000 RA FEW020 SCT030 BKN050 10/08 Q1031 RMK PP036=
SPZO Mar2010-020900Z 00000KT 7000 -RA FEW020 SCT030 BKN050 10/08 Q1031 RMK CLNG BLW 1200M PPTRZ=
SPZO Mar2010-021000Z 00000KT 8000 FEW020 SCT030 BKN050 10/08 Q1031 RMK CLNG BLW 1200M PPTRZ=
SPZO Mar2010-021100Z 00000KT 9000 FEW010 SCT040 BKN050 10/08 Q1024 BECMG FM1200 9999 RMK R=
SPZO Mar2010-021200Z 00000KT 9000 FEW005 BKN046 11/09 Q1032 NOSIG RMK BCBR CDTE E/SE PP=
SPZO Mar2010-021300Z 00000KT 9999 FEW020 BKN046 13/08 Q1033 NOSIG RMK PP000=
SPZO Mar2010-021400Z 00000KT 9999 FEW036 BKN050 14/08 Q1033 NOSIG RMK PP000=
SPZO Mar2010-021500Z 00000KT 9999 FEW040 SCT060 17/07 Q1032 NOSIG RMK PP000=
SPZO Mar2010-021600Z 05004KT 9999 SCT043 18/08 Q1032 NOSIG RMK PP000=
SPZO Mar2010-021700Z 30004KT 250V330 9999 FEW040TCU BKN050 20/06 Q1031 TEMPO=
SPZO Mar2010-021800Z 34005KT 310V040 9999 VCSH SCT040TCU BKN050 15/09 Q1030 TEMPO -RA RMK PP000=
SPZO Mar2010-021900Z 26005KT 9999 SCT040TCU SCT100 18/09 Q1029 NOSIG RMK WIND RWY10 24006KT PP000=
SPZO Mar2010-022000Z 28004KT 250V340 9999 SCT040TCU BKN100 17/07 Q1028 NOSIG RMK PP000=
SPZO Mar2010-022100Z 29010KT 260V340 8000 VCSH SCT040CB BKN100 17/09 Q1028 TEMPO 7000 RMK WIND RWY10 VRB07KT PP000=
SPZO Mar2010-022200Z 00000KT 9999 VCSH BKN040 SCT100 15/06 Q1028 NOSIG RMK T.MAX.19.7 PP000=
SPZO Mar2010-022300Z 00000KT 9999 BKN043 SCT100 14/08 Q1028 NOSIG RMK PP000=
SPZO Mar2010-030000Z 00000KT 9999 OVC050 13/09 Q1029 RMK PP000=
SPZO Mar2010-030100Z 00000KT 9999 OVC050 13/09 Q1029 RMK PP000=
SPZO Mar2010-030200Z 00000KT 9999 BKN050 13/10 Q1031 RMK PP000=
SPZO Mar2010-030300Z 00000KT 9999 BKN050 13/09 Q1032 RMK PP000=
SPZO Mar2010-030400Z 00000KT 9999 BKN050 12/09 Q1032 RMK PP000=
SPZO Mar2010-030500Z 00000KT 9999 BKN050 12/10 Q1032 RMK PP000=
SPZO Mar2010-030600Z 06004KT 9999 BKN050 12/10 Q1032 RMK PP000=
SPZO Mar2010-030700Z 02006KT 340V060 9999 FEW040 BKN050 12/08 Q1031 RMK PP000=
SPZO Mar2010-030800Z 00000KT 9999 FEW040 BKN050 12/08 Q1031 RMK PP000=
SPZO Mar2010-030900Z 00000KT 9999 FEW040 BKN050 12/09 Q1031 RMK PP000=
SPZO Mar2010-031000Z 00000KT 9999 FEW040 SCT050 BKN070 11/09 Q1031 RMK PP000=
SPZO Mar2010-031100Z 00000KT 9999 FEW040 SCT050 BKN080 11/08 Q1031 NOSIG RMK PP000=
SPZO Mar2010-031200Z 00000KT 9999 FEW015 SCT040 BKN100 11/09 Q1031 NOSIG RMK PP000=
SPZO Mar2010-031300Z 05004KT 9999 FEW015 SCT036 BKN080 12/09 Q1032 NOSIG RMK PP000=
SPZO Mar2010-031400Z 04007KT 7000 VCSH FEW020 SCT036 BKN080 12/09 Q1032 BECMG FM1420 9999 RMK PP000=
SPZO Mar2010-031500Z 05005KT 7000 3000W -RA VCSH FEW015 SCT033 OVC050 11/09 Q1033 BECMG FM1530 9000 RMK PP004=
SPZO Mar2010-031600Z 00000KT 9999 FEW020 SCT040 BKN080 13/09 Q1033 NOSIG RMK PP006=
SPZO Mar2010-031700Z 00000KT 9999 FEW025 SCT050 BKN100 16/08 Q1031 NOSIG RMK PP000=
SPZO Mar2010-031800Z 30004KT 250V030 9999 SCT036 SCT230 18/07 Q1030 NOSIG RMK PP000=
SPZO Mar2010-031900Z 29009KT 250V340 9999 FEW040TCU SCT050 19/07 Q1028 NOSIG RMK WIND RWY10 VRB09KT PP000=
SPZO Mar2010-032000Z 01013KT 330V040 9999 VCSH FEW033 SCT050TCU BKN080 16/06 Q1028=
SPZO Mar2010-032100Z 26011KT 9999 -RA VCSH FEW030 SCT043TCU BKN060 14/09 Q1028 BECMG FM2130 NSW RMK PP004=
SPZO Mar2010-032200Z 00000KT 9999 FEW030 SCT050 BKN230 14/09 Q1027 NOSIG RMK TMAX 19.9 PP000=
SPZO Mar2010-032300Z 00000KT 9999 FEW030 SCT230 14/10 Q1028 NOSIG RMK PP000=
SPZO Mar2010-040000Z 29003KT 9999 FEW036 SCT230 12/09 Q1029 RMK PP000=
SPZO Mar2010-040100Z 00000KT 9999 FEW040 SCT080 12/09 Q1030 RMK PP000=
SPZO Mar2010-040200Z 00000KT 9999 SCT043 SCT080 12/10 Q1030 RMK PP000=
SPZO Mar2010-040300Z 00000KT 9999 SCT040 SCT050 12/10 Q1031 RMK PP000=
SPZO Mar2010-040400Z 00000KT 9999 BKN043 SCT050 12/10 Q1032 RMK PP000=
SPZO Mar2010-040500Z 27002KT 9999 OVC043 12/07 Q1031 RMK PP000=
SPZO Mar2010-040600Z 26005KT 9999 -RA OVC040 12/08 Q1031 RMK PP002=
SPZO Mar2010-040700Z 26007KT 9999 -RA BKN040 SCT050 10/07 Q1031 RMK PP024=
SPZO Mar2010-040800Z 33004KT 9999 -RA BKN040 SCT050 10/07 Q1031 RMK PP004=
SPZO Mar2010-040900Z 00000KT 9999 SCT030 BKN040 10/08 Q1031 RMK PP002=
SPZO Mar2010-041000Z 00000KT 9999 FEW020 SCT040 BKN046 10/08 Q1031 RMK PP004=
SPZO Mar2010-041100Z 00000KT 8000 -RA SCT020 SCT036 BKN070 09/07 Q1032 NOSIG RMK CLNG BLW 1200M PP002=
SPZO Mar2010-041200Z 26005KT 9999 FEW005 SCT020 OVC080 09/07 Q1033 BECMG SCT020 SCT100 OVC230 RMK PP008=
SPZO Mar2010-041300Z 00000KT 9999 FEW020 SCT080 OVC230 10/07 Q1034 NOSIG RMK PP000=
SPZO Mar2010-041400Z 00000KT 9999 SCT025 SCT150 BKN230 13/07 Q1032 NOSIG RMK PP000=
SPZO Mar2010-041500Z 05004KT 9999 SCT030 BKN100 14/06 Q1033 NOSIG RMK PP000=
SPZO Mar2010-041600Z 00000KT 9999 SCT036 SCT150 16/06 Q1033 NOSIG RMK PP000=
SPZO Mar2010-041700Z 00000KT 9999 SCT040 BKN080 16/08 Q1032 NOSIG RMK PP000=
SPZO Mar2010-041800Z 00000KT 9999 SCT040 SCT100 18/06 Q1030 NOSIG RMK PP000=
SPZO Mar2010-041900Z 00000KT 9999 FEW040 SCT050 19/06 Q1029 NOSIG RMK PP000=
SPZO Mar2010-042000Z 27011KT 9999 FEW040TCU SCT060 20/10 Q1028 NOSIG RMK PP000=
SPZO Mar2010-042100Z 26009KT 9999 VCSH FEW040TCU SCT060 19/08 Q1027 TEMPO -RA RMK =
SPZO Mar2010-042200Z 00000KT 9999 VCSH SCT040 BKN080 15/09 Q1027 NOSIG RMK T MAX 19.9RA BTN 2145/2150 PP004=
SPZO Mar2010-042300Z 00000KT 8000 +RA SCT040CB BKN050 11/06 Q1029 NOSIG RMK PP096=
SPZO Mar2010-050000Z 00000KT 8000 -RA OVC040 11/08 Q1030 RMK PP046=
SPZO Mar2010-050100Z 00000KT 9999 SCT040 OVC050 11/08 Q1030 RMK PP008=
SPZO Mar2010-050200Z 00000KT 9999 FEW036 OVC046 11/08 Q1029 RMK PP000=
SPZO Mar2010-050300Z 00000KT 9999 FEW040 BKN040 11/09 Q1029 RMK RERA PP010=
SPZO Mar2010-050400Z 06003KT 9999 SCT040 BKN050 10/08 Q1031 RMK PP000=
SPZO Mar2010-050500Z 00000KT 9999 SCT040 BKN050 10/09 Q1030 RMK PP000=
SPZO Mar2010-050600Z 00000KT 9999 SCT040 BKN050 11/09 Q1030 RMK PP000=
SPZO Mar2010-050700Z 00000KT 9999 RA FEW020 OVC046 11/09 Q1031 RMK PP012=
SPZO Mar2010-050800Z 06002KT 9999 -RA FEW020 OVC046 10/09 Q1031 RMK PP008=
SPZO Mar2010-050900Z 00000KT 9999 -RA FEW020 OVC043 10/09 Q1031 RMK PP006=
SPZO Mar2010-051000Z 00000KT 9999 -RA SCT020 BKN043 10/09 Q1031 RMK PP006=
SPZO Mar2010-051100Z 00000KT 9000 -RA FEW015 SCT025 BKN046 10/08 Q1032 NOSIG RMK CLNG BLW 1200M PP010=
SPZO Mar2010-051200Z 00000KT 9999 -RA FEW010 SCT030 BKN046 09/07 Q1033 NOSIG RMK CLNG BLW 1200M PP006=
SPZO Mar2010-051300Z 00000KT 9999 FEW020 SCT036 BKN050 10/07 Q1033 RERA NOSIG RMK PP002=
SPZO Mar2010-051400Z 00000KT 9999 FEW025 BKN050 12/07 Q1034 NOSIG RMK PP000=
SPZO Mar2010-051500Z 00000KT 9999 SCT040 BKN060 14/07 Q1033 NOSIG RMK PP000=
SPZO Mar2010-051600Z VRB02KT 9999 SCT043 BKN060 15/07 Q1032 NOSIG RMK PP000=
SPZO Mar2010-051700Z VRB02KT 9999 SCT040 BKN050 16/07 Q1032 TEMPO VCSH RMK PP000=
SPZO Mar2010-051800Z 04005KT 250V070 9999 FEW036 SCT040 BKN050 16/07 Q1030 NOSIG RMK PP000=
SPZO Mar2010-051900Z 04005KT 350V070 9999 FEW036 SCT040 BKN060 17/09 Q1029 NOSIG RMK PP000=
SPZO Mar2010-052000Z VRB02KT 9999 FEW036 SCT040 BKN060 18/08 Q1028 TEMPO -RA RMK PP000=
SPZO Mar2010-052100Z 29006KT 250V340 8000 -RA VCSH FEW036TCU SCT040 BKN060 15/09 Q1028 NOSIG RMK PPTRZ=
SPZO Mar2010-052200Z 00000KT 9000 -RA VCSH FEW036 SCT040 BKN060 13/09 Q1028 NOSIG RMK TMAX 18.8 PP018=
SPZO Mar2010-052300Z 05005KT 9999 SCT040 BKN060 12/09 Q1028 RERA NOSIG RMK PP002=
SPZO Mar2010-060000Z 00000KT 9999 SCT040 BKN080 12/09 Q1029 RMK PP000=
SPZO Mar2010-060100Z 00000KT 9999 SCT050 BKN100 12/09 Q1020 RMK PP000=
SPZO Mar2010-060200Z 00000KT 9999 BKN150 12/09 Q1031 RMK PP000=
SPZO Mar2010-060300Z 00000KT 9999 BKN150 12/09 Q1031 RMK PP000=
SPZO Mar2010-060400Z 00000KT 9999 SCT040 BKN080 12/09 Q1031 RMK PP000=
SPZO Mar2010-060500Z 00000KT 9999 SCT040 BKN060 12/09 Q1031 RMK PP000=
SPZO Mar2010-060600Z 00000KT 9999 SCT040 BKN050 12/09 Q1030 RMK PP000=
SPZO Mar2010-060700Z 00000KT 9999 SCT036 BKN050 11/08 Q1029 RMK PP000=
SPZO Mar2010-060800Z 00000KT 9999 SCT036 SCT050 09/08 Q1029 RMK PP000=
SPZO Mar2010-060900Z 00000KT 9999 FEW030 SCT050 09/07 Q1030 RMK PP000=
SPZO Mar2010-061000Z 00000KT 9999 SCT030 BKN060 09/07 Q1030 RMK PP000=
SPZO Mar2010-061100Z 00000KT 9999 FEW030 SCT046 BKN100 09/07 Q1030 NOSIG RMK PP000=
SPZO Mar2010-061200Z 00000KT 8000 FEW040 SCT050 BKN070 09/07 Q1031 NOSIG RMK BR PP000=
SPZO Mar2010-061300Z 00000KT 8000 FEW040 SCT050 BKN070 12/09 Q1032 NOSIG RMK BR PP000=
SPZO Mar2010-061400Z 00000KT 9000 FEW040 SCT050 BKN070 14/07 Q1032 NOSIG RMK BR PP000=
SPZO Mar2010-061500Z 00000KT 9999 FEW040 SCT050 BKN070 16/06 Q1032 NOSIG RMK PP000=
SPZO Mar2010-061600Z VRB02KT 9999 FEW040 SCT050 BKN070 17/07 Q1032 NOSIG RMK PP000=
SPZO Mar2010-061700Z VRB02KT 9999 FEW040 SCT050 BKN080 18/06 Q1031 NOSIG RMK PP000=
SPZO Mar2010-061800Z VRB02KT 9999 FEW046 SCT100 19/06 Q1030 NOSIG RMK PP000=
SPZO Mar2010-061900Z 00000KT 9999 FEW040 SCT050 19/06 Q1028 NOSIG RMK PP000=
SPZO Mar2010-062000Z VRB07KT 9999 VCSH FEW043TCU SCT050 18/08 Q1027 NOSIG RMK PP000=
SPZO Mar2010-062100Z 26007KT 9999 VCSH FEW043TCU SCT050 15/07 Q1027 RESHRA NOSIG RMK PP006=
SPZO Mar2010-062200Z 06005KT 9999 -RA FEW030 SCT043TCU BKN050 14/10 Q1028 NOSIG RMK T.MAX 20.8 PP000=
SPZO Mar2010-062300Z VRB03KT 9999 -RA SCT040CB BKN046 12/09 Q1029 NOSIG RMK PP002=
SPZO Mar2010-070000Z 00000KT 9999 RA SCT030 BKN040 11/09 Q1031 RMK PP020=
SPZO Mar2010-070100Z 00000KT 5000 RA SCT030 BKN040 12/09 Q1032 RMK PP016=
SPZO Mar2010-070200Z 05002KT 9999 RA FEW020 SCT030 BKN040 11/09 Q1033 RMK PP012=
SPZO Mar2010-070300Z 06002KT 9999 RA FEW010 SCT030 BKN040 11/09 Q1033 RMK PP014=
SPZO Mar2010-070400Z 05003KT 9999 RA FEW010 SCT030 BKN040 11/09 Q1034 RMK PP030=
SPZO Mar2010-070500Z 04004KT 9999 -RA FEW010 SCT030 BKN040 11/08 Q1033 RMK PP010=
SPZO Mar2010-070600Z 05001KT 9999 -RA FEW020 SCT030 BKN040 11/08 Q1032 RMK PPTRZ=
SPZO Mar2010-070700Z 00000KT 9999 FEW030 SCT040 BKN050 10/08 Q1032 RMK PPTRZ=
SPZO Mar2010-070800Z 00000KT 9999 FEW030 SCT040 BKN050 10/08 Q1032 RMK PP000=
SPZO Mar2010-070900Z 00000KT 9999 SCT020 BKN040 10/08 Q1031 RMK PP000=
SPZO Mar2010-071000Z 00000KT 9999 SCT030 SCT040 BKN050 10/08 Q1032 RMK PP000=
SPZO Mar2010-071100Z 00000KT 9999 FEW010 SCT030 BKN230 10/08 Q1032 NOSIG RMK PP000=
SPZO Mar2010-071200Z 00000KT 9999 FEW020 SCT036 BKN080 10/08 Q1032 NOSIG RMK PP000=
SPZO Mar2010-071300Z 00000KT 9999 FEW030 SCT046 BKN100 12/09 Q1033 NOSIG RMK PP000=
SPZO Mar2010-071400Z 05005KT 010V070 9999 FEW030 SCT050 14/08 Q1034 NOSIG RMK PP000=
SPZO Mar2010-071500Z VRB02KT 9999 FEW036 SCT050 16/06 Q1033 NOSIG RMK PP000=
SPZO Mar2010-071600Z VRB03KT 9999 FEW040 SCT050 19/07 Q1033 NOSIG RMK PP000=
SPZO Mar2010-071700Z VRB02KT 9999 SCT050 20/07 Q1031 NOSIG RMK PP000=
SPZO Mar2010-071800Z 04004KT 310V070 9999 SCT050 20/05 Q1030 NOSIG RMK PP000=
SPZO Mar2010-071900Z 00000KT 9999 SCT050 21/04 Q1028 NOSIG RMK PP000=
SPZO Mar2010-072000Z VRB03KT 9999 SCT050 21/04 Q1027 NOSIG RMK PP000=
SPZO Mar2010-072100Z VRB02KT 9999 SCT050 22/04 Q1026 NOSIG RMK PP000=
SPZO Mar2010-072200Z 00000KT 9999 SCT050 22/04 Q1025 NOSIG RMK T.MAX.23.0 PP000=
SPZO Mar2010-072300Z 05003KT 9999 FEW050 19/08 Q1026 NOSIG RMK PP000=
SPZO Mar2010-080000Z 26006KT 9999 SCT050 16/09 Q1027 RMK PP000=
SPZO Mar2010-080100Z VRB03KT 9999 SCT050 14/09 Q1028 RMK PP000=
SPZO Mar2010-080200Z VRB02KT 9999 SCT050 14/08 Q1029 RMK PP000=
SPZO Mar2010-080300Z 00000KT 9999 SCT050 13/09 Q1031 RMK PP000=
SPZO Mar2010-080400Z 00000KT 9999 SCT050 13/09 Q1031 RMK PP000=
SPZO Mar2010-080500Z 00000KT 9999 SCT050 13/09 Q1031 RMK PP000=
SPZO Mar2010-080600Z 04005KT 310V070 9999 BKN050 13/09 Q1031 RMK PP000=
SPZO Mar2010-080700Z 03010KT 320V070 9999 BKN050 13/04 Q1031 RMK PP000=
SPZO Mar2010-080800Z VRB02KT 9999 BKN050 12/04 Q1031 RMK PP000=
SPZO Mar2010-080900Z 00000KT 9999 SCT050 10/05 Q1030 RMK PP000=
SPZO Mar2010-081000Z 00000KT 9999 SCT050 09/05 Q1030 RMK PP000=
SPZO Mar2010-081100Z 00000KT 9999 FEW050 09/06 Q1031 NOSIG RMK PP000=
SPZO Mar2010-081200Z 00000KT 9999 FEW050 SCT100 13/06 Q1032 NOSIG RMK PP000=
SPZO Mar2010-081300Z 00000KT 9999 FEW050 14/06 Q1033 NOSIG RMK PP000=
SPZO Mar2010-081400Z 02003KT 9999 FEW050 15/05 Q1033 NOSIG RMK PP000=
SPZO Mar2010-081500Z 00000KT 9999 FEW050 17/06 Q1032 NOSIG RMK PP000=
SPZO Mar2010-081600Z 00000KT 9999 FEW050 19/06 Q1031 NOSIG RMK PP000=
SPZO Mar2010-081700Z 00000KT 9999 SCT050 20/06 Q1030 NOSIG RMK PP000= TX23/0819Z T=
SPZO Mar2010-081800Z /////KT 9999 SCT050 20/03 Q1029 NOSIG RMK PP000=
SPZO Mar2010-081900Z /////KT 9999 SCT050 21/04 Q1028 NOSIG RMK PP000=
SPZO Mar2010-082000Z /////KT 9999 SCT050 21/03 Q1029 NOSIG RMK PP000=
SPZO Mar2010-082100Z /////KT 9999 SCT050 21/04 Q1025 NOSIG RMK PP000=
SPZO Mar2010-082200Z /////KT 9999 SCT060 21/06 Q1025 NOSIG RMK TMAX 22.0 PP000=
SPZO Mar2010-082300Z /////KT 9999 FEW060 19/07 Q1026 NOSIG RMK PP000=
SPZO Mar2010-090000Z 34004KT 280V030 9999 FEW050 16/06 Q1027 RMK PP000=
SPZO Mar2010-090100Z 34004KT 280V030 9999 FEW043 SCT080 15/07 Q1029 RMK PP000=
SPZO Mar2010-090200Z 00000KT 9999 SCT043 SCT050 14/08 Q1029 RMK PP000=
SPZO Mar2010-090300Z 00000KT 9999 FEW040 SCT050 13/08 Q1030 RMK PP000=
SPZO Mar2010-090400Z 00000KT 9999 SCT040 SCT080 12/08 Q1031 RMK PP000=
SPZO Mar2010-090500Z 00000KT 9999 SCT043 SCT100 12/09 Q1031 RMK PP000=
SPZO Mar2010-090600Z 00000KT 9999 SCT040 SCT050 12/08 Q1030 RMK PP000=
SPZO Mar2010-090700Z 00000KT 9999 BKN050 11/08 Q1030 RMK PP000=
SPZO Mar2010-090800Z 00000KT 9999 SCT040 BKN050 12/08 Q1031 RMK PP000=
SPZO Mar2010-090900Z 02004KT 9000 -RA BKN040 SCT046 11/08 Q1031 RMK PP014=
SPZO Mar2010-091000Z 02004KT 280V040 9999 FEW030 SCT036 BKN046 10/05 Q1032 RMK PP004=
SPZO Mar2010-091100Z 00000KT 9999 SCT040 10/04 Q1032 NOSIG RMK PP000=
SPZO Mar2010-091200Z 04003KT 9999 FEW040 SCT060 11/05 Q1033 NOSIG RMK PP000=
SPZO Mar2010-091300Z 04005KT 9999 FEW040 SCT230 12/05 Q1033 NOSIG RMK PP000=
SPZO Mar2010-091400Z 00000KT 9999 FEW040 SCT230 15/05 Q1034 NOSIG RMK PP000=
SPZO Mar2010-091500Z 00000KT 9999 SCT040 16/05 Q1033 NOSIG RMK PP000=
SPZO Mar2010-091600Z VRB02KT 9999 SCT046 18/06 Q1033 NOSIG RMK PP000=
SPZO Mar2010-091700Z 33003KT 9999 SCT060 20/04 Q1031 NOSIG RMK PP000=
SPZO Mar2010-091800Z 32006KT 280V050 9999 SCT050 21/04 Q1030 NOSIG RMK PP000=
SPZO Mar2010-091900Z 01010KT 300V050 9999 SCT050 21/06 Q1029 NOSIG RMK PP000=
SPZO Mar2010-092000Z 01007KT 300V050 9999 SCT050 21/03 Q1027 NOSIG RMK PP000=
SPZO Mar2010-092100Z 01009KT 300V050 9999 FEW050 21/04 Q1027 NOSIG RMK PP000=
SPZO Mar2010-092200Z 35008KT 300V050 9999 FEW050 20/04 Q1027 NOSIG RMK T.MAX.21.3 PP000=
SPZO Mar2010-092300Z 03004KT 300V040 9999 FEW050 18/06 Q1027 NOSIG RMK PP000=
SPZO Mar2010-100000Z 04002KT 9999 FEW050 16/06 Q1028 RMK PP000=
SPZO Mar2010-100100Z 28004KT 9999 SKC 14/08 Q1029 RMK PP000=
SPZO Mar2010-100200Z 00000KT 9999 SKC 12/08 Q1030 RMK PP000=
SPZO Mar2010-100300Z 00000KT 9999 SKC 12/08 Q1031 RMK PP000=
SPZO Mar2010-100400Z 00000KT 9999 SCT100 12/08 Q1031 RMK PP000=
SPZO Mar2010-100500Z 00000KT 9999 SCT100 12/08 Q1031 RMK PP000=
SPZO Mar2010-100600Z 00000KT 9999 SCT046 SCT100 11/08 Q1031 RMK PP000=
SPZO Mar2010-100700Z 00000KT 9999 SCT046 BKN080 11/08 Q1030 RMK PP000=
SPZO Mar2010-100800Z 00000KT 9999 SCT046 BKN080 12/08 Q1030 RMK PP000=
SPZO Mar2010-100900Z 00000KT 9999 SCT046 BKN080 11/06 Q1030 RMK PP000=
SPZO Mar2010-101000Z 03004KT 9999 SCT046 BKN080 10/05 Q1031 RMK PP000=
SPZO Mar2010-101100Z 04004KT 300V070 9999 SCT040 SCT230 11/05 Q1032 NOSIG RMK PP000=
SPZO Mar2010-101200Z 00000KT 9999 BKN046 SCT230 11/05 Q1033 NOSIG RMK PP000=
SPZO Mar2010-101300Z 00000KT 9999 BKN046 SCT100 11/05 Q1032 NOSIG RMK PP000 =
SPZO Mar2010-101400Z 00000KT 9999 SCT046 BKN060 12/05 Q1034 NOSIG RMK PP000=
SPZO Mar2010-101500Z 00000KT 9999 SCT046 BKN060 13/06 Q1034 NOSIG RMK PP000=
SPZO Mar2010-101600Z 34001KT 270V040 9999 FEW040 BKN060 16/04 Q1033 NOSIG RMK PP000=
SPZO Mar2010-101700Z 02003KT 280V040 9999 SCT050 18/05 Q1032 NOSIG RMK PP000=
SPZO Mar2010-101800Z VRB03KT 9999 SCT050 SCT230 19/04 Q1030 NOSIG RMK PP000=
SPZO Mar2010-101900Z 00000KT 9999 SCT050 SCT230 20/05 Q1028 NOSIG RMK PP000=
SPZO Mar2010-102000Z 03004KT 9999 SCT050 SCT230 21/04 Q1027 NOSIG RMK PP000=
SPZO Mar2010-102100Z 00000KT 9999 SCT050 SCT230 21/04 Q1026 NOSIG RMK PP000=
SPZO Mar2010-102200Z 29002KT 9999 SCT050 SCT230 21/03 Q1025 NOSIG RMK TMAX 22.1 PP000=
SPZO Mar2010-102300Z 28008KT 9999 SCT050 SCT230 19/06 Q1025 NOSIG RMK PP000=
SPZO Mar2010-110000Z 28006KT 9999 FEW050 SCT230 17/07 Q1027 RMK PP000=
SPZO Mar2010-110100Z 04007KT 9999 SCT200 16/07 Q1029 RMK PP000=
SPZO Mar2010-110200Z 33003KT 270V030 9999 SCT200 15/06 Q1029 RMK PP000=
SPZO Mar2010-110300Z 28004KT 9999 SCT100 14/04 Q1030 RMK PP000=
SPZO Mar2010-110400Z 04004KT 9999 SCT100 12/06 Q1031 RMK PP000=
SPZO Mar2010-110500Z 00000KT 9999 SCT080 12/06 Q1031 RMK PP000=
SPZO Mar2010-110600Z 00000KT 9999 SCT080 11/06 Q1030 RMK PP000=
SPZO Mar2010-110700Z 00000KT 9999 SCT080 11/07 Q1030 RMK PP000=
SPZO Mar2010-110800Z 00000KT 9999 SCT070 11/06 Q1029 RMK PP000=
SPZO Mar2010-110900Z 00000KT 9999 SCT070 08/04 Q1030 RMK PP000=
SPZO Mar2010-111000Z 00000KT 9999 FEW020 BKN046 08/04 Q1031 RMK PP000=
SPZO Mar2010-111100Z 00000KT 9999 SCT040 BKN050 09/05 Q1031 NOSIG RMK PP000=
SPZO Mar2010-111200Z 00000KT 9999 BKN050 SCT070 10/05 Q1032 NOSIG RMK PP000=
SPZO Mar2010-111300Z 00000KT 9999 SCT050 SCT070 13/05 Q1032 NOSIG RMK PP000=
SPZO Mar2010-111400Z 00000KT 9999 SCT050 SCT100 15/04 Q1032 NOSIG RMK PP000=
SPZO Mar2010-111500Z 00000KT 9999 SCT050 SCT100 17/02 Q1032 NOSIG RMK PP000=
SPZO Mar2010-111600Z 02005KT 280V050 9999 SCT050 SCT100 19/04 Q1031 MOD WS APP 28 NOSIG RMK PP000=
SPZO Mar2010-111700Z VRB03KT 9999 SCT050 SCT230 20/04 Q1030 NOSIG RMK PP000=
SPZO Mar2010-111800Z VRB03KT 9999 SCT050 SCT230 20/02 Q1029 NOSIG RMK PP000=
SPZO Mar2010-111900Z 36006KT 280V050 9999 SCT050 SCT230 21/M01 Q1027 NOSIG RMK PP000=
SPZO Mar2010-112000Z 02008KT 300V040 9999 SCT050 SCT100 21/02 Q1027 NOSIG RMK PP000=
SPZO Mar2010-112100Z 34004KT 280V030 9999 FEW050 SCT230 20/02 Q1026 NOSIG RMK PP000=
SPZO Mar2010-112200Z 02008KT 9999 FEW050 SCT230 20/03 Q1026 NOSIG RMK T.MAX 21.4 PP000=
SPZO Mar2010-112300Z 01010KT 300V030 9999 FEW050 SCT230 18/04 Q1026 NOSIG RMK PP000=
SPZO Mar2010-120000Z 34004KT 270V050 9999 FEW050 SCT060 16/05 Q1027 RMK PP000=
SPZO Mar2010-120100Z 29003KT 9999 SKC 14/06 Q1028 RMK PP000=
SPZO Mar2010-120200Z 04003KT 9999 FEW050 13/07 Q1029 RMK PP000=
SPZO Mar2010-120300Z 00000KT 9999 SKC 13/07 Q1030 RMK PP000=
SPZO Mar2010-120400Z 00000KT 9999 SCT050 11/07 Q1030 RMK PP000=
SPZO Mar2010-120500Z 00000KT 9999 BKN050 12/07 Q1030 RMK PP000=
SPZO Mar2010-120600Z 04002KT 9999 BKN050 11/07 Q1029 RMK PP000=
SPZO Mar2010-120700Z 00000KT 9999 SCT050 BKN060 11/07 Q1029 RMK PP000=
SPZO Mar2010-120800Z 00000KT 9999 SCT040 BKN050 11/07 Q1028 RMK PP000=
SPZO Mar2010-120900Z 04003KT 9999 SCT040 BKN050 10/07 Q1028 RMK PP000=
SPZO Mar2010-121000Z 00000KT 9999 SKC 10/07 Q1029 RMK PP000=
SPZO Mar2010-121100Z 00000KT 9999 FEW036 SCT043 10/07 Q1029 NOSIG RMK PP000=
SPZO Mar2010-121200Z 00000KT 9999 FEW040 SCT230 12/08 Q1031 NOSIG RMK PP000=
SPZO Mar2010-121300Z VRB01KT 9999 FEW043 SCT230 15/07 Q1031 NOSIG RMK PP000=
SPZO Mar2010-121400Z VRB03KT 9999 FEW050 SCT230 16/06 Q1031 NOSIG RMK PP000=
SPZO Mar2010-121500Z 00000KT 9999 SCT050 18/06 Q1031 NOSIG RMK PP000=
SPZO Mar2010-121600Z 00000KT 9999 FEW050 SCT100 19/04 Q1030 NOSIG RMK PP000=
SPZO Mar2010-121700Z 03006KT 9999 SCT046 SCT100 18/05 Q1029 NOSIG RMK PP000=
SPZO Mar2010-121800Z 03007KT 300V040 9999 SCT060 21/06 Q1027 NOSIG RMK PP000=
SPZO Mar2010-121900Z 03008KT 300V050 9999 VCSH FEW040TCU BKN050 19/06 Q1026 NOSIG RMK PP000=
SPZO Mar2010-122000Z 28013KT 9999 VCSH SCT040 BKN050 15/07 Q1026 NOSIG RMK PP000=
SPZO Mar2010-122100Z 29005KT 9999 SCT040 SCT050 16/07 Q1026 TEMPO VCSH RMK PP000=
SPZO Mar2010-122200Z 30005KT 9999 VCSH SCT040 SCT050 17/06 Q1026 NOSIG RMK TMAX 20.6 PP000=
SPZO Mar2010-122300Z 03008KT 9999 VCSH SCT040 BKN050 14/08 Q1027 NOSIG RMK PP000=
SPZO Mar2010-130000Z 02005KT 300V050 8000 -RA SCT036 SCT046 12/09 Q1028 RMK PP010=
SPZO Mar2010-130100Z 04008KT 8000 +RA SCT033 SCT043 10/08 Q1029 RMK PP032=
SPZO Mar2010-130200Z 03006KT 8000 RA SCT033 SCT043 10/08 Q1031 RMK PP012=
SPZO Mar2010-130300Z 00000KT 8000 -RA FEW020 SCT030 BKN040 10/07 Q1031 RMK PP008=
SPZO Mar2010-130400Z 00000KT 9000 FEW020 SCT030 BKN040 10/07 Q1031 RERA RMK PPTRZ=
SPZO Mar2010-130500Z 00000KT 8000 -RA FEW020 SCT030 BKN040 10/08 Q1031 RMK PP002=
SPZO Mar2010-130600Z 00000KT 8000 -RA FEW020 SCT030 BKN040 10/08 Q1030 RMK PP002=
SPZO Mar2010-130700Z 29002KT 8000 -RA FEW020 SCT030 BKN040 10/08 Q1030 RMK PP002=
SPZO Mar2010-130800Z 00000KT 8000 -RA FEW020 SCT030 BKN040 10/07 Q1029 RMK PPTRZ=
SPZO Mar2010-130900Z 00000KT 8000 RA FEW020 SCT030 BKN050 10/08 Q1029 RMK PP014=
SPZO Mar2010-131000Z 00000KT 7000 -RA FEW020 SCT030 BKN050 09/07 Q1029 RMK PP010=
SPZO Mar2010-131100Z 00000KT 4000 RA FEW008 SCT030 BKN046 09/07 Q1029 NOSIG RMK CLNG BLW 1200M PP024=
SPZO Mar2010-131200Z 00000KT 9999 DZ FEW020 SCT030 BKN050 09/07 Q1030 RMK PP006=
SPZO Mar2010-131300Z 00000KT 9999 SCT040 SCT060 12/07 Q1031 REDZ NOSIG RMK BCBR CDTE W PPTRZ=
SPZO Mar2010-131400Z 00000KT 9999 FEW036 BKN050 13/07 Q1031 NOSIG RMK PP000=
SPZO Mar2010-131500Z 00000KT 9999 FEW036 SCT050 15/07 Q1031 NOSIG RMK PP000=
SPZO Mar2010-131600Z 00000KT 9999 FEW040 BKN060 16/07 Q1030 NOSIG RMK PP000=
SPZO Mar2010-131700Z 29005KT 280V020 9999 FEW040 BKN060 17/06 Q1029 NOSIG RMK PP000=
SPZO Mar2010-131800Z 00000KT 9999 FEW040 SCT060 18/05 Q1028 NOSIG RMK PP000=
SPZO Mar2010-131900Z 30006KT 280V020 9999 SCT046 SCT230 20/07 Q1026 NOSIG RMK PP000=
SPZO Mar2010-132000Z 29006KT 280V020 9999 FEW043 SCT230 21/08 Q1025 NOSIG RMK PP000=
SPZO Mar2010-132100Z 28014KT 9999 VCSH FEW033 BKN043 18/08 Q1024 TEMPO -RA RMK TMAX 21.5 PP000=
SPZO Mar2010-132200Z 28014KT 9999 VCSH FEW033 BKN043 18/08 Q1024 TEMPO -RA RMK TMA=
SPZO Mar2010-132300Z 04011KT 9999 VCSH FEW030 BKN046 14/07 Q1026 TEMPO -RA RMK PP000=
SPZO Mar2010-140000Z 00000KT 9999 BKN040 SCT046 13/07 Q1027 RMK PP000=
SPZO Mar2010-140100Z 29003KT 9999 -RA OVC040 13/08 Q1027 RMK PP002=
SPZO Mar2010-140200Z 03005KT 9999 BKN043 SCT080 12/09 Q1028 RMK PP000=
SPZO Mar2010-140300Z 00000KT 9999 BKN040 SCT050 12/08 Q1028 RMK PP000=
SPZO Mar2010-140400Z 00000KT 9999 SCT040 SCT080 12/08 Q1029 RMK PP000=
SPZO Mar2010-140500Z 00000KT 9999 BKN040 SCT050 12/08 Q1029 RMK PP000=
SPZO Mar2010-140600Z 00000KT 9999 OVC040 12/09 Q1029 RMK PP000=
SPZO Mar2010-140700Z 00000KT 9999 SCT040 SCT050 12/08 Q1028 RMK PP000=
SPZO Mar2010-140800Z 00000KT 9999 SCT043 SCT050 12/08 Q1028 RMK PP000=
SPZO Mar2010-140900Z 00000KT 9999 BKN040 SCT060 12/08 Q1028 RMK PP000=
SPZO Mar2010-141000Z 00000KT 9999 BKN040 SCT060 12/08 Q1028 RMK PP000=
SPZO Mar2010-141100Z 00000KT 9999 FEW036 SCT040 BKN046 11/08 Q1029 TEMPO=
SPZO Mar2010-141200Z 00000KT 9999 FEW036 SCT040 BKN050 12/07 Q1029 NOSIG RMK PP000=
SPZO Mar2010-141300Z VRB02KT 9999 FEW030 SCT040 BKN050 12/09 Q1031 NOSIG RMK PP000=
SPZO Mar2010-141400Z 29008KT 9999 FEW033 SCT046 BKN060 14/08 Q1031 NOSIG RMK PP000=
SPZO Mar2010-141500Z 29004KT 280V020 9999 SCT033 BKN060 15/07 Q1031 NOSIG RMK RERA PP002=
SPZO Mar2010-141600Z 29001KT 280V020 9999 SCT036 BKN060 17/08 Q1031 NOSIG RMK PP000=
SPZO Mar2010-141700Z 34003KT 280V050 9999 SCT040 19/07 Q1029 NOSIG RMK PP000=
SPZO Mar2010-141800Z 00000KT 9999 BKN050 20/07 Q1028 RMK PP000=
SPZO Mar2010-141900Z 28009KT 9999 SCT043 FEW050TCU 21/09 Q1026 NOSIG RMK PP000=
SPZO Mar2010-142000Z 28009KT 9999 VCSH FEW030 SCT046CB BKN230 19/08 Q1025 NOSIG RMK PP000=
SPZO Mar2010-142100Z 03009KT 300V040 9000 VCSH FEW030 SCT046 BKN230 16/08 Q1026 NOSIG RMK PP000=
SPZO Mar2010-142200Z 04005KT 9000 -RA FEW036 SCT043TCU BKN070 12/08 Q1027 BECMG NSW RMK TMAX 21.1 PP012=
SPZO Mar2010-142300Z 00000KT 9999 -DZ FEW030 OVC080 12/09 Q1028 BECMG NSW RMK PP002=
SPZO Mar2010-150000Z 03005KT 9999 OVC040 12/08 Q1029 RMK PPTRZ=
SPZO Mar2010-150100Z 00000KT 9999 OVC050 12/08 Q1029 RMK PP000=
SPZO Mar2010-150200Z 00000KT 9999 SCT050 BKN100 12/09 Q1031 RMK PP000=
SPZO Mar2010-150300Z 00000KT 9999 SCT050 BKN100 11/09 Q1031 RMK PP000=
SPZO Mar2010-150400Z 00000KT 9999 SCT046 BKN100 11/09 Q1031 RMK PP000=
SPZO Mar2010-150500Z 00000KT 9999 SCT046 SCT100 11/09 Q1031 RMK PP000=
SPZO Mar2010-150600Z 00000KT 9999 SCT040 10/08 Q1030 RMK PP000=
SPZO Mar2010-150700Z 04003KT 9999 SCT040 SCT080 10/08 Q1029 RMK PP000=
SPZO Mar2010-150800Z 00000KT 9999 SCT040 SCT080 10/08 Q1029 RMK PP000=
SPZO Mar2010-150900Z 00000KT 9999 SCT040 BKN100 10/08 Q1029 RMK PP000=
SPZO Mar2010-151000Z 00000KT 9999 FEW020 SCT040 BKN100 09/08 Q1029 RMK PP000=
SPZO Mar2010-151100Z 00000KT 9999 SCT010 SCT100 BKN230 09/08 Q1029 NOSIG RMK PP000=
SPZO Mar2010-151200Z 00000KT 7000 FEW005 BKN015 OVC150 09/08 Q1030 BECMG FM1300 8000 SCT020 SCT100 OVC230 RMK CLNG BLW 1200M PP000=
SPZO Mar2010-151300Z 00000KT 8000 FEW010 SCT020 13/09 Q1031 BECMG 9999 RMK PP000=
SPZO Mar2010-151400Z 00000KT 9999 FEW020 SCT230 13/07 Q1031 NOSIG RMK PP000=
SPZO Mar2010-151500Z 26003KT 280V020 9999 SCT033 BKN230 16/08 Q1030 NOSIG RMK PP000=
SPZO Mar2010-151600Z 00000KT 9999 FEW030 SCT100 BKN230 16/07 Q1030 NOSIG RMK PP000=
SPZO Mar2010-151700Z 32005KT 280V040 9999 SCT040 BKN230 17/08 Q1030 NOSIG RMK PP000=
SPZO Mar2010-151800Z 29005KT 280V020 9999 SCT050 SCT100 18/07 Q1029 NOSIG RMK PP000=
SPZO Mar2010-151900Z VRB03KT 9999 FEW040 SCT050 20/08 Q1027 NOSIG RMK PP000=
SPZO Mar2010-152000Z VRB02KT 9999 FEW040 SCT046TCU BKN080 19/08 Q1026 NOSIG RMK PP000=
SPZO Mar2010-152100Z 30006KT 9999 VCSH FEW033 SCT043 BKN060 15/08 Q1027 RERA NOSIG RMK PP004=
SPZO Mar2010-152200Z 28007KT 9999 FEW040 SCT050 BKN100 15/09 Q1026 NOSIG RMK TMAX 19.9 PP000=
SPZO Mar2010-152300Z 00000KT 9999 FEW040 SCT050 BKN100 14/09 Q1027 NOSIG RMK PP000=
SPZO Mar2010-160000Z 00000KT 9999 SCT050 BKN100 13/09 Q1028 RMK PP000=
SPZO Mar2010-160100Z 00000KT 9999 SCT050 SCT150 13/09 Q1029 RMK PP000=
SPZO Mar2010-160200Z 00000KT 9999 SCT046 SCT150 13/09 Q1030 RMK PP000=
SPZO Mar2010-160300Z 00000KT 9999 SCT046 SCT100 12/09 Q1031 RMK PP000=
SPZO Mar2010-160400Z 00000KT 9999 SCT080 12/08 Q1031 RMK PP000=
SPZO Mar2010-160500Z 28003KT 9999 -RA SCT036 BKN080 12/09 Q1030 RMK PP008=
SPZO Mar2010-160600Z 00000KT 9999 SCT046 SCT080 10/09 Q1031 RMK PP000=
SPZO Mar2010-160700Z 00000KT 9999 SCT036 BKN050 11/09 Q1030 RMK PP000=
SPZO Mar2010-160800Z 00000KT 9999 SCT036 BKN050 11/09 Q1029 RMK PP000=
SPZO Mar2010-160900Z 00000KT 9999 FEW025 SCT030 BKN050 11/09 Q1029 RMK PP000=
SPZO Mar2010-161000Z 00000KT 9999 FEW025 SCT030 BKN050 11/09 Q1029 RMK PP000=
SPZO Mar2010-161100Z 00000KT 9999 FEW010 SCT033 BKN060 11/09 Q1029 RERA NOSIG RMK PP006=
SPZO Mar2010-161200Z 00000KT 8000 -RA VCSH FEW015 SCT033 OVC046 11/09 Q1030 TEMPO FEW015 SCT033 OVC043 RMK PP002=
SPZO Mar2010-161300Z 03003KT 7000 -RA VCSH FEW015 SCT036 OVC046 11/09 Q1032 NOSIG RMK CLNG BLW 1200M PPTRZ=
SPZO Mar2010-161400Z 00000KT 5000 RA BR VCSH FEW015 SCT036 OVC050 11/06 Q1033 BECMG 6000 RMK CLNG BLW 1200M PP012=
SPZO Mar2010-161500Z 28004KT 7000 -RA VCSH FEW015 SCT036 OVC070 10/06 Q1033 BECMG FM1520 9000 SCT015 OVC080 RMK PP012=
SPZO Mar2010-161600Z 04005KT 8000 -RA VCSH SCT015 OVC080 12/07 Q1033 TEMPO 9999 NS=
SPZO Mar2010-161700Z VRB03KT 9999 SCT030 OVC100 13/08 Q1033 NOSIG RMK PPTRZ=
SPZO Mar2010-161800Z VRB01KT 9999 VCSH FEW030 SCT046 OVC100 15/08 Q1031 NOSIG RMK PP000=
SPZO Mar2010-161900Z 00000KT 9999 FEW036 SCT046 BKN100 17/09 Q1029 NOSIG RMK PP000=
SPZO Mar2010-162000Z VRB02KT 9999 FEW036 SCT046 BKN230 17/08 Q1028 NOSIG RMK PP000=
SPZO Mar2010-162100Z VRB02KT 9999 FEW036 SCT046 BKN230 16/07 Q1027 NOSIG RMK PP000=
SPZO Mar2010-162200Z 00000KT 9999 FEW040 SCT050 17/07 Q1027 NOSIG RMK T.MAX 17.6 PP000=
SPZO Mar2010-162300Z 03006KT 9999 SCT040 SCT046 16/05 Q1027 NOSIG RMK PP000=
SPZO Mar2010-170000Z 00000KT 9999 SCT040 SCT050 15/06 Q1029 RMK PP000=
SPZO Mar2010-170100Z 28005KT 9999 SCT040 BKN050 14/06 Q1030 RMK PP000=
SPZO Mar2010-170200Z 00000KT 9999 SCT040 BKN050 13/06 Q1031 RMK PP000=
SPZO Mar2010-170300Z 00000KT 9999 SCT040 BKN050 13/07 Q1032 RMK PP000=
SPZO Mar2010-170400Z 00000KT 9999 SCT040 BKN050 12/08 Q1032 RMK PP000=
SPZO Mar2010-170500Z 00000KT 9999 SCT040 BKN050 11/07 Q1032 RMK PP000=
SPZO Mar2010-170600Z 00000KT 9999 SCT040 BKN050 09/07 Q1032 RMK PP000=
SPZO Mar2010-170700Z 00000KT 9999 SCT040 BKN050 09/07 Q1032 RMK PP000=
SPZO Mar2010-170800Z 00000KT 9999 SCT040 BKN050 10/07 Q1031 RMK PP000=
SPZO Mar2010-170900Z 00000KT 9999 SCT040 BKN050 10/07 Q1031 RMK PP000=
SPZO Mar2010-171000Z 00000KT 9999 FEW030 SCT040 BKN050 10/07 Q1031 RMK PP000=
SPZO Mar2010-171100Z 00000KT 8000 FEW030 SCT040 BKN046 10/07 Q1031 BECMG 9999 RMK PP000=
SPZO Mar2010-171200Z 00000KT 9999 FEW043 SCT100 11/07 Q1032 NOSIG RMK PP000=
SPZO Mar2010-171300Z 00000KT 9999 FEW036 BKN100 13/08 Q1032 NOSIG RMK PP000=
SPZO Mar2010-171400Z 00000KT 9999 FEW036 SCT050 15/07 Q1032 NOSIG RMK PP000=
SPZO Mar2010-171500Z 00000KT 9999 FEW040 SCT050 17/06 Q1032 NOSIG RMK PP000=
SPZO Mar2010-171600Z 00000KT 9999 SCT040 SCT100 17/05 Q1031 NOSIG RMK PP000=
SPZO Mar2010-171700Z VRB02KT 9999 SCT046 SCT080 19/07 Q1030 NOSIG RMK PP000=
SPZO Mar2010-171800Z 02006KT 300V050 9999 SCT046 SCT080 19/06 Q1029 NOSIG RMK PP000=
SPZO Mar2010-171900Z 02013KT 300V040 9999 SCT046 SCT100 19/07 Q1028 NOSIG RMK PP000=
SPZO Mar2010-172000Z 35010KT 300V040 9999 SCT046 SCT100 18/06 Q1027 NOSIG RMK PP000=
SPZO Mar2010-172100Z 35007KT 290V040 9999 SCT043 SCT230 19/05 Q1027 NOSIG RMK PP000=
SPZO Mar2010-172200Z 01009KT 300V030 9999 FEW043TCU SCT050 SCT230 18/06 Q1027 NOSIG RMK T.MAX.20.5 PP000=
SPZO Mar2010-172300Z 00000KT 9999 SCT046 BKN230 16/08 Q1027 NOSIG RMK PP000=
SPZO Mar2010-180000Z 29009KT 9999 BKN050 14/08 Q1028 RMK PP000=
SPZO Mar2010-180100Z 28004KT 9999 BKN050 14/08 Q1029 RMK PP000=
SPZO Mar2010-180200Z 00000KT 9999 BKN050 12/09 Q1029 RMK PP000=
SPZO Mar2010-180300Z 00000KT 9999 OVC050 12/08 Q1031 RMK PP000=
SPZO Mar2010-180400Z 00000KT 9999 OVC050 13/09 Q1031 RMK PP000=
SPZO Mar2010-180500Z VRB03KT 5000 RA FEW030 SCT040 BKN050 12/09 Q1031 RMK PP020=
SPZO Mar2010-180600Z 00000KT 9000 FEW030 SCT040 BKN050 11/08 Q1031 RERA RMK PP014=
SPZO Mar2010-180700Z 00000KT 9999 FEW030 SCT040 BKN050 11/08 Q1031 RMK PP000=
SPZO Mar2010-180800Z 00000KT 9999 FEW030 SCT040 BKN050 11/08 Q1031 RMK PP000=
SPZO Mar2010-180900Z 00000KT 9999 FEW030 SCT040 BKN060 10/08 Q1030 RMK PP000=
SPZO Mar2010-181000Z 00000KT 9999 FEW030 SCT040 BKN060 10/08 Q1030 RMK PP000=
SPZO Mar2010-181100Z 00000KT 9999 SCT040 SCT080 10/08 Q1030 RMK PP000=
SPZO Mar2010-181200Z 28006KT 9999 SCT040 BKN230 20/05 Q1029 NOSIG RMK PP000=
SPZO Mar2010-181300Z 04003KT 9999 FEW015 SCT040 BKN230 13/09 Q1032 NOSIG RMK PP000=
SPZO Mar2010-181400Z 04004KT 9999 SCT040 BKN230 15/09 Q1034 NOSIG RMK PP000=
SPZO Mar2010-181500Z VRB02KT 9999 SCT040 BKN230 16/09 Q1033 NOSIG RMK PP000=
SPZO Mar2010-181600Z 04002KT 9999 SCT040 BKN230 17/08 Q1032 NOSIG RMK PP000=
SPZO Mar2010-181700Z 03003KT 300V050 9999 SCT043 SCT100 BKN230 18/07 Q1031 NOSIG RMK PP000=
SPZO Mar2010-181800Z 01007KT 300V040 9999 FEW033 SCT100 BKN230 18/07 Q1031 NOSIG RMK PP000=
SPZO Mar2010-181900Z 04009KT 9999 FEW040 BKN230 18/08 Q1029 NOSIG RMK PP000=
SPZO Mar2010-182100Z 36008KT 300V020 9999 SCT050 BKN230 20/06 Q1027 NOSIG RMK PP00=
SPZO Mar2010-182200Z 01007KT 300V040 9999 FEW050 BKN230 19/04 Q1027 NOSIG RMK PP000=
SPZO Mar2010-182300Z 01006KT 300V040 9999 FEW050 BKN230 17/02 Q1027 NOSIG RMK PP000=
SPZO Mar2010-190000Z VRB02KT 9999 FEW050 15/04 Q1029 RMK PP000=
SPZO Mar2010-190100Z 00000KT 9999 FEW050 13/06 Q1030 RMK PP000=
SPZO Mar2010-190200Z 00000KT 9999 FEW050 SCT230 12/07 Q1031 RMK PP000=
SPZO Mar2010-190300Z 00000KT 9999 SKC 11/06 Q1031 RMK PP000=
SPZO Mar2010-190400Z 00000KT 9999 SKC 10/06 Q1032 RMK PP000=
SPZO Mar2010-190500Z 00000KT 9999 SKC 09/06 Q1032 RMK PP000=
SPZO Mar2010-190600Z 00000KT 9999 FEW050 SCT080 10/06 Q1031 RMK PP000=
SPZO Mar2010-190700Z 00000KT 9999 FEW043 SCT100 10/06 Q1031 RMK PP000=
SPZO Mar2010-190800Z 00000KT 9999 SCT100 09/06 Q1031 RMK PP000=
SPZO Mar2010-190900Z 28003KT 9999 BKN040 SCT046 09/06 Q1031 RMK PP000=
SPZO Mar2010-191000Z 28004KT 9999 FEW030 SCT040 BKN060 10/07 Q1031 RMK PPTRZ=
SPZO Mar2010-191100Z 04003KT 8000 -DZ FEW036 BKN050 09/07 Q1031 BECMG 9999 NSW RMK PP000=
SPZO Mar2010-191200Z 00000KT 9999 SCT050 SCT230 10/07 Q1032 NOSIG RMK PPTRZ=
SPZO Mar2010-191300Z 00000KT 9999 FEW040 SCT080 BKN100 11/07 Q1033 NOSIG RMK PP000=
SPZO Mar2010-191400Z 03002KT 9999 FEW040 SCT080 BKN100 13/07 Q1033 NOSIG RMK PP000=
SPZO Mar2010-191500Z 03005KT 9999 FEW046 SCT100 16/08 Q1033 NOSIG RMK PP000=
SPZO Mar2010-191600Z VRB02KT 9999 SCT046 18/06 Q1032 NOSIG RMK PP000=
SPZO Mar2010-191700Z 03004KT 9999 -SHRA SCT040 BKN050 16/08 Q1032 BECMG NSW RMK PP006=
SPZO Mar2010-191800Z 35006KT 250V040 9999 SCT043 BKN230 19/06 Q1031 NOSIG RMK PP004=
SPZO Mar2010-191900Z 04010KT 9999 FEW040 OVC230 17/08 Q1031 NOSIG RMK PP000=
SPZO Mar2010-192000Z 35008KT 300V020 9999 FEW040 SCT100 BKN230 18/05 Q1030 NOSIG RMK PP000=
SPZO Mar2010-192100Z 30006KT 270V020 9999 SCT050 BKN230 19/06 Q1030 NOSIG RMK PP000=
SPZO Mar2010-192200Z 02006KT 300V040 9999 FEW040 SCT100 BKN230 18/04 Q1029 NOSIG RMK TMAX 20.3 PP000=
SPZO Mar2010-192300Z 02005KT 300V040 9999 FEW050 SCT230 16/05 Q1030 NOSIG RMK PP000=
SPZO Mar2010-200000Z 28004KT 9999 FEW050 SCT100 13/06 Q1031 RMK PP000=
SPZO Mar2010-200100Z 00000KT 9999 FEW050 SCT100 12/07 Q1032 RMK PP000=
SPZO Mar2010-200200Z 00000KT 9999 FEW050 SCT100 11/06 Q1032 RMK PP000=
SPZO Mar2010-200300Z 00000KT 9999 FEW050 10/07 Q1033 RMK PP000=
SPZO Mar2010-200400Z 00000KT 9999 FEW050 10/06 Q1033 RMK PP000=
SPZO Mar2010-200500Z 00000KT 9999 SCT040 09/06 Q1033 RMK PP000=
SPZO Mar2010-200600Z 00000KT 9999 SCT040 10/07 Q1033 RMK PP000=
SPZO Mar2010-200700Z 00000KT 9999 FEW025 SCT040 10/07 Q1032 RMK PP000=
SPZO Mar2010-200800Z 00000KT 9999 SCT040 08/06 Q1032 RMK PP000=
SPZO Mar2010-200900Z 00000KT 9999 FEW025 08/06 Q1032 RMK PP000=
SPZO Mar2010-201000Z 00000KT 9999 FEW025 SCT040 08/06 Q1033 RMK PP000=
SPZO Mar2010-201100Z 00000KT 9999 FEW030 SCT043 07/05 Q1033 TEMPO SCT030 SCT230 R=
SPZO Mar2010-201200Z 00000KT 9999 SCT030 SCT050 08/06 Q1029 BECMG SCT036 RMK PP000=
SPZO Mar2010-201300Z 00000KT 9999 SCT036 SCT100 12/07 Q1035 BECMG SCT040 RMK PP000=
SPZO Mar2010-201400Z 00000KT 9999 SCT040 15/08 Q1035 NOSIG RMK PP000=
SPZO Mar2010-201500Z 00000KT 9999 SCT040 18/09 Q1034 NOSIG RMK PP000=
SPZO Mar2010-201600Z 00000KT 9999 SCT043 19/06 Q1033 NOSIG RMK PP000=
SPZO Mar2010-201700Z 00000KT 9999 SCT050 20/06 Q1032 NOSIG RMK PP000=
SPZO Mar2010-201800Z 30005KT 280V020 9999 SCT050 22/04 Q1030 NOSIG RMK PP000=
SPZO Mar2010-201900Z 01005KT 280V050 9999 SCT050 23/07 Q1029 NOSIG RMK PP000=
SPZO Mar2010-202000Z 01011KT 300V050 9999 SCT050 22/05 Q1028 NOSIG RMK PP000=
SPZO Mar2010-202100Z 02012KT 300V040 9999 FEW050 BKN230 20/05 Q1027 NOSIG RMK PP000=
SPZO Mar2010-202200Z 01006KT 280V050 9999 SCT050 SCT230 19/07 Q1028 NOSIG RMK TMAX 23.5 PP000=
SPZO Mar2010-202300Z VRB03KT 9999 SCT050 SCT230 17/07 Q1028 NOSIG RMK PP000=
SPZO Mar2010-210000Z 00000KT 9999 SCT050 BKN100 16/08 Q1029 RMK PP000=
SPZO Mar2010-210100Z 00000KT 9999 SCT050 14/08 Q1030 RMK PP000=
SPZO Mar2010-210200Z 00000KT 9999 SCT050 13/08 Q1031 RMK PP000=
SPZO Mar2010-210300Z 00000KT 9999 SCT050 12/08 Q1032 RMK PP000=
SPZO Mar2010-210400Z 00000KT 9999 SCT050 SCT080 12/08 Q1032 RMK PP000=
SPZO Mar2010-210500Z 00000KT 9999 SCT050 SCT080 12/08 Q1032 RMK PP000=
SPZO Mar2010-210600Z 00000KT 9999 SCT050 SCT080 12/08 Q1032 RMK PP000=
SPZO Mar2010-210700Z 00000KT 9999 SCT040 BKN060 12/08 Q1031 RMK PP000=
SPZO Mar2010-210800Z 00000KT 9999 SCT040 BKN060 10/08 Q1030 RMK PP000=
SPZO Mar2010-210900Z 00000KT 9999 SCT040 SCT060 10/08 Q1029 RMK PP000=
SPZO Mar2010-211000Z 00000KT 9999 FEW020 SCT036 BKN050 10/08 Q1032 RMK PP000=
SPZO Mar2010-211100Z 00000KT 9999 SCT040 BKN050 11/08 Q1031 BECMG FEW040 SCT060 RMK PP000=
SPZO Mar2010-211200Z 00000KT 8000 FEW050 12/08 Q1032 BECMG 9999 RMK BR PP000=
SPZO Mar2010-211300Z 00000KT 9999 FEW040 15/08 Q1032 NOSIG RMK PP000=
SPZO Mar2010-211400Z 00000KT 9999 FEW050 SCT230 17/07 Q1032 NOSIG RMK PP000=
SPZO Mar2010-211500Z VRB02KT 9999 FEW050 SCT230 19/07 Q1032 NOSIG RMK PP000=
SPZO Mar2010-211600Z 00000KT 9999 FEW050 SCT230 19/06 Q1031 NOSIG RMK PP000=
SPZO Mar2010-211700Z 28006KT 9999 FEW050 SCT230 21/06 Q1029 NOSIG RMK PP000=
SPZO Mar2010-211800Z 03005KT 9999 FEW040 SCT050 22/03 Q1027 NOSIG RMK PP000=
SPZO Mar2010-211900Z VRB03KT 9999 SCT050 22/04 Q1025 NOSIG RMK PP000=
SPZO Mar2010-212000Z 34005KT 270V040 9999 FEW043TCU SCT050 23/06 Q1024 NOSIG RMK PP000=
SPZO Mar2010-212100Z 31006KT 270V040 9999 TS SCT043CB SCT080 17/08 Q1024 RESHRA BECMG NSW RMK PP002=
SPZO Mar2010-212200Z 29004KT 9999 SCT050 SCT100 17/09 Q1025 NOSIG RMK T.MAX 23.5 PP000=
SPZO Mar2010-212300Z 00000KT 9999 SCT050 OVC100 17/08 Q1025 NOSIG RMK PP000=
SPZO Mar2010-220000Z 04007KT 300V050 9999 RA OVC043 16/09 Q1028 RMK PPTRZ=
SPZO Mar2010-220100Z 00000KT 9999 TS SCT043CB BKN050 15/10 Q1028 RMK PP002=
SPZO Mar2010-220200Z 00000KT 9999 SCT043 BKN050 15/06 Q1029 RMK PP000=
SPZO Mar2010-220300Z 31004KT 300V020 9999 BKN043 SCT100 13/06 Q1030 RMK PP000=
SPZO Mar2010-220400Z 38005KT 9999 SCT043 SCT100 11/07 Q1029 RMK PP000=
SPZO Mar2010-220500Z 28005KT 9999 SCT043 12/07 Q1028 RMK PP000=
SPZO Mar2010-220600Z 00000KT 9999 SCT043 10/06 Q1028 RMK PP000=
SPZO Mar2010-220700Z 00000KT 9999 SCT040 10/06 Q1028 RMK PP000=
SPZO Mar2010-220800Z 00000KT 9999 SCT040 SCT100 09/06 Q1028 RMK PP000=
SPZO Mar2010-220900Z 00000KT 9999 SCT040 BKN050 10/07 Q1028 RMK PP000=
SPZO Mar2010-221000Z 00000KT 9999 SCT040 BKN050 10/07 Q1028 RMK PP000=
SPZO Mar2010-221100Z 00000KT 9999 FEW040 BKN230 09/06 Q1029 NOSIG RMK PP000=
SPZO Mar2010-221200Z 04002KT 9999 FEW046 OVC230 09/07 Q1029 NOSIG RMK PP000=
SPZO Mar2010-221300Z 00000KT 9999 FEW050 BKN230 11/07 Q1030 NOSIG RMK PP000=
SPZO Mar2010-221400Z 00000KT 9999 FEW050 SCT230 14/07 Q1030 NOSIG RMK PP000=
SPZO Mar2010-221500Z 00000KT 9999 SCT050 18/06 Q1029 NOSIG RMK PP000=
SPZO Mar2010-221600Z 30004KT 270V020 9999 SCT050 19/08 Q1029 NOSIG RMK PP000=
SPZO Mar2010-221700Z 33004KT 280V040 9999 SCT050 SCT230 20/05 Q1027 NOSIG RMK PP000=
SPZO Mar2010-221800Z 01006KT 300V050 9999 SCT050 SCT230 21/07 Q1026 NOSIG RMK PP000=
SPZO Mar2010-221900Z 29005KT 280V020 9999 FEW040CB SCT050 BKN230 21/05 Q1025 TEMPO VCSH RMK PP000=
SPZO Mar2010-222000Z 32010KT 280V020 9999 SCT032CB BKN230 17/06 Q1024 NOSIG RMK PP000=
SPZO Mar2010-222100Z 28009KT 9999 FEW050 SCT100 BKN230 17/06 Q1025 NOSIG RMK PP000=
SPZO Mar2010-222200Z 28007KT 9999 SCT043 OVC230 17/05 Q1026 NOSIG RMK T.MAX.21.9 PP000=
SPZO Mar2010-222300Z 03009KT 9999 SCT043 OVC100 14/05 Q1027 NOSIG RMK PP000=
SPZO Mar2010-230000Z 28004KT 9999 BKN050 SCT100 13/05 Q1028 RMK PP000=
SPZO Mar2010-230100Z 03003KT 9999 BKN050 SCT100 13/04 Q1028 RMK PP000=
SPZO Mar2010-230200Z 00000KT 9999 OVC050 12/04 Q1029 RMK PP000=
SPZO Mar2010-230300Z 00000KT 9999 BKN050 11/05 Q1029 RMK PP000=
SPZO Mar2010-230400Z 00000KT 9999 BKN050 10/06 Q1030 RMK PP000=
SPZO Mar2010-230500Z 00000KT 9999 BKN050 10/06 Q1030 RMK PP000=
SPZO Mar2010-230600Z 00000KT 9999 SCT050 09/06 Q1029 RMK PP000=
SPZO Mar2010-230700Z 00000KT 9999 SCT050 07/05 Q1029 RMK PP000=
SPZO Mar2010-230800Z 00000KT 9999 FEW050 07/04 Q1028 RMK PP000=
SPZO Mar2010-230900Z 00000KT 9999 FEW050 06/04 Q1028 RMK PP000=
SPZO Mar2010-231000Z 00000KT 9999 FEW050 07/04 Q1027 RMK PP000=
SPZO Mar2010-231100Z 00000KT 9999 FEW050 06/03 Q1028 NOSIG RMK PP000=
SPZO Mar2010-231200Z 00000KT 9999 SCT230 07/04 Q1030 NOSIG RMK PP000=
SPZO Mar2010-231300Z 00000KT 9999 FEW050 SCT230 11/06 Q1031 NOSIG RMK PP000=
SPZO Mar2010-231400Z 00000KT 9999 SCT043 SCT060 13/05 Q1031 NOSIG RMK PP000=
SPZO Mar2010-231500Z 03005KT 9999 SCT046 BKN230 15/04 Q1031 NOSIG RMK PP000=
SPZO Mar2010-231600Z 03008KT 280V040 9999 FEW046 BKN230 18/05 Q1029 NOSIG RMK PP000=
SPZO Mar2010-231700Z 01004KT 280V040 9999 FEW050 SCT230 19/04 Q1029 NOSIG RMK PP000=
SPZO Mar2010-231800Z 29004KT 280V040 9999 FEW050 BKN230 21/05 Q1027 NOSIG RMK PP000=
SPZO Mar2010-231900Z 00000KT 9999 SCT050 BKN230 22/06 Q1025 NOSIG RMK PP000=
SPZO Mar2010-232000Z VRB03KT 9999 SCT050 BKN230 21/02 Q1024 NOSIG RMK PP000=
SPZO Mar2010-232100Z 04009KT 9999 SCT043 FEW050TCU BKN230 19/04 Q1025 NOSIG RMK PP000=
SPZO Mar2010-232200Z 28008KT 9999 FEW046 SCT060 BKN100 17/05 Q1025 NOSIG RMK PP000=
SPZO Mar2010-232300Z 28009KT 9999 SCT050 BKN080 16/05 Q1026 NOSIG RMK PP000=
SPZO Mar2010-240000Z 28006KT 9999 SCT043 SCT060 16/05 Q1027 RMK PP000=
SPZO Mar2010-240100Z 29004KT 9999 SCT043 SCT060 15/05 Q1028 RMK PP000=
SPZO Mar2010-240200Z 28004KT 9999 FEW046 SCT230 13/06 Q1029 RMK PP000=
SPZO Mar2010-240300Z 00000KT 9999 FEW043 SCT050 12/06 Q1030 RMK PP000=
SPZO Mar2010-240400Z 00000KT 9999 SCT040 SCT080 12/07 Q1030 RMK PP000=
SPZO Mar2010-240500Z 00000KT 9999 SCT040 BKN100 12/07 Q1030 RMK PP000=
SPZO Mar2010-240600Z 00000KT 9999 FEW040 SCT100 11/07 Q1029 RMK PP000=
SPZO Mar2010-240700Z 00000KT 9999 FEW050 10/07 Q1029 RMK PP000=
SPZO Mar2010-240800Z 00000KT 9999 SCT040 SCT050 10/08 Q1029 RMK PP000=
SPZO Mar2010-240900Z 00000KT 9999 SCT040 BKN046 09/06 Q1029 RMK PP000=
SPZO Mar2010-241000Z 00000KT 9999 SCT043 08/05 Q1029 RMK PP000=
SPZO Mar2010-241100Z 00000KT 9999 FEW043 SCT080 08/06 Q1030 NOSIG RMK PP000=
SPZO Mar2010-241300Z 00000KT 9999 FEW036 13/07 Q1032 NOSIG RMK PP000=
SPZO Mar2010-241400Z 01002KT 9999 SCT040 15/07 Q1032 NOSIG RMK PP000=
SPZO Mar2010-241500Z VRB02KT 9999 SCT046 17/05 Q1031 NOSIG RMK PP000=
SPZO Mar2010-241600Z VRB01KT 9999 SCT046 19/04 Q1030 NOSIG RMK PP000=
SPZO Mar2010-241700Z 31006KT 280V040 9999 BKN050 20/03 Q1029 NOSIG RMK PP000=
SPZO Mar2010-241800Z 01011KT 300V040 9999 FEW043TCU SCT050 18/05 Q1028 TEMPO VCSH RMK PP000=
SPZO Mar2010-241900Z 36009KT 300V030 9999 FEW040TCU SCT050 20/03 Q1026 NOSIG RMK PP000=
SPZO Mar2010-242000Z 01011KT 300V040 9999 FEW040 SCT230 19/03 Q1025 NOSIG RMK PP000=
SPZO Mar2010-242100Z 02008KT 300V040 9999 FEW040 18/04 Q1025 NOSIG RMK PP000=
SPZO Mar2010-242200Z 01003KT 300V040 9999 FEW040 19/04 Q1025 NOSIG RMK PP000=
SPZO Mar2010-242300Z 36007KT 300V030 9999 FEW040 SCT230 17/05 Q1025 NOSIG RMK PP000=
SPZO Mar2010-250000Z 01007KT 300V030 9999 FEW040 BKN230 16/06 Q1027 RMK PP000=
SPZO Mar2010-250100Z 00000KT 9999 SCT040 BKN100 14/07 Q1028 RMK PP000=
SPZO Mar2010-250200Z 00000KT 9999 SCT040 BKN100 15/07 Q1028 RMK PP000=
SPZO Mar2010-250300Z 00000KT 9999 SCT040 BKN080 14/08 Q1029 RMK PP000=
SPZO Mar2010-250400Z 00000KT 9999 SCT040 BKN080 14/08 Q1029 RMK PP000=
SPZO Mar2010-250500Z 00000KT 9999 SCT040 BKN080 13/05 Q1020 RMK PP000=
SPZO Mar2010-250600Z 00000KT 9999 RA OVC040 10/07 Q1030 RMK PP044=
SPZO Mar2010-250700Z 00000KT 9999 RA FEW030 OVC040 09/07 Q1031 RMK PP026=
SPZO Mar2010-250800Z 04004KT 9999 RA FEW020 OVC040 08/06 Q1030 RMK PP048=
SPZO Mar2010-250900Z 00000KT 9999 RA FEW020 OVC040 08/06 Q1031 RMK PP032=
SPZO Mar2010-251000Z 00000KT 8000 RA FEW010 OVC040 08/05 Q1031 RMK PP026=
SPZO Mar2010-251100Z 04005KT 6000 -RA SCT010 SCT033 OVC060 07/06 Q1032 BECMG FM123=
SPZO Mar2010-251200Z 03005KT 5000 -RA BR SCT008 SCT030 OVC070 07/05 Q1032 TEMPO 4000 RMK CLNG BLW 1200M PP016=
SPZO Mar2010-251300Z 03003KT 6000 -DZ BR FEW010 SCT020 OVC080 07/05 Q1033 BECMG FM1320 8000 NSW RMK PP002=
SPZO Mar2010-251400Z 00000KT 9999 -DZ FEW010 SCT020 OVC080 08/04 Q1032 NOSIG RMK PP001=
SPZO Mar2010-251500Z 04005KT 9000 4000W -RA FEW020 SCT030 OVC080 10/06 Q1033 TEMPO 8000 RMK VCRA W/NE PP001=
SPZO Mar2010-251600Z 04003KT 9000 -RA SCT020 SCT040 OVC060 10/07 Q1033 NOSIG PP002=
SPZO Mar2010-251700Z 00000KT 9999 FEW020 SCT036 OVC050 11/08 Q1033 BECMG FM1730 SCT030 SCT040 OVC050 RMK CLNG BLW 1200M PPTRZ=
SPZO Mar2010-251800Z 00000KT 9999 FEW025 SCT036 BKN060 12/06 Q1032 NOSIG RMK PP000=
SPZO Mar2010-251900Z 00000KT 9999 FEW025 SCT040 BKN080 13/06 Q1030 NOSIG RMK PP000=
SPZO Mar2010-252000Z VRB02KT 9999 FEW030 SCT046 BKN230 16/06 Q1029 NOSIG RMK PP000=
SPZO Mar2010-252100Z 00000KT 9999 SCT040 BKN230 15/06 Q1027 NOSIG RMK PP000=
SPZO Mar2010-252200Z 00000KT 9999 FEW040 SCT050 BKN100 14/07 Q1027 NOSIG RMK TMAX =
SPZO Mar2010-252300Z 00000KT 9999 BKN050 13/07 Q1028 NOSIG RMK PP000=
SPZO Mar2010-260000Z 00000KT 9999 BKN050 13/05 Q1029 RMK PP000=
SPZO Mar2010-260100Z 00000KT 9999 SCT030 BKN050 09/07 Q1030 RMK PP000=
SPZO Mar2010-260200Z 29004KT 9999 FEW050 11/06 Q1031 RMK PP000=
SPZO Mar2010-260300Z 33003KT 270V020 9999 SCT050 10/06 Q1031 RMK PP000=
SPZO Mar2010-260400Z 00000KT 9999 BKN070 10/06 Q1032 RMK PP000=
SPZO Mar2010-260500Z 00000KT 9999 BKN070 10/07 Q1032 RMK PP000=
SPZO Mar2010-260600Z 00000KT 9999 BKN050 10/07 Q1032 RMK PP000=
SPZO Mar2010-260700Z 00000KT 9999 BKN050 10/07 Q1030 RMK PP000=
SPZO Mar2010-260800Z 00000KT 9999 SCT046 BKN060 09/07 Q1029 RMK PP000=
SPZO Mar2010-260900Z 00000KT 9999 SCT036 BKN050 09/07 Q1029 RMK PP000=
SPZO Mar2010-261100Z 00000KT 9999 FEW036 SCT046 BKN080 09/07 Q1031 NOSIG RMK PP000=
SPZO Mar2010-261200Z 00000KT 8000 FEW033 SCT043 BKN060 10/07 Q1032 BECMG 9999 RMK BR PP000=
SPZO Mar2010-261300Z 00000KT 9000 FEW033 SCT043 BKN060 11/07 Q1032 BECMG 9999 RMK BR PP000=
SPZO Mar2010-261400Z 03002KT 9999 FEW033 SCT040 BKN050 12/07 Q1033 NOSIG RMK PP000=
SPZO Mar2010-261500Z 03002KT 9999 SCT033 BKN080 14/07 Q1033 NOSIG RMK PP000=
SPZO Mar2010-261600Z 03004KT 9999 SCT033 BKN070 15/07 Q1032 NOSIG RMK PP000=
SPZO Mar2010-261700Z VRB02KT 9999 VCSH SCT033 BKN060 17/07 Q1031 NOSIG RMK PP000=
SPZO Mar2010-261800Z 31004KT 300V020 9999 FEW036 SCT050 16/07 Q1029 NOSIG RMK PP000=
SPZO Mar2010-261900Z 36003KT 280V040 9999 SCT050 18/06 Q1028 NOSIG RMK PP000=
SPZO Mar2010-262000Z 02006KT 280V040 9999 SCT050 18/06 Q1027 NOSIG RMK PP000=
SPZO Mar2010-262100Z 28008KT 9999 SCT050 19/07 Q1026 NOSIG RMK PP000=
SPZO Mar2010-262200Z 28006KT 9999 SCT050 19/07 Q1026 NOSIG RMK TMAX 20.1 PP000=
SPZO Mar2010-262300Z 28008KT 9999 FEW050 BKN230 16/07 Q1027 NOSIG RMK PP000=
SPZO Mar2010-270000Z 28008KT 9999 SCT050 BKN230 15/08 Q1028 RMK PP000=
SPZO Mar2010-270100Z 30009KT 280V020 9999 SCT050 BKN150 15/07 Q1029 RMK PP000=
SPZO Mar2010-270200Z VRB02KT 9999 SCT040 BKN100 14/07 Q1030 RMK PP000=
SPZO Mar2010-270300Z 03002KT 9999 SCT046 BKN150 13/08 Q1031 RMK PP000=
SPZO Mar2010-270400Z 04008KT 9999 SCT036 BKN080 13/07 Q1031 RMK PP000=
SPZO Mar2010-270500Z 03003KT 9999 SCT036 BKN060 11/07 Q1031 RMK PP000=
SPZO Mar2010-270600Z 04003KT 9999 SCT046 BKN050 10/07 Q1031 RMK PP000=
SPZO Mar2010-270700Z 00000KT 9999 FEW036 SCT046 BKN060 10/07 Q1030 RMK PP000=
SPZO Mar2010-270800Z 00000KT 9999 SCT040 BKN060 10/07 Q1029 RMK PP000=
SPZO Mar2010-270900Z 00000KT 9999 FEW030 SCT046 BKN070 10/08 Q1029 RMK PP000=
SPZO Mar2010-271000Z 00000KT 9999 FEW025 SCT046 BKN060 10/08 Q1030 RMK PP000=
SPZO Mar2010-271100Z 00000KT 9999 FEW015 BKN033 OVC046 10/08 Q1031 RMK VCRA NE CLNG BLW 1200M=
SPZO Mar2010-271200Z 00000KT 9999 -DZ SCT020 SCT036 BKN050 10/08 Q1032 BECMG NSW SCT025 SCT043 BKN060 RMK PPTRZ=
SPZO Mar2010-271300Z 03002KT 9999 FEW025 SCT036 BKN080 11/08 Q1033 NOSIG RMK PPTRZ=
SPZO Mar2010-271400Z 00000KT 9999 FEW025 SCT036 BKN080 13/08 Q1033 NOSIG RMK PP000=
SPZO Mar2010-271500Z 00000KT 9999 SCT036 BKN100 18/08 Q1030 NOSIG RMK PP000=
SPZO Mar2010-271600Z 03004KT 9999 SCT036 BKN150 17/07 Q1032 NOSIG RMK PP000=
SPZO Mar2010-271700Z 00000KT 9999 FEW040 SCT050 18/07 Q1030 NOSIG RMK PP000=
SPZO Mar2010-271800Z 02003KT 9999 FEW040 SCT050 19/05 Q1029 NOSIG RMK PP000=
SPZO Mar2010-271900Z 00000KT 9999 SCT050 19/05 Q1027 NOSIG RMK PP000=
SPZO Mar2010-272000Z 01010KT 300V040 9999 SCT050 20/04 Q1026 NOSIG RMK PP000=
SPZO Mar2010-272100Z 35007KT 300V040 9999 SCT043 FEW050TCU 20/04 Q1026 NOSIG RMK PP000=
SPZO Mar2010-272200Z 02002KT 280V040 9999 FEW040 SCT050 19/07 Q1026 NOSIG RMK PP000=
SPZO Mar2010-272300Z 03003KT 280V050 9999 SCT040 BKN050 17/08 Q1027 NOSIG RMK PP000=
SPZO Mar2010-280000Z 29008KT 9999 OVC050 16/08 Q1029 RMK PP000=
SPZO Mar2010-280100Z 28006KT 9999 OVC050 15/08 Q1029 RMK PP000=
SPZO Mar2010-280200Z 31004KT 280V030 9999 BKN050 14/07 Q1030 RMK PP000=
SPZO Mar2010-280300Z 28005KT 9999 BKN050 13/07 Q1031 RMK PP000=
SPZO Mar2010-280400Z 03009KT 9999 BKN050 12/07 Q1031 RMK PP000=
SPZO Mar2010-280500Z 04007KT 9999 BKN050 11/07 Q1032 RMK PP000=
SPZO Mar2010-280600Z 00000KT 9999 BKN050 11/07 Q1031 RMK PP000=
SPZO Mar2010-280700Z 00000KT 9999 BKN050 11/08 Q1030 RMK PP000=
SPZO Mar2010-280800Z 00000KT 9999 BKN050 11/07 Q1030 RMK PP000=
SPZO Mar2010-280900Z 00000KT 9999 SCT036 BKN050 11/08 Q1030 RMK PP000=
SPZO Mar2010-281000Z 00000KT 9999 SCT036 BKN050 11/06 Q1030 RMK PP000=
SPZO Mar2010-281100Z 31004KT 280V020 9999 FEW020 SCT036 BKN050 12/05 Q1031 NOSIG RMK PP000=
SPZO Mar2010-281200Z 00000KT 9999 FEW025 SCT040 OVC050 12/06 Q1032 NOSIG RMK PP000=
SPZO Mar2010-281300Z 00000KT 9999 FEW025 BKN040 OVC050 12/07 Q1032 NOSIG RMK PP000=
SPZO Mar2010-281400Z 00000KT 9999 FEW025 SCT043 BKN080 14/07 Q1032 NOSIG RMK PP000=
SPZO Mar2010-281500Z 00000KT 9999 FEW030 SCT040 BKN080 15/06 Q1032 NOSIG RMK PP000=
SPZO Mar2010-281600Z 02003KT 280V040 9999 FEW030 SCT043 BKN080 15/06 Q1032 NOSIG RMK PP000=
SPZO Mar2010-281700Z 30004KT 280V040 9999 FEW030 SCT043 BKN100 16/06 Q1030 NOSIG RMK PP000=
SPZO Mar2010-281800Z VRB02KT 9999 SCT040 SCT100 18/06 Q1029 NOSIG RMK PP000=
SPZO Mar2010-281900Z 02003KT 280V040 9999 FEW033 SCT050 19/05 Q1027 NOSIG RMK PP000=
SPZO Mar2010-282000Z 29001KT 9999 BKN050 19/05 Q1024 NOSIG RMK PP000=
SPZO Mar2010-282100Z 28010KT 9999 VCSH FEW040 SCT050CB BKN100 18/07 Q1025 NOSIG RMK PP000=
SPZO Mar2010-282200Z 32008KT 280V040 9999 SCT050 BKN080 17/05 Q1025 NOSIG RMK TMAX 19.8 PP000=
SPZO Mar2010-282300Z 33009KT 9999 SCT050 SCT080 15/07 Q1026 NOSIG RMK PP000=
SPZO Mar2010-290000Z 29006KT 280V020 9999 SCT050 SCT080 14/05 Q1027 RMK PP000=
SPZO Mar2010-290100Z 03006KT 9999 SCT040 SCT050 13/07 Q1029 RMK PP000=
SPZO Mar2010-290200Z 03004KT 9999 -RA SCT036 BKN046 12/08 Q1029 RMK PPTRZ=
SPZO Mar2010-290300Z 00000KT 9999 SCT040 BKN046 12/08 Q1031 RMK PP000=
SPZO Mar2010-290400Z 00000KT 8000 RA OVC040 10/08 Q1032 RMK PP020=
SPZO Mar2010-290500Z 00000KT 9000 -RA FEW020 OVC040 20/08 Q1031 RMK PP008=
SPZO Mar2010-290600Z 03005KT 9999 SCT030 BKN043 10/08 Q1031 RMK PP000=
SPZO Mar2010-290700Z 00000KT 9999 SCT030 BKN046 10/08 Q1031 RMK PP000=
SPZO Mar2010-290800Z 00000KT 9999 SCT036 BKN050 10/07 Q1029 RMK PP000=
SPZO Mar2010-290900Z 00000KT 9999 SCT030 BKN043 10/07 Q1029 RMK PP000=
SPZO Mar2010-291000Z 00000KT 9999 FEW020 SCT036 BKN043 10/07 Q1030 RMK PP000=
SPZO Mar2010-291100Z 00000KT 9999 SCT010 OVC043 10/07 Q1029 TEMPO FEW015 BKN033 OVC043 RMK PP000=
SPZO Mar2010-291200Z 00000KT 9999 FEW025 SCT036 OVC043 10/07 Q1031 BECMG FEW030 SCT040 OVC050 RMK PP000=
SPZO Mar2010-291300Z 00000KT 9999 FEW030 SCT040 OVC050 11/07 Q1031 NOSIG RMK PP000=
SPZO Mar2010-291400Z 00000KT 9999 FEW030 SCT043 OVC080 12/07 Q1032 NOSIG RMK PP000=
SPZO Mar2010-291500Z 00000KT 9999 FEW030 SCT043 OVC080 14/06 Q1032 NOSIG RMK PP000=
SPZO Mar2010-291600Z 03004KT 280V040 9999 SCT036 OVC080 15/07 Q1031 NOSIG RMK PP00=
SPZO Mar2010-291700Z 03005KT 9999 FEW033 SCT046 BKN080 15/07 Q1029 NOSIG RMK PP000=
SPZO Mar2010-291800Z 00000KT 9999 VCSH FEW040 BKN060 16/07 Q1028 NOSIG RMK PP000=
SPZO Mar2010-291900Z 30010KT 280V020 9999 VCSH SCT036TCU BKN050 15/06 Q1028 NOSIG =
SPZO Mar2010-292000Z 01008KT 300V020 9000 VCSH SCT040TCU SCT100 15/08 Q1027 BECMG 9999 RMK -SHRA BTN 1945/1950 PP002=
SPZO Mar2010-292100Z 35006KT 280V040 9999 SCT080 SCT230 16/05 Q1026 NOSIG RMK PP000=
SPZO Mar2010-292200Z 32005KT 290V020 9999 FEW080 SCT230 16/06 Q1026 NOSIG RMK PP000=
SPZO Mar2010-292300Z 04005KT 9999 FEW080 SCT230 13/07 Q1027 NOSIG RMK PP000=
SPZO Mar2010-300000Z 00000KT 9999 SKC 12/07 Q1026 RMK PP000=
SPZO Mar2010-300100Z 00000KT 9999 FEW050 11/08 Q1028 RMK PP000=
SPZO Mar2010-300200Z 00000KT 9999 SCT040 SCT050 10/06 Q1029 RMK PP000=
SPZO Mar2010-300300Z 00000KT 9999 SKC 09/06 Q1030 RMK PP000=
SPZO Mar2010-300400Z 00000KT 9999 FEW050 09/07 Q1030 RMK PP000=
SPZO Mar2010-300500Z 00000KT 9999 SCT050 BKN080 09/06 Q1031 RMK PP000=
SPZO Mar2010-300600Z 00000KT 9999 SCT050 OVC080 09/07 Q1030 RMK PP000=
SPZO Mar2010-300700Z 00000KT 9999 SCT050 OVC080 09/07 Q1029 RMK PP000=
SPZO Mar2010-300800Z 00000KT 9999 SCT050 OVC080 09/07 Q1029 RMK PP000=
SPZO Mar2010-300900Z 00000KT 9999 SCT080 09/07 Q1028 RMK PP000=
SPZO Mar2010-301000Z 00000KT 9999 SCT050 SCT080 09/07 Q1029 RMK PP000=
SPZO Mar2010-301100Z 00000KT 8000 FEW020 SCT030 BKN050 08/06 Q1029 NOSIG RMK PP000=
SPZO Mar2010-301200Z 00000KT 7000 SCT033 SCT100 09/07 Q1031 BECMG FM1215 8000 RMK BR PP000=
SPZO Mar2010-301300Z 00000KT 8000 SCT030 SCT100 12/07 Q1031 BECMG 9999 RMK PP000=
SPZO Mar2010-301400Z 00000KT 9999 SCT030 SCT100 14/07 Q1032 NOSIG RMK PP000=
SPZO Mar2010-301500Z 30005KT 280V040 9999 SCT033 SCT043 BKN080 15/06 Q1031 NOSIG RMK PP000=
SPZO Mar2010-301600Z 00000KT 9999 SCT040 BKN080 15/06 Q1030 NOSIG RMK PP000=
SPZO Mar2010-301700Z 36008KT 9999 4000NW -DZ VCSH FEW030 SCT040TCU BKN080 14/07 Q1031 TEMPO -RA RMK PP002=
SPZO Mar2010-301800Z 03004KT 300V050 9999 SCT040 SCT080 17/08 Q1029 NOSIG RMK REDZ PPTRZ=
SPZO Mar2010-301900Z 00000KT 9999 FEW030TCU SCT040 17/08 Q1028 NOSIG RMK PP000=
SPZO Mar2010-302000Z 28014KT 9999 -RA VCSH FEW033TCU SCT043CB BKN080 15/07 Q1028 BECMG FM2100 NSW RMK PPTRZ=
SPZO Mar2010-302100Z 28010KT 9999 -RA VCSH FEW033 SCT043TCU BKN080 14/08 Q1028 BECMG NSW RMK PPTRZ=
SPZO Mar2010-302200Z 28006KT 9999 SCT040 BKN080 14/08 Q1028 NOSIG RMK RERA TMAX 18.4 PPTRZ=
SPZO Mar2010-302300Z 28008KT 9999 SCT040 SCT080 13/08 Q1028 NOSIG RMK PP000=
SPZO Mar2010-310000Z 33001KT 9999 SCT040 SCT150 12/08 Q1029 RMK PP000=
SPZO Mar2010-310100Z 00000KT 9999 SCT080 11/07 Q1031 RMK PP000=
SPZO Mar2010-310200Z 00000KT 9999 SCT070 10/07 Q1031 RMK PP000=
SPZO Mar2010-310300Z 00000KT 9999 SCT046 BKN080 10/08 Q1032 RMK PP000=
SPZO Mar2010-310400Z 00000KT 9999 SCT040 BKN080 10/07 Q1032 RMK PP000=
SPZO Mar2010-310500Z 00000KT 9999 SCT046 BKN060 10/07 Q1032 RMK PP000=
SPZO Mar2010-310600Z 00000KT 9999 SCT036 BKN050 09/07 Q1031 RMK PP000=
SPZO Mar2010-310700Z 00000KT 9999 SCT040 BKN050 09/07 Q1031 RMK PP000=
SPZO Mar2010-310800Z 00000KT 9999 SCT040 OVC050 09/07 Q1032 RMK PP000=
SPZO Mar2010-310900Z 00000KT 9999 SCT036 OVC050 09/07 Q1030 RMK PP000=
SPZO Mar2010-311000Z 00000KT 9999 SCT030 OVC050 09/07 Q1030 RMK PP000=
SPZO Mar2010-311100Z 00000KT 8000 FEW010 SCT030 OVC050 10/07 Q1031 NOSIG RMK PP000=
SPZO Mar2010-311200Z 00000KT 9000 FEW010 SCT033 OVC050 10/07 Q1032 BECMG 9999 RMK PP000=
SPZO Mar2010-311300Z 04003KT 9000 FEW010 SCT033 OVC050 11/07 Q1032 BECMG 9999 RMK BR PP000=
SPZO Mar2010-311400Z 04002KT 9000 FEW010 SCT033 OVC050 12/07 Q1033 NOSIG RMK BR PP000=
SPZO Mar2010-311500Z 28004KT 9999 FEW025 SCT033 BKN080 13/08 Q1032 NOSIG RMK PPTRZ=
SPZO Mar2010-311600Z 34004KT 280V050 9999 SCT040 SCT080 17/06 Q1031 NOSIG RMK PP000=
SPZO Mar2010-311700Z 01006G16KT 300V050 9999 VCSH FEW030TCU SCT050 18/06 Q1030 NOSIG RMK PP000=
SPZO Mar2010-311800Z 31008KT 280V020 9999 FEW033 SCT040TCU BKN080 17/07 Q1030 NOSIG RMK PP000=
SPZO Mar2010-311900Z 29007KT 9999 VCSH FEW036 SCT046 BKN100 17/07 Q1029 NOSIG RMK PP000=
SPZO Mar2010-312000Z 04010KT 9999 VCSH SCT043TCU BKN100 16/07 Q1028 NOSIG RMK PP000=
SPZO Mar2010-312100Z 29010KT 9999 VCSH SCT043TCU BKN070 14/06 Q1028 NOSIG RMK PP000=
SPZO Mar2010-312200Z 00000KT 9999 SCT043 BKN080 14/06 Q1028 RESHRA NOSIG RMK PP002=
SPZO Mar2010-312300Z 28002KT 9999 SCT043 SCT100 14/08 Q1028 NOSIG RMK PP000=
