SPZO Nov2012-010000Z 27007KT 9999 SCT080 16/02 Q1029 RMK PP000=
SPZO Nov2012-010100Z 29006KT 9999 SCT080 14/03 Q1030 RMK PP000=
SPZO Nov2012-010200Z 29007KT 9999 FEW080 13/03 Q1031 RMK PP000=
SPZO Nov2012-010300Z 27004KT 9999 SKC 13/03 Q1031 RMK PP000=
SPZO Nov2012-010400Z 00000KT 9999 SKC 13/03 Q1031 RMK PP000=
SPZO Nov2012-010500Z 00000KT 9999 SCT080 13/03 Q1031 RMK PP000=
SPZO Nov2012-010600Z 00000KT 9999 SCT080 12/04 Q1030 RMK PP000=
SPZO Nov2012-010700Z 00000KT 9999 SCT080 12/04 Q1030 RMK PP000=
SPZO Nov2012-010800Z 00000KT 9999 OVC060 12/04 Q1029 RMK PP000=
SPZO Nov2012-010900Z 00000KT 9999 OVC080 12/04 Q1030 RMK PP000=
SPZO Nov2012-011000Z 00000KT 9999 SCT050 BKN080 12/03 Q1030 RMK PP000=
SPZO Nov2012-011100Z 11005KT 9999 SCT050 BKN080 12/04 Q1031 TEMPO SCT040 BKN070 RMK HZ NE PP000=
SPZO Nov2012-011200Z VRB02KT 9999 SCT050 SCT080 13/04 Q1032 NOSIG RMK PP000=
SPZO Nov2012-011300Z 09003KT 9999 FEW050 SCT100 14/04 Q1032 NOSIG RMK PP000=
SPZO Nov2012-011400Z VRB04KT 9999 FEW050 SCT230 18/03 Q1031 NOSIG RMK PP000=
SPZO Nov2012-011500Z VRB03KT 9999 SCT050 SCT230 19/02 Q1030 TEMPO VCSH FEW040TCU SCT100 RMK PP000=
SPZO Nov2012-011600Z VRB07KT 9999 FEW040TCU SCT050 BKN080 19/01 Q1029 TEMPO -RA RMK PP000=
SPZO Nov2012-011700Z 29009KT 9999 VCSH FEW043CB SCT050 BKN080 17/02 Q1029 TEMPO -RA RMK PP000=
SPZO Nov2012-011800Z 30011KT 260V340 9999 FEW040TCU SCT060 BKN100 18/M01 Q1029 TEMPO -RA RMK PP000=
SPZO Nov2012-011900Z 28008KT 240V310 9999 FEW046 BKN080 19/M00 Q1027 NOSIG RMK PP000=
SPZO Nov2012-012000Z 28017KT 9999 SCT046 BKN100 18/01 Q1027 NOSIG RMK PP000=
SPZO Nov2012-012100Z 28013KT 9999 SCT050 BKN200 18/01 Q1027 NOSIG RMK PP000=
SPZO Nov2012-012200Z 28016KT 9999 SCT046TCU BKN200 16/03 Q1027 NOSIG RMK TMAX 21.0 PP000=
SPZO Nov2012-012300Z 29011KT 9999 SCT046 BKN200 15/03 Q1028 NOSIG RMK PP000=
SPZO Nov2012-020000Z 28009KT 9999 BKN060 13/03 Q1029 RMK PP000=
SPZO Nov2012-020100Z 28008KT 9999 BKN060 13/03 Q1030 RMK PP000=
SPZO Nov2012-020200Z 29008KT 9999 FEW040 BKN050 13/04 Q1031 RMK PP000=
SPZO Nov2012-020300Z 28011KT 9999 FEW040 BKN050 12/05 Q1032 RMK PP000=
SPZO Nov2012-020400Z 28011KT 9999 FEW040 BKN050 12/04 Q1032 RMK PP000=
SPZO Nov2012-020500Z 28011KT 9999 FEW040 BKN050 11/04 Q1031 RMK PP000=
SPZO Nov2012-020600Z 30007KT 9999 SCT040 BKN050 11/04 Q1030 RMK PP000=
SPZO Nov2012-020700Z 00000KT 9999 -RA SCT040 BKN050 10/05 Q1030 RMK PPTRZ=
SPZO Nov2012-020800Z 28002KT 9999 -RA SCT040 BKN050 10/06 Q1029 RMK PP008=
SPZO Nov2012-020900Z VRB01KT 9999 FEW043 SCT050 BKN080 10/06 Q1030 RMK PPTRZ=
SPZO Nov2012-021000Z VRB02KT 9999 FEW030 SCT036 BKN050 10/06 Q1030 RMK PP000=
SPZO Nov2012-021100Z 00000KT 9999 FEW030 SCT040 BKN060 10/06 Q1031 NOSIG RMK PP000=
SPZO Nov2012-021200Z VRB01KT 9999 FEW036 SCT046 SCT080 11/06 Q1032 NOSIG RMK PP000=
SPZO Nov2012-021300Z VRB01KT 9999 SCT040 BKN080 14/05 Q1032 NOSIG RMK PP000=
SPZO Nov2012-021400Z VRB02KT 9999 SCT040 BKN080 15/04 Q1032 NOSIG RMK PP000=
SPZO Nov2012-021500Z VRB02KT 9999 SCT046 BKN080 15/04 Q1032 NOSIG RMK PP000=
SPZO Nov2012-021600Z VRB04KT 9999 FEW030 SCT046 BKN080 17/03 Q1031 NOSIG RMK PP000=
SPZO Nov2012-021700Z 09004KT 9999 VCSH FEW033 SCT046 BKN080 17/02 Q1030 NOSIG RMK PP000=
SPZO Nov2012-021800Z 11006KT 010V150 9999 VCSH FEW040TCU SCT050 BKN080 19/02 Q1029 NOSIG RMK PP000=
SPZO Nov2012-021900Z 08010KT 050V120 9999 VCSH FEW040TCU SCT050 BKN080 17/05 Q1028 NOSIG RMK PP000=
SPZO Nov2012-022000Z 01011KT 330V060 9999 FEW040TCU BKN080 18/04 Q1027 NOSIG RMK PP000=
SPZO Nov2012-022100Z 02011KT 350V050 9999 SCT050 SCT080 18/03 Q1026 NOSIG RMK PP000=
SPZO Nov2012-022200Z 35008KT 300V040 9999 SCT043 BKN080 17/03 Q1026 NOSIG RMK T MAX 20.3 PP000=
SPZO Nov2012-022300Z 12010KT 9999 VCSH FEW043TCU SCT060 BKN080 16/04 Q1027 NOSIG RMK PP000=
SPZO Nov2012-030000Z 23007KT 9999 BKN040 SCT050 15/04 Q1029 RMK PP000=
SPZO Nov2012-030100Z 09004KT 9999 SCT043 SCT060 14/05 Q1030 RMK PP000=
SPZO Nov2012-030200Z 19002KT 9999 SCT046 SCT080 14/04 Q1030 RMK PP000=
SPZO Nov2012-030300Z 09004KT 9999 SCT046 SCT080 13/04 Q1031 RMK PP000=
SPZO Nov2012-030400Z 00000KT 9999 SCT043 BKN060 12/04 Q1031 RMK PP000=
SPZO Nov2012-030500Z 00000KT 9999 BKN043 SCT050 13/04 Q1030 RMK PP000=
SPZO Nov2012-030600Z 00000KT 9999 BKN043 SCT050 11/06 Q1030 RMK PP000=
SPZO Nov2012-030700Z 11006KT 9999 BKN040 SCT050 11/06 Q1030 RMK PP000=
SPZO Nov2012-030800Z 00000KT 9999 BKN040 SCT046 10/07 Q1029 RMK PP000=
SPZO Nov2012-030900Z 00000KT 9999 BKN040 SCT050 10/07 Q1029 RMK PP000=
SPZO Nov2012-031000Z 21002KT 9999 -DZ FEW030 SCT036 BKN043 11/06 Q1030 RERA 0925/35 RMK PP004=
SPZO Nov2012-031100Z 10004KT 9999 FEW033 SCT046 BKN080 10/07 Q1030 NOSIG RMK PP000=
SPZO Nov2012-031200Z VRB01KT 9999 FEW033 SCT040 BKN080 11/07 Q1031 NOSIG RMK PP000=
SPZO Nov2012-031300Z 10005KT 9000 -RA FEW033 SCT040 BKN070 11/07 Q1032 TEMPO -RA RMK VIS 8000 E PPTRZ=
SPZO Nov2012-031400Z 00000KT 9999 FEW033 SCT040 BKN070 12/06 Q1032 RERA NOSIG RMK PP004=
SPZO Nov2012-031500Z 26003KT 210V310 9999 FEW033 SCT040 BKN070 13/06 Q1032 NOSIG RMK PP000=
SPZO Nov2012-031600Z 10007KT 070V150 9999 FEW036 SCT043 BKN080 15/05 Q1031 NOSIG RMK PP000=
SPZO Nov2012-031700Z VRB03KT 9999 SCT043 BKN080 16/03 Q1030 NOSIG RMK PP000=
SPZO Nov2012-031800Z VRB05KT 9999 FEW050TCU SCT100 BKN230 19/04 Q1028 NOSIG RMK PP000=
SPZO Nov2012-031900Z 30006KT 9999 FEW050TCU SCT100 BKN230 19/03 Q1026 NOSIG RMK PP000=
SPZO Nov2012-032000Z 31006KT 9999 FEW060 SCT100 21/02 Q1025 NOSIG RMK PP000=
SPZO Nov2012-032100Z 30018KT 9999 SCT060 SCT100 19/05 Q1024 TEMPO -RA RMK PP000=
SPZO Nov2012-032200Z 34009KT 9999 SCT060 SCT100 18/03 Q1025 TEMPO -RA RMK PP000=
SPZO Nov2012-032300Z 36006KT 9999 SCT060 SCT100 16/04 Q1026 NOSIG RMK PP000=
SPZO Nov2012-040000Z 35006KT 9999 SCT046TCU BKN060 15/05 Q1028 RMK PP000=
SPZO Nov2012-040100Z 11017KT 9999 FEW020 SCT046TCU BKN060 10/08 Q1031 RMK PP000=
SPZO Nov2012-040200Z 17004KT 6000 +TSRA FEW015 SCT036CB BKN050 08/04 Q1033 RMK PP064=
SPZO Nov2012-040300Z 29006KT 7000 RA FEW015 SCT036 BKN050 07/05 Q1034 RMK PP052=
SPZO Nov2012-040400Z 28007KT 9999 FEW020 SCT036 BKN050 17/04 Q1034 RMK PP026=
SPZO Nov2012-040500Z 29009KT 9999 FEW030 SCT046 BKN050 07/04 Q1033 RMK PP020=
SPZO Nov2012-040600Z 31006KT 9999 FEW033 SCT040 BKN060 07/03 Q1032 RMK PP000=
SPZO Nov2012-040700Z 28007KT 9999 FEW036 SCT046 BKN080 07/03 Q1031 RMK PP000=
SPZO Nov2012-040800Z 27004KT 9999 FEW030 SCT043 BKN060 07/03 Q1031 RMK PP000=
SPZO Nov2012-040900Z VRB02KT 9999 FEW030 SCT043 BKN060 07/03 Q1031 RMK PP000=
SPZO Nov2012-041000Z 00000KT 9999 FEW025 SCT043 BKN060 08/03 Q1031 RMK PP000=
SPZO Nov2012-041100Z 00000KT 9999 FEW025 SCT046 BKN100 08/03 Q1031 NOSIG RMK PP000=
SPZO Nov2012-041200Z 00000KT 9999 FEW030 SCT050 BKN100 09/04 Q1032 TEMPO FEW020 SCT040 BKN070 RMK PP000=
SPZO Nov2012-041300Z 00000KT 9999 SCT040 SCT100 10/03 Q1033 NOSIG RMK PP000=
SPZO Nov2012-041400Z VRB03KT 9999 SCT040 SCT100 12/05 Q1032 NOSIG RMK PP000=
SPZO Nov2012-041500Z VRB02KT 9999 FEW030 SCT050 BKN100 13/05 Q1032 NOSIG RMK PP000=
SPZO Nov2012-041600Z 33004KT 9999 FEW040 SCT060 BKN100 15/05 Q1031 NOSIG RMK PP000=
SPZO Nov2012-041700Z 27004KT 9999 SCT060 BKN100 16/04 Q1030 NOSIG RMK PP000=
SPZO Nov2012-041800Z 29007KT 240V350 9999 SCT043 BKN080 17/04 Q1029 TEMPO VCSH FEW040TCU BKN100 RMK PP000=
SPZO Nov2012-041900Z 31006KT 280V350 9999 VCSH FEW040TCU SCT043 BKN070 17/04 Q1028 TEMPO -RA VCSH SCT040TCU BKN100 RMK PP000=
SPZO Nov2012-042000Z 35008KT 310V020 9999 -RA VCSH FEW040 SCT043 BKN070 15/05 Q1027 BECMG FM2015 8000 RA VCTS SCT040CB BKN100 RMK PPTRZ=
SPZO Nov2012-042100Z 27008KT 9999 SCT040 BKN070 14/06 Q1026 NOSIG RMK PPTRZ=
SPZO Nov2012-042200Z 09007KT 060V130 9999 SCT040 BKN100 16/05 Q1026 NOSIG RMK TMAX 18.4 PP000=
SPZO Nov2012-042300Z 11003KT 080V140 9999 FEW040 BKN150 14/05 Q1027 NOSIG RMK PP000=
SPZO Nov2012-050000Z VRB02KT 9999 SCT050 SCT100 13/06 Q1027 RMK PP000=
SPZO Nov2012-050100Z 29004KT 9999 SCT050 SCT100 10/06 Q1029 RMK PP000=
SPZO Nov2012-050200Z 29005KT 9999 SCT050 SCT100 10/06 Q1030 RMK PP000=
SPZO Nov2012-050300Z VRB03KT 9999 SCT050 SCT070 10/06 Q1030 RMK PP000=
SPZO Nov2012-050400Z VRB02KT 9999 SCT050 SCT080 11/06 Q1030 RMK PP000=
SPZO Nov2012-050500Z 00000KT 9999 SCT050 BKN080 11/07 Q1030 RMK PP000=
SPZO Nov2012-050600Z 00000KT 9999 SCT043 BKN080 10/07 Q1029 RMK PP000=
SPZO Nov2012-050700Z 00000KT 9999 SCT046 BKN080 11/07 Q1029 RMK PP000=
SPZO Nov2012-050800Z 09003KT 060V120 9999 SCT043 BKN080 11/07 Q1028 RMK PP000=
SPZO Nov2012-050900Z 11003KT 9999 SCT043 BKN080 10/06 Q1029 RMK PP000=
SPZO Nov2012-051000Z 12004KT 080V150 9999 FEW033 SCT043 BKN080 10/07 Q1029 RMK PP000=
SPZO Nov2012-051100Z VRB02KT 9999 FEW030 SCT040 BKN070 10/07 Q1030 BECMG FM1115 FEW020 SCT036 BKN060 RMK PP000=
SPZO Nov2012-051200Z 09004KT 060V130 9999 FEW020 SCT036 BKN050 12/07 Q1031 NOSIG RMK PP000=
SPZO Nov2012-051300Z VRB03KT 9999 FEW025 SCT040 BKN060 13/06 Q1031 NOSIG RMK PP000=
SPZO Nov2012-051400Z VRB03KT 9999 FEW030 SCT040 BKN060 15/06 Q1031 NOSIG RMK PP000=
SPZO Nov2012-051500Z 13007KT 090V220 9999 SCT040 BKN060 14/07 Q1030 NOSIG RMK PP000=
SPZO Nov2012-051600Z VRB04KT 9999 SCT040 BKN060 16/06 Q1029 NOSIG RMK PP000=
SPZO Nov2012-051700Z 26008KT 220V310 9999 SCT043 BKN060 18/05 Q1028 NOSIG RMK PP000=
SPZO Nov2012-051800Z VRB06KT 9999 FEW043 SCT050 20/03 Q1026 NOSIG RMK PP000=
SPZO Nov2012-051900Z VRB08KT 9999 FEW043 SCT050 21/05 Q1024 TEMPO VCSH RMK PP000=
SPZO Nov2012-052000Z 12012KT 060V180 9000 VCSH FEW040CB SCT050 BKN230 18/06 Q1025 TEMPO -RA RMK PP000=
SPZO Nov2012-052100Z 12005KT 9999 VCSH FEW043TCU SCT046 BKN080 15/06 Q1025 TEMPO -RA RMK PP000=
SPZO Nov2012-052200Z 32008KT 240V360 9999 FEW040 SCT046 BKN080 14/07 Q1025 NOSIG RMK T.MAX 21.8 PP004=
SPZO Nov2012-052300Z 08006KT 9999 -RA BKN043 SCT080 13/08 Q1027 NOSIG RMK PP002=
SPZO Nov2012-060000Z VRB03KT 9999 SCT030 BKN100 13/06 Q1028 RMK PP000=
SPZO Nov2012-060100Z VRB05KT 9999 -DZ SCT036 BKN080 12/06 Q1030 RMK PP002=
SPZO Nov2012-060200Z 10007KT 9999 RA SCT036 BKN080 09/06 Q1031 RMK PP008=
SPZO Nov2012-060300Z 00000KT 5000 RA FEW030 SCT040 BKN060 09/06 Q1032 RMK PP024=
SPZO Nov2012-060400Z 00000KT 5000 RA FEW020 SCT030 BKN050 08/06 Q1031 RMK CLNG BLW 1200M PP030=
SPZO Nov2012-060500Z 00000KT 8000 FEW020 SCT030 BKN050 09/06 Q1031 RMK PP006=
SPZO Nov2012-060600Z 00000KT 9999 FEW020 SCT040 BKN070 09/06 Q1030 RMK PP002=
SPZO Nov2012-060700Z 00000KT 9999 -RA FEW020 SCT040 BKN070 09/06 Q1029 RMK PP004=
SPZO Nov2012-060800Z 00000KT 9999 FEW020 SCT040 BKN070 08/06 Q1029 RMK PPTRZ=
SPZO Nov2012-060900Z 00000KT 9999 FEW020 SCT040 BKN070 08/06 Q1029 RMK PP000=
SPZO Nov2012-061000Z 00000KT 9999 FEW015 SCT040 BKN080 08/06 Q1029 RMK PP000=
SPZO Nov2012-061100Z 00000KT 9999 SCT020 BKN080 08/06 Q1030 NOSIG RMK PP000=
SPZO Nov2012-061200Z 00000KT 9999 FEW020 SCT046 BKN080 09/06 Q1030 NOSIG RMK PP000=
SPZO Nov2012-061300Z 00000KT 9999 FEW025 SCT050 BKN100 11/06 Q1031 NOSIG RMK PP000=
SPZO Nov2012-061400Z 00000KT 9999 FEW030 SCT050 BKN100 12/07 Q1031 NOSIG RMK PP000=
SPZO Nov2012-061500Z VRB05KT 9999 FEW036 SCT050 BKN100 14/06 Q1030 NOSIG RMK PP000=
SPZO Nov2012-061600Z VRB04KT 9999 SCT050 SCT100 15/06 Q1029 NOSIG RMK PP000=
SPZO Nov2012-061700Z VRB04KT 9999 SCT050 SCT230 17/05 Q1028 NOSIG RMK PP000=
SPZO Nov2012-061800Z VRB04KT 9999 SCT046 SCT230 19/04 Q1028 TEMPO VCSH RMK PP000=
SPZO Nov2012-061900Z 36011KT 320V050 9999 -RA FEW040TCU BKN080 17/05 Q1025 NOSIG RMK PPTRZ=
SPZO Nov2012-062000Z 27011KT 9999 DZ VCSH FEW036TCU SCT046 BKN070 13/08 Q1026 NOSIG RMK PP032=
SPZO Nov2012-062100Z 26004KT 9999 SCT046 BKN080 14/07 Q1026 NOSIG RMK PP000=
SPZO Nov2012-062200Z 26005KT 9999 SCT040TCU BKN060 15/07 Q1026 TEMPO VCSH RMK TMAX 20.7 PP000=
SPZO Nov2012-062300Z VRB03KT 9999 SCT046 BKN080 13/07 Q1026 RMK PP000=
SPZO Nov2012-070000Z 28005KT 9999 SCT050 11/07 Q1027 RMK PP000=
SPZO Nov2012-070100Z VRB01KT 9999 SCT050 12/08 Q1028 RMK PP000=
SPZO Nov2012-070200Z 27005KT 9999 FEW050 SCT100 11/07 Q1029 RMK PP000=
SPZO Nov2012-070300Z 11004KT 070V130 9999 FEW050 SCT100 11/08 Q1030 RMK PP000=
SPZO Nov2012-070400Z VRB01KT 9999 FEW050 SCT100 11/08 Q1030 RMK PP000=
SPZO Nov2012-070500Z 00000KT 9999 SCT046 BKN080 11/08 Q1029 RMK PP000=
SPZO Nov2012-070600Z 00000KT 9999 SCT046 SCT080 10/07 Q1028 RMK PP000=
SPZO Nov2012-070700Z VRB01KT 9999 SCT046 SCT080 10/07 Q1028 RMK PP000=
SPZO Nov2012-070800Z VRB02KT 9999 FEW040 BKN060 10/08 Q1028 RMK PP000=
SPZO Nov2012-070900Z VRB02KT 9999 FEW040 BKN060 11/07 Q1028 RMK PP000=
SPZO Nov2012-071000Z 11005KT 9999 -RA FEW030 SCT040 BKN060 10/07 Q1029 RMK PPTRZ=
SPZO Nov2012-071100Z 00000KT 9999 -RA FEW020 SCT040 BKN060 10/06 Q1029 NOSIG RMK PP002=
SPZO Nov2012-071200Z 00000KT 8000 FEW020 SCT036 BKN070 10/07 Q1030 TEMPO 9000 RMK CLNG BLW 1200M PP008=
SPZO Nov2012-071300Z VRB02KT 9000 -DZ FEW020TCU SCT036 BKN080 11/07 Q1031 RMK CLNG BLW 1200M PP002=
SPZO Nov2012-071400Z 00000KT 9999 FEW025 SCT043 BKN080 12/07 Q1031 NOSIG RMK PP000=
SPZO Nov2012-071500Z 00000KT 9999 SCT036 BKN080 14/05 Q1031 NOSIG RMK PP000=
SPZO Nov2012-071600Z VRB02KT 9999 SCT046 17/08 Q1030 NOSIG RMK PP000=
SPZO Nov2012-071700Z VRB04KT 9999 SCT046 19/06 Q1030 NOSIG RMK PP000=
SPZO Nov2012-071800Z 30008KT 240V340 9999 SCT046 SCT080 19/03 Q1027 NOSIG RMK PP000=
SPZO Nov2012-071900Z VRB08KT 9999 SCT050 21/03 Q1025 NOSIG RMK PP000=
SPZO Nov2012-072000Z 30012G26KT 260V340 9999 SCT050 21/04 Q1025 NOSIG RMK PP000=
SPZO Nov2012-072100Z 30013KT 9999 SCT050 20/04 Q1024 NOSIG RMK PP000=
SPZO Nov2012-072200Z 29011KT 270V330 9999 FEW050 20/03 Q1024 NOSIG RMK T MAX 21.4 PP000=
SPZO Nov2012-072300Z 29008KT 9999 FEW050 17/04 Q1024 RMK PP000=
SPZO Nov2012-080000Z 35005KT 9999 SKC 16/04 Q1025 RMK PP000=
SPZO Nov2012-080100Z 29011KT 9999 SKC 15/06 Q1026 RMK PP000=
SPZO Nov2012-080200Z 29009KT 9999 SKC 13/06 Q1028 RMK PP000=
SPZO Nov2012-080300Z 00000KT 9999 SKC 13/06 Q1029 RMK PP000=
SPZO Nov2012-080400Z 00000KT 9999 SCT050 13/07 Q1029 RMK PP000=
SPZO Nov2012-080500Z 00000KT 9999 SCT050 BKN080 12/06 Q1028 RMK PP000=
SPZO Nov2012-080600Z 00000KT 9999 SCT043 SCT080 12/07 Q1028 RMK PP000=
SPZO Nov2012-080700Z 30007KT 9999 SCT043 SCT060 11/07 Q1028 RMK PP000=
SPZO Nov2012-080800Z 13006KT 9999 BKN043 SCT060 11/07 Q1028 RMK PP000=
SPZO Nov2012-080900Z 10009KT 9999 BKN043 SCT050 10/06 Q1028 RMK PP000=
SPZO Nov2012-081000Z 11006KT 9999 FEW025 SCT040 BKN046 10/06 Q1028 RMK PP000=
SPZO Nov2012-081100Z 13005KT 9999 FEW030 SCT040 BKN050 10/06 Q1030 NOSIG RMK PP000=
SPZO Nov2012-081200Z 07003KT 020V120 9999 FEW033 SCT040 SCT080 11/06 Q1030 NOSIG RMK PP000=
SPZO Nov2012-081300Z VRB01KT 9999 SCT036 SCT080 14/06 Q1030 NOSIG RMK PP000=
SPZO Nov2012-081400Z VRB04KT 9999 SCT046 17/06 Q1030 NOSIG RMK PP000=
SPZO Nov2012-081500Z VRB04KT 9999 FEW036 SCT050 18/03 Q1029 NOSIG RMK PP000=
SPZO Nov2012-081600Z VRB05KT 9999 SCT040 SCT050 19/04 Q1028 NOSIG RMK PP000=
SPZO Nov2012-081700Z 25014KT 220V280 9999 FEW040TCU SCT060 21/02 Q1027 TEMPO 27015G25KT VCSH SCT040TCU SCT100 RMK PP000=
SPZO Nov2012-081800Z 32017KT 9999 FEW040TCU BKN060 20/04 Q1026 TEMPO -RA RMK PP000=
SPZO Nov2012-081900Z 31012KT 9999 SCT060 SCT230 22/02 Q1025 NOSIG RMK PP000=
SPZO Nov2012-082000Z 33011KT 9999 SCT060 SCT230 20/03 Q1024 BECMG FM2015 9000 -RA VCSH SCT040TCU BKN100 RMK PP000=
SPZO Nov2012-082100Z 01011KT 9999 FEW040 SCT100 20/04 Q1024 TEMPO 9000 -RA VCSH SCT040TCU BKN100 RMK PP000=
SPZO Nov2012-082200Z 02008KT 9999 FEW050 SCT100 20/04 Q1024 NOSIG RMK PP000=
SPZO Nov2012-082300Z 26007KT 9999 FEW060 17/04 Q1025 NOSIG RMK PP000=
SPZO Nov2012-090000Z 11004KT 9999 FEW070 15/06 Q1026 RMK PP000=
SPZO Nov2012-090100Z 31009KT 9999 FEW070 14/05 Q1026 RMK PP000=
SPZO Nov2012-090200Z 32008KT 9999 SKC 13/05 Q1027 RMK PP000=
SPZO Nov2012-090300Z 28006KT 9999 SKC 12/05 Q1028 RMK PP000=
SPZO Nov2012-090400Z 27006KT 9999 SKC 12/05 Q1028 RMK PP000=
SPZO Nov2012-090500Z 25003KT 9999 FEW060 12/06 Q1028 RMK PP000=
SPZO Nov2012-090600Z 00000KT 9999 FEW060 10/06 Q1027 RMK PP000=
SPZO Nov2012-090700Z 00000KT 9999 FEW060 10/06 Q1027 RMK PP000=
SPZO Nov2012-090800Z 31001KT 9999 FEW060 09/05 Q1027 RMK PP000=
SPZO Nov2012-090900Z 00000KT 9999 SCT050 09/05 Q1027 RMK PP000=
SPZO Nov2012-091000Z 00000KT 9999 FEW050 08/05 Q1028 RMK PP000=
SPZO Nov2012-091100Z 00000KT 9999 FEW040 09/06 Q1029 NOSIG RMK 9000 NE HZ PP000=
SPZO Nov2012-091200Z VRB01KT 9999 FEW060 12/06 Q1029 NOSIG RMK HZ NE PP000=
SPZO Nov2012-091300Z VRB02KT 9999 FEW060 15/06 Q1030 NOSIG RMK HZ NE PP000=
SPZO Nov2012-091400Z VRB04KT 9999 FEW060 17/05 Q1030 NOSIG RMK PP000=
SPZO Nov2012-091500Z 31005KT 9999 SCT060 19/04 Q1029 NOSIG RMK PP000=
SPZO Nov2012-091600Z VRB05KT 9999 SCT060 20/04 Q1028 NOSIG RMK PP000=
SPZO Nov2012-091700Z 30004KT 9999 SCT060 22/M00 Q1027 NOSIG RMK PP000=
SPZO Nov2012-091800Z VRB03KT 9999 SCT050 SCT230 24/01 Q1024 TEMPO 27012KT RMK PP000=
SPZO Nov2012-091900Z VRB06KT 9999 FEW046 SCT060 SCT230 25/00 Q1023 TEMPO 27012KT VCSH FEW040TCU SCT100 RMK PP000=
SPZO Nov2012-092000Z 31010KT 270V340 9999 FEW046 SCT060 BKN230 23/02 Q1022 TEMPO 27015G25KT -RA VCSH SCT040TCU BKN080 RMK PP000=
SPZO Nov2012-092100Z 27011KT 240V320 9999 SCT050 BKN230 23/01 Q1021 NOSIG RMK PP000=
SPZO Nov2012-092200Z 30008KT 260V350 9999 FEW050 BKN230 23/M01 Q1021 NOSIG RMK TMAX 25.3 PP000=
SPZO Nov2012-092300Z 36009KT 340V040 9999 FEW050 BKN230 19/06 Q1022 NOSIG RMK PP000=
SPZO Nov2012-100000Z 11015KT 9999 FEW050 17/06 Q1025 RMK PP000=
SPZO Nov2012-100100Z VRB01KT 9999 FEW050 16/06 Q1026 RMK PP000=
SPZO Nov2012-100200Z 28006KT 240V320 9999 FEW050 15/06 Q1026 RMK PP000=
SPZO Nov2012-100300Z 30005KT 240V340 9999 SCT050 14/06 Q1027 RMK PP000=
SPZO Nov2012-100400Z 28006KT 240V310 9999 SCT050 13/06 Q1027 RMK PP000=
SPZO Nov2012-100500Z 00000KT 9999 SCT050 12/06 Q1027 RMK PP000=
SPZO Nov2012-100600Z 00000KT 9999 SCT050 10/06 Q1026 RMK PP000=
SPZO Nov2012-100700Z 00000KT 9999 SCT050 10/06 Q1026 RMK PP000=
SPZO Nov2012-100800Z VRB02KT 9999 SCT050 10/06 Q1026 RMK PP000=
SPZO Nov2012-100900Z VRB02KT 9999 FEW030 SCT050 09/05 Q1027 RMK PP000=
SPZO Nov2012-101000Z 00000KT 9999 FEW030 SCT050 09/05 Q1027 RMK PP000=
SPZO Nov2012-101100Z 00000KT 9999 FEW030 SCT100 09/05 Q1028 NOSIG RMK PP000=
SPZO Nov2012-101200Z 00000KT 9999 FEW025 SCT080 13/06 Q1029 NOSIG RMK PP000=
SPZO Nov2012-101300Z VRB02KT 9999 FEW030 SCT080 16/07 Q1029 NOSIG RMK VIS 9000 NE HZ PP000=
SPZO Nov2012-101400Z VRB02KT 9999 FEW040 SCT100 18/07 Q1029 NOSIG RMK PP000=
SPZO Nov2012-101500Z VRB04KT 9999 FEW043 20/06 Q1028 NOSIG RMK PP000=
SPZO Nov2012-101600Z VRB03KT 9999 SCT046 22/03 Q1027 NOSIG RMK PP000=
SPZO Nov2012-101700Z VRB04KT 9999 SCT050 23/02 Q1026 NOSIG RMK PP000=
SPZO Nov2012-101800Z 01013KT 9999 SCT050 25/M03 Q1025 NOSIG RMK PP000=
SPZO Nov2012-101900Z 03015KT 9999 FEW050 SCT230 24/M02 Q1024 NOSIG RMK PP000=
SPZO Nov2012-102000Z 04014G24KT 9999 FEW050 BKN230 24/M03 Q1024 NOSIG RMK PP000=
SPZO Nov2012-102100Z 02017KT 9999 FEW050 BKN230 22/M04 Q1024 NOSIG RMK PP000=
SPZO Nov2012-102200Z 02016KT 9999 FEW050 BKN230 20/M02 Q1024 NOSIG RMK T.MAX 25.7 PP000=
SPZO Nov2012-102300Z 05010KT 360V090 9999 FEW050 SCT230 18/M01 Q1025 NOSIG RMK PP000=
SPZO Nov2012-110000Z 17004KT 9999 SKC 17/01 Q1027 RMK PP000=
SPZO Nov2012-110100Z VRB02KT 9999 SKC 16/00 Q1028 RMK PP000=
SPZO Nov2012-110200Z VRB01KT 9999 SKC 14/01 Q1029 RMK PP000=
SPZO Nov2012-110300Z 00000KT 9999 SKC 12/02 Q1029 RMK PP000=
SPZO Nov2012-110400Z 00000KT 9999 SKC 12/02 Q1030 RMK PP000=
SPZO Nov2012-110500Z 00000KT 9999 SKC 10/02 Q1030 RMK PP000=
SPZO Nov2012-110600Z 00000KT 9999 SKC 09/03 Q1030 RMK PP000=
SPZO Nov2012-110700Z 00000KT 9999 SKC 09/03 Q1030 RMK PP000=
SPZO Nov2012-110800Z 00000KT 9999 SKC 07/03 Q1030 RMK PP000=
SPZO Nov2012-110900Z 00000KT 9999 SKC 07/03 Q1030 RMK PP000=
SPZO Nov2012-111000Z 00000KT 9999 SKC 07/02 Q1030 RMK PP000=
SPZO Nov2012-111100Z 00000KT 9999 FEW060 08/02 Q1032 NOSIG RMK 8000E HZ E PP000=
SPZO Nov2012-111200Z 00000KT 9999 BKN230 12/03 Q1033 NOSIG RMK PP000=
SPZO Nov2012-111300Z 09006KT 9999 BKN230 14/03 Q1033 NOSIG RMK PP000=
SPZO Nov2012-111400Z 09004KT 9999 SCT230 17/01 Q1033 NOSIG RMK PP000=
SPZO Nov2012-111500Z VRB04KT 9999 FEW050 18/01 Q1032 NOSIG RMK PP000=
SPZO Nov2012-111600Z VRB03KT 9999 FEW050 20/M01 Q1031 NOSIG RMK PP000=
SPZO Nov2012-111700Z VRB05KT 9999 FEW050 SCT230 22/M02 Q1029 NOSIG RMK PP000=
SPZO Nov2012-111800Z 03015G26KT 9999 FEW050 BKN230 22/M00 Q1028 NOSIG RMK WS RWY 28 PP000=
SPZO Nov2012-111900Z 02013KT 9999 FEW050 SCT230 22/01 Q1028 NOSIG RMK WS RWY 28 PP000=
SPZO Nov2012-112000Z 03013KT 330V080 9999 BKN230 23/M03 Q1027 NOSIG RMK WS RWY 28 PP000=
SPZO Nov2012-112100Z 03011KT 350V060 9999 BKN230 22/M06 Q1026 NOSIG RMK WS RWY 28 PP000=
SPZO Nov2012-112200Z 03009KT 350V050 9999 BKN230 21/M07 Q1025 NOSIG RMK WS RWY 28 PP000=
SPZO Nov2012-112300Z 01011KT 9999 SCT230 19/M05 Q1026 NOSIG RMK PP000=
SPZO Nov2012-120000Z 03013KT 010V070 9999 SCT040 17/M03 Q1027 RMK PP000=
SPZO Nov2012-120100Z 02013KT 330V090 9999 SCT040 15/02 Q1029 RMK PP000=
SPZO Nov2012-120200Z 04008KT 020V080 9999 SCT040 15/03 Q1031 RMK PP000=
SPZO Nov2012-120300Z 27004KT 210V320 9999 SCT040 SCT070 14/03 Q1031 RMK PP000=
SPZO Nov2012-120400Z 00000KT 9999 SCT040 SCT070 14/04 Q1032 RMK PP000=
SPZO Nov2012-120500Z VRB02KT 9999 SCT040 SCT070 14/04 Q1031 RMK PP000=
SPZO Nov2012-120600Z VRB02KT 9999 BKN060 14/04 Q1030 RMK PP000=
SPZO Nov2012-120700Z 27004KT 9999 BKN060 13/04 Q1030 RMK PP000=
SPZO Nov2012-120800Z 08005KT 9999 SCT060 12/05 Q1030 RMK PP000=
SPZO Nov2012-120900Z 11003KT 9999 FEW060 11/04 Q1030 RMK PP000=
SPZO Nov2012-121000Z 28003KT 9999 FEW040 SCT080 10/04 Q1031 RMK PP000=
SPZO Nov2012-121100Z VRB02KT 9999 FEW036 BKN080 10/04 Q1032 TEMPO FEW020 SCT036 BKN070 RMK PP000=
SPZO Nov2012-121200Z 08004KT 9999 FEW036 OVC100 12/05 Q1033 TEMPO FEW020 SCT036 BKN070 RMK PP000=
SPZO Nov2012-121300Z VRB02KT 9999 SCT036 OVC080 15/04 Q1033 NOSIG RMK PP000=
SPZO Nov2012-121400Z VRB03KT 9999 SCT036 BKN070 17/04 Q1033 NOSIG RMK PP000=
SPZO Nov2012-121500Z 02007KT 320V090 9999 SCT036 BKN100 17/04 Q1033 NOSIG RMK PP000=
SPZO Nov2012-121600Z 01012KT 330V040 9999 FEW046 BKN100 17/02 Q1033 NOSIG RMK PP000=
SPZO Nov2012-121700Z 01013KT 330V050 9999 FEW046 BKN100 19/02 Q1032 NOSIG RMK PP000=
SPZO Nov2012-121800Z 35011KT 310V060 9999 SCT046 BKN100 20/01 Q1030 TEMPO 02016G26 RMK PP000=
SPZO Nov2012-121900Z 02014KT 330V060 9999 SCT050 BKN100 19/02 Q1029 NOSIG RMK PP000=
SPZO Nov2012-122000Z 01014KT 310V050 9999 SCT050 BKN100 19/02 Q1028 NOSIG RMK PP000=
SPZO Nov2012-122100Z 02013KT 330V060 9999 SCT050 BKN100 19/02 Q1028 NOSIG RMK PP000=
SPZO Nov2012-122200Z 03011KT 350V090 9999 SCT050 BKN100 17/02 Q1028 NOSIG RMK T MAX 20.2 PP000=
SPZO Nov2012-122300Z 03014G26KT 9999 FEW050 BKN100 15/03 Q1029 NOSIG RMK PP000=
SPZO Nov2012-130000Z VRB07KT 9999 FEW050 SCT100 14/04 Q1030 RMK PP00=
SPZO Nov2012-130100Z 06006KT 9999 FEW050 BKN100 14/03 Q1032 RMK PP000=
SPZO Nov2012-130200Z VRB04KT 9999 SCT043 SCT080 13/04 Q1032 RMK PP000=
SPZO Nov2012-130300Z 00000KT 9999 FEW040 SCT050 13/04 Q1032 RMK PP000=
SPZO Nov2012-130400Z 09004KT 9999 SCT040 SCT060 12/04 Q1032 RMK PP000=
SPZO Nov2012-130500Z 00000KT 9999 BKN050 11/04 Q1031 RMK PP000=
SPZO Nov2012-130600Z 00000KT 9999 SCT050 10/04 Q1031 RMK PP000=
SPZO Nov2012-130700Z 00000KT 9999 SCT050 09/04 Q1031 RMK PP000=
SPZO Nov2012-130800Z 00000KT 9999 SCT050 SCT080 09/04 Q1031 RMK PP000=
SPZO Nov2012-130900Z 00000KT 9999 SCT043 SCT060 09/04 Q1031 RMK PP000=
SPZO Nov2012-131000Z 00000KT 9999 FEW033 BKN050 09/04 Q1032 RMK PP000=
SPZO Nov2012-131100Z 10003KT 9999 FEW036 BKN060 10/05 Q1032 TEMPO FEW020 BKN040 RMK PP000=
SPZO Nov2012-131200Z 00000KT 9999 FEW036 SCT046 11/05 Q1033 TEMPO FEW020 BKN040 RMK PP000=
SPZO Nov2012-131300Z 08003KT 010V150 9999 SCT040 BKN060 13/05 Q1033 NOSIG RMK PP000=
SPZO Nov2012-131400Z VRB03KT 9999 FEW040 SCT070 16/04 Q1033 NOSIG RMK PP000=
SPZO Nov2012-131500Z VRB03KT 9999 SCT046 SCT070 19/04 Q1032 NOSIG RMK PP000=
SPZO Nov2012-131600Z VRB06KT 9999 SCT050 20/03 Q1031 NOSIG RMK PP000=
SPZO Nov2012-131700Z VRB05KT 9999 SCT050 SCT080 21/01 Q1029 TEMPO VCSH FEW036TCU SCT080 RMK PP000=
SPZO Nov2012-131800Z VRB05KT 9999 FEW040TCU SCT080 22/01 Q1028 TEMPO -RA RMK PP000=
SPZO Nov2012-131900Z 11006KT 9999 FEW040TCU BKN080 21/01 Q1026 TEMPO -RA RMK PP000=
SPZO Nov2012-132000Z 03011KT 9999 VCSH FEW040TCU BKN080 22/04 Q1026 NOSIG RMK PP000=
SPZO Nov2012-132100Z 03010KT 9999 FEW100 20/03 Q1025 NOSIG RMK PP000=
SPZO Nov2012-132200Z 03012KT 9999 FEW230 20/04 Q1025 NOSIG RMK T MAX 23.3 PP000=
SPZO Nov2012-132300Z 03014KT 9999 FEW060 19/04 Q1026 NOSIG RMK PP000=
SPZO Nov2012-140000Z VRB04KT 9999 FEW050 16/03 Q1028 RMK PP000=
SPZO Nov2012-140100Z VRB02KT 9999 -RA SCT050 16/04 Q1029 RMK PPTRZ=
SPZO Nov2012-140200Z 10002KT 9999 SCT050 15/05 Q1030 RMK PP000=
SPZO Nov2012-140300Z 10008KT 9999 -RA BKN046 13/07 Q1031 RMK PPTRZ=
SPZO Nov2012-140400Z 11011KT 9999 -RA FEW036 BKN046 11/08 Q1032 RMK PP012=
SPZO Nov2012-140500Z 31003KT 9999 FEW036 SCT046 BKN070 11/08 Q1032 RMK PP004=
SPZO Nov2012-140600Z VRB02KT 9999 FEW036 SCT046 BKN070 12/07 Q1030 RMK PP000=
SPZO Nov2012-140700Z 28006KT 9999 FEW036 SCT046 BKN070 10/07 Q1030 RMK PP000=
SPZO Nov2012-140800Z 27003KT 9999 FEW036 SCT046 BKN080 11/07 Q1030 RMK PP000=
SPZO Nov2012-140900Z 10004KT 9999 FEW030 SCT046 BKN080 10/08 Q1030 RMK PP000=
SPZO Nov2012-141000Z 27003KT 9999 FEW030 SCT046 BKN080 10/07 Q1030 RMK PP000=
SPZO Nov2012-141100Z 10004KT 080V140 9999 FEW030 SCT080 09/07 Q1031 NOSIG RMK 8000 NE HZ PP000=
SPZO Nov2012-141200Z VRB01KT 9999 FEW030 BKN080 11/08 Q1032 NOSIG RMK 8000E HZ E PP000=
SPZO Nov2012-141300Z 00000KT 9999 SCT060 SCT230 13/08 Q1032 NOSIG RMK PP000=
SPZO Nov2012-141400Z VRB02KT 9999 SCT040 SCT230 17/07 Q1032 NOSIG RMK PP000=
SPZO Nov2012-141500Z VRB03KT 9999 SCT040 SCT230 19/05 Q1031 NOSIG RMK PP000=
SPZO Nov2012-141600Z VRB04KT 9999 SCT050 SCT230 22/02 Q1030 NOSIG RMK PP000=
SPZO Nov2012-141700Z 12005KT 9999 SCT050 SCT230 22/03 Q1029 NOSIG RMK PP000=
SPZO Nov2012-141800Z 05011KT 350V090 9999 SCT050 SCT150 23/00 Q1027 TEMPO 01014KT VCSH FEW036TCU SCT100 RMK PP000=
SPZO Nov2012-141900Z VRB06KT 9999 SCT046 SCT150 24/01 Q1025 TEMPO 01014KT VCSH FEW036TCU SCT100 RMK PP000=
SPZO Nov2012-142000Z 02008KT 330V070 9999 FEW040 SCT060 24/00 Q1024 NOSIG RMK PP000=
SPZO Nov2012-142100Z 03011KT 350V060 9999 FEW040 SCT060 22/01 Q1023 NOSIG RMK PP000=
SPZO Nov2012-142200Z 04014KT 360V070 9999 SCT050 BKN230 19/01 Q1024 NOSIG RMK TMAX 24.5 PP000=
SPZO Nov2012-142300Z VRB04KT 9999 FEW050 BKN230 18/02 Q1026 NOSIG RMK PP000=
SPZO Nov2012-150000Z 03004KT 330V090 9999 SCT050 17/02 Q1028 RMK PP000=
SPZO Nov2012-150100Z VRB05KT 9999 -DZ SCT050 SCT060 16/04 Q1030 RMK PPTRZ=
SPZO Nov2012-150200Z 09010KT 060V130 9000 -RA SCT050 BKN060 10/07 Q1033 RMK PP014=
SPZO Nov2012-150300Z 29004KT 9000 -RA SCT036 BKN050 10/07 Q1034 RMK PP034=
SPZO Nov2012-150400Z 00000KT 9000 -RA SCT036 BKN050 10/07 Q1033 RMK PP024=
SPZO Nov2012-150500Z VRB01KT 9000 -RA FEW030 SCT036 BKN050 10/06 Q1032 RMK PP004=
SPZO Nov2012-150600Z 00000KT 9000 -RA FEW030 SCT036 BKN050 10/06 Q1031 RMK PP004=
SPZO Nov2012-150700Z 31009KT 9999 SCT036 BKN060 10/06 Q1030 RERA RMK PPTRZ=
SPZO Nov2012-150800Z 32006KT 9999 FEW030 SCT040 BKN060 10/06 Q1030 RMK PP000=
SPZO Nov2012-150900Z 22003KT 200V270 9999 SCT040 BKN060 11/05 Q1030 RMK PP000=
SPZO Nov2012-151000Z 12004KT 9999 SCT036 BKN060 10/07 Q1030 RMK PP000=
SPZO Nov2012-151100Z 12004KT 080V150 9999 FEW030 SCT040 BKN080 10/06 Q1030 NOSIG RMK PP000=
SPZO Nov2012-151200Z 00000KT 9999 FEW025 SCT040 OVC070 11/06 Q1031 NOSIG RMK PP000=
SPZO Nov2012-151300Z 00000KT 9999 FEW015 SCT040 BKN070 13/06 Q1032 NOSIG RMK VIS 9000 NE HZ PP000=
SPZO Nov2012-151400Z VRB03KT 9999 FEW020 SCT040 BKN070 14/05 Q1032 NOSIG RMK PP000=
SPZO Nov2012-151500Z 06009KT 030V090 9999 FEW025 SCT040 BKN060 15/06 Q1031 NOSIG RMK PP000=
SPZO Nov2012-151600Z 36010KT 320V100 9999 SCT040 BKN060 16/04 Q1031 TEMPO SCT040 SCT200 RMK PP000=
SPZO Nov2012-151700Z VRB04KT 9999 SCT043 SCT080 17/05 Q1029 NOSIG RMK PP000=
SPZO Nov2012-151800Z VRB04KT 9999 SCT046 SCT100 19/06 Q1028 NOSIG RMK PP000=
SPZO Nov2012-151900Z VRB05KT 9999 SCT050 SCT230 20/04 Q1026 NOSIG RMK PP000=
SPZO Nov2012-152000Z 33007KT 270V030 9999 SCT050 SCT230 21/04 Q1024 NOSIG RMK PP000=
SPZO Nov2012-152100Z 11019G33KT 9999 VCSH FEW040TCU SCT050 BKN080 19/03 Q1024 TEMPO -RA VCSH SCT040TCU BKN080 RMK PP000=
SPZO Nov2012-152200Z 11016KT 9999 FEW040TCU SCT050 BKN100 17/01 Q1025 NOSIG RMK T.MAX 21.5 PP000=
SPZO Nov2012-152300Z VRB03KT 9999 FEW040TCU SCT050 BKN100 16/02 Q1025 NOSIG RMK PP000=
SPZO Nov2012-160000Z VRB03KT 9999 SCT040TCU BKN080 16/02 Q1025 RMK PP000=
SPZO Nov2012-160100Z 13005KT 9999 SKC 16/03 Q1027 RMK PP000=
SPZO Nov2012-160200Z 00000KT 9999 SKC 14/04 Q1029 RMK PP000=
SPZO Nov2012-160300Z 00000KT 9999 SKC 14/05 Q1029 RMK PP000=
SPZO Nov2012-160400Z 00000KT 9999 SKC 12/05 Q1029 RMK PP000=
SPZO Nov2012-160500Z 00000KT 9999 SKC 12/06 Q1030 RMK PP000=
SPZO Nov2012-160600Z 00000KT 9999 SKC 12/05 Q1029 RMK PP000=
SPZO Nov2012-160700Z 00000KT 9999 SKC 11/06 Q1029 RMK PP000=
SPZO Nov2012-160800Z 00000KT 9999 SCT060 11/05 Q1029 RMK PP000=
SPZO Nov2012-160900Z 00000KT 9999 SKC 11/05 Q1029 RMK PP000=
SPZO Nov2012-161000Z 00000KT 9999 FEW030 10/05 Q1029 RMK PP000=
SPZO Nov2012-161100Z 00000KT 9999 FEW230 10/05 Q1029 NOSIG RMK PP000=
SPZO Nov2012-161200Z VRB03KT 9999 BKN230 13/05 Q1030 NOSIG RMK PP000=
SPZO Nov2012-161300Z VRB02KT 9999 FEW050 SCT230 15/05 Q1030 NOSIG RMK PP000=
SPZO Nov2012-161400Z VRB03KT 9999 SCT050 SCT230 18/04 Q1030 NOSIG RMK PP000=
SPZO Nov2012-161500Z VRB04KT 9999 FEW040 SCT050 BKN080 19/03 Q1029 NOSIG RMK PP000=
SPZO Nov2012-161600Z 34007KT 9999 FEW040TCU SCT050 BKN080 19/02 Q1028 TEMPO -RA RMK PP000=
SPZO Nov2012-161700Z 29017KT 9999 FEW043 SCT050 BKN230 20/02 Q1027 NOSIG RMK PP000=
SPZO Nov2012-161800Z 28016KT 9999 FEW040TCU SCT050 SCT100 19/04 Q1027 NOSIG RMK PP000=
SPZO Nov2012-161900Z 22012G25KT 140V290 9999 FEW040TCU SCT050 SCT200 19/03 Q1027 TEMPO VCSH SCT040TCU BKN100 RMK PP000=
SPZO Nov2012-162000Z 31012KT 9999 TSRA FEW030 SCT043CB BKN080 13/08 Q1027 NOSIG RMK PP008=
SPZO Nov2012-162100Z 35005KT 9999 FEW036 SCT060 BKN080 14/05 Q1026 NOSIG RMK PP000=
SPZO Nov2012-162200Z 30009KT 9999 FEW036 SCT050 BKN100 14/06 Q1027 NOSIG RMK TMAX 20.4 PP000=
SPZO Nov2012-162300Z 28009KT 9999 SCT050 OVC100 13/05 Q1028 NOSIG RMK PP000=
SPZO Nov2012-170000Z 28008KT 9999 SCT040 BKN060 14/05 Q1029 RMK PP000=
SPZO Nov2012-170100Z 28008KT 330V080 9999 SCT040 BKN060 14/04 Q1030 RMK PP000=
SPZO Nov2012-170200Z 01010KT 330V060 9999 FEW050 BKN080 13/04 Q1031 RMK PP000=
SPZO Nov2012-170300Z 03006KT 340V120 9999 FEW040 SCT050 BKN080 12/04 Q1032 RMK PP000=
SPZO Nov2012-170400Z VRB01KT 9000 -RA FEW040 SCT050 BKN080 10/06 Q1033 RMK PP014=
SPZO Nov2012-170500Z 13010KT 9999 -RA FEW036 SCT040 BKN060 09/04 Q1033 RMK PP022=
SPZO Nov2012-170600Z 32005KT 290V350 9999 -RA FEW036 SCT040 BKN060 08/04 Q1032 RMK PP004=
SPZO Nov2012-170700Z 30004KT 270V330 9999 FEW030 SCT040 BKN060 08/04 Q1032 RMK PP002=
SPZO Nov2012-170800Z VRB02KT 9999 FEW030 SCT040 BKN060 09/04 Q1032 RMK PP000=
SPZO Nov2012-170900Z 28004KT 260V330 9999 FEW030 SCT040 BKN060 08/04 Q1032 RMK PP000=
SPZO Nov2012-171000Z 00000KT 9999 FEW030 SCT040 BKN100 08/04 Q1032 RMK PP000=
SPZO Nov2012-171100Z VRB02KT 9999 FEW036 SCT043 BKN100 09/04 Q1033 NOSIG RMK PP000=
SPZO Nov2012-171200Z VRB01KT 9999 FEW036 BKN100 10/05 Q1033 NOSIG RMK PP000=
SPZO Nov2012-171300Z VRB01KT 9999 FEW030 OVC100 11/05 Q1034 NOSIG RMK PP000=
SPZO Nov2012-171400Z VRB01KT 9999 FEW030 OVC100 13/04 Q1034 NOSIG RMK PP000=
SPZO Nov2012-171500Z VRB02KT 9999 FEW030 OVC100 14/05 Q1033 NOSIG RMK PP000=
SPZO Nov2012-171600Z VRB01KT 9999 SCT040 BKN200 16/06 Q1032 BECMG FM1630 34006KT FEW050 SCT230 RMK PP000=
SPZO Nov2012-171700Z 01012KT 350V060 9999 SCT040 BKN100 17/04 Q1031 TEMPO 32008KT RMK PP000=
SPZO Nov2012-171800Z 36009KT 9999 FEW040TCU BKN100 19/05 Q1029 TEMPO VCSH RMK PP000=
SPZO Nov2012-171900Z 27010KT 9999 SCT040 SCT100 18/05 Q1028 TEMPO VCSH RMK PP000=
SPZO Nov2012-172000Z 30011KT 9999 FEW040TCU SCT060 BKN100 18/04 Q1026 TEMPO -RA RMK PP000=
SPZO Nov2012-172100Z 29012KT 9999 FEW040TCU SCT100 BKN230 18/04 Q1026 TEMPO VCSH RMK PP000=
SPZO Nov2012-172200Z 36006KT 9999 FEW040TCU SCT100 BKN230 18/04 Q1027 TEMPO VCSH RMK TMAX 20.7 PP000=
SPZO Nov2012-172300Z 34005KT 9999 VCSH FEW040TCU SCT100 BKN230 15/06 Q1028 NOSIG RMK PP010=
SPZO Nov2012-180000Z 12012KT 9999 BKN043 SCT050 11/08 Q1030 RMK PP000=
SPZO Nov2012-180100Z 11007KT 9999 BKN040 SCT050 11/07 Q1032 RMK PP000=
SPZO Nov2012-180200Z 14003KT 9999 -RA SCT036 BKN043 10/07 Q1033 RMK PP008=
SPZO Nov2012-180300Z 10004KT 8000 -RA OVC040 10/08 Q1034 RMK PP018=
SPZO Nov2012-180500Z 28005KT 9999 -RA SCT033 BKN040 08/04 Q1034 RMK PP014=
SPZO Nov2012-180600Z 26005KT 9000 -RA OVC040 08/05 Q1033 RMK PP018=
SPZO Nov2012-180700Z 00000KT 9999 -RA SCT036 BKN043 07/04 Q1033 RMK PP034=
SPZO Nov2012-180800Z 00000KT 9999 SCT033 BKN043 07/04 Q1032 RMK PP004=
SPZO Nov2012-180900Z 27005KT 9999 SCT033 BKN040 08/04 Q1031 RMK PP000=
SPZO Nov2012-181000Z 30004KT 9999 SCT030 BKN043 08/04 Q1031 RMK PP000=
SPZO Nov2012-181100Z 00000KT 9999 FEW036 SCT043 BKN080 08/04 Q1032 NOSIG RMK PP000=
SPZO Nov2012-181200Z VRB03KT 9999 SCT040 BKN100 09/04 Q1033 NOSIG RMK PP000=
SPZO Nov2012-181300Z VRB01KT 9999 SCT040 BKN100 10/04 Q1033 NOSIG RMK PP000=
SPZO Nov2012-181400Z VRB02KT 9999 SCT040 SCT100 13/04 Q1033 NOSIG RMK PP000=
SPZO Nov2012-181500Z VRB02KT 9999 SCT060 BKN100 14/03 Q1033 NOSIG RMK PP000=
SPZO Nov2012-181600Z VRB02KT 9999 SCT060 BKN230 16/04 Q1032 NOSIG RMK PP000=
SPZO Nov2012-181700Z 07006KT 9999 SCT060 BKN230 18/04 Q1030 NOSIG RMK PP000=
SPZO Nov2012-181800Z 06005KT 9999 SCT060 BKN230 19/05 Q1029 NOSIG RMK PP000=
SPZO Nov2012-181900Z VRB07KT 9999 SCT050 BKN230 19/05 Q1028 NOSIG RMK PP000=
SPZO Nov2012-182000Z VRB02KT 9999 SCT050 SCT230 20/04 Q1026 NOSIG RMK PP000=
SPZO Nov2012-182100Z VRB03KT 9999 SCT050 SCT230 21/03 Q1025 NOSIG RMK PP000=
SPZO Nov2012-182200Z 10008KT 9999 SCT050 18/04 Q1025 NOSIG RMK PP000=
SPZO Nov2012-182300Z 10005KT 9999 SCT050 16/06 Q1026 NOSIG RMK PP000=
SPZO Nov2012-190000Z 23011KT 9999 BKN050 15/04 Q1029 RMK PP000=
SPZO Nov2012-190100Z 32006KT 9999 TSRA FEW036 SCT046CB BKN070 10/07 Q1031 RMK PP090=
SPZO Nov2012-190200Z VRB02KT 9999 RA FEW036 SCT040 BKN070 10/07 Q1032 RMK PP028=
SPZO Nov2012-190300Z 27005KT 9999 RA FEW036 SCT040 BKN070 10/06 Q1033 RMK PP052=
SPZO Nov2012-190400Z 27005KT 9999 FEW036 SCT043 BKN070 09/07 Q1033 RMK PP006=
SPZO Nov2012-190500Z 13005KT 9999 FEW030 SCT043 BKN080 10/07 Q1032 RMK PP000=
SPZO Nov2012-190600Z 11005KT 9999 FEW030 SCT046 BKN080 09/06 Q1032 RMK PP000=
SPZO Nov2012-190700Z 11005KT 9999 RA FEW030 SCT046 BKN080 09/06 Q1032 RMK PP012=
SPZO Nov2012-190800Z VRB01KT 9999 -RA FEW015 SCT036 BKN060 08/07 Q1032 RMK PP018=
SPZO Nov2012-190900Z 28005KT 9000 RA FEW020 SCT036 BKN060 08/06 Q1031 RMK CLNG BLW 1200M PP030=
SPZO Nov2012-191000Z VRB03KT 9999 FEW020 SCT040 OVC060 08/06 Q1031 RERA RMK PP004=
SPZO Nov2012-191100Z VRB02KT 9999 FEW025 SCT060 BKN100 09/06 Q1031 NOSIG RMK PP000=
SPZO Nov2012-191200Z VRB01KT 9999 SCT025 SCT050 BKN230 10/06 Q1032 NOSIG RMK PP000=
SPZO Nov2012-191300Z VRB03KT 9999 SCT030 SCT070 BKN230 12/06 Q1032 NOSIG RMK PP000=
SPZO Nov2012-191400Z VRB03KT 9999 SCT040 BKN100 14/07 Q1032 NOSIG RMK PP000=
SPZO Nov2012-191500Z VRB02KT 9999 FEW040 SCT230 16/07 Q1031 NOSIG RMK PP000=
SPZO Nov2012-191600Z VRB02KT 9999 SCT050 BKN230 17/04 Q1030 TEMPO VCSH RMK PP000=
SPZO Nov2012-191700Z 27007KT 9999 SCT050 BKN100 19/06 Q1029 TEMPO VCSH RMK PP000=
SPZO Nov2012-191800Z 26009KT 180V300 9999 SCT050 SCT230 19/05 Q1028 NOSIG RMK PP000=
SPZO Nov2012-191900Z 31009KT 9999 SCT050 20/06 Q1026 NOSIG RMK PP000=
SPZO Nov2012-192000Z VRB07KT 9999 SCT050 21/05 Q1025 NOSIG RMK PP000=
SPZO Nov2012-192100Z VRB04KT 9999 FEW040 SCT050 21/03 Q1024 NOSIG RMK PP000=
SPZO Nov2012-192200Z 11009KT 9999 FEW040 SCT050 19/07 Q1024 NOSIG RMK T.MAX 21.9 PP000=
SPZO Nov2012-192300Z 11007KT 9999 FEW040 SCT050 17/06 Q1025 NOSIG RMK PP000=
SPZO Nov2012-200000Z 21006KT 9999 SCT060 BKN100 17/05 Q1026 RMK PP000=
SPZO Nov2012-200100Z VRB03KT 9999 SCT040CB BKN060 10/06 Q1030 RMK PP000=
SPZO Nov2012-200200Z VRB03KT 9999 SCT040 BKN070 09/07 Q1031 RMK PP000=
SPZO Nov2012-200300Z 00000KT 9999 SCT040 BKN080 10/07 Q1032 RMK PP000=
SPZO Nov2012-200400Z 00000KT 9999 -RA SCT040 BKN080 10/07 Q1032 RMK PP000=
SPZO Nov2012-200500Z 00000KT 9999 -RA SCT030 BKN050 10/08 Q1030 RMK PP004=
SPZO Nov2012-200600Z 00000KT 9999 FEW025 SCT036 BKN060 10/07 Q1030 RERA RMK PPTRZ=
SPZO Nov2012-200700Z VRB02KT 9999 FEW020 SCT036 BKN060 10/08 Q1029 RMK PP000=
SPZO Nov2012-200800Z 15003KT 9999 FEW020 SCT036 BKN060 10/07 Q1029 RMK PP000=
SPZO Nov2012-200900Z 11005KT 9999 FEW020 SCT036 BKN050 09/07 Q1029 RMK CLNG BLW 1200M PP000=
SPZO Nov2012-201000Z 10003KT 9999 FEW020 SCT036 BKN050 09/07 Q1029 RMK CLNG BLW 1200M PP000=
SPZO Nov2012-201100Z 11003KT 9999 FEW015 SCT036 OVC050 10/07 Q1030 NOSIG RMK PP000=
SPZO Nov2012-201200Z 00000KT 9999 FEW015 SCT036 OVC053 10/07 Q1031 NOSIG RMK PP000=
SPZO Nov2012-201300Z 00000KT 9999 FEW015 SCT040 OVC060 12/07 Q1031 NOSIG RMK PP000=
SPZO Nov2012-201400Z VRB01KT 9999 FEW020 SCT040 BKN060 13/07 Q1031 NOSIG RMK PP000=
SPZO Nov2012-201500Z 05004KT 360V130 9999 SCT040 BKN080 16/05 Q1031 NOSIG RMK PP000=
SPZO Nov2012-201600Z VRB03KT 9999 SCT040 SCT080 BKN200 17/05 Q1030 NOSIG RMK PP000=
SPZO Nov2012-201700Z 06005KT 350V110 9999 SCT043 SCT080 BKN200 18/06 Q1029 NOSIG RMK PP000=
SPZO Nov2012-201800Z VRB03KT 9999 VCSH SCT040TCU SCT080 BKN230 18/05 Q1028 NOSIG RMK PP000=
SPZO Nov2012-201900Z 24007KT 180V300 9999 FEW043 SCT080 BKN230 17/06 Q1026 NOSIG RMK PP000=
SPZO Nov2012-202000Z VRB06KT 9999 SCT050 SCT230 19/04 Q1025 NOSIG RMK PP000=
SPZO Nov2012-202100Z VRB02KT 9999 FEW040TCU SCT050 BKN230 18/04 Q1025 NOSIG RMK PP000=
SPZO Nov2012-202200Z 09006KT 9999 SCT043TCU SCT050 BKN080 17/06 Q1025 TEMPO -RA RMK T.MAX 20.0 PP000=
SPZO Nov2012-202300Z 30006KT 9999 FEW040TCU SCT050 BKN080 16/06 Q1026 NOSIG RMK PP000=
SPZO Nov2012-210000Z 07004KT 9999 SCT040 BKN080 15/05 Q1026 RMK PP000=
SPZO Nov2012-210100Z 08005KT 9999 SCT060 BKN080 14/07 Q1028 RMK PP000=
SPZO Nov2012-210200Z 00000KT 9999 SCT060 12/07 Q1029 RMK PP000=
SPZO Nov2012-210300Z 00000KT 9999 SCT060 12/07 Q1030 RMK PP000=
SPZO Nov2012-210400Z 00000KT 9999 SCT060 BKN100 12/07 Q1030 RMK PP000=
SPZO Nov2012-210500Z 00000KT 9999 RA SCT030 BKN060 11/06 Q1030 RMK PP004=
SPZO Nov2012-210600Z 00000KT 9999 RA SCT030 BKN050 08/05 Q1031 RMK PP066=
SPZO Nov2012-210700Z 00000KT 9999 RA SCT030 BKN050 08/05 Q1031 RMK PP060=
SPZO Nov2012-210800Z 00000KT 9999 RA SCT030 BKN050 07/05 Q1031 RMK PP022=
SPZO Nov2012-210900Z 00000KT 9999 -RA SCT030 BKN050 06/04 Q1030 RMK PP004=
SPZO Nov2012-211000Z 00000KT 9999 SCT020 BKN036 07/04 Q1030 RMK CLNG BLW 1200M PPTRZ=
SPZO Nov2012-211100Z 00000KT 9999 SCT020 SCT060 BKN080 07/04 Q1031 NOSIG RMK PP000=
SPZO Nov2012-211200Z 00000KT 9999 FEW020 SCT050 BKN080 08/04 Q1031 NOSIG RMK PP000=
SPZO Nov2012-211300Z 00000KT 9999 FEW025 SCT050 BKN080 10/04 Q1032 NOSIG RMK PP000=
SPZO Nov2012-211400Z 11004KT 040V190 9999 FEW030 OVC080 11/05 Q1032 NOSIG RMK PP000=
SPZO Nov2012-211500Z VRB02KT 9999 FEW036 OVC080 12/04 Q1032 NOSIG RMK PP000=
SPZO Nov2012-211600Z 00000KT 9999 FEW040 OVC100 15/05 Q1031 NOSIG RMK PP000=
SPZO Nov2012-211700Z VRB04KT 9999 FEW050 BKN230 17/05 Q1030 NOSIG RMK PP000=
SPZO Nov2012-211800Z VRB05KT 9999 FEW046 BKN230 19/05 Q1028 NOSIG RMK PP000=
SPZO Nov2012-211900Z 03005KT 9999 SCT046 BKN230 19/05 Q1027 NOSIG RMK PP000=
SPZO Nov2012-212000Z VRB05KT 9999 SCT046 BKN230 21/06 Q1025 NOSIG RMK PP000=
SPZO Nov2012-212100Z VRB03KT 9999 FEW050 SCT230 20/04 Q1024 NOSIG RMK PP000=
SPZO Nov2012-212200Z 30013KT 270V330 9999 FEW050 SCT100 19/04 Q1025 NOSIG RMK TMAX 20.8 PP000=
SPZO Nov2012-212300Z 30010KT 9999 BKN100 17/03 Q1025 NOSIG RMK PP000=
SPZO Nov2012-220000Z 29008KT 9999 BKN080 16/02 Q1026 RMK PP000=
SPZO Nov2012-220100Z VRB01KT 9999 SCT050 SCT080 15/02 Q1027 RMK PP000=
SPZO Nov2012-220200Z VRB02KT 9999 SCT050 SCT080 14/06 Q1028 RMK PP000=
SPZO Nov2012-220300Z 13004KT 100V160 9999 SCT050 SCT080 13/06 Q1029 RMK PP000=
SPZO Nov2012-220400Z 00000KT 9999 SCT043 BKN070 11/07 Q1029 RMK PP000=
SPZO Nov2012-220500Z VRB02KT 9999 SCT043 BKN070 12/07 Q1029 RMK PP000=
SPZO Nov2012-220600Z 27006KT 9999 FEW040 BKN070 12/06 Q1029 RMK PP000=
SPZO Nov2012-220700Z 27006KT 9999 SCT050 12/07 Q1028 RMK PP000=
SPZO Nov2012-220800Z 10004KT 9999 SCT050 10/07 Q1028 RMK PP000=
SPZO Nov2012-220900Z 27004KT 240V300 9999 SCT050 10/06 Q1028 RMK PP000=
SPZO Nov2012-221000Z VRB02KT 9999 FEW025 SCT040 BKN070 11/06 Q1029 RMK PP000=
SPZO Nov2012-221100Z 00000KT 9999 FEW025 SCT040 BKN100 11/07 Q1030 NOSIG RMK VIS 9000 E HZ PP000=
SPZO Nov2012-221200Z VRB02KT 9999 SCT040 SCT080 13/07 Q1030 NOSIG RMK VIS 9000E HZ PP000=
SPZO Nov2012-221300Z VRB03KT 9999 SCT040 SCT080 15/06 Q1031 NOSIG RMK VIS 9000E HZ PP000=
SPZO Nov2012-221400Z VRB03KT 9999 SCT050 17/05 Q1031 NOSIG RMK PP000=
SPZO Nov2012-221500Z 35005KT 9999 SCT050 19/04 Q1030 NOSIG RMK PP000=
SPZO Nov2012-221600Z VRB05KT 9999 SCT050 20/03 Q1029 NOSIG RMK PP000=
SPZO Nov2012-221700Z VRB04KT 9999 SCT050 22/02 Q1028 NOSIG RMK PP000=
SPZO Nov2012-221800Z 24008KT 180V290 9999 SCT050 23/02 Q1026 NOSIG RMK PP000=
SPZO Nov2012-221900Z 25008KT 170V320 9999 SCT050 SCT100 23/02 Q1025 NOSIG RMK PP000=
SPZO Nov2012-222000Z VRB05KT 9999 SCT050 SCT100 22/03 Q1024 NOSIG RMK PP000=
SPZO Nov2012-222100Z 32012G22KT 270V360 9999 SCT060 23/02 Q1023 NOSIG RMK PP000=
SPZO Nov2012-222200Z 31013KT 270V360 9999 FEW060 22/01 Q1023 NOSIG RMK T MAX 23.2 PP000=
SPZO Nov2012-222300Z 30012KT 9999 FEW050 20/00 Q1024 NOSIG RMK PP000=
SPZO Nov2012-230000Z 31005KT 9999 SKC 17/04 Q1025 RMK PP000=
SPZO Nov2012-230100Z 29007KT 9999 SKC 16/06 Q1027 RMK PP000=
SPZO Nov2012-230200Z VRB02KT 9999 SKC 15/07 Q1029 RMK PP000=
SPZO Nov2012-230300Z 00000KT 9999 FEW050 15/06 Q1029 RMK PP000=
SPZO Nov2012-230400Z 00000KT 9999 FEW050 15/05 Q1030 RMK PP000=
SPZO Nov2012-230500Z 00000KT 9999 FEW050 13/05 Q1030 RMK PP000=
SPZO Nov2012-230600Z 29007KT 9999 FEW050 SCT100 10/04 Q1028 RMK PP000=
SPZO Nov2012-230700Z 00000KT 9999 SCT050 11/05 Q1028 RMK PP000=
SPZO Nov2012-230800Z 00000KT 9999 SCT060 09/05 Q1028 RMK PP000=
SPZO Nov2012-230900Z 00000KT 9999 FEW050 SCT100 08/04 Q1029 RMK PP000=
SPZO Nov2012-231000Z 00000KT 9999 FEW043 BKN230 08/04 Q1029 RMK PP000=
SPZO Nov2012-231100Z 00000KT 9999 FEW050 SCT230 09/06 Q1030 NOSIG RMK PP000=
SPZO Nov2012-231200Z 00000KT 9999 FEW043 SCT230 14/06 Q1030 NOSIG RMK PP000=
SPZO Nov2012-231300Z VRB02KT 9999 SCT043 SCT230 16/06 Q1030 NOSIG RMK PP000=
SPZO Nov2012-231400Z VRB03KT 9999 SCT046 SCT230 18/06 Q1030 NOSIG RMK PP000=
SPZO Nov2012-231500Z VRB04KT 9999 SCT050 SCT230 20/04 Q1030 NOSIG RMK PP000=
SPZO Nov2012-231600Z 33005KT 250V030 9999 SCT050 SCT230 21/02 Q1029 NOSIG RMK PP000=
SPZO Nov2012-231700Z 31008KT 250V010 9999 SCT050 SCT100 22/02 Q1027 NOSIG RMK PP000=
SPZO Nov2012-231800Z 25008KT 180V290 9999 SCT050 SCT100 21/01 Q1026 NOSIG RMK PP000=
SPZO Nov2012-231900Z 02010KT 330V060 9999 SCT050 BKN100 20/03 Q1025 TEMPO -RA RMK PP000=
SPZO Nov2012-232000Z VRB02KT 9999 SCT046 BKN100 20/02 Q1024 NOSIG RMK -SHRA BTN 1910/1920 PP004=
SPZO Nov2012-232100Z 03009KT 320V070 9999 SCT050 BKN100 20/03 Q1024 NOSIG RMK PP000=
SPZO Nov2012-232200Z 27009KT 240V300 9999 FEW050 BKN100 19/04 Q1024 NOSIG RMK T MAX 23.00 PP000=
SPZO Nov2012-232300Z 28010KT 240V300 9999 BKN100 17/03 Q1025 NOSIG RMK PP000=
SPZO Nov2012-240000Z 10010KT 9999 BKN150 15/06 Q1026 RMK PP000=
SPZO Nov2012-240100Z 09003KT 9999 BKN150 14/06 Q1028 RMK PP000=
SPZO Nov2012-240200Z 28003KT 9999 SCT100 12/06 Q1029 RMK PP000=
SPZO Nov2012-240300Z 28003KT 9999 FEW080 11/06 Q1029 RMK PP000=
SPZO Nov2012-240400Z 27003KT 9999 SKC 11/07 Q1030 RMK PP000=
SPZO Nov2012-240500Z 25001KT 9999 FEW050 10/06 Q1029 RMK PP000=
SPZO Nov2012-240600Z VRB01KT 9999 FEW050 09/06 Q1029 RMK PP000=
SPZO Nov2012-240700Z 27005KT 9999 FEW050 08/06 Q1028 RMK PP000=
SPZO Nov2012-240800Z 00000KT 9999 SCT050 09/06 Q1028 RMK PP000=
SPZO Nov2012-240900Z 09004KT 9999 SCT050 09/06 Q1029 RMK PP000=
SPZO Nov2012-241000Z VRB01KT 9999 BKN080 08/05 Q1029 RMK PP000=
SPZO Nov2012-241100Z VRB02KT 9999 FEW030 SCT080 08/05 Q1030 NOSIG RMK HZ NE PP000=
SPZO Nov2012-241200Z 00000KT 9999 FEW030 SCT043 SCT100 11/06 Q1031 NOSIG RMK VIS 8000 E HZ PP000=
SPZO Nov2012-241300Z VRB03KT 9999 SCT040 SCT100 14/06 Q1032 NOSIG RMK VIS 9000 E HZ PP000=
SPZO Nov2012-241400Z VRB04KT 9999 SCT040 SCT100 15/07 Q1032 NOSIG RMK PP000=
SPZO Nov2012-241500Z VRB06KT 9999 SCT043 SCT100 18/07 Q1031 NOSIG RMK PP000=
SPZO Nov2012-241600Z VRB05KT 9999 SCT046 BKN100 19/05 Q1030 NOSIG RMK PP000=
SPZO Nov2012-241700Z VRB03KT 9999 SCT050 BKN100 20/02 Q1029 NOSIG RMK PP000=
SPZO Nov2012-241800Z VRB03KT 9999 SCT050 BKN200 21/04 Q1028 NOSIG RMK PP000=
SPZO Nov2012-241900Z 02008KT 360V060 9999 SCT040TCU SCT050 BKN100 22/01 Q1026 NOSIG RMK PP000=
SPZO Nov2012-242000Z 31003KT 270V330 9999 BKN046 FEW050TCU SCT100 18/04 Q1026 NOSIG RMK PP000=
SPZO Nov2012-242100Z 09011KT 9999 VCSH BKN043 SCT080 17/07 Q1027 NOSIG RMK PP000=
SPZO Nov2012-242200Z VRB04KT 9999 SCT043 BKN080 18/04 Q1026 NOSIG RMK TMAX 21.8 PP000=
SPZO Nov2012-242300Z 11009KT 9999 FEW043 BKN080 17/04 Q1026 NOSIG RMK PP000=
SPZO Nov2012-250000Z 06005KT 9999 SCT050 BKN200 15/05 Q1027 RMK PP000=
SPZO Nov2012-250100Z 10006KT 9999 SCT050 BKN200 13/06 Q1028 RMK PP000=
SPZO Nov2012-250200Z 00000KT 9999 SCT060 12/05 Q1029 RMK PP000=
SPZO Nov2012-250300Z VRB02KT 9999 SCT060 12/06 Q1030 RMK PP000=
SPZO Nov2012-250400Z VRB02KT 9999 SCT060 11/06 Q1030 RMK PP000=
SPZO Nov2012-250500Z 30003KT 9999 SCT060 BKN200 10/06 Q1030 RMK PP000=
SPZO Nov2012-250600Z VRB01KT 9999 SCT060 BKN100 11/06 Q1029 RMK PP000=
SPZO Nov2012-250700Z 26004KT 220V290 9999 SCT050 BKN100 12/06 Q1029 RMK PP000=
SPZO Nov2012-250800Z 34005KT 290V020 9999 SCT050 BKN080 13/04 Q1029 RMK PP000=
SPZO Nov2012-250900Z VRB01KT 9999 SCT050 BKN080 11/06 Q1029 RMK PP000=
SPZO Nov2012-251000Z 00000KT 9999 SCT046 BKN080 11/06 Q1030 RMK PP000=
SPZO Nov2012-251100Z VRB02KT 9999 SCT046 OVC100 10/06 Q1030 NOSIG RMK PP000=
SPZO Nov2012-251200Z 00000KT 9999 SCT046 BKN080 12/05 Q1031 NOSIG RMK PP000=
SPZO Nov2012-251300Z VRB02KT 9999 FEW040 BKN100 14/05 Q1031 NOSIG RMK PP000=
SPZO Nov2012-251400Z VRB03KT 9999 SCT040 BKN070 16/04 Q1031 NOSIG RMK PP000=
SPZO Nov2012-251500Z VRB03KT 9999 SCT040 BKN070 17/04 Q1031 NOSIG RMK PP000=
SPZO Nov2012-251600Z VRB05KT 9999 FEW040 SCT050 BKN100 19/03 Q1030 NOSIG RMK PP000=
SPZO Nov2012-251700Z VRB05KT 9999 FEW040 SCT050 BKN100 21/01 Q1028 NOSIG RMK PP000=
SPZO Nov2012-251800Z 30017KT 9999 SCT046 BKN100 20/06 Q1027 TEMPO VCSH RMK PP000=
SPZO Nov2012-251900Z 29009KT 9999 VCSH SCT046CB BKN080 18/04 Q1027 TEMPO -RA RMK PP000=
SPZO Nov2012-252000Z 13008KT 9999 VCSH FEW043CB SCT050 BKN080 15/06 Q1028 TEMPO -RA RMK PP000=
SPZO Nov2012-252100Z 02011KT 9999 SCT050 BKN100 16/04 Q1027 NOSIG RMK PP000=
SPZO Nov2012-252200Z 10014KT 9999 FEW050 BKN230 15/07 Q1028 NOSIG RMK T.MAX 21.6 PP000=
SPZO Nov2012-252300Z 11009KT 9999 SCT046 SCT230 15/06 Q1029 NOSIG RMK PP000=
SPZO Nov2012-260000Z VRB02KT 9999 FEW040 BKN230 14/06 Q1029 RMK PP000=
SPZO Nov2012-260100Z 12007KT 9999 FEW040 BKN230 13/06 Q1031 RMK PP000=
SPZO Nov2012-260200Z 12007KT 9999 FEW040 BKN230 13/06 Q1031 RMK PP000=
SPZO Nov2012-260300Z 00000KT 9999 FEW040 BKN230 13/06 Q1032 RMK PP000=
SPZO Nov2012-260400Z 00000KT 9999 SCT060 12/06 Q1031 RMK PP000=
SPZO Nov2012-260500Z 00000KT 9999 SCT060 11/06 Q1031 RMK PP000=
SPZO Nov2012-260600Z 00000KT 9999 SCT050 10/06 Q1030 RMK PP000=
SPZO Nov2012-260700Z 00000KT 9999 SKC 09/06 Q1030 RMK PP000=
SPZO Nov2012-260800Z 00000KT 9999 SKC 08/06 Q1030 RMK PP000=
SPZO Nov2012-260900Z 00000KT 9999 SKC 08/05 Q1030 RMK PP000=
SPZO Nov2012-261000Z 00000KT 9999 SKC 08/05 Q1030 RMK PP000=
SPZO Nov2012-261100Z 00000KT 9999 SKC 09/05 Q1031 NOSIG RMK HZ E PP000=
SPZO Nov2012-261200Z VRB01KT 9999 FEW040 12/07 Q1032 NOSIG RMK PP000=
SPZO Nov2012-261300Z VRB03KT 9999 FEW046 14/06 Q1033 NOSIG RMK PP000=
SPZO Nov2012-261400Z 02003KT 300V110 9999 FEW050 16/05 Q1032 NOSIG RMK PP000=
SPZO Nov2012-261500Z VRB04KT 9999 SCT050 18/06 Q1032 NOSIG RMK PP000=
SPZO Nov2012-261600Z VRB03KT 9999 SCT050 20/04 Q1030 NOSIG RMK PP000=
SPZO Nov2012-261700Z VRB05KT 9999 SCT050 21/03 Q1029 NOSIG RMK PP000=
SPZO Nov2012-261800Z 32005KT 9999 SCT050 23/05 Q1028 NOSIG RMK PP000=
SPZO Nov2012-261900Z 03010KT 9999 -RA SCT050 23/03 Q1026 NOSIG RMK PPTRZ=
SPZO Nov2012-262000Z 04012KT 9999 SCT050 22/03 Q1026 NOSIG RMK PP000=
SPZO Nov2012-262100Z 03009G20KT 9999 -RA SCT050 19/07 Q1026 NOSIG RMK PP002=
SPZO Nov2012-262200Z 03011KT 9999 FEW040 SCT080 18/04 Q1026 TEMPO -RA RMK TMAX 23.9 PP000=
SPZO Nov2012-262300Z 09005KT 9999 FEW040 SCT080 17/05 Q1028 NOSIG RMK PP000=
SPZO Nov2012-270000Z 34005KT 300V030 9999 SCT040 SCT100 15/05 Q1028 RMK PP000=
SPZO Nov2012-270100Z VRB02KT 9999 SCT040 SCT100 15/05 Q1029 RMK PP000=
SPZO Nov2012-270200Z 15003KT 110V190 9999 FEW040 14/05 Q1031 RMK PP000=
SPZO Nov2012-270300Z 00000KT 9999 FEW050 13/06 Q1031 RMK PP000=
SPZO Nov2012-270400Z VRB01KT 9999 FEW050 12/05 Q1032 RMK PP000=
SPZO Nov2012-270500Z 09004KT 9999 FEW050 11/06 Q1031 RMK PP000=
SPZO Nov2012-270600Z 00000KT 9999 FEW050 11/06 Q1030 RMK PP000=
SPZO Nov2012-270700Z VRB01KT 9999 FEW050 10/05 Q1030 RMK PP000=
SPZO Nov2012-270800Z 00000KT 9999 FEW050 08/05 Q1030 RMK PP000=
SPZO Nov2012-270900Z 00000KT 9999 FEW050 09/05 Q1030 RMK PP000=
SPZO Nov2012-271000Z 00000KT 9999 FEW040 08/05 Q1031 RMK PP000=
SPZO Nov2012-271100Z 00000KT 9999 FEW040 09/05 Q1031 NOSIG RMK VIS 9000 NE HZ PP000=
SPZO Nov2012-271200Z 00000KT 9999 FEW050 14/06 Q1032 NOSIG RMK VIS 8000E HZ E PP000=
SPZO Nov2012-271300Z VRB02KT 9999 FEW050 15/07 Q1032 NOSIG RMK PP000=
SPZO Nov2012-271400Z VRB02KT 9999 SCT050 17/06 Q1032 NOSIG RMK PP000=
SPZO Nov2012-271500Z VRB02KT 9999 FEW050 20/04 Q1031 NOSIG RMK PP000=
SPZO Nov2012-271600Z 32005KT 9999 FEW050 21/03 Q1029 NOSIG RMK PP000=
SPZO Nov2012-271700Z 13005KT 9999 SCT050 23/04 Q1028 TEMPO 02010G22KT RMK PP000=
SPZO Nov2012-271800Z VRB04KT 9999 SCT050 24/03 Q1027 NOSIG RMK PP000=
SPZO Nov2012-271900Z 03012KT 350V060 9999 SCT060 24/M01 Q1025 NOSIG RMK PP000=
SPZO Nov2012-272000Z 02013KT 350V070 9999 SCT060 24/M03 Q1024 NOSIG RMK PP000=
SPZO Nov2012-272100Z 04012KT 360V090 9999 FEW060 24/M04 Q1024 NOSIG RMK PP000=
SPZO Nov2012-272200Z 02009KT 350V060 9999 FEW060 22/M02 Q1024 NOSIG RMK T MAX 24.8 PP000=
SPZO Nov2012-272300Z 12009KT 9999 FEW060 20/00 Q1025 NOSIG RMK PP000=
SPZO Nov2012-280000Z 13004KT 9999 SKC 18/01 Q1026 RMK PP000=
SPZO Nov2012-280100Z 11003KT 9999 SKC 16/02 Q1027 RMK PP000=
SPZO Nov2012-280200Z VRB02KT 9999 SKC 14/03 Q1028 RMK PP000=
SPZO Nov2012-280300Z 00000KT 9999 SKC 13/03 Q1029 RMK PP000=
SPZO Nov2012-280400Z 00000KT 9999 SKC 13/04 Q1029 RMK PP000=
SPZO Nov2012-280500Z 00000KT 9999 FEW050 12/05 Q1028 RMK PP000=
SPZO Nov2012-280600Z 00000KT 9999 FEW050 12/04 Q1028 RMK PP000=
SPZO Nov2012-280700Z 00000KT 9999 SKC 10/04 Q1027 RMK PP000=
SPZO Nov2012-280800Z 00000KT 9999 SKC 09/04 Q1027 RMK PP000=
SPZO Nov2012-280900Z 00000KT 9999 SKC 09/04 Q1027 RMK PP000=
SPZO Nov2012-281000Z 00000KT 9999 FEW030 08/04 Q1028 RMK PP000=
SPZO Nov2012-281100Z 00000KT 9999 FEW030 10/04 Q1029 NOSIG RMK PP000=
SPZO Nov2012-281200Z VRB02KT 9999 SCT036 13/05 Q1030 NOSIG RMK VIS 8000 E HZ PP000=
SPZO Nov2012-281300Z VRB03KT 9999 SCT040 16/06 Q1030 NOSIG RMK PP000=
SPZO Nov2012-281400Z VRB03KT 9999 SCT043 SCT200 18/06 Q1030 NOSIG RMK PP000=
SPZO Nov2012-281500Z VRB03KT 9999 SCT046 BKN200 20/04 Q1029 BECMG 1530 SCT040 BKN080 RMK PP000=
SPZO Nov2012-281600Z VRB06KT 9999 SCT050 BKN150 20/04 Q1029 NOSIG RMK PP000=
SPZO Nov2012-281700Z 30009KT 260V340 9999 SCT050 BKN150 21/03 Q1027 NOSIG RMK PP000=
SPZO Nov2012-281800Z 30017KT 9999 FEW040 SCT060 BKN100 22/05 Q1026 NOSIG RMK PP000=
SPZO Nov2012-281900Z 29012KT 9999 FEW040TCU SCT060 BKN100 22/05 Q1025 NOSIG RMK PP000=
SPZO Nov2012-282000Z 30015KT 9999 SCT060 BKN100 21/05 Q1025 NOSIG RMK PP000=
SPZO Nov2012-282100Z 29012KT 9999 SCT050 BKN230 21/04 Q1024 TEMPO 33008KT RMK PP000=
SPZO Nov2012-282200Z 27008KT 9999 FEW050 BKN230 20/04 Q1024 NOSIG RMK TMAX 22.2 PP000=
SPZO Nov2012-282300Z 29003KT 9999 FEW050 BKN230 20/04 Q1024 NOSIG RMK PP000=
SPZO Nov2012-290000Z 30011KT 9999 SCT050 18/04 Q1026 RMK PP000=
SPZO Nov2012-290100Z 28006KT 9999 SCT050 16/03 Q1027 RMK PP000=
SPZO Nov2012-290200Z 27004KT 9999 FEW040 SCT060 15/05 Q1028 RMK PP000=
SPZO Nov2012-290300Z 00000KT 9999 FEW040 BKN060 16/04 Q1030 RMK PP000=
SPZO Nov2012-290400Z 00000KT 9999 FEW040 BKN100 15/02 Q1030 RMK PP000=
SPZO Nov2012-290500Z 14003KT 9999 BKN200 12/03 Q1029 RMK PP000=
SPZO Nov2012-290600Z 00000KT 9999 BKN200 11/03 Q1029 RMK PP000=
SPZO Nov2012-290700Z 00000KT 9999 SCT080 10/04 Q1029 RMK PP000=
SPZO Nov2012-290800Z 00000KT 9999 SCT080 10/03 Q1028 RMK PP000=
SPZO Nov2012-290900Z 10004KT 9999 FEW050 SCT080 09/04 Q1028 RMK PP000=
SPZO Nov2012-291000Z 28002KT 9999 FEW043 BKN080 09/03 Q1029 RMK PP000=
SPZO Nov2012-291100Z 00000KT 9999 FEW040 OVC080 11/04 Q1030 NOSIG RMK PP000=
SPZO Nov2012-291200Z 10004KT 9999 FEW050 11/04 Q1031 TEMPO -RA RMK HZ E PP000=
SPZO Nov2012-291300Z 11004KT 9999 FEW050 OVC100 12/04 Q1032 TEMPO 9000 -RA RMK HZ E PP000=
SPZO Nov2012-291400Z 11006KT 9999 FEW050 OVC100 12/04 Q1032 NOSIG RMK PP000=
SPZO Nov2012-291500Z 10006KT 9999 FEW060 OVC100 14/04 Q1033 NOSIG RMK PP000=
SPZO Nov2012-291600Z 11010KT 9999 FEW060 OVC100 15/04 Q1032 NOSIG RMK PP000=
SPZO Nov2012-291700Z VRB05KT 9999 FEW060 BKN100 17/03 Q1031 NOSIG RMK PP000=
SPZO Nov2012-291800Z VRB05KT 9999 FEW046 OVC150 17/03 Q1029 TEMPO 25010KT RMK PP000=
SPZO Nov2012-291900Z 12006KT 070V150 9999 FEW046 OVC150 18/01 Q1027 NOSIG RMK PP000=
SPZO Nov2012-292000Z 11009KT 9999 FEW050 OVC150 19/M02 Q1026 NOSIG RMK PP000=
SPZO Nov2012-292100Z VRB03KT 9999 FEW060 OVC150 19/01 Q1025 NOSIG RMK PP000=
SPZO Nov2012-292200Z VRB01KT 9999 OVC100 18/00 Q1025 TEMPO -RA RMK TMAX 19.8 PP000=
SPZO Nov2012-292300Z VRB02KT 9999 OVC100 18/00 Q1026 NOSIG RMK PP000=
SPZO Nov2012-300000Z 26006KT 200V320 9999 SCT050 OVC100 17/00 Q1027 RMK PP000=
SPZO Nov2012-300100Z 32006KT 290V360 9999 SCT050 OVC100 16/01 Q1028 RMK PP000=
SPZO Nov2012-300200Z 29009KT 9999 SCT050 OVC100 14/03 Q1029 RMK PP000=
SPZO Nov2012-300300Z 09006KT 060V150 9999 SCT050 OVC100 14/02 Q1030 RMK PP000=
SPZO Nov2012-300400Z VRB03KT 9999 SCT050 OVC100 14/02 Q1030 RMK PP000=
SPZO Nov2012-300500Z 10003KT 050V150 9999 SCT050 OVC100 14/02 Q1029 RMK PP000=
SPZO Nov2012-300600Z VRB03KT 9999 SCT050 BKN100 13/03 Q1029 RMK PP000=
SPZO Nov2012-300700Z VRB02KT 9999 SCT060 BKN100 11/04 Q1028 RMK PP000=
SPZO Nov2012-300800Z VRB01KT 9999 SCT060 BKN100 10/04 Q1028 RMK PP000=
SPZO Nov2012-300900Z 00000KT 9999 SCT060 SCT100 11/04 Q1028 RMK PP000=
SPZO Nov2012-301000Z 00000KT 9999 FEW050 OVC100 11/04 Q1029 RMK PP000=
SPZO Nov2012-301100Z VRB02KT 9999 FEW050 OVC100 11/03 Q1030 NOSIG RMK PP000=
SPZO Nov2012-301200Z 29004KT 260V340 9999 FEW050 OVC100 13/01 Q1030 NOSIG RMK PP000=
SPZO Nov2012-301300Z VRB03KT 9999 FEW046 OVC200 15/M02 Q1031 NOSIG RMK PP000=
SPZO Nov2012-301400Z VRB02KT 9999 FEW046 SCT070 BKN200 17/M01 Q1030 NOSIG RMK PP000=
SPZO Nov2012-301500Z VRB03KT 9999 FEW046 SCT080 19/00 Q1030 NOSIG RMK PP000=
SPZO Nov2012-301600Z VRB03KT 9999 SCT046 SCT080 21/01 Q1029 NOSIG RMK PP000=
SPZO Nov2012-301700Z 02005KT 290V100 9999 SCT043 BKN060 20/00 Q1027 NOSIG RMK PP000=
SPZO Nov2012-301800Z VRB06KT 9999 VCSH FEW043TCU SCT050 16/04 Q1028 NOSIG RMK PP010=
SPZO Nov2012-301900Z 12014KT 9999 VCSH SCT043TCU SCT050 16/05 Q1026 NOSIG RMK PP000=
SPZO Nov2012-302000Z 15004KT 9999 -RA FEW043TCU BKN050 13/07 Q1027 NOSIG RMK PP008=
SPZO Nov2012-302100Z 06005KT 9999 VCSH SCT043TCU BKN050 14/07 Q1026 NOSIG RMK PP000=
SPZO Nov2012-302200Z 00000KT 9999 FEW046 SCT080 15/06 Q1026 NOSIG RMK T.MAX 22.4 PP000=
SPZO Nov2012-302300Z 00000KT 9999 FEW050 14/07 Q1026 NOSIG RMK PP000=
SPZO Dic2012-010000Z 31004KT 9999 FEW050 14/07 Q1027 RMK PP000=
SPZO Dic2012-010100Z VRB01KT 9999 SCT050 13/08 Q1028 RMK PP000=
SPZO Dic2012-010200Z 00000KT 9999 -RA SCT040 BKN080 13/07 Q1029 RMK PP004=
SPZO Dic2012-010300Z 00000KT 9999 -RA SCT020 BKN050 21/08 Q1031 RMK PP010=
SPZO Dic2012-010400Z 00000KT 9999 -RA SCT020 BKN050 10/07 Q1032 RMK PP004=
SPZO Dic2012-010500Z 00000KT 8000 RA SCT020 BKN050 09/07 Q1032 RMK PP024=
SPZO Dic2012-010600Z 00000KT 8000 RA SCT020 BKN050 09/06 Q1032 RMK PP016=
SPZO Dic2012-010700Z 00000KT 9999 RA SCT020 BKN050 09/06 Q1031 RMK PP014=
SPZO Dic2012-010800Z 00000KT 9999 SCT020 BKN060 09/05 Q1031 RMK PP002=
SPZO Dic2012-010900Z 00000KT 9999 SCT030 BKN060 09/05 Q1031 RMK PP000=
SPZO Dic2012-011000Z 00000KT 9999 SCT030 BKN060 09/05 Q1031 RMK PP000=
SPZO Dic2012-011100Z 00000KT 9999 DZ FEW020 SCT040 BKN080 09/05 Q1031 NOSIG RMK PP004=
SPZO Dic2012-011200Z 00000KT 9000 -RA FEW020 SCT040 BKN080 09/05 Q1032 NOSIG RMK PP004=
SPZO Dic2012-011300Z 00000KT 9999 SCT020 SCT043 BKN080 10/06 Q1032 NOSIG RMK PP004=
SPZO Dic2012-011400Z VRB02KT 9999 FEW025 SCT046 BKN100 12/05 Q1032 NOSIG RMK PP000=
SPZO Dic2012-011500Z VRB02KT 9999 FEW040 SCT080 15/07 Q1032 NOSIG RMK PP000=
SPZO Dic2012-011600Z 00000KT 9999 FEW043 BKN080 16/06 Q1031 NOSIG RMK PP000=
SPZO Dic2012-011700Z VRB05KT 9999 FEW050 SCT100 18/06 Q1029 NOSIG RMK PP000=
SPZO Dic2012-011800Z VRB04KT 9999 FEW040TCU SCT100 19/05 Q1028 NOSIG RMK PP000=
SPZO Dic2012-011900Z 06010KT 9999 VCSH FEW040TCU SCT060 17/07 Q1027 NOSIG RMK PP000=
SPZO Dic2012-012000Z 17004KT 110V250 9999 SCT040TCU BKN080 18/06 Q1026 TEMPO VCSH RMK PP000=
SPZO Dic2012-012100Z 03011KT 350V070 9999 FEW036TCU SCT043 BKN080 17/06 Q1026 NOSIG RMK PP000=
SPZO Dic2012-012200Z 03009KT 350V070 9999 SCT050 OVC100 16/05 Q1026 NOSIG RMK T MAX 19.5 PP000=
SPZO Dic2012-012300Z VRB05KT 9999 FEW040 SCT050 OVC100 15/05 Q1027 NOSIG RMK PP000=
SPZO Dic2012-020000Z VRB03KT 9999 SCT050 BKN080 14/06 Q1028 RMK PP000=
SPZO Dic2012-020100Z VRB02KT 9999 FEW050 BKN080 14/07 Q1029 RMK PP000=
SPZO Dic2012-020200Z 13006KT 9999 FEW040 BKN070 13/06 Q1030 RMK PP000=
SPZO Dic2012-020300Z VRB02KT 9999 FEW040 BKN070 13/05 Q1031 RMK PP000=
SPZO Dic2012-020400Z VRB02KT 9999 FEW040 BKN070 13/04 Q1030 RMK PP000=
SPZO Dic2012-020500Z 34004KT 300V030 9999 FEW040 BKN070 12/04 Q1030 RMK PP000=
SPZO Dic2012-020600Z 28007KT 9999 SCT043 BKN070 11/05 Q1030 RMK PP000=
SPZO Dic2012-020700Z 27005KT 230V290 9999 SCT043 BKN070 11/05 Q1030 RMK PP000=
SPZO Dic2012-020800Z VRB02KT 9999 SCT043 SCT100 11/05 Q1029 RMK PP000=
SPZO Dic2012-020900Z 00000KT 9999 SCT043 SCT100 10/06 Q1030 RMK PP000=
SPZO Dic2012-021000Z VRB02KT 9999 FEW036 SCT043 BKN100 10/05 Q1030 RMK PP000=
SPZO Dic2012-021100Z 10003KT 070V130 9999 FEW036 SCT043 BKN100 09/06 Q1030 NOSIG RMK PP000=
SPZO Dic2012-021200Z VRB03KT 9999 FEW036 SCT043 BKN100 13/06 Q1031 NOSIG RMK PP000=
SPZO Dic2012-021300Z VRB02KT 9999 SCT040 BKN100 14/06 Q1032 NOSIG RMK PP000=
SPZO Dic2012-021400Z VRB03KT 9999 SCT046 BKN100 16/05 Q1032 NOSIG RMK PP000=
SPZO Dic2012-021500Z VRB02KT 9999 SCT050 BKN100 16/05 Q1031 NOSIG RMK PP000=
SPZO Dic2012-021600Z VRB03KT 9999 SCT060 BKN230 18/04 Q1030 NOSIG RMK PP000=
SPZO Dic2012-021700Z VRB01KT 9999 FEW040TCU SCT080 BKN230 18/03 Q1029 NOSIG RMK PP000=
SPZO Dic2012-021800Z 08005KT 9999 FEW040TCU SCT080 BKN230 18/04 Q1028 TEMPO VCSH RMK PP000=
SPZO Dic2012-021900Z 02013KT 9999 SCT050 BKN080 17/04 Q1028 TEMPO VCSH RMK PP000=
SPZO Dic2012-022000Z 02010KT 9999 SCT060 SCT230 18/03 Q1026 NOSIG RMK PP000=
SPZO Dic2012-022100Z 01009KT 290V030 9999 SCT060 BKN200 18/03 Q1026 NOSIG RMK PP000=
SPZO Dic2012-022200Z 03010KT 350V080 9999 SCT050 BKN100 16/04 Q1026 NOSIG RMK T MAX 20.3 PP000=
SPZO Dic2012-022300Z 12013KT 9999 SCT050 BKN100 15/06 Q1026 NOSIG RMK PP000=
SPZO Dic2012-030000Z 09007KT 9999 FEW050 BKN100 14/05 Q1028 RMK PP000=
SPZO Dic2012-030100Z 12006KT 9999 SCT043 BKN100 14/06 Q1029 RMK PP000=
SPZO Dic2012-030200Z VRB02KT 9999 SCT043 SCT060 13/05 Q1029 RMK PP000=
SPZO Dic2012-030300Z 00000KT 9999 SCT043 SCT060 13/05 Q1030 RMK PP000=
SPZO Dic2012-030400Z 00000KT 9999 FEW040 BKN060 13/06 Q1030 RMK PP000=
SPZO Dic2012-030500Z 09005KT 9999 SCT040 BKN050 12/07 Q1029 RMK PP000=
SPZO Dic2012-030600Z 00000KT 9999 -RA SCT049 BKN046 10/07 Q1029 RMK PP004=
SPZO Dic2012-030700Z 00000KT 9999 OVC040 10/07 Q1029 RMK PP002=
SPZO Dic2012-030800Z 00000KT 9999 BKN040 SCT050 11/07 Q1029 RMK PP000=
SPZO Dic2012-030900Z 00000KT 9999 SCT036 BKN046 11/08 Q1029 RMK PP000=
SPZO Dic2012-031000Z 00000KT 9999 -DZ FEW020 SCT036 BKN046 11/08 Q1029 RMK PP000=
SPZO Dic2012-031100Z 00000KT 9999 FEW020 SCT036 BKN070 11/05 Q1030 NOSIG RMK PP000=
SPZO Dic2012-031200Z 11003KT 060V150 9999 FEW020 SCT036 BKN050 11/08 Q1030 TEMPO -RA RMK PP000=
SPZO Dic2012-031300Z 30009KT 9999 VCSH FEW020 SCT036 BKN060 12/06 Q1031 NOSIG RMK PP000=
SPZO Dic2012-031400Z 30005KT 250V330 9999 FEW025 SCT040 BKN070 13/06 Q1031 NOSIG RMK PP000=
SPZO Dic2012-031500Z VRB03KT 9999 FEW036 SCT043 BKN070 15/06 Q1031 NOSIG RMK -SHRA BTN 1405/1415 PP002=
SPZO Dic2012-031600Z VRB04KT 9999 VCSH FEW036 SCT043 BKN080 16/06 Q1030 NOSIG RMK PP000=
SPZO Dic2012-031700Z VRB05KT 9999 VCSH FEW040TCU SCT050 SCT080 18/05 Q1029 NOSIG RMK PP000=
SPZO Dic2012-031800Z VRB02KT 9999 -RA FEW040 SCT060 BKN100 13/06 Q1029 NOSIG RMK PP000=
SPZO Dic2012-031900Z 27007KT 9999 SCT050 BKN100 15/07 Q1027 NOSIG RMK PP000=
SPZO Dic2012-032000Z 29010KT 9999 FEW050 SCT080 18/07 Q1025 TEMPO -RA RMK PP000=
SPZO Dic2012-032100Z 29010KT 9000 -RA VCSH SCT050 SCT080 15/07 Q1025 NOSIG RMK PP000=
SPZO Dic2012-032200Z 07009KT 5000 RA VCSH SCT040TCU SCT080 13/08 Q1026 NOSIG RMK PP020=
SPZO Dic2012-032300Z VRB01KT 9999 -RA FEW030 SCT040 BKN080 12/09 Q1027 TEMPO RA RMK PP034=
SPZO Dic2012-040000Z 00000KT 9000 -RA SCT036 BKN070 11/08 Q1029 RMK PP014=
SPZO Dic2012-040100Z 07004KT 9000 -RA SCT036 BKN070 11/09 Q1030 RMK PP004=
SPZO Dic2012-040200Z VRB01KT 9000 RA FEW015 SCT030 BKN050 10/08 Q1031 RMK PP044=
SPZO Dic2012-040300Z 14003KT 100V210 9000 RA FEW015 SCT030 BKN050 10/08 Q1031 RMK PP032=
SPZO Dic2012-040400Z VRB02KT 9000 -RA FEW015 SCT030 BKN050 10/07 Q1031 RMK PP016=
SPZO Dic2012-040500Z 00000KT 9000 -RA FEW015 SCT030 BKN050 09/07 Q1031 RMK PP018=
SPZO Dic2012-040600Z VRB02KT 9000 -RA FEW015 SCT030 BKN050 09/07 Q1030 RMK PP018=
SPZO Dic2012-040700Z 00000KT 9999 -RA FEW020 SCT036 BKN060 09/06 Q1030 RMK PP001=
SPZO Dic2012-040800Z 00000KT 9999 -RA FEW020 SCT036 BKN060 09/07 Q1030 RMK PP002=
SPZO Dic2012-040900Z 00000KT 9999 -RA FEW020 SCT036 BKN060 09/06 Q1030 RMK PP002=
SPZO Dic2012-041000Z 00000KT 9999 FEW020 SCT036 BKN060 09/07 Q1030 RMK PP002=
SPZO Dic2012-041100Z 12004KT 9999 FEW020 SCT040 BKN070 09/07 Q1030 NOSIG RMK PP000=
SPZO Dic2012-041200Z 00000KT 9999 FEW010 SCT040 BKN080 10/07 Q1031 NOSIG RMK PP000=
SPZO Dic2012-041300Z VRB01KT 9999 FEW015 SCT040 BKN080 12/07 Q1031 NOSIG RMK PP000=
SPZO Dic2012-041400Z 12004KT 050V210 9999 FEW015 SCT040 BKN080 14/08 Q1031 NOSIG RMK PP000=
SPZO Dic2012-041500Z VRB02KT 9999 SCT040 BKN080 16/07 Q1030 NOSIG RMK PP000=
SPZO Dic2012-041600Z VRB01KT 9999 FEW030 SCT050 BKN080 17/05 Q1029 NOSIG RMK PP000=
SPZO Dic2012-041700Z VRB03KT 9999 FEW030 SCT050 BKN080 17/06 Q1028 TEMPO VCSH RMK PP000=
SPZO Dic2012-041800Z VRB06KT 9999 VCSH FEW036TCU SCT046 BKN070 19/08 Q1027 TEMPO -RA RMK PP000=
SPZO Dic2012-041900Z 12010KT 9999 FEW036TCU SCT046 BKN070 15/07 Q1026 TEMPO -RA RMK PP000=
SPZO Dic2012-042000Z 10010KT 070V130 9999 FEW030 SCT050 BKN100 16/08 Q1025 NOSIG RMK PP000=
SPZO Dic2012-042100Z 12007KT 080V160 9999 VCSH FEW030TCU SCT050 BKN100 19/08 Q1024 TEMPO -RA RMK PPTRZ=
SPZO Dic2012-042200Z VRB04KT 9999 VCSH FEW030TCU SCT046 BKN080 18/07 Q1024 TEMPO -RA RMK TMAX 19.4 PP000=
SPZO Dic2012-042300Z 10006KT 9999 SCT040 BKN080 16/07 Q1025 TEMPO -RA RMK PP000=
SPZO Dic2012-050000Z VRB03KT 9999 SCT040 BKN080 16/07 Q1026 RMK PP000=
SPZO Dic2012-050100Z 11011KT 9999 SCT040 BKN080 14/07 Q1028 RMK PP000=
SPZO Dic2012-050200Z 12007KT 070V160 9000 -RA SCT040 BKN060 12/06 Q1030 RMK PP002=
SPZO Dic2012-050300Z 00000KT 9000 -RA SCT040 BKN060 11/06 Q1031 RMK PP002=
SPZO Dic2012-050400Z 14004KT 9000 -RA SCT040 SCT060 11/07 Q1031 RMK PP006=
SPZO Dic2012-050500Z VRB01KT 9000 -RA FEW030 SCT040 BKN050 10/07 Q1031 RMK PP016=
SPZO Dic2012-050600Z VRB02KT 8000 -RA FEW020 SCT036 BKN050 09/07 Q1030 RMK PP012=
SPZO Dic2012-050700Z 27004KT 9000 -RA FEW020 SCT036 BKN050 09/07 Q1029 RMK PP014=
SPZO Dic2012-050800Z 12004KT 9999 FEW020 SCT040 SCT060 09/06 Q1029 RERA RMK PP002=
SPZO Dic2012-050900Z 10004KT 9999 FEW025 SCT040 BKN060 09/06 Q1029 RMK PP000=
SPZO Dic2012-051000Z 00000KT 9999 FEW015 SCT036 BKN060 09/06 Q1029 RMK CLNG BLW 1200M PP000=
SPZO Dic2012-051100Z 00000KT 9999 FEW020 SCT040 BKN080 09/06 Q1030 NOSIG RMK PP000=
SPZO Dic2012-051200Z 09003KT 020V130 9999 FEW025 SCT043 BKN080 10/07 Q1030 NOSIG RMK VIS 9000 NE HZ PP000=
SPZO Dic2012-051300Z 00000KT 9999 FEW020 SCT043 BKN100 13/07 Q1030 NOSIG RMK PP000=
SPZO Dic2012-051400Z VRB02KT 9999 FEW020 SCT043 BKN100 15/04 Q1030 NOSIG RMK PP000=
SPZO Dic2012-051500Z 08006KT 040V120 9999 FEW036TCU SCT046 BKN080 15/06 Q1030 TEMPO -RA VCSH RMK PP000=
SPZO Dic2012-051600Z VRB02KT 9999 VCSH FEW036 SCT046 BKN070 15/07 Q1029 TEMPO -RA RMK PP000=
SPZO Dic2012-051700Z 12004KT 060V230 9999 SCT046 BKN100 18/07 Q1027 NOSIG RMK PP000=
SPZO Dic2012-051800Z VRB03KT 9999 SCT046 BKN100 19/05 Q1026 NOSIG RMK PP000=
SPZO Dic2012-051900Z 02006KT 9999 SCT050 SCT100 19/04 Q1025 NOSIG RMK PP000=
SPZO Dic2012-052000Z 03009KT 360V090 9999 FEW040 SCT050 BKN080 18/04 Q1024 NOSIG RMK PP000=
SPZO Dic2012-052100Z VRB09KT 9999 FEW040 SCT050 BKN100 17/03 Q1023 NOSIG RMK PP000=
SPZO Dic2012-052200Z 04010KT 9999 SCT040 BKN050 16/04 Q1024 NOSIG RMK T.MAX 19.8 PP000=
SPZO Dic2012-052300Z 03010KT 9999 SCT046 BKN100 15/03 Q1025 NOSIG RMK PP000=
SPZO Dic2012-060000Z VRB03KT 9999 SCT040 SCT060 14/03 Q1026 RMK PP000=
SPZO Dic2012-060100Z VRB02KT 9999 SCT050 SCT080 14/06 Q1027 RMK PP000=
SPZO Dic2012-060200Z 13004KT 9999 SCT050 SCT080 14/06 Q1028 RMK PP000=
SPZO Dic2012-060300Z VRB03KT 9999 SCT050 SCT080 13/06 Q1029 RMK PP000=
SPZO Dic2012-060400Z 00000KT 9999 SCT050 SCT080 13/06 Q1029 RMK PP000=
SPZO Dic2012-060500Z 00000KT 9999 SCT050 SCT080 13/08 Q1028 RMK PP000=
SPZO Dic2012-060600Z 00000KT 9999 SCT040 SCT060 11/07 Q1028 RMK PP000=
SPZO Dic2012-060700Z 00000KT 9999 SCT040 SCT060 11/07 Q1027 RMK PP000=
SPZO Dic2012-060800Z 00000KT 9999 -RA SCT030 BKN060 09/07 Q1027 RMK PP006=
SPZO Dic2012-060900Z 00000KT 9999 -RA SCT030 BKN050 09/07 Q1027 RMK PP002=
SPZO Dic2012-061000Z 00000KT 9999 -RA FEW020 SCT040 BKN080 09/07 Q1027 RMK PP002=
SPZO Dic2012-061100Z 00000KT 9000 -RA SCT020 BKN050 09/07 Q1028 NOSIG RMK PP010=
SPZO Dic2012-061200Z VRB01KT 9999 FEW020 SCT040 BKN070 10/07 Q1029 NOSIG RMK PP002=
SPZO Dic2012-061300Z VRB01KT 9999 FEW025 SCT043 BKN080 11/07 Q1029 NOSIG RMK PP000=
SPZO Dic2012-061400Z VRB02KT 9999 FEW030 SCT046 BKN080 14/08 Q1029 NOSIG RMK PP000=
SPZO Dic2012-061500Z VRB02KT 9999 VCSH FEW030 SCT046 BKN080 16/08 Q1029 NOSIG RMK PP000=
SPZO Dic2012-061600Z VRB05KT 9999 VCSH FEW040 SCT046 BKN080 17/06 Q1027 NOSIG RMK PP000=
SPZO Dic2012-061700Z 09008KT 9999 SCT046 SCT100 17/05 Q1026 NOSIG RMK PP000=
SPZO Dic2012-061800Z VRB04KT 9999 VCSH FEW036 SCT043 SCT080 17/05 Q1025 TEMPO -RA RMK PP000=
SPZO Dic2012-061900Z 30012KT 260V340 9000 -RA FEW040 SCT050 BKN080 15/06 Q1025 NOSIG RMK PPTRZ=
SPZO Dic2012-062000Z VRB03KT 9999 -DZ FEW036 SCT050 BKN080 14/07 Q1024 NOSIG RMK PP004=
SPZO Dic2012-062100Z VRB01KT 9999 FEW036TCU SCT050 BKN080 15/07 Q1024 RERA NOSIG RMK PPTRZ=
SPZO Dic2012-062200Z VRB02KT 9999 SCT050 BKN100 14/07 Q1024 NOSIG RMK T MAX 17.9 PP000=
SPZO Dic2012-062300Z 11010KT 080V150 9999 FEW033 SCT050 BKN100 13/07 Q1025 NOSIG RMK PP000=
SPZO Dic2012-070000Z 12006KT 9999 SCT043 BKN080 12/07 Q1026 RMK PP000=
SPZO Dic2012-070100Z 11008KT 9999 SCT043 BKN080 12/06 Q1027 RMK PP000=
SPZO Dic2012-070200Z VRB01KT 9999 SCT043 BKN080 11/07 Q1028 RMK PP000=
SPZO Dic2012-070300Z 00000KT 9999 SCT043 BKN080 11/07 Q1028 RMK PP000=
SPZO Dic2012-070400Z 10003KT 9999 SCT043 BKN080 11/07 Q1028 RMK PP000=
SPZO Dic2012-070500Z 11003KT 9999 FEW030 SCT043 BKN080 11/07 Q1027 RMK PP000=
SPZO Dic2012-070600Z 00000KT 9999 SCT036 BKN060 11/07 Q1027 RMK PP000=
SPZO Dic2012-070700Z 28008KT 9999 SCT036 BKN060 11/06 Q1026 RMK PP000=
SPZO Dic2012-070800Z 28006KT 9999 SCT036 BKN060 11/06 Q1026 RMK PP000=
SPZO Dic2012-070900Z 31006KT 9999 SCT036 BKN060 10/06 Q1026 RMK PP000=
SPZO Dic2012-071000Z 33003KT 270V330 9999 FEW020 SCT040 BKN060 10/06 Q1027 RMK PP000=
SPZO Dic2012-071100Z 28005KT 9999 FEW020 SCT040 BKN070 11/06 Q1028 TEMPO FEW030 SCT050 RMK PP000=
SPZO Dic2012-071200Z VRB02KT 9999 FEW020 SCT040 BKN080 12/06 Q1028 NOSIG RMK PP000=
SPZO Dic2012-071300Z VRB02KT 9999 FEW030 SCT050 BKN080 13/05 Q1029 NOSIG RMK PP000=
SPZO Dic2012-071400Z VRB01KT 9999 SCT040 SCT080 15/05 Q1029 NOSIG RMK PP000=
SPZO Dic2012-071500Z VRB03KT 9999 SCT050 SCT080 16/06 Q1028 NOSIG RMK PP000=
SPZO Dic2012-071600Z VRB03KT 9999 FEW040TCU SCT060 BKN080 17/04 Q1027 NOSIG RMK PP000=
SPZO Dic2012-071700Z 03013KT 9999 VCSH FEW040TCU SCT060 BKN100 15/05 Q1026 NOSIG RMK PP000=
SPZO Dic2012-071800Z 36009KT 330V070 9999 VCSH FEW040TCU SCT050 BKN100 16/05 Q1026 TEMPO -RA RMK PP000=
SPZO Dic2012-071900Z 25006KT 210V280 9999 VCSH FEW033 SCT046 BKN100 15/06 Q1025 RERA NOSIG RMK PP002=
SPZO Dic2012-072000Z 36006KT 290V060 9999 FEW036 SCT050 BKN080 15/06 Q1025 NOSIG RMK PP000=
SPZO Dic2012-072100Z 28009KT 260V330 9999 SCT040 BKN080 16/07 Q1025 NOSIG RMK PP000=
SPZO Dic2012-072200Z 29012KT 9999 FEW033 SCT040 BKN080 14/07 Q1025 NOSIG RMK T MAX 17.7 PP000=
SPZO Dic2012-072300Z 28008KT 9999 FEW040 BKN100 14/05 Q1026 NOSIG RMK PP000=
SPZO Dic2012-080000Z 31009KT 9999 FEW040 SCT050 13/05 Q1027 RMK PP000=
SPZO Dic2012-080100Z 24003KT 9999 BKN050 13/06 Q1029 RMK PP000=
SPZO Dic2012-080200Z 00000KT 9999 BKN050 12/06 Q1029 RMK PP000=
SPZO Dic2012-080300Z 00000KT 9999 FEW040 SCT050 11/07 Q1030 RMK PP000=
SPZO Dic2012-080400Z 00000KT 9999 SCT040 SCT050 10/07 Q1030 RMK PP000=
SPZO Dic2012-080500Z 08004KT 9999 SCT040 SCT046 09/07 Q1029 RMK PP000=
SPZO Dic2012-080600Z 00000KT 9999 SCT040 BKN050 10/07 Q1029 RMK PP000=
SPZO Dic2012-080700Z 00000KT 9999 BKN050 09/06 Q1029 RMK PP000=
SPZO Dic2012-080800Z 00000KT 9999 BKN046 10/07 Q1028 RMK PP000=
SPZO Dic2012-080900Z 00000KT 9999 BKN043 SCT060 09/07 Q1029 RMK PP000=
SPZO Dic2012-081000Z 10004KT 9999 FEW020 SCT036 BKN050 09/07 Q1029 RMK PP000=
SPZO Dic2012-081100Z 00000KT 9999 FEW020 SCT040 BKN230 09/07 Q1030 TEMPO FEW020 SCT036 BKN050 RMK PP00=
SPZO Dic2012-081200Z VRB02KT 9999 FEW020 SCT040 BKN100 10/07 Q1031 TEMPO FEW010 SCT036 BKN050 RMK PP00=
SPZO Dic2012-081300Z VRB02KT 9999 FEW020 SCT036 BKN100 14/07 Q1032 NOSIG RMK PP000=
SPZO Dic2012-081400Z VRB04KT 9999 SCT040 SCT050 16/06 Q1031 NOSIG RMK PP00=
SPZO Dic2012-081500Z VRB02KT 9999 SCT043 BKN080 17/06 Q1031 NOSIG RMK PP000=
SPZO Dic2012-081600Z VRB06KT 9999 FEW040TCU SCT050 BKN080 18/05 Q1030 TEMPO -RA VCSH RMK PP000=
SPZO Dic2012-081700Z 03008KT 350V070 9999 FEW040 SCT050 BKN070 16/06 Q1029 RERA NOSIG RMK -RA QUAD E PPTRZ=
SPZO Dic2012-081800Z 08006KT 9999 FEW040TCU SCT050 BKN100 17/06 Q1029 NOSIG RMK PP000=
SPZO Dic2012-081900Z 11010KT 9999 SCT050 BKN100 17/06 Q1028 NOSIG RMK PP000=
SPZO Dic2012-082000Z 11010KT 9999 SCT060 SCT230 18/05 Q1027 NOSIG RMK PP000=
SPZO Dic2012-082100Z 12011KT 9999 FEW060 SCT230 18/05 Q1026 NOSIG RMK PP000=
SPZO Dic2012-082200Z 11011KT 9999 VCSH FEW040TCU SCT080 BKN230 17/05 Q1026 NOSIG RMK PP000=
SPZO Dic2012-082300Z 11008KT 9999 VCSH SCT060 BKN080 14/08 Q1027 NOSIG RMK PP000=
SPZO Dic2012-090000Z 36006KT 300V070 9999 VCSH FEW040 SCT050 BKN080 15/06 Q1029 RMK PP000=
SPZO Dic2012-090100Z 26005KT 210V300 9999 -RA FEW040 SCT050 BKN080 12/07 Q1031 RMK PP002=
SPZO Dic2012-090200Z 12002KT 9999 -RA FEW040 SCT050 BKN080 11/08 Q1032 RMK PP010=
SPZO Dic2012-090300Z 14003KT 9999 SCT050 BKN080 11/09 Q1032 RMK PPTRZ=
SPZO Dic2012-090400Z 08003KT 050V110 9999 SCT050 BKN080 11/08 Q1032 RMK PP000=
SPZO Dic2012-090500Z 00000KT 9999 SCT050 BKN080 11/08 Q1032 RMK PP000=
SPZO Dic2012-090600Z VRB02KT 9999 SCT050 BKN080 11/08 Q1031 RMK PP000=
SPZO Dic2012-090700Z 00000KT 9999 BKN060 11/08 Q1030 RMK PP000=
SPZO Dic2012-090800Z 00000KT 9999 BKN060 11/08 Q1030 RMK PP000=
SPZO Dic2012-090900Z 00000KT 9999 FEW040 BKN060 11/08 Q1030 RMK PP000=
SPZO Dic2012-091000Z 00000KT 9999 FEW036 BKN060 11/08 Q1031 RMK PP000=
SPZO Dic2012-091100Z 12004KT 9999 FEW010 SCT036 OVC050 11/08 Q1032 TEMPO 9000 -RA FEW010 BKN036 RMK CLNG BLW 1200M VIS 8000 NE HZ PP000=
SPZO Dic2012-091200Z VRB01KT 8000 -RA FEW010 SCT030 OVC050 10/08 Q1032 NOSIG RMK CLNG BLW 1200M VIS 6000 NE BR PP038=
SPZO Dic2012-091300Z 00000KT 9999 FEW020 SCT036 BKN060 11/08 Q1033 BECMG FM1345Z SCT040 SCT150 RMK PP002=
SPZO Dic2012-091400Z 00000KT 9999 VCSH FEW020 SCT040 BKN060 13/08 Q1033 NOSIG RMK PP000=
SPZO Dic2012-091500Z VRB02KT 9999 SCT030 SCT060 15/07 Q1033 NOSIG RMK PP000=
SPZO Dic2012-091600Z 13005KT 9999 VCSH FEW030 BKN060 16/08 Q1032 NOSIG RMK PP000=
SPZO Dic2012-091700Z 12004KT 9999 VCSH FEW030 OVC080 16/05 Q1031 NOSIG RMK PP000=
SPZO Dic2012-091800Z 28011KT 9999 DZ VCSH FEW030 SCT043 OVC080 14/08 Q1030 NOSIG RMK PP002=
SPZO Dic2012-091900Z 24006KT 190V310 9999 VCSH SCT043 BKN080 17/07 Q1029 NOSIG QRMK PP002=
SPZO Dic2012-092000Z 20004KT 200V270 9999 VCSH FEW036TCU SCT043 BKN080 19/06 Q1027 NOSIG RMK PP000=
SPZO Dic2012-092100Z 30009KT 270V340 9999 VCSH FEW040 SCT050 BKN080 16/07 Q1027 NOSIG RMK PP000=
SPZO Dic2012-092200Z 28006KT 250V320 9999 FEW040 SCT050 BKN100 18/06 Q1027 NOSIG RMK TMAX 19.5 PP000=
SPZO Dic2012-092300Z 29008KT 250V330 9999 VCSH FEW040 SCT050 BKN100 16/06 Q1027 NOSIG RMK PP000=
SPZO Dic2012-100000Z 30007KT 270V340 9999 FEW040 SCT050 BKN100 15/07 Q1029 RMK PP000=
SPZO Dic2012-100100Z 29008KT 9999 FEW036 SCT050 BKN080 14/07 Q1029 RMK PP000=
SPZO Dic2012-100200Z 02004KT 330V060 9999 VCSH SCT043TCU BKN080 15/07 Q1030 RMK PP000=
SPZO Dic2012-100300Z 17004KT 140V220 7000 -RA SCT036 OVC050 11/08 Q1032 RMK PP020=
SPZO Dic2012-100400Z VRB01KT 8000 RA SCT036 OVC050 10/08 Q1032 RMK PP044=
SPZO Dic2012-100500Z 31005KT 8000 RA SCT036 OVC050 10/08 Q1031 RMK PP032=
SPZO Dic2012-100600Z 29007KT 8000 RA SCT036 OVC050 09/07 Q1031 RMK PP048=
SPZO Dic2012-100700Z 31005KT 8000 RA FEW020 SCT036 OVC050 09/05 Q1031 RMK PP038=
SPZO Dic2012-100800Z VRB02KT 8000 RA FEW015 SCT036 OVC050 08/05 Q1030 RMK CLNG BLW 1200M PP020=
SPZO Dic2012-100900Z VRB02KT 8000 RA FEW015 SCT036 OVC050 08/05 Q1030 RMK CLNG BLW 1200M PP022=
SPZO Dic2012-101000Z VRB02KT 8000 -RA FEW015 SCT036 OVC060 07/05 Q1031 RMK CLNG BLW 1200M PP016=
SPZO Dic2012-101100Z 11003KT 090V150 8000 -RA FEW015 BKN036 OVC050 07/05 Q1031 NOSIG RMK CLNG BLW 1200M PP014 VIS 7000 E=
SPZO Dic2012-101200Z VRB02KT 8000 -RA SCT015 SCT036 OVC070 08/05 Q1032 NOSIG RMK CLNG BLW 1200M PP002=
SPZO Dic2012-101300Z 00000KT 9000 DZ SCT015 SCT036 OVC080 09/06 Q1032 BECMG FM1330 9999 SCT040 BKN100 RMK CLNG BLW 1200M PP004=
SPZO Dic2012-101400Z VRB01KT 9999 FEW020 SCT040 OVC080 11/05 Q1032 NOSIG RMK PP000=
SPZO Dic2012-101500Z VRB02KT 9999 FEW020 SCT040 BKN080 12/06 Q1032 NOSIG RMK PP000=
SPZO Dic2012-101600Z VRB03KT 9999 FEW025 SCT043 BKN100 14/06 Q1031 BECMG FM1630 FEW050 SCT230 RMK PP000=
SPZO Dic2012-101700Z VRB03KT 9999 SCT043 BKN100 16/06 Q1029 NOSIG RMK PP000=
SPZO Dic2012-101800Z VRB03KT 9999 VCSH SCT043 SCT080 17/05 Q1028 NOSIG RMK PP000=
SPZO Dic2012-101900Z VRB03KT 9999 SCT046 SCT080 17/07 Q1026 NOSIG RMK PP000=
SPZO Dic2012-102000Z 11010KT 9999 FEW040 SCT046 BKN100 18/07 Q1025 NOSIG RMK PP000=
SPZO Dic2012-102100Z 10009KT 9999 VCSH FEW040TCU SCT046 BKN060 15/07 Q1025 NOSIG RMK PP000=
SPZO Dic2012-102200Z 31010KT 9999 VCSH SCT040TCU BKN046 14/07 Q1026 TEMPO -RA 8000E RMK T.MAX 18.1 PP000=
SPZO Dic2012-102300Z VRB02KT 8000 -RA VCSH SCT040TCU BKN050 13/08 Q1027 NOSIG RMK PP000=
SPZO Dic2012-110000Z VRB03KT 6000 -RA SCT030TCU BKN050 12/08 Q1028 RMK PP014=
SPZO Dic2012-110100Z VRB03KT 9999 -RA FEW010 SCT030 BKN050 12/08 Q1029 RMK PP012=
SPZO Dic2012-110200Z 00000KT 6000 -RA FEW010 SCT030 BKN050 11/07 Q1030 RMK PP020=
SPZO Dic2012-110300Z 00000KT 7000 -RA FEW010 SCT030 BKN040 10/06 Q1030 RMK CLNG BLW 1200M PP016=
SPZO Dic2012-110400Z 00000KT 6000 -RA FEW010 SCT030 BKN040 10/08 Q1030 RMK CLNG BLW 1200M PP022=
SPZO Dic2012-110500Z 00000KT 9999 FEW010 SCT030 BKN040 10/07 Q1030 RMK PP010=
SPZO Dic2012-110600Z 00000KT 9999 SCT030 BKN050 10/07 Q1029 RMK PP000=
SPZO Dic2012-110700Z 00000KT 9999 SCT040 BKN060 10/07 Q1028 RMK PP000=
SPZO Dic2012-110800Z 00000KT 9999 SCT030 BKN060 10/07 Q1027 RMK PP000=
SPZO Dic2012-110900Z 00000KT 9999 SCT040 BKN080 10/08 Q1027 RMK PP000=
SPZO Dic2012-111000Z 00000KT 9999 FEW010 SCT040 BKN080 10/07 Q1027 RMK PP000=
SPZO Dic2012-111100Z VRB03KT 9999 FEW010 SCT040 BKN080 10/08 Q1028 NOSIG RMK PP000=
SPZO Dic2012-111200Z 00000KT 9999 FEW030 SCT050 BKN100 11/08 Q1029 NOSIG RMK PP000=
SPZO Dic2012-111300Z 00000KT 9999 FEW030 SCT100 BKN230 13/08 Q1029 NOSIG RMK PP000=
SPZO Dic2012-111400Z VRB01KT 9999 FEW036 BKN060 15/07 Q1029 NOSIG RMK PP000=
SPZO Dic2012-111500Z 00000KT 9999 FEW040 SCT060 16/07 Q1029 TEMPO FEW050 SCT230 RMK PP000=
SPZO Dic2012-111600Z 22005KT 9999 SCT046 SCT080 18/07 Q1028 NOSIG RMK PP000=
SPZO Dic2012-111700Z 03010KT 9999 VCSH SCT046 SCT080 16/06 Q1027 TEMPO -RA RMK PP000=
SPZO Dic2012-111800Z 14011KT 9999 -RA VCSH FEW040TCU SCT050 BKN080 16/07 Q1027 NOSIG RMK PPTRZ=
SPZO Dic2012-111900Z 06006KT 9999 -RA VCSH FEW040TCU SCT050 BKN080 14/07 Q1026 NOSIG RMK PPTRZ=
SPZO Dic2012-112000Z 13003KT 9999 SCT050 BKN080 16/07 Q1025 TEMPO -RA PP000=
SPZO Dic2012-112100Z 07008KT 9999 -RA VCSH FEW040TCU SCT050 BKN080 15/07 Q1025 BECMG FM2115Z 13016G26KT 8000 RA SCT040 OVC060 RMK PPTRZ=
SPZO Dic2012-112200Z 27004KT 9999 -RA SCT060 BKN100 14/08 Q1025 NOSIG RMK PPTRZ=
SPZO Dic2012-112300Z VRB03KT 9999 SCT060 BKN100 14/08 Q1028 NOSIG RMK PP000=
SPZO Dic2012-120000Z VRB02KT 9999 SCT043 SCT080 13/07 Q1026 RMK PP000=
SPZO Dic2012-120100Z VRB01KT 9999 SCT060 12/08 Q1027 RMK PP000=
SPZO Dic2012-120200Z 00000KT 9999 SCT060 11/08 Q1028 RMK PP000=
SPZO Dic2012-120300Z VRB02KT 9999 SCT060 11/07 Q1029 RMK PP000=
SPZO Dic2012-120400Z 00000KT 9999 BKN060 11/08 Q1029 RMK PP000=
SPZO Dic2012-120500Z 11004KT 9999 FEW040 BKN060 11/08 Q1028 RMK PP000=
SPZO Dic2012-120600Z 00000KT 9999 FEW040 BKN060 11/07 Q1028 RMK PP000=
SPZO Dic2012-120700Z 10005KT 9999 FEW040 BKN060 10/07 Q1027 RMK PPP000=
SPZO Dic2012-120800Z 00000KT 9999 -RA FEW040 SCT050 BKN080 10/08 Q1027 RMK PPTRZ=
SPZO Dic2012-120900Z 00000KT 9999 -RA FEW030 SCT043 BKN080 10/07 Q1027 RMK PP002=
SPZO Dic2012-121000Z 00000KT 9999 FEW030 SCT043 BKN080 11/08 Q1027 RMK PPTRZ=
SPZO Dic2012-121100Z VRB02KT 9999 FEW020 SCT040 OVC060 11/08 Q1028 TEMPO FEW010 SCT036 OVC050 RMK VIS 9000 NE HZ PP000=
SPZO Dic2012-121200Z 28009KT 7000 RA VCSH FEW010 SCT030 OVC040 10/08 Q1029 NOSIG RMK CLNG BLW 1200M VIS 5000E PP010=
SPZO Dic2012-121300Z 27005KT 9999 FEW010 SCT040 BKN080 11/08 Q1030 TEMPO SCT050 BKN100 RMK PP010=
SPZO Dic2012-121400Z 28004KT 9999 SCT030 BKN080 14/08 Q1030 NOSIG RMK PP000=
SPZO Dic2012-121500Z VRB03KT 9999 SCT040 BKN100 16/07 Q1029 NOSIG RMK PP000=
SPZO Dic2012-121600Z 24004KT 9999 SCT040 BKN100 17/07 Q1028 NOSIG RMK PP000=
SPZO Dic2012-121700Z 33006KT 9999 VCSH FEW040TCU SCT060 BKN230 18/07 Q1027 TEMPO -RA RMK PP000=
SPZO Dic2012-121800Z 03010KT 350V070 9999 VCSH SCT040TCU BKN100 18/06 Q1026 NOSIG RMK PP000=
SPZO Dic2012-121900Z 32010KT 270V360 9999 VCSH FEW036 SCT040 BKN080 19/07 Q1025 TEMPO 28014KT FEW040TCU SCT100 RMK PP000=
SPZO Dic2012-122000Z 09009KT 8000 -RA SCT040CB BKN080 12/09 Q1025 TEMPO RA 2500 E RMK VIS 4000 E TSRA PP050=
SPZO Dic2012-122100Z 13006KT 9000 -RA FEW030 SCT040 BKN080 11/08 Q1026 TEMPO 9999 SCT050 SCT150 RMK VIS 8000 E PP064=
SPZO Dic2012-122200Z VRB02KT 9999 FEW030 SCT050 BKN100 11/08 Q1025 RERA NOSIG RMK T MAX 19.7 PP004=
SPZO Dic2012-122300Z 00000KT 9999 SCT050 BKN100 12/07 Q1026 NOSIG RMK PP000=
SPZO Dic2012-130000Z 12004KT 9999 BKN046 SCT100 11/09 Q1027 RMK PP000=
SPZO Dic2012-130100Z 00000KT 9999 SCT043 SCT060 11/08 Q1028 RMK PP000=
SPZO Dic2012-130200Z 17003KT 9999 BKN043 SCT060 12/08 Q1029 RMK PP000=
SPZO Dic2012-130300Z 00000KT 9999 BKN043 SCT050 11/09 Q1029 RMK PP000=
SPZO Dic2012-130400Z 00000KT 9999 -RA BKN040 SCT080 11/09 Q1029 RMK PP002=
SPZO Dic2012-130500Z 00000KT 9999 SCT036 BKN046 11/08 Q1029 RMK PP000=
SPZO Dic2012-130600Z 00000KT 9999 SCT040 BKN050 11/09 Q1028 RMK PP002=
SPZO Dic2012-130700Z 00000KT 9999 BKN043 SCT080 11/08 Q1027 RMK PP000=
SPZO Dic2012-130800Z 00000KT 9999 BKN043 SCT080 11/08 Q1027 RMK PP000=
SPZO Dic2012-130900Z 12004KT 9999 BKN040 SCT080 10/08 Q1027 RMK PP000=
SPZO Dic2012-131000Z 00000KT 9999 FEW010 SCT043 BKN070 09/08 Q1027 RMK PP000=
SPZO Dic2012-131100Z 30002KT 9999 FEW020 SCT043 BKN080 10/08 Q1028 TEMPO FEW010 SCT036 BKN050 RMK PP000=
SPZO Dic2012-131200Z 00000KT 9999 FEW010 SCT036 BKN050 11/08 Q1028 NOSIG RMK VIS 8000 E BR PP000=
SPZO Dic2012-131300Z VRB03KT 9999 FEW010 SCT036 BKN060 12/09 Q1029 NOSIG RMK VIS 8000 E PP000=
SPZO Dic2012-131400Z VRB01KT 9999 FEW030 SCT040 BKN080 15/06 Q1029 NOSIG RMK PP000=
SPZO Dic2012-131500Z VRB02KT 9999 FEW030 SCT040 BKN060 16/06 Q1029 NOSIG RMK PP000=
SPZO Dic2012-131600Z 30012G23KT 260V360 9999 FEW040TCU SCT046 BKN080 16/07 Q1028 TEMPO VCSH RMK PP000=
SPZO Dic2012-131700Z 26012KT 210V300 9999 SCT050 BKN080 16/06 Q1028 NOSIG RMK PP000=
SPZO Dic2012-131800Z 27010KT 9999 VCSH FEW040TCU SCT060 BKN100 17/05 Q1027 NOSIG RMK PP000=
SPZO Dic2012-131900Z 12008KT 9999 VCSH FEW040TCU SCT060 BKN100 16/08 Q1026 TEMPO -RA SCT036TCU BKN070 RMK PP000=
SPZO Dic2012-132000Z 13007KT 9999 VCSH FEW040TCU SCT060 BKN100 16/06 Q1025 NOSIG RMK PP000=
SPZO Dic2012-132100Z 12008KT 9999 FEW040TCU SCT060 BKN100 16/08 Q1025 TEMPO 9000 RA SCT040CB BKN080 RMK PP000=
SPZO Dic2012-132200Z 11012KT 9999 SCT060 BKN100 13/07 Q1025 NOSIG RMK TMAX 18.00 PP000=
SPZO Dic2012-132300Z 12007KT 9999 SCT060 BKN100 13/07 Q1026 NOSIG RMK PP000=
SPZO Dic2012-140000Z 11005KT 9999 BKN046 SCT080 12/07 Q1027 RMK PP000=
SPZO Dic2012-140100Z 13004KT 9999 BKN046 SCT060 12/07 Q1028 RMK PP000=
SPZO Dic2012-140200Z 10005KT 9999 BKN040 SCT050 11/08 Q1029 RMK PP000=
SPZO Dic2012-140300Z 00000KT 9999 BKN040 SCT050 12/08 Q1029 RMK PP000=
SPZO Dic2012-140400Z 28005KT 8000 RA OVC040 11/07 Q1030 RMK PP016=
SPZO Dic2012-140500Z 00000KT 9999 -RA BKN040 SCT050 10/08 Q1029 RMK PP022=
SPZO Dic2012-140600Z 00000KT 9999 -RA BKN040 SCT050 10/08 Q1028 RMK PP008=
SPZO Dic2012-140700Z 00000KT 9999 OVC040 10/08 Q1028 RMK PP002=
SPZO Dic2012-140800Z 00000KT 9999 BKN040 SCT046 10/07 Q1028 RMK PP000=
SPZO Dic2012-140900Z 00000KT 9999 SCT036 BKN043 10/07 Q1028 RMK PP000=
SPZO Dic2012-141000Z 00000KT 9999 FEW020 SCT036 BKN070 10/07 Q1028 RMK PP000=
SPZO Dic2012-141100Z 09004KT 9999 FEW030 SCT046 BKN230 09/07 Q1029 NOSIG RMK PP000=
SPZO Dic2012-141200Z 09004KT 9999 FEW030 SCT040 BKN230 11/08 Q1029 NOSIG RMK PP000=
SPZO Dic2012-141300Z VRB02KT 9999 FEW040TCU SCT050 BKN100 12/06 Q1029 TEMPO SCT040 RMK PP000=
SPZO Dic2012-141400Z VRB01KT 9999 FEW040 SCT050 BKN100 13/07 Q1029 NOSIG RMK PP000=
SPZO Dic2012-141500Z VRB02KT 9999 SCT050 BKN100 16/06 Q1029 NOSIG RMK PP000=
SPZO Dic2012-141600Z 02003KT 9999 SCT060 SCT100 18/05 Q1028 NOSIG RMK PP000=
SPZO Dic2012-141700Z 02013G23KT 9999 VCSH FEW040TCU SCT060 BKN100 17/06 Q1027 TEMPO -RA RMK PP000=
SPZO Dic2012-141800Z VRB05KT 9999 -RA VCSH FEW040TCU SCT046 BKN070 13/07 Q1027 NOSIG RMK VIS 9000 NE RA PP004=
SPZO Dic2012-141900Z VRB02KT 9999 -RA VCSH FEW040 SCT046 OVC070 13/07 Q1027 NOSIG RMK VIS 9000 E RA PP004=
SPZO Dic2012-142000Z 29004KT 230V360 9999 VCSH FEW040 SCT046 BKN080 15/07 Q1026 NOSIG RMK PPTRZ=
SPZO Dic2012-142100Z 12003KT 050V210 9999 SCT043 BKN100 17/08 Q1024 NOSIG RMK PP000=
SPZO Dic2012-142200Z 11010KT 9999 SCT043 BKN100 16/08 Q1024 NOSIG RMK TMAX 18.9 PP000=
SPZO Dic2012-142300Z 11005KT 9999 FEW036TCU SCT043 BKN080 15/06 Q1024 TEMPO VCSH RMK PP000=
SPZO Dic2012-150000Z VRB03KT 9999 SCT050 BKN080 14/07 Q1025 RMK PP000=
SPZO Dic2012-150100Z 29003KT 9999 SCT050 BKN080 13/08 Q1026 RMK PP000=
SPZO Dic2012-150200Z 10003KT 9999 SCT050 BKN060 12/08 Q1027 RMK PP000=
SPZO Dic2012-150300Z 00000KT 9999 SCT050 BKN080 12/08 Q1028 RMK PP000=
SPZO Dic2012-150400Z VRB01KT 9999 SCT040 BKN060 13/08 Q1028 RMK PP000=
SPZO Dic2012-150500Z VRB05KT 9000 -RA SCT036 BKN050 11/07 Q1028 RMK PP018=
SPZO Dic2012-150600Z VRB02KT 8000 -RA SCT036 BKN050 10/08 Q1028 RMK PP028=
SPZO Dic2012-150700Z VRB02KT 8000 -RA FEW020 SCT036 OVC050 09/07 Q1027 RMK PP012=
SPZO Dic2012-150800Z VRB03KT 9000 -RA FEW020 SCT036 BKN060 10/07 Q1027 RMK PP004=
SPZO Dic2012-150900Z VRB02KT 9999 FEW020 SCT040 BKN080 09/07 Q1026 RERA RMK PPTRZ=
SPZO Dic2012-151000Z 00000KT 9999 FEW020 SCT040 BKN080 09/07 Q1027 RMK PP000=
SPZO Dic2012-151100Z VRB02KT 9999 FEW020 SCT040 BKN080 09/07 Q1027 NOSIG RMK VIS 8000 E BR PP000=
SPZO Dic2012-151200Z 00000KT 9999 FEW020 SCT040 BKN080 11/08 Q1028 NOSIG RMK VIS 9000 NE BR PP000=
SPZO Dic2012-151300Z VRB01KT 9999 FEW015 SCT040 BKN080 12/07 Q1029 NOSIG RMK VIS 9000 NE HZ PP000=
SPZO Dic2012-151400Z VRB01KT 9999 FEW020 SCT040 BKN080 15/05 Q1029 NOSIG RMK PP000=
SPZO Dic2012-151500Z 08004KT 350V140 9999 FEW030 SCT040 OVC080 16/07 Q1028 NOSIG RMK PP000=
SPZO Dic2012-151600Z 08004KT 010V140 9999 SCT043 BKN070 16/07 Q1027 NOSIG RMK PP000=
SPZO Dic2012-151700Z 10007KT 070V130 9999 VCSH FEW036 SCT043 BKN070 16/07 Q1026 TEMPO -RA RMK VIS 9000 NE RA PP000=
SPZO Dic2012-151800Z 26007KT 9999 VCSH FEW036 SCT046 BKN080 16/08 Q1026 NOSIG RMK PP000=
SPZO Dic2012-151900Z 34008KT 9999 VCSH FEW040 SCT046 BKN080 16/07 Q1026 NOSIG RMK PP000=
SPZO Dic2012-152000Z 10007KT 030V150 9999 VCSH FEW040TCU SCT046 BKN080 16/07 Q1025 NOSIG RMK PP000=
SPZO Dic2012-152100Z 24009KT 9999 VCSH SCT040TCU SCT046 BKN070 13/08 Q1025 TEMPO 8000 -RA RMK PP000=
SPZO Dic2012-152200Z 33011KT 9999 VCSH FEW040TCU SCT046 BKN080 13/07 Q1026 RERA 2135/45 NOSIG RMK T.MAX 17.8 PP006=
SPZO Dic2012-152300Z 26008KT 9999 FEW036 SCT050 BKN080 12/07 Q1026 NOSIG RMK PP000=
SPZO Dic2012-160000Z 31005KT 9999 SCT060 BKN100 12/08 Q1027 RMK PP000=
SPZO Dic2012-160100Z 00000KT 9999 SCT050 BKN100 12/07 Q1028 RMK PP000=
SPZO Dic2012-160200Z 00000KT 9999 SCT050 BKN100 12/07 Q1029 RMK PP000=
SPZO Dic2012-160300Z 00000KT 9999 SCT050 BKN100 11/08 Q1029 RMK PP000=
SPZO Dic2012-160400Z 00000KT 9999 SCT050 BKN100 11/08 Q1029 RMK PP000=
SPZO Dic2012-160500Z 00000KT 9999 SCT050 BKN100 11/08 Q1028 RMK PP000=
SPZO Dic2012-160600Z 00000KT 9999 SCT050 BKN100 10/07 Q1028 RMK PP000=
SPZO Dic2012-160700Z 00000KT 9999 SCT040 BKN100 10/08 Q1027 RMK PP000=
SPZO Dic2012-160800Z 00000KT 9999 SCT040 BKN100 10/08 Q1027 RMK PP000=
SPZO Dic2012-160900Z 00000KT 9999 SCT040 BKN100 09/07 Q1027 RMK PP000=
SPZO Dic2012-161000Z 00000KT 9999 SCT036 BKN230 10/08 Q1027 RMK PP000=
SPZO Dic2012-161100Z 00000KT 9999 FEW030 SCT060 BKN230 10/08 Q1028 NOSIG RMK PP000=
SPZO Dic2012-161200Z 09003KT 9999 FEW030 SCT050 BKN100 11/08 Q1029 NOSIG RMK PP000=
SPZO Dic2012-161300Z 00000KT 9999 FEW033 SCT050 BKN100 13/08 Q1029 NOSIG RMK PP000=
SPZO Dic2012-161400Z VRB02KT 9999 FEW036 SCT050 BKN100 14/07 Q1029 NOSIG RMK PP000=
SPZO Dic2012-161500Z VRB02KT 9999 FEW036 SCT050 BKN230 15/06 Q1028 NOSIG RMK PP000=
SPZO Dic2012-161600Z VRB03KT 9999 FEW040 BKN060 16/06 Q1027 NOSIG RMK PP000=
SPZO Dic2012-161700Z VRB04KT 9999 FEW040 SCT060 18/05 Q1026 NOSIG RMK PP000=
SPZO Dic2012-161800Z 23005KT 170V270 9999 VCSH FEW036TCU SCT050 BKN080 18/07 Q1024 RMK -SHRA BTN 1730/1740 PPTRZ=
SPZO Dic2012-161900Z 29012KT 9999 FEW036TCU SCT050 BKN080 17/06 Q1024 TEMPO -RA RMK PP000=
SPZO Dic2012-162000Z 17010KT 9999 VCSH FEW040TCU SCT050 BKN080 15/07 Q1024 TEMPO -RA RMK VIS 8000 E -RA PP000=
SPZO Dic2012-162100Z 10011KT 040V120 9000 -DZ FEW036 SCT043 BKN070 14/07 Q1025 NOSIG RMK PPTRZ=
SPZO Dic2012-162200Z 10008KT 9000 -DZ FEW036TCU SCT043 BKN070 12/07 Q1026 TEMPO -RA RMK T MAX 19.8 PP002=
SPZO Dic2012-162300Z 10005KT 9000 -DZ FEW033 SCT040 BKN070 11/08 Q1026 TEMPO -RA RMK PP004=
SPZO Dic2012-170000Z VRB01KT 9999 -RA SCT040 BKN080 11/08 Q1027 RMK PPTRZ=
SPZO Dic2012-170100Z VRB02KT 9999 -RA SCT040 OVC080 11/07 Q1028 RMK PPT002=
SPZO Dic2012-170200Z 00000KT 9999 SCT040 OVC080 11/07 Q1029 RMK PPTRZ=
SPZO Dic2012-170300Z VRB02KT 9999 SCT040 OVC080 11/08 Q1030 RMK PP000=
SPZO Dic2012-170400Z 00000KT 9999 -RA FEW020 SCT036 BKN060 10/08 Q1030 RMK PP002=
SPZO Dic2012-170500Z 00000KT 9999 FEW020 SCT036 BKN060 10/08 Q1029 RMK PPTRZ=
SPZO Dic2012-170600Z VRB02KT 9999 FEW020 SCT036 BKN060 10/07 Q1028 RMK PP000=
SPZO Dic2012-170700Z 11002KT 9999 FEW025 SCT040 BKN070 10/08 Q1028 RMK PP000=
SPZO Dic2012-170800Z 11004KT 080V140 9999 FEW025 SCT040 BKN070 10/08 Q1028 RMK PP000=
SPZO Dic2012-170900Z 11004KT 9999 FEW025 SCT040 BKN070 10/08 Q1028 RMK PP000=
SPZO Dic2012-171000Z 12003KT 9999 FEW025 SCT040 BKN070 10/07 Q1028 RMK PP000=
SPZO Dic2012-171100Z VRB02KT 9999 FEW020 SCT040 BKN070 10/07 Q1028 NOSIG RMK VIS 9000 NE BR PP000=
SPZO Dic2012-171200Z 11005KT 9999 FEW020 SCT040 BKN080 11/08 Q1029 NOSIG RMK BR E PP000=
SPZO Dic2012-171300Z VRB01KT 9999 FEW030 SCT040 BKN080 12/07 Q1029 NOSIG RMK PP000=
SPZO Dic2012-171400Z VRB01KT 9999 SCT040 BKN080 14/07 Q1029 NOSIG RMK PP000=
SPZO Dic2012-171500Z VRB03KT 9999 SCT040 BKN100 16/08 Q1028 NOSIG RMK PP000=
SPZO Dic2012-171600Z VRB01KT 9999 SCT040 BKN100 17/06 Q1028 NOSIG RMK PP000=
SPZO Dic2012-171700Z 12005KT 9999 SCT040 BKN100 19/08 Q1027 TEMPO VCSH RMK PP000=
SPZO Dic2012-171800Z 08011KT 050V120 9999 VCSH FEW036TCU SCT050 BKN080 18/06 Q1026 TEMPO -RA RMK PP000=
SPZO Dic2012-171900Z VRB04KT 9999 VCSH SCT036TCU BKN080 18/05 Q1025 NOSIG RMK PP000=
SPZO Dic2012-172000Z VRB05KT 9999 VCSH SCT036TCU BKN080 18/06 Q1024 TEMPO -RA RMK PP000=
SPZO Dic2012-172100Z 26010KT 9999 FEW036TCU SCT050 BKN080 16/07 Q1024 NOSIG RMK PP000=
SPZO Dic2012-172200Z 10008KT 050V160 9999 VCSH FEW036TCU SCT043 BKN070 15/07 Q1025 TEMPO -RA RMK T MAX 19.9 PP000=
SPZO Dic2012-172300Z 27005KT 9999 FEW033 SCT043 BKN070 15/07 Q1026 NOSIG RMK PP000=
SPZO Dic2012-180000Z 27012KT 9999 BKN040 SCT050 13/07 Q1027 RMK PP000=
SPZO Dic2012-180100Z 24005KT 9999 -RA BKN040 SCT046 12/07 Q1028 RMK PP004=
SPZO Dic2012-180200Z 28009KT 9999 SCT043 SCT050 12/06 Q1028 RMK PP000=
SPZO Dic2012-180300Z 00000KT 9999 SCT043 SCT060 12/06 Q1029 RMK PP000=
SPZO Dic2012-180400Z 11005KT 9999 SCT040 SCT080 11/07 Q1029 RMK PP000=
SPZO Dic2012-180500Z 00000KT 9999 BKN040 SCT080 11/07 Q1029 RMK PP000=
SPZO Dic2012-180600Z 00000KT 9999 -RA BKN040 SCT050 11/07 Q1028 RMK PP002=
SPZO Dic2012-180700Z 00000KT 9999 BKN040 SCT050 11/08 Q1027 RMK PP000=
SPZO Dic2012-180800Z 00000KT 9999 SCT040 BKN050 10/07 Q1027 RMK PP000=
SPZO Dic2012-180900Z 00000KT 9999 BKN043 SCT080 10/07 Q1027 RMK PP000=
SPZO Dic2012-181000Z 00000KT 9999 FEW030 SCT040 BKN050 10/07 Q1028 RMK PP000=
SPZO Dic2012-181100Z 00000KT 9999 FEW030 SCT046 BKN230 10/07 Q1028 NOSIG RMK PP000=
SPZO Dic2012-181200Z 00000KT 9999 FEW025 SCT040 BKN060 11/07 Q1029 NOSIG RMK PP000=
SPZO Dic2012-181300Z VRB01KT 9999 FEW025 SCT040 BKN070 13/07 Q1030 NOSIG RMK PP000=
SPZO Dic2012-181400Z 09004KT 030V170 9999 FEW025 SCT043 BKN080 14/07 Q1030 NOSIG RMK PP000=
SPZO Dic2012-181500Z VRB03KT 9999 VCSH FEW036TCU SCT043 BKN070 15/05 Q1029 TEMPO -RA RMK PP000=
SPZO Dic2012-181600Z 29007KT 240V330 9999 VCSH FEW036TCU SCT040 BKN070 16/06 Q1029 TEMPO -RA VIS 9000 E RMK PP000=
SPZO Dic2012-181700Z 30008KT 270V360 6000 -RA FEW040TCU SCT050 BKN070 14/08 Q1028 NOSIG RMK PP010=
SPZO Dic2012-181800Z VRB03KT 9999 FEW030 SCT060 BKN100 15/08 Q1027 NOSIG RMK PP004=
SPZO Dic2012-181900Z 11006KT 9999 VCSH FEW040 SCT050 BKN100 15/07 Q1026 TEMPO -RA RMK PP000=
SPZO Dic2012-182000Z 09008KT 9999 VCSH FEW040TCU SCT060 BKN100 17/08 Q1025 TEMPO -RA RMK VIS 8000E PP000=
SPZO Dic2012-182100Z 25007KT 9999 -RA VCSH FEW040TCU SCT060 BKN100 16/08 Q1024 NOSIG RMK PP000=
SPZO Dic2012-182200Z 30007KT 9999 SCT060 BKN100 15/07 Q1024 NOSIG RMK TMAX 17.3 PP000=
SPZO Dic2012-182300Z 30007KT 9999 SCT060 BKN100 15/07 Q1025 NOSIG RMK PP000=
SPZO Dic2012-190000Z 28008KT 9999 VCSH FEW040 SCT050 BKN080 14/07 Q1026 RMK PP000=
SPZO Dic2012-190100Z 08007KT 030V120 9000 -RA FEW033 SCT040 BKN060 12/07 Q1028 RMK PP004=
SPZO Dic2012-190200Z 13006KT 9000 -RA FEW033 SCT040 BKN060 10/07 Q1029 RMK PP022=
SPZO Dic2012-190300Z 08004KT 020V100 9000 -RA FEW033 SCT040 BKN060 09/07 Q1029 RMK PP038=
SPZO Dic2012-190400Z 00000KT 9000 -RA FEW033 SCT040 BKN060 10/07 Q1030 RMK PP002=
SPZO Dic2012-190500Z 00000KT 9000 -RA FEW033 SCT040 BKN060 10/07 Q1029 RMK PP004=
SPZO Dic2012-190600Z 07004KT 030V090 9000 -RA FEW025 SCT040 BKN060 10/08 Q1029 RMK PPTRZ=
SPZO Dic2012-190700Z 00000KT 9999 FEW025 SCT040 BKN060 10/07 Q1028 RERA RMK PPTRZ=
SPZO Dic2012-190800Z VRB02KT 9999 FEW033 SCT040 BKN060 10/07 Q1028 RMK PP000=
SPZO Dic2012-190900Z 00000KT 9999 FEW033 SCT040 BKN060 10/07 Q1028 RMK -SHRA BTN 0830/0840 PP002=
SPZO Dic2012-191000Z VRB01KT 9999 FEW030 SCT036 BKN060 10/08 Q1028 RMK PP000=
SPZO Dic2012-191100Z 00000KT 9999 FEW025 SCT036 BKN050 10/07 Q1029 NOSIG RMK PP000=
SPZO Dic2012-191200Z 00000KT 9999 FEW020 SCT060 BKN100 11/07 Q1030 NOSIG RMK BR E PP000=
SPZO Dic2012-191300Z 00000KT 9999 FEW020 SCT040 BKN100 13/07 Q1030 NOSIG RMK PP000=
SPZO Dic2012-191400Z VRB03KT 9999 FEW020 SCT040 BKN100 15/06 Q1030 NOSIG RMK PP000=
SPZO Dic2012-191500Z 14004KT 9999 SCT060 SCT100 16/06 Q1030 NOSIG RMK PP000=
SPZO Dic2012-191600Z 09005KT 9999 FEW040TCU SCT060 BKN100 16/05 Q1029 NOSIG RMK PP000=
SPZO Dic2012-191700Z VRB02KT 9999 SCT060 BKN100 18/05 Q1028 NOSIG RMK PP000=
SPZO Dic2012-191800Z 24005KT 190V300 9999 SCT046 BKN080 20/06 Q1026 NOSIG RMK PP000=
SPZO Dic2012-191900Z VRB03KT 9999 VCSH FEW040TCU SCT046 BKN080 21/05 Q1025 TEMPO -RA RMK PP000=
SPZO Dic2012-192000Z 36012KT 320V040 9999 VCTS FEW036CB SCT046 BKN070 16/06 Q1025 TEMPO -RA RMK RA SE PP000=
SPZO Dic2012-192100Z VRB02KT 9999 SCT040 OVC080 15/07 Q1025 NOSIG RMK PP000=
SPZO Dic2012-192200Z 11006KT 9999 VCSH SCT040 OVC080 14/08 Q1025 NOSIG RMK TMAX 20.8 PP000=
SPZO Dic2012-192300Z VRB01KT 9999 SCT046 OVC080 15/07 Q1026 NOSIG RMK PP000=
SPZO Dic2012-200000Z 13003KT 9999 SCT040 BKN080 14/09 Q1027 RMK PP000=
SPZO Dic2012-200100Z 25003KT 170V290 9999 SCT040 BKN080 14/07 Q1027 RMK PP000=
SPZO Dic2012-200200Z 21010KT 9999 SCT036 BKN060 12/05 Q1029 RMK PP000=
SPZO Dic2012-200300Z 00000KT 9000 -DZ SCT036 BKN060 11/06 Q1030 RMK PP002=
SPZO Dic2012-200400Z VRB03KT 9999 -DZ SCT036 BKN060 11/07 Q1031 RMK PPTRZ=
SPZO Dic2012-200500Z 11004KT 9999 -DZ SCT036 BKN060 10/07 Q1030 RMK PPTRZ=
SPZO Dic2012-200600Z 00000KT 9999 DZ SCT036 BKN060 10/07 Q1030 RMK PP004=
SPZO Dic2012-200700Z 25004KT 9999 -DZ FEW020 SCT036 BKN060 10/06 Q1029 RMK PP002=
SPZO Dic2012-200800Z 13004KT 9999 -DZ FEW020 SCT036 BKN060 09/07 Q1029 RMK PP002=
SPZO Dic2012-200900Z VRB01KT 9999 FEW020 SCT036 BKN060 09/07 Q1029 REDZ RMK PPTRZ=
SPZO Dic2012-201000Z VRB03KT 9999 FEW020 SCT036 BKN060 09/07 Q1029 RMK -SHRA BTN 0920/0945 PP002=
SPZO Dic2012-201100Z 00000KT 9999 FEW020 SCT040 BKN070 09/07 Q1029 NOSIG RMK PP000=
SPZO Dic2012-201200Z 11004KT 080V140 9999 FEW010 SCT040 BKN080 10/07 Q1029 RMK PP000=
SPZO Dic2012-201300Z VRB01KT 9999 SCT020 SCT040 BKN080 11/07 Q1030 NOSIG RMK PP000=
SPZO Dic2012-201400Z VRB02KT 9999 SCT040 BKN080 14/07 Q1029 NOSIG RMK PP000=
SPZO Dic2012-201500Z VRB03KT 9999 SCT040 BKN080 15/07 Q1029 NOSIG RMK PP000=
SPZO Dic2012-201600Z 08005KT 020V170 9999 SCT040 BKN080 18/05 Q1028 TEMPO VCSH RMK PP000=
SPZO Dic2012-201700Z VRB01KT 9999 SCT043 BKN080 19/06 Q1027 TEMPO VCSH RMK PP000=
SPZO Dic2012-201800Z VRB05KT 9999 SCT046 SCT080 20/05 Q1025 NOSIGRMK PP000=
SPZO Dic2012-201900Z VRB05KT 9999 FEW040 SCT050 BKN080 20/06 Q1024 TEMPO VCSH RMK PP000=
SPZO Dic2012-202000Z VRB05KT 9999 SCT040CB SCT046 BKN070 17/04 Q1025 TEMPO -RA RMK PP000=
SPZO Dic2012-202100Z 29007KT 9999 FEW040TCU SCT046 BKN080 14/07 Q1026 NOSIG RMK PPTRZ=
SPZO Dic2012-202200Z 30007KT 9999 FEW040TCU SCT046 BKN080 13/07 Q1026 NOSIG RMK T.MAX 21.2 PP000=
SPZO Dic2012-202300Z 31010KT 9999 FEW040 SCT050 BKN100 12/06 Q1026 NOSIG RMK PP000=
SPZO Dic2012-210000Z 27007KT 9999 FEW040 SCT050 BKN100 13/06 Q1027 RMK PP000=
SPZO Dic2012-210100Z 28004KT 9999 FEW230 12/06 Q1028 RMK PP000=
SPZO Dic2012-210200Z 00000KT 9999 SCT060 BKN100 12/07 Q1029 RMK PP000=
SPZO Dic2012-210300Z 00000KT 9999 SCT060 BKN100 12/07 Q1030 RMK PP000=
SPZO Dic2012-210400Z 00000KT 9999 SCT060 BKN100 12/05 Q1029 RMK PP000=
SPZO Dic2012-210500Z 00000KT 9999 SCT060 BKN100 11/06 Q1029 RMK PP000=
SPZO Dic2012-210600Z 00000KT 9999 SCT060 BKN100 10/06 Q1029 RMK PP000=
SPZO Dic2012-210700Z 00000KT 9999 SCT060 BKN100 09/05 Q1028 RMK PP000=
SPZO Dic2012-210800Z 00000KT 9999 SCT050 BKN100 09/06 Q1028 RMK PP000=
SPZO Dic2012-210900Z 00000KT 9999 SCT050 BKN100 08/05 Q1028 RMK PP000=
SPZO Dic2012-211000Z 00000KT 9999 SCT050 BKN100 08/06 Q1028 RMK PP000=
SPZO Dic2012-211100Z 00000KT 9999 SCT050 BKN100 09/06 Q1028 NOSIG RMK PP000=
SPZO Dic2012-211200Z 25003KT 9999 FEW050 BKN230 10/06 Q1029 NOSIG RMK PP000=
SPZO Dic2012-211300Z VRB02KT 9999 FEW043 BKN230 13/05 Q1029 NOSIG RMK PP000=
SPZO Dic2012-211400Z VRB02KT 9999 FEW046 BKN230 15/06 Q1029 NOSIG RMK PP000=
SPZO Dic2012-211500Z VRB03KT 9999 FEW040 SCT046 BKN100 16/04 Q1029 TEMPO VCSH RMK PP000=
SPZO Dic2012-211600Z VRB06KT 9999 SCT050 BKN100 18/05 Q1029 NOSIG RMK PP000=
SPZO Dic2012-211700Z VRB06KT 9999 FEW040 SCT050 BKN230 18/06 Q1027 TEMPO VCSH RMK PP000=
SPZO Dic2012-211800Z 11008KT 9999 VCSH FEW040TCU SCT060 BKN100 19/07 Q1026 NOSIG RMK PP000=
SPZO Dic2012-211900Z 01012KT 9999 VCSH FEW040TCU SCT050 BKN080 16/06 Q1026 NOSIG RMK PP000=
SPZO Dic2012-212000Z 02011KT 9999 SCT050 BKN080 18/06 Q1025 NOSIG RMK PP000=
SPZO Dic2012-212100Z 02012KT 9999 FEW040TCU SCT050 BKN100 17/05 Q1025 TEMPO -RA VCSH RMK PP000=
SPZO Dic2012-212200Z 10007KT 9999 SCT060 BKN100 16/06 Q1025 NOSIG RMK PP000=
SPZO Dic2012-212300Z 13007KT 9999 SCT060 BKN100 15/06 Q1026 NOSIG RMK PP000=
SPZO Dic2012-220000Z 11003KT 060V170 9999 FEW040 BKN100 14/06 Q1027 RMK PP000=
SPZO Dic2012-220100Z 25010KT 230V290 9999 VCSH SCT040 BKN060 13/04 Q1029 RMK PP000=
SPZO Dic2012-220200Z 32005KT 290V360 9999 -RA SCT040 BKN060 10/06 Q1030 RMK PP004=
SPZO Dic2012-220300Z VRB02KT 9999 -RA SCT040 BKN060 10/06 Q1030 RMK PP006=
SPZO Dic2012-220400Z 28009KT 9999 FEW030 BKN080 10/06 Q1031 RMK PPTRZ=
SPZO Dic2012-220500Z 00000KT 9999 FEW030 BKN080 09/06 Q1031 RMK PP000=
SPZO Dic2012-220600Z 00000KT 9999 FEW030 BKN080 09/06 Q1030 RMK PP000=
SPZO Dic2012-220700Z 00000KT 9999 FEW040 BKN080 09/06 Q1029 RMK PP000=
SPZO Dic2012-220800Z 00000KT 9999 FEW040 BKN080 09/06 Q1029 RMK PP000=
SPZO Dic2012-220900Z VRB02KT 9999 SCT040 BKN080 09/07 Q1029 RMK PP000=
SPZO Dic2012-221000Z 12003KT 9999 FEW030 SCT040 BKN080 09/07 Q1029 RMK PP000=
SPZO Dic2012-221100Z VRB02KT 8000 -RA SCT015 SCT030 OVC050 09/07 Q1030 NOSIG RMK CLNG BLW 1200M VIS 6000 NE RA PP006=
SPZO Dic2012-221200Z 10008KT 8000 -RA SCT015 SCT030 OVC060 08/06 Q1031 NOSIG RMK CLNG BLW 1200M VIS 4000SW PP016=
SPZO Dic2012-221300Z 10007KT 080V130 8000 -RA FEW010 SCT030 OVC050 08/05 Q1032 NOSIG RMK PP002=
SPZO Dic2012-221400Z 11007KT 9999 -RA FEW010 SCT030 OVC050 08/05 Q1033 NOSIG RMK PP002=
SPZO Dic2012-221500Z VRB03KT 9999 -RA FEW020 SCT040 BKN080 10/05 Q1033 NOSIG RMK PP002=
SPZO Dic2012-221600Z 11004KT 9999 FEW030 SCT050 BKN100 11/04 Q1032 TEMPO -RA RMK PP000=
SPZO Dic2012-221700Z 12004KT 9999 SCT040 BKN100 13/06 Q1031 TEMPO VCSH RMK PP000=
SPZO Dic2012-221800Z 14009KT 100V180 9999 SCT043 BKN080 16/06 Q1030 NOSIG RMK PP000=
SPZO Dic2012-221900Z 14008KT 090V180 9999 SCT046 BKN080 16/05 Q1029 TEMPO VCSH RMK PP000=
SPZO Dic2012-222000Z 10008KT 040V150 9999 SCT050 BKN080 15/06 Q1028 TEMPO VCSH RMK PP000=
SPZO Dic2012-222100Z 11014KT 9999 SCT050 SCT080 15/05 Q1028 NOSIG RMK PP000=
SPZO Dic2012-222200Z 08008KT 030V120 9999 SCT040TCU BKN080 14/05 Q1028 NOSIG RMK T MAX 16.6 PP000=
SPZO Dic2012-222300Z 11011KT 9999 SCT050 SCT080 13/05 Q1029 NOSIG RMK PP000=
SPZO Dic2012-230000Z 09005KT 9999 SCT050 SCT100 11/04 Q1030 NOSIG RMK PP000=
SPZO Dic2012-230100Z 00000KT 9999 SCT050 11/06 Q1030 NOSIG RMK PP000=
SPZO Dic2012-230200Z VRB02KT 9999 FEW050 SCT100 10/05 Q1032 RMK PP000=
SPZO Dic2012-230300Z 00000KT 9999 SCT060 09/05 Q1032 RMK PP000=
SPZO Dic2012-230400Z 00000KT 9999 SCT043 SCT050 09/05 Q1033 RMK PP000=
SPZO Dic2012-230500Z 00000KT 9999 SCT043 BKN050 09/05 Q1032 RMK PP000=
SPZO Dic2012-230600Z 00000KT 9999 SCT040 BKN050 09/05 Q1031 RMK PP000=
SPZO Dic2012-230700Z 00000KT 9999 BKN050 08/05 Q1030 RMK PP000=
SPZO Dic2012-230800Z 00000KT 9999 BKN050 07/04 Q1030 RMK PP000=
SPZO Dic2012-230900Z 00000KT 9999 FEW040 BKN080 07/04 Q1030 RMK PP000=
SPZO Dic2012-231000Z 10002KT 9999 FEW040 SCT046 BKN080 06/04 Q1031 RMK PP000=
SPZO Dic2012-231100Z 11002KT 9999 FEW040 SCT050 BKN080 07/05 Q1032 NOSIG RMK PP000=
SPZO Dic2012-231200Z 00000KT 9999 SCT050 BKN100 10/05 Q1032 NOSIG RMK PP000=
SPZO Dic2012-231300Z VRB02KT 9999 FEW033 SCT046 BKN100 12/05 Q1033 NOSIG RMK PP000=
SPZO Dic2012-231400Z VRB02KT 9999 SCT046 SCT100 15/05 Q1032 NOSIG RMK PP000=
SPZO Dic2012-231500Z 08003KT 360V160 9999 SCT046 BKN080 15/05 Q1032 NOSIG RMK PP000=
SPZO Dic2012-231600Z 06004KT 330V120 9999 SCT050 BKN080 16/03 Q1032 NOSIG RMK PP000=
SPZO Dic2012-231700Z 12006KT 080V240 9999 SCT050 BKN080 18/07 Q1030 TEMPO VCSH RMK PP000=
SPZO Dic2012-231800Z 14005KT 9999 SCT060 BKN100 17/04 Q1029 NOSIG RMK PP000=
SPZO Dic2012-231900Z 02009KT 9999 SCT060 SCT100 17/04 Q1028 TEMPO -RA RMK PP000=
SPZO Dic2012-232000Z 36010KT 9999 FEW060 SCT100 19/03 Q1027 TEMPO VCSH RMK PP000=
SPZO Dic2012-232100Z 01010KT 9999 FEW060 SCT100 18/04 Q1026 NOSIG RMK PP000=
SPZO Dic2012-232200Z 29014KT 9999 FEW040TCU SCT080 18/06 Q1026 NOSIG RMK PP000=
SPZO Dic2012-232300Z 29012KT 9999 FEW040TCU SCT080 16/06 Q1027 NOSIG RMK PP000=
SPZO Dic2012-240000Z 21010KT 9999 SCT040 SCT060 15/07 Q1028 RMK PP000=
SPZO Dic2012-240100Z 24007KT 9999 BKN040 SCT050 14/05 Q1030 RMK PP000=
SPZO Dic2012-240200Z VRB02KT 8000 -RA OVC040 10/06 Q1031 RMK PP082=
SPZO Dic2012-240300Z 00000KT 9999 SCT040 BKN050 10/07 Q1032 RMK PP002=
SPZO Dic2012-240400Z 00000KT 9999 BKN040 SCT050 10/07 Q1032 RMK PP000=
SPZO Dic2012-240500Z 00000KT 9999 -RA SCT036 BKN043 09/06 Q1032 RMK PP002=
SPZO Dic2012-240600Z 00000KT 9999 SCT030 BKN043 09/06 Q1031 RMK PP000=
SPZO Dic2012-240700Z 00000KT 9999 SCT030 BKN046 09/05 Q1030 RMK PP000=
SPZO Dic2012-240800Z 12006KT 9999 BKN040 SCT080 09/06 Q1030 RMK PP000=
SPZO Dic2012-240900Z 00000KT 9999 BKN040 SCT060 09/05 Q1030 RMK PP000=
SPZO Dic2012-241000Z 08002KT 9999 FEW020 SCT040 BKN050 08/06 Q1030 RMK PP000=
SPZO Dic2012-241100Z 11005KT 9999 VCSH FEW015 SCT046 BKN080 09/05 Q1031 NOSIG RMK PP000=
SPZO Dic2012-241200Z 00000KT 8000 FEW015 SCT046 BKN080 09/07 Q1032 NOSIG RMK PP040=
SPZO Dic2012-241300Z 00000KT 9999 FEW020 SCT040 BKN100 12/06 Q1032 NOSIG RMK PP000=
SPZO Dic2012-241400Z VRB01KT 9999 FEW020 SCT040 BKN100 13/06 Q1032 NOSIG RMK PP000=
SPZO Dic2012-241500Z 14004KT 9999 SCT060 BKN230 15/06 Q1032 NOSIG RMK PP000=
SPZO Dic2012-241600Z 07005KT 9999 SCT060 BKN100 16/06 Q1031 NOSIG RMK PP000=
SPZO Dic2012-241700Z VRB03KT 9999 VCSH SCT060 BKN230 18/05 Q1030 NOSIG RMK PP000=
SPZO Dic2012-241800Z VRB03KT 9999 VCSH FEW036 SCT046 BKN080 15/06 Q1029 WS R28 NOSIG RMK PP000=
SPZO Dic2012-241900Z 29013G23KT 260V330 9999 FEW036 SCT046 18/07 Q1028 WS R28 NOSIG RMK PP000=
SPZO Dic2012-242000Z 29012KT 250V320 9999 SCT046 SCT060 19/06 Q1026 WS R28 NOSIG RMK PP000=
SPZO Dic2012-242100Z 28011KT 250V310 9999 SCT046 SCT060 19/06 Q1025 WS R28 NOSIG RMK PP000=
SPZO Dic2012-242200Z 29012KT 9999 SCT046 FEW050TCU BKN070 19/05 Q1025 WS R28 NOSIG RMK TMAX 19.5 PP000=
SPZO Dic2012-242300Z 29015KT 9999 VCSH SCT046 BKN080 17/07 Q1025 NOSIG RMK PP000=
SPZO Dic2012-250000Z 08010KT 9999 VCSH SCT040CB BKN060 14/06 Q1027 RMK PP000=
SPZO Dic2012-250100Z 08006KT 9000 -RA SCT040 BKN060 11/08 Q1029 RMK PP004=
SPZO Dic2012-250200Z VRB02KT 9999 -DZ SCT040 BKN060 11/08 Q1029 RMK PPTRZ=
SPZO Dic2012-250300Z 00000KT 9999 SCT050 BKN080 12/08 Q1029 REDZ RMK PPTRZ=
SPZO Dic2012-250400Z 10003KT 060V150 9999 -DZ SCT050 BKN080 12/09 Q1030 RMK PPTRZ=
SPZO Dic2012-250500Z 11003KT 070V160 9999 SCT050 BKN080 11/09 Q1029 REDZ RMK PPTRZ=
SPZO Dic2012-250600Z 00000KT 5000 FU SCT040 BKN080 11/08 Q1028 RMK PP000=
SPZO Dic2012-250700Z 16004KT 110V220 8000 FEW033 SCT040 BKN080 12/06 Q1028 RMK -SHRA BTN 0635/0645 FU PP002=
SPZO Dic2012-250800Z 31006KT 270V360 9999 FEW033 SCT040 BKN080 11/06 Q1028 RMK -SHRA BTN 0715/0740 PP002=
SPZO Dic2012-250900Z VRB02KT 9999 FEW033 SCT040 BKN080 11/06 Q1028 RMK PP000=
SPZO Dic2012-251000Z 10004KT 9999 FEW025 SCT040 BKN060 09/07 Q1029 RMK VIS 7000 E -RA PP002=
SPZO Dic2012-251100Z 00000KT 8000 -RA FEW015 SCT036 BKN050 09/07 Q1029 NOSIG RMK CLNG BLW 1200M PP006=
SPZO Dic2012-251200Z VRB01KT 9999 FEW010 SCT040 BKN060 11/07 Q1030 NOSIG RMK PPTRZ=
SPZO Dic2012-251300Z 00000KT 9999 FEW020 SCT040 BKN080 14/06 Q1030 NOSIG RMK PP000=
SPZO Dic2012-251400Z 12008KT 080V160 9999 FEW025 SCT043 BKN080 14/07 Q1030 NOSIG RMK PP000=
SPZO Dic2012-251500Z 11004KT 360V160 9999 FEW030 SCT043 BKN080 15/07 Q1030 NOSIG RMK PP000=
SPZO Dic2012-251600Z VRB02KT 9999 SCT043 BKN080 17/06 Q1029 NOSIG RMK PP000=
SPZO Dic2012-251700Z 12005KT 070V170 9999 SCT046 SCT080 BKN200 18/05 Q1028 NOSIG RMK PP000=
SPZO Dic2012-251800Z VRB03KT 9999 FEW040 SCT050 BKN100 19/06 Q1027 TEMPO VCSH RMK PP000=
SPZO Dic2012-251900Z VRB05KT 9999 FEW040TCU SCT050 BKN100 18/05 Q1026 NOSIG RMK PP000=
SPZO Dic2012-252000Z VRB06KT 9999 FEW050 SCT100 BKN230 18/06 Q1025 NOSIG RMK PP000=
SPZO Dic2012-252100Z 03010KT 9999 FEW040TCU SCT050 BKN230 19/04 Q1024 NOSIG RMK PP000=
SPZO Dic2012-252200Z 31010KT 9999 FEW040 SCT050 BKN230 17/06 Q1025 NOSIG RMK PP000=
SPZO Dic2012-252300Z 30010KT 9999 FEW040 BKN050 16/05 Q1025 NOSIG RMK PP000=
SPZO Ene2013-010000Z 28005KT 240V310 9999 SCT060 SCT200 13/07 Q1028 RMK PP000=
SPZO Ene2013-010100Z VRB01KT 9999 FEW060 12/07 Q1029 RMK PP000=
SPZO Ene2013-010200Z 00000KT 9999 FEW050 SCT080 11/08 Q1030 RMK PP000=
SPZO Ene2013-010300Z VRB06KT 9999 FEW050 SCT080 12/04 Q1032 RMK PP000=
SPZO Ene2013-010400Z VRB02KT 9999 SCT050 12/04 Q1032 RMK PP000=
SPZO Ene2013-010500Z 30006KT 9999 SCT050 09/04 Q1031 RMK PP000=
SPZO Ene2013-010600Z 00000KT 9999 SCT050 SCT100 09/05 Q1030 RMK PP000=
SPZO Ene2013-010700Z 19004KT 160V220 9999 SCT050 SCT100 09/05 Q1030 RMK PP000=
SPZO Ene2013-010800Z 00000KT 9999 SCT050 SCT100 09/05 Q1030 RMK PP000=
SPZO Ene2013-010900Z 00000KT 9000 FEW043 BKN080 09/06 Q1030 RMK PP000=
SPZO Ene2013-011000Z 26003KT 200V290 9000 DZ SCT043 BKN080 09/06 Q1030 RMK PPTRZ=
SPZO Ene2013-011100Z 12005KT 8000 SCT040 BKN080 09/06 Q1032 NOSIG RMK VIS 5000 NE FU PP000=
SPZO Ene2013-011200Z VRB02KT 8000 SCT050 BKN100 11/06 Q1032 TEMPO VIS 9000 RMK VIS 5000E HZ PP000=
SPZO Ene2013-011400Z 11003KT 020V180 9999 SCT040 SCT100 15/06 Q1032 NOSIG RMK PP000=
SPZO Ene2013-011500Z VRB02KT 9999 SCT040 SCT100 17/04 Q1032 NOSIG RMK PP000=
SPZO Ene2013-011600Z 03004KT 9999 SCT040 SCT100 18/02 Q1031 NOSIG RMK PP000=
SPZO Ene2013-011700Z 31005KT 9999 SCT060 SCT100 19/01 Q1030 TEMPO VCSH FEW046TCU RMK PP000=
SPZO Ene2013-011800Z 04010KT 330V120 9999 FEW036TCU SCT050 SCT100 20/05 Q1028 TEMPO -RA RMK PP000=
SPZO Ene2013-011900Z 02013KT 320V060 9999 SCT043 BKN100 19/04 Q1027 NOSIG RMK PP000=
SPZO Ene2013-012000Z 36010KT 330V060 9999 FEW040TCU SCT046 BKN100 19/04 Q1027 TEMPO VCSH RMK PP000=
SPZO Ene2013-012100Z 14009KT 120V190 9999 VCSH SCT046 BKN080 16/04 Q1027 TEMPO -RA RMK PP000=
SPZO Ene2013-012200Z 11006KT 060V200 9000 -RA SCT050 BKN080 14/08 Q1028 NOSIG RMK T MAX 20.8 PP004=
SPZO Ene2013-012300Z 30008KT 9999 VCSH SCT050 BKN080 13/06 Q1028 RERA RMK PP002=
SPZO Ene2013-020000Z 00000KT 9999 FEW050 13/06 Q1029 RMK PP000=
SPZO Ene2013-020100Z 00000KT 9999 FEW050 11/06 Q1030 RMK PP000=
SPZO Ene2013-020200Z 00000KT 9999 SCT050 SCT080 11/06 Q1031 RMK PP000=
SPZO Ene2013-020300Z 00000KT 9999 SCT040 SCT060 11/07 Q1032 RMK PP000=
SPZO Ene2013-020400Z 00000KT 9999 SCT043 SCT060 11/07 Q1032 RMK PP000=
SPZO Ene2013-020500Z 00000KT 9999 SCT043 SCT060 11/07 Q1031 RMK PP000=
SPZO Ene2013-020600Z 00000KT 9999 SCT040 SCT050 11/05 Q1031 RMK PP000=
SPZO Ene2013-020700Z 28006KT 9999 -RA BKN040 SCT050 10/05 Q1031 RMK PP004=
SPZO Ene2013-020800Z 12005KT 9999 -RA BKN040 SCT050 09/06 Q1031 RMK PP006=
SPZO Ene2013-020900Z 12011KT 9999 SCT030 BKN046 08/04 Q1031 RMK PP002=
SPZO Ene2013-021000Z VRB03KT 9999 FEW030 SCT043 BKN080 07/04 Q1031 RMK PP000=
SPZO Ene2013-021100Z 04003KT 9999 FEW030 SCT040 BKN050 08/04 Q1032 NOSIG RMK PP000=
SPZO Ene2013-021200Z VRB01KT 9999 FEW033 SCT040 BKN070 09/04 Q1032 NOSIG RMK PP000=
SPZO Ene2013-021300Z 08004KT 030V130 9999 FEW030 SCT040 BKN080 09/04 Q1033 NOSIG RMK PP000=
SPZO Ene2013-021400Z 00000KT 9999 FEW030 SCT040 BKN100 11/05 Q1033 NOSIG RMK PP000=
SPZO Ene2013-021500Z VRB02KT 9999 FEW030 SCT040 BKN100 13/05 Q1033 NOSIG RMK PP000=
SPZO Ene2013-021600Z 08004KT 330V140 9999 SCT046 BKN100 16/06 Q1032 NOSIG RMK PP000=
SPZO Ene2013-021700Z 11006KT 060V180 9999 FEW036TCU SCT046 BKN100 17/05 Q1030 TEMPO VCSH RMK PP000=
SPZO Ene2013-021800Z 11006KT 9999 FEW040TCU SCT060 BKN100 19/04 Q1029 TEMPO VCSH RMK PP000=
SPZO Ene2013-021900Z 11004KT 9999 FEW060 SCT100 BKN230 20/04 Q1028 NOSIG RMK PP000=
SPZO Ene2013-022000Z 35006KT 9999 FEW040TCU SCT100 BKN230 18/05 Q1027 TEMPO VCSH RMK PP000=
SPZO Ene2013-022100Z 01008KT 9999 FEW040TCU SCT060 BKN100 18/04 Q1026 TEMPO -RA RMK PP000=
SPZO Ene2013-022200Z 01012KT 9999 FEW040TCU SCT060 BKN100 16/05 Q1027 TEMPO -RA RMK PP000=
SPZO Ene2013-022300Z 02011KT 9999 FEW040TCU SCT060 BKN100 15/05 Q1027 NOSIG RMK PP000=
SPZO Ene2013-030000Z 15004KT 9999 BKN040 SCT080 15/07 Q1030 RMK PP000=
SPZO Ene2013-030100Z 29004KT 7000 TSRA BKN040 SCT046CB 08/06 Q1034 RMK PP094=
SPZO Ene2013-030200Z 06005KT 9999 -RA OVC040 09/06 Q1035 RMK PP014=
SPZO Ene2013-030300Z 27005KT 9999 -RA OVC040 09/06 Q1034 RMK PP012=
SPZO Ene2013-030400Z 27009KT 9999 SCT030 BKN043 10/05 Q1033 RMK PP000=
SPZO Ene2013-030500Z 00000KT 9999 BKN043 SCT080 09/04 Q1033 RMK PP000=
SPZO Ene2013-030600Z 00000KT 9999 BKN050 08/05 Q1032 RMK PP000=
SPZO Ene2013-030700Z 00000KT 9999 BKN050 08/05 Q1031 RMK PP000=
SPZO Ene2013-030800Z 00000KT 9999 BKN050 SCT080 07/05 Q1031 RMK PP000=
SPZO Ene2013-030900Z 00000KT 9999 BKN050 SCT080 07/05 Q1031 RMK PP000=
SPZO Ene2013-031000Z 00000KT 9999 FEW020 SCT043 BKN200 07/05 Q1032 RMK PP000=
SPZO Ene2013-031100Z 00000KT 9999 FEW015 SCT043 BKN100 07/05 Q1033 NOSIG RMK PP000=
SPZO Ene2013-031200Z 00000KT 9999 FEW020 SCT050 BKN100 08/05 Q1033 NOSIG RMK HZ PP000=
SPZO Ene2013-031300Z 00000KT 9999 FEW020 SCT050 BKN100 11/06 Q1034 NOSIG RMK PP000=
SPZO Ene2013-031400Z VRB01KT 9999 FEW020 SCT040 BKN100 11/05 Q1034 NOSIG RMK PP000=
SPZO Ene2013-031500Z VRB03KT 9999 SCT040 BKN100 15/07 Q1033 NOSIG RMK PP000=
SPZO Ene2013-031600Z VRB02KT 9999 SCT040 SCT100 17/07 Q1032 NOSIG RMK PP000=
SPZO Ene2013-031700Z VRB03KT 9999 SCT060 SCT100 18/06 Q1031 NOSIG RMK PP000=
SPZO Ene2013-031800Z VRB06KT 9999 SCT050 SCT080 20/03 Q1030 NOSIG RMK PP000=
SPZO Ene2013-031900Z 04010KT 360V120 9999 SCT050 BKN080 20/06 Q1029 TEMPO 29014KT VCSH FEW040TCU SCT080 RMK PP000=
SPZO Ene2013-032000Z 14016G26KT 090V180 9999 VCSH FEW040TCU SCT046 BKN070 15/04 Q1030 TEMPO 9000 RA SCT040CB OVC080 RMK VIS 8000 E RA PP000=
SPZO Ene2013-032100Z 13010KT 9999 -RA VCSH SCT043 OVC070 12/07 Q1030 NOSIG RMK PP022=
SPZO Ene2013-032200Z 29005KT 270V340 9999 SCT043 OVC070 12/07 Q1030 NOSIG RMK TMAX 20.2 PPTRZ=
SPZO Ene2013-032300Z 26006KT 9999 SCT043 BKN100 13/05 Q1029 NOSIG RMK PP000=
SPZO Ene2013-040000Z 10003KT 030V130 9999 SCT050 BKN080 11/07 Q1031 RMK PP000=
SPZO Ene2013-040100Z VRB01KT 9999 SCT050 BKN080 11/07 Q1033 RMK PP000=
SPZO Ene2013-040200Z 00000KT 9999 SCT050 BKN080 12/07 Q1034 RMK PP000=
SPZO Ene2013-040300Z VRB02KT 9999 SCT050 BKN080 11/07 Q1034 RMK PP000=
SPZO Ene2013-040400Z 00000KT 9999 SCT050 BKN080 10/07 Q1035 RMK PP000=
SPZO Ene2013-040500Z 00000KT 9999 SCT050 BKN080 09/07 Q1034 RMK PP000=
SPZO Ene2013-040600Z 00000KT 9999 SCT050 BKN080 10/07 Q1033 RMK PP000=
SPZO Ene2013-040700Z VRB02KT 9999 SCT046 BKN080 09/07 Q1033 RMK PP000=
SPZO Ene2013-040800Z 00000KT 9999 SCT046 BKN080 09/06 Q1032 RMK PP000=
SPZO Ene2013-040900Z VRB02KT 9999 SCT046 BKN080 09/06 Q1033 RMK PP000=
SPZO Ene2013-041000Z VRB02KT 9999 FEW025 SCT046 BKN080 09/06 Q1033 RMK PP000=
SPZO Ene2013-041100Z 00000KT 9999 SCT040 BKN070 09/06 Q1034 NOSIG RMK VIS 9000 E BR PP000=
SPZO Ene2013-041200Z 00000KT 9999 FEW030 SCT040 BKN070 11/07 Q1034 NOSIG RMK VIS 9000 NE HZ PP000=
SPZO Ene2013-041300Z VRB02KT 9999 FEW030 SCT040 BKN100 14/06 Q1034 NOSIG RMK PP000=
SPZO Ene2013-041400Z VRB02KT 9999 FEW030 SCT040 BKN230 15/06 Q1034 NOSIG RMK PP000=
SPZO Ene2013-041500Z VRB03KT 9999 SCT043 OVC080 17/04 Q1034 TEMPO VCSH FEW040TCU BKN080 RMK PP000=
SPZO Ene2013-041600Z VRB04KT 9999 SCT043 OVC080 17/05 Q1033 NOSIG RMK PP000=
SPZO Ene2013-041700Z VRB04KT 9999 SCT043 BKN080 19/07 Q1032 NOSIG RMK PP000=
SPZO Ene2013-041800Z VRB04KT 9999 FEW040 SCT050 19/04 Q1030 NOSIG RMK PP000=
SPZO Ene2013-041900Z 03010KT 350V060 9999 SCT050 SCT230 21/04 Q1029 NOSIG RMK PP000=
SPZO Ene2013-042000Z 01009KT 9999 SCT050 SCT230 20/03 Q1028 NOSIG RMK PP000=
SPZO Ene2013-042100Z 01006KT 9999 SCT050 20/03 Q1027 NOSIG RMK PP000=
SPZO Ene2013-042200Z /////KT 9999 FEW040 SCT050 18/05 Q1028 TEMPO VCSH RMK T.MAX 20.9 PP000=
SPZO Ene2013-042300Z /////KT 9999 FEW040 SCT050 17/06 Q1029 NOSIG RMK PP000=
SPZO Ene2013-050000Z /////KT 9999 FEW040 SCT050 16/04 Q1031 RMK PP000=
SPZO Ene2013-050100Z /////KT 9999 SCT060 BKN100 14/05 Q1032 RMK PP000=
SPZO Ene2013-050200Z /////KT 9999 SCT050 BKN100 14/05 Q1033 RMK PP000=
SPZO Ene2013-050300Z /////KT 9999 -RA SCT050 BKN100 11/07 Q1034 RMK PP000=
SPZO Ene2013-050400Z /////KT 9999 -RA SCT050 BKN100 10/07 Q1034 RMK PP000=
SPZO Ene2013-050500Z /////KT 9999 -RA SCT050 BKN100 09/07 Q1034 RMK PP000=
SPZO Ene2013-050600Z /////KT 9999 -RA SCT050 BKN100 09/06 Q1034 RMK PP012=
SPZO Ene2013-050700Z /////KT 9999 -RA SCT050 BKN100 08/06 Q1033 RMK PP0060=
SPZO Ene2013-050800Z /////KT 9999 -RA SCT050 BKN100 08/05 Q1032 RMK PP012=
SPZO Ene2013-050900Z /////KT 9999 -RA SCT050 BKN100 08/05 Q1033 RMK PP002=
SPZO Ene2013-051000Z /////KT 9999 -RA FEW020 SCT030 BKN060 08/05 Q1033 RMK CLNG BLW 1200M PP004=
SPZO Ene2013-051200Z /////KT 4000 -RA BR SCT010 SCT033 BKN070 07/06 Q1035 NOSIG RMK CLNG BLW 1200M PP012=
SPZO Ene2013-051300Z /////KT 5000 -RA FEW015 SCT033 BKN070 08/06 Q1035 NOSIG RMK CLNG BLW 1200M PP012=
SPZO Ene2013-051400Z /////KT 7000 -RA FEW015 SCT036 BKN070 08/05 Q1036 NOSIG RMK CLNG BLW 1200M PP000=
SPZO Ene2013-051500Z /////KT 8000 -RA SCT020 SCT036 BKN080 08/05 Q1035 NOSIG RMK CLNG BLW 1200M PP006=
SPZO Ene2013-051700Z /////KT 9999 -DZ SCT030 SCT043 BKN080 11/05 Q1034 NOSIG RMK BIRD HAZARD RWY28 PPTRZ=
SPZO Ene2013-051800Z /////KT 9000 -DZ FEW025 SCT040 BKN070 11/06 Q1034 TEMPO -RA RMK PPTRZ=
SPZO Ene2013-051900Z /////KT 9000 -DZ FEW025 SCT036 BKN080 11/07 Q1033 NOSIG RMK PP002=
SPZO Ene2013-052000Z /////KT 9999 FEW030 SCT040 BKN080 12/05 Q1031 REDZ NOSIG RMK PPTRZ=
SPZO Ene2013-052100Z /////KT 9999 FEW033 SCT040 BKN100 13/06 Q1030 NOSIG RMK PP000=
SPZO Ene2013-052200Z /////KT 9999 SCT040 BKN100 14/07 Q1029 NOSIG RMK T MAX 15.3 PP000=
SPZO Ene2013-052300Z /////KT 9999 SCT040 BKN100 13/06 Q1030 NOSIG RMK PP000=
SPZO Ene2013-060000Z /////KT 9999 SCT040 BKN060 13/07 Q1030 RMK PP000=
SPZO Ene2013-060100Z /////KT 9999 SCT040 BKN060 12/07 Q1031 RMK PP000=
SPZO Ene2013-060200Z /////KT 9999 SCT040 SCT060 11/07 Q1032 RMK PP000=
SPZO Ene2013-060300Z /////KT 9999 SCT043 SCT070 10/08 Q1032 RMK PP000=
SPZO Ene2013-060400Z /////KT 9999 SCT043 SCT070 11/08 Q1033 RMK PP000=
SPZO Ene2013-060500Z /////KT 9999 SCT043 SCT070 11/07 Q1032 RMK PP000=
SPZO Ene2013-060600Z /////KT 9999 SCT050 SCT080 10/07 Q1031 RMK PP000=
SPZO Ene2013-060700Z /////KT 9999 SCT050 BKN080 10/07 Q1030 RMK PP000=
SPZO Ene2013-060800Z /////KT 9000 -RA FEW030 SCT040 BKN080 10/08 Q1030 RMK PP008=
SPZO Ene2013-060900Z /////KT 9000 RA FEW030 SCT040 BKN080 08/06 Q1030 RMK PP040=
SPZO Ene2013-061000Z /////KT 9999 -RA FEW025 SCT040 BKN080 08/06 Q1031 RMK PP004=
SPZO Ene2013-061100Z /////KT 9999 FEW025 SCT040 BKN080 08/06 Q1031 NOSIG RMK VIS 9000 E BR PPTRZ=
SPZO Ene2013-061200Z /////KT 9999 SCT040 BKN100 09/06 Q1031 NOSIG RMK PP000=
SPZO Ene2013-061300Z /////KT 9999 SCT060 BKN100 11/06 Q1032 NOSIG RMK PP000=
SPZO Ene2013-061400Z /////KT 9999 FEW030 SCT050 BKN080 12/06 Q1032 NOSIG RMK PP000=
SPZO Ene2013-061500Z /////KT 9999 FEW030 SCT050 BKN080 15/05 Q1032 NOSIG RMK PP000=
SPZO Ene2013-061600Z /////KT 9999 SCT050 BKN100 16/06 Q1031 NOSIG RMK PP000=
SPZO Ene2013-061700Z /////KT 9999 FEW040TCU SCT060 BKN100 18/06 Q1029 TEMPO VCSH RMK PP000=
SPZO Ene2013-061800Z /////KT 9999 VCSH FEW040TCU SCT050 BKN080 16/06 Q1029 TEMPO -RA RMK PP000=
SPZO Ene2013-061900Z /////KT 9999 SCT046 BKN080 16/05 Q1028 REDZ NOSIG RMK PPTRZ=
SPZO Ene2013-062000Z /////KT 9999 SCT050 BKN080 17/04 Q1027 NOSIG RMK PP000=
SPZO Ene2013-062100Z /////KT 9999 SCT050 BKN080 15/06 Q1027 NOSIG RMK VIS 9000 E -RA PP000=
SPZO Ene2013-062200Z /////KT 9999 FEW050 SCT080 17/06 Q1026 NOSIG RMK T MAX 18.7 -SHRA BTN 2110/2125 PP028=
SPZO Ene2013-062300Z /////KT 9999 FEW040 SCT060 17/06 Q1026 NOSIG RMK PP000=
SPZO Ene2013-070000Z /////KT 9999 SCT046 14/07 Q1027 RMK PP000=
SPZO Ene2013-070100Z /////KT 9999 FEW050 12/08 Q1028 RMK PP000=
SPZO Ene2013-070200Z /////KT 9999 FEW050 SCT100 11/08 Q1029 RMK PP000=
SPZO Ene2013-070300Z /////KT 9999 SCT040 SCT080 11/08 Q1030 RMK PP000=
SPZO Ene2013-070400Z /////KT 9999 -RA BKN040 SCT080 12/06 Q1030 RMK PP004=
SPZO Ene2013-070500Z /////KT 8000 -RA OVC040 09/06 Q1031 RMK PP016=
SPZO Ene2013-070600Z /////KT 8000 -RA SCT036 BKN040 09/06 Q1031 RMK PP018=
SPZO Ene2013-070700Z /////KT 9999 -RA BKN040 SCT050 08/06 Q1030 RMK PP030=
SPZO Ene2013-070800Z /////KT 9999 BKN040 SCT050 08/06 Q1030 RMK PP002=
SPZO Ene2013-070900Z /////KT 9999 SCT030 BKN046 08/06 Q1030 RMK PP000=
SPZO Ene2013-071000Z /////KT 9999 SCT020 SCT100 09/06 Q1030 RMK PP000=
SPZO Ene2013-071100Z /////KT 9999 FEW030 SCT046 07/05 Q1031 NOSIG RMK PP000=
SPZO Ene2013-071200Z /////KT 9999 FEW025 SCT050 09/06 Q1031 BECMG FM1300 FEW050 SCT230 RMK PP000=
SPZO Ene2013-071300Z /////KT 9999 FEW030 SCT046 13/05 Q1032 NOSIG RMK PP000=
SPZO Ene2013-071400Z /////KT 9999 SCT040 14/05 Q1031 NOSIG RMK PP000=
SPZO Ene2013-071500Z /////KT 9999 SCT043 SCT080 15/04 Q1031 NOSIG RMK PP000=
SPZO Ene2013-071600Z /////KT 9999 SCT043 SCT080 18/07 Q1030 TEMPO 9000 -RA VCSH SCT040TCU BKN080 RMK PP000=
SPZO Ene2013-071700Z /////KT 9000 VCSH SCT040TCU SCT080 12/07 Q1029 RERA NOSIG RMK VIS 8000 E PP002=
SPZO Ene2013-071800Z /////KT 9999 FEW040TCU SCT060 BKN100 16/06 Q1029 NOSIG RMK PP000=
SPZO Ene2013-071900Z /////KT 9999 SCT060 BKN100 19/07 Q1027 NOSIG RMK PP000=
SPZO Ene2013-072100Z /////KT 9999 -RA VCSH SCT040TCU BKN080 11/07 Q1027 NOSIG RMK PP086=
SPZO Ene2013-072200Z /////KT 9999 VCSH FEW040TCU SCT060 BKN100 12/07 Q1028 NOSIG RMK VIS 7000E PPTRZ=
SPZO Ene2013-072300Z /////KT 9999 SCT060 BKN100 12/07 Q1029 NOSIG RMK PP000=
SPZO Ene2013-080000Z /////KT 9999 SCT036 BKN043 11/07 Q1029 RMK PP000=
SPZO Ene2013-080100Z /////KT 9999 -RA OVC040 11/07 Q1031 RMK PPTRZ=
SPZO Ene2013-080200Z /////KT 9999 FEW030 SCT050 10/07 Q1031 RMK PP004=
SPZO Ene2013-080300Z /////KT 9999 SCT030 SCT050 10/08 Q1032 RMK PP000=
SPZO Ene2013-080400Z /////KT 9999 SCT030 BKN046 10/08 Q1032 RMK PP000=
SPZO Ene2013-080500Z /////KT 9999 SCT020 BKN040 09/07 Q1031 RMK PP000=
SPZO Ene2013-080600Z /////KT 9999 SCT030 BKN043 09/07 Q1031 RMK PP000=
SPZO Ene2013-080700Z /////KT 9000 SCT015 SCT050 08/07 Q1030 RMK PP000=
SPZO Ene2013-080800Z /////KT 9000 SCT015 BKN043 09/06 Q1030 RMK PP000=
SPZO Ene2013-080900Z /////KT 9000 SCT015 BKN040 08/06 Q1030 RMK PP000=
SPZO Ene2013-081000Z /////KT 8000 SCT015 SCT036 BKN070 08/06 Q1030 RMK VIS 5000W BR CLNG BLW 1200M PP000=
SPZO Ene2013-081100Z /////KT 9000 SCT010 SCT036 BKN070 08/06 Q1031 NOSIG RMK VIS 5000W BR CLNG BLW 1200M PP000=
SPZO Ene2013-081200Z VRB03KT 9999 SCT015 SCT036 BKN080 09/06 Q1032 NOSIG RMK CLNG BLW 1200M BR PP000=
SPZO Ene2013-081300Z 12004KT 9999 SCT020 SCT036 BKN080 10/06 Q1033 NOSIG RMK CLNG BLW 1200M PP000=
SPZO Ene2013-081400Z /////KT 9999 SCT020 SCT040 BKN080 12/05 Q1035 TEMPO SCT040 BKN100 RMK PP000=
SPZO Ene2013-081600Z 29006KT 9999 SCT030 BKN080 14/07 Q1032 NOSIG RMK PP000=
SPZO Ene2013-081700Z /////KT 9999 FEW040 SCT060 BKN230 16/06 Q1031 TEMPO -RA VCSH RMK PP000=
SPZO Ene2013-081800Z 10005KT 9999 -RA VCSH FEW040 SCT046 BKN070 11/07 Q1031 TEMPO SCT050 BKN100 RMK VIS 8000 NE RA PP030=
SPZO Ene2013-081900Z 07005KT 9999 VCSH FEW036TCU SCT046 BKN070 14/07 Q1029 TEMPO 9000 -RA SCT040TCU BKN100 RMK PP002=
SPZO Ene2013-082000Z 00000KT 9999 VCSH FEW036 SCT046 BKN070 15/07 Q1028 TEMPO 13012KT 8000 RA VCTS SCT040CB BKN100 RMK PP000=
SPZO Ene2013-082100Z 11004KT 9999 VCSH FEW036TCU SCT046 BKN080 14/07 Q1029 TEMPO 12012KT 7000 RA VCTS SCT040CB BKN100 RMK PP000=
SPZO Ene2013-082200Z 33002KT 9999 SCT040 BKN080 14/06 Q1029 NOSIG RMK TMAX 15.9 PP000=
SPZO Ene2013-082300Z 00000KT 9999 VCSH FEW036TCU SCT040 BKN080 14/06 Q1030 TEMPO 9000 -RA SCT040TCU BKN070 RMK PP000=
SPZO Ene2013-090000Z /////KT 9000 -RA SCT040 BKN060 11/04 Q1032 RMK PPTRZ=
SPZO Ene2013-090100Z /////KT 9999 SCT050 BKN060 10/06 Q1031 RERA RMK PPTRZ=
SPZO Ene2013-090200Z /////KT 9999 SCT050 BKN060 10/05 Q1033 RMK PP000=
SPZO Ene2013-090300Z /////KT 9999 SCT050 SCT060 08/05 Q1033 RMK PP000=
SPZO Ene2013-090400Z /////KT 9999 SCT050 SCT060 07/05 Q1033 RMK PP000=
SPZO Ene2013-090500Z /////KT 9999 SCT050 SCT060 07/05 Q1033 RMK PP000=
SPZO Ene2013-090600Z /////KT 9999 FEW030 SCT050 07/05 Q1032 RMK PP000=
SPZO Ene2013-090700Z /////KT 9999 FEW030 SCT050 05/04 Q1032 RMK PP000=
SPZO Ene2013-090800Z /////KT 9999 FEW025 SCT050 SCT080 06/04 Q1031 RMK PP000=
SPZO Ene2013-090900Z /////KT 9999 FEW025 SCT050 SCT080 05/04 Q1032 RMK VIS 8000 E BR PP000=
SPZO Ene2013-091000Z /////KT 9999 FEW025 SCT040 SCT100 05/03 Q1032 RMK VIS 8000 E BR PP000=
SPZO Ene2013-091100Z /////KT 9999 FEW025 SCT046 BKN100 05/04 Q1034 TEMPO FEW010 SCT040 BKN080 RMK VIS 9000 E BR PP000=
SPZO Ene2013-091200Z 12003KT 9999 FEW030 SCT043 OVC080 06/04 Q1034 NOSIG RMK VIS 8000 NE BR PP000=
SPZO Ene2013-091300Z 00000KT 9999 FEW010 SCT043 BKN080 10/06 Q1034 NOSIG RMK VIS 8000 NE BR PP000=
SPZO Ene2013-091400Z 00000KT 9999 FEW025 SCT043 BKN100 13/06 Q1034 NOSIG RMK VIS 9000 NE HZ PP000=
SPZO Ene2013-091500Z 09002KT 9999 FEW030 SCT043 15/06 Q1034 NOSIG RMK VIS 9000 NE HZ PP000=
SPZO Ene2013-091600Z 17004KT 9999 FEW036TCU SCT050 BKN080 16/07 Q1033 TEMPO VCSH FEW040TCU SCT100 RMK PP000=
SPZO Ene2013-091700Z 35005KT 9999 SCT043 SCT100 15/07 Q1032 NOSIG RMK PP000=
SPZO Ene2013-091800Z 09008KT 9999 FEW040 SCT050 18/07 Q1031 NOSIG RMK PP000=
SPZO Ene2013-091900Z 34006KT 9999 VCSH FEW040TCU SCT050 15/07 Q1030 TEMPO -RA RMK PP000=
SPZO Ene2013-092000Z 20004KT 9999 FEW043TCU SCT060 16/06 Q1029 TEMPO 29014 9000 RA SCT040TCU BKN080 RMK PP000=
SPZO Ene2013-092100Z 27011KT 9999 SCT050 SCT080 16/05 Q1029 TEMPO 29014KT 9000 RA SCT040TCU BKN080 RMK PP000=
SPZO Ene2013-092200Z 28011KT 9999 SCT050 SCT100 16/06 Q1029 NOSIG RMK T.MAX 19.3 PP000=
SPZO Ene2013-092300Z 30006KT 9999 FEW050 SCT230 14/07 Q1030 NOSIG RMK PP000=
SPZO Ene2013-100000Z /////KT 9999 SCT060 BKN100 14/05 Q1031 RMK PP000=
SPZO Ene2013-100100Z /////KT 9999 SKC 12/05 Q1032 RMK PP000=
SPZO Ene2013-100200Z /////KT 9999 SKC 10/06 Q1032 RMK PP000=
SPZO Ene2013-100300Z /////KT 9999 SKC 09/06 Q1033 RMK PP000=
SPZO Ene2013-100400Z /////KT 9999 SKC 09/06 Q1033 RMK PP000=
SPZO Ene2013-100500Z /////KT 9999 SKC 07/05 Q1033 RMK PP000=
SPZO Ene2013-100600Z /////KT 9999 SKC 07/05 Q1032 RMK PP000=
SPZO Ene2013-100700Z /////KT 9999 SKC 07/05 Q1032 RMK PP000=
SPZO Ene2013-100800Z /////KT 9999 SCT040 BKN100 06/04 Q1032 RMK PP000=
SPZO Ene2013-101000Z /////KT 9999 SKC 06/04 Q1032 RMK PP000=
SPZO Ene2013-101100Z /////KT 9999 FEW030 OVC230 06/04 Q1033 NOSIG RMK VIS 7000E MIFG E PP000=
SPZO Ene2013-101200Z 00000KT 9999 FEW043 08/05 Q1034 NOSIG RMK PP000=
SPZO Ene2013-101300Z 35002KT 9999 FEW050 11/05 Q1034 NOSIG RMK PP000=
SPZO Ene2013-101400Z 09003KT 9999 SCT050 15/05 Q1034 NOSIG RMK PP000=
SPZO Ene2013-101500Z 14004KT 9999 SCT050 17/05 Q1033 NOSIG RMK PP000=
SPZO Ene2013-101600Z 10008KT 9999 FEW040 SCT050 18/07 Q1032 TEMPO VCSH FEW040TCU SCT100 RMK PP000=
SPZO Ene2013-101700Z 06005KT 9999 -RA FEW040TCU SCT050 18/05 Q1031 NOSIG RMK PP000=
SPZO Ene2013-101800Z 13007KT 9999 SCT043 SCT080 18/04 Q1030 RERA NOSIG RMK PPTRZ=
SPZO Ene2013-101900Z 29018KT 9999 VCSH FEW036TCU SCT050 BKN070 17/04 Q1030 BECMG FM1930 28016KT 8000 RA TS VC SCT036CB BKN070 RMK PP000=
SPZO Ene2013-102000Z 29012KT 9999 VCSH FEW040TCU SCT046 BKN080 15/05 Q1029 TEMPO 9000 -RA RMK PP000=
SPZO Ene2013-102100Z 24004KT 9999 SCT050 BKN080 17/06 Q1028 NOSIG RMK PP000=
SPZO Ene2013-102200Z 29005KT 9999 SCT050 BKN100 17/05 Q1028 BECMG FM 2215 8000 RA SCT036CB OVC080 RMK T MAX 19.8 PP000=
SPZO Ene2013-102300Z 08004KT 9999 FEW050 BKN100 16/06 Q1028 TEMPO 8000 RA SCT036CB OVC080 RMK PP000=
SPZO Ene2013-110000Z /////KT 9999 FEW040 BKN100 15/06 Q1029 RMK PP000=
SPZO Ene2013-110100Z /////KT 9999 FEW040 BKN080 14/07 Q1031 RMK PP000=
SPZO Ene2013-110200Z /////KT 9999 FEW040 BKN080 14/08 Q1031 RMK PP000=
SPZO Ene2013-110300Z /////KT 9999 BKN080 13/08 Q1032 RMK PP000=
SPZO Ene2013-110400Z /////KT 9999 BKN080 12/08 Q1031 RMK PP000=
SPZO Ene2013-110500Z /////KT 9999 FEW050 SCT100 12/08 Q1031 RMK PP000=
SPZO Ene2013-110600Z /////KT 9999 FEW050 SCT100 12/08 Q1030 RMK PP000=
SPZO Ene2013-110700Z /////KT 9999 FEW050 SCT100 12/08 Q1030 RMK PP000=
SPZO Ene2013-110800Z /////KT 9999 SCT050 SCT080 12/07 Q1030 RMK PP000=
SPZO Ene2013-110900Z /////KT 9999 SCT046 SCT070 11/07 Q1030 RMK PP000=
SPZO Ene2013-111000Z /////KT 9999 FEW030 SCT046 BKN070 11/06 Q1031 RMK PP000=
SPZO Ene2013-111100Z /////KT 8000 -RA FEW020 SCT040 OVC050 09/06 Q1033 NOSIG RMK VIS 6000 NE RA PP036=
SPZO Ene2013-111200Z 00000KT 7000 -RA SCT020 SCT036 BKN060 09/06 Q1033 NOSIG RMK CLNG BLW 1200M PP014=
SPZO Ene2013-111300Z 00000KT 7000 -RA SCT020 SCT036 BKN060 09/07 Q1034 NOSIG RMK CLNG BLW 1200M VIS 5000E PP016=
SPZO Ene2013-111400Z 00000KT 9999 SCT020 SCT040 BKN060 11/06 Q1033 TEMPO FEW020 SCT040 BKN080 RMK PP008=
SPZO Ene2013-111500Z VRB02KT 9999 FEW020 SCT040 BKN080 13/05 Q1033 NOSIG RMK PP000=
SPZO Ene2013-111600Z 07004KT 9999 FEW040TCU SCT060 BKN100 16/06 Q1031 TEMPO VCSH RMK PP000=
SPZO Ene2013-111700Z VRB03KT 9999 VCSH FEW040TCU SCT060 BKN100 16/05 Q1030 TEMPO -RA RMK PP000=
SPZO Ene2013-111800Z 35003KT 300V030 9999 SCT040 BKN100 16/06 Q1029 TEMPO -RA RMK PP000=
SPZO Ene2013-111900Z 22006KT 290V360 9999 FEW036TCU SCT043 BKN100 16/06 Q1028 TEMPO -RA VCSH RMK PP000=
SPZO Ene2013-112000Z 25008KT 9999 SCT040TCU BKN150 16/06 Q1027 TEMPO VCSH RMK PP000=
SPZO Ene2013-112100Z 29005KT 240V330 9999 SCT046 BKN150 18/05 Q1026 NOSIG RMK PP000=
SPZO Ene2013-112200Z VRB02KT 9999 SCT050 BKN100 18/05 Q1025 NOSIG RMK T MAX 17.8 PP000=
SPZO Ene2013-112300Z 35006KT 9999 SCT050 BKN100 17/07 Q1026 NOSIG RMK PP000=
SPZO Ene2013-120000Z 07003KT 9999 SCT050 14/07 Q1027 RMK PP000=
SPZO Ene2013-120100Z VRB02KT 9999 SCT050 SCT080 14/07 Q1028 RMK PP000=
SPZO Ene2013-120200Z 00000KT 9999 SCT050 SCT080 13/09 Q1029 RMK PP000=
SPZO Ene2013-120300Z 00000KT 9999 SCT046 SCT080 13/07 Q1029 RMK PP000=
SPZO Ene2013-120400Z 00000KT 9999 SCT046 SCT060 12/08 Q1029 RMK PP000=
SPZO Ene2013-120500Z 00000KT 9999 BKN043 SCT050 12/08 Q1029 RMK PP000=
SPZO Ene2013-120600Z 00000KT 9999 BKN040 SCT050 11/08 Q1029 RMK PP000=
SPZO Ene2013-120700Z 10006KT 9999 SCT036 BKN046 10/08 Q1028 RMK PP000=
SPZO Ene2013-120900Z 06003KT 9999 SCT030 BKN046 10/07 Q1028 RMK PP000=
SPZO Ene2013-121000Z 11004KT 9999 FEW030 SCT040 BKN050 10/07 Q1029 RMK PP000=
SPZO Ene2013-121100Z 00000KT 9000 VCSH FEW030 SCT036 BKN046 10/08 Q1029 NOSIG RMK CLNG BLW 1200M PP002=
SPZO Ene2013-121200Z 29004KT 9000 -RA FEW025 SCT036 BKN046 10/08 Q1030 NOSIG RMK VIS 8000 E -RA CLNG BLW 1200M PP010=
SPZO Ene2013-121300Z 00000KT 9999 FEW025 SCT043 BKN060 11/07 Q1030 RERA NOSIG RMK -RA W PP002=
SPZO Ene2013-121400Z 11005KT 9999 FEW030 SCT043 BKN060 12/07 Q1030 NOSIG RMK PP000=
SPZO Ene2013-121500Z 00000KT 9000 -DZ FEW030 SCT043 BKN050 13/07 Q1030 NOSIG RMK PPTRZ=
SPZO Ene2013-121600Z VRB03KT 9999 FEW033 SCT046 BKN060 15/07 Q1029 REDZ NOSIG RMK PPTRZ=
SPZO Ene2013-121700Z 28007KT 9999 -RA FEW036TCU SCT046 BKN070 15/08 Q1028 NOSIG RMK PPTRZ=
SPZO Ene2013-121800Z 20006KT 9999 VCSH FEW040TCU SCT060 BKN100 19/05 Q1027 TEMPO -RA RMK PP000=
SPZO Ene2013-121900Z 02009KT 9999 FEW040TCU SCT100 BKN230 17/07 Q1026 TEMPO VCSH RMK PP000=
SPZO Ene2013-122000Z 02011KT 9999 FEW040TCU SCT100 BKN230 17/06 Q1025 TEMPO 27012KT RMK PP000=
SPZO Ene2013-122200Z 28010KT 9999 FEW040TCU SCT060 BKN100 14/07 Q1025 NOSIG RMK PP000=
SPZO Ene2013-122300Z /////KT 9999 SCT050 SCT230 14/06 Q1026 NOSIG RMK PP000=
SPZO Ene2013-130000Z 36010KT 9999 SCT040 SCT050 14/06 Q1027 RMK PP000=
SPZO Ene2013-130100Z 30004KT 9999 SCT043 SCT080 13/06 Q1028 RMK PP000=
SPZO Ene2013-130200Z 32009KT 9999 -RA BKN040 SCT050 11/06 Q1030 RMK PP004=
SPZO Ene2013-130300Z 27006KT 9999 BKN040 SCT050 10/07 Q1043 RMK PP002=
SPZO Ene2013-130400Z 00000KT 8000 RA OVC040 09/07 Q1032 RMK PP040=
SPZO Ene2013-130500Z 00000KT 8000 -RA BKN040 SCT046 08/05 Q1032 RMK PP042=
SPZO Ene2013-130600Z 28004KT 9999 -RA SCT030 BKN040 08/05 Q1031 RMK PP024=
SPZO Ene2013-130700Z 30005KT 9999 BKN043 SCT070 08/05 Q1029 RMK PP002=
SPZO Ene2013-130800Z 00000KT 9999 BKN043 SCT080 08/04 Q1030 RMK PP000=
SPZO Ene2013-130900Z 00000KT 9999 BKN043 SCT080 08/05 Q1030 RMK PP000=
SPZO Ene2013-131000Z 00000KT 9999 FEW020 SCT040 BKN070 08/05 Q1030 RMK PP000=
SPZO Ene2013-131100Z 00000KT 9999 SCT050 BKN100 08/05 Q1031 NOSIG RMK PP000=
SPZO Ene2013-131200Z 00000KT 9999 FEW040 OVC100 09/05 Q1031 NOSIG RMK PP000=
SPZO Ene2013-131300Z 00000KT 9999 FEW020 OVC100 11/06 Q1032 TEMPO FEW030 SCT050 BKN080 RMK PP000=
SPZO Ene2013-131400Z 00000KT 9999 FEW020 SCT040 BKN100 12/05 Q1031 NOSIG RMK PP000=
SPZO Ene2013-131500Z 28004KT 9999 FEW030 SCT060 BKN100 14/05 Q1031 NOSIG RMK PP000=
SPZO Ene2013-131600Z 12004KT 9999 FEW030 SCT060 BKN100 14/05 Q1030 TEMPO -RA SCT040 BKN080 RMK PP000=
SPZO Ene2013-131700Z VRB02KT 9999 FEW030 SCT060 BKN100 15/06 Q1029 TEMPO -RA VCSH FEW040TCU BKN100 RMK PP000=
SPZO Ene2013-131800Z 27005KT 9999 FEW036 SCT046 BKN080 18/06 Q1029 TEMPO -RA VCSH FEW040TCU BKN100 RMK PP000=
SPZO Ene2013-131900Z 29011KT 260V320 9999 FEW030TCU SCT040 BKN080 17/07 Q1028 TEMPO 29014KT RMK PP000=
SPZO Ene2013-132000Z 17011KT 130V240 9999 -RA VCSH SCT040 BKN060 13/06 Q1028 NOSIG RMK VIS 8000 NE RA PP006=
SPZO Ene2013-132100Z 09004KT 050V130 9999 VCSH FEW025 SCT040 BKN060 11/07 Q1029 NOSIG RMK PP016=
SPZO Ene2013-132200Z VRB01KT 9999 SCT043 BKN080 12/07 Q1029 NOSIG RMK TMAX 18.1 PP000=
SPZO Ene2013-132300Z VRB01KT 9999 SCT043 BKN080 12/06 Q1029 NOSIG RMK PP000=
SPZO Ene2013-140000Z VRB02KT 9999 FEW040 SCT080 12/07 Q1029 RMK PP000=
SPZO Ene2013-140100Z 00000KT 9999 SCT050 BKN080 11/08 Q1030 RMK PP000=
SPZO Ene2013-140200Z 00000KT 9999 SCT050 SCT080 10/07 Q1031 RMK PP000=
SPZO Ene2013-140300Z VRB01KT 9999 SCT050 BKN070 10/07 Q1032 RMK PP000=
SPZO Ene2013-140400Z 00000KT 9999 SCT050 BKN070 10/08 Q1032 RMK PP000=
SPZO Ene2013-140500Z VRB02KT 9999 SCT043 BKN060 10/07 Q1031 RMK PP000=
SPZO Ene2013-140600Z 00000KT 9999 SCT043 BKN060 10/07 Q1030 RMK PP000=
SPZO Ene2013-140700Z VRB02KT 9999 SCT040 BKN060 10/07 Q1030 RMK PP000=
SPZO Ene2013-140800Z 11005KT 9999 FEW025 SCT040 BKN060 09/07 Q1030 RMK VIS 8000 E BR PP000=
SPZO Ene2013-140900Z 00000KT 9999 FEW025 SCT040 BKN060 10/07 Q1030 RMK VIS 8000 E BR PP000=
SPZO Ene2013-141000Z VRB01KT 9999 -RA FEW025 SCT036 BKN050 10/07 Q1030 RMK VIS 8000 E PP002=
SPZO Ene2013-141100Z 11005KT 9999 -RA FEW020 SCT036 BKN050 10/08 Q1031 TEMPO FEW010 BKN040 OVC060 RMK VIS 8000 E PP002=
SPZO Ene2013-141200Z 09003KT 9999 DZ FEW020 SCT040 OVC060 10/07 Q1032 TEMPO FEW010 BKN040 RMK VIS 8000 NE RA PPTRZ=
SPZO Ene2013-141300Z 12003KT 080V150 9000 -RA VCSH FEW010 SCT036 OVC050 10/07 Q1033 TEMPO BKN040 RMK VIS 8000 NE RA PP004=
SPZO Ene2013-141400Z 10007KT 9000 -RA VCSH FEW010 SCT033 OVC050 10/08 Q1033 NOSIG RMK CLNG BLW 1200M VIS 7000 NE RA PP006=
SPZO Ene2013-141500Z 12004KT 080V150 9999 VCSH SCT020 SCT040 OVC060 11/07 Q1033 TEMPO SCT040 BKN100 RMK VIS 9000 NE RA PP002=
SPZO Ene2013-141600Z VRB03KT 9999 FEW020 SCT043 BKN070 14/06 Q1032 NOSIG RMK PP000=
SPZO Ene2013-141700Z 10009KT 070V130 9999 SCT040 BKN070 14/06 Q1031 NOSIG RMK PP000=
SPZO Ene2013-141800Z 11008KT 9999 SCT046 SCT080 15/08 Q1030 TEMPO 02010KT VCSH FEW040TCU SCT100 RMK PP000=
SPZO Ene2013-141900Z VRB04KT 9999 SCT050 SCT100 17/06 Q1029 29010KT VCSH FEW040TCU BKN100 RMK PP000=
SPZO Ene2013-142000Z 14004KT 070V190 9999 FEW040 SCT050 BKN080 17/06 Q1028 TEMPO -RA SCT040TCU BKN080 RMK PP000=
SPZO Ene2013-142100Z VRB03KT 9999 SCT050 SCT080 17/06 Q1026 NOSIG RMK PP000=
SPZO Ene2013-142300Z 30012KT 9999 SCT050 SCT230 15/06 Q1027 NOSIG RMK PP000=
SPZO Ene2013-150000Z 30008KT 9999 SCT040TCU BKN080 14/06 Q1028 RMK PP000=
SPZO Ene2013-150100Z 29006KT 9999 SCT060 BKN100 14/06 Q1029 RMK PP000=
SPZO Ene2013-150300Z 28008KT 9999 SCT060 BKN100 13/07 Q1030 RMK PP000=
SPZO Ene2013-150400Z 30006KT 9999 SCT040 BKN100 12/07 Q1030 RMK PP000=
SPZO Ene2013-150500Z 00000KT 9999 SCT040 BKN100 12/07 Q1030 RMK PP000=
SPZO Ene2013-150600Z 00000KT 9999 -RA SCT040 BKN100 11/07 Q1030 RMK PPTRZ=
SPZO Ene2013-150700Z 00000KT 9999 -RA SCT040 BKN100 11/06 Q1029 RMK PPTRZ=
SPZO Ene2013-150800Z 00000KT 9999 SCT040 BKN100 10/05 Q1029 RMK PP000=
SPZO Ene2013-150900Z 00000KT 9999 SCT040 BKN100 10/06 Q1030 RMK PP000=
SPZO Ene2013-151000Z 00000KT 9999 SCT050 BKN100 10/07 Q1030 RMK PP000=
SPZO Ene2013-151100Z 00000KT 9999 FEW030 SCT050 BKN100 10/07 Q1031 NOSIG RMK PP000=
SPZO Ene2013-151200Z 29006KT 9999 FEW030 SCT043 BKN080 11/06 Q1031 NOSIG RMK PP000=
SPZO Ene2013-151300Z 30006KT 9999 FEW030 SCT046 BKN080 12/06 Q1031 NOSIG RMK PP000=
SPZO Ene2013-151400Z 00000KT 9999 VCSH FEW033 SCT046 BKN080 13/06 Q1031 NOSIG RMK PP000=
SPZO Ene2013-151500Z 08003KT 9999 FEW033 SCT050 BKN080 13/06 Q1030 NOSIG RMK PP000=
SPZO Ene2013-151600Z VRB03KT 9999 FEW036 SCT050 BKN080 15/06 Q1029 NOSIG RMK PP000=
SPZO Ene2013-151700Z 01009KT 9999 VCSH SCT050 SCT100 16/06 Q1028 NOSIG RMK PP000=
SPZO Ene2013-151800Z 01006KT 9999 VCSH FEW036TCU SCT046 BKN080 17/06 Q1027 TEMPO 32010KT 9000 -RA SCT040TCU BKN080 RMK PP000=
SPZO Ene2013-152000Z VRB08KT 9999 FEW040TCU SCT046 BKN080 18/05 Q1025 TEMPO 29014KT VCSH RMK PP000=
SPZO Ene2013-152100Z 33007KT 290V030 9999 VCSH FEW036TCU SCT050 BKN100 18/05 Q1024 TEMPO -RA RMK PP000=
SPZO Ene2013-152200Z 10008KT 9999 SCT040TCU BKN080 15/08 Q1024 TEMPO -RA VCSH RMK T 18.9 MAX PP000=
SPZO Ene2013-152300Z VRB02KT 9999 SCT040TCU BKN100 15/06 Q1025 NOSIG RMK PP000=
SPZO Ene2013-160100Z 23005KT 190V350 9999 SCT043 BKN070 14/06 Q1027 RMK PP000=
SPZO Ene2013-160200Z 14006KT 100V170 9999 FEW043 SCT080 13/05 Q1028 RMK PP000=
SPZO Ene2013-160300Z 09004KT 050V150 9999 FEW043 SCT080 12/05 Q1029 RMK PP000=
SPZO Ene2013-160400Z VRB02KT 9999 SCT050 11/06 Q1029 RMK PP000=
SPZO Ene2013-160500Z 00000KT 9999 SCT050 10/06 Q1029 RMK PP000=
SPZO Ene2013-160600Z 12003KT 9999 FEW040 SCT080 10/07 Q1028 RMK PP000=
SPZO Ene2013-160700Z 00000KT 9999 SCT043 SCT080 10/06 Q1027 RMK PP000=
SPZO Ene2013-160800Z VRB01KT 9999 SCT043 SCT080 10/06 Q1027 RMK PP000=
SPZO Ene2013-160900Z 00000KT 9999 SCT043 SCT080 10/07 Q1028 RMK PP000=
SPZO Ene2013-161000Z 00000KT 9999 DZ SCT040 BKN070 10/07 Q1028 RMK PP000=
SPZO Ene2013-161100Z 00000KT 9999 DZ FEW030 SCT043 OVC070 10/07 Q1029 NOSIG RMK VIS 9000 E BR PP002=
SPZO Ene2013-161200Z VRB03KT 9999 FEW030 SCT050 BKN100 11/07 Q1029 NOSIG RMK HZ NE PP000=
SPZO Ene2013-161300Z 00000KT 9999 FEW030 SCT050 BKN100 12/07 Q1030 NOSIG RMK HZ NE PP000=
SPZO Ene2013-161400Z VRB02KT 9999 FEW030 SCT050 BKN100 13/06 Q1030 NOSIG RMK HZ NE PP000=
SPZO Ene2013-161500Z 11004KT 9999 FEW040TCU SCT060 BKN080 14/07 Q1029 NOSIG RMK PP000=
SPZO Ene2013-161600Z 11007KT 9999 VCSH SCT050 BKN100 14/06 Q1029 TEMPO -RA RMK PP000=
SPZO Ene2013-161700Z 10009KT 9999 SCT050 BKN100 15/07 Q1028 NOSIG RMK PP000=
SPZO Ene2013-161800Z 11009KT 030V190 9999 SCT040 BKN100 17/06 Q1027 TEMPO 30008KT VCSH FEW040TCU SCT100 RMK PP000=
SPZO Ene2013-161900Z VRB04KT 9999 FEW036TCU SCT046 BKN100 18/05 Q1025 TEMPO VCSH RMK PP000=
SPZO Ene2013-162000Z 02013KT 340V060 9999 SCT036TCU BKN100 17/04 Q1025 TEMPO VCSH RMK PP000=
SPZO Ene2013-162100Z 02009KT 320V090 9999 FEW036TCU SCT046 BKN080 17/04 Q1025 TEMPO VCSH RMK PP000=
SPZO Ene2013-162200Z 06012KT 020V090 9999 SCT046 BKN080 18/04 Q1025 NOSIG RMK T MAX 18.7 PP000=
SPZO Ene2013-162300Z VRB03KT 9999 SCT050 BKN100 16/02 Q1025 NOSIG RMK PP000=
SPZO Ene2013-170000Z VRB02KT 9999 FEW050 BKN100 14/03 Q1027 RMK PP000=
SPZO Ene2013-170100Z VRB02KT 9999 FEW050 SCT230 14/04 Q1028 RMK PP000=
SPZO Ene2013-170200Z 10002KT 9999 FEW050 SCT230 12/05 Q1029 RMK PP000=
SPZO Ene2013-170300Z 00000KT 9999 SCT050 11/05 Q1029 RMK PP000=
SPZO Ene2013-170400Z 00000KT 9999 FEW050 09/06 Q1029 RMK PP000=
SPZO Ene2013-170500Z 09004KT 9999 SCT050 09/05 Q1029 RMK PP000=
SPZO Ene2013-170600Z 00000KT 9999 FEW050 09/06 Q1029 RMK PP000=
SPZO Ene2013-170700Z 00000KT 9999 FEW040 SCT050 09/05 Q1028 RMK PP000=
SPZO Ene2013-170800Z 00000KT 9999 SCT050 09/06 Q1028 RMK PP000=
SPZO Ene2013-170900Z 00000KT 9999 SCT050 SCT080 08/05 Q1028 RMK PP000=
SPZO Ene2013-171000Z 00000KT 9999 SCT040 BKN050 09/06 Q1029 RMK PP000=
SPZO Ene2013-171200Z 12004KT 9000 FEW020 SCT036 BKN050 10/06 Q1031 NOSIG RMK VIS 8000 E BR PP000=
SPZO Ene2013-171300Z 09005KT 060V130 9999 FEW025 SCT040 BKN060 11/06 Q1032 NOSIG RMK PP000=
SPZO Ene2013-171400Z 10007KT 060V150 9999 FEW025 SCT043 BKN060 13/06 Q1032 NOSIG RMK PP000=
SPZO Ene2013-171500Z 11011KT 9999 FEW025 SCT046 BKN070 13/04 Q1031 TEMPO -RA 9000 E RMK PP000=
SPZO Ene2013-171600Z 11010KT 9999 FEW025 SCT046 BKN070 14/06 Q1031 TEMPO -RA RMK -RA NE PP000=
SPZO Ene2013-171700Z 05005KT 330V120 9999 -DZ FEW025 SCT043 BKN060 14/06 Q1030 TEMPO 9000 E RMK PPTRZ=
SPZO Ene2013-171800Z VRB02KT 9999 FEW020 SCT050 BKN080 16/07 Q1029 NOSIG RMK PP000=
SPZO Ene2013-172000Z 24011KT 9000 -RA VCSH FEW036TCU SCT050 BKN080 13/06 Q1028 TEMPO VIS 8000E RMK PPTRZ=
SPZO Ene2013-172100Z 28004KT 9999 -RA VCSH SCT036 BKN080 12/07 Q1028 TEMPO 8000W RMK PP010=
SPZO Ene2013-172200Z 30004KT 9999 FEW020 SCT040 BKN080 12/07 Q1029 NOSIG RMK TMAX 17.3 PP004=
SPZO Ene2013-180000Z 34006KT 310V030 9999 -RA FEW036 SCT046 OVC080 12/06 Q1031 RMK PP000=
SPZO Ene2013-180100Z 30010KT 9999 -RA FEW036 SCT046 OVC080 10/07 Q1032 RMK PP002=
SPZO Ene2013-180200Z 28006KT 9999 SCT043 BKN070 10/07 Q1033 RMK PPTRZ=
SPZO Ene2013-180300Z 28004KT 9999 SCT043 BKN070 10/08 Q1034 RMK PP000=
SPZO Ene2013-180400Z 27003KT 9999 DZ SCT040 BKN060 10/07 Q1034 RMK PPTRZ=
SPZO Ene2013-180500Z 30004KT 9999 -RA SCT036 BKN060 10/07 Q1033 RMK PP006=
SPZO Ene2013-180600Z 00000KT 9999 -RA SCT036 BKN060 09/07 Q1032 RMK PP006=
SPZO Ene2013-180700Z 00000KT 9999 -RA FEW030 SCT040 BKN070 09/07 Q1032 RMK PP004=
SPZO Ene2013-180800Z 00000KT 9999 -RA FEW030 SCT040 BKN070 09/07 Q1031 RMK PP006=
SPZO Ene2013-180900Z 00000KT 9999 -RA FEW030 SCT040 BKN070 09/07 Q1031 RMK PP006=
SPZO Ene2013-181000Z 00000KT 9999 -RA FEW020 SCT040 BKN060 09/07 Q1032 RMK PP004=
SPZO Ene2013-181100Z 00000KT 9000 -RA FEW015 SCT036 OVC060 09/07 Q1033 NOSIG RMK VIS 8000 E RA PP006=
SPZO Ene2013-181200Z 00000KT 9999 FEW020 SCT040 BKN080 10/07 Q1034 NOSIG RMK PP000=
SPZO Ene2013-181300Z 00000KT 9999 FEW020 SCT040 BKN100 11/07 Q1034 NOSIG RMK PP000=
SPZO Ene2013-181400Z 00000KT 9999 FEW020 SCT040 BKN100 13/07 Q1034 NOSIG RMK PP000=
SPZO Ene2013-181500Z 14004KT 9999 SCT040 BKN100 15/07 Q1034 NOSIG RMK PP000=
SPZO Ene2013-181600Z VRB03KT 9999 SCT050 BKN100 14/05 Q1033 NOSIG RMK PP000=
SPZO Ene2013-181700Z 33005KT 9999 SCT050 BKN100 17/06 Q1031 NOSIG RMK PP000=
SPZO Ene2013-181800Z VRB04KT 9999 SCT046 BKN100 18/03 Q1030 NOSIG RMK PP000=
SPZO Ene2013-181900Z VRB06KT 9999 FEW036TCU SCT046 BKN080 19/04 Q1028 TEMPO -RA RMK PP000=
SPZO Ene2013-182000Z 29008KT 9000 DZ VCSH SCT043 OVC080 15/07 Q1028 TEMPO -RA RMK VIS 8000 NE RA PP000=
SPZO Ene2013-182100Z 15007KT 110V170 9999 DZ VCSH FEW030 SCT043 OVC070 14/06 Q1029 RMK VIS 8000 E RA PP016=
SPZO Ene2013-182200Z 11015KT 9999 FEW040 SCT080 12/06 Q1029 NOSIG RMK TMAX 20.3 VIS 9000 E PP000=
SPZO Ene2013-182300Z 11011KT 9999 FEW036 SCT060 11/06 Q1029 NOSIG RMK PP000=
SPZO Ene2013-190000Z 11003KT 9999 SCT050 SCT100 10/06 Q1030 RMK PP000=
SPZO Ene2013-190100Z 12003KT 090V150 9999 SCT050 SCT100 10/06 Q1030 RMK PP000=
SPZO Ene2013-190200Z 00000KT 9999 SCT050 SCT100 10/07 Q1032 RMK PP000=
SPZO Ene2013-190300Z VRB03KT 9999 SCT050 BKN100 10/07 Q1033 RMK PP000=
SPZO Ene2013-190400Z 00000KT 9999 SCT050 BKN080 10/07 Q1033 RMK PP000=
SPZO Ene2013-190500Z 00000KT 9999 SCT050 BKN070 10/07 Q1032 RMK VIS 8000 E BR PP000=
SPZO Ene2013-190600Z VRB02KT 9000 -RA SCT036 BKN060 10/07 Q1031 RMK PP002=
SPZO Ene2013-190700Z 00000KT 7000 RA FEW020 SCT036 BKN050 09/07 Q1031 RMK PP076=
SPZO Ene2013-190800Z 28005KT 9000 RA FEW020 SCT036 BKN050 09/07 Q1031 RMK PP040=
SPZO Ene2013-190900Z 27003KT 9000 -RA FEW020 SCT036 BKN050 09/06 Q1031 RMK CLNG BLW 1200M PP002=
SPZO Ene2013-191000Z 26004KT 9000 -RA FEW020 SCT036 BKN050 08/05 Q1032 RMK CLNG BLW 1200M PP004=
SPZO Ene2013-191100Z VRB02KT 9000 -RA FEW020 SCT036 OVC050 08/06 Q1033 NOSIG RMK CLNG BLW 1200M PP008=
SPZO Ene2013-191200Z 00000KT 9999 DZ FEW015 SCT040 OVC060 09/06 Q1034 TEMPO -RA RMK VIS 9000 E RA PPTRZ=
SPZO Ene2013-191300Z 31005KT 9000 -RA FEW015 SCT040 OVC060 09/05 Q1034 TEMPO VIS 7000 E RMK VIS 8000 NE RA PP004=
SPZO Ene2013-191400Z 30006KT 9000 -RA FEW015 SCT040 OVC060 08/05 Q1035 NOSIG RMK VIS 8000 NE RA PP016=
SPZO Ene2013-191500Z 32006KT 250V360 9000 -RA FEW020 SCT040 OVC060 09/05 Q1035 NOSIG RMK VIS 8000 NE RA PP006=
SPZO Ene2013-191600Z VRB02KT 9999 DZ FEW025 SCT040 OVC060 10/06 Q1034 NOSIG RMK VIS 8000 NE RA PP004=
SPZO Ene2013-191700Z VRB02KT 9999 FEW025 SCT043 BKN080 13/07 Q1033 NOSIG RMK PPTRZ=
SPZO Ene2013-191800Z VRB02KT 9999 SCT050 SCT230 15/07 Q1032 NOSIG RMK PP000=
SPZO Ene2013-191900Z VRB02KT 9999 SCT050 16/04 Q1030 NOSIG RMK PP000=
SPZO Ene2013-192000Z VRB03KT 9999 SCT050 18/06 Q1028 NOSIG RMK PP000=
SPZO Ene2013-192100Z 17004KT 090V190 9999 FEW050 SCT100 18/05 Q1027 NOSIG RMK PP000=
SPZO Ene2013-192200Z 24006KT 9999 FEW040 SCT050 19/06 Q1027 TEMPO VCSH RMK T.MAX 19.0 PP000=
SPZO Ene2013-192300Z 32008KT 9999 SCT040 SCT060 17/05 Q1028 NOSIG RMK PP000=
SPZO Ene2013-200000Z VRB04KT 9999 SCT050 BKN100 15/07 Q1029 RMK PP000=
SPZO Ene2013-200100Z 00000KT 9999 SCT050 BKN100 13/08 Q1030 RMK PP000=
SPZO Ene2013-200200Z 00000KT 9999 SCT050 BKN100 12/07 Q1030 RMK PP000=
SPZO Ene2013-200300Z 00000KT 9999 SCT050 BKN100 12/07 Q1032 RMK PP000=
SPZO Ene2013-200400Z 00000KT 9999 SCT050 BKN100 11/08 Q1032 RMK PP000=
SPZO Ene2013-200500Z 00000KT 9999 SCT050 BKN100 11/08 Q1031 RMK PP000=
SPZO Ene2013-200600Z 00000KT 9999 SCT050 BKN100 11/07 Q1031 RMK PP000=
SPZO Ene2013-200700Z 00000KT 9999 SCT050 BKN100 12/07 Q1030 RMK PP000=
SPZO Ene2013-200800Z 00000KT 9999 SCT050 BKN100 12/07 Q1029 RMK PP000=
SPZO Ene2013-200900Z 00000KT 9999 SCT050 BKN100 11/06 Q1030 RMK PP000=
SPZO Ene2013-201000Z 00000KT 9999 SCT060 BKN100 10/06 Q1030 RMK PP000=
SPZO Ene2013-201100Z 10005KT 9999 FEW020 SCT050 BKN100 10/06 Q1031 NOSIG RMK PP000=
SPZO Ene2013-201200Z 11003KT 9999 FEW036 SCT050 BKN080 11/06 Q1032 NOSIG RMK PP000=
SPZO Ene2013-201300Z VRB02KT 9999 FEW030 SCT100 12/07 Q1033 NOSIG RMK PP000=
SPZO Ene2013-201400Z VRB04KT 9999 SCT050 15/05 Q1032 NOSIG RMK PP000=
SPZO Ene2013-201500Z VRB03KT 9999 SCT050 17/06 Q1032 NOSIG RMK PP000=
SPZO Ene2013-201600Z 21005KT 9999 FEW043 SCT050 18/03 Q1031 NOSIG RMK PP000=
SPZO Ene2013-201700Z VRB05KT 9999 SCT050 19/03 Q1030 NOSIG RMK PP000=
SPZO Ene2013-201800Z 03005KT 350V070 9999 SCT050 SCT080 19/02 Q1028 NOSIG RMK PP000=
SPZO Ene2013-201900Z 33007KT 270V010 9999 FEW036TCU SCT050 SCT080 19/05 Q1027 TEMPO VCSH RMK PP000=
SPZO Ene2013-202000Z 25004KT 180V290 9999 FEW040TCU SCT050 SCT080 19/06 Q1026 TEMPO -RA RMK PP000=
SPZO Ene2013-202100Z VRB05KT 9999 FEW040TCU SCT060 20/05 Q1025 NOSIG RMK PP000=
SPZO Ene2013-202200Z 34007KT 280V080 9999 FEW050 SCT080 20/05 Q1025 NOSIG RMK T MAX 21.1 PP000=
SPZO Ene2013-202300Z 27010KT 9999 SCT060 18/04 Q1026 NOSIG RMK PP000=
SPZO Ene2013-210000Z 30008KT 270V330 9999 FEW050 15/06 Q1027 RMK PP000=
SPZO Ene2013-210100Z 31007KT 9999 FEW050 14/06 Q1029 RMK PP000=
SPZO Ene2013-210200Z 08005KT 050V120 9999 FEW050 13/07 Q1030 RMK PP000=
SPZO Ene2013-210300Z VRB01KT 9999 SCT050 12/07 Q1031 RMK PP000=
SPZO Ene2013-210400Z VRB02KT 9999 FEW040 SCT080 11/07 Q1031 RMK PP000=
SPZO Ene2013-210500Z 29003KT 250V320 9999 SCT040 SCT080 11/07 Q1031 RMK PP000=
SPZO Ene2013-210600Z 04003KT 350V090 9999 SCT040 SCT080 11/07 Q1030 RMK PP000=
SPZO Ene2013-210700Z 00000KT 9999 SCT040 SCT080 11/07 Q1030 RMK PP000=
SPZO Ene2013-210800Z 00000KT 9999 SCT040 SCT080 11/07 Q1029 RMK PP000=
SPZO Ene2013-210900Z 08004KT 9999 SCT040 SCT080 10/07 Q1029 RMK PP000=
SPZO Ene2013-211000Z VRB01KT 9999 FEW040 BKN080 11/08 Q1030 RMK PP000=
SPZO Ene2013-211100Z VRB02KT 9999 FEW030 SCT043 BKN070 11/08 Q1030 NOSIG RMK PP000=
SPZO Ene2013-211200Z 11009KT 9999 FEW015 SCT030 BKN060 10/07 Q1031 NOSIG RMK PP000=
SPZO Ene2013-211300Z 12009KT 9999 FEW030TCU SCT040 BKN100 12/06 Q1032 NOSIG RMK PP000=
SPZO Ene2013-211400Z 11008KT 9999 FEW040 SCT060 BKN230 13/07 Q1032 NOSIG RMK PP000=
SPZO Ene2013-211600Z VRB03KT 9999 SCT050 SCT100 17/03 Q1031 NOSIG RMK PP000=
SPZO Ene2013-211700Z 18004KT 9999 SCT050 SCT080 18/05 Q1029 NOSIG RMK PP000=
SPZO Ene2013-211800Z 13005KT 070V170 9999 VCSH FEW036TCU SCT046 BKN080 17/04 Q1028 TEMPO -RA RMK TS CB QUAD N PP000=
SPZO Ene2013-211900Z 29007KT 250V330 8000 -RA FEW033 SCT046 BKN070 11/07 Q1030 TEMPO VIS 5000 E RMK PP012=
SPZO Ene2013-212000Z 27004KT 210V090 8000 -RA FEW025 SCT036 OVC050 10/07 Q1030 RMK CLNG BLW 1200M PP044=
SPZO Ene2013-212100Z 26006KT 9000 -RA FEW020 SCT036 OVC050 10/07 Q1030 NOSIG RMK CLNG BLW 1200M PP012=
SPZO Ene2013-212200Z 24003KT 9000 -RA FEW015 SCT036 OVC050 10/05 Q1031 NOSIG RMK CLNG BLW 1200M T MAX 18.9 PP026=
SPZO Ene2013-212300Z VRB01KT 9000 -RA FEW015 SCT036 OVC050 09/06 Q1031 NOSIG RMK CLNG BLW 1200M PP014=
SPZO Ene2013-220000Z 00000KT 9999 BKN050 09/06 Q1032 RMK PP000=
SPZO Ene2013-220100Z 00000KT 9999 SCT030 BKN050 09/06 Q1033 RMK PP000=
SPZO Ene2013-220200Z 00000KT 9999 SCT030 BKN050 10/07 Q1034 RMK PP000=
SPZO Ene2013-220300Z 00000KT 9999 SCT030 BKN043 09/07 Q1035 RMK PP000=
SPZO Ene2013-220400Z 28005KT 9999 -RA OVC049 09/06 Q1035 RMK PP004=
SPZO Ene2013-220500Z 00000KT 9999 -RA OVC040 09/06 Q1035 RMK PP030=
SPZO Ene2013-220600Z 00000KT 9999 -RA SCT030 BKN040 08/03 Q1034 RMK PP012=
SPZO Ene2013-220700Z 00000KT 9999 -RA SCT030 BKN043 07/04 Q1034 RMK PP010=
SPZO Ene2013-220800Z 00000KT 9999 -RA SCT033 BKN043 07/04 Q1034 RMK PP000=
SPZO Ene2013-220900Z 30006KT 9999 -RA SCT030 BKN043 07/04 Q1035 RMK PP016=
SPZO Ene2013-221000Z 00000KT 9000 -RA FEW020 SCT033 BKN070 06/03 Q1035 RMK CLNG BLW 1200M PP008=
SPZO Ene2013-221100Z 28003KT 9999 FEW020 SCT046 BKN080 07/04 Q1035 TEMPO 8000 RMK PP004=
SPZO Ene2013-221200Z 30006KT 9000 -DZ FEW020 SCT036 OVC050 07/03 Q1036 NOSIG RMK PP000=
SPZO Ene2013-221300Z 31003KT 9000 -DZ FEW020 SCT036 OVC050 08/03 Q1036 RMK PP002=
SPZO Ene2013-221400Z VRB02KT 9999 SCT025 OVC050 09/04 Q1036 REDZ NOSIG RMK PPTRZ=
SPZO Ene2013-221500Z 00000KT 9999 FEW025 SCT040 OVC070 10/03 Q1036 NOSIG RMK PP000=
SPZO Ene2013-221600Z 32004KT 260V010 9999 FEW030 SCT040 OVC080 11/04 Q1036 NOSIG RMK PP000=
SPZO Ene2013-221700Z VRB01KT 9999 FEW025 SCT040 OVC080 12/04 Q1035 NOSIG RMK PP000=
SPZO Ene2013-221900Z VRB01KT 9999 VCSH SCT060 BKN100 13/03 Q1033 NOSIG RMK PP000=
SPZO Ene2013-222000Z 32007KT 9999 SCT060 BKN100 13/05 Q1032 NOSIG RMK PP000=
SPZO Ene2013-222100Z 19004KT 9999 SCT060 BKN100 14/04 Q1031 NOSIG RMK PP000=
SPZO Ene2013-222200Z 05006KT 9999 SCT060 BKN100 13/03 Q1030 NOSIG RMK TMAX 13.7 PP000=
SPZO Ene2013-222300Z 32008KT 9999 SCT060 BKN100 13/04 Q1031 NOSIG RMK PP000=
SPZO Ene2013-230000Z 00000KT 9999 FEW046 OVC080 12/05 Q1032 RMK PP000=
SPZO Ene2013-230100Z 00000KT 9999 FEW046 OVC080 11/06 Q1034 RMK PP000=
SPZO Ene2013-230200Z 29004KT 250V330 9999 SCT043 BKN070 11/05 Q1035 RMK PP000=
SPZO Ene2013-230300Z 27003KT 9999 SCT043 BKN070 11/05 Q1035 RMK PP000=
SPZO Ene2013-230400Z 30004KT 250V330 9999 FEW050 BKN080 11/05 Q1035 RMK PP000=
SPZO Ene2013-230500Z 28007KT 9999 FEW050 BKN100 11/05 Q1035 RMK PP000=
SPZO Ene2013-230600Z 12005KT 9999 DZ FEW040 SCT050 BKN080 10/06 Q1035 RMK PPTRZ=
SPZO Ene2013-230700Z 00000KT 9999 DZ FEW040 SCT050 BKN080 09/06 Q1034 RMK PPTRZ=
SPZO Ene2013-230800Z 00000KT 9999 FEW040 SCT050 BKN080 09/06 Q1034 RMK PP002=
SPZO Ene2013-230900Z 10003KT 9999 FEW040 SCT050 BKN080 09/06 Q1034 RMK PP000=
SPZO Ene2013-231000Z 12003KT 9999 FEW030 SCT043 BKN080 09/06 Q1034 RMK PP000=
SPZO Ene2013-231100Z 11003KT 9999 -RA FEW015 SCT043 OVC080 08/06 Q1036 NOSIG RMK VIS 9000 E RA PP002=
SPZO Ene2013-231200Z VRB02KT 9999 FEW015 SCT040 BKN080 09/06 Q1036 NOSIG RMK PP000=
SPZO Ene2013-231300Z VRB02KT 9999 FEW020 SCT040 BKN080 11/07 Q1037 NOSIG RMK PP000=
SPZO Ene2013-231400Z VRB02KT 9999 FEW030 SCT050 BKN100 13/05 Q1036 NOSIG RMK PP000=
SPZO Ene2013-231500Z VRB01KT 9999 FEW040 SCT080 BKN230 14/04 Q1035 NOSIG RMK PP000=
SPZO Ene2013-231600Z VRB02KT 9999 FEW040 BKN100 17/05 Q1034 NOSIG RMK PP000=
SPZO Ene2013-231700Z 09004KT 9999 SCT050 BKN100 17/02 Q1033 NOSIG RMK PP000=
SPZO Ene2013-231800Z VRB03KT 9999 SCT046 BKN100 19/03 Q1031 NOSIG RMK PP000=
SPZO Ene2013-231900Z VRB04KT 9999 FEW040 SCT050 20/02 Q1030 NOSIG RMK PP000=
SPZO Ene2013-232000Z 25007KT 120V270 9999 FEW043 SCT060 21/04 Q1029 TEMPO VCSH RMK PP000=
SPZO Ene2013-232100Z 07005KT 040V110 9999 FEW036TCU SCT046 BKN070 18/04 Q1029 TEMPO VCSH RMK PP000=
SPZO Ene2013-232200Z 13009KT 9999 VCSH FEW036TCU SCT046 BKN070 16/06 Q1029 TEMPO -RA RMK TMAX 21.6 PP000=
SPZO Ene2013-232300Z 11006KT 9999 VCSH FEW040 SCT050 BKN070 13/07 Q1030 TEMPO -RA RMK PP000=
SPZO Ene2013-240000Z VRB01KT 9999 FEW025 SCT046 BKN060 14/05 Q1032 RMK PP000=
SPZO Ene2013-240100Z 13005KT 090V180 9000 -RA FEW025 SCT046 BKN060 12/07 Q1033 RMK PP006=
SPZO Ene2013-240200Z 27003KT 190V330 9999 SCT050 BKN080 11/07 Q1033 RERA RMK PPTRZ=
SPZO Ene2013-240300Z 00000KT 9999 SCT046 BKN080 12/07 Q1034 RMK PP000=
SPZO Ene2013-240400Z 06003KT 010V100 9999 SCT040 BKN060 11/07 Q1034 RMK PP000=
SPZO Ene2013-240500Z 00000KT 9999 SCT040 BKN060 11/07 Q1034 RMK PP000=
SPZO Ene2013-240600Z VRB01KT 9999 SCT040 BKN060 11/06 Q1033 RMK PP000=
SPZO Ene2013-240700Z VRB02KT 9999 SCT050 SCT080 10/06 Q1033 RMK PP000=
SPZO Ene2013-240800Z 28003KT 9999 SCT050 SCT080 08/05 Q1032 RMK PP000=
SPZO Ene2013-240900Z 00000KT 9999 SCT050 BKN080 08/05 Q1032 RMK PP000=
SPZO Ene2013-241000Z VRB01KT 9999 SCT050 BKN080 08/05 Q1032 RMK PP000=
SPZO Ene2013-241100Z 00000KT 9999 SCT050 BKN080 08/05 Q1033 NOSIG RMK BR E PP000=
SPZO Ene2013-241200Z 08004KT 050V110 9999 SCT050 OVC100 09/06 Q1034 NOSIG RMK PP000=
SPZO Ene2013-241300Z 08003KT 9999 SCT046 BKN100 10/05 Q1034 NOSIG RMK PP000=
SPZO Ene2013-241400Z VRB01KT 9999 FEW043 BKN080 14/06 Q1034 NOSIG RMK PP000=
SPZO Ene2013-241500Z 12003KT 050V160 9999 SCT043 16/04 Q1034 NOSIG RMK PP000=
SPZO Ene2013-241600Z VRB03KT 9999 SCT043 18/05 Q1033 NOSIG RMK PP000=
SPZO Ene2013-241700Z VRB05KT 9999 SCT050 19/03 Q1031 NOSIG RMK PP000=
SPZO Ene2013-241800Z VRB05KT 9999 SCT040 SCT050 20/03 Q1030 NOSIG RMK PP000=
SPZO Ene2013-241900Z 29012KT 9999 VCSH FEW040TCU SCT050 BKN080 18/07 Q1029 TEMPO 8000 RMK PP000=
SPZO Ene2013-242000Z 13013KT 9999 SCT050 SCT100 17/06 Q1029 NOSIG RMK PP000=
SPZO Ene2013-242100Z 11009KT 9999 FEW040 SCT050 BKN100 16/05 Q1029 NOSIG RMK PP000=
SPZO Ene2013-242200Z 02009KT 9999 SCT050 BKN100 16/04 Q1029 NOSIG RMK T.MAX 19.8 PP000=
SPZO Ene2013-242300Z VRB02KT 9999 SCT050 BKN100 15/04 Q1029 NOSIG RMK PP000=
SPZO Ene2013-250000Z VRB01KT 9999 SCT050 BKN100 14/05 Q1030 RMK PP000=
SPZO Ene2013-250100Z 11001KT 9999 SCT050 BKN100 13/06 Q1031 RMK PP000=
SPZO Ene2013-250200Z 14003KT 9999 SCT060 BKN230 13/06 Q1032 RMK PP000=
SPZO Ene2013-250300Z 00000KT 9999 SCT060 BKN080 12/07 Q1033 RMK PP000=
SPZO Ene2013-250400Z 00000KT 9999 SCT060 BKN080 11/04 Q1034 RMK PP000=
SPZO Ene2013-250500Z 00000KT 9999 -RA SCT040 BKN080 09/05 Q1035 RMK PP014=
SPZO Ene2013-250600Z 00000KT 9999 -RA SCT030 BKN060 09/06 Q1034 RMK PP002=
SPZO Ene2013-250700Z 00000KT 9999 SCT030 BKN060 09/05 Q1033 RMK PP000=
SPZO Ene2013-250900Z 00000KT 9999 SCT230 07/05 Q1032 RMK PP000=
SPZO Ene2013-251000Z 00000KT 9999 SCT230 07/05 Q1033 RMK PP000=
SPZO Ene2013-251100Z VRB02KT 9999 FEW020 SCT040 BKN100 08/03 Q1034 NOSIG RMK HZ PP000=
SPZO Ene2013-251200Z VRB04KT 9999 FEW036 SCT043 BKN080 10/04 Q1034 NOSIG RMK PP000=
SPZO Ene2013-251300Z VRB02KT 9999 FEW036 BKN060 12/04 Q1034 NOSIG RMK PP000=
SPZO Ene2013-251400Z VRB04KT 9999 FEW043 SCT080 12/03 Q1035 NOSIG RMK PP000=
SPZO Ene2013-251500Z VRB03KT 9999 FEW043 SCT080 14/04 Q1034 NOSIG RMK PP000=
SPZO Ene2013-251600Z 01005KT 9999 FEW043 SCT060 14/03 Q1034 NOSIG RMK PP000=
SPZO Ene2013-251700Z VRB05KT 9999 SCT050 17/04 Q1032 NOSIG RMK PP000=
SPZO Ene2013-251800Z VRB04KT 9999 FEW040 SCT050 19/07 Q1030 NOSIG RMK PP000=
SPZO Ene2013-251900Z 02011KT 360V060 9999 FEW036TCU SCT050 BKN080 18/05 Q1029 TEMPO-RA RMK PP000=
SPZO Ene2013-252000Z 02008KT 250V060 9000 -RA FEW036TCU SCT050 BKN080 15/05 Q1029 NOSIG RMK CB QUAD S PP008=
SPZO Ene2013-252100Z 24008KT 210V310 8000 -RA SCT046CB BKN080 13/06 Q1031 NOSIG RMK PP004=
SPZO Ene2013-252200Z VRB02KT 9999 FEW020 SCT040 BKN080 11/06 Q1030 RERA NOSIG RMK T MAX 19.7 PP010=
SPZO Ene2013-252300Z 33003KT 280V060 9999 FEW025 SCT050 BKN100 12/06 Q1030 NOSIG RMK PP000=
SPZO Ene2013-260000Z VRB02KT 9999 SCT046 BKN100 12/07 Q1031 RMK PP000=
SPZO Ene2013-260100Z 00000KT 9999 SCT046 BKN100 12/07 Q1032 RMK PP000=
SPZO Ene2013-260200Z 11003KT 090V150 9999 SCT050 BKN100 11/07 Q1033 RMK PP000=
SPZO Ene2013-260300Z 26005KT 230V290 9999 SCT050 BKN150 12/04 Q1033 RMK PP000=
SPZO Ene2013-260400Z VRB02KT 9999 FEW050 SCT150 10/06 Q1033 RMK PP000=
SPZO Ene2013-260500Z 00000KT 9999 FEW050 SCT150 10/06 Q1033 RMK PP000=
SPZO Ene2013-260600Z 27003KT 9999 SCT050 SCT150 09/06 Q1032 RMK PP000=
SPZO Ene2013-260700Z 10003KT 9999 SCT050 SCT150 08/05 Q1031 RMK PP000=
SPZO Ene2013-260800Z 00000KT 9999 FEW043 SCT100 07/05 Q1032 RMK PP000=
SPZO Ene2013-260900Z VRB02KT 9999 FEW043 SCT100 06/04 Q1032 RMK PP000=
SPZO Ene2013-261000Z 00000KT 9999 FEW036 SCT100 06/04 Q1031 RMK PP000=
SPZO Ene2013-261100Z 00000KT 9999 FEW036 06/04 Q1033 NOSIG RMK BR E PP000=
SPZO Ene2013-261200Z VRB02KT 9999 SKC 09/05 Q1033 RMK VIS 9000E HZ PP000=
SPZO Ene2013-261300Z VRB03KT 9999 FEW040 11/06 Q1033 NOSIG RMK PP000=
SPZO Ene2013-261400Z 07004KT 9999 FEW020 SCT040 13/06 Q1033 NOSIG RMK PP000=
SPZO Ene2013-261500Z 06004KT 9999 FEW020 SCT040 16/06 Q1033 NOSIG RMK PP000=
SPZO Ene2013-261600Z 07004KT 9999 FEW030 SCT040 18/05 Q1031 NOSIG RMK PP000=
SPZO Ene2013-261700Z 29005KT 9999 FEW040TCU SCT060 BKN100 20/06 Q1030 TEMPO VCSH RMK PP000=
SPZO Ene2013-261800Z 09006KT 050V150 9999 VCSH FEW040TCU SCT050 SCT080 19/04 Q1029 TEMPO 8000 RMK PP000=
SPZO Ene2013-261900Z 12012KT 9999 VCSH FEW040TCU SCT050 20/07 Q1029 NOSIG RMK PP000=
SPZO Ene2013-262000Z 08008KT 050V120 9999 SCT050 SCT080 21/06 Q1027 NOSIG RMK PP000=
SPZO Ene2013-262100Z 01007KT 300V070 9999 SCT050 SCT080 21/02 Q1027 NOSIG RMK PP000=
SPZO Ene2013-262200Z 34011KT 9999 SCT050 SCT080 21/02 Q1026 NOSIG RMK T MAX 21.7 PP000=
SPZO Ene2013-262300Z 28015KT 9999 SCT060 SCT100 18/03 Q1027 NOSIG RMK PP000=
SPZO Ene2013-270000Z 31008KT 9999 BKN050 16/04 Q1029 RMK PP000=
SPZO Ene2013-270100Z 06006KT 9999 SCT050 SCT100 15/07 Q1030 RMK PP000=
SPZO Ene2013-270200Z 00000KT 9999 SCT050 SCT100 14/07 Q1032 RMK PP000=
SPZO Ene2013-270300Z 00000KT 9999 SCT050 BKN100 14/07 Q1032 RMK PP000=
SPZO Ene2013-270400Z 00000KT 9999 BKN050 SCT100 12/08 Q1033 RMK PP000=
SPZO Ene2013-270500Z 28005KT 9999 BKN046 SCT080 13/05 Q1033 RMK PP000=
SPZO Ene2013-270600Z 28004KT 9999 BKN046 SCT080 12/05 Q1032 RMK PP000=
SPZO Ene2013-270700Z 00000KT 9999 BKN043 SCT050 12/07 Q1032 RMK PP000=
SPZO Ene2013-270800Z 00000KT 9999 -RA BKN040 SCT050 10/07 Q1031 RMK PP002=
SPZO Ene2013-270900Z 11006KT 9999 SCT030 BKN040 10/08 Q1032 RMK PP004=
SPZO Ene2013-271000Z 11011KT 9999 FEW020 SCT036 BKN070 10/06 Q1032 RMK PP000=
SPZO Ene2013-271100Z 11008KT 9000 3000W RA FEW015 SCT033 BKN070 08/06 Q1034 NOSIG RMK CLNG BLW 1200M PP040=
SPZO Ene2013-271200Z 31003KT 9000 -RA FEW020 SCT036 BKN050 09/07 Q1035 NOSIG RMK CLNG BLW 1200M PP018=
SPZO Ene2013-271300Z VRB01KT 9999 FEW020 SCT040 BKN050 11/07 Q1035 RERA NOSIG RMK PP002=
SPZO Ene2013-271400Z VRB02KT 9999 FEW020 SCT036 BKN060 13/06 Q1035 TEMPO SCT050 BKN100 RMK PP000=
SPZO Ene2013-271500Z VRB01KT 9999 FEW030 SCT040 BKN080 15/06 Q1035 NOSIG RMK PP000=
SPZO Ene2013-271600Z VRB02KT 9999 SCT046 BKN100 16/05 Q1034 NOSIG RMK PP000=
SPZO Ene2013-271700Z VRB04KT 9999 SCT050 BKN100 18/05 Q1033 NOSIG RMK PP000=
SPZO Ene2013-271800Z 05005KT 9999 SCT050 BKN100 19/04 Q1031 TEMPO VCSH FEW040TCU BKN100 RMK PP000=
SPZO Ene2013-271900Z 05010KT 9999 FEW040TCU SCT060 BKN100 18/05 Q1030 TEMPO VCSH RMK PP000=
SPZO Ene2013-272000Z 01011KT 9999 -RA VCSH FEW040TCU SCT060 BKN100 18/05 Q1030 TEMPO 9000 RA SCT040TCU BKN080 RMK PPTRZ=
SPZO Ene2013-272100Z 33006KT 9999 VCSH FEW040TCU SCT060 BKN100 17/05 Q1030 NOSIG RMK PP000=
SPZO Ene2013-272200Z 28013KT 9999 FEW040 SCT060 BKN100 16/06 Q1030 NOSIG RMK TMAX 21.00 PP000=
SPZO Ene2013-272300Z 28010KT 9999 SCT060 BKN100 15/06 Q1031 NOSIG RMK PP000=
SPZO Ene2013-280000Z VRB02KT 9999 FEW030 SCT043 BKN080 14/06 Q1032 RMK PP000=
SPZO Ene2013-280100Z VRB03KT 9999 SCT043 BKN080 13/05 Q1033 RMK PP000=
SPZO Ene2013-280200Z 10005KT 9999 SCT043 BKN080 12/07 Q1034 RMK PP000=
SPZO Ene2013-280300Z 00000KT 9999 SCT050 SCT100 11/07 Q1034 RMK PP000=
SPZO Ene2013-280400Z VRB01KT 9999 FEW050 SCT100 10/07 Q1035 RMK PP000=
SPZO Ene2013-280500Z 00000KT 9999 FEW050 SCT100 11/06 Q1034 RMK PP000=
SPZO Ene2013-280600Z VRB02KT 9999 FEW040 BKN080 10/06 Q1034 RMK PP000=
SPZO Ene2013-280700Z 00000KT 9999 FEW040 BKN080 10/07 Q1034 RMK PP000=
SPZO Ene2013-280800Z 10003KT 060V120 9999 SCT040 BKN080 10/07 Q1034 RMK PP000=
SPZO Ene2013-280900Z VRB02KT 9999 SCT040 BKN080 10/07 Q1034 RMK PP000=
SPZO Ene2013-281000Z 00000KT 9999 FEW040 SCT100 09/06 Q1034 RMK PP000=
SPZO Ene2013-281100Z 10003KT 040V120 9999 FEW040 SCT150 08/05 Q1034 NOSIG RMK PP000=
SPZO Ene2013-281200Z VRB02KT 9999 SCT100 11/06 Q1035 NOSIG RMK PP000=
SPZO Ene2013-281300Z VRB02KT 9999 SCT060 BKN100 12/06 Q1036 NOSIG RMK PP000=
SPZO Ene2013-281400Z VRB03KT 9999 FEW040 SCT060 13/06 Q1036 NOSIG RMK PP000=
SPZO Ene2013-281500Z 08003KT 9999 SCT060 17/08 Q1035 NOSIG RMK PP000=
SPZO Ene2013-281600Z 15004KT 9999 SCT060 18/05 Q1034 NOSIG RMK PP000=
SPZO Ene2013-281700Z 05004KT 9999 SCT060 BKN100 18/04 Q1033 TEMPO VCSH FEW040TCU RMK PP000=
SPZO Ene2013-281800Z 10004KT 080V140 9999 SCT046 BKN080 19/03 Q1032 TEMPO VCSH FEW040TCU BKN100 RMK PP000=
SPZO Ene2013-281900Z 27007KT 340V070 9999 SCT046 BKN080 20/05 Q1031 NOSIG RMK PP000=
SPZO Ene2013-282000Z 03008KT 310V070 9999 SCT060 21/04 Q1030 NOSIG RMK PP000=
SPZO Ene2013-282100Z 03009KT 330V070 9999 SCT060 21/04 Q1029 NOSIG RMK PP000=
SPZO Ene2013-282200Z 02012KT 350V070 9999 SCT050 19/05 Q1028 NOSIG RMK TMAX 21.1 PP000=
SPZO Ene2013-282300Z 03011KT 310V070 9999 SCT043 17/05 Q1029 NOSIG RMK PP000=
SPZO Ene2013-290000Z VRB04KT 9999 SCT050 16/05 Q1031 RMK PP000=
SPZO Ene2013-290100Z 15004KT 120V180 9999 SCT050 15/04 Q1032 RMK PP000=
SPZO Ene2013-290200Z VRB02KT 9999 SCT050 14/06 Q1033 RMK PP000=
SPZO Ene2013-290300Z 12004KT 090V180 9999 SCT050 12/06 Q1034 RMK PP000=
SPZO Ene2013-290400Z 00000KT 9999 SCT050 11/06 Q1034 RMK PP000=
SPZO Ene2013-290500Z 00000KT 9999 SCT050 11/06 Q1034 RMK PP000=
SPZO Ene2013-290600Z 00000KT 9999 SCT046 SCT060 10/06 Q1033 RMK PP000=
SPZO Ene2013-290700Z 00000KT 9999 SCT043 SCT060 10/06 Q1033 RMK PP000=
SPZO Ene2013-290800Z VRB01KT 9999 SCT040 BKN060 10/06 Q1033 RMK PP000=
SPZO Ene2013-290900Z 11003KT 9999 SCT040 SCT070 10/07 Q1033 RMK PP000=
SPZO Ene2013-291000Z VRB01KT 9999 SCT040 BKN070 09/06 Q1033 RMK PP000=
SPZO Ene2013-291100Z 00000KT 9999 SCT040 BKN070 10/06 Q1034 NOSIG RMK HZ E PP000=
SPZO Ene2013-291200Z 10004KT 9999 SCT040 SCT060 10/07 Q1035 NOSIG RMK VIS 9000 NE HZ PP000=
SPZO Ene2013-291300Z 07003KT 020V140 9999 FEW036 SCT043 13/06 Q1035 NOSIG RMK VIS 9000 NE HZ PP000=
SPZO Ene2013-291400Z VRB01KT 9999 FEW036 SCT046 16/06 Q1035 NOSIG RMK PP000=
SPZO Ene2013-291500Z VRB03KT 9999 SCT046 SCT080 16/05 Q1034 NOSIG RMK PP000=
SPZO Ene2013-291600Z 25006KT 190V330 9999 FEW046 SCT080 18/03 Q1033 NOSIG RMK PP000=
SPZO Ene2013-291700Z 09009KT 050V120 9999 VCSH FEW043TCU SCT050 BKN080 19/04 Q1033 NOSIG RMK PP000=
SPZO Ene2013-291800Z VRB06KT 9999 FEW043 SCT050 18/04 Q1031 NOSIG RMK PP000=
SPZO Ene2013-291900Z VRB08KT 9999 FEW043TCU SCT050 20/05 Q1030 NOSIG RMK PP000=
SPZO Ene2013-292000Z 01008KT 300V030 9999 FEW040 SCT050 19/03 Q1029 NOSIG RMK PP000=
SPZO Ene2013-292100Z 02010KT 330V050 9999 FEW040TCU SCT050 19/04 Q1028 TEMPO VCSH RMK PP000=
SPZO Ene2013-292200Z 34011KT 310V050 9999 FEW040TCU SCT050 17/05 Q1029 NOSIG RMK T.MAX 20.2 PP000=
SPZO Ene2013-292300Z 26008KT 9999 FEW040 SCT060 16/04 Q1030 NOSIG RMK PP000=
SPZO Ene2013-300000Z VRB03KT 9999 SCT060 15/05 Q1031 RMK PP000=
SPZO Ene2013-300100Z VRB02KT 9999 SCT060 15/06 Q1032 RMK PP000=
SPZO Ene2013-300200Z 25004KT 9999 SCT060 15/05 Q1032 RMK PP000=
SPZO Ene2013-300300Z VRB03KT 9999 SCT050 BKN100 14/07 Q1033 RMK PP000=
SPZO Ene2013-300400Z 12005KT 9999 SCT050 BKN100 13/07 Q1033 RMK PP000=
SPZO Ene2013-300500Z 12005KT 9999 -RA SCT040 BKN060 11/07 Q1033 RMK PP008=
SPZO Ene2013-300600Z 00000KT 5000 RA SCT020 BKN040 10/08 Q1033 RMK PP050=
SPZO Ene2013-300700Z 00000KT 5000 -RA SCT030 BKN050 10/07 Q1032 RMK PP014=
SPZO Ene2013-300800Z 00000KT 9999 -RA SCT030 BKN050 10/07 Q1032 RMK PP006=
SPZO Ene2013-300900Z 13006KT 9999 SCT030 BKN100 10/07 Q1032 RMK PP000=
SPZO Ene2013-301000Z 14005KT 9999 SCT030 BKN100 09/07 Q1032 RMK PP000=
SPZO Ene2013-301100Z 12007KT 9999 SCT020 SCT036 BKN080 09/06 Q1033 TEMPO FEW030 SCT040 RMK CLNG BLW 1200M BR E PP000=
SPZO Ene2013-301200Z 09004KT 9999 SCT020 SCT043 BKN080 10/07 Q1033 NOSIG RMK PP000=
SPZO Ene2013-301300Z VRB02KT 9999 FEW025 SCT046 BKN100 11/07 Q1034 NOSIG RMK PP000=
SPZO Ene2013-301400Z VRB01KT 9999 FEW030 BKN100 13/07 Q1034 NOSIG RMK PP000=
SPZO Ene2013-301600Z 28008KT 9999 VCSH FEW036 SCT046 BKN080 12/08 Q1034 NOSIG RMK PP004=
SPZO Ene2013-301700Z 27006KT 9999 VCSH FEW030 SCT046 BKN080 14/10 Q1033 NOSIG RMK PP006=
SPZO Ene2013-301800Z 28008KT 240V330 9999 FEW036TCU SCT043 BKN070 16/07 Q1031 REDZ NOSIG RMK PP010=
SPZO Ene2013-301900Z 05005KT 360V100 9999 VCSH FEW036TCU SCT046 BKN080 18/06 Q1030 NOSIG RMK PP000=
SPZO Ene2013-302000Z 08004KT 360V130 9999 FEW036TCU SCT050 BKN070 17/06 Q1029 TEMPO VCSH RMK PP000=
SPZO Ene2013-302100Z 02012G22KT 9999 VCSH SCT040TCU BKN080 14/07 Q1029 NOSIG RMK PP000=
SPZO Ene2013-302200Z 14005KT 090V210 9999 SCT040 BKN080 16/08 Q1028 TEMPO 9000 -RA SCT040CB BKN080 RMK T MAX 18.4 PP000=
SPZO Ene2013-302300Z 11010KT 9999 SCT050 BKN080 13/07 Q1029 NOSIG RMK PP000=
SPZO Ene2013-310000Z 11007KT 9999 SCT060 12/08 Q1030 RMK PP000=
SPZO Ene2013-310100Z 09004KT 060V130 9999 SCT060 11/08 Q1030 RMK PP000=
SPZO Ene2013-310200Z VRB02KT 9999 FEW060 11/07 Q1031 RMK PP000=
SPZO Ene2013-310300Z 30004KT 9999 FEW050 09/07 Q1032 RMK PP000=
SPZO Ene2013-310400Z 00000KT 9999 FEW050 10/07 Q1032 RMK PP000=
SPZO Ene2013-310500Z 00000KT 9999 FEW043 SCT070 09/07 Q1032 RMK PP000=
SPZO Ene2013-310600Z VRB01KT 9999 FEW043 SCT070 10/07 Q1031 RMK PP000=
SPZO Ene2013-310700Z VRB02KT 9999 SCT046 SCT080 10/07 Q1030 RMK PP000=
SPZO Ene2013-310800Z 00000KT 9999 SCT046 SCT080 10/07 Q1030 RMK PP000=
SPZO Ene2013-310900Z VRB02KT 9999 SCT046 SCT080 10/08 Q1030 RMK PP000=
SPZO Ene2013-311000Z VRB02KT 9999 FEW030 SCT043 BKN080 10/08 Q1030 RMK BR E PP000=
SPZO Ene2013-311100Z 00000KT 9999 FEW030 SCT040 BKN070 10/08 Q1030 NOSIG RMK BR E PP000=
SPZO Ene2013-311200Z 10005KT 9999 FEW030 SCT050 BKN080 11/08 Q1031 NOSIG RMK VIS 6000E BR PP000=
SPZO Ene2013-311300Z 12006KT 9999 FEW020 SCT050 BKN100 13/08 Q1031 TEMPO SCT050 SCT100 RMK PP000=
SPZO Ene2013-311400Z VRB02KT 9999 SCT040 BKN100 15/07 Q1031 NOSIG RMK PP000=
SPZO Ene2013-311500Z 14005KT 9999 SCT050 SCT100 17/07 Q1030 NOSIG RMK PP000=
SPZO Ene2013-311600Z 28005KT 9999 SCT050 BKN100 17/05 Q1030 NOSIG RMK PP000=
SPZO Ene2013-311700Z 02005KT 9999 SCT050 BKN100 18/06 Q1029 TEMPO VCSH FEW040TCU BKN100 RMK PP000=
SPZO Ene2013-311800Z 13004KT 9999 FEW040TCU SCT060 BKN100 20/08 Q1027 NOSIG RMK PP000=
SPZO Ene2013-312000Z 12009KT 9999 FEW040TCU SCT080 BKN230 15/08 Q1027 NOSIG RMK PP000=
SPZO Ene2013-312100Z 11008KT 9999 VCSH FEW040TCU SCT080 BKN230 16/08 Q1026 RMK PP000=
SPZO Ene2013-312300Z 32006KT 9999 SCT050 BKN100 14/07 Q1027 NOSIG RMK PP000=
SPZO Feb2013-010000Z 30008KT 9999 -RA SCT030 BKN040 13/07 Q1028 RMK PP002=
SPZO Feb2013-010100Z 30007KT 9999 BKN043 SCT080 13/07 Q1029 RMK PP000=
SPZO Feb2013-010200Z 28002KT 9999 SCT043 BKN080 13/08 Q1030 RMK PP000=
SPZO Feb2013-010300Z 14004KT 9999 SCT046 BKN083 13/07 Q1031 RMK PP000=
SPZO Feb2013-010500Z 00000KT 9999 -RA OVC040 11/06 Q1032 RMK PP006=
SPZO Feb2013-010600Z 29005KT 8000 RA OVC040 09/07 Q1032 RMK PP020=
SPZO Feb2013-010700Z 00000KT 8000 RA SCT030 BKN040 08/06 Q1032 RMK PP064=
SPZO Feb2013-010800Z 00000KT 9999 -RA OVC040 09/06 Q1031 RMK PP012=
SPZO Feb2013-010900Z 00000KT 9999 -RA FEW030 SCT036 BKN043 08/05 Q1031 RMK PP004=
SPZO Feb2013-011000Z 00000KT 9999 -DZ FEW020 SCT036 BKN070 08/06 Q1032 RMK PPTRZ=
SPZO Feb2013-011100Z 11004KT 9999 FEW030 SCT036 BKN080 08/06 Q1032 NOSIG RMK PP000=
SPZO Feb2013-011200Z 10003KT 9999 FEW025 SCT040 BKN060 09/06 Q1033 NOSIG RMK BCBR E PP000=
SPZO Feb2013-011300Z 07004KT 010V140 9999 FEW025 SCT036 BKN050 10/05 Q1033 NOSIG RMK PP000=
SPZO Feb2013-011400Z 00000KT 9999 FEW025 SCT040 BKN070 13/05 Q1033 NOSIG RMK PP000=
SPZO Feb2013-011500Z VRB03KT 9999 FEW030 SCT043 BKN080 15/06 Q1033 NOSIG RMK PP000=
SPZO Feb2013-011600Z VRB04KT 9999 SCT043 BKN080 16/06 Q1032 NOSIG RMK PP000=
SPZO Feb2013-011700Z 33006KT 270V030 9999 SCT050 BKN080 17/07 Q1031 NOSIG RMK PP000=
SPZO Feb2013-011800Z 26007KT 9999 SCT050 BKN100 18/07 Q1030 NOSIG RMK PP000=
SPZO Feb2013-011900Z 09007KT 9999 SCT050 SCT100 19/04 Q1028 NOSIG RMK PP000=
SPZO Feb2013-012000Z 24005KT 9999 FEW040TCU SCT080 BKN230 20/04 Q1027 NOSIG RMK PP000=
SPZO Feb2013-012100Z VRB03KT 9999 FEW040 SCT060 BKN100 20/03 Q1025 NOSIG RMK PP000=
SPZO Feb2013-012200Z 30011KT 9999 FEW040TCU SCT060 BKN100 18/06 Q1026 NOSIG RMK TMAX 21.5 PP000=
SPZO Feb2013-012300Z 30010KT 9999 FEW060 SCT080 17/06 Q1026 TEMPO VCSH RMK PP000=
SPZO Feb2013-020000Z 08010KT 9999 FEW036TCU SCT043 BKN080 14/07 Q1028 RMK PP000=
SPZO Feb2013-020100Z 14006KT 100V170 9999 SCT043 BKN080 14/07 Q1029 RMK PP000=
SPZO Feb2013-020200Z 08009KT 060V120 9999 SCT043 BKN080 12/07 Q1031 RMK PP000=
SPZO Feb2013-020400Z 10004KT 9999 FEW030 SCT040 BKN070 11/07 Q1033 RMK PPTRZ=
SPZO Feb2013-020500Z 10005KT 9999 -RA FEW030 SCT040 BKN070 10/08 Q1033 RMK PP010=
SPZO Feb2013-020600Z VRB02KT 9999 -RA FEW030 SCT040 BKN070 10/07 Q1033 RMK PP024=
SPZO Feb2013-020700Z 00000KT 9999 -RA FEW030 SCT040 BKN070 09/07 Q1033 RMK PP012=
SPZO Feb2013-020800Z 13004KT 9999 -RA FEW025 SCT040 BKN070 09/07 Q1033 RMK PP006=
SPZO Feb2013-020900Z 00000KT 9000 RA FEW020 SCT036 BKN060 08/05 Q1033 RMK PP028=
SPZO Feb2013-021000Z 26003KT 210V280 9000 -RA FEW020 SCT036 BKN060 08/05 Q1033 RMK PP018=
SPZO Feb2013-021100Z VRB02KT 9999 FEW015 SCT036 OVC070 08/05 Q1034 NOSIG RMK PPTRZ=
SPZO Feb2013-021200Z 12006KT 9999 FEW010 SCT040 BKN100 09/06 Q1035 NOSIG RMK PP000=
SPZO Feb2013-021300Z 07004KT 9999 FEW010 SCT040 BKN100 09/06 Q1033 NOSIG RMK PP000=
SPZO Feb2013-021400Z VRB01KT 9999 FEW020 SCT040 BKN100 10/06 Q1036 NOSIG RMK PP000=
SPZO Feb2013-021500Z VRB01KT 9999 FEW020 SCT040 BKN100 11/04 Q1035 NOSIG RMK PPTRZ=
SPZO Feb2013-021600Z VRB03KT 9999 FEW020 SCT040 BKN100 13/06 Q1035 NOSIG RMK PP000=
SPZO Feb2013-021700Z VRB02KT 9999 SCT040 BKN100 15/05 Q1033 NOSIG RMK PP000=
SPZO Feb2013-021800Z VRB02KT 9999 FEW030 SCT043 BKN080 17/07 Q1032 NOSIG RMK PP000=
SPZO Feb2013-021900Z VRB02KT 9999 FEW036 SCT046 BKN100 19/07 Q1030 NOSIG RMK PP000=
SPZO Feb2013-022000Z VRB03KT 9999 FEW036 SCT046 BKN100 18/05 Q1028 NOSIG RMK PP000=
SPZO Feb2013-022100Z 11009KT 070V160 9999 VCSH FEW030TCU SCT046 BKN080 17/07 Q1027 NOSIG RMK VIS 9000 NE RA PP000=
SPZO Feb2013-022200Z 22005KT 190V270 9999 DZ VCSH SCT046 BKN080 13/08 Q1028 NOSIG RMK TMAX 20.2 PP036=
SPZO Feb2013-022300Z 10005KT 9999 SCT050 BKN100 13/08 Q1028 NOSIG RMK PPTRZ=
SPZO Feb2013-030000Z 10006KT 9999 VCSH SCT040TCU BKN100 12/08 Q1029 RMK PP000=
SPZO Feb2013-030100Z 08003KT 9999 VCSH FEW040TCU SCT050 SCT100 12/09 Q1030 RMK PP000=
SPZO Feb2013-030200Z 00000KT 9999 SCT050 SCT080 11/09 Q1031 RMK PP000=
SPZO Feb2013-030300Z VRB01KT 9999 SCT050 BKN080 11/09 Q1032 RMK PP000=
SPZO Feb2013-030400Z 00000KT 9999 SCT050 BKN080 11/09 Q1032 RMK CB E PP000=
SPZO Feb2013-030500Z VRB01KT 9999 SCT050 BKN080 11/08 Q1031 RMK PP000=
SPZO Feb2013-030600Z 11006KT 9999 SCT050 BKN060 11/08 Q1031 RMK VIS 7000 E -RA PP000=
SPZO Feb2013-030800Z VRB03KT 8000 -RA FEW020 SCT036 BKN050 10/08 Q1031 RMK PP030=
SPZO Feb2013-030900Z 00000KT 7000 RA FEW020 SCT036 BKN050 09/07 Q1031 RMK PP038=
SPZO Feb2013-031000Z VRB02KT 9999 -DZ FEW020 SCT036 BKN050 10/07 Q1030 RMK PP012=
SPZO Feb2013-031100Z VRB02KT 9999 FEW020 SCT040 BKN070 09/07 Q1031 REDZ NOSIG RMK PPTRZ=
SPZO Feb2013-031200Z 07003KT 9999 FEW015 SCT043 BKN080 10/08 Q1032 NOSIG RMK BR W PP000=
SPZO Feb2013-031300Z VRB02KT 9999 FEW015 SCT043 BKN080 11/07 Q1032 NOSIG RMK PP000=
SPZO Feb2013-031400Z VRB01KT 9999 FEW015 SCT040 BKN060 12/07 Q1033 NOSIG RMK PP000=
SPZO Feb2013-031500Z VRB01KT 9999 FEW025 SCT043 BKN100 14/07 Q1032 NOSIG RMK PP000=
SPZO Feb2013-031600Z VRB01KT 9999 SCT030 BKN100 15/06 Q1031 NOSIG RMK PP000=
SPZO Feb2013-031700Z 00000KT 9999 FEW036 SCT043 BKN080 17/08 Q1030 NOSIG RMK PP000=
SPZO Feb2013-031800Z 13003KT 080V190 9999 FEW036 SCT043 OVC080 17/06 Q1029 NOSIG RMK PP000=
SPZO Feb2013-031900Z VRB02KT 9999 FEW040 SCT050 BKN100 18/06 Q1027 NOSIG RMK PP000=
SPZO Feb2013-032000Z 17004KT 110V240 9999 FEW040 SCT050 BKN100 18/05 Q1026 NOSIG RMK PP000=
SPZO Feb2013-032100Z 17003KT 120V190 9999 VCSH FEW030 SCT046 BKN080 17/07 Q1026 NOSIG RMK PP000=
SPZO Feb2013-032200Z 11008KT 080V140 9999 SCT040 BKN080 15/09 Q1026 NOSIG RMK TMAX 18.8 PP000=
SPZO Feb2013-032300Z 12013KT 9999 -RA VCSH SCT040 OVC080 12/09 Q1027 NOSIG RMK VIS 9000 NE RA PP002=
SPZO Feb2013-040000Z 10006KT 9999 SCT040 BKN080 11/08 Q1029 RMK PP002=
SPZO Feb2013-040100Z VRB01KT 9999 -RA SCT040 BKN080 11/08 Q1030 RMK PP006=
SPZO Feb2013-040200Z 00000KT 9999 SCT040 BKN080 11/08 Q1030 RMK PP000=
SPZO Feb2013-040300Z 00000KT 9999 SCT040 BKN080 11/09 Q1031 RMK PP000=
SPZO Feb2013-040400Z 00000KT 9999 -RA SCT040 BKN080 11/09 Q1030 RMK PP004=
SPZO Feb2013-040500Z 00000KT 9999 -RA SCT040 BKN080 10/08 Q1030 RMK PP022=
SPZO Feb2013-040600Z 00000KT 8000 -RA SCT040 BKN060 10/08 Q1030 RMK PP016=
SPZO Feb2013-040700Z 00000KT 8000 -RA FEW030 SCT040 BKN080 10/08 Q1030 RMK PP018=
SPZO Feb2013-040800Z 00000KT 8000 -RA FEW020 SCT036 BKN080 09/09 Q1029 RMK CLNG BLW 1200M PP018=
SPZO Feb2013-040900Z 00000KT 9999 -RA FEW020 SCT036 BKN080 09/06 Q1029 RMK CLNG BLW 1200M PP018=
SPZO Feb2013-041000Z 00000KT 9999 -RA FEW020 SCT036 BKN080 09/06 Q1029 RMK PP002=
SPZO Feb2013-041100Z 00000KT 9999 FEW020 SCT050 BKN100 09/06 Q1030 NOSIG RMK PP000=
SPZO Feb2013-041200Z 00000KT 9999 FEW020 SCT036 BKN080 10/06 Q1031 NOSIG RMK PP000=
SPZO Feb2013-041300Z VRB01KT 9999 FEW020 SCT036 BKN080 12/07 Q1031 NOSIG RMK PP000=
SPZO Feb2013-041400Z 10004KT 040V150 9999 FEW020 SCT036 BKN080 13/06 Q1031 NOSIG RMK PP000=
SPZO Feb2013-041500Z 00000KT 9000 -DZ FEW025 SCT036 BKN060 14/07 Q1031 NOSIG RMK VIS 8000 E PPTRZ=
SPZO Feb2013-041600Z VRB03KT 9999 -DZ VCSH FEW036TCU SCT040 BKN060 15/06 Q1031 TEMPO VIS 8000 E RMK PPTRZ=
SPZO Feb2013-041700Z VRB04KT 9999 VCSH FEW036TCU SCT043 BKN060 16/09 Q1029 REDZ TEMPO -RA RMK PPTRZ=
SPZO Feb2013-041800Z VRB04KT 9999 SCT043 BKN060 17/07 Q1028 NOSIG RMK PP000=
SPZO Feb2013-041900Z 03012KT 350V070 9999 FEW036TCU SCT043 SCT060 18/07 Q1027 NOSIG RMK PP000=
SPZO Feb2013-042000Z 08008KT 360V130 9999 FEW036TCU SCT043 SCT070 17/06 Q1026 NOSIG RMK PP000=
SPZO Feb2013-042100Z 03012G22KT 350V070 9999 SCT046 BKN080 15/05 Q1026 NOSIG RMK PP000=
SPZO Feb2013-042200Z 05010KT 350V160 9999 SCT046 BKN070 14/05 Q1027 NOSIG RMK T MAX 18.1 PP000=
SPZO Feb2013-042300Z 01004KT 310V060 9999 SCT043 BKN060 14/05 Q1028 NOSIG RMK PP000=
SPZO Feb2013-050000Z 01006KT 330V030 9999 SCT036 BKN050 13/05 Q1029 RMK PP000=
SPZO Feb2013-050100Z VRB02KT 9999 -RA SCT036 BKN050 13/06 Q1029 RMK PPTRZ=
SPZO Feb2013-050200Z 23003KT 180V270 9999 SCT040 BKN070 13/06 Q1031 RMK PP000=
SPZO Feb2013-050300Z 12004KT 9999 SCT040 BKN070 12/08 Q1031 RMK PP000=
SPZO Feb2013-050400Z VRB01KT 9999 -RA FEW036 SCT040 BKN070 11/07 Q1031 RMK PPTRZ=
SPZO Feb2013-050500Z 12004KT 9999 -RA FEW036 SCT040 BKN070 10/08 Q1031 RMK PP004=
SPZO Feb2013-050600Z 12004KT 9999 FEW030 SCT043 BKN080 10/08 Q1031 RMK PP004=
SPZO Feb2013-050700Z 10004KT 9999 FEW030 SCT043 BKN080 10/07 Q1030 RMK PP000=
SPZO Feb2013-050800Z 00000KT 9999 FEW033 SCT043 BKN080 10/07 Q1030 RMK PP000=
SPZO Feb2013-050900Z 00000KT 9999 FEW033 SCT040 BKN070 10/07 Q1030 RMK PP000=
SPZO Feb2013-051000Z 11004KT 9999 FEW030 SCT040 BKN070 10/08 Q1030 RMK PP000=
SPZO Feb2013-051100Z 11002KT 9999 FEW020 SCT040 BKN080 09/07 Q1030 NOSIG RMK BR NE PP000=
SPZO Feb2013-051200Z 00000KT 9999 FEW010 SCT036 BKN100 12/08 Q1031 NOSIG RMK HZ E PP000=
SPZO Feb2013-051300Z 10004KT 9999 FEW020 SCT036 BKN100 12/08 Q1032 NOSIG RMK HZ E PP000=
SPZO Feb2013-051400Z VRB02KT 9999 SCT036 BKN100 13/07 Q1032 NOSIG RMK PP000=
SPZO Feb2013-051500Z VRB03KT 9999 SCT036 BKN100 14/07 Q1032 NOSIG RMK PP000=
SPZO Feb2013-051600Z VRB01KT 9999 SCT040 BKN100 16/06 Q1032 NOSIG RMK PP000=
SPZO Feb2013-051700Z 01008KT 9999 SCT050 BKN100 18/07 Q1030 NOSIG RMK PP000=
SPZO Feb2013-051800Z 02008KT 330V060 9999 SCT046 BKN100 17/05 Q1029 NOSIG RMK PP000=
SPZO Feb2013-051900Z 06010KT 020V100 9999 SCT046 BKN100 18/07 Q1028 NOSIG RMK PP000=
SPZO Feb2013-052000Z 05012KT 020V080 9999 SCT043 BKN080 17/05 Q1028 NOSIG RMK PP000=
SPZO Feb2013-052100Z 02007KT 330V060 9999 SCT043 BKN080 17/06 Q1027 NOSIG RMK PP000=
SPZO Feb2013-052200Z 02007KT 330V090 9999 SCT040 BKN080 16/04 Q1027 NOSIG RMK T MAX 18.5 PP000=
SPZO Feb2013-052300Z 09007KT 330V120 9999 SCT050 BKN100 14/06 Q1028 NOSIG RMK PP000=
SPZO Feb2013-060000Z 03005KT 9999 SCT050 BKN100 13/05 Q1029 RMK PP000=
SPZO Feb2013-060100Z VRB03KT 9999 SCT060 BKN100 12/05 Q1030 RMK PP000=
SPZO Feb2013-060200Z 28005KT 9999 SCT060 BKN100 10/06 Q1031 RMK PP000=
SPZO Feb2013-060300Z 00000KT 9999 SCT060 BKN100 10/06 Q1032 RMK PP000=
SPZO Feb2013-060400Z 00000KT 9999 SCT060 10/07 Q1032 RMK PP000=
SPZO Feb2013-060500Z 00000KT 9999 SCT060 10/07 Q1032 RMK PP000=
SPZO Feb2013-060600Z 00000KT 9999 SCT060 10/07 Q1031 RMK PP000=
SPZO Feb2013-060700Z 00000KT 9999 SCT060 10/06 Q1030 RMK PP000=
SPZO Feb2013-060800Z 00000KT 9999 SCT060 10/07 Q1030 RMK PP000=
SPZO Feb2013-060900Z 00000KT 9999 SCT060 10/07 Q1030 RMK PP000=
SPZO Feb2013-061000Z 00000KT 9999 SCT060 10/07 Q1030 RMK PP000=
SPZO Feb2013-061100Z 13004KT 9000 FEW030 SCT050 BKN100 10/07 Q1031 NOSIG RMK VIS 6000E HZ PP000=
SPZO Feb2013-061200Z VRB01KT 9999 FEW020 SCT040 BKN060 11/07 Q1032 NOSIG RMK VIS 8000 E HZ PP000=
SPZO Feb2013-061300Z VRB01KT 9999 FEW020 SCT040 BKN060 12/06 Q1032 NOSIG RMK VIS 8000 E HZ PP000=
SPZO Feb2013-061400Z VRB02KT 9999 FEW020 SCT043 BKN070 14/07 Q1033 NOSIG RMK PP000=
SPZO Feb2013-061500Z VRB03KT 9999 FEW030 SCT046 BKN080 15/06 Q1032 NOSIG RMK PP000=
SPZO Feb2013-061600Z 08006KT 050V120 9999 FEW036 SCT046 BKN080 16/07 Q1032 NOSIG RMK PP000=
SPZO Feb2013-061700Z VRB04KT 9999 SCT043 BKN080 18/07 Q1030 TEMPO VCSH RMK PP000=
SPZO Feb2013-061800Z 04007KT 9999 FEW040TCU SCT060 BKN100 20/06 Q1029 TEMPO VCSH RMK PP000=
SPZO Feb2013-062000Z 27015G25KT 9999 VCSH FEW040TCU SCT060 BKN100 18/07 Q1027 TEMPO -RA VIS 8000E RMK PP000=
SPZO Feb2013-062100Z 31008KT 9999 FEW040TCU SCT060 BKN100 15/07 Q1027 NOSIG RMK PP000=
SPZO Feb2013-062200Z VRB01KT 9999 SCT060 BKN100 16/06 Q1027 NOSIG RMK TMAX 20.1 PP000=
SPZO Feb2013-062300Z 13004KT 9999 SCT050 BKN100 15/07 Q1028 NOSIG RMK PP000=
SPZO Feb2013-070000Z VRB02KT 9999 SCT050 BKN100 14/07 Q1028 RMK PP000=
SPZO Feb2013-070100Z VRB04KT 9999 FEW043 BKN060 13/08 Q1029 RMK PP000=
SPZO Feb2013-070200Z 25003KT 9999 FEW043 BKN060 14/08 Q1030 RMK PP000=
SPZO Feb2013-070300Z 28004KT 9999 SCT043 SCT080 13/08 Q1030 RMK PP000=
SPZO Feb2013-070400Z 09003KT 9999 SCT040 SCT080 12/09 Q1031 RMK PP000=
SPZO Feb2013-070500Z 13003KT 9999 SCT040 SCT080 13/09 Q1030 RMK PP000=
SPZO Feb2013-070600Z 14005KT 9999 SCT040 SCT080 12/07 Q1030 RMK PP000=
SPZO Feb2013-070700Z 12005KT 9999 -RA FEW030 SCT040 BKN070 10/08 Q1030 RMK PP004=
SPZO Feb2013-070800Z 28003KT 9999 -RA FEW030 SCT040 BKN070 10/08 Q1030 RMK PP014=
SPZO Feb2013-070900Z 31005KT 9999 -RA FEW020 SCT040 BKN060 10/07 Q1030 RMK PP014=
SPZO Feb2013-071000Z 28005KT 9999 -RA FEW020 SCT040 BKN060 10/07 Q1030 RMK PP004=
SPZO Feb2013-071100Z 30008KT 9999 -RA FEW020 SCT040 OVC060 09/06 Q1031 NOSIG RMK VIS 9000 W RA PP014=
SPZO Feb2013-071300Z 00000KT 8000 -RA FEW020 SCT036 BKN060 09/06 Q1032 TEMPO VIS 9000E SCT040 BKN080 RMK CLNG BLW 1200M VIS 7000E PP000=
SPZO Feb2013-071400Z VRB03KT 8000 -RA FEW020 SCT036 BKN060 09/06 Q1032 NOSIG RMK CLNG BLW 1200M VIS 7000E PP020=
SPZO Feb2013-071500Z VRB02KT 9999 FEW020 SCT036 BKN080 10/06 Q1032 NOSIG RMK VIS 8000E PP026=
SPZO Feb2013-071700Z 31012KT 9999 FEW030 SCT040 BKN080 16/08 Q1030 NOSIG RMK PP000=
SPZO Feb2013-071800Z 29017KT 260V320 9999 FEW030 SCT040 BKN080 15/06 Q1028 NOSIG RMK PP000=
SPZO Feb2013-071900Z 28012KT 250V310 9999 VCSH FEW036 SCT043 BKN080 16/07 Q1028 NOSIG RMK PP000=
SPZO Feb2013-072000Z VRB02KT 9999 VCSH SCT040 FEW046TCU BKN070 16/07 Q1027 NOSIG RMK PP000=
SPZO Feb2013-072100Z 10009KT 9999 VCSH FEW036 SCT043 BKN070 15/09 Q1026 NOSIG RMK VIS 9000 E RA PP000=
SPZO Feb2013-072200Z 11012KT 9999 FEW036 SCT043 BKN070 14/08 Q1026 NOSIG RMK TMAX 16.7 PP000=
SPZO Feb2013-072300Z 10008KT 8000 -RA FEW025 SCT036 OVC060 12/08 Q1027 NOSIG RMK CLNG BLW 1200M PP008=
SPZO Feb2013-080000Z 28003KT 7000 -RA FEW020 SCT036 BKN060 11/08 Q1029 RMK PP004=
SPZO Feb2013-080100Z 00000KT 7000 -RA FEW020 SCT036 OVC060 11/08 Q1029 RMK PP008=
SPZO Feb2013-080200Z VRB01KT 9000 -RA FEW020 SCT036 OVC060 11/08 Q1031 RMK PP012=
SPZO Feb2013-080300Z VRB02KT 8000 -RA FEW015 SCT036 OVC060 10/07 Q1031 RMK PP016=
SPZO Feb2013-080400Z 00000KT 9000 -RA FEW025 SCT036 BKN060 09/07 Q1031 RMK PP016=
SPZO Feb2013-080500Z 10003KT 8000 -RA FEW025 SCT036 BKN060 09/07 Q1031 RMK PP012=
SPZO Feb2013-080600Z 00000KT 8000 -RA FEW020 SCT036 OVC060 09/07 Q1030 RMK PP012=
SPZO Feb2013-080700Z VRB01KT 8000 -RA FEW020 SCT036 OVC060 09/07 Q1030 RMK CLNG BLW 1200M PP010=
SPZO Feb2013-080800Z 00000KT 8000 -RA FEW020 SCT036 OVC050 09/07 Q1029 RMK CLNG BLW 1200M PP012=
SPZO Feb2013-080900Z VRB01KT 8000 -RA FEW020 SCT036 OVC050 09/07 Q1029 RMK CLNG BLW 1200M PP004=
SPZO Feb2013-081000Z VRB01KT 9999 -DZ FEW020 SCT036 BKN060 09/07 Q1029 RMK CLNG BLW 1200M PP002=
SPZO Feb2013-081100Z 00000KT 9999 FEW020 SCT036 OVC050 09/07 Q1029 REDZ NOSIG RMK PPTRZ=
SPZO Feb2013-081200Z 00000KT 9999 FEW020 SCT040 OVC070 09/07 Q1030 NOSIG RMK VIS 9000 W BR PP000=
SPZO Feb2013-081300Z 00000KT 9999 FEW010 SCT036 OVC060 10/06 Q1030 TEMPO FEW030 SCT040 BKN060 RMK CLNG BLW 1200M PP000=
SPZO Feb2013-081400Z 00000KT 9999 FEW015 SCT036 OVC060 11/06 Q1031 NOSIG RMK PP000=
SPZO Feb2013-081500Z 00000KT 9999 FEW015 SCT040 OVC060 12/07 Q1031 NOSIG RMK PP000=
SPZO Feb2013-081600Z VRB01KT 9999 FEW020 SCT040 OVC060 14/07 Q1030 NOSIG RMK PP000=
SPZO Feb2013-081700Z 05004KT 010V090 9999 FEW025 SCT043 BKN070 15/07 Q1029 NOSIG RMK PP000=
SPZO Feb2013-081800Z VRB04KT 9999 FEW030 SCT043 BKN070 17/06 Q1028 NOSIG RMK PP000=
SPZO Feb2013-081900Z VRB04KT 9999 FEW030 SCT043 BKN070 17/07 Q1026 NOSIG RMK PP000=
SPZO Feb2013-082000Z VRB04KT 9999 VCSH FEW025 SCT040 BKN060 17/06 Q1025 NOSIG RMK VIS 9000 W RA PP000=
SPZO Feb2013-082100Z 31005KT 240V020 9999 DZ VCSH FEW020 SCT040 BKN060 14/07 Q1025 NOSIG RMK PP002=
SPZO Feb2013-082200Z 28008KT 9999 DZ VCSH FEW020 SCT036 BKN060 14/08 Q1025 NOSIG RMK VIS 9000 W RA TMAX 18.1 PPTRZ=
SPZO Feb2013-082300Z 26008KT 9999 VCSH SCT040 BKN070 13/07 Q1026 NOSIG RMK PPTRZ=
SPZO Feb2013-090000Z 30008KT 9999 FEW040TCU SCT060 BKN100 13/08 Q1027 RMK PP000=
SPZO Feb2013-090100Z 30009KT 9999 -RA FEW040TCU SCT060 BKN100 12/08 Q1028 RMK PPTRZ=
SPZO Feb2013-090200Z 30009KT 9999 FEW040 SCT060 BKN100 12/07 Q1029 RMK PP000=
SPZO Feb2013-090300Z 00000KT 9999 SCT050 BKN100 11/08 Q1030 RMK PP000=
SPZO Feb2013-090400Z 00000KT 9999 SCT050 BKN100 10/08 Q1030 RMK PP000=
SPZO Feb2013-090500Z 00000KT 9999 -RA SCT050 BKN100 10/08 Q1030 RMK PP006=
SPZO Feb2013-090600Z 00000KT 9999 SCT050 BKN100 10/07 Q1030 RMK PP006=
SPZO Feb2013-090700Z 00000KT 9999 -RA SCT040 BKN080 09/07 Q1029 RMK PP010=
SPZO Feb2013-090800Z 00000KT 7000 RA SCT030 BKN060 09/07 Q1029 RMK PP018=
SPZO Feb2013-090900Z 00000KT 7000 -RA SCT030 BKN060 09/07 Q1029 RMK PP008=
SPZO Feb2013-091000Z 00000KT 9999 -RA SCT030 BKN060 09/07 Q1029 RMK PP006=
SPZO Feb2013-091100Z VRB02KT 9999 FEW015 SCT036 BKN080 09/07 Q1030 TEMPO 8000 FEW020 SCT036 RMK CLNG BLW 1200M PP000=
SPZO Feb2013-091200Z VRB01KT 9999 FEW020 SCT036 BKN050 09/07 Q1030 RERA NOSIG RMK CLNG BLW 1200M PP002=
SPZO Feb2013-091300Z 10003KT 020V150 9999 FEW020 SCT036 BKN060 11/07 Q1031 NOSIG MK PP000=
SPZO Feb2013-091400Z VRB02KT 9999 FEW020 SCT040 BKN070 13/07 Q1031 NOSIG RMK PP000=
SPZO Feb2013-091500Z 08004KT 350V140 9999 FEW025 SCT040 BKN080 15/07 Q1030 NOSIG RMK PP000=
SPZO Feb2013-091600Z VRB04KT 9999 VCSH FEW036TCU SCT040 BKN060 16/08 Q1030 TEMPO -RA RMK PP000=
SPZO Feb2013-091700Z 24005KT 9999 -DZ SCT036 BKN060 13/08 Q1029 NOSIG RMK PP020=
SPZO Feb2013-091800Z VRB03KT 9999 VCSH FEW036TCU SCT043 BKN060 18/07 Q1028 REDZ TEMPO -RA RMK PPTRZ=
SPZO Feb2013-091900Z 12008KT 9999 VCSH SCT036TCU BKN060 16/07 Q1027 TEMPO -RA RMK PP000=
SPZO Feb2013-092000Z VRB03KT 9999 VCSH FEW036TCU SCT043 BKN060 17/06 Q1026 TEMPO -RA RMK PP000=
SPZO Feb2013-092100Z 35008KT 320V020 9999 FEW036TCU SCT046 BKN070 15/06 Q1026 TEMPO VCSH RMK PP000=
SPZO Feb2013-092200Z 29009KT 9999 SCT046 BKN080 15/08 Q1026 NOSIG RMK T MAX 17.7 -SHRA BTN 2135/2145 PP002=
SPZO Feb2013-092300Z 30010KT 9999 SCT046 BKN100 14/07 Q1027 NOSIG RMK PP000=
SPZO Feb2013-100000Z 29008KT 9999 SCT036 BKN080 13/08 Q1027 RMK PP000=
SPZO Feb2013-100100Z VRB02KT 9999 SCT036 BKN070 13/08 Q1028 RMK PP000=
SPZO Feb2013-100200Z 12003KT 9999 SCT036 BKN060 12/08 Q1029 RMK PP000=
SPZO Feb2013-100300Z 12005KT 9999 SCT040 BKN060 11/08 Q1030 RMK PP000=
SPZO Feb2013-100400Z 08004KT 9999 SCT040 BKN060 10/08 Q1031 RERA RMK PP002=
SPZO Feb2013-100500Z 11004KT 9999 -RA FEW015 SCT036 BKN060 09/07 Q1031 RMK PP022=
SPZO Feb2013-100600Z 11004KT 9999 -RA FEW015 SCT036 BKN060 09/07 Q1030 RMK PP016=
SPZO Feb2013-100700Z 09003KT 9999 -RA FEW015 SCT036 BKN060 09/07 Q1030 RMK PP014=
SPZO Feb2013-100800Z 00000KT 9999 -RA FEW020 SCT036 BKN060 09/07 Q1029 RMK PP010=
SPZO Feb2013-100900Z 00000KT 9999 -RA FEW020 SCT036 BKN060 08/06 Q1029 RMK PP018=
SPZO Feb2013-101000Z 00000KT 9999 -RA FEW020 SCT036 BKN060 09/07 Q1029 RMK PP006=
SPZO Feb2013-101100Z 00000KT 9999 DZ FEW015 SCT036 OVC060 09/07 Q1030 NOSIG RMK CLNG BLW 1200M VIS 9000 E BR PP002=
SPZO Feb2013-101200Z 00000KT 9999 FEW015 SCT036 BKN060 10/07 Q1030 TEMPO FEW030 SCT040 BKN070 RMK PP000=
SPZO Feb2013-101300Z 00000KT 9999 VCSH FEW020 SCT040 BKN080 11/05 Q1031 NOSIG RMK PP000=
SPZO Feb2013-101400Z VRB01KT 9999 FEW020 SCT040 BKN080 12/06 Q1031 NOSIG RMK PP000=
SPZO Feb2013-101500Z VRB02KT 9999 SCT040 BKN080 14/06 Q1031 NOSIG RMK PP000=
SPZO Feb2013-101600Z VRB03KT 9999 SCT040 BKN080 16/09 Q1030 NOSIG RMK PP000=
SPZO Feb2013-101700Z VRB02KT 9999 VCSH FEW040TCU SCT060 BKN100 16/07 Q1030 TEMPO VCSH RMK PP000=
SPZO Feb2013-101800Z 36005KT 330V060 9999 FEW036TCU SCT046 18/06 Q1028 NOSIG RMK PP000=
SPZO Feb2013-102000Z 34008KT 220V030 8000 -TSRA FEW030 SCT043CB BKN060 13/07 Q1026 TEMPO VIS 7000 E RMK PP030=
SPZO Feb2013-102100Z 11007KT 090V160 9999 VCSH FEW040TCU SCT046 BKN080 12/08 Q1026 RERA NOSIG RMK PPTRZ=
SPZO Feb2013-102200Z 12003KT 090V160 9999 SCT040 BKN080 12/08 Q1026 NOSIG RMK T MAX 20.6 -SHRA BTN 2135/2145 PP004=
SPZO Feb2013-102300Z 10006KT 9999 SCT040 BKN100 13/07 Q1026 NOSIG RMK PP000=
SPZO Feb2013-110000Z VRB03KT 9999 SCT050 BKN100 12/08 Q1027 RMK PP000=
SPZO Feb2013-110100Z 00000KT 9999 SCT050 BKN100 11/08 Q1027 RMK PP000=
SPZO Feb2013-110200Z VRB02KT 9999 SCT050 BKN100 12/08 Q1029 RMK PP000=
SPZO Feb2013-110300Z 00000KT 9999 SCT050 BKN100 11/08 Q1030 RMK PP000=
SPZO Feb2013-110400Z 00000KT 7000 -RA FEW020 SCT040 BKN080 10/08 Q1030 RMK PP034=
SPZO Feb2013-110500Z 00000KT 9999 FEW020 SCT040 BKN080 10/08 Q1030 RMK PP000=
SPZO Feb2013-110600Z 00000KT 9999 FEW020 SCT040 BKN080 10/07 Q1029 RMK PP000=
SPZO Feb2013-110700Z 00000KT 9999 FEW020 SCT040 BKN080 10/07 Q1029 RMK PP000=
SPZO Feb2013-110900Z 00000KT 9999 SCT050 BKN080 10/07 Q1028 RMK PP000=
SPZO Feb2013-111000Z 00000KT 9999 SCT050 BKN080 09/07 Q1028 RMK PP000=
SPZO Feb2013-111100Z 00000KT 9999 FEW020 SCT043 BKN080 09/07 Q1029 RMK PP000=
SPZO Feb2013-111200Z VRB01KT 9999 FEW020 SCT040 BKN080 09/07 Q1029 NOSIG RMK PP000=
SPZO Feb2013-111300Z 00000KT 9999 FEW020 SCT040 BKN080 09/07 Q1030 NOSIG RMK PP000=
SPZO Feb2013-111400Z VRB03KT 9999 FEW030TCU SCT040 BKN230 14/07 Q1030 SCT040 SCT100 RMK PP000=
SPZO Feb2013-111500Z 02004KT 9999 FEW030TCU SCT040 BKN100 16/07 Q1029 NOSIG RMK PP000=
SPZO Feb2013-111600Z VRB03KT 9999 SCT050 BKN100 16/06 Q1029 NOSIG RMK PP000=
SPZO Feb2013-111700Z VRB04KT 9999 SCT050 BKN100 18/07 Q1027 TEMPO SCT043TCU RMK PP000=
SPZO Feb2013-111900Z 26011KT 9999 -RA VCSH FEW040TCU BKN100 17/07 Q1025 NOSIG RMK PPTRZ=
SPZO Feb2013-112000Z 28013KT 9999 SCT050 BKN100 17/08 Q1024 NOSIG RMK PP000=
SPZO Feb2013-112100Z 25009KT 9999 SCT060 18/06 Q1024 NOSIG RMK PP000=
SPZO Feb2013-112200Z 35009KT 9999 FEW040 SCT100 16/06 Q1024 NOSIG RMK PP000=
SPZO Feb2013-112300Z VRB03KT 9999 SCT060 SCT100 15/07 Q1025 NOSIG RMK PP000=
SPZO Feb2013-120000Z 26004KT 220V290 9999 -RA FEW040TCU SCT050 BKN080 14/07 Q1026 RMK PPTRZ=
SPZO Feb2013-120100Z 10004KT 060V130 9999 DZ FEW040 SCT050 BKN080 12/09 Q1027 RMK PP006=
SPZO Feb2013-120200Z 20005KT 140V250 9000 TSRA FEW030CB SCT040 BKN060 09/06 Q1030 RMK PP048=
SPZO Feb2013-120300Z 26006KT 9000 -RA FEW025 SCT040 BKN060 08/06 Q1031 RMK PP040=
SPZO Feb2013-120400Z 30003KT 9999 -RA FEW025 SCT040 BKN060 08/06 Q1031 RMK PP008=
SPZO Feb2013-120500Z 00000KT 9999 -RA FEW030 SCT040 BKN060 08/06 Q1030 RMK PP006=
SPZO Feb2013-120600Z 11003KT 9999 FEW030 SCT040 BKN060 09/07 Q1030 RMK PPTRZ=
SPZO Feb2013-120700Z 00000KT 9999 FEW020 SCT036 BKN050 09/06 Q1029 RMK PP000=
SPZO Feb2013-120800Z 00000KT 9999 FEW020 SCT036 BKN050 09/06 Q1029 RMK PP000=
SPZO Feb2013-120900Z 09002KT 9999 FEW020 SCT036 BKN060 08/07 Q1028 RMK PP000=
SPZO Feb2013-121000Z VRB01KT 9999 FEW020 SCT036 BKN060 09/06 Q1028 RMK PP000=
SPZO Feb2013-121100Z 00000KT 9999 FEW020 SCT036 BKN070 08/06 Q1029 NOSIG RMK PP000=
SPZO Feb2013-121200Z 00000KT 9999 SCT015 SCT040 BKN080 09/07 Q1029 NOSIG RMK PP000=
SPZO Feb2013-121300Z 00000KT 9999 FEW030 SCT050 BKN100 11/06 Q1030 NOSIG RMK PP000=
SPZO Feb2013-121400Z 00000KT 9999 FEW020 SCT050 BKN100 13/07 Q1030 NOSIG RMK PP000=
SPZO Feb2013-121500Z 32004KT 9999 SCT050 BKN100 15/06 Q1030 NOSIG RMK PP000=
SPZO Feb2013-121600Z 33004KT 9999 SCT060 BKN100 15/06 Q1029 NOSIG RMK PP000=
SPZO Feb2013-121700Z VRB03KT 9999 SCT050 BKN100 16/05 Q1028 NOSIG RMK PP000=
SPZO Feb2013-121800Z VRB04KT 9999 SCT046 19/06 Q1026 NOSIG RMK PP000=
SPZO Feb2013-121900Z 30011G22KT 240V360 9999 FEW030TCU SCT046 BKN080 18/06 Q1025 NOSIG RMK PP000=
SPZO Feb2013-122000Z 29013KT 250V340 9999 VCSH FEW030 SCT046 BKN080 15/07 Q1025 NOSIG RMK PP000=
SPZO Feb2013-122100Z 28012KT 9999 SCT046 BKN080 18/06 Q1024 NOSIG RMK PP000=
SPZO Feb2013-122200Z 35010KT 310V030 9999 SCT046 BKN080 17/04 Q1024 NOSIG RMK TMAX 19.5 PP000=
SPZO Feb2013-122300Z 01009KT 340V050 9999 SCT050 BKN100 16/05 Q1025 NOSIG RMK PP000=
SPZO Feb2013-130000Z 27011KT 9999 SCT050 BKN100 13/05 Q1026 RMK PP000=
SPZO Feb2013-130100Z 28011KT 9999 SCT050 BKN080 12/05 Q1027 RMK PP000=
SPZO Feb2013-130200Z 28010KT 9999 SCT046 BKN080 11/05 Q1028 RMK PP000=
SPZO Feb2013-130300Z 28010KT 9999 SCT043 SCT080 10/05 Q1029 RMK PP000=
SPZO Feb2013-130400Z VRB02KT 9999 SCT043 SCT080 10/05 Q1030 RMK PP000=
SPZO Feb2013-130500Z VRB02KT 9999 SCT043 SCT080 09/05 Q1030 RMK PP000=
SPZO Feb2013-130600Z 00000KT 9999 SCT043 BKN080 08/05 Q1029 RMK PP000=
SPZO Feb2013-130700Z 00000KT 9999 SCT043 BKN080 08/05 Q1028 RMK PP000=
SPZO Feb2013-130800Z 00000KT 9999 SCT040 BKN070 08/06 Q1028 RMK FEW033 QUAD NE PP000=
SPZO Feb2013-130900Z 10004KT 9999 FEW033 SCT040 BKN070 08/06 Q1028 RMK VIS 8000 E BR PP000=
SPZO Feb2013-131000Z VRB02KT 9999 FEW033 SCT040 BKN070 09/06 Q1028 RMK VIS 8000 E BR PP000=
SPZO Feb2013-131100Z VRB01KT 9999 FEW033 SCT040 BKN060 09/06 Q1028 NOSIG RMK PP000=
SPZO Feb2013-131200Z 10003KT 9999 FEW030 SCT043 BKN070 09/06 Q1029 NOSIG RMK VIS 9000E BR PP000=
SPZO Feb2013-131300Z 00000KT 9999 FEW015 SCT040 BKN070 11/06 Q1030 NOSIG RMK VIS 9000 NE HZ PP000=
SPZO Feb2013-131400Z VRB02KT 9999 FEW025 SCT040 BKN080 14/05 Q1030 NOSIG RMK VIS 9000 NE HZ PP000=
SPZO Feb2013-131500Z VRB03KT 9999 SCT043 BKN080 15/05 Q1029 NOSIG RMK PP000=
SPZO Feb2013-131600Z VRB06KT 9999 VCSH FEW036TCU SCT043 BKN080 15/06 Q1029 NOSIG RMK PP000=
SPZO Feb2013-131700Z 30006KT 260V340 9999 FEW040 SCT046 BKN100 17/05 Q1028 NOSIG RMK PP000=
SPZO Feb2013-131800Z VRB03KT 9999 VCSH FEW036TCU SCT046 BKN080 18/06 Q1027 TEMPO -RA RMK PP000=
SPZO Feb2013-131900Z VRB05KT 9999 VCSH FEW036TCU SCT046 BKN080 14/07 Q1026 RERA TEMPO VIS 8000E RMK VIS 9000 NE RA PP014=
SPZO Feb2013-132000Z 17006KT 9999 VCSH SCT043 BKN070 13/08 Q1026 TEMPO VIS 8000E RMK VIS 9000E RA PP010=
SPZO Feb2013-132100Z 06003KT 020V120 9999 FEW036TCU SCT046 BKN080 14/07 Q1025 NOSIG RMK PP000=
SPZO Feb2013-132200Z VRB01KT 9999 SCT050 BKN100 15/06 Q1025 NOSIG RMK TMAX 19.2 PP000=
SPZO Feb2013-132300Z 00000KT 9999 SCT050 BKN100 15/07 Q1025 NOSIG RMK PP000=
SPZO Feb2013-140000Z VRB03KT 9999 SCT050 BKN100 13/08 Q1026 RMK PP000=
SPZO Feb2013-140100Z 29004KT 9999 SCT050 BKN100 11/08 Q1027 RMK PP000=
SPZO Feb2013-140200Z 00000KT 9999 SCT050 BKN100 11/08 Q1029 RMK PP000=
SPZO Feb2013-140300Z 00000KT 9999 SCT050 BKN100 11/07 Q1029 RMK PP000=
SPZO Feb2013-140400Z 00000KT 9999 SCT050 BKN100 11/08 Q1030 RMK PP000=
SPZO Feb2013-140500Z 00000KT 9999 SCT050 BKN100 11/08 Q1029 RMK PP000=
SPZO Feb2013-140600Z 00000KT 9999 -RA SCT050 BKN100 11/08 Q1029 RMK PP000=
SPZO Feb2013-140700Z 00000KT 9999 -RA SCT050 BKN100 10/08 Q1029 RMK PP000=
SPZO Feb2013-140800Z 00000KT 9999 SCT050 BKN100 10/08 Q1028 RMK PP000=
SPZO Feb2013-140900Z 00000KT 9999 SCT040 BKN100 10/08 Q1029 RMK PP000=
SPZO Feb2013-141000Z 11011KT 9999 SCT040 BKN100 09/07 Q1029 RMK PP000=
SPZO Feb2013-141100Z 11008KT 9999 FEW015 SCT036 BKN080 09/06 Q1030 TEMPO FEW020 SCT040 RMK CLNG BLW 1200M PP000=
SPZO Feb2013-141200Z 13006KT 090V160 9000 -DZ FEW020 SCT036 BKN050 09/06 Q1030 TEMPO -RA RMK SCT015 QUAD W PPTRZ=
SPZO Feb2013-141300Z 10004KT 9000 -DZ FEW025 SCT036 BKN050 10/06 Q1031 NOSIG RMK PP002=
SPZO Feb2013-141400Z 26004KT 210V320 9999 FEW025 SCT040 BKN060 12/07 Q1032 REDZ NOSIG RMK PP002=
SPZO Feb2013-141500Z VRB02KT 9999 FEW025 SCT040 BKN080 14/06 Q1031 NOSIG RMK PP000=
SPZO Feb2013-141600Z VRB02KT 9999 FEW036 SCT046 BKN080 16/06 Q1030 NOSIG RMK PP000=
SPZO Feb2013-141700Z VRB04KT 9999 VCSH FEW036TCU SCT046 BKN080 18/07 Q1029 TEMPO -RA VIS 8000 E RMK PP000=
SPZO Feb2013-141800Z VRB04KT 9999 VCSH FEW030CB SCT046TCU BKN080 17/05 Q1028 TEMPO -RA RMK PP000=
SPZO Feb2013-141900Z 02011KT 9999 FEW030TCU SCT050 BKN080 15/06 Q1028 TEMPO -RA RMK PP000=
SPZO Feb2013-142000Z VRB03KT 9999 SCT040 BKN080 16/05 Q1027 NOSIG RMK PP000=
SPZO Feb2013-142100Z 29012KT 9999 SCT040 BKN080 15/06 Q1027 NOSIG RMK PP000=
SPZO Feb2013-142200Z 07007KT 9999 SCT040 BKN100 15/08 Q1027 NOSIG RMK PP000=
SPZO Feb2013-142300Z 11008KT 9999 SCT050 BKN100 13/07 Q1027 NOSIG RMK PP000=
SPZO Feb2013-150000Z 12006KT 9999 BKN046 SCT080 12/07 Q1028 RMK PP000=
SPZO Feb2013-150100Z 13005KT 9999 BKN046 SCT080 12/07 Q1029 RMK PP000=
SPZO Feb2013-150200Z 00000KT 9999 BKN046 SCT080 12/07 Q1030 RMK PP000=
SPZO Feb2013-150300Z 00000KT 9999 SCT043 SCT070 12/07 Q1031 RMK PP000=
SPZO Feb2013-150400Z 00000KT 9999 SCT043 SCT070 12/08 Q1031 RMK PP000=
SPZO Feb2013-150500Z 10003KT 9999 SCT043 SCT070 11/08 Q1031 RMK PP000=
SPZO Feb2013-150600Z 00000KT 9999 FEW030 SCT043 BKN070 11/08 Q1030 RMK PP000=
SPZO Feb2013-150700Z VRB01KT 9999 FEW030 SCT043 BKN070 11/07 Q1029 RMK PP000=
SPZO Feb2013-150800Z 11004KT 9999 FEW036 BKN060 10/08 Q1029 RMK PP000=
SPZO Feb2013-150900Z 09005KT 9999 FEW036 SCT040 BKN060 10/07 Q1030 RMK PP000=
SPZO Feb2013-151000Z 10003KT 9999 FEW025 SCT036 BKN060 10/07 Q1030 RMK PP000=
SPZO Feb2013-151100Z 10007KT 9999 -RA FEW015 SCT036 OVC060 09/07 Q1031 NOSIG RMK VIS 9000 E RA CLNG BLW 1200M PPTRZ=
SPZO Feb2013-151200Z 11007KT 8000 DZ SCT010 SCT030 BKN080 08/06 Q1032 NOSIG RMK CLNG BLW 1200M VIS 6000E PP002=
SPZO Feb2013-151300Z 10007KT 9999 DZ FEW020 SCT036 BKN100 09/06 Q1033 NOSIG RMK CLNG BLW 1200M PP004=
SPZO Feb2013-151400Z 11010KT 9999 FEW030 SCT050 BKN100 12/07 Q1034 NOSIG RMK PP000=
SPZO Feb2013-151500Z 10009KT 9999 SCT036 BKN100 12/06 Q1033 NOSIG RMK PP000=
SPZO Feb2013-151600Z 10005KT 9999 SCT040 BKN100 15/05 Q1032 TEMPO VCSH RMK PP000=
SPZO Feb2013-151700Z VRB04KT 9999 VCSH FEW040TCU SCT050 BKN100 17/06 Q1031 TEMPO -RA RMK PP000=
SPZO Feb2013-151800Z 28010KT 9999 -RA VCSH FEW040TCU SCT050 BKN080 14/07 Q1030 NOSIG RMK PP000=
SPZO Feb2013-151900Z 28012KT 9999 VCSH FEW040TCU SCT050 BKN080 16/07 Q1029 RERA NOSIG RMK PP002=
SPZO Feb2013-152000Z 28006KT 9999 FEW050 SCT080 18/06 Q1027 NOSIG RMK PP000=
SPZO Feb2013-152100Z 29013KT 9999 SCT050 BKN080 16/07 Q1026 NOSIG RMK PP000=
SPZO Feb2013-152200Z 28010KT 9999 SCT050 BKN100 11/07 Q1027 TEMPO -RA RMK PPTRZ=
SPZO Feb2013-152300Z VRB03KT 9999 VCSH SCT050 BKN100 15/07 Q1027 NOSIG RMK PP000=
SPZO Feb2013-160000Z 27006KT 9999 -RA SCT040 BKN100 12/07 Q1029 RMK PP006=
SPZO Feb2013-160100Z 32005KT 9999 SCT040 BKN100 12/08 Q1029 RMK PP000=
SPZO Feb2013-160200Z 00000KT 9999 SCT040 BKN100 12/08 Q1030 RMK PP000=
SPZO Feb2013-160300Z 00000KT 9999 SCT040 BKN100 12/08 Q1032 RMK PP000=
SPZO Feb2013-160400Z 00000KT 9999 SCT040 BKN100 10/07 Q1032 RMK PP000=
SPZO Feb2013-160500Z 00000KT 9999 -RA SCT040 BKN080 10/07 Q1035 RMK PPTRZ=
SPZO Feb2013-160600Z 00000KT 9999 SCT040 BKN100 12/07 Q1031 RMK PP004=
SPZO Feb2013-160700Z 00000KT 9999 SCT040 BKN080 12/06 Q1031 RMK PP000=
SPZO Feb2013-160800Z 00000KT 9999 SCT040 BKN080 10/06 Q1030 RMK PP000=
SPZO Feb2013-160900Z 00000KT 9999 SCT040 BKN080 09/06 Q1030 RMK PP000=
SPZO Feb2013-161000Z 00000KT 9999 SCT040 BKN080 09/06 Q1031 RMK VIS 7000E BR PP000=
SPZO Feb2013-161100Z 00000KT 9999 FEW010 SCT030 BKN080 09/06 Q1031 NOSIG RMK PP000=
SPZO Feb2013-161200Z 00000KT 9999 FEW025 SCT036 BKN060 10/07 Q1032 NOSIG RMK PP000=
SPZO Feb2013-161300Z 00000KT 9999 FEW020 SCT036 BKN060 11/07 Q1033 TEMPO VCSH RMK VIS 8000 E HZ PP000=
SPZO Feb2013-161400Z 00000KT 9999 FEW020 SCT036 BKN060 12/07 Q1033 NOSIG RMK BCBR E PP000=
SPZO Feb2013-161500Z VRB03KT 9999 FEW030 SCT040 BKN060 16/07 Q1033 NOSIG RMK PP000=
SPZO Feb2013-161600Z VRB01KT 9999 SCT046 BKN080 16/07 Q1032 NOSIG RMK PP000=
SPZO Feb2013-161700Z VRB03KT 9999 VCSH FEW036TCU SCT046 BKN070 17/06 Q1030 NOSIG RMK PP000=
SPZO Feb2013-161800Z 04006KT 9999 VCSH FEW036TCU SCT050 BKN100 19/07 Q1029 NOSIG RMK PP000=
SPZO Feb2013-161900Z 11006KT 9999 VCSH FEW036TCU SCT050 BKN100 18/05 Q1028 NOSIG RMK PP000=
SPZO Feb2013-162000Z 01009KT 9999 VCSH FEW036TCU SCT050 BKN100 18/05 Q1027 TEMPO -RA RMK PP000=
SPZO Feb2013-162100Z 28015KT 9999 VCSH FEW040TCU SCT060 BKN100 15/06 Q1027 NOSIG RMK PP000=
SPZO Feb2013-162200Z 28013KT 9999 SCT050 BKN100 15/06 Q1027 NOSIG RMK T MAX 19.9 PP000=
SPZO Feb2013-162300Z 29009KT 9999 FEW020 SCT050 BKN100 14/07 Q1027 NOSIG RMK PP000=
SPZO Feb2013-170000Z VRB08KT 9999 SCT046 SCT080 13/07 Q1028 RMK PP000=
SPZO Feb2013-170100Z VRB06KT 9999 SCT046 SCT080 13/07 Q1029 RMK PP000=
SPZO Feb2013-170200Z VRB01KT 9999 FEW046 SCT080 13/07 Q1030 RMK PP000=
SPZO Feb2013-170300Z VRB01KT 9999 FEW046 SCT080 12/07 Q1031 RMK PP000=
SPZO Feb2013-170400Z VRB01KT 9999 FEW050 SCT100 13/08 Q1030 RMK PP000=
SPZO Feb2013-170500Z VRB04KT 9999 FEW050 SCT100 13/05 Q1030 RMK PP000=
SPZO Feb2013-170600Z 00000KT 9999 FEW050 SCT100 12/05 Q1030 RMK PP000=
SPZO Feb2013-170700Z 26005KT 240V300 9999 FEW046 SCT080 12/05 Q1030 RMK PP000=
SPZO Feb2013-170800Z 13003KT 110V170 9999 -RA SCT043 BKN070 10/07 Q1030 RMK PP006=
SPZO Feb2013-170900Z 12003KT 080V150 9999 FEW036 SCT043 BKN070 10/07 Q1030 RMK PP000=
SPZO Feb2013-171000Z 13003KT 9999 FEW036 SCT043 BKN070 10/07 Q1030 RMK PP000=
SPZO Feb2013-171100Z 00000KT 9999 FEW033 SCT043 BKN070 10/07 Q1031 NOSIG RMK PP000=
SPZO Feb2013-171200Z 00000KT 9999 FEW030 SCT040 BKN100 11/06 Q1032 NOSIG RMK PP000=
SPZO Feb2013-171300Z 00000KT 9999 SCT040 BKN100 12/06 Q1032 NOSIG RMK PP000=
SPZO Feb2013-171400Z 00000KT 9999 SCT050 BKN100 13/05 Q1033 NOSIG RMK PP000=
SPZO Feb2013-171500Z VRB03KT 9999 SCT050 BKN100 15/06 Q1032 NOSIG RMK PP000=
SPZO Feb2013-171600Z 31006KT 9999 SCT050 BKN100 16/06 Q1031 NOSIG RMK PP000=
SPZO Feb2013-171700Z VRB04KT 9999 FEW040TCU SCT050 BKN100 18/06 Q1030 NOSIG RMK PP000=
SPZO Feb2013-171800Z 01010KT 320V040 9999 FEW040TCU SCT046 BKN080 18/06 Q1029 TEMPO VCSH RMK PP000=
SPZO Feb2013-171900Z 20003KT 140V260 9999 FEW040TCU SCT046 BKN080 18/03 Q1027 TEMPO VCSH RMK PP000=
SPZO Feb2013-172000Z 03010KT 350V060 9999 -RA VCSH FEW036TCU SCT043 BKN070 15/05 Q1027 NOSIG RMK VIS 9000W RA PPTRZ=
SPZO Feb2013-172100Z 29008KT 260V030 9999 VCSH FEW036 SCT043 BKN070 15/06 Q1027 NOSIG RMK PP000=
SPZO Feb2013-172200Z 27004KT 9999 SCT040 BKN080 14/06 Q1027 NOSIG RMK TMAX 19.7 PP000=
SPZO Feb2013-172300Z 24003KT 220V320 9999 FEW040 SCT150 14/06 Q1027 NOSIG RMK PP000=
SPZO Feb2013-180000Z 27005KT 9999 FEW050 SCT100 12/07 Q1028 RMK PP000=
SPZO Feb2013-180100Z 00000KT 9999 SCT050 SCT100 11/07 Q1029 RMK PP000=
SPZO Feb2013-180200Z 31003KT 270V360 9999 SCT050 SCT100 10/06 Q1030 RMK PP000=
SPZO Feb2013-180300Z VRB02KT 9999 SCT050 SCT080 10/07 Q1031 RMK PP000=
SPZO Feb2013-180400Z 00000KT 9999 SCT050 SCT080 09/07 Q1031 RMK PP000=
SPZO Feb2013-180500Z VRB01KT 9999 SCT050 SCT080 09/07 Q1031 RMK PP000=
SPZO Feb2013-180600Z VRB01KT 9999 SCT050 BKN080 10/06 Q1030 RMK PP000=
SPZO Feb2013-180700Z VRB02KT 9999 SCT050 BKN080 10/07 Q1030 RMK -SHRA BTN 0610/0620 PP002=
SPZO Feb2013-180800Z 12005KT 9999 SCT046 BKN070 10/07 Q1029 RMK PP000=
SPZO Feb2013-180900Z 00000KT 9999 SCT043 BKN060 10/07 Q1029 RMK VIS 8000 E BR PP000=
SPZO Feb2013-181000Z 13004KT 9999 FEW020 SCT036 BKN060 10/07 Q1030 RMK PP000=
SPZO Feb2013-181100Z 07004KT 9999 FEW020 SCT036 BKN060 10/07 Q1030 TEMPO VIS 8000 E RMK -RA QUAD NW PP000=
SPZO Feb2013-181200Z VRB02KT 9999 FEW015 SCT040 BKN070 10/07 Q1031 TEMPO VIS 8000E RMK VIS 9000E BR PP000=
SPZO Feb2013-181300Z 11003KT 080V150 9999 FEW010 SCT040 BKN070 11/07 Q1032 NOSIG RMK VIS 9000E PP000=
SPZO Feb2013-181400Z 11006KT 080V150 9999 FEW015 SCT040 BKN080 12/08 Q1032 NOSIG RMK PP000=
SPZO Feb2013-181500Z 10004KT 050V180 9999 FEW020 SCT043 BKN080 14/07 Q1032 NOSIG RMK PP000=
SPZO Feb2013-181600Z 12004KT 080V220 9999 SCT043 BKN080 16/07 Q1031 NOSIG RMK PP000=
SPZO Feb2013-181700Z 12004KT 040V190 9999 BKN043 SCT080 17/07 Q1030 NOSIG RMK PP000=
SPZO Feb2013-181800Z VRB04KT 9999 SCT043 BKN080 19/04 Q1028 TEMPO VCSH RMK PP000=
SPZO Feb2013-181900Z VRB04KT 9999 SCT050 BKN080 20/04 Q1027 NOSIG RMK PP000=
SPZO Feb2013-182000Z 06008KT 020V150 9999 FEW040TCU SCT050 BKN100 20/07 Q1026 NOSIG RMK PP000=
SPZO Feb2013-182100Z 03010KT 250V060 9999 SCT046TCU BKN080 19/04 Q1025 TEMPO -RA RMK PP000=
SPZO Feb2013-182200Z 02010KT 330V060 9999 VCSH SCT046TCU BKN080 18/05 Q1025 TEMPO -RA RMK VCTS CB QUAD SW T MAX 20.9 PP000=
SPZO Feb2013-182300Z VRB06KT 9999 SCT040 BKN080 16/05 Q1026 TEMPO VCSH RMK PP000=
SPZO Feb2013-190000Z 13006KT 9999 SCT050 BKN100 14/06 Q1028 RMK PP000=
SPZO Feb2013-190100Z 10006KT 9999 SCT050 BKN100 13/06 Q1029 RMK PP000=
SPZO Feb2013-190200Z 13006KT 9999 SCT050 BKN100 13/06 Q1030 RMK PP000=
SPZO Feb2013-190300Z 00000KT 9999 SCT050 BKN100 12/06 Q1031 RMK PP000=
SPZO Feb2013-190400Z 00000KT 9999 SCT050 BKN100 12/06 Q1031 RMK PP000=
SPZO Feb2013-190500Z 00000KT 9999 SCT050 BKN100 12/06 Q1031 RMK PP000=
SPZO Feb2013-190600Z 00000KT 9999 SCT050 BKN100 11/06 Q1031 RMK PP000=
SPZO Feb2013-190700Z 00000KT 9999 -RA SCT050 BKN100 10/07 Q1030 RMK PP000=
SPZO Feb2013-190800Z 00000KT 9999 SCT050 BKN100 10/07 Q1030 RMK PP006=
SPZO Feb2013-190900Z 00000KT 9999 SCT050 BKN100 10/07 Q1030 RMK PP000=
SPZO Feb2013-191000Z 00000KT 9999 SCT050 BKN100 10/07 Q1030 RMK PP000=
SPZO Feb2013-191100Z 00000KT 9999 FEW020 SCT050 BKN080 10/07 Q1031 NOSIG RMK BR E PP000=
SPZO Feb2013-191200Z 00000KT 9999 FEW020 SCT040 BKN060 10/07 Q1032 NOSIG RMK -RA QUAD NE PP000=
SPZO Feb2013-191300Z 00000KT 9999 FEW020 SCT040 BKN060 11/07 Q1032 NOSIG RMK PP000=
SPZO Feb2013-191400Z VRB01KT 9999 FEW025 SCT046 BKN060 13/06 Q1033 NOSIG RMK PP000=
SPZO Feb2013-191500Z 11005KT 080V150 9999 FEW025 SCT046 BKN070 14/07 Q1032 NOSIG RMK -RA QUAD N PP000=
SPZO Feb2013-191600Z VRB02KT 9999 FEW025 SCT046 BKN080 17/05 Q1032 NOSIG RMK PP000=
SPZO Feb2013-191700Z VRB04KT 9999 VCSH FEW036TCU SCT046 BKN080 17/06 Q1031 NOSIG RMK PP000=
SPZO Feb2013-191800Z 32009KT 290V020 9999 VCSH FEW036TCU SCT050 BKN080 19/07 Q1029 NOSIG RMK PP000=
SPZO Feb2013-191900Z 28010KT 9999 SCT050 SCT080 19/05 Q1028 NOSIG RMK PP000=
SPZO Feb2013-192000Z 28014KT 9999 FEW036TCU SCT050 SCT080 20/06 Q1026 NOSIG RMK PP000=
SPZO Feb2013-192100Z 29014KT 9999 SCT046 SCT080 19/06 Q1025 NOSIG RMK PP000=
SPZO Feb2013-192200Z 30014KT 9999 SCT050 BKN080 18/06 Q1025 NOSIG RMK T MAX 20.1 PP000=
SPZO Feb2013-192300Z 28010KT 9999 SCT050 BKN100 16/06 Q1026 NOSIG RMK PP000=
SPZO Feb2013-200000Z 27009KT 240V300 9999 FEW050 SCT080 15/06 Q1028 RMK PP000=
SPZO Feb2013-200100Z 32007KT 270V010 9999 FEW046 SCT080 15/06 Q1029 RMK PP000=
SPZO Feb2013-200200Z 28009KT 9999 SCT060 14/07 Q1030 RMK PP000=
SPZO Feb2013-200300Z 28004KT 240V340 9999 SCT060 13/07 Q1030 RMK PP000=
SPZO Feb2013-200400Z 28005KT 250V310 9999 BKN060 13/07 Q1030 RMK PP000=
SPZO Feb2013-200500Z 10004KT 9999 FEW043 BKN060 12/07 Q1030 RMK PP000=
SPZO Feb2013-200600Z 11006KT 9999 FEW043 BKN060 12/06 Q1029 RMK PP000=
SPZO Feb2013-200700Z 28009KT 9999 -RA FEW040 BKN060 11/07 Q1029 RMK PPTRZ=
SPZO Feb2013-200800Z 29005KT 9999 -RA FEW036 SCT046 BKN070 10/07 Q1029 RMK PP008=
SPZO Feb2013-200900Z VRB03KT 9000 -RA FEW033 SCT040 BKN070 09/07 Q1029 RMK PP016=
SPZO Feb2013-201000Z 00000KT 9000 RA SCT025 SCT040 BKN060 09/07 Q1030 RMK VIS 8000E RA PP052=
SPZO Feb2013-201100Z 32005KT 9000 RA SCT020 SCT036 OVC060 09/06 Q1031 NOSIG RMK VIS 8000E RA CLNG BLW 1200M PP038=
SPZO Feb2013-201200Z 00000KT 8000 -RA VCSH FEW015 SCT030 BKN060 09/06 Q1032 NOSIG RMK CLNG BLW 1200M VIS 5000E BR PP020=
SPZO Feb2013-201300Z 00000KT 8000 RA VCSH FEW015 SCT025 BKN060 09/06 Q1033 NOSIG RMK CLNG BLW 1200M VIS 5000E BR PP030=
SPZO Feb2013-201400Z 00000KT 8000 RA VCSH FEW020 SCT036 BKN080 10/07 Q1033 RMK CLNG BLW 1200M PP020=
SPZO Feb2013-201500Z 29004KT 9999 -RA VCSH SCT030 BKN080 10/06 Q1033 NOSIG RMK PP006=
SPZO Feb2013-201600Z VRB02KT 9999 SCT030 BKN080 14/06 Q1032 NOSIG RMK PP000=
SPZO Feb2013-201700Z VRB03KT 9999 SCT060 16/06 Q1030 NOSIG RMK PP000=
SPZO Feb2013-201800Z VRB01KT 9999 SCT046 SCT100 16/06 Q1028 NOSIG RMK PP000=
SPZO Feb2013-201900Z VRB02KT 9999 VCSH SCT036TCU SCT050 BKN100 18/06 Q1026 NOSIG RMK PP000=
SPZO Feb2013-202000Z 24009KT 210V280 9999 VCSH SCT040TCU SCT050 BKN100 16/05 Q1025 TEMPO -RA RMK CB QUAD N PP000=
SPZO Feb2013-202100Z 02010KT 9000 -RA SCT046 BKN080 13/07 Q1026 NOSIG RMK PP006=
SPZO Feb2013-202200Z 29008KT 250V340 9999 SCT050 BKN080 13/07 Q1026 RERA NOSIG RMK T MAX 18.8 PPTRZ=
SPZO Feb2013-202300Z 11009KT 9999 SCT050 OVC100 12/08 Q1027 NOSIG RMK PP000=
SPZO Feb2013-210000Z 12004KT 9999 SCT050 BKN100 11/08 Q1028 RMK PP000=
SPZO Feb2013-210100Z VRB01KT 9999 SCT050 BKN100 11/08 Q1029 RMK PP000=
SPZO Feb2013-210200Z VRB02KT 9999 SCT050 BKN100 11/08 Q1030 RMK PP000=
SPZO Feb2013-210300Z VRB02KT 9999 SCT050 BKN100 10/08 Q1030 RMK PP000=
SPZO Feb2013-210400Z VRB02KT 9999 SCT050 BKN100 10/08 Q1031 RMK PP000=
SPZO Feb2013-210500Z 00000KT 9999 SCT050 BKN100 11/08 Q1030 RMK PP000=
SPZO Feb2013-210600Z 00000KT 9999 SCT050 BKN100 11/08 Q1029 RMK PP000=
SPZO Feb2013-210700Z 00000KT 9999 -RA SCT040 BKN100 10/07 Q1029 RMK PP002=
SPZO Feb2013-210800Z 00000KT 9999 -RA SCT040 BKN100 10/07 Q1029 RMK PP002=
SPZO Feb2013-210900Z 00000KT 8000 RA FEW020 SCT036 BKN080 09/07 Q1029 RMK CLNG BLW 1200M PP002=
SPZO Feb2013-211000Z 00000KT 7000 RA FEW020 SCT030 BKN080 09/07 Q1030 RMK CLNG BLW 1200M PP032=
SPZO Feb2013-211100Z 00000KT 7000 RA FEW010 SCT030 BKN060 08/06 Q1030 NOSIG RMK CLNG BLW 1200M VIS 5000E BR PP024=
SPZO Feb2013-211200Z 00000KT 9999 FEW020 SCT036 BKN080 10/07 Q1031 RERA NOSIG RMK VIS 8000 E BR PP008=
SPZO Feb2013-211300Z 00000KT 9999 FEW020 SCT036 BKN070 12/06 Q1031 NOSIG RMK VIS 8000 E BR PP000=
SPZO Feb2013-211400Z 08003KT 360V150 9999 FEW020 SCT036 BKN070 13/06 Q1031 NOSIG RMK PP000=
SPZO Feb2013-211500Z 08007KT 010V120 9999 FEW020 SCT040 BKN080 15/06 Q1031 NOSIG RMK PP000=
SPZO Feb2013-211600Z VRB02KT 9999 FEW025 SCT040 BKN080 16/07 Q1030 NOSIG RMK PP000=
SPZO Feb2013-211700Z 14005KT 090V160 9999 VCSH FEW036TCU SCT046 BKN080 15/06 Q1030 TEMPO -RA RMK PP000=
SPZO Feb2013-211800Z 29009KT 9999 FEW040TCU SCT060 17/08 Q1028 TEMPO VCSH RMK PP000=
SPZO Feb2013-211900Z 28011KT 9999 FEW040TCU SCT060 BKN080 18/07 Q1027 NOSIG RMK PP000=
SPZO Feb2013-212000Z 03006KT 9999 VCSH FEW040TCU SCT060 BKN080 18/07 Q1026 NOSIG RMK PPTRZ=
SPZO Feb2013-212100Z 09007KT 9999 VCSH FEW040TCU SCT060 BKN080 17/08 Q1025 NOSIG RMK PP000=
SPZO Feb2013-212200Z 10006KT 9999 FEW040TCU SCT060 BKN080 16/07 Q1026 NOSIG RMK T MAX 19.2 PP000=
SPZO Feb2013-212300Z 09006KT 9999 SCT050 BKN080 15/07 Q1027 NOSIG RMK PP000=
SPZO Feb2013-220000Z 34003KT 280V040 9999 SCT043 SCT080 15/06 Q1028 RMK PP000=
SPZO Feb2013-220100Z VRB03KT 9999 SCT043 SCT080 14/07 Q1029 RMK PP000=
SPZO Feb2013-220200Z 10006KT 9999 FEW043 SCT080 12/07 Q1030 RMK PP000=
SPZO Feb2013-220300Z VRB02KT 9999 FEW043 SCT080 13/07 Q1031 RMK PP000=
SPZO Feb2013-220400Z VRB01KT 9999 FEW043 SCT080 12/07 Q1031 RMK PP000=
SPZO Feb2013-220500Z VRB01KT 9999 FEW043 SCT080 12/06 Q1030 RMK PP000=
SPZO Feb2013-220600Z 00000KT 9999 DZ FEW040 SCT043 BKN070 12/07 Q1030 RMK PPTRZ=
SPZO Feb2013-220700Z 00000KT 9999 -RA FEW036 SCT040 BKN060 11/07 Q1030 RMK PP006=
SPZO Feb2013-220800Z 00000KT 9999 -RA FEW030 SCT040 BKN060 11/07 Q1030 RMK PP004=
SPZO Feb2013-220900Z 00000KT 9999 -RA FEW025 SCT040 BKN060 10/06 Q1030 RMK PP008=
SPZO Feb2013-221000Z 26003KT 210V310 9999 -RA FEW020 SCT036 BKN060 09/06 Q1031 RMK VIS 9000E RA PP010=
SPZO Feb2013-221100Z 11007KT 9999 -RA SCT020 SCT036 OVC060 08/05 Q1032 NOSIG RMK VIS 8000E RA CLNG BLW 1200M PP014=
SPZO Feb2013-221200Z 10005KT 7000 -RA FEW010 SCT030 BKN060 07/05 Q1034 TEMPO VIS 6000E DZ RMK CLNG BLW 1200M VIS 4000E PP008=
SPZO Feb2013-221300Z 10005KT 8000 -RA FEW010 SCT020 BKN060 07/06 Q1035 NOSIG RMK CLNG BLW 1200M VIS 6000E PP006=
SPZO Feb2013-221400Z 10006KT 8000 -RA FEW010 SCT020 BKN080 08/06 Q1035 TEMPO VIS 9999 RMK CLNG BLW 1200M PP008=
SPZO Feb2013-221500Z 09006KT 9000 DZ SCT020 SCT040 BKN100 10/06 Q1035 NOSIG RMK PP002=
SPZO Feb2013-221600Z VRB01KT 9999 SCT030 BKN100 13/07 Q1034 NOSIG RMK PP000=
SPZO Feb2013-221700Z VRB03KT 9999 SCT036 BKN100 14/07 Q1033 TEMPO VCSH RMK PP000=
SPZO Feb2013-221800Z VRB01KT 9999 FEW025 SCT043 OVC070 14/07 Q1032 NOSIG RMK PP000=
SPZO Feb2013-221900Z VRB04KT 9999 SCT043 SCT080 17/08 Q1030 NOSIG RMK PP000=
SPZO Feb2013-222000Z VRB03KT 9999 SCT043 BKN080 18/07 Q1029 NOSIG RMK PP000=
SPZO Feb2013-222100Z 33009KT 280V010 9999 FEW033TCU SCT046 BKN080 18/05 Q1028 TEMPO VCSH RMK PP000=
SPZO Feb2013-222200Z 30012KT 270V330 9999 VCSH FEW030TCU SCT046 BKN080 16/06 Q1028 NOSIG RMK TMAX 18.6 PP000=
SPZO Feb2013-222300Z 01006KT 340V050 9999 FEW030TCU SCT046 BKN080 16/05 Q1028 NOSIG RMK PP000=
SPZO Feb2013-230000Z VRB01KT 9999 SCT050 BKN080 15/07 Q1030 RMK PP000=
SPZO Feb2013-230100Z VRB01KT 9999 SCT050 BKN080 14/07 Q1031 RMK -SHRA BTN 0020/0040 PPTRZ=
SPZO Feb2013-230200Z 09007KT 060V120 9999 SCT046 BKN060 12/07 Q1033 RMK PP000=
SPZO Feb2013-230300Z 11004KT 9999 SCT046 BKN060 11/08 Q1033 RMK -SHRA BTN 0210/0235 PP004=
SPZO Feb2013-230400Z 00000KT 9999 SCT046 BKN060 11/08 Q1033 RMK PP000=
SPZO Feb2013-230500Z 00000KT 9999 SCT046 BKN060 11/08 Q1033 RMK PP000=
SPZO Feb2013-230600Z 09003KT 080V140 9999 SCT046 BKN060 11/08 Q1032 RMK PP000=
SPZO Feb2013-230700Z 00000KT 9999 SCT046 BKN060 10/08 Q1032 RMK PP000=
SPZO Feb2013-230800Z 10003KT 9999 FEW020 SCT036 BKN080 09/07 Q1031 RMK VIS 8000 E BR PP000=
SPZO Feb2013-230900Z 00000KT 9999 FEW020 SCT036 BKN060 10/07 Q1031 RMK VIS 8000 E BR PP000=
SPZO Feb2013-231000Z 00000KT 9999 FEW020 SCT036 BKN050 10/07 Q1031 RMK VIS 8000 E BR PP000=
SPZO Feb2013-231100Z 00000KT 9999 FEW020 SCT036 BKN050 10/08 Q1032 NOSIG RMK VIS 8000 E BR PP000=
SPZO Feb2013-231200Z 10003KT 060V120 9999 FEW030 SCT043 BKN080 10/08 Q1033 NOSIG RMK VIS 9000E BR PP000=
SPZO Feb2013-231300Z VRB01KT 9999 FEW015 SCT043 BKN080 12/08 Q1034 NOSIG RMK PP000=
SPZO Feb2013-231400Z VRB02KT 9999 FEW015 SCT043 BKN080 15/08 Q1034 NOSIG RMK PP000=
SPZO Feb2013-231500Z VRB02KT 9999 VCSH FEW020 SCT043 BKN080 14/07 Q1033 NOSIG NOSIG RMK PP000=
SPZO Feb2013-231600Z VRB03KT 9999 VCSH FEW030 SCT043 BKN080 16/06 Q1033 NOSIG RMK PP000=
SPZO Feb2013-231700Z 10006KT 9999 VCSH FEW030TCU SCT043 BKN080 14/08 Q1032 NOSIG RMK PP000=
SPZO Feb2013-231800Z 14005KT 110V190 9999 VCSH FEW036TCU SCT046 BKN070 16/07 Q1030 NOSIG RMK VIS 8000 E -RA PP000=
SPZO Feb2013-231900Z 11016KT 9999 VCSH FEW036TCU SCT043 BKN070 17/09 Q1029 NOSIG RMK PP000=
SPZO Feb2013-232000Z 12010KT 9999 VCSH SCT036TCU BKN070 15/09 Q1028 TEMPO -RA RMK VIS 8000 E -RA PP000=
SPZO Feb2013-232100Z 29008KT 250V330 8000 -RA SCT040 BKN070 15/09 Q1028 NOSIG RMK PP022=
SPZO Feb2013-232200Z 25006KT 210V280 8000 -RA SCT040 BKN050 12/08 Q1028 NOSIG RMK T MAX 18.8 PP082=
SPZO Feb2013-232300Z 15003KT 110V190 9000 -RA SCT040 BKN060 12/08 Q1029 NOSIG RMK PP016=
SPZO Feb2013-240000Z 00000KT 9000 -RA SCT040 BKN060 12/09 Q1030 RMK PP002=
SPZO Feb2013-240100Z 00000KT 9999 SCT040 BKN060 12/09 Q1031 RMK PP000=
SPZO Feb2013-240200Z 00000KT 9999 SCT040 BKN060 11/09 Q1031 RMK PP000=
SPZO Feb2013-240300Z 00000KT 9999 SCT040 BKN060 10/08 Q1032 RMK PP000=
SPZO Feb2013-240400Z 00000KT 9999 SCT040 BKN080 10/08 Q1032 RMK PP000=
SPZO Feb2013-240500Z 00000KT 9999 SCT040 BKN080 10/08 Q1031 RMK PP000=
SPZO Feb2013-240600Z 00000KT 9999 SCT040 BKN080 09/08 Q1031 RMK PP000=
SPZO Feb2013-240700Z 00000KT 9999 -RA SCT040 BKN080 10/08 Q1030 RMK PP002=
SPZO Feb2013-240800Z 00000KT 9999 FEW030 SCT036 BKN080 10/08 Q1030 RMK PP000=
SPZO Feb2013-240900Z 00000KT 8000 FEW020 SCT036 BKN080 10/08 Q1030 RMK CLNG BLW 1200M PP000=
SPZO Feb2013-241000Z 00000KT 9000 FEW020 SCT036 BKN080 10/08 Q1030 RMK CLNG BLW 1200M PP000=
SPZO Feb2013-241100Z 00000KT 9999 FEW010 SCT040 BKN080 09/07 Q1030 NOSIG RMK VIS 8000E PP000=
SPZO Feb2013-241200Z 00000KT 9000 FEW020 SCT036 BKN060 10/08 Q1032 NOSIG RMK SCT015 QUAD W PP000=
SPZO Feb2013-241300Z VRB01KT 9999 FEW020 SCT036 BKN080 13/08 Q1032 NOSIG RMK BCBR QUAD NE PP000=
SPZO Feb2013-241400Z VRB02KT 9999 VCSH FEW033TCU SCT040 BKN080 13/09 Q1032 TEMPO-RA RMK VIS 8000 E -RA PP000=
SPZO Feb2013-241500Z 09004KT 040V160 9999 VCSH FEW033TCU SCT040 BKN080 15/09 Q1032 NOSIG RMK PP000=
SPZO Feb2013-241600Z 10007KT 060V150 9999 SCT043 BKN070 17/10 Q1031 NOSIG RMK -RA QUAD N PP000=
SPZO Feb2013-241700Z 27006KT 210V330 9999 SCT043 BKN080 17/09 Q1030 NOSIG RMK PP000=
SPZO Feb2013-241800Z VRB05KT 9999 SCT046 BKN080 19/10 Q1029 NOSIG RMK PP000=
SPZO Feb2013-241900Z 06008KT 020V100 9999 SCT050 BKN100 19/09 Q1027 NOSIG RMK PP000=
SPZO Feb2013-242000Z 35007KT 290V060 9999 SCT050 BKN100 20/06 Q1026 NOSIG RMK PP000=
SPZO Feb2013-242100Z 36007KT 330V040 9999 SCT060 BKN100 20/07 Q1025 NOSIG RMK PP000=
SPZO Feb2013-242200Z 30010KT 260V330 9999 SCT050 BKN100 20/07 Q1024 NOSIG RMK T MAX 20.8 PP000=
SPZO Feb2013-242300Z 36007KT 290V030 9999 FEW040TCU SCT046 BKN080 19/07 Q1025 NOSIG RMK PP000=
SPZO Feb2013-250000Z 31007KT 280V360 9999 SCT060 SCT100 16/07 Q1026 RMK PP000=
SPZO Feb2013-250100Z 10007KT 9999 FEW060 SCT100 14/08 Q1027 RMK PP000=
SPZO Feb2013-250200Z 28005KT 9999 SCT050 14/07 Q1029 RMK PP000=
SPZO Feb2013-250300Z 07003KT 9999 SCT050 12/08 Q1029 RMK PP000=
SPZO Feb2013-250400Z 00000KT 9999 SCT046 SCT080 12/08 Q1029 RMK PP000=
SPZO Feb2013-250500Z 00000KT 9999 SCT046 SCT080 12/08 Q1029 RMK PP000=
SPZO Feb2013-250600Z VRB01KT 9999 SCT046 SCT080 12/09 Q1029 RMK PP000=
SPZO Feb2013-250700Z VRB02KT 9999 SCT043 BKN080 12/09 Q1028 RMK PP000=
SPZO Feb2013-250800Z 12003KT 9999 SCT043 BKN080 12/09 Q1028 RMK PP000=
SPZO Feb2013-250900Z VRB03KT 9999 SCT043 BKN060 11/08 Q1028 RMK PP000=
SPZO Feb2013-251000Z 00000KT 9999 FEW025 SCT043 BKN070 11/08 Q1028 RMK PP000=
SPZO Feb2013-251100Z VRB01KT 9999 FEW015 SCT040 BKN070 11/08 Q1029 NOSIG RMK VIS 9000 QUAD W PP000=
SPZO Feb2013-251200Z VRB05KT 9999 VCSH FEW020 SCT060 BKN080 11/09 Q1030 NOSIG RMK PP000=
SPZO Feb2013-251300Z 10007KT 9999 SCT025 BKN080 12/09 Q1031 NOSIG RMK PPTRZ=
SPZO Feb2013-251400Z 02009KT 9999 SCT040 BKN100 16/06 Q1031 NOSIG RMK PP000=
SPZO Feb2013-251500Z 31004KT 9999 SCT040 BKN100 17/08 Q1031 NOSIG RMK PP000=
SPZO Feb2013-251600Z 28011KT 9999 SCT040 BKN100 17/06 Q1031 NOSIG RMK PP000=
SPZO Feb2013-251700Z 02009KT 9999 SCT040 BKN100 17/04 Q1030 NOSIG RMK PP000=
SPZO Feb2013-251800Z 07007KT 350V120 9999 SCT046 OVC100 17/07 Q1030 NOSIG RMK PP000=
SPZO Feb2013-251900Z 12017KT 9999 SCT050 OVC100 15/05 Q1030 NOSIG RMK -RA QUAD NE PP000=
SPZO Feb2013-252000Z VRB03KT 9999 SCT050 BKN100 14/04 Q1028 NOSIG RMK PP000=
SPZO Feb2013-252100Z 13008KT 090V160 9999 SCT050 BKN100 13/05 Q1027 NOSIG RMK PP000=
SPZO Feb2013-252200Z VRB01KT 9999 SCT050 BKN100 14/05 Q1027 NOSIG RMK T MAX 17.4 PP000=
SPZO Feb2013-252300Z 00000KT 9999 SCT050 14/05 Q1026 NOSIG RMK PP000=
SPZO Feb2013-260000Z 33004KT 9999 SKC 12/06 Q1027 RMK PP000=
SPZO Feb2013-260100Z VRB02KT 9999 SKC 10/07 Q1029 RMK PP000=
SPZO Feb2013-260200Z 09004KT 9999 SKC 10/06 Q1030 RMK PP000=
SPZO Feb2013-260300Z 00000KT 9999 SKC 09/05 Q1031 RMK PP000=
SPZO Feb2013-260400Z 00000KT 9999 SKC 09/06 Q1031 RMK PP000=
SPZO Feb2013-260500Z 00000KT 9999 SKC 09/06 Q1031 RMK PP000=
SPZO Feb2013-260600Z 00000KT 9999 SKC 08/06 Q1030 RMK PP000=
SPZO Feb2013-260700Z 00000KT 9999 SCT040 07/06 Q1030 RMK PP000=
SPZO Feb2013-260800Z 00000KT 9999 SCT230 08/05 Q1029 RMK PP000=
SPZO Feb2013-260900Z 00000KT 9999 SCT060 SCT100 07/05 Q1030 RMK PP000=
SPZO Feb2013-261000Z 00000KT 9999 SCT060 SCT100 08/05 Q1030 RMK PP000=
SPZO Feb2013-261100Z 00000KT 9000 SCT050 BKN100 07/05 Q1030 NOSIG RMK VIS 7000E BR PP000=
SPZO Feb2013-261200Z VRB01KT 9000 SCT040 BKN080 08/06 Q1031 NOSIG RMK BR QUAD NE PP000=
SPZO Feb2013-261300Z 11005KT 9999 SCT040 OVC100 10/07 Q1032 NOSIG RMK BR QUAD NE PP000=
SPZO Feb2013-261400Z VRB02KT 9000 SCT040 BKN100 13/07 Q1032 NOSIG RMK HZ QUAD NE PP000=
SPZO Feb2013-261500Z VRB02KT 9999 SCT040 BKN080 16/08 Q1032 NOSIG RMK HZ QUAD NE PP000=
SPZO Feb2013-261600Z VRB04KT 9999 SCT046 BKN080 17/07 Q1031 NOSIG RMK PP000=
SPZO Feb2013-261700Z VRB06KT 9999 SCT050 BKN080 18/06 Q1030 TEMPO FEW040TCU RMK PP000=
SPZO Feb2013-261800Z 02012KT 9999 SCT060 BKN100 19/04 Q1029 NOSIG RMK PP000=
SPZO Feb2013-261900Z 02013KT 9999 SCT040 BKN100 18/05 Q1028 NOSIG RMK PP000=
SPZO Feb2013-262000Z 02012KT 9999 SCT050 BKN100 20/04 Q1027 NOSIG RMK PP000=
SPZO Feb2013-262100Z 03010KT 9999 FEW040TCU SCT060 BKN100 17/04 Q1026 NOSIG RMK PP000=
SPZO Feb2013-262200Z VRB06KT 9999 FEW040TCU SCT060 BKN100 17/03 Q1027 NOSIG RMK TMAX 19.8 PP000=
SPZO Feb2013-262300Z 06004KT 9999 SCT060 BKN100 16/04 Q1028 NOSIG RMK PP000=
SPZO Feb2013-270000Z 12014KT 9999 SCT050 BKN080 14/05 Q1030 RMK PP000=
SPZO Feb2013-270100Z 11009KT 9999 SCT050 BKN080 12/05 Q1031 RMK PP000=
SPZO Feb2013-270200Z 14003KT 100V180 9999 SCT050 BKN080 12/05 Q1032 RMK PP000=
SPZO Feb2013-270300Z 11003KT 9999 SCT046 BKN070 12/05 Q1033 RMK PP000=
SPZO Feb2013-270400Z 08003KT 060V120 9999 SCT046 BKN070 12/06 Q1033 RMK PP000=
SPZO Feb2013-270500Z VRB01KT 9999 SCT046 BKN070 12/06 Q1033 RMK PP000=
SPZO Feb2013-270600Z 12005KT 9999 SCT043 BKN060 11/07 Q1032 RMK PP000=
SPZO Feb2013-270700Z 11003KT 9999 SCT043 BKN060 10/07 Q1032 RMK PP000=
SPZO Feb2013-270800Z 13003KT 100V160 9999 FEW030 SCT043 BKN060 10/07 Q1031 RMK PP000=
SPZO Feb2013-270900Z VRB02KT 9999 FEW030 SCT043 BKN060 10/07 Q1031 RMK PP000=
SPZO Feb2013-271000Z 00000KT 9999 FEW030 SCT043 BKN070 10/07 Q1031 RMK PP000=
SPZO Feb2013-271100Z 00000KT 9999 FEW025 SCT043 BKN070 10/07 Q1032 NOSIG RMK VIS 9000 QUAD E BR PP000=
SPZO Feb2013-271200Z 00000KT 9999 SCT030 BKN100 11/07 Q1032 NOSIG RMK PP000=
SPZO Feb2013-271300Z 00000KT 9999 SCT036 BKN100 13/07 Q1033 NOSIG RMK PP000=
SPZO Feb2013-271400Z 00000KT 9999 FEW036 BKN100 14/05 Q1033 NOSIG RMK PP000=
SPZO Feb2013-271500Z VRB02KT 9999 FEW040 BKN100 15/05 Q1033 MOSIG RMK PP000=
SPZO Feb2013-271600Z VRB01KT 9999 SCT050 BKN100 16/05 Q1032 NOSIG RMK PP000=
SPZO Feb2013-271700Z VRB01KT 9999 FEW040TCU SCT060 BKN100 18/05 Q1032 TEMPO VCSH RMK PP000=
SPZO Feb2013-271800Z VRB02KT 9999 FEW036 SCT046 BKN080 19/04 Q1030 NOSIG RMK PP000=
SPZO Feb2013-271900Z VRB07KT 9999 FEW036 SCT046 BKN080 18/05 Q1029 NOSIG RMK PP000=
SPZO Feb2013-272000Z 01008KT 340V050 9999 SCT050 SCT150 18/04 Q1027 NOSIG RMK PP000=
SPZO Feb2013-272100Z VRB03KT 9999 FEW043TCU SCT050 BKN100 18/03 Q1027 TEMPO VCSH RMK PP000=
SPZO Feb2013-272200Z 36006KT 310V080 9999 SCT043 BKN080 19/06 Q1027 NOSIG RMK TMAX 20.1 PP000=
SPZO Feb2013-272300Z 02010KT 9999 SCT043 BKN080 17/06 Q1027 NOSIG RMK PP000=
SPZO Feb2013-280000Z VRB05KT 9999 SCT050 BKN080 16/06 Q1029 RMK PP000=
SPZO Feb2013-280100Z VRB04KT 9999 SCT050 BKN080 14/06 Q1030 RMK PP000=
SPZO Feb2013-280200Z VRB01KT 9999 SCT050 BKN080 13/06 Q1031 RMK PP000=
SPZO Feb2013-280300Z 00000KT 9999 SCT050 BKN100 12/07 Q1032 RMK PP000=
SPZO Feb2013-280400Z 00000KT 9999 SCT050 BKN100 11/07 Q1032 RMK PP000=
SPZO Feb2013-280500Z 00000KT 9999 SCT050 BKN100 11/06 Q1032 RMK PP000=
SPZO Feb2013-280600Z 00000KT 9999 SCT050 BKN100 10/07 Q1031 RMK PP000=
SPZO Feb2013-280700Z 00000KT 9999 SCT050 BKN080 10/07 Q1031 RMK PP000=
SPZO Feb2013-280800Z 10004KT 9999 SCT050 BKN070 09/06 Q1030 RMK SCT040 QUAD NE PP000=
SPZO Feb2013-280900Z 00000KT 9999 SCT046 BKN070 10/07 Q1030 RMK PP000=
SPZO Feb2013-281000Z 00000KT 9999 SCT046 BKN070 10/07 Q1030 RMK VIS 8000 E BR PP000=
SPZO Feb2013-281100Z 10003KT 9999 FEW025 SCT040 BKN060 09/07 Q1031 NOSIG RMK VIS 8000 E BR PP000=
SPZO Feb2013-281200Z 00000KT 9999 FEW020 SCT040 BKN070 10/07 Q1031 NOSIG RMK VIS 8000 QUAD NE BR PP000=
SPZO Feb2013-281300Z 13004KT 9000 FEW020 SCT040 BKN070 12/07 Q1032 NOSIG RMK PP000=
SPZO Feb2013-281400Z VRB02KT 9999 FEW020TCU SCT040 BKN070 13/07 Q1032 NOSIG RMK VIS 9000 QUAD NW PP000=
SPZO Feb2013-281500Z VRB01KT 9999 VCSH FEW020 SCT040 OVC070 14/06 Q1032 NOSIG RMK PP000=
SPZO Feb2013-281600Z VRB01KT 9999 VCSH FEW020 SCT040 OVC070 15/07 Q1032 NOSIG RMK PP000=
SPZO Feb2013-281700Z 26004KT 230V330 9999 VCSH FEW025 SCT040 OVC070 15/07 Q1031 NOSIG RMK PP000=
SPZO Feb2013-281800Z VRB03KT 9999 FEW025 SCT040 OVC080 16/07 Q1030 TEMPO VIS 8000 E -RA RMK PP000=
SPZO Feb2013-281900Z 15003KT 090V270 9999 FEW030 SCT046 BKN080 17/07 Q1028 NOSIG RMK PP000=
SPZO Feb2013-282000Z VRB07KT 9999 SCT046 BKN080 18/07 Q1027 TEMPO -RA RMK PP000=
SPZO Feb2013-282100Z 12007KT 090V180 9999 FEW033TCU SCT050 BKN100 18/06 Q1026 NOSIG RMK TCU NW PP000=
SPZO Feb2013-282200Z 12011KT 9999 FEW036TCU SCT050 BKN100 17/05 Q1026 NOSIG RMK TCU QUAD S T MAX 18.4 PP000=
SPZO Feb2013-282300Z 11008KT 9999 FEW036TCU SCT050 BKN100 15/06 Q1027 NOSIG RMK PP000=
SPZO Mar2013-010000Z 10005KT 9999 FEW040TCU SCT060 BKN100 14/06 Q1028 RMK PP000=
SPZO Mar2013-010100Z /////KT 9999 SCT060 BKN100 13/06 Q1028 RMK PP000=
SPZO Mar2013-010200Z /////KT 9999 SCT060 BKN100 13/04 Q1028 RMK PP000=
SPZO Mar2013-010300Z 00000KT 9999 SCT060 BKN100 13/08 Q1031 RMK PP000=
SPZO Mar2013-010400Z 00000KT 9999 SCT060 BKN100 13/07 Q1031 RMK PP000=
SPZO Mar2013-010500Z 00000KT 9999 SCT060 BKN100 13/07 Q1031 RMK PP000=
SPZO Mar2013-010600Z 00000KT 9999 SCT060 BKN100 12/07 Q1031 RMK PP000=
SPZO Mar2013-010700Z 00000KT 9999 -RA FEW030TCU SCT060 BKN100 11/07 Q1030 RMK PPTRZ=
SPZO Mar2013-010800Z 00000KT 8000 RA FEW030 SCT060 BKN100 11/08 Q1030 RMK VIS 6000E PP004=
SPZO Mar2013-010900Z 00000KT 9999 FEW030 SCT050 BKN100 10/08 Q1030 RMK PP052=
SPZO Mar2013-011000Z 00000KT 9999 -RA FEW030 SCT050 BKN100 10/07 Q1030 RMK PP016=
SPZO Mar2013-011100Z 00000KT 9999 SCT015 SCT040 BKN080 09/07 Q1030 NOSIG RMK PP002=
SPZO Mar2013-011200Z 00000KT 9999 FEW020 SCT040 BKN060 11/08 Q1031 NOSIG RMK BCBR QUAD N PP000=
SPZO Mar2013-011300Z 00000KT 9999 FEW020 SCT040 BKN070 13/08 Q1032 NOSIG RMK BCBR QUAD NE PP000=
SPZO Mar2013-011400Z 08003KT 360V150 9999 FEW025 SCT043 SCT080 15/06 Q1032 NOSIG RMK PP000=
SPZO Mar2013-011500Z VRB03KT 9999 SCT040 BKN080 15/08 Q1031 NOSIG RMK -RA QUAD N PP000=
SPZO Mar2013-011600Z VRB03KT 9999 SCT040 BKN080 18/07 Q1030 NOSIG RMK -RA QUAD N PP000=
SPZO Mar2013-011700Z 09009KT 040V120 9999 SCT046 BKN080 17/07 Q1029 TEMPO -RA RMK -RA QUAD NE PP000=
SPZO Mar2013-011800Z VRB01KT 9999 SCT046 BKN080 20/08 Q1028 NOSIG RMK -RA QUAD NE PP000=
SPZO Mar2013-011900Z 16004KT 100V220 9999 SCT050 SCT080 19/07 Q1026 NOSIG RMK -RA QUAD NE PP000=
SPZO Mar2013-012000Z 11006KT 090V160 9999 VCSH FEW036TCU SCT050 BKN080 18/08 Q1025 NOSIG RMK TCU QUAD S PP000=
SPZO Mar2013-012100Z 16010KT 100V190 9999 VCSH FEW036TCU SCT043 BKN070 15/07 Q1025 TEMPO -RA RMK PP000=
SPZO Mar2013-012200Z VRB01KT 9999 SCT043 BKN070 15/09 Q1025 NOSIG RMK -SHRA BTN 2115/2125 T MAX 20.0 PP002=
SPZO Mar2013-012300Z 12005KT 090V150 9999 SCT043 BKN070 15/09 Q1026 NOSIG RMK PP000=
SPZO Mar2013-020000Z 09004KT 9999 SCT050 BKN100 14/08 Q1027 RMK PP000=
SPZO Mar2013-020100Z VRB01KT 9999 FEW050 SCT100 14/09 Q1027 RMK PP000=
SPZO Mar2013-020200Z 12003KT 080V160 9999 FEW050 SCT100 12/08 Q1029 RMK PP000=
SPZO Mar2013-020300Z VRB01KT 9999 FEW050 SCT100 12/08 Q1029 RMK PP000=
SPZO Mar2013-020400Z 00000KT 9999 SCT046 SCT080 12/08 Q1030 RMK PP000=
SPZO Mar2013-020500Z 23003KT 180V270 9999 SCT046 SCT080 12/08 Q1029 RMK PP000=
SPZO Mar2013-020600Z VRB02KT 9999 SCT046 BKN080 11/08 Q1029 RMK PP000=
SPZO Mar2013-020700Z VRB01KT 9999 SCT046 BKN080 11/08 Q1029 RMK PP000=
SPZO Mar2013-020800Z 34006KT 300V030 9999 SCT046 BKN080 12/07 Q1029 RMK PP000=
SPZO Mar2013-020900Z 09005KT 050V120 9999 SCT046 BKN080 10/07 Q1029 RMK PP000=
SPZO Mar2013-021000Z 11004KT 9999 FEW033 SCT046 BKN080 10/07 Q1030 RMK PP000=
SPZO Mar2013-021100Z 11003KT 9999 FEW030 SCT043 BKN080 10/07 Q1030 NOSIG RMK PP000=
SPZO Mar2013-021200Z VRB01KT 9999 FEW020 SCT040 BKN070 10/07 Q1031 NOSIG RMK PP000=
SPZO Mar2013-021300Z VRB02KT 9999 FEW025 SCT040 BKN080 12/07 Q1032 NOSIG RMK PP000=
SPZO Mar2013-021400Z VRB04KT 9999 FEW025 SCT043 BKN080 15/07 Q1032 NOSIG RMK PP000=
SPZO Mar2013-021500Z VRB02KT 9999 FEW025 SCT040 BKN100 16/07 Q1032 NOSIG RMK PP000=
SPZO Mar2013-021600Z VRB03KT 9999 SCT043 BKN100 18/06 Q1031 NOSIG RMK PP000=
SPZO Mar2013-021700Z VRB03KT 9999 VCSH FEW040TCU SCT046 BKN100 18/05 Q1030 NOSIG RMK PP000=
SPZO Mar2013-021800Z 01005KT 300V060 9999 SCT050 BKN100 20/07 Q1029 NOSIG RMK PP000=
SPZO Mar2013-021900Z 01008KT 300V060 9999 SCT050 BKN100 21/05 Q1027 NOSIG RMK PP000=
SPZO Mar2013-022000Z 02012G22KT 300V060 9999 SCT050 BKN100 21/05 Q1027 NOSIG RMK PP000=
SPZO Mar2013-022100Z 01010KT 330V060 9999 FEW040TCU SCT050 BKN080 20/06 Q1026 NOSIG RMK TCU QUAD NW PP000=
SPZO Mar2013-022200Z 01013G23KT 330V040 9999 SCT050 BKN100 18/05 Q1026 NOSIG RMK T MAX 21.5 PP000=
SPZO Mar2013-022300Z 03009KT 330V060 9999 SCT050 BKN100 17/03 Q1027 NOSIG RMK PP000=
SPZO Mar2013-030000Z VRB03KT 9999 SCT050 BKN100 16/05 Q1029 RMK PP000=
SPZO Mar2013-030100Z 20005KT 9999 SCT050 BKN100 15/06 Q1030 RMK PP000=
SPZO Mar2013-030200Z VRB03KT 9999 SCT050 BKN100 13/06 Q1031 RMK PP000=
SPZO Mar2013-030300Z 27007KT 9999 SCT050 BKN100 12/06 Q1032 RMK PP000=
SPZO Mar2013-030400Z 29005KT 9999 SCT050 BKN100 11/07 Q1032 RMK PP000=
SPZO Mar2013-030500Z 00000KT 9999 SCT050 BKN100 10/07 Q1032 RMK PP000=
SPZO Mar2013-030600Z 00000KT 9999 SCT050 BKN100 10/07 Q1032 RMK PP000=
SPZO Mar2013-030700Z 00000KT 9999 SCT050 BKN100 08/07 Q1032 RMK PP000=
SPZO Mar2013-030800Z 00000KT 9999 SCT050 BKN100 10/07 Q1031 RMK PP000=
SPZO Mar2013-030900Z 00000KT 9999 SCT050 BKN100 10/07 Q1031 RMK PP000=
SPZO Mar2013-031000Z 00000KT 9999 SCT050 BKN100 10/07 Q1032 RMK PP000=
SPZO Mar2013-031100Z VRB03KT 9999 SCT050 BKN100 10/05 Q1032 TEMPO VIS 9000E RMK PP000=
SPZO Mar2013-031200Z 15003KT 120V190 9000 FEW020 SCT036 BKN070 11/08 Q1033 TEMPO VIS 9000 E RMK VIS 8000 E -RA PP000=
SPZO Mar2013-031300Z 12006KT 9000 -RA FEW020 SCT036 BKN050 10/08 Q1035 NOSIG RMK CLNG BLW 1200M SCT010 QUAD W PP002=
SPZO Mar2013-031400Z 09005KT 9000 -RA FEW020 SCT036 BKN050 10/08 Q1035 NOSIG RMK CLNG BLW 1200M PP006=
SPZO Mar2013-031500Z 13003KT 9000 -DZ FEW020 SCT036 BKN060 11/07 Q1035 NOSIG RMK PP008=
SPZO Mar2013-031600Z 07004KT 330V120 9999 FEW020 SCT040 BKN070 13/07 Q1035 REDZ NOSIG RMK BCBR QUAD NE PPTRZ=
SPZO Mar2013-031700Z 12005KT 9999 FEW020 SCT040 BKN080 15/07 Q1034 NOSIG RMK BCBR QUAD NE PP000=
SPZO Mar2013-031800Z 10008KT 9999 SCT030 BKN100 16/06 Q1033 NOSIG RMK PP000=
SPZO Mar2013-031900Z VRB03KT 9999 FEW040TCU SCT050 BKN080 16/07 Q1032 NOSIG RMK PP008=
SPZO Mar2013-032000Z 09007KT 9999 FEW040TCU SCT050 BKN100 15/08 Q1031 NOSIG RMK PP000=
SPZO Mar2013-032100Z 09004KT 9999 SCT050 BKN100 17/07 Q1031 NOSIG RMK PP000=
SPZO Mar2013-032200Z 22004KT 9999 SCT050 BKN100 18/06 Q1030 NOSIG RMK PP000=
SPZO Mar2013-032300Z 00000KT 9999 FEW040TCU SCT100 16/07 Q1030 NOSIG RMK PP000=
SPZO Mar2013-040000Z VRB03KT 9999 FEW050 13/08 Q1031 RMK PP000=
SPZO Mar2013-040100Z 00000KT 9999 FEW050 12/07 Q1032 RMK PP000=
SPZO Mar2013-040200Z 25003KT 9999 FEW050 11/07 Q1032 RMK PP000=
SPZO Mar2013-040300Z 00000KT 9999 FEW050 SCT070 10/07 Q1033 RMK PP000=
SPZO Mar2013-040400Z 00000KT 9999 FEW050 SCT070 11/08 Q1034 RMK PP000=
SPZO Mar2013-040500Z 00000KT 9999 FEW050 SCT080 12/08 Q1034 RMK PP000=
SPZO Mar2013-040600Z VRB02KT 9999 FEW046 SCT080 11/08 Q1033 RMK PP000=
SPZO Mar2013-040700Z 11003KT 9999 FEW046 SCT080 11/08 Q1032 RMK PP000=
SPZO Mar2013-040800Z VRB01KT 9999 FEW046 SCT080 11/08 Q1032 RMK VIS 9000 QUAD E BR PP000=
SPZO Mar2013-040900Z 00000KT 9999 FEW030 SCT046 BKN080 11/08 Q1032 RERA RMK VIS 9000 QUAD E BR PP004=
SPZO Mar2013-041000Z 10003KT 060V140 9999 FEW030 SCT046 BKN080 10/08 Q1033 RMK VIS 9000 QUAD E BR PP000=
SPZO Mar2013-041100Z VRB01KT 9999 FEW025 SCT043 BKN100 10/08 Q1033 NOSIG RMK PP000=
SPZO Mar2013-041200Z 00000KT 9999 FEW015 SCT040 BKN100 10/08 Q1034 NOSIG RMK PP002=
SPZO Mar2013-041300Z VRB01KT 9999 FEW020 SCT050 BKN100 12/08 Q1035 NOSIG RMK PP000=
SPZO Mar2013-041400Z VRB03KT 9999 SCT040 BKN100 13/08 Q1035 NOSIG RMK PP000=
SPZO Mar2013-041500Z 09006KT 9999 VCSH SCT040 BKN100 14/08 Q1035 NOSIG RMK PP000=
SPZO Mar2013-041600Z VRB02KT 9999 SCT040 BKN100 17/07 Q1034 NOSIG RMK PP000=
SPZO Mar2013-041700Z 08005KT 9999 SCT050 BKN100 19/08 Q1033 NOSIG RMK PP000=
SPZO Mar2013-041800Z 36009KT 330V040 9999 SCT046 BKN080 19/06 Q1031 NOSIG RMK PP000=
SPZO Mar2013-041900Z 02011KT 9999 FEW040TCU SCT046 BKN080 19/05 Q1030 NOSIG RMK PP000=
SPZO Mar2013-042000Z 02010KT 350V050 9999 SCT046 BKN080 20/06 Q1029 NOSIG RMK PP000=
SPZO Mar2013-042100Z 01012KT 340V150 9999 FEW040TCU SCT046 BKN080 19/05 Q1028 NOSIG RMK PP000=
SPZO Mar2013-042200Z 02013KT 350V050 9999 SCT046 BKN100 18/04 Q1028 NOSIG RMK TMAX 20.6 PP000=
SPZO Mar2013-042300Z 03008KT 360V080 9999 SCT046 BKN100 16/06 Q1029 NOSIG RMK PP000=
SPZO Mar2013-050000Z VRB03KT 9999 SCT050 BKN100 15/05 Q1030 RMK PP000=
SPZO Mar2013-050100Z VRB03KT 9999 SCT050 BKN100 14/06 Q1032 RMK PP000=
SPZO Mar2013-050200Z 00000KT 9999 SCT050 BKN080 13/07 Q1033 RMK PP000=
SPZO Mar2013-050300Z 12003KT 9999 SCT050 BKN080 13/08 Q1034 RMK PP000=
SPZO Mar2013-050400Z VRB01KT 9999 SCT050 BKN080 13/07 Q1034 RMK PP000=
SPZO Mar2013-050500Z 12004KT 9999 SCT050 BKN080 12/07 Q1033 RMK PP000=
SPZO Mar2013-050600Z VRB01KT 9999 -RA SCT043 BKN060 12/08 Q1033 RMK PPTRZ=
SPZO Mar2013-050700Z 00000KT 9999 SCT043 BKN060 12/08 Q1032 RERA RMK PPTRZ=
SPZO Mar2013-050800Z 00000KT 9999 SCT043 BKN060 11/08 Q1032 RMK -RA QUAD NE PP000=
SPZO Mar2013-050900Z 11003KT 9999 SCT040 BKN060 11/08 Q1032 RMK -SHRA BTN 0810/0830 PP002=
SPZO Mar2013-051000Z 09004KT 9999 FEW020 SCT036 BKN060 11/08 Q1032 RMK BCBR QUAD NE PP000=
SPZO Mar2013-051100Z 00000KT 9999 FEW020 SCT036 BKN060 11/08 Q1031 NOSIG RMK PP000=
SPZO Mar2013-051200Z 09004KT 9999 FEW030 SCT043 BKN070 12/08 Q1033 NOSIG RMK VIS 9000 QUAD NE BR PP000=
SPZO Mar2013-051300Z VRB03KT 9999 FEW030 SCT043 BKN080 14/08 Q1034 NOSIG RMK PP000=
SPZO Mar2013-051400Z VRB03KT 9999 FEW030 SCT043 BKN080 15/06 Q1035 NOSIG RMK PP000=
SPZO Mar2013-051500Z VRB04KT 9999 SCT043 BKN080 16/07 Q1034 NOSIG RMK PP000=
SPZO Mar2013-051600Z VRB04KT 9999 SCT043 SCT080 18/06 Q1033 NOSIG RMK PP000=
SPZO Mar2013-051700Z 03004KT 350V090 9999 VCSH FEW040TCU SCT046 BKN080 18/05 Q1032 NOSIG RMK PP000=
SPZO Mar2013-051800Z 11013KT 9999 VCSH FEW040TCU SCT046 BKN080 16/06 Q1026 RERA NOSIG RMK PP002=
SPZO Mar2013-051900Z 31009KT 9999 VCSH FEW043TCU SCT050 BKN100 18/06 Q1030 RERA NOSIG RMK PP002=
SPZO Mar2013-052000Z 18005KT 9999 FEW043TCU SCT050 16/06 Q1029 NOSIG RMK PP000=
SPZO Mar2013-052100Z VRB04KT 9999 SCT050 SCT100 19/06 Q1028 NOSIG RMK PP000=
SPZO Mar2013-052200Z VRB02KT 9999 SCT050 SCT230 18/05 Q1028 NOSIG RMK T.MAX 19.4 PP000=
SPZO Mar2013-052300Z VRB02KT 9999 FEW050 SCT230 16/05 Q1029 NOSIG RMK PP000=
SPZO Mar2013-060000Z VRB01KT 9999 SCT060 14/05 Q1030 RMK PP000=
SPZO Mar2013-060100Z VRB01KT 9999 SCT060 13/05 Q1031 RMK PP000=
SPZO Mar2013-060200Z 11004KT 9999 SCT060 11/06 Q1032 RMK PP000=
SPZO Mar2013-060300Z 00000KT 9999 SKC 11/07 Q1033 RMK PP000=
SPZO Mar2013-060400Z 00000KT 9999 SKC 11/07 Q1033 RMK PP000=
SPZO Mar2013-060500Z 00000KT 9999 SKC 11/07 Q1033 RMK PP000=
SPZO Mar2013-060600Z 00000KT 9999 SKC 10/07 Q1032 RMK PP000=
SPZO Mar2013-060700Z 00000KT 9999 SCT060 09/06 Q1032 RMK PP000=
SPZO Mar2013-060800Z 00000KT 9999 SCT060 08/06 Q1032 RMK PP000=
SPZO Mar2013-060900Z 00000KT 9999 SCT050 BKN100 09/06 Q1032 RMK PP000=
SPZO Mar2013-061000Z 00000KT 9999 SCT050 BKN100 08/06 Q1032 RMK PP000=
SPZO Mar2013-061100Z 00000KT 9999 FEW030 SCT060 BKN100 08/06 Q1033 NOSIG RMK PP000=
SPZO Mar2013-061200Z VRB02KT 9999 FEW036 SCT060 BKN100 08/06 Q1033 NOSIG RMK PP000=
SPZO Mar2013-061300Z 13003KT 9999 FEW036 SCT050 BKN100 10/06 Q1034 NOSIG RMK PP000=
SPZO Mar2013-061400Z VRB02KT 9999 FEW036 SCT050 BKN100 14/07 Q1034 NOSIG RMK PP000=
SPZO Mar2013-061500Z VRB03KT 9999 SCT050 BKN230 16/06 Q1034 NOSIG RMK PP000=
SPZO Mar2013-061600Z VRB03KT 9999 SCT050 SCT230 18/04 Q1033 NOSIG RMK PP000=
SPZO Mar2013-061700Z VRB03KT 9999 FEW040 SCT050 19/04 Q1031 NOSIG RMK PP000=
SPZO Mar2013-061800Z VRB03KT 9999 SCT050 20/02 Q1030 NOSIG RMK PP000=
SPZO Mar2013-061900Z 11007KT 050V150 9999 VCSH FEW036TCU SCT050 21/05 Q1028 TEMPO -RA RMK PP000=
SPZO Mar2013-062000Z 35009KT 320V020 9999 VCSH FEW036TCU SCT050 BKN080 20/06 Q1027 TEMPO -RA RMK PP000=
SPZO Mar2013-062100Z 11006KT 070V160 9999 SCT050 BKN080 18/07 Q1026 NOSIG RMK PP000=
SPZO Mar2013-062200Z VRB02KT 9999 VCSH SCT050TCU BKN080 18/05 Q1027 TEMPO -RA RMK T MAX 22.4 PP000=
SPZO Mar2013-062300Z 36005KT 300V060 9999 FEW036TCU SCT050 BKN080 18/06 Q1027 NOSIG RMK PP000=
SPZO Mar2013-070000Z 10007KT 9999 SCT046 SCT070 15/07 Q1029 RMK PP000=
SPZO Mar2013-070100Z VRB02KT 9999 SCT050 15/07 Q1030 RMK PP000=
SPZO Mar2013-070200Z VRB01KT 9999 SCT050 14/08 Q1031 RMK PP000=
SPZO Mar2013-070300Z 08003KT 9999 SCT050 12/08 Q1032 RMK PP000=
SPZO Mar2013-070400Z 29003KT 9999 FEW050 SCT080 12/08 Q1032 RMK PP000=
SPZO Mar2013-070500Z VRB02KT 9999 FEW050 SCT080 12/08 Q1032 RMK PP000=
SPZO Mar2013-070600Z 00000KT 9999 FEW043 BKN060 12/08 Q1031 RMK PP000=
SPZO Mar2013-070700Z 07003KT 9999 -RA FEW043 BKN060 12/09 Q1030 RMK PP002=
SPZO Mar2013-070800Z 12007KT 9999 -RA FEW030 SCT043 BKN060 11/09 Q1030 RMK PP008=
SPZO Mar2013-070900Z VRB04KT 9999 -RA FEW030 SCT040 BKN060 10/06 Q1031 RMK PP030=
SPZO Mar2013-071000Z 30006KT 260V320 9999 -RA FEW030 SCT040 BKN060 09/07 Q1031 RMK PP008=
SPZO Mar2013-071100Z 34005KT 310V010 9999 VCSH FEW025 SCT040 OVC060 09/06 Q1032 NOSIG RMK PP004=
SPZO Mar2013-071200Z VRB02KT 9999 FEW030 SCT050 BKN080 10/06 Q1033 NOSIG RMK PP000=
SPZO Mar2013-071300Z 00000KT 9999 FEW030 SCT050 BKN080 11/06 Q1034 NOSIG RMK PP000=
SPZO Mar2013-071400Z VRB01KT 9999 FEW020 SCT040 BKN080 11/06 Q1034 NOSIG RMK PP000=
SPZO Mar2013-071500Z VRB03KT 9999 FEW020 SCT040 BKN100 13/06 Q1033 NOSIG RMK PP000=
SPZO Mar2013-071600Z 10004KT 9999 FEW020 SCT040 BKN100 13/07 Q1034 NOSIG RMK PP000=
SPZO Mar2013-071700Z 09004KT 8000 -RA VCSH FEW020 SCT036TCU BKN100 11/07 Q1034 NOSIG RMK CLNG BLW 1200M VIS 5000E PP010=
SPZO Mar2013-071800Z 08002KT 030V130 8000 -RA FEW020 SCT036 OVC050 12/07 Q1033 NOSIG RMK PP002=
SPZO Mar2013-071900Z 00000KT 8000 -RA FEW020 SCT033 OVC050 11/07 Q1033 NOSIG RMK CLNG BLW 1200M PP008=
SPZO Mar2013-072000Z VRB02KT 9000 -DZ FEW020 SCT036TCU OVC060 12/07 Q1032 NOSIG RMK PP002=
SPZO Mar2013-072100Z VRB02KT 9999 FEW025 SCT040 BKN080 13/06 Q1031 REDZ NOSIG RMK PPTRZ=
SPZO Mar2013-072200Z 00000KT 9999 FEW033 SCT043 BKN100 14/07 Q1030 NOSIG RMK T MAX 15.3 PP000=
SPZO Mar2013-072300Z 00000KT 9999 FEW033 SCT043 BKN100 14/06 Q1030 NOSIG RMK PP000=
SPZO Mar2013-080000Z 00000KT 9999 SCT043 BKN100 12/08 Q1031 RMK PP000=
SPZO Mar2013-080100Z 27003KT 9999 SCT050 SCT100 11/08 Q1032 RMK PP000=
SPZO Mar2013-080200Z 13002KT 9999 SCT050 SCT100 10/08 Q1034 RMK PP000=
SPZO Mar2013-080300Z 00000KT 9999 SCT050 10/08 Q1034 RMK PP000=
SPZO Mar2013-080400Z 00000KT 9999 SCT040 SCT050 10/07 Q1035 RMK PP000=
SPZO Mar2013-080500Z 00000KT 9999 SCT050 09/07 Q1034 RMK PP000=
SPZO Mar2013-080600Z 29004KT 9999 SCT040 SCT050 08/06 Q1033 RMK PP000=
SPZO Mar2013-080700Z 00000KT 9999 SCT050 08/06 Q1033 RMK PP000=
SPZO Mar2013-080800Z 00000KT 9999 BKN050 08/06 Q1032 RMK PP000=
SPZO Mar2013-080900Z 00000KT 9999 SCT050 SCT100 08/06 Q1033 RMK PP000=
SPZO Mar2013-081000Z 09005KT 9999 FEW020 SCT100 07/05 Q1034 RMK PP000=
SPZO Mar2013-081100Z 00000KT 9999 FEW030 SCT046 BKN080 07/06 Q1034 NOSIG RMK VIS 8000E HZ PP000=
SPZO Mar2013-081200Z VRB02KT 8000 FEW020 SCT036 BKN050 08/06 Q1035 NOSIG RMK VIS 7000 E BR CLNG BLW 1200M PP000=
SPZO Mar2013-081300Z VRB01KT 8000 FEW020 SCT033 BKN046 09/07 Q1036 NOSIG RMK VIS 7000 E BR CLNG BLW 1200M PP000=
SPZO Mar2013-081400Z VRB02KT 9999 FEW020 SCT036 13/07 Q1036 NOSIG RMK VIS 8000 E HZ PP000=
SPZO Mar2013-081500Z VRB04KT 9999 FEW020 SCT040 15/09 Q1035 NOSIG RMK HZ QUAD NE PP000=
SPZO Mar2013-081600Z 09004KT 030V130 9999 SCT043 BKN070 16/08 Q1034 NOSIG RMK PP000=
SPZO Mar2013-081700Z VRB04KT 9999 VCSH FEW036TCU SCT043 BKN080 17/06 Q1033 NOSIG RMK PP000=
SPZO Mar2013-081800Z VRB05KT 9999 FEW040TCU SCT060 BKN100 20/06 Q1031 NOSIG RMK PP000=
SPZO Mar2013-081900Z VRB04KT 9999 VCSH FEW040TCU SCT060 BKN100 19/07 Q1030 NOSIG RMK PP000=
SPZO Mar2013-082000Z 01010KT 9999 SCT040 BKN100 18/06 Q1029 NOSIG RMK PP000=
SPZO Mar2013-082100Z VRB03KT 9999 FEW040TCU SCT050 BKN230 17/06 Q1029 NOSIG RMK PP000=
SPZO Mar2013-082200Z 03008KT 340V090 9999 FEW040TCU SCT050 BKN100 16/05 Q1029 NOSIG RMK T MAX 19.8 PP000=
SPZO Mar2013-082300Z VRB03KT 9999 FEW040TCU SCT050 BKN100 15/06 Q1030 NOSIG RMK PP000=
SPZO Mar2013-090000Z 15005KT 100V180 9999 SCT050 14/05 Q1031 RMK PP000=
SPZO Mar2013-090100Z 29004KT 9999 SCT050 11/06 Q1032 RMK PP000=
SPZO Mar2013-090200Z 00000KT 9999 SCT050 11/06 Q1033 RMK PP000=
SPZO Mar2013-090300Z VRB02KT 9999 FEW050 SCT080 10/06 Q1034 RMK PP000=
SPZO Mar2013-090400Z 00000KT 9999 FEW050 SCT080 10/07 Q1034 RMK PP000=
SPZO Mar2013-090500Z 00000KT 9999 FEW050 SCT080 09/07 Q1034 RMK PP000=
SPZO Mar2013-090600Z 00000KT 9999 SCT046 SCT070 09/06 Q1033 RMK PP000=
SPZO Mar2013-090700Z 12003KT 9999 SCT046 SCT070 10/07 Q1033 RMK PP000=
SPZO Mar2013-090800Z 00000KT 9999 SCT046 SCT070 10/07 Q1032 RMK PP000=
SPZO Mar2013-090900Z 00000KT 9999 FEW030 SCT043 BKN070 10/06 Q1032 RMK PP000=
SPZO Mar2013-091000Z 00000KT 9999 FEW030 SCT043 BKN070 10/07 Q1033 RMK VIS 9000 QUAD NE BR PP000=
SPZO Mar2013-091100Z 10003KT 9999 FEW030 SCT040 BKN070 09/07 Q1033 NOSIG RMK VIS 8000 QUAD NE BR PP000=
SPZO Mar2013-091200Z 00000KT 9999 FEW025 SCT036 BKN080 10/07 Q1034 NOSIG RMK VIS 7000E HZ PP000=
SPZO Mar2013-091300Z VRB03KT 9999 SCT036 BKN100 11/07 Q1035 NOSIG RMK PP000=
SPZO Mar2013-091400Z 13004KT 9999 SCT040 15/06 Q1035 NOSIG RMK PP000=
SPZO Mar2013-091500Z 06005KT 9999 FEW040 SCT060 17/07 Q1034 NOSIG RMK PP000=
SPZO Mar2013-091600Z VRB03KT 9999 FEW040TCU SCT060 19/07 Q1033 RMK PP000=
SPZO Mar2013-091700Z 06005KT 330V150 9999 FEW040TCU SCT060 20/05 Q1032 NOSIG RMK PP000=
SPZO Mar2013-091800Z 03011KT 360V060 9999 FEW036TCU BKN060 20/07 Q1030 TEMPO VCSH FEW040TCU BKN100 RMK PP000=
SPZO Mar2013-091900Z 29021KT 9999 VCSH FEW036TCU SCT043 BKN060 17/05 Q1030 WS R28 TEMPO -RA SCT040TCU BKN080 RMK DU QUAD E PP000=
SPZO Mar2013-092000Z 24011KT 220V280 9999 VCSH SCT040TCU BKN060 15/06 Q1030 NOSIG RMK VIS 9000 QUAD E RA PP000=
SPZO Mar2013-092100Z 11009KT 080V140 9999 VCSH SCT040 BKN070 14/07 Q1029 TEMPO -RA RMK PP000=
SPZO Mar2013-092200Z VRB01KT 9999 SCT040 BKN080 16/06 Q1029 NOSIG RMK TMAX 21.1 PP000=
SPZO Mar2013-092300Z 11007KT 9999 FEW050 BKN100 14/07 Q1029 NOSIG RMK PP000=
SPZO Mar2013-100000Z 13005KT 9999 FEW050 BKN100 13/07 Q1030 RMK PP000=
SPZO Mar2013-100100Z VRB01KT 9999 SCT050 BKN100 12/07 Q1031 RMK PP000=
SPZO Mar2013-100200Z VRB01KT 9999 SCT050 BKN100 13/08 Q1032 RMK PP000=
SPZO Mar2013-100300Z 12003KT 9999 SCT046 BKN080 12/08 Q1033 RMK -RA QUAD NE PP000=
SPZO Mar2013-100400Z 09003KT 9999 SCT043 BKN080 12/09 Q1033 RMK PP000=
SPZO Mar2013-100500Z 11005KT 9999 SCT043 BKN070 11/08 Q1032 RMK PP000=
SPZO Mar2013-100600Z 10007KT 9999 FEW033 SCT043 BKN060 11/08 Q1032 RMK -RA QUAD NE PP000=
SPZO Mar2013-100700Z 11005KT 9000 -RA FEW030 SCT040 BKN050 10/08 Q1032 RMK PP002=
SPZO Mar2013-100800Z VRB02KT 9000 -DZ FEW020 SCT040 BKN050 10/08 Q1031 RMK PPTRZ=
SPZO Mar2013-100900Z 00000KT 9000 -RA FEW020 SCT036 BKN050 10/08 Q1031 RMK CLNG BLW 1200M PP008=
SPZO Mar2013-101000Z VRB03KT 9000 -DZ FEW020 SCT036 BKN050 10/08 Q1032 RMK CLNG BLW 1200M PP002=
SPZO Mar2013-101100Z 00000KT 9999 FEW020 SCT036 BKN050 10/08 Q1032 REDZ NOSIG RMK PPTRZ=
SPZO Mar2013-101200Z 09004KT 9999 FEW015 SCT036 BKN060 10/08 Q1033 NOSIG RMK PP000=
SPZO Mar2013-101300Z 10003KT 040V150 9999 FEW015 SCT036 BKN060 12/08 Q1033 NOSIG RMK PP000=
SPZO Mar2013-101400Z 00000KT 9999 FEW010 SCT040 BKN060 14/08 Q1034 NOSIG RMK PP000=
SPZO Mar2013-101500Z 00000KT 9999 FEW020 SCT040 BKN070 16/07 Q1034 TEMPO SCT040 BKN100 RMK PP000=
SPZO Mar2013-101600Z VRB03KT 9999 FEW030 SCT043 BKN080 17/08 Q1033 NOSIG RMK PP000=
SPZO Mar2013-101700Z VRB02KT 9999 SCT043 BKN080 18/08 Q1031 TEMPO SCT040 SCT100 RMK PP000=
SPZO Mar2013-101800Z VRB07KT 9999 SCT046 SCT080 21/09 Q1030 NOSIG RMK PP000=
SPZO Mar2013-101900Z 35012KT 9999 VCSH FEW043TCU BKN050 18/04 Q1029 TEMPO 9000 -RA SCT040TCU BKN100 RMK PP000=
SPZO Mar2013-102000Z 32010KT 9999 FEW043TCU SCT050 BKN080 18/06 Q1028 NOSIG RMK PP000=
SPZO Mar2013-102100Z 31004KT 9999 SCT043 SCT050 19/03 Q1027 TEMPO 9000 -RA VCSH SCT040TCU BKN080 RMK PP000=
SPZO Mar2013-102200Z 22010KT 9999 FEW040TCU SCT050 BKN080 17/08 Q1027 NOSIG RMK T.MAX 21.0 PP000=
SPZO Mar2013-102300Z 23005KT 9999 VCSH FEW040TCU SCT050 BKN080 15/07 Q1029 TEMPO -RA RMK PP000=
SPZO Mar2013-110000Z 36005KT 9999 SCT050 BKN100 14/08 Q1030 RMK PP000=
SPZO Mar2013-110100Z 00000KT 8000 -RA SCT030 BKN060 12/08 Q1030 RMK PP022=
SPZO Mar2013-110200Z 00000KT 9999 SCT040 BKN100 12/09 Q1031 RMK PP000=
SPZO Mar2013-110300Z 00000KT 9999 SCT040 BKN100 13/10 Q1032 RMK PP000=
SPZO Mar2013-110400Z 00000KT 9999 SCT040 BKN100 13/09 Q1032 RMK PP000=
SPZO Mar2013-110500Z 00000KT 9999 SCT040 BKN100 12/09 Q1031 RMK PP000=
SPZO Mar2013-110600Z 00000KT 9999 SCT040 BKN100 12/09 Q1030 RMK PP000=
SPZO Mar2013-110700Z 00000KT 9999 SCT040 BKN100 12/09 Q1030 RMK PP000=
SPZO Mar2013-110800Z 00000KT 9999 SCT040 BKN100 11/09 Q1029 RMK PP000=
SPZO Mar2013-110900Z 00000KT 8000 -RA SCT040 BKN100 10/07 Q1030 RMK PP008=
SPZO Mar2013-111000Z 00000KT 9999 -RA SCT030 BKN100 10/07 Q1030 RMK PP006=
SPZO Mar2013-111100Z 00000KT 9999 FEW015 SCT040 BKN080 09/07 Q1031 NOSIG RMK PP000=
SPZO Mar2013-111200Z 00000KT 9999 FEW020 SCT043 BKN080 10/06 Q1032 NOSIG RMK PP000=
SPZO Mar2013-111300Z 00000KT 9999 FEW020 SCT046 BKN080 11/06 Q1032 NOSIG RMK PP000=
SPZO Mar2013-111400Z VRB01KT 9999 FEW030 SCT050 BKN100 13/07 Q1033 NOSIG RMK PP000=
SPZO Mar2013-111500Z VRB03KT 9999 SCT046 SCT230 16/07 Q1032 NOSIG RMK PP000=
SPZO Mar2013-111600Z 31005KT 9999 FEW040 SCT050 17/06 Q1031 NOSIG RMK PP000=
SPZO Mar2013-111700Z 10008KT 030V150 9999 SCT040 SCT060 17/08 Q1030 NOSIG RMK PP000=
SPZO Mar2013-111800Z VRB04KT 9999 VCSH FEW036TCU SCT046 BKN080 19/08 Q1029 NOSIG RMK PP000=
SPZO Mar2013-111900Z 27015KT 9999 VCSH FEW040TCU SCT050 BKN080 19/08 Q1028 NOSIG RMK PP000=
SPZO Mar2013-112000Z 28015KT 9999 VCSH FEW040TCU SCT050 BKN080 16/08 Q1027 TEMPO -RA RMK PP000=
SPZO Mar2013-112100Z 29011KT 260V330 9999 VCSH FEW036TCU SCT050 BKN100 18/08 Q1027 NOSIG RMK PP000=
SPZO Mar2013-112200Z 30010KT 9999 SCT050 BKN080 17/08 Q1027 NOSIG RMK T MAX 20.3 PP000=
SPZO Mar2013-112300Z 31009KT 9999 SCT050 BKN100 16/07 Q1027 NOSIG RMK PP000=
SPZO Mar2013-120000Z 27006KT 9999 FEW050 SCT080 15/07 Q1028 RMK PP000=
SPZO Mar2013-120100Z 29005KT 9999 FEW050 SCT080 13/08 Q1030 RMK PP000=
SPZO Mar2013-120200Z VRB03KT 9999 FEW050 SCT080 13/08 Q1031 RMK PP000=
SPZO Mar2013-120300Z 00000KT 9999 BKN060 13/08 Q1032 RMK PP000=
SPZO Mar2013-120400Z VRB04KT 9999 BKN060 14/06 Q1032 RMK PP000=
SPZO Mar2013-120500Z 25005KT 220V280 9999 BKN060 13/06 Q1031 RMK PP000=
SPZO Mar2013-120600Z 23005KT 180V260 9999 BKN060 13/06 Q1031 RMK PP000=
SPZO Mar2013-120700Z 26004KT 9999 FEW040 BKN060 13/06 Q1030 RMK PP000=
SPZO Mar2013-120800Z 28003KT 9999 FEW040 BKN060 11/06 Q1030 RMK PP000=
SPZO Mar2013-120900Z VRB02KT 9999 FEW040 BKN060 11/07 Q1030 RMK PP000=
SPZO Mar2013-121000Z 09002KT 9999 FEW040 BKN080 10/07 Q1030 RMK PP000=
SPZO Mar2013-121100Z 00000KT 9999 FEW033 BKN080 10/07 Q1030 NOSIG RMK PP000=
SPZO Mar2013-121200Z VRB02KT 9999 SCT020 SCT060 BKN100 11/07 Q1031 NOSIG RMK PP000=
SPZO Mar2013-121300Z 00000KT 9999 SCT050 BKN100 12/07 Q1032 NOSIG RMK PP000=
SPZO Mar2013-121400Z 00000KT 9999 SCT040 BKN100 14/07 Q1032 NOSIG RMK PP000=
SPZO Mar2013-121500Z 06004KT 9999 SCT040 BKN100 16/06 Q1032 NOSIG RMK PP000=
SPZO Mar2013-121600Z VRB02KT 9999 SCT040 SCT100 19/06 Q1031 NOSIG RMK PP000=
SPZO Mar2013-121700Z 28005KT 9999 SCT040 SCT100 20/06 Q1029 NOSIG RMK PP000=
SPZO Mar2013-121800Z 32009KT 270V010 9999 VCSH FEW033TCU SCT043 BKN080 19/07 Q1028 TEMPO VIS 8000 E -RA RMK PP000=
SPZO Mar2013-121900Z 02014G24KT 330V060 9999 VCSH FEW040TCU SCT050 BKN080 16/06 Q1028 TEMPO -RA RMK PP000=
SPZO Mar2013-122000Z 11006KT 040V150 8000 -RA FEW030 SCT046 BKN080 12/09 Q1028 NOSIG RMK PP068=
SPZO Mar2013-122100Z VRB02KT 9999 SCT046 BKN080 14/08 Q1027 RERA NOSIG RMK PPTRZ=
SPZO Mar2013-122200Z 00000KT 9999 FEW025 SCT046 BKN080 15/08 Q1027 NOSIG RMK T MAX 20.8 PP000=
SPZO Mar2013-122300Z 00000KT 9999 SCT050 BKN100 15/09 Q1027 NOSIG RMK PP000=
SPZO Mar2013-130000Z 30002KT 9999 SCT050 SCT100 13/09 Q1028 RMK PP000=
SPZO Mar2013-130100Z 00000KT 9999 SCT046 SCT080 12/09 Q1029 RMK PP000=
SPZO Mar2013-130200Z 00000KT 9999 SCT050 SCT100 12/09 Q1030 RMK PP000=
SPZO Mar2013-130300Z 00000KT 9999 SCT050 SCT100 11/08 Q1031 RMK PP000=
SPZO Mar2013-130400Z 00000KT 9999 SCT050 BKN100 10/08 Q1031 RMK PP000=
SPZO Mar2013-130500Z 00000KT 9999 BKN043 SCT080 10/08 Q1030 RMK PP000=
SPZO Mar2013-130600Z 00000KT 9999 SCT040 SCT100 10/08 Q1030 RMK PP000=
SPZO Mar2013-130700Z 00000KT 9999 BKN040 SCT060 10/08 Q1030 RMK PP000=
SPZO Mar2013-130800Z 00000KT 9999 BKN043 SCT060 10/08 Q1030 RMK PP000=
SPZO Mar2013-130900Z 00000KT 9999 BKN040 SCT080 10/08 Q1029 RMK PP000=
SPZO Mar2013-131000Z 12002KT 9999 FEW020 SCT043 BKN080 10/08 Q1030 RMK PP000=
SPZO Mar2013-131100Z 09003KT 9999 FEW030 SCT036 BKN046 10/08 Q1030 NOSIG RMK VIS 9000E HZ PP000=
SPZO Mar2013-131200Z 12004KT 080V150 7000 -RA FEW020 SCT036 BKN046 10/08 Q1031 NOSIG RMK PP004=
SPZO Mar2013-131300Z 11003KT 4000 -RA FEW020 SCT033 OVC043 10/08 Q1032 NOSIG RMK PP044=
SPZO Mar2013-131400Z 00000KT 4000 -RA FEW015 SCT033 OVC043 10/09 Q1033 NOSIG RMK CLNG BLW 1200M PP060=
SPZO Mar2013-131500Z 00000KT 8000 -DZ FEW020 SCT033 OVC043 11/09 Q1033 NOSIG RMK CLNG BLW 1200M -RA QUAD NW PP002=
SPZO Mar2013-131600Z VRB02KT 9000 FEW020 SCT036 OVC050 13/08 Q1033 REDZ NOSIG RMK PPTRZ=
SPZO Mar2013-131700Z 22003KT 150V270 9999 FEW020 SCT036 OVC080 14/07 Q1032 NOSIG RMK PP000=
SPZO Mar2013-131800Z 27003KT 220V010 9999 FEW020 SCT040 BKN080 15/08 Q1030 NOSIG RMK PP000=
SPZO Mar2013-131900Z 29012KT 260V320 9999 FEW025 SCT043 BKN080 17/07 Q1029 TEMPO VCSH FEW040TCU BKN100 RMK PP000=
SPZO Mar2013-132000Z 30012KT 270V350 9999 SCT043 BKN080 18/07 Q1028 NOSIG RMK PP000=
SPZO Mar2013-132100Z 31009KT 9999 VCSH SCT043 BKN080 18/06 Q1027 NOSIG RMK QUAD E RA PP000=
SPZO Mar2013-132200Z 30010KT 9999 SCT046 SCT100 17/07 Q1026 NOSIG RMK TMAX 17.9 PP000=
SPZO Mar2013-132300Z 28011KT 9999 SCT046 15/07 Q1027 NOSIG RMK PP000=
SPZO Mar2013-140000Z 31007KT 9999 SCT050 14/07 Q1028 RMK PP000=
SPZO Mar2013-140100Z 27006KT 9999 SCT043 BKN100 13/08 Q1029 RMK PP000=
SPZO Mar2013-140200Z 19002KT 9999 SCT050 SCT100 13/08 Q1030 RMK PP000=
SPZO Mar2013-140300Z 11018KT 8000 RA SCT040TCU BKN046 10/07 Q1032 RMK PP006=
SPZO Mar2013-140400Z 00000KT 9000 -RA SCT036 BKN046 08/07 Q1033 RMK PP028=
SPZO Mar2013-140500Z 00000KT 9999 -RA OVC040 09/06 Q1032 RMK PP004=
SPZO Mar2013-140600Z 00000KT 9999 BKN040 SCT060 09/06 Q1030 RMK PP002=
SPZO Mar2013-140700Z 00000KT 9999 -RA SCT030 BKN040 09/07 Q1030 RMK PP008=
SPZO Mar2013-140800Z 00000KT 9999 OVC040 09/07 Q1030 RMK PP000=
SPZO Mar2013-140900Z 13005KT 9999 FEW020 SCT040 BKN050 09/06 Q1030 RMK PP000=
SPZO Mar2013-141000Z 00000KT 9999 FEW020 SCT043 BKN060 09/06 Q1030 RMK PP000=
SPZO Mar2013-141100Z 00000KT 9999 FEW030 SCT046 BKN080 09/07 Q1030 NOSIG RMK PP000=
SPZO Mar2013-141200Z 12005KT 9999 FEW020 SCT040 BKN100 09/07 Q1031 TEMPO FEW010 SCT036 BKN060 RMK PP000=
SPZO Mar2013-141300Z VRB03KT 9999 SCT010 SCT040 BKN100 10/07 Q1032 NOSIG RMK PP000=
SPZO Mar2013-141400Z VRB01KT 9999 SCT015 SCT040 BKN100 12/07 Q1032 NOSIG RMK PP000=
SPZO Mar2013-141500Z VRB01KT 9999 SCT020 SCT040 BKN100 14/07 Q1032 NOSIG RMK PP000=
SPZO Mar2013-141600Z VRB03KT 9999 SCT030 SCT050 BKN100 14/06 Q1031 NOSIG RMK PP000=
SPZO Mar2013-141700Z VRB02KT 9999 SCT040 BKN100 16/07 Q1030 NOSIG RMK PP000=
SPZO Mar2013-141800Z 06006KT 360V120 9999 FEW040TCU SCT043 BKN080 17/08 Q1029 TEMPO VCSH RMK PP000=
SPZO Mar2013-141900Z VRB07KT 9999 VCSH FEW036TCU SCT043 BKN080 16/08 Q1028 TEMPO -RA RMK PP000=
SPZO Mar2013-142000Z VRB04KT 9999 DZ VCSH SCT043 BKN080 15/08 Q1027 NOSIG RMK PPTRZ=
SPZO Mar2013-142100Z 29006KT 260V330 9999 SCT043 BKN080 15/08 Q1026 NOSIG RMK PP000=
SPZO Mar2013-142200Z VRB01KT 9999 SCT043 BKN080 16/07 Q1026 NOSIG RMK TMAX 18.9 PP000=
SPZO Mar2013-142300Z 11007KT 9999 SCT050 BKN100 15/07 Q1027 NOSIG RMK PP000=
SPZO Mar2013-150000Z VRB03KT 9999 SCT050 BKN100 13/08 Q1028 RMK PP000=
SPZO Mar2013-150100Z 29004KT 230V310 9999 SCT050 BKN100 11/08 Q1029 RMK PP000=
SPZO Mar2013-150200Z 00000KT 9999 SCT050 BKN100 11/08 Q1030 RMK -RA QUAD NE PP000=
SPZO Mar2013-150300Z 00000KT 9999 SCT046 BKN070 11/08 Q1030 RMK BR QUAD NE PP000=
SPZO Mar2013-150400Z 13003KT 9999 SCT046 BKN070 11/08 Q1030 RMK VIS 8000 E BR PP000=
SPZO Mar2013-150500Z 09003KT 040V120 9000 SCT043 BKN060 11/08 Q1030 RMK VIS 7000 E BR PP000=
SPZO Mar2013-150600Z 26004KT 180V310 9000 -RA SCT040 BKN060 10/07 Q1030 RMK VIS 4000 E RA BR PP062=
SPZO Mar2013-150700Z VRB02KT 9000 -RA FEW020 SCT036 BKN060 09/07 Q1030 RMK VIS 7000 E -RA PP048=
SPZO Mar2013-150800Z VRB01KT 9000 -RA FEW020 SCT036 BKN060 09/07 Q1030 RMK PP006=
SPZO Mar2013-150900Z 00000KT 9000 -DZ FEW020 SCT036 BKN050 09/07 Q1030 RMK PPTRZ=
SPZO Mar2013-151000Z VRB01KT 9000 -DZ FEW020 SCT036 BKN050 09/07 Q1030 RMK VIS 7000 E -RA CLNG BLW 1200M PP002=
SPZO Mar2013-151100Z VRB02KT 9999 FEW020 SCT036 BKN050 09/07 Q1030 REDZ NOSIG RMK PPTRZ=
SPZO Mar2013-151200Z 10002KT 9999 FEW020 SCT040 OVC080 09/08 Q1031 TEMPO 9000 -RA FEW010 BKN040 RMK VIS 8000 QUAD E BR PP000=
SPZO Mar2013-151300Z 10003KT 050V140 9999 FEW015 SCT040 OVC080 10/08 Q1032 NOSIG RMK VIS 9000 QUAD E BR PP000=
SPZO Mar2013-151400Z 00000KT 9999 FEW015 SCT040 OVC080 12/08 Q1032 NOSIG RMK PP000=
SPZO Mar2013-151500Z 00000KT 9999 FEW020 SCT040 BKN070 13/07 Q1032 NOSIG RMK PP000=
SPZO Mar2013-151600Z VRB01KT 9999 FEW020 SCT043 BKN070 14/08 Q1031 NOSIG RMK PP000=
SPZO Mar2013-151700Z 10005KT 060V170 9999 FEW030 SCT043 BKN070 15/08 Q1030 NOSIG RMK PP000=
SPZO Mar2013-151800Z 10007KT 9999 SCT040 BKN080 15/08 Q1030 NOSIG RMK PP000=
SPZO Mar2013-151900Z VRB02KT 9999 FEW040 SCT050 BKN080 17/06 Q1028 NOSIG RMK PP000=
SPZO Mar2013-152000Z VRB03KT 9999 FEW040 SCT050 BKN230 17/06 Q1027 NOSIG RMK PP000=
SPZO Mar2013-152100Z VRB03KT 9999 SCT050 BKN230 18/07 Q1026 NOSIG RMK PP000=
SPZO Mar2013-152200Z 01004KT 9999 FEW040 SCT050 BKN230 17/06 Q1026 NOSIG RMK T.MAX 18.3 PP000=
SPZO Mar2013-152300Z 15006KT 9999 SCT050 SCT230 16/07 Q1027 NOSIG RMK PP000=
SPZO Mar2013-160000Z 15005KT 9999 SCT050 BKN230 15/07 Q1028 RMK PP000=
SPZO Mar2013-160100Z 27005KT 9999 SCT050 BKN100 14/07 Q1027 RMK PP000=
SPZO Mar2013-160200Z 27007KT 9999 -RA SCT040 BKN100 13/08 Q1030 RMK PP000=
SPZO Mar2013-160300Z 00000KT 9999 -RA SCT030 BKN100 12/07 Q1032 RMK PP010=
SPZO Mar2013-160400Z 00000KT 9999 -RA SCT030 BKN100 09/08 Q1033 RMK PP016=
SPZO Mar2013-160500Z 00000KT 9999 -RA SCT030 BKN100 09/07 Q1033 RMK PP022=
SPZO Mar2013-160600Z 00000KT 9999 -RA SCT030 BKN100 09/07 Q1033 RMK PP014=
SPZO Mar2013-160700Z 00000KT 9999 SCT030 BKN100 09/07 Q1031 RMK PP002=
SPZO Mar2013-160800Z 00000KT 9999 SCT050 BKN100 09/07 Q1031 RMK PP000=
SPZO Mar2013-160900Z 00000KT 9999 -RA SCT050 BKN100 09/07 Q1031 RMK PP002=
SPZO Mar2013-161000Z 00000KT 9999 FEW020 SCT040 BKN100 09/07 Q1031 RMK PP000=
SPZO Mar2013-161100Z 00000KT 9999 FEW020 SCT040 BKN100 09/07 Q1031 NOSIG RMK PP002=
SPZO Mar2013-161200Z 00000KT 9999 SCT020 BKN100 10/07 Q1032 NOSIG RMK PP000=
SPZO Mar2013-161300Z VRB01KT 9999 SCT020 SCT043 BKN100 11/07 Q1033 NOSIG RMK PP000=
SPZO Mar2013-161400Z 00000KT 9999 FEW030 SCT043 BKN100 12/07 Q1033 TEMPO FEW020 SCT040 BKN080 RMK PP000=
SPZO Mar2013-161500Z VRB02KT 9999 FEW033 SCT046 BKN100 13/07 Q1033 NOSIG RMK PP000=
SPZO Mar2013-161600Z VRB03KT 9999 FEW033 SCT046 BKN080 14/07 Q1032 NOSIG RMK PP000=
SPZO Mar2013-161700Z 12004KT 9999 FEW040 SCT050 BKN080 16/07 Q1031 NOSIG RMK PP000=
SPZO Mar2013-161800Z 13005KT 090V180 9999 VCSH FEW040TCU SCT050 BKN080 16/07 Q1030 NOSIG RMK PP000=
SPZO Mar2013-161900Z VRB03KT 9999 SCT040TCU BKN080 18/05 Q1029 TEMPO VCSH RMK PP000=
SPZO Mar2013-162000Z VRB04KT 9999 VCSH FEW036TCU SCT050 BKN080 18/07 Q1027 NOSIG RMK PP000=
SPZO Mar2013-162100Z 28016KT 9999 VCSH FEW036TCU SCT050 BKN100 17/09 Q1027 NOSIG RMK PP000=
SPZO Mar2013-162200Z 28014KT 9999 FEW036TCU BKN070 15/07 Q1027 NOSIG RMK T MAX 19.4 PP000=
SPZO Mar2013-162300Z 35006KT 290V030 9999 SCT040 BKN080 16/06 Q1028 NOSIG RMK PP000=
SPZO Mar2013-170000Z 08004KT 030V140 9999 BKN060 15/06 Q1030 RMK PP000=
SPZO Mar2013-170100Z 15004KT 090V200 9999 BKN060 14/07 Q1031 RMK PP000=
SPZO Mar2013-170200Z 11005KT 9999 BKN080 13/06 Q1032 RMK PP000=
SPZO Mar2013-170300Z 12006KT 9999 FEW046 BKN080 13/06 Q1033 RMK PP000=
SPZO Mar2013-170400Z 11005KT 090V150 9999 FEW046 BKN100 12/07 Q1033 RMK PP000=
SPZO Mar2013-170500Z VRB01KT 9999 FEW046 BKN100 12/07 Q1033 RMK PP000=
SPZO Mar2013-170600Z VRB01KT 9999 SCT046 BKN080 11/07 Q1032 RMK PP000=
SPZO Mar2013-170700Z VRB02KT 9999 SCT046 BKN080 11/07 Q1032 RMK PP000=
SPZO Mar2013-170800Z VRB02KT 9999 SCT046 BKN080 11/07 Q1032 RMK PP000=
SPZO Mar2013-170900Z 13003KT 090V160 9999 SCT043 BKN080 11/07 Q1032 RMK PP000=
SPZO Mar2013-171000Z VRB02KT 9999 SCT043 BKN080 11/07 Q1032 RMK PP000=
SPZO Mar2013-171100Z 12004KT 090V160 9999 DZ FEW020 SCT040 BKN070 10/07 Q1033 NOSIG RMK PPTRZ=
SPZO Mar2013-171200Z 00000KT 9999 VCSH FEW030 SCT050 BKN100 10/07 Q1034 NOSIG RMK PP002=
SPZO Mar2013-171300Z VRB02KT 9999 FEW020 SCT040 BKN100 13/07 Q1034 NOSIG RMK PP000=
SPZO Mar2013-171400Z VRB01KT 9999 FEW030 SCT050 BKN100 14/06 Q1034 TEMPO SCT060 SCT230 RMK PP000=
SPZO Mar2013-171500Z VRB02KT 9999 SCT040 BKN100 16/06 Q1034 NOSIG RMK PP000=
SPZO Mar2013-171600Z 12004KT 9999 SCT040 BKN100 16/07 Q1033 NOSIG RMK PP000=
SPZO Mar2013-171700Z VRB02KT 9999 FEW040TCU SCT060 BKN100 17/06 Q1032 NOSIG RMK PP000=
SPZO Mar2013-171800Z VRB04KT 9999 FEW036 SCT050 BKN080 18/06 Q1030 NOSIG RMK PP000=
SPZO Mar2013-171900Z VRB06KT 9999 SCT043 BKN080 20/07 Q1029 NOSIG RMK PP000=
SPZO Mar2013-172000Z 11018G28KT 9999 VCSH SCT036TCU BKN080 16/08 Q1028 TEMPO 8000 4000 E RA SCT040TCU BKN080 RMK PP000=
SPZO Mar2013-172100Z 12019KT 9999 VCSH SCT036TCU BKN080 13/08 Q1029 TEMPO 8000 4000 E RA SCT040TCU BKN080 RMK PP000=
SPZO Mar2013-172200Z 12008KT 9000 -DZ FEW025 SCT036TCU BKN080 12/08 Q1029 RMK T MAX 20.6 -RA SW PP010=
SPZO Mar2013-172300Z VRB02KT 9999 SCT036TCU BKN080 12/08 Q1030 REDZ NOSIG RMK PPTRZ=
SPZO Mar2013-180000Z 09002KT 9999 SCT040 BKN080 12/07 Q1031 RMK PP000=
SPZO Mar2013-180100Z VRB02KT 9999 SCT050 SCT100 12/08 Q1032 RMK PP000=
SPZO Mar2013-180200Z 08002KT 9999 SCT050 BKN100 11/08 Q1032 RMK PP000=
SPZO Mar2013-180300Z 00000KT 9999 SCT050 SCT100 12/08 Q1032 RMK PP000=
SPZO Mar2013-180400Z 00000KT 9999 BKN043 SCT100 11/08 Q1033 RMK PP000=
SPZO Mar2013-180500Z 00000KT 9999 BKN043 SCT080 11/08 Q1032 RMK PP000=
SPZO Mar2013-180600Z 00000KT 9999 BKN040 SCT050 11/08 Q1032 RMK PP000=
SPZO Mar2013-180700Z 00000KT 8000 RA BKN040 SCT046 10/07 Q1032 RMK PP018=
SPZO Mar2013-180800Z 09004KT 8000 -RA SCT020 BKN040 09/07 Q1032 RMK PP046=
SPZO Mar2013-180900Z 00000KT 8000 -RA SCT010 BKN040 09/07 Q1032 RMK PP046=
SPZO Mar2013-181000Z 00000KT 8000 RA SCT015 SCT033 BKN043 09/07 Q1032 RMK CLNG BLW 1200M PP030=
SPZO Mar2013-181100Z 10004KT 9000 -RA FEW010 SCT033 BKN070 09/07 Q1033 NOSIG RMK CLNG BLW 1200M PP022=
SPZO Mar2013-181200Z 10004KT 8000 -RA FEW010 SCT030 BKN040 09/07 Q1033 NOSIG RMK VIS 4000 E BR CLNG BLW 1200M PP000=
SPZO Mar2013-181300Z 11007KT 8000 -RA FEW010 SCT033 OVC043 09/07 Q1034 NOSIG RMK VIS 6000 E BR CLNG BLW 1200M PP010=
SPZO Mar2013-181400Z VRB03KT 9000 -RA FEW020 SCT036 BKN050 12/07 Q1035 NOSIG RMK BCBR NE PP004=
SPZO Mar2013-181500Z VRB01KT 9999 FEW030 SCT040 BKN100 15/07 Q1034 RERA NOSIG RMK PPTRZ=
SPZO Mar2013-181600Z 35004KT 270V060 9999 FEW036TCU SCT040 BKN080 16/05 Q1033 NOSIG RMK PP000=
SPZO Mar2013-181700Z 13005KT 080V190 9999 FEW036TCU SCT046 BKN080 16/08 Q1032 NOSIG RMK PP000=
SPZO Mar2013-181800Z 23004KT 9999 VCSH FEW040TCU SCT050 BKN100 16/07 Q1030 NOSIG RMK PPTRZ=
SPZO Mar2013-181900Z 01005KT 9999 FEW040TCU SCT050 BKN100 19/06 Q1028 NOSIG RMK PP000=
SPZO Mar2013-182000Z 29015KT 9999 SCT050 BKN100 19/07 Q1027 TEMPO VCSH FEW040TCU BKN080 RMK PP000=
SPZO Mar2013-182100Z 29012KT 9999 FEW040TCU SCT050 BKN100 17/07 Q1027 TEMPO VCSH RMK PP000=
SPZO Mar2013-182200Z 28008KT 9999 SCT050 BKN100 17/08 Q1027 NOSIG RMK PP000=
SPZO Mar2013-182300Z 28008KT 9999 SCT050 BKN100 16/08 Q1028 NOSIG RMK PP000=
SPZO Mar2013-190000Z 28007KT 220V340 9999 SCT050 SCT080 15/08 Q1029 RMK PP000=
SPZO Mar2013-190100Z VRB02KT 9999 SCT050 SCT080 14/09 Q1029 RMK PP000=
SPZO Mar2013-190200Z /////KT 9000 -TSRA FEW030CB SCT040 OVC050 09/07 Q1032 RMK PP011=
SPZO Mar2013-190300Z /////KT 9999 -RA VCTS FEW036 SCT043 OVC060 10/06 Q1033 RMK PPTRZ=
SPZO Mar2013-190400Z /////KT 9999 DZ FEW036 SCT043 BKN060 10/06 Q1033 RMK PPTRZ=
SPZO Mar2013-190500Z /////KT 9999 FEW036 SCT043 BKN060 10/06 Q1032 RMK PP002=
SPZO Mar2013-190600Z /////KT 9999 SCT043 BKN070 09/07 Q1031 RMK PP000=
SPZO Mar2013-190700Z /////KT 9999 SCT040 BKN070 09/06 Q1031 RMK PP000=
SPZO Mar2013-190800Z /////KT 9999 SCT040 BKN080 09/06 Q1030 RMK PP000=
SPZO Mar2013-190900Z /////KT 9999 SCT040 SCT080 08/06 Q1030 RMK PP000=
SPZO Mar2013-191000Z /////KT 9999 FEW030 SCT100 07/05 Q1030 RMK BR QUAD NE PP000=
SPZO Mar2013-191100Z /////KT 9999 FEW030 SCT100 07/05 Q1031 NOSIG RMK VIS 9000 QUAD NE BR PP000=
SPZO Mar2013-191200Z /////KT 9999 FEW036 SCT046 BKN080 08/06 Q1031 TEMPO FEW020 SCT040 BKN070 RMK PP000=
SPZO Mar2013-191300Z /////KT 9999 FEW050 SCT230 11/07 Q1032 NOSIG RMK PP000=
SPZO Mar2013-191400Z /////KT 9999 FEW050 SCT100 14/08 Q1032 NOSIG RMK PP000=
SPZO Mar2013-191500Z /////KT 9999 SCT050 SCT100 16/07 Q1031 NOSIG RMK PP000=
SPZO Mar2013-191600Z /////KT 9999 SCT050 18/08 Q1030 NOSIG RMK PP000=
SPZO Mar2013-191700Z /////KT 9999 SCT050 SCT230 19/08 Q1029 NOSIG RMK PP000=
SPZO Mar2013-191800Z /////KT 9999 SCT046 SCT150 20/07 Q1028 TEMPO VCSH FEW040TCU BKN100 RMK PP000=
SPZO Mar2013-191900Z /////KT 9999 SCT046 SCT150 21/07 Q1026 TEMPO VCSH FEW040TCU BKN100 RMK PP000=
SPZO Mar2013-192000Z /////KT 9999 FEW036TCU SCT046 BKN100 21/06 Q1024 TEMPO -RA RMK PP000=
SPZO Mar2013-192100Z /////KT 9999 VCSH SCT043 BKN080 20/05 Q1024 BECMG FM2130 8000 RA VCTS SCT036CB OVC080 RMK VIS 9000 QUAD E RA PP000=
SPZO Mar2013-192200Z /////KT 9999 VCSH FEW036TCU SCT040 BKN060 14/07 Q1026 NOSIG RMK TMAX 22.2 PP000=
SPZO Mar2013-192300Z /////KT 9999 SCT043 BKN080 14/06 Q1026 NOSIG RMK PP000=
SPZO Mar2013-200000Z /////KT 9999 SCT050 BKN080 13/07 Q1027 RMK PP000=
SPZO Mar2013-200100Z /////KT 9999 SCT050 BKN080 12/07 Q1028 RMK PP000=
SPZO Mar2013-200200Z /////KT 9999 SCT050 BKN080 11/08 Q1029 RMK PP000=
SPZO Mar2013-200300Z /////KT 9999 SCT050 BKN080 11/07 Q1030 RMK PP000=
SPZO Mar2013-200400Z /////KT 9999 SCT050 BKN080 11/07 Q1030 RMK VCTS CB QUAD S PP000=
SPZO Mar2013-200500Z /////KT 8000 -RA SCT043 BKN060 11/08 Q1030 RMK PPTRZ=
SPZO Mar2013-200600Z /////KT 9999 SCT043 BKN080 11/08 Q1029 RERA RMK PPTRZ=
SPZO Mar2013-200700Z /////KT 9999 SCT043 BKN080 10/08 Q1029 RMK PP000=
SPZO Mar2013-200800Z /////KT 9999 SCT043 BKN080 09/07 Q1029 RMK VIS 8000 QUAD NE BR PP000=
SPZO Mar2013-200900Z /////KT 9999 FEW020 SCT036 BKN070 08/07 Q1029 RMK VIS 8000 QUAD NE BR PP000=
SPZO Mar2013-201000Z /////KT 9999 FEW020 SCT036 BKN070 07/05 Q1029 RMK VIS 8000 QUAD NE BR PP000=
SPZO Mar2013-201100Z /////KT 9999 FEW020 SCT040 BKN100 07/06 Q1030 NOSIG RMK VIS 9000 E BR PP000=
SPZO Mar2013-201200Z /////KT 9999 FEW020 SCT043 BKN100 09/07 Q1031 NOSIG RMK VIS 8000 QUAD NE BR PP000=
SPZO Mar2013-201300Z /////KT 9999 FEW015 SCT040 BKN100 11/07 Q1031 NOSIG RMK VIS 8000 QUAD NE BR PP000=
SPZO Mar2013-201400Z /////KT 9999 FEW025 SCT040 BKN230 14/08 Q1031 NOSIG RMK PP000=
SPZO Mar2013-201500Z 07003KT 9999 SCT043 SCT230 17/06 Q1031 NOSIG RMK PP000=
SPZO Mar2013-201600Z 36004KT 9999 SCT050 SCT200 18/06 Q1030 TEMPO VCSH FEW036TCU BKN080 RMK PP000=
SPZO Mar2013-201700Z VRB03KT 9999 SCT050 SCT200 19/06 Q1029 TEMPO VCSH FEW036TCU BKN080 RMK PP000=
SPZO Mar2013-201800Z 28009KT 9999 SCT050 SCT230 21/04 Q1027 NOSIG RMK PP000=
SPZO Mar2013-201900Z VRB04KT 9999 SCT050 SCT230 22/02 Q1025 TEMPO FEW036TCU BKN100 RMK PP000=
SPZO Mar2013-202000Z 23006KT 9999 SCT050 SCT230 22/M01 Q1025 TEMPO VCSH FEW036TCU BKN100 RMK PP000=
SPZO Mar2013-202100Z 19004KT 9999 FEW050 BKN230 22/M00 Q1024 NOSIG RMK PP000=
SPZO Mar2013-202200Z 17005KT 9999 FEW050 BKN230 22/M04 Q1024 NOSIG RMK T.MAX 23.2 PP000=
SPZO Mar2013-202300Z 28009KT 9999 FEW050 SCT230 18/06 Q1024 NOSIG RMK PP000=
SPZO Mar2013-210000Z /////KT 9999 FEW050 16/07 Q1025 RMK PP000=
SPZO Mar2013-210100Z /////KT 9999 SKC 15/07 Q1027 RMK PP000=
SPZO Mar2013-210200Z /////KT 9999 SKC 13/07 Q1028 RMK PP000=
SPZO Mar2013-210300Z /////KT 9999 SKC 12/07 Q1029 RMK PP000=
SPZO Mar2013-210400Z /////KT 9999 SKC 11/07 Q1029 RMK PP000=
SPZO Mar2013-210500Z /////KT 9999 SKC 19/06 Q1029 RMK PP000=
SPZO Mar2013-210600Z /////KT 9999 SKC 09/06 Q1028 RMK PP000=
SPZO Mar2013-210700Z /////KT 9999 SKC 09/06 Q1028 RMK PP000=
SPZO Mar2013-210800Z /////KT 9999 SKC 10/07 Q1028 RMK PP000=
SPZO Mar2013-210900Z /////KT 9999 SKC 09/07 Q1028 RMK PP000=
SPZO Mar2013-211000Z /////KT 9999 SCT040 09/06 Q1029 RMK PP000=
SPZO Mar2013-211100Z /////KT 9999 SCT040 BKN080 09/07 Q1029 NOSIG RMK PP000=
SPZO Mar2013-211200Z 00000KT 9999 FEW030 SCT043 BKN080 10/07 Q1030 NOSIG RMK PP000=
SPZO Mar2013-211300Z 13002KT 9999 FEW030 SCT043 BKN080 11/07 Q1031 TEMPO 9000 -RA FEW020 SCT036 BKN060 RMK PP000=
SPZO Mar2013-211400Z 24003KT 9999 FEW030 SCT050 BKN100 14/07 Q1032 NOSIG RMK PP000=
SPZO Mar2013-211500Z 16002KT 9999 FEW036 SCT050 BKN230 17/06 Q1031 NOSIG RMK PP000=
SPZO Mar2013-211600Z 28002KT 9999 SCT050 BKN230 18/08 Q1030 NOSIG RMK PP000=
SPZO Mar2013-211700Z 36004KT 9999 SCT050 BKN230 21/04 Q1029 NOSIG RMK PP000=
SPZO Mar2013-211800Z 04003KT 9999 FEW036TCU SCT046 BKN230 20/04 Q1028 NOSIG RMK PP000=
SPZO Mar2013-211900Z 06005KT 9999 FEW050TCU SCT060 BKN230 20/06 Q1027 NOSIG RMK PP000=
SPZO Mar2013-212000Z VRB01KT 9999 SCT050 BKN230 22/03 Q1026 TEMPO 24008KT RMK PP000=
SPZO Mar2013-212100Z 17003KT 9999 FEW040TCU BKN200 21/04 Q1025 TEMPO 11008KT VCSH ST040TCU BKN100 RMK PP000=
SPZO Mar2013-212200Z 13009KT 9999 VCSH SCT050TCU BKN100 19/06 Q1026 TEMPO -RA RMK T MAX 22.8 PP000=
SPZO Mar2013-212300Z 16009KT 9999 SCT050 BKN100 18/06 Q1026 NOSIG RMK PP000=
SPZO Mar2013-220000Z /////KT 9999 SCT060 16/07 Q1027 RMK PP000=
SPZO Mar2013-220100Z /////KT 9999 SCT060 15/07 Q1028 RMK PP000=
SPZO Mar2013-220200Z /////KT 9999 FEW040 BKN080 13/08 Q1029 RMK PP000=
SPZO Mar2013-220300Z /////KT 9999 FEW040 BKN080 13/08 Q1029 RMK PP000=
SPZO Mar2013-220400Z /////KT 9999 FEW040 BKN080 12/08 Q1030 RMK PP000=
SPZO Mar2013-220500Z /////KT 9999 FEW040 BKN080 13/08 Q1030 RMK PP000=
SPZO Mar2013-220600Z /////KT 9999 FEW040 BKN080 13/08 Q1029 RMK PP000=
SPZO Mar2013-220700Z /////KT 9999 FEW040 BKN080 13/08 Q1029 RMK PP000=
SPZO Mar2013-220800Z /////KT 9999 FEW040 BKN080 13/08 Q1029 RMK PP000=
SPZO Mar2013-220900Z /////KT 9999 FEW040 BKN080 12/07 Q1029 RMK PP000=
SPZO Mar2013-221000Z /////KT 9999 FEW040 BKN080 11/07 Q1030 RMK PP000=
SPZO Mar2013-221100Z /////KT 9999 FEW040 BKN080 11/07 Q1030 NOSIG RMK PP000=
SPZO Mar2013-221200Z VRB02KT 9999 FEW050 BKN100 12/07 Q1031 NOSIG RMK PP000=
SPZO Mar2013-221300Z 08003KT 9999 FEW050 OVC100 12/06 Q1033 NOSIG RMK PP000=
SPZO Mar2013-221400Z VRB03KT 9999 FEW050 OVC100 14/05 Q1033 NOSIG RMK PP000=
SPZO Mar2013-221500Z VRB02KT 9999 FEW040 OVC100 15/05 Q1033 NOSIG RMK PP000=
SPZO Mar2013-221600Z /////KT 9999 FEW040 OVC100 16/03 Q1033 NOSIG RMK PP000=
SPZO Mar2013-221700Z 14004KT 9999 FEW040TCU SCT060 BKN100 17/04 Q1032 NOSIG RMK PP000=
SPZO Mar2013-221800Z 03005KT 9999 SCT040 OVC200 17/06 Q1031 NOSIG RMK PP000=
SPZO Mar2013-221900Z 36005KT 9999 SCT046 OVC200 17/04 Q1030 NOSIG RMK PP000=
SPZO Mar2013-222000Z 36006KT 9999 SCT046 BKN200 18/03 Q1029 NOSIG RMK PP000=
SPZO Mar2013-222100Z 03007KT 9999 SCT050 BKN200 19/03 Q1028 NOSIG RMK PP000=
SPZO Mar2013-222200Z 02010KT 9999 SCT050 BKN100 17/05 Q1028 NOSIG RMK T MAX 19.3 PP000=
SPZO Mar2013-222300Z 05008KT 9999 FEW050 BKN100 15/04 Q1029 NOSIG RMK PP000=
SPZO Mar2013-230000Z /////KT 9999 SCT050 SCT100 15/05 Q1031 RMK PP000=
SPZO Mar2013-230100Z /////KT 9999 SCT050 BKN100 13/05 Q1032 RMK PP000=
SPZO Mar2013-230200Z /////KT 9999 FEW050 BKN100 12/06 Q1033 RMK PP000=
SPZO Mar2013-230300Z /////KT 9999 SCT043 SCT080 10/06 Q1034 RMK PP000=
SPZO Mar2013-230400Z /////KT 9999 FEW043 SCT100 10/06 Q1034 RMK PP000=
SPZO Mar2013-230500Z /////KT 9999 SCT043 BKN060 12/06 Q1032 RMK PP000=
SPZO Mar2013-230600Z /////KT 9999 SCT040 BKN060 11/07 Q1032 RMK PP000=
SPZO Mar2013-230700Z /////KT 9999 SCT040 BKN050 11/06 Q1032 RMK PP000=
SPZO Mar2013-230800Z /////KT 9999 BKN040 SCT050 10/06 Q1032 RMK PP000=
SPZO Mar2013-230900Z /////KT 9999 SCT036 BKN050 10/06 Q1032 RMK PP000=
SPZO Mar2013-231000Z /////KT 9999 FEW030 SCT043 BKN060 10/06 Q1032 RMK PP000=
SPZO Mar2013-231100Z /////KT 9999 FEW036 SCT043 BKN080 10/06 Q1033 NOSIG RMK PP000=
SPZO Mar2013-231200Z 08003KT 9999 SCT046 BKN100 11/07 Q1033 NOSIG RMK VIS 9000 E HZ PP000=
SPZO Mar2013-231300Z 09003KT 9999 FEW025 SCT043 BKN080 12/06 Q1033 NOSIG RMK VIS 9000 E HZ PP000=
SPZO Mar2013-231400Z 31003KT 270V360 9999 FEW025 SCT040 BKN100 15/06 Q1034 NOSIG RMK PP000=
SPZO Mar2013-231500Z 12003KT 9999 SCT043 BKN100 17/05 Q1033 NOSIG RMK PP000=
SPZO Mar2013-231600Z 20004KT 150V270 9999 SCT046 BKN100 19/07 Q1032 NOSIG RMK PP000=
SPZO Mar2013-231700Z VRB02KT 9999 SCT050 BKN100 19/06 Q1031 NOSIG RMK PP000=
SPZO Mar2013-231800Z /////KT 9999 FEW040TCU SCT060 BKN100 22/07 Q1029 NOSIG RMK PP000=
SPZO Mar2013-231900Z 28007KT 9999 SCT060 BKN100 21/03 Q1027 NOSIG RMK PP000=
SPZO Mar2013-232000Z 27010KT 9999 SCT080 23/05 Q1026 NOSIG RMK PP000=
SPZO Mar2013-232100Z 31010KT 9999 SCT080 22/03 Q1025 NOSIG RMK PP000=
SPZO Mar2013-232200Z 02011KT 9999 FEW060 BKN100 20/06 Q1025 NOSIG RMK PP000=
SPZO Mar2013-232300Z 10004KT 9999 VCSH FEW040TCU BKN100 18/06 Q1026 NOSIG RMK PP000=
SPZO Mar2013-240000Z /////KT 9999 -RA OVC040 14/08 Q1029 RMK PP006=
SPZO Mar2013-240100Z /////KT 9999 SCT036 BKN043 14/07 Q1030 RMK PP000=
SPZO Mar2013-240200Z /////KT 9999 SCT040 BKN050 11/07 Q1030 RMK PP000=
SPZO Mar2013-240300Z /////KT 9999 OVC040 13/07 Q1031 RMK PP000=
SPZO Mar2013-240400Z /////KT 9999 BKN040 SCT080 12/07 Q1031 RMK PP000=
SPZO Mar2013-240500Z /////KT 9999 BKN043 SCT080 11/07 Q1031 RMK PP000=
SPZO Mar2013-240600Z /////KT 9999 SCT043 SCT060 11/07 Q1030 RMK PP000=
SPZO Mar2013-240700Z /////KT 9999 SCT040 SCT080 10/07 Q1030 RMK PP000=
SPZO Mar2013-240800Z /////KT 9999 FEW050 SCT080 08/06 Q1029 RMK PP000=
SPZO Mar2013-240900Z /////KT 9999 SCT050 08/06 Q1029 RMK PP000=
SPZO Mar2013-241000Z /////KT 9999 FEW020 SCT050 08/05 Q1029 RMK PP000=
SPZO Mar2013-241100Z /////KT 9999 FEW036 BKN230 07/05 Q1029 NOSIG RMK PP000=
SPZO Mar2013-241200Z 00000KT 8000 FEW020 SCT040 BKN230 08/06 Q1030 NOSIG RMK BR PP000=
SPZO Mar2013-241300Z 30006KT 9999 SCT030 13/07 Q1031 NOSIG RMK PP000=
SPZO Mar2013-241400Z VRB03KT 9999 SCT040 16/06 Q1031 NOSIG RMK PP000=
SPZO Mar2013-241500Z 26006KT 9999 SCT050 17/06 Q1030 NOSIG RMK PP000=
SPZO Mar2013-241600Z 03008KT 9999 SCT060 19/03 Q1029 NOSIG RMK PP000=
SPZO Mar2013-241700Z 36005KT 9999 SCT060 20/02 Q1028 NOSIG RMK PP000=
SPZO Mar2013-241800Z 19005KT 9999 SCT050 21/02 Q1026 NOSIG RMK PP000=
SPZO Mar2013-241900Z 26008KT 9999 SCT050 22/02 Q1025 NOSIG RMK PP000=
SPZO Mar2013-242000Z 33008KT 9999 SCT046 21/01 Q1024 NOSIG RMK PP000=
SPZO Mar2013-242100Z 29011KT 9999 SCT046 21/02 Q1023 NOSIG RMK PP000=
SPZO Mar2013-242200Z 30013KT 9999 FEW040 SCT100 19/00 Q1024 NOSIG RMK TMAX 22.5 PP000=
SPZO Mar2013-242300Z /////KT 9999 FEW040 BKN230 17/01 Q1024 NOSIG RMK PP000=
SPZO Mar2013-250000Z /////KT 9999 SCT050 BKN100 15/00 Q1025 RMK PP000=
SPZO Mar2013-250100Z /////KT 9999 SCT050 BKN100 15/03 Q1026 RMK PP000=
SPZO Mar2013-250200Z /////KT 9999 SCT050 BKN100 13/04 Q1027 RMK PP000=
SPZO Mar2013-250300Z /////KT 9999 SCT050 BKN100 12/04 Q1028 RMK PP000=
SPZO Mar2013-250400Z /////KT 9999 SCT050 BKN100 09/05 Q1028 RMK PP000=
SPZO Mar2013-250500Z /////KT 9999 SCT050 BKN100 09/05 Q1028 RMK PP000=
SPZO Mar2013-250600Z /////KT 9999 SCT050 BKN100 09/05 Q1028 RMK PP000=
SPZO Mar2013-250700Z /////KT 9999 SCT050 BKN080 08/05 Q1027 RMK VIS 8000 E BR PP000=
SPZO Mar2013-250800Z /////KT 9999 FEW020 SCT050 BKN080 08/05 Q1027 RMK PP000=
SPZO Mar2013-250900Z /////KT 9999 FEW020 SCT050 BKN080 07/05 Q1027 RMK PP000=
SPZO Mar2013-251000Z /////KT 9999 FEW025 SCT050 BKN080 07/04 Q1027 RMK PP000=
SPZO Mar2013-251100Z /////KT 9999 FEW025 SCT050 BKN080 07/05 Q1028 NOSIG RMK PP000=
SPZO Mar2013-251200Z 00000KT 9999 FEW020 SCT050 BKN100 09/05 Q1029 NOSIG RMK VIS 9000 QUAD NE HZ PP000=
SPZO Mar2013-251300Z 09003KT 9999 FEW020 SCT100 BKN230 12/06 Q1030 NOSIG RMK VIS 9000 E HZ PP000=
SPZO Mar2013-251400Z 33004KT 9999 FEW020 SCT080 BKN230 15/05 Q1030 NOSIG RMK PP000=
SPZO Mar2013-251500Z 25006KT 9999 SCT060 SCT230 17/04 Q1029 NOSIG RMK PP000=
SPZO Mar2013-251600Z VRB04KT 9999 SCT050 SCT080 BKN230 19/05 Q1029 NOSIG RMK PP000=
SPZO Mar2013-251700Z 32008KT 9999 FEW040 SCT046 BKN080 20/02 Q1028 NOSIG RMK PP000=
SPZO Mar2013-251800Z 29007KT 9999 SCT050 SCT230 20/01 Q1026 NOSIG RMK PP000=
SPZO Mar2013-251900Z 30013KT 9999 FEW040 SCT050 BKN230 20/05 Q1025 NOSIG RMK PP000=
SPZO Mar2013-252000Z 30013KT 9999 SCT050 SCT230 21/03 Q1025 NOSIG RMK PP000=
SPZO Mar2013-252100Z 30010KT 9999 SCT050 SCT100 18/03 Q1025 NOSIG RMK PP000=
SPZO Mar2013-252200Z 29009KT 9999 SCT050 SCT100 19/05 Q1025 NOSIG RMK T.MAX 21.8 PP000=
SPZO Mar2013-252300Z 27008KT 9999 SCT050 SCT230 17/04 Q1026 NOSIG RMK PP000=
SPZO Mar2013-260000Z /////KT 9999 SCT040 16/03 Q1027 RMK PP000=
SPZO Mar2013-260100Z /////KT 9999 SCT040 14/05 Q1028 RMK PP000=
SPZO Mar2013-260200Z /////KT 9999 SCT040 13/05 Q1029 RMK PP000=
SPZO Mar2013-260300Z /////KT 9999 SKC 11/05 Q1030 RMK PP000=
SPZO Mar2013-260400Z /////KT 9999 SKC 10/05 Q1031 RMK PP000=
SPZO Mar2013-260500Z /////KT 9999 SKC 09/05 Q1030 RMK PP000=
SPZO Mar2013-260600Z /////KT 9999 SKC 09/05 Q1030 RMK PP000=
SPZO Mar2013-260700Z /////KT 9999 SCT040 SCT100 09/05 Q1030 RMK PP000=
SPZO Mar2013-260800Z /////KT 9999 SCT030 SCT100 09/05 Q1030 RMK PP000=
SPZO Mar2013-260900Z /////KT 9999 SCT030 SCT100 10/06 Q1030 RMK PP000=
SPZO Mar2013-261000Z /////KT 9999 SCT040 SCT100 10/06 Q1030 RMK PP000=
SPZO Mar2013-261100Z /////KT 9999 FEW025 SCT040 BKN100 10/06 Q1031 NOSIG RMK HZ E PP000=
SPZO Mar2013-261200Z 00000KT 9999 FEW030 SCT040 BKN080 11/06 Q1031 NOSIG RMK PP000=
SPZO Mar2013-261300Z 00000KT 9999 FEW030 SCT043 BKN100 12/07 Q1032 NOSIG RMK PP000=
SPZO Mar2013-261400Z 21001KT 9999 VCSH FEW036 SCT046 BKN100 15/07 Q1032 NOSIG RMK PP000=
SPZO Mar2013-261500Z 10001KT 9999 VCSH FEW040 SCT046 BKN100 15/06 Q1032 NOSIG RMK PP000=
SPZO Mar2013-261600Z 31003KT 9999 VCSH FEW040 SCT050 BKN100 17/06 Q1031 NOSIG RMK PP000=
SPZO Mar2013-261700Z 36004KT 9999 SCT050 SCT100 18/05 Q1030 NOSIG RMK PP000=
SPZO Mar2013-261800Z 01010KT 9999 SCT036TCU BKN080 17/06 Q1029 TEMPO VCSH RMK PP000=
SPZO Mar2013-261900Z 01011KT 9000 -RA FEW036 SCT040TCU BKN080 15/08 Q1029 NOSIG RMK PP016=
SPZO Mar2013-262000Z 33012KT 9999 VCSH FEW040 SCT046TCU BKN080 15/07 Q1028 RERA NOSIG RMK PPTRZ=
SPZO Mar2013-262100Z 22007KT 9999 VCSH FEW030 SCT046 BKN080 13/07 Q1029 TEMPO -RA RMK PP000=
SPZO Mar2013-262200Z 31005KT 9999 VCSH FEW036TCU SCT050 BKN080 14/08 Q1029 NOSIG RMK T MAX 18.3 -SHRA BTN 2135/2145 PP002=
SPZO Mar2013-262300Z 29009KT 9999 VCSH FEW036TCU SCT050 BKN080 12/06 Q1030 TEMPO -RA RMK PP000=
SPZO Mar2013-270000Z /////KT 9999 -RA FEW036 SCT043 OVC070 11/07 Q1031 RMK PP004=
SPZO Mar2013-270100Z /////KT 9999 FEW030 SCT043 OVC070 11/07 Q1032 RMK PPTRZ=
SPZO Mar2013-270200Z /////KT 9999 FEW030 SCT043 BKN070 11/07 Q1033 RMK PP000=
SPZO Mar2013-270300Z /////KT 9999 SCT043 BKN070 10/06 Q1034 RMK PP000=
SPZO Mar2013-270400Z /////KT 9999 SCT043 BKN070 10/06 Q1034 RMK PP000=
SPZO Mar2013-270500Z /////KT 9999 SCT043 BKN070 10/06 Q1033 RMK PP000=
SPZO Mar2013-270600Z /////KT 9999 SCT043 BKN070 10/06 Q1033 RMK PP000=
SPZO Mar2013-270700Z /////KT 9999 -RA FEW033 SCT040 BKN070 09/06 Q1032 RMK PP008=
SPZO Mar2013-270800Z /////KT 9999 DZ FEW033 SCT040 BKN070 09/06 Q1032 RMK PPTRZ=
SPZO Mar2013-270900Z /////KT 9999 FEW030 SCT040 BKN070 09/07 Q1032 RMK PP002=
SPZO Mar2013-271000Z /////KT 9999 FEW025 SCT040 BKN080 09/07 Q1032 RMK QUAD E BR PP000=
SPZO Mar2013-271100Z /////KT 9000 FEW015 SCT036 BKN080 09/07 Q1032 NOSIG RMK VIS 8000 QUAD W PP000=
SPZO Mar2013-271200Z VRB03KT 8000 SCT020 BKN100 09/06 Q1033 NOSIG RMK VIS 6000W BR PP000=
SPZO Mar2013-271300Z /////KT 9999 FEW015 BKN100 12/07 Q1034 NOSIG RMK HZ PP000=
SPZO Mar2013-271400Z 08005KT 9999 FEW020 BKN100 13/06 Q1034 NOSIG RMK PP000=
SPZO Mar2013-271500Z /////KT 9999 SCT030 BKN100 15/07 Q1033 NOSIG RMK PP000=
SPZO Mar2013-271600Z 13009KT 9999 FEW040TCU SCT060 BKN100 17/05 Q1032 NOSIG RMK PP000=
SPZO Mar2013-271700Z 11005KT 9999 VCSH FEW040TCU SCT060 BKN100 16/05 Q1032 NOSIG RMK PP000=
SPZO Mar2013-271800Z 32007KT 9000 -RA SCT036TCU BKN080 13/06 Q1031 NOSIG RMK PPTRZ=
SPZO Mar2013-271900Z 36006KT 9999 VCSH FEW036TCU SCT046 BKN080 14/05 Q1030 NOSIG RMK PP000=
SPZO Mar2013-272000Z 31007KT 9999 VCSH FEW036TCU SCT043 BKN080 15/06 Q1030 NOSIG RMK PP000=
SPZO Mar2013-272100Z 27008KT 9999 VCSH FEW036TCU SCT043 BKN080 13/06 Q1029 NOSIG RMK PP000=
SPZO Mar2013-272200Z 28006KT 9999 FEW033 SCT050 BKN080 14/06 Q1029 NOSIG RMK T MAX 17.3 PP000=
SPZO Mar2013-272300Z 30007KT 9999 SCT050 BKN080 12/06 Q1030 NOSIG RMK PP000=
SPZO Mar2013-280000Z /////KT 9999 SCT050 BKN100 12/06 Q1030 RMK PP000=
SPZO Mar2013-280100Z /////KT 9999 SCT050 BKN100 11/06 Q1031 RMK PP000=
SPZO Mar2013-280200Z /////KT 9999 SCT050 BKN100 10/06 Q1032 RMK PP000=
SPZO Mar2013-280300Z /////KT 9999 SCT050 BKN100 10/06 Q1033 RMK PP000=
SPZO Mar2013-280400Z /////KT 9999 SCT050 BKN100 10/06 Q1033 RMK PP000=
SPZO Mar2013-280500Z /////KT 9999 SCT050 BKN100 07/06 Q1033 RMK PP000=
SPZO Mar2013-280600Z /////KT 9999 SCT050 BKN100 10/06 Q1033 RMK PP000=
SPZO Mar2013-280700Z /////KT 9999 SCT050 BKN100 09/06 Q1032 RMK PP000=
SPZO Mar2013-280800Z /////KT 9999 SCT050 BKN100 10/06 Q1032 RMK PP000=
SPZO Mar2013-280900Z /////KT 9999 SCT050 BKN100 10/06 Q1032 RMK PP000=
SPZO Mar2013-281000Z /////KT 9999 SCT050 BKN100 09/06 Q1032 RMK PP000=
SPZO Mar2013-281100Z /////KT 9999 FEW010 SCT050 BKN100 09/05 Q1032 NOSIG RMK BR E PP000=
SPZO Mar2013-281200Z 00000KT 9999 FEW025 SCT040 BKN080 09/06 Q1033 NOSIG RMK VIS 9000 E BR PP000=
SPZO Mar2013-281300Z 00000KT 9999 FEW025 SCT040 BKN060 10/06 Q1034 TEMPO DZ RMK VIS 9000 E HZ PP000=
SPZO Mar2013-281400Z VRB01KT 9999 FEW020 SCT040 BKN060 13/06 Q1034 NOSIG RMK PP000=
SPZO Mar2013-281500Z 29010KT 9999 FEW030 SCT043 BKN080 14/06 Q1034 NOSIG RMK -RA QUAD N PP000=
SPZO Mar2013-281600Z 28012KT 9999 VCSH FEW033TCU SCT043 BKN080 14/06 Q1033 NOSIG RMK PP000=
SPZO Mar2013-281700Z 30006KT 9999 VCSH FEW036TCU SCT050 BKN080 18/06 Q1032 NOSIG RMK PP000=
SPZO Mar2013-281800Z /////KT 9000 VCSH FEW040TCU SCT060 BKN100 17/05 Q1031 NOSIG RMK PPTRZ=
SPZO Mar2013-281900Z 29006KT 9999 VCSH FEW040TCU SCT060 BKN100 14/07 Q1030 NOSIG RMK PP000=
SPZO Mar2013-282000Z 28004KT 7000 RA FEW030 SCT040 BKN080 12/08 Q1030 NOSIG RMK VIS 6000E PP024=
SPZO Mar2013-282100Z VRB01KT 9999 VCSH FEW030 SCT040 BKN080 13/07 Q1030 NOSIG RMK PP000=
SPZO Mar2013-282200Z VRB01KT 9999 VCSH FEW030 SCT040 BKN080 13/07 Q1030 NOSIG RMK PP000=
SPZO Mar2013-282300Z /////KT 9999 SCT040 12/08 Q1030 NOSIG RMK PP000=
SPZO Mar2013-290000Z /////KT 9999 SCT046 SCT080 12/08 Q1030 RMK PP000=
SPZO Mar2013-290100Z /////KT 9999 SCT046 SCT080 11/08 Q1031 RMK PP000=
SPZO Mar2013-290200Z /////KT 9999 FEW036 SCT046 BKN080 11/08 Q1032 RMK PP000=
SPZO Mar2013-290300Z /////KT 9999 FEW030 SCT040 BKN080 10/08 Q1033 RMK PP000=
SPZO Mar2013-290400Z /////KT 9999 FEW030 SCT040 BKN080 10/08 Q1033 RMK PP000=
SPZO Mar2013-290500Z /////KT 9999 SCT040 BKN080 11/08 Q1032 RMK PP000=
SPZO Mar2013-290600Z /////KT 9999 SCT040 BKN080 11/08 Q1032 RMK PP000=
SPZO Mar2013-290700Z /////KT 9999 SCT040 BKN080 11/07 Q1031 RMK PP000=
SPZO Mar2013-290800Z /////KT 9999 SCT040 BKN080 10/08 Q1031 RMK PP000=
SPZO Mar2013-290900Z /////KT 9999 SCT040 BKN080 10/08 Q1031 RMK PP000=
SPZO Mar2013-291000Z /////KT 9999 FEW020 SCT040 BKN070 09/06 Q1031 RMK PP000=
SPZO Mar2013-291100Z /////KT 9999 FEW015 SCT040 OVC070 09/06 Q1032 NOSIG RMK PP000=
SPZO Mar2013-291200Z 11006KT 9999 FEW010 SCT030 BKN100 09/06 Q1033 NOSIG RMK PP000=
SPZO Mar2013-291300Z 09006KT 9999 FEW010 SCT030 BKN100 11/06 Q1034 NOSIG RMK PP000=
SPZO Mar2013-291400Z VRB03KT 9999 SCT030 BKN100 13/05 Q1034 NOSIG RMK PP000=
SPZO Mar2013-291500Z VRB02KT 9999 SCT050 SCT230 16/06 Q1033 NOSIG RMK PP000=
SPZO Mar2013-291600Z 31004KT 9999 SCT050 BKN100 16/06 Q1033 NOSIG RMK PP000=
SPZO Mar2013-291700Z 27008KT 9999 SCT050 BKN100 18/05 Q1032 NOSIG RMK PP000=
SPZO Mar2013-291800Z 33003KT 9999 VCSH FEW040TCU SCT046 BKN080 17/08 Q1031 NOSIG RMK PP000=
SPZO Mar2013-291900Z 36007KT 9999 VCSH FEW036TCU SCT046 BKN080 15/07 Q1030 NOSIG RMK PP000=
SPZO Mar2013-292000Z 01004KT 9999 DZ VCSH FEW030 SCT046 BKN080 14/07 Q1030 NOSIG RMK PPTRZ=
SPZO Mar2013-292100Z 11007KT 9999 VCSH FEW036 SCT046 BKN080 15/09 Q1029 NOSIG RMK PP000=
SPZO Mar2013-292200Z 10006KT 9999 VCSH FEW030 SCT046 BKN080 13/07 Q1029 NOSIG RMK VIS 9000 QUAD NW RA TMAX 18.6 PP000=
SPZO Mar2013-292300Z 28007KT 9999 FEW040 SCT050 BKN100 12/08 Q1030 NOSIG RMK PP000=
SPZO Mar2013-300000Z /////KT 9999 SCT050 BKN100 11/08 Q1031 RMK PP000=
SPZO Mar2013-300100Z /////KT 9999 SCT050 BKN100 10/07 Q1032 RMK PP000=
SPZO Mar2013-300200Z /////KT 9999 SCT050 BKN100 10/07 Q1033 RMK PP000=
SPZO Mar2013-300300Z /////KT 9999 SCT050 BKN100 09/07 Q1033 RMK PP000=
SPZO Mar2013-300400Z /////KT 9999 SCT050 BKN100 10/07 Q1033 RMK PP000=
SPZO Mar2013-300500Z /////KT 9999 SCT040 BKN080 09/07 Q1033 RMK PP000=
SPZO Mar2013-300600Z /////KT 9999 SCT040 BKN080 10/07 Q1032 RMK PP000=
SPZO Mar2013-300700Z /////KT 9999 SCT040 BKN080 09/07 Q1032 RMK PP000=
SPZO Mar2013-300800Z /////KT 9999 SCT040 BKN080 09/07 Q1032 RMK PP000=
SPZO Mar2013-300900Z /////KT 9999 SCT040 BKN080 09/07 Q1032 RMK VIS 9000 NE BR PP000=
SPZO Mar2013-301000Z /////KT 9999 FEW020 SCT040 BKN070 09/07 Q1032 RMK VIS 9000 NE BR PP000=
SPZO Mar2013-301100Z /////KT 9999 FEW015 SCT033 BKN050 09/07 Q1033 TEMPO 9000 -RA BKN036 OVC060 RMK CLNG BLW 1200M PP000=
SPZO Mar2013-301200Z VRB03KT 9999 FEW015 SCT036 OVC060 10/08 Q1033 NOSIG RMK VIS 9000 QUAD SW PP000=
SPZO Mar2013-301300Z 00000KT 9999 FEW015 SCT036 BKN060 11/07 Q1034 RMK VIS 9000 QUAD NE PP000=
SPZO Mar2013-301400Z VRB02KT 9999 FEW015 SCT036 BKN070 14/07 Q1034 NOSIG RMK VIS 9000 QUAD NE PP000=
SPZO Mar2013-301500Z VRB04KT 9999 FEW025 SCT040 BKN070 17/07 Q1034 NOSIG RMK PP000=
SPZO Mar2013-301600Z VRB06KT 9999 SCT040 SCT060 17/08 Q1033 NOSIG RMK PP000=
SPZO Mar2013-301700Z VRB04KT 9999 SCT050 SCT100 18/06 Q1031 NOSIG RMK PP000=
SPZO Mar2013-301800Z 20005KT 9999 SCT050 SCT230 20/05 Q1030 NOSIG RMK PP000=
SPZO Mar2013-301900Z 25010KT 9999 FEW043 SCT050 20/05 Q1029 NOSIG RMK PP000=
SPZO Mar2013-302000Z 25011KT 9999 FEW040 SCT050 20/04 Q1028 NOSIG RMK PP000=
SPZO Mar2013-302100Z 29010KT 9999 SCT050 21/04 Q1027 NOSIG RMK PP000=
SPZO Mar2013-302200Z 31011KT 9999 SCT050 SCT230 20/05 Q1027 NOSIG RMK T.MAX 21.7 PP000=
SPZO Mar2013-302300Z 29006KT 9999 FEW050 SCT230 17/07 Q1028 NOSIG RMK PP000=
SPZO Mar2013-310000Z /////KT 9999 SCT050 14/08 Q1030 RMK PP000=
SPZO Mar2013-310100Z /////KT 9999 SKC 13/07 Q1031 RMK PP000=
SPZO Mar2013-310200Z /////KT 9999 SKC 12/07 Q1032 RMK PP000=
SPZO Mar2013-310300Z /////KT 9999 SKC 12/07 Q1033 RMK PP000=
SPZO Mar2013-310400Z /////KT 9999 SKC 10/07 Q1033 RMK PP000=
SPZO Mar2013-310500Z /////KT 9999 SKC 09/06 Q1032 RMK PP000=
SPZO Mar2013-310600Z /////KT 9999 SCT033 BKN100 10/07 Q1032 RMK PP000=
SPZO Mar2013-310700Z /////KT 9999 SCT040 BKN100 10/07 Q1032 RMK PP000=
SPZO Mar2013-310800Z /////KT 9999 SCT030 BKN100 09/06 Q1031 RMK PP000=
SPZO Mar2013-310900Z /////KT 9999 SCT040 BKN100 09/06 Q1031 RMK PP000=
SPZO Mar2013-311000Z /////KT 9999 FEW020 SCT040 BKN100 10/06 Q1032 RMK PP000=
SPZO Mar2013-311100Z /////KT 9999 FEW030 SCT040 BKN100 10/07 Q1033 NOSIG RMK HZ PP000=
SPZO Mar2013-311200Z 12002KT 9999 FEW033 SCT040 BKN080 10/07 Q1033 NOSIG RMK PP000=
SPZO Mar2013-311300Z 08005KT 9999 FEW033 SCT043 BKN080 11/07 Q1034 NOSIG RMK PP000=
SPZO Mar2013-311400Z 09004KT 9999 FEW040 SCT050 BKN100 12/07 Q1034 NOSIG RMK PP000=
SPZO Mar2013-311500Z 02003KT 9999 SCT050 16/08 Q1034 NOSIG RMK PP000=
SPZO Mar2013-311600Z 05006KT 9999 SCT050 19/05 Q1033 NOSIG RMK PP000=
SPZO Mar2013-311700Z 36002KT 9999 SCT050 20/04 Q1031 NOSIG RMK PP000=
SPZO Mar2013-311800Z 02005KT 9999 SCT050 20/05 Q1030 NOSIG RMK PP000=
SPZO Mar2013-311900Z 31006KT 9999 SCT050 21/02 Q1029 NOSIG RMK PP000=
SPZO Mar2013-312000Z 02013KT 9999 FEW050 SCT080 20/06 Q1028 NOSIG RMK PP000=
SPZO Mar2013-312100Z 36010KT 9999 SCT060 20/04 Q1027 NOSIG RMK PP000=
SPZO Mar2013-312200Z 01008KT 9999 SCT060 19/04 Q1028 NOSIG RMK PP000=
SPZO Mar2013-312300Z /////KT 9999 FEW040 16/06 Q1029 NOSIG RMK PP000=
