SPZO Nov2005-010000Z VRB04KT 9999 SCT050 SCT080 14/05 Q1030 RMK PP000=
SPZO Nov2005-010100Z 00000KT 9999 BKN050 SCT080 14/05 Q1031 RMK PP000=
SPZO Nov2005-010200Z 00000KT 9999 BKN050 13/04 Q1032 RMK PP000=
SPZO Nov2005-010300Z 00000KT 9999 BKN050 12/05 Q1033 RMK PP000=
SPZO Nov2005-010400Z 00000KT 9999 BKN050 12/04 Q1032 RMK PP000=
SPZO Nov2005-010500Z 00000KT 9999 BKN050 11/05 Q1032 RMK PP000=
SPZO Nov2005-010600Z 00000KT 9999 BKN050 11/04 Q1031 RMK PP000=
SPZO Nov2005-010700Z 00000KT 9999 BKN050 09/04 Q1031 RMK PP000=
SPZO Nov2005-010800Z 00000KT 9999 BKN050 07/04 Q1030 RMK PP000=
SPZO Nov2005-010900Z 00000KT 9999 BKN050 07/03 Q1031 RMK PP000=
SPZO Nov2005-011000Z 00000KT 9999 SCT050 07/03 Q1031 RMK PP000=
SPZO Nov2005-011100Z 00000KT 9999 SCT050 08/04 Q1032 RMK PP000=
SPZO Nov2005-011200Z 00000KT 9999 SCT037 BKN046 10/05 Q1033 TEMPO FEW030 SCT037 BKN046 RMK PP000=
SPZO Nov2005-011300Z 00000KT 9999 FEW030 SCT037 BKN046 11/04 Q1034 TEMPO SCT037 BKN046 RMK PP000=
SPZO Nov2005-011400Z 00000KT 9999 SCT040 BKN050 13/05 Q1034 NOSIG RMK PP000=
SPZO Nov2005-011500Z 04007KT 9999 BKN050 16/03 Q1033 NOSIG RMK PP000=
SPZO Nov2005-011600Z VRB02KT 9999 BKN050 18/02 Q1032 NOSIG RMK PP000=
SPZO Nov2005-011700Z VRB04KT 9999 SCT050 20/02 Q1030 NOSIG RMK PP000=
SPZO Nov2005-011800Z 22006KT 120V300 9999 SCT050 24/02 Q1028 NOSIG RMK PP000 RWY10 17006KT 130V270=
SPZO Nov2005-011900Z VRB05KT 9999 FEW040TCU SCT050 23/M01 Q1026 NOSIG RMK PP000 RWY10 15006KT 100V190=
SPZO Nov2005-012000Z 01015KT 340V080 9999 SCT047 SCT200 21/03 Q1026 NOSIG RMK PP000 RWY10 01014KT 270V080=
SPZO Nov2005-012100Z 01015KT 340V080 9999 FEW043 SCT060 20/03 Q1026 NOSIG RMK PP000 RWY10 05020KT 330V110=
SPZO Nov2005-012200Z 01011KT 9999 SCT050 SCT200 18/02 Q1027 NOSIG RMK PP000 RWY10 03020KT TMAX 24.2=
SPZO Nov2005-012300Z 01006KT 9999 FEW200 17/01 Q1027 NOSIG RMK PP000=
SPZO Nov2005-020000Z 03006KT 9999 SKC 15/03 Q1029 RMK PP000=
SPZO Nov2005-020100Z 10005KT 9999 SKC 13/04 Q1030 RMK PP000=
SPZO Nov2005-020200Z 09006KT 9999 SCT050 12/04 Q1032 RMK PP000=
SPZO Nov2005-020300Z 07004KT 9999 BKN040 13/04 Q1030 RMK PP000=
SPZO Nov2005-020400Z 27008KT 9999 BKN040 12/02 Q1034 RMK PP000=
SPZO Nov2005-020500Z 26004KT 9999 SCT040 11/02 Q1034 RMK PP000=
SPZO Nov2005-020600Z 00000KT 9999 SKC 11/02 Q1032 RMK PP000=
SPZO Nov2005-020700Z 00000KT 9999 SKC 09/02 Q1031 RMK PP000=
SPZO Nov2005-020800Z 00000KT 9999 SKC 08/01 Q1032 RMK PP000=
SPZO Nov2005-020900Z 00000KT 9999 SKC 07/01 Q1032 RMK PP000=
SPZO Nov2005-021000Z 00000KT 9999 SKC 07/01 Q1033 RMK PP000=
SPZO Nov2005-021100Z 00000KT 9000 SKC 07/01 Q1034 RMK PP000=
SPZO Nov2005-021200Z 00000KT 9999 SKC 13/02 Q1034 NOSIG RMK PP000=
SPZO Nov2005-021300Z 00000KT 9999 SKC 14/02 Q1034 NOSIG RMK PP000=
SPZO Nov2005-021400Z VRB03KT 9999 FEW050 17/01 Q1034 NOSIG RMK PP000=
SPZO Nov2005-021500Z VRB03KT 9999 FEW050 19/02 Q1033 NOSIG RMK PP000=
SPZO Nov2005-021600Z 09004KT 9999 SCT050 21/M00 Q1031 NOSIG RMK PP000 RWY10 21009KT=
SPZO Nov2005-021700Z 09010KT 9999 SCT050 23/M02 Q1030 NOSIG RMK PP000 WIND RWY10 33014KT=
SPZO Nov2005-021800Z 25008KT 110V220 9999 FEW043TCU SCT053 24/M03 Q1029 NOSIG RMK PP000 RWY10 28012KT 220V020=
SPZO Nov2005-021900Z 36013KT 340V090 9000 VCRA FEW040TCU SCT050 BKN200 22/M07 Q1027 NOSIG RMK PP000 RWY10 02020KT 330V080=
SPZO Nov2005-022000Z 01007KT 340V080 9999 FEW040TCU SCT053 BKN200 21/M04 Q1027 NOSIG RMK PP000 RWY10 33011KT 270V050=
SPZO Nov2005-022100Z 35010KT 340V090 9999 SCT050 BKN150 20/M02 Q1027 NOSIG RMK PP000 RWY10 30007KT 250V020=
SPZO Nov2005-022200Z 35004KT 270V010 9999 SCT070 SCT200 18/M00 Q1028 NOSIG RMK PP000 RWY10 36016KT 310V090 TMAX 24.4=
SPZO Nov2005-022300Z 00000KT 9999 FEW200 16/03 Q1029 NOSIG RMK PP000=
SPZO Nov2005-030000Z 10009KT 9999 FEW050 SCT200 14/02 Q1031 RMK PP000=
SPZO Nov2005-030100Z 00000KT 9999 SCT060 14/03 Q1032 RMK PP000=
SPZO Nov2005-030200Z 22006KT 9999 SCT050 14/01 Q1033 RMK PP000=
SPZO Nov2005-030300Z VRB02KT 9999 SCT050 13/01 Q1034 RMK PP000=
SPZO Nov2005-030400Z VRB03KT 9999 FEW050 10/01 Q1034 RMK PP000=
SPZO Nov2005-030500Z 28004KT 9999 SCT050 09/01 Q1033 RMK PP000=
SPZO Nov2005-030600Z 00000KT 9999 FEW040 SCT050 08/01 Q1033 RMK PP000=
SPZO Nov2005-030700Z 00000KT 9999 FEW040 07/01 Q1032 RMK PP000=
SPZO Nov2005-030800Z 00000KT 9999 FEW040 07/01 Q1032 RMK PP000=
SPZO Nov2005-030900Z 00000KT 9999 FEW040 SCT200 06/01 Q1033 RMK PP000=
SPZO Nov2005-031000Z VRB02KT 9999 FEW040 SCT200 05/00 Q1034 RMK PP000=
SPZO Nov2005-031100Z 00000KT 9999 FEW100 SCT200 07/02 Q1035 RMK PP000=
SPZO Nov2005-031200Z 00000KT 9999 FEW200 12/02 Q1035 NOSIG RMK PP000=
SPZO Nov2005-031300Z VRB02KT 9999 SKC 14/03 Q1035 NOSIG RMK PP000=
SPZO Nov2005-031400Z VRB03KT 9999 NSC 16/02 Q1035 NOSIG RMK PP000=
SPZO Nov2005-031500Z VRB03KT 190V340 9999 FEW050 19/02 Q1034 NOSIG RMK PP000 RWY10 VRB03KT=
SPZO Nov2005-031600Z 26004KT 190V350 9999 SCT050 22/M05 Q1033 NOSIG RMK PP000 RWY10 26012KT 290V310=
SPZO Nov2005-031700Z VRB03KT 9999 SCT050 23/M03 Q1031 NOSIG RMK PP000 RWY10 VRB03KT=
SPZO Nov2005-031800Z 36010KT 340V080 9999 VCSH FEW046TCU SCT050 21/M10 Q1030 NOSIG RMK VCSH CUAD W PP000=
SPZO Nov2005-031900Z 36011KT 340V080 9999 SCT043 23/M07 Q1029 NOSIG RMK PP000 WIND RWY10 03018KT 300V120=
SPZO Nov2005-032000Z 01012KT 340V080 9999 FEW043 SCT230 21/M06 Q1028 NOSIG RMK PP000=
SPZO Nov2005-032100Z 03009KT 340V090 9999 FEW043 SCT230 20/M07 Q1028 NOSIG RMK PP000=
SPZO Nov2005-032200Z 01009KT 340V080 9999 FEW043 SCT230 19/M03 Q1029 NOSIG RMK WIND RWY10 VRB08KT PP000 TMAX 23.9=
SPZO Nov2005-032300Z 11008KT 090V170 9999 SCT043 SCT100 17/M01 Q1030 NOSIG RMK PP000 WIND RWY10 VRB04KT=
SPZO Nov2005-040000Z 01011KT 270V080 9999 FEW043 SCT100 15/02 Q1031 RMK PP000=
SPZO Nov2005-040100Z 01007KT 340V080 9999 FEW050 SCT200 15/01 Q1032 RMK PP000=
SPZO Nov2005-040200Z 03008KT 340V100 9999 FEW050 SCT080 14/01 Q1034 RMK PP000=
SPZO Nov2005-040300Z 08007KT 9999 FEW040 SCT080 13/02 Q1034 RMK PP000=
SPZO Nov2005-040400Z VRB02KT 9999 FEW040 SCT070 13/02 Q1034 RMK PP000=
SPZO Nov2005-040500Z VRB02KT 9999 SCT070 12/03 Q1034 RMK PP000=
SPZO Nov2005-040600Z VRB02KT 9999 FEW037 SCT070 12/03 Q1033 RMK PP000=
SPZO Nov2005-040700Z VRB03KT 9999 SCT040 10/02 Q1033 RMK PP000=
SPZO Nov2005-040800Z 00000KT 9999 FEW040 09/02 Q1033 RMK PP000=
SPZO Nov2005-040900Z VRB02KT 9999 FEW040 SCT200 07/02 Q1033 RMK PP000=
SPZO Nov2005-041000Z 00000KT 9999 SCT200 07/02 Q1033 RMK PP000=
SPZO Nov2005-041100Z 00000KT 9999 FEW230 07/02 Q1034 RMK PP000=
SPZO Nov2005-041200Z 00000KT 9999 FEW230 12/02 Q1034 NOSIG RMK PP000=
SPZO Nov2005-041300Z 00000KT 9999 SCT230 14/03 Q1034 NOSIG RMK PP000=
SPZO Nov2005-041400Z VRB03KT 9999 FEW050 17/02 Q1034 NOSIG RMK PP000=
SPZO Nov2005-041500Z VRB02KT 9999 FEW050 18/M01 Q1033 NOSIG RMK PP000=
SPZO Nov2005-041600Z VRB03KT 9999 FEW050 21/M03 Q1031 NOSIG RMK PP000 WIND RWY10 VRB10KT=
SPZO Nov2005-041700Z 17007KT 090V260 9999 FEW050 22/M02 Q1029 NOSIG RMK PP000 WIND RWY10 09014KT 050V150=
SPZO Nov2005-041800Z 36010KT 280V080 9999 FEW050 24/M12 Q1028 NOSIG RMK PP000=
SPZO Nov2005-041900Z 02013G23KT 350V080 9999 FEW050 24/M13 Q1027 NOSIG RMK PP000=
SPZO Nov2005-042000Z 04015KT 360V080 9999 FEW050 23/M12 Q1027 NOSIG RMK PP000=
SPZO Nov2005-042100Z 04014KT 360V080 9999 FEW050 21/M08 Q1027 NOSIG RMK PP000=
SPZO Nov2005-042200Z 02015G27KT 350V080 9999 FEW040 SCT200 18/M10 Q1027 NOSIG RMK PP000 T.MAX 23.9=
SPZO Nov2005-042300Z 01011KT 340V080 9999 FEW050 17/M12 Q1028 NOSIG RMK PP000=
SPZO Nov2005-050000Z 35003KT 9999 SCT050 15/M07 Q1029 RMK PP000=
SPZO Nov2005-050100Z 12005KT 090V170 9999 SCT050 13/M05 Q1030 RMK PP000=
SPZO Nov2005-050200Z VRB02KT 9999 FEW050 12/M02 Q1031 RMK PP000=
SPZO Nov2005-050300Z 00000KT 9999 FEW050 09/M03 Q1032 RMK PP000=
SPZO Nov2005-050400Z 00000KT 9999 SKC 08/M02 Q1032 RMK PP000=
SPZO Nov2005-050500Z 00000KT 9999 SKC 06/M02 Q1031 RMK PP000=
SPZO Nov2005-050600Z 00000KT 9999 SKC 07/M02 Q1031 RMK PP000=
SPZO Nov2005-050700Z 00000KT 9999 SKC 06/M02 Q1031 RMK PP000=
SPZO Nov2005-050800Z 00000KT 9999 SKC 05/M02 Q1031 RMK PP000=
SPZO Nov2005-050900Z 00000KT 9999 SKC 05/M02 Q1031 RMK PP000=
SPZO Nov2005-051000Z 00000KT 9999 SKC 04/M02 Q1031 RMK PP000=
SPZO Nov2005-051100Z 00000KT 9999 SKC 06/M01 Q1032 RMK PP000=
SPZO Nov2005-051200Z 00000KT 9999 SKC 11/M00 Q1032 NOSG RMK PP000=
SPZO Nov2005-051300Z 00000KT 9999 SKC 12/M01 Q1032 NOSIG RMK PP000=
SPZO Nov2005-051400Z 00000KT 9999 FEW050 15/M00 Q1031 NOSIG RMK PP000=
SPZO Nov2005-051500Z VRB03KT 9999 FEW050 19/M03 Q1030 NOSIG RMK PP000=
SPZO Nov2005-051600Z VRB05KT 9999 FEW050 SCT230 21/M03 Q1029 NOSIG RMK PP000=
SPZO Nov2005-051700Z 34010KT 270V020 9999 FEW050 SCT230 22/M10 Q1028 WS LDG RWY28 NOSIG RMK PP000=
SPZO Nov2005-051800Z VRB08KT 9999 FEW050 SCT230 23/M09 Q1027 WS LDG RWY28 NOSIG RMK PP000 WIND RWY10 06017G27KT 340V100=
SPZO Nov2005-051900Z 01012KT 340V080 9999 FEW050 SCT200 22/M09 Q1026 WS ALLRWY NOSIG RMK PP000 WIND RWY10 04017KT MAX28=
SPZO Nov2005-052000Z 01011KT 9999 FEW050 SCT200 22/M08 Q1025 WS ALLRWY NOSIG RMK PP000 WIND RWY10 06016G26KT=
SPZO Nov2005-052100Z 36009KT 270V080 9999 SCT050 22/M04 Q1024 NOSIG RMK PP000 RWY10 03012G25KT=
SPZO Nov2005-052200Z 02015KT 350V080 9999 VCSH FEW046TCU SCT050 17/00 Q1025 NOSIG RMK VCSH CUAD W PP000 TMAX 23.0=
SPZO Nov2005-052300Z 01015KT 340V080 9999 FEW046TCU SCT060 15/01 Q1027 NOSIG RMK PP000=
SPZO Nov2005-060000Z 27008KT 250V350 9999 FEW040 SCT080 14/00 Q1028 RMK PP000=
SPZO Nov2005-060100Z 36006KT 9999 SCT060 14/M02 Q1029 RMK PP000=
SPZO Nov2005-060200Z VRB02KT 9999 SCT100 13/M01 Q1030 RMK PP000=
SPZO Nov2005-060300Z 07005KT 9999 FEW040 SCT080 12/M00 Q1030 RMK PP000=
SPZO Nov2005-060400Z 10004KT 9999 FEW100 12/00 Q1030 RMK PP000=
SPZO Nov2005-060500Z VRB02KT 9999 SKC 10/00 Q1030 RMK PP000=
SPZO Nov2005-060600Z VRB03KT 9999 SKC 07/M01 Q1030 RMK PP000=
SPZO Nov2005-060700Z 00000KT 9999 SKC 08/00 Q1030 RMK PP000=
SPZO Nov2005-060800Z 00000KT 9999 FEW050 08/00 Q1030 RMK PP000=
SPZO Nov2005-060900Z 00000KT 9999 SCT050 07/00 Q1030 RMK PP000=
SPZO Nov2005-061000Z 00000KT 9999 FEW040 SCT080 07/00 Q1030 RMK PP000=
SPZO Nov2005-061100Z 00000KT 9999 FEW040 SCT200 07/00 Q1031 RMK PP000=
SPZO Nov2005-061200Z 00000KT 9999 SCT060 SCT100 10/01 Q1032 NOSIG RMK PP000=
SPZO Nov2005-061300Z VRB04KT 9999 SCT060 SCT100 13/02 Q1031 NOSIG RMK PP000=
SPZO Nov2005-061400Z VRB04KT 9999 BKN050 15/01 Q1031 NOSIG RMK PP000=
SPZO Nov2005-061500Z 00000KT 9999 BKN050 17/01 Q1030 NOSIG RMK PP000=
SPZO Nov2005-061600Z 00000KT 9999 BKN050 18/M00 Q1029 NOSIG RMK PP000=
SPZO Nov2005-061700Z VRB02KT 9999 BKN050 21/M00 Q1027 NOSIG RMK PP000 WIND RWY10 VRB04KT=
SPZO Nov2005-061800Z 35010KT 270V020 9999 VCSH FEW040TCU OVC050 19/01 Q1027 NOSIG RMK VCSH CUAD NE PP000 WIND RWY10 VRB15KT=
SPZO Nov2005-061900Z 06010KT 360V080 9999 VCSH FEW040TCU BKN050 OVC100 18/02 Q1026 NOSIG RMK VCSH CUAD NE PP000=
SPZO Nov2005-062000Z VRB07KT 9999 SCT043TCU BKN060 17/02 Q1027 TEMPO VCSH RMK PP000 RWY10 01014KT=
SPZO Nov2005-062100Z 10007KT 9999 VCSH FEW046TCU BKN050 OVC080 16/02 Q1027 TEMPO -RA RMK VCSH CUAD W/N PP000=
SPZO Nov2005-062200Z 24008KT 180V260 9000 -RA FEW046TCU BKN050 OVC080 13/05 Q1028 NOSIG RMK WIND RWY10 VRB02KT PPTRZ TMAX 20.8=
SPZO Nov2005-062300Z 21005KT 180V260 9999 FEW046 SCT050 BKN080 13/05 Q1028 RERA NOSIG RMK PPTRZ=
SPZO Nov2005-070000Z 28008KT 250V350 9999 SCT040 SCT080 12/05 Q1029 RMK PP000=
SPZO Nov2005-070100Z 28006KT 270V350 9999 SCT040 SCT100 12/05 Q1029 RMK PP000=
SPZO Nov2005-070200Z 28001KT 9999 SCT040 BKN100 12/06 Q1030 RMK PP000=
SPZO Nov2005-070300Z 28001KT 9999 FEW040 SCT100 12/06 Q1031 RMK PP000=
SPZO Nov2005-070400Z 00000KT 9999 FEW040 BKN080 12/06 Q1031 RMK PP000=
SPZO Nov2005-070500Z 27007KT 9999 SCT040 SCT080 12/05 Q1030 RMK PP000=
SPZO Nov2005-070600Z 00000KT 9999 SCT040 SCT070 10/04 Q1030 RMK PP000=
SPZO Nov2005-070700Z 28004KT 9999 SCT040 SCT070 12/04 Q1029 RMK PP000=
SPZO Nov2005-070800Z 30008KT 9999 BKN040 SCT070 11/05 Q1029 RMK PP000=
SPZO Nov2005-070900Z 28004KT 9999 SCT040 SCT060 11/05 Q1029 RMK PP000=
SPZO Nov2005-071000Z VRB03KT 9999 BKN040 SCT050 11/05 Q1030 RMK PP000=
SPZO Nov2005-071100Z 27003KT 9999 BKN043 SCT050 11/05 Q1030 RMK PP000=
SPZO Nov2005-071200Z 27008KT 190V290 9999 FEW040 SCT050 BKN100 12/05 Q1031 NOSIG RMK PP000 RWY10 30011KT 250V350=
SPZO Nov2005-071300Z VRB02KT 9999 SCT040 BKN050 13/03 Q1032 NOSIG RMK PP000 RWY10 36011KT 290V080=
SPZO Nov2005-071400Z VRB03KT 9999 SCT040 BKN050 14/03 Q1032 NOSIG RMK PP000 RWY10 03011KT 310V080=
SPZO Nov2005-071500Z 18005KT 100V260 9999 SCT040 BKN050 14/03 Q1032 NOSIG RMK PP000 RWY10 01008KT 280V080=
SPZO Nov2005-071600Z VRB03KT 9999 SCT040 BKN050 15/03 Q1032 NOSIG RMK PP000 RWY10 02014KT 310V080=
SPZO Nov2005-071700Z VRB03KT 9999 FEW037TCU SCT047 BKN060 15/03 Q1031 NOSIG RMK PP000 RWY10 02018KT 330V080=
SPZO Nov2005-071800Z 36009KT 270V080 9999 SCT043 BKN050 17/03 Q1029 NOSIG RMK PP000 WIND RWY10 VRB12KT=
SPZO Nov2005-071900Z VRB07KT 9999 FEW043 SCT050 19/02 Q1028 NOSIG RMK PP000 WIND RWY10 VRB09KT=
SPZO Nov2005-072000Z 28007KT 180V350 9999 FEW040 SCT050 18/02 Q1026 NOSIG RMK PP000=
SPZO Nov2005-072100Z 27004KT 180V350 9999 FEW040 SCT050 18/04 Q1025 NOSIG RMK PP000=
SPZO Nov2005-072200Z 28010KT 250V350 9999 SCT040 SCT050 17/03 Q1026 NOSIG RMK PP000 TMAX 19.7=
SPZO Nov2005-072300Z 28010KT 260V350 9999 BKN050 SCT100 15/05 Q1027 NOSIG RMK PP000=
SPZO Nov2005-080000Z 27011KT 9999 FEW040 SCT150 14/05 Q1029 RMK PP000=
SPZO Nov2005-080100Z 33005KT 9999 BKN040 14/05 Q1029 RMK PP000=
SPZO Nov2005-080200Z 36005KT 9999 BKN040 14/03 Q1030 RMK PP000=
SPZO Nov2005-080300Z 26007KT 9999 SCT030 BKN040 13/05 Q1031 RMK PP000=
SPZO Nov2005-080400Z 13004KT 9999 SCT030 BKN040 13/05 Q1031 RMK PP000=
SPZO Nov2005-080500Z 36006KT 9999 FEW025 BKN040 13/03 Q1030 RMK PP000=
SPZO Nov2005-080600Z 10010KT 9999 FEW025 BKN043 11/04 Q1031 RESH RMK PPTRZ SH BTN 0510/0525=
SPZO Nov2005-080700Z 00000KT 9999 SCT033 BKN043 11/08 Q1030 RMK PP002=
SPZO Nov2005-080800Z 00000KT 9999 SCT033 BKN043 10/08 Q1030 RMK PP000=
SPZO Nov2005-080900Z 00000KT 9999 SCT030 BKN040 09/04 Q1030 RMK PP000=
SPZO Nov2005-081000Z 00000KT 9999 -DZ FEW025 SCT040 BKN050 08/04 Q1031 RMK PPTRZ=
SPZO Nov2005-081100Z VRB02KT 8000 DZ FEW025 SCT037 BKN047 08/05 Q1032 RMK PP004 CLNG BLW 1200M=
SPZO Nov2005-081200Z 10002KT 7000 -RA VCSH FEW025 SCT036 OVC046 08/06 Q1033 NOSIG RMK PP008 CLNG BLW 1200M=
SPZO Nov2005-081300Z 07004KT 7000 RA VCSH FEW025 SCT036 OVC046 08/06 Q1034 NOSIG RMK PP014 CLNG BLW 1200M=
SPZO Nov2005-081400Z 10005KT 080V170 7000 RA VCSH FEW025 SCT036 OVC046 09/06 Q1034 NOSIG RMK PP012 CLNG BLW 1200M=
SPZO Nov2005-081500Z VRB02KT 9000 -DZ VCSH FEW025 SCT036 OVC080 10/05 Q1034 NOSIG RMK PP006 VCSH CUAD W=
SPZO Nov2005-081600Z VRB02KT 9999 SCT033 SCT043 OVC080 12/05 Q1033 REDZ NOSIG RMK PPTRZ=
SPZO Nov2005-081700Z VRB03KT 9999 SCT033 SCT043 OVC080 13/06 Q1032 NOSIG RMK PP000 WIND RWY10 VRB04KT=
SPZO Nov2005-081800Z 08008KT 360V100 9999 VCSH FEW033 SCT040 BKN080 13/07 Q1031 NOSIG RMK PP000=
SPZO Nov2005-081900Z VRB02KT 9999 FEW033 SCT040 BKN060 15/04 Q1029 NOSIG RMK PP000=
SPZO Nov2005-082000Z VRB05KT 9999 SCT043 BKN100 16/05 Q1028 NOSIG RMK WIND RWY10 28017KT 250V350 PP000=
SPZO Nov2005-082100Z 21006KT 160V280 9999 VCSH FEW040 SCT047TCU 17/05 Q1027 NOSIG RMK PP000=
SPZO Nov2005-082200Z 10013KT 090V170 9999 VCSH SCT043TCU BKN047 13/07 Q1028 NOSIG RMK PP000 TMAX 18.7=
SPZO Nov2005-082300Z 14006KT 090V180 9999 FEW033TCU BKN050 12/06 Q1029 NOSIG RMK PP000=
SPZO Nov2005-090000Z 27005KT 180V290 9999 OVC050 12/06 Q1030 RMK PP000=
SPZO Nov2005-090100Z 26007KT 180V290 9999 OVC050 12/05 Q1032 RMK PP000=
SPZO Nov2005-090200Z 28006KT 250V350 9999 OVC040 12/05 Q1033 RMK PP000=
SPZO Nov2005-090300Z 25005KT 180V290 9999 OVC040 11/04 Q1033 RMK PP000=
SPZO Nov2005-090400Z VRB02KT 9999 OVC043 10/05 Q1033 RMK PP000=
SPZO Nov2005-090500Z 20002KT 9999 OVC043 10/05 Q1033 RMK PP000=
SPZO Nov2005-090600Z 26004KT 9999 OVC043 10/04 Q1032 RMK PP000=
SPZO Nov2005-090700Z 28004KT 250V350 9999 OVC043 10/04 Q1031 RMK PP000=
SPZO Nov2005-090800Z 27005KT 9999 OVC043 10/05 Q1031 RMK PP000=
SPZO Nov2005-090900Z 27006KT 9999 OVC043 10/05 Q1031 RMK PP000=
SPZO Nov2005-091000Z VRB02KT 9999 OVC043 10/04 Q1031 RMK PP000=
SPZO Nov2005-091100Z 28002KT 9999 OVC043 10/05 Q1032 RMK PP000=
SPZO Nov2005-091200Z 00000KT 9999 SCT043 SCT100 11/05 Q1032 NOSIG RMK PP000=
SPZO Nov2005-091300Z 00000KT 9999 SCT040 BKN100 12/04 Q1033 NOSIG RMK PP000=
SPZO Nov2005-091400Z 00000KT 9999 SCT040 BKN100 14/04 Q1033 NOSIG RMK PP000=
SPZO Nov2005-091500Z 00000KT 9999 SCT040 SCT100 15/04 Q1032 NOSIG RMK PP000=
SPZO Nov2005-091600Z VRB03KT 9999 SCT040 SCT100 16/05 Q1031 NOSIG RMK PP000=
SPZO Nov2005-091700Z VRB05KT 9999 FEW040TCU SCT050 18/05 Q1030 NOSIG RMK PP000=
SPZO Nov2005-091800Z 35005KT 9999 FEW040TCU BKN050 18/02 Q1028 NOSIG RMK PP000 RWY10 29016KT=
SPZO Nov2005-091900Z 28015KT 250V350 9999 FEW040TCU SCT050 SCT100 19/06 Q1027 TEMPO VCSH RMK PP000 RWY10 30025KT 250V020=
SPZO Nov2005-092000Z 28017KT 260V340 9000 VCRA FEW037TCU SCT047 BKN150 15/06 Q1027 NOSIG RMK PP000 RWY10 30022KT 250V350=
SPZO Nov2005-092100Z 26008KT 190V290 9999 -RA FEW040TCU BKN050 13/07 Q1027 NOSIG RMK PP002 RWY10 27013KT 250V320=
SPZO Nov2005-092200Z 33009KT 270V350 9999 FEW040 SCT050 14/06 Q1027 RERA NOSIG RMK PPTRZ RWY10 28015KT 240V330 TMAX 19.2=
SPZO Nov2005-092300Z 28005KT 9999 SCT043 SCT060 14/05 Q1028 TEMPO VCSH RMK PP000=
SPZO Nov2005-100000Z 21004KT 160V290 9999 SCT040 SCT060 13/06 Q1030 RMK PP000=
SPZO Nov2005-100100Z VRB02KT 9000 -RA SCT037 BKN043 13/06 Q1031 RMK PPTRZ=
SPZO Nov2005-100200Z 00000KT 9999 -DZ FEW030 OVC040 11/07 Q1032 RMK PP008=
SPZO Nov2005-100300Z 00000KT 9999 OVC040 11/07 Q1032 RMK PPTRZ=
SPZO Nov2005-100400Z VRB02KT 9999 SCT030 BKN040 10/07 Q1032 RMK PP000=
SPZO Nov2005-100500Z VRB02KT 9999 SCT030 BKN043 09/06 Q1030 RMK PP000=
SPZO Nov2005-100600Z 00000KT 9999 BKN040 SCT043 09/07 Q1030 RMK PP000=
SPZO Nov2005-100700Z 00000KT 9999 OVC040 10/07 Q1030 RMK PP000=
SPZO Nov2005-100800Z 00000KT 9999 OVC043 10/07 Q1030 RMK PP000=
SPZO Nov2005-100900Z 00000KT 9999 SCT037 SCT046 10/07 Q1030 RMK PP000=
SPZO Nov2005-101000Z VRB03KT 9999 FEW033 SCT040 BKN043 10/07 Q1030 RMK PP000=
SPZO Nov2005-101100Z VRB02KT 9999 SCT037 BKN046 13/07 Q1031 RMK PP000=
SPZO Nov2005-101200Z 10005KT 9000 SCT033 BKN043 11/07 Q1032 BECMG FM13 9999 RMK PP000=
SPZO Nov2005-101300Z 09005KT 070V170 9999 SCT033 BKN046 12/06 Q1033 NOSIG RMK PP000=
SPZO Nov2005-101400Z VRB03KT 9999 FEW036 BKN046 14/06 Q1033 TEMPO VCSH RMK PP000 RA CDTE NE=
SPZO Nov2005-101500Z VRB02KT 9999 FEW036 BKN046 16/05 Q1032 NOSIG RMK PP000 WIND RWY10 VRB02KT=
SPZO Nov2005-101600Z 09008KT 070V170 9999 FEW040 BKN046 16/04 Q1031 NOSIG RMK PP000 WIND RWY10 10017KT 040V150=
SPZO Nov2005-101700Z VRB05KT 9999 BKN046 19/02 Q1029 NOSIG RMK PP000 WIND RWY10 10006KT 020V170=
SPZO Nov2005-101800Z 07008KT 310V080 9999 VCRA FEW043TCU SCT053 21/02 Q1028 NOSIG RMK PP000 RWY10 21009KT 170V310=
SPZO Nov2005-101900Z 13005KT 110V240 9999 FEW043TCU SCT053 22/02 Q1025 TEMPO VCSH RMK PP000=
SPZO Nov2005-102000Z 36009KT 9999 SCT043TCU SCT053 19/05 Q1025 TEMPO=
SPZO Nov2005-102100Z 01006KT 350V080 9000 SHRA SCT040TCU SCT050 BKN100 17/05 Q1024 NOSIG RMK PPTRZ RWY10 03010KT 320V010=
SPZO Nov2005-102200Z 02007KT 340V080 9999 -RA FEW040TCU SCT050 BKN080 15/06 Q1025 NOSIG RMK PP004 RWY10 28008KT 230V330 TMAX 22.5=
SPZO Nov2005-102300Z 25003KT 9999 SCT040 BKN100 14/08 Q1026 RERA NOSIG RMK PPTRZ=
SPZO Nov2005-110000Z 00000KT 9999 FEW040 SCT050 14/06 Q1027 RMK PP000=
SPZO Nov2005-110100Z 17009KT 090V260 9000 -RA SCT037 BKN043 11/04 Q1030 RMK PP004=
SPZO Nov2005-110200Z 09007KT 9999 -DZ FEW030 OVC040 09/06 Q1033 RMK PP008=
SPZO Nov2005-110300Z 06005KT 9999 -RA OVC040 09/06 Q1034 RMK PP004=
SPZO Nov2005-110400Z 00000KT 9999 OVC040 08/05 Q1034 RMK PP002=
SPZO Nov2005-110500Z 00000KT 9999 FEW037 OVC043 08/05 Q1032 RMK PP000=
SPZO Nov2005-110600Z 00000KT 9999 FEW037 OVC043 08/05 Q1031 RMK PP000=
SPZO Nov2005-110700Z 00000KT 9999 SCT037 SCT040 08/05 Q1030 RMK PP000=
SPZO Nov2005-110800Z 00000KT 9999 BKN040 SCT080 08/05 Q1029 RMK PP000=
SPZO Nov2005-110900Z 00000KT 9999 SCT040 SCT080 07/05 Q1029 RMK PP000=
SPZO Nov2005-111000Z VRB02KT 9999 SCT040 SCT050 07/05 Q1030 RMK PP000=
SPZO Nov2005-111100Z 00000KT 9999 SCT043 SCT100 08/05 Q1030 RMK PP000=
SPZO Nov2005-111200Z 00000KT 9000 FEW080 SCT200 11/07 Q1031 HZ BECMG FM13 9999 RMK PP000=
SPZO Nov2005-111300Z 10005KT 070V170 9999 FEW037 13/07 Q1031 NOSIG RMK PP000 RWY10 07006KT 350V140=
SPZO Nov2005-111400Z 05005KT 010V170 9999 FEW040 15/06 Q1030 NOSIG RMK PP000 RWY10 15006KT 110V220=
SPZO Nov2005-111500Z VRB03KT 9999 SCT043 17/04 Q1030 NOSIG RMK PP000=
SPZO Nov2005-111600Z VRB02KT 9999 BKN047 19/03 Q1028 NOSIG RMK PP000 RWY10 09007KT 350V150=
SPZO Nov2005-111700Z VRB02KT 9999 SCT050 20/03 Q1027 NOSIG RMK PP000 RWY10 VRB03KT=
SPZO Nov2005-111800Z VRB03KT 9999 SCT050 22/01 Q1025 NOSIG RMK PP000 WIND RWY10 VRB06KT=
SPZO Nov2005-111900Z VRB03KT 9999 SCT050 24/02 Q1023 NOSIG RMK PP000=
SPZO Nov2005-112000Z 01017KT 340V080 9999 VCSH FEW040TCU SCT046TCU BKN080 18/05 Q1023 NOSIG RMK PP000 WIND RWY10 VRB29G46KT=
SPZO Nov2005-112100Z 01013KT 350V080 9000 -RA VCSH SCT040TCU SCT046 BKN080 14/06 Q1024 TEMPO NSW RMK PP006 VCSH CUAD NE=
SPZO Nov2005-112200Z 01014KT 340V070 9999 -RA VCSH FEW040CB BKN046 BKN080 13/06 Q1026 NOSIG RMK PPTRZ VCSH CUAD W=
SPZO Nov2005-112300Z 02010KT 330V090 9999 SCT043 BKN080 13/04 Q1027 RERA NOSIG RMK PPTRZ=
SPZO Nov2005-120000Z VRB03KT 9999 SCT037 BKN047 13/05 Q1029 RMK PP000=
SPZO Nov2005-120100Z 00000KT 9000 RA SCT030 BKN040 08/03 Q1032 RMK PP020=
SPZO Nov2005-120200Z 25004KT 8000 RA FEW025 SCT033 BKN040 07/04 Q1034 RMK PP028 CLNG BLW 1200M=
SPZO Nov2005-120300Z 35005KT 9000 RA FEW025 BKN037 06/03 Q1035 RMK PP036 CLNG BLW 1200M=
SPZO Nov2005-120400Z 00000KT 9000 -RA SCT025 BKN037 06/03 Q1034 RMK PP018 CLNG BLW 1200M=
SPZO Nov2005-120500Z 00000KT 9999 -DZ FEW020 SCT030 BKN040 06/03 Q1033 RMK PP008=
SPZO Nov2005-120600Z 00000KT 9999 FEW020 SCT033 BKN043 06/03 Q1032 REDZ RMK PPTRZ=
SPZO Nov2005-120700Z VRB03KT 9999 SCT020 SCT030 BKN050 06/03 Q1030 RMK PP000 CLNG BLW 1200M=
SPZO Nov2005-120800Z 08004KT 9999 SCT025 SCT040 06/03 Q1030 RMK PP000=
SPZO Nov2005-120900Z 00000KT 9999 FEW025 SCT060 06/03 Q1029 RMK PP000=
SPZO Nov2005-121000Z 00000KT 9999 FEW025 SCT047 06/03 Q1029 RMK PP000=
SPZO Nov2005-121100Z 00000KT 9999 SCT027 SCT150 07/03 Q1030 RMK PP000=
SPZO Nov2005-121200Z 00000KT 9999 SCT030 09/04 Q1031 NOSIG RMK PP000=
SPZO Nov2005-121300Z 00000KT 9999 SCT033 11/04 Q1032 NOSIG RMK PP000=
SPZO Nov2005-121400Z 00000KT 9999 SCT036 13/05 Q1032 NOSIG RMK PP000=
SPZO Nov2005-121500Z VRB03KT 9999 SCT040 15/03 Q1031 NOSIG RMK PP000=
SPZO Nov2005-121600Z VRB04KT 9999 SCT046 16/04 Q1030 NOSIG RMK PP000 WIND RWY10 VRB06KT=
SPZO Nov2005-121700Z VRB03KT 9999 SCT046 19/03 Q1028 NOSIG RMK PP000 WIND RWY10 VRB07KT=
SPZO Nov2005-121800Z VRB04KT 9999 SCT050 19/04 Q1027 NOSIG RMK PP000=
SPZO Nov2005-121900Z VRB05KT 9999 SCT050 21/01 Q1025 NOSIG RMK PP000=
SPZO Nov2005-122000Z VRB05KT 9999 SCT050 21/M00 Q1023 NOSIG RMK PP000=
SPZO Nov2005-122100Z VRB05KT 9999 FEW050 SCT230 21/04 Q1023 NOSIG RMK PP000=
SPZO Nov2005-122200Z 07009KT 360V110 9999 FEW043 BKN230 18/05 Q1023 NOSIG RMK PP000 T.MAX 21.9=
SPZO Nov2005-122300Z 01008KT 270V080 9999 SCT040 SCT230 15/05 Q1024 NOSIG RMK PP000=
SPZO Nov2005-130000Z VRB05KT 9999 BKN050 15/05 Q1026 RMK PP000=
SPZO Nov2005-130100Z VRB04KT 5000 TSRA SCT030CB BKN040 09/05 Q1031 RMK PP024=
SPZO Nov2005-130200Z 12002KT 070V180 5000 +SHRA SCT030TCU BKN040 08/05 Q1033 RMK PP050=
SPZO Nov2005-130300Z 00000KT 6000 RA FEW030 BKN040 08/05 Q1032 RMK PP006=
SPZO Nov2005-130400Z 08003KT 9000 OVC040 09/05 Q1031 RERA RMK PP008=
SPZO Nov2005-130500Z 00000KT 9999 OVC050 09/05 Q1031 RMK PP000=
SPZO Nov2005-130600Z 26003KT 9999 OVC050 09/05 Q1030 RMK PP000=
SPZO Nov2005-130700Z 00000KT 9999 OVC050 09/05 Q1029 RMK PP000=
SPZO Nov2005-130800Z 10004KT 090V170 9999 OVC050 09/06 Q1029 RMK PP000=
SPZO Nov2005-130900Z 00000KT 9999 BKN050 08/05 Q1029 RMK PP000=
SPZO Nov2005-131000Z 00000KT 9999 SCT050 08/05 Q1029 RMK PP000=
SPZO Nov2005-131100Z 00000KT 9999 SCT050 07/05 Q1030 RMK PP000=
SPZO Nov2005-131200Z 00000KT 9999 FEW030 BKN080 09/06 Q1031 NOSIG RMK PP000=
SPZO Nov2005-131300Z 00000KT 9999 FEW040 SCT100 BKN230 11/06 Q1032 NOSIG RMK PP000=
SPZO Nov2005-131400Z 00000KT 9999 FEW043 BKN230 14/05 Q1031 NOSIG RMK PP000=
SPZO Nov2005-131500Z 00000KT 9999 SCT043 SCT230 16/04 Q1031 NOSIG RMK PP000=
SPZO Nov2005-131600Z VRB03KT 9999 SCT043 SCT230 18/04 Q1029 NOSIG RMK PP000=
SPZO Nov2005-131700Z 01005KT 340V110 9999 SCT050 19/04 Q1028 NOSIG RMK PP000=
SPZO Nov2005-131800Z 03008KT 350V120 9999 SCT047 SCT200 20/03 Q1027 NOSIG RMK PP000=
SPZO Nov2005-131900Z VRB02KT 9999 SCT047TCU SCT200 21/03 Q1025 NOSIG RMK RWY10 34009KT 250V040=
SPZO Nov2005-132000Z 36009KT 9999 SCT047 SCT200 21/03 Q1024 NOSIG RMK PP000 RWY10 35008KT=
SPZO Nov2005-132100Z 01004KT 340V070 9999 FEW040TCU SCT047 SCT200 19/03 Q1024 NOSIG RMK PP000 RWY10 01012KT 330V100=
SPZO Nov2005-132200Z 01008KT 9999 BKN043 SCT100 17/07 Q1024 TEMPO VCSH RMK PP000 RWY10 02018KT TMAX 22.4=
SPZO Nov2005-132300Z 09004KT 9999 FEW047 SCT200 15/06 Q1025 NOSIG RMK PP000=
SPZO Nov2005-140000Z 01004KT 9999 FEW040 SCT200 15/06 Q1027 RMK PP000=
SPZO Nov2005-140100Z VRB03KT 9999 FEW200 13/07 Q1027 RMK PP000=
SPZO Nov2005-140200Z 00000KT 9999 FEW200 12/06 Q1028 RMK PP000=
SPZO Nov2005-140300Z 00000KT 9999 FEW200 11/07 Q1029 RMK PP000=
SPZO Nov2005-140400Z 00000KT 9999 SCT200 10/06 Q1029 RMK PP000=
SPZO Nov2005-140500Z 00000KT 9999 SCT200 09/07 Q1029 RMK PP000=
SPZO Nov2005-140600Z 00000KT 9999 SCT040 SCT200 10/07 Q1028 RMK PP000=
SPZO Nov2005-140700Z 00000KT 9999 SCT040 SCT100 10/07 Q1028 RMK PP000=
SPZO Nov2005-140800Z 00000KT 9999 SCT040 SCT100 10/07 Q1027 RMK PP000=
SPZO Nov2005-140900Z 00000KT 9999 BKN040 SCT100 09/06 Q1028 RMK PP000=
SPZO Nov2005-141000Z 00000KT 9999 FEW037 SCT047 SCT060 10/07 Q1028 RMK PP000=
SPZO Nov2005-141100Z 00000KT 9000 FEW037 SCT047 SCT200 10/07 Q1029 HZ RMK PP000=
SPZO Nov2005-141200Z 09002KT 9000 FEW033 SCT043 11/08 Q1030 BECMG FM13 9999 RMK HZ PP000=
SPZO Nov2005-141300Z 10002KT 9000 FEW036 SCT046 14/07 Q1030 BECMG FM14 9999 RMK HZ PP000=
SPZO Nov2005-141400Z VRB04KT 9999 FEW040 SCT046 16/07 Q1030 NOSIG RMK PP000=
SPZO Nov2005-141500Z VRB05KT 9999 SCT046 19/07 Q1029 NOSIG RMK PP000=
SPZO Nov2005-141600Z VRB03KT 9999 SCT050 19/05 Q1028 NOSIG RMK PPOOO=
SPZO Nov2005-141700Z VRB04KT 9999 SCT050 21/02 Q1027 NOSIG RMK PP000=
SPZO Nov2005-141800Z 01016KT 350V080 9999 SCT040TCU SCT050 17/07 Q1026 RESH TEMPO VCSH RMK PPTRZ RWY10 02025KT 330V120=
SPZO Nov2005-141900Z 36006KT 340V080 9999 -TSRA FEW037CB SCT047 BKN200 19/04 Q1025 NOSIG RMK PPTRZ RWY10 VRB02KT=
SPZO Nov2005-142000Z 25006KT 180V260 9999 -TSRA FEW037CB SCT047 BKN060 17/06 Q1024 NOSIG RMK PPTRZ RWY10 22013KT 160V250=
SPZO Nov2005-142100Z 34007KT 250V360 9999 -RA FEW037TCU BKN047 14/08 Q1024 RETS NOSIG RMK PPTRZ RWY10 35008KT 310V020=
SPZO Nov2005-142200Z 27009KT 9999 BKN040 SCT200 15/08 Q1024 RERA TEMPO VCSH RMK PPTRZ RWY10 30012KT TMAX 21.9=
SPZO Nov2005-142300Z 26006KT 9999 FEW050 SCT200 15/06 Q1024 NOSIG RMK PP000=
SPZO Nov2005-150000Z VRB01KT 9999 FEW050 SCT200 13/06 Q1026 RMK PP000=
SPZO Nov2005-150100Z 26002KT 9999 FEW050 SCT230 12/07 Q1026 RMK PP000=
SPZO Nov2005-150200Z VRB01KT 9999 SCT230 11/06 Q1028 RMK PP000=
SPZO Nov2005-150300Z 28004KT 9999 FEW060 10/07 Q1029 RMK PP000=
SPZO Nov2005-150400Z 00000KT 9999 SKC 09/06 Q1028 RMK PP000=
SPZO Nov2005-150500Z 00000KT 9999 SKC 09/06 Q1028 RMK PP000=
SPZO Nov2005-150600Z 00000KT 9999 SKC 08/06 Q1028 RMK PP000=
SPZO Nov2005-150700Z VRB02KT 9999 SCT040 09/07 Q1028 RMK PP000=
SPZO Nov2005-150800Z VRB02KT 9999 -RA FEW030 OVC040 10/07 Q1027 RMK PP002=
SPZO Nov2005-150900Z 00000KT 9999 OVC040 10/07 Q1028 RMK PPTRZ=
SPZO Nov2005-151000Z 00000KT 9999 SCT040 SCT050 10/07 Q1028 RMK PP000=
SPZO Nov2005-151100Z 00000KT 9000 FEW040 SCT080 11/08 Q1029 RMK PP000=
SPZO Nov2005-151200Z 00000KT 9000 FEW037 SCT047 BKN200 14/08 Q1030 BECMG FM1330 9999 RMK PP000=
SPZO Nov2005-151300Z VRB02KT 9999 FEW037 SCT047 BKN200 15/06 Q1030 NOSIG RMK PP000 RWY10 18005KT=
SPZO Nov2005-151400Z VRB02KT 9999 SCT047 SCT150 18/06 Q1030 NOSIG RMK PP000 RWY10 VRB03KT=
SPZO Nov2005-151500Z 33006KT 9999 FEW040TCU SCT050 17/07 Q1029 NOSIG RMK PP000 RWY10 22005KT 030V180=
SPZO Nov2005-151600Z 03005KT 320V080 9999 FEW037TCU SCT050 BKN200 20/04 Q1028 TEMPO VCSH RMK PP000 RWY10 03013KT 300V120=
SPZO Nov2005-151700Z 35012KT 270V020 9000 TSRA FEW037CB BKN047 BKN060 16/04 Q1028 NOSIG RMK PPTRZ RWY10 34022G38 250V040=
SPZO Nov2005-151800Z 23006KT 180V280 9999 FEW036TCU SCT046 BKN050 15/05 Q1029 RERA TEMPO VCSH RMK PP002 WIND RWY10 VRB05KT=
SPZO Nov2005-151900Z VRB03KT 9999 FEW036TCU BKN050 19/04 Q1028 NOSIG RMK PP000 WIND RWY10 VRB04KT=
SPZO Nov2005-152000Z 28007KT 250V350 9999 SCT060 SCT230 18/04 Q1026 NOSIG RMK PP000 WIND RWY10 25011KT 210V330=
SPZO Nov2005-152100Z 27005KT 180V350 9999 SCT043 BKN230 20/03 Q1025 NOSIG RMK WIND RWY10 22005KT 140V290 PP000=
SPZO Nov2005-152200Z 27006KT 250V350 9999 FEW043 SCT150 BKN230 19/04 Q1025 NOSIG RMK PP000 WIND RWY10 28009KT 210V340 TMAX 20.5=
SPZO Nov2005-152300Z 36006KT 270V080 9999 FEW043 SCT150 BKN230 17/04 Q1026 NOSIG RMK PP000=
SPZO Nov2005-160000Z 03011KT 9999 FEW037 SCT100 BKN200 15/05 Q1027 RMK PP000=
SPZO Nov2005-160100Z 07004KT 9999 FEW040 BKN200 14/04 Q1028 RMK PP000=
SPZO Nov2005-160200Z 19004KT 9999 SCT040 BKN200 13/04 Q1030 RMK PP000=
SPZO Nov2005-160300Z 00000KT 9999 SCT040 SCT200 12/03 Q1031 RMK PP000=
SPZO Nov2005-160400Z 00000KT 9999 BKN040 12/04 Q1031 RMK PP000=
SPZO Nov2005-160500Z 18004KT 8000 RA SCT037 BKN050 11/05 Q1031 RMK PP002=
SPZO Nov2005-160600Z VRB03KT 9000 -RA BKN037 SCT047 09/05 Q1032 RMK PP016=
SPZO Nov2005-160700Z 00000KT 9999 SCT025 BKN040 09/05 Q1031 RERA RMK PPTRZ=
SPZO Nov2005-160800Z 00000KT 9999 FEW025 SCT040 BKN050 09/05 Q1030 RMK PP000=
SPZO Nov2005-160900Z 00000KT 9999 SCT037 SCT047 09/06 Q1030 RMK PP000=
SPZO Nov2005-161000Z 00000KT 9999 SCT033 SCT043 09/05 Q1030 RMK PP000=
SPZO Nov2005-161100Z 00000KT 9999 SCT053 SCT200 09/06 Q1031 RMK PP000=
SPZO Nov2005-161200Z 12003KT 080V180 9999 FEW030 BKN230 10/07 Q1031 NOSIG RMK PP000=
SPZO Nov2005-161300Z 00000KT 9999 FEW030 SCT100 BKN230 13/07 Q1032 NOSIG RMK PP000=
SPZO Nov2005-161400Z 00000KT 9999 FEW040 BKN230 14/05 Q1031 NOSIG RMK PP000=
SPZO Nov2005-161500Z 00000KT 9999 FEW046 BKN230 17/08 Q1030 NOSIG RMK PP000 WIND RWY10 00000KT=
SPZO Nov2005-161600Z 00000KT 9999 FEW046 BKN230 19/07 Q1029 NOSIG RMK PP000 WIND RWY10 00000KT=
SPZO Nov2005-161700Z VRB03KT 9999 FEW050 SCT230 21/03 Q1028 NOSIG RMK PP000=
SPZO Nov2005-161800Z 36004KT 300V090 9999 SCT050 22/02 Q1026 NOSIG RMK PP000=
SPZO Nov2005-161900Z VRB06KT 9999 SCT050 24/01 Q1024 NOSIG RMK PP000=
SPZO Nov2005-162000Z 28008KT 180V350 9999 FEW037 SCT046 BKN100 22/01 Q1023 WS LDG RWY28 NOSIG RMK WIND RWY10 31019G34KT 250V360 N PP000=
SPZO Nov2005-162100Z 28011KT 260V350 9999 SCT043 BKN100 21/04 Q1023 NOSIG RMK WIND RWY10 32015G25KT 260V030 PP000=
SPZO Nov2005-162200Z 31006KT 190V360 9999 FEW043 BKN100 21/03 Q1023 NOSIG RMK PP000 T.MAX 24.2=
SPZO Nov2005-162300Z 10008KT 080V170 9999 BKN230 18/07 Q1024 NOSIG RMK PP000=
SPZO Nov2005-170000Z 10007KT 080V170 9999 BKN100 16/07 Q1025 RMK PP000=
SPZO Nov2005-170100Z 07003KT 360V110 9999 BKN100 15/07 Q1026 RMK PP000=
SPZO Nov2005-170200Z 00000KT 9999 BKN100 14/07 Q1027 RMK PP000=
SPZO Nov2005-170300Z 00000KT 9999 BKN100 13/07 Q1028 RMK PP000=
SPZO Nov2005-170400Z 00000KT 9999 BKN100 11/07 Q1028 RMK PP000=
SPZO Nov2005-170500Z 00000KT 9999 BKN100 11/07 Q1028 RMK PP000=
SPZO Nov2005-170600Z 08002KT 9999 SCT050 SCT100 10/07 Q1028 RMK PP000=
SPZO Nov2005-170700Z 09002KT 9999 SCT050 SCT100 10/07 Q1028 RMK PP000=
SPZO Nov2005-170800Z 07004KT 9999 SCT050 SCT100 10/07 Q1027 RMK PP000=
SPZO Nov2005-170900Z 00000KT 9999 SCT050 SCT100 09/06 Q1027 RMK PP000=
SPZO Nov2005-171000Z 00000KT 9999 SCT046 SCT080 09/07 Q1027 RMK PP000=
SPZO Nov2005-171100Z 00000KT 9999 SCT043 SCT070 10/07 Q1028 RMK PP000=
SPZO Nov2005-171200Z 00000KT 9999 FEW040 14/08 Q1028 NOSIG RMK PP000=
SPZO Nov2005-171300Z 00000KT 9999 FEW050 16/06 Q1029 NOSIG RMK PP000=
SPZO Nov2005-171400Z 27004KT 180V350 9999 SCT050 18/03 Q1029 NOSIG RMK PP000=
SPZO Nov2005-171500Z VRB04KT 9999 SCT050 20/02 Q1028 NOSIG RMK PP000=
SPZO Nov2005-171600Z VRB04KT 9999 FEW040 SCT050 21/00 Q1027 NOSIG RMK PP000=
SPZO Nov2005-171700Z 01011KT 330V080 9999 SCT050 22/05 Q1026 NOSIG RMK PP000=
SPZO Nov2005-171800Z VRB02KT 9999 SCT050 SCT200 22/02 Q1024 NOSIG RMK PP000 RWY10 03010KT 330V070=
SPZO Nov2005-171900Z 03004KT 9999 SCT050 SCT200 23/02 Q1023 NOSIG RMK PP000 RWY10 20012KT 170V320=
SPZO Nov2005-172000Z 36008KT 9999 SCT050 22/02 Q1021 NOSIG RMK PP000 RWY10 08012KT 050V200=
SPZO Nov2005-172100Z 01012KT 9999 VCRA FEW037TCU SCT047 SCT200 21/02 Q1021 TEMPO RA RMK PP000 RWY10 35009KT=
SPZO Nov2005-172200Z 27005KT 250V360 9999 SCT050 SCT200 18/07 Q1021 NOSIG RMK PP000 RWY10 32006KT 240V020 TMAX 23.7=
SPZO Nov2005-172300Z 28008KT 9999 FEW200 16/07 Q1022 NOSIG RMK PP000=
SPZO Nov2005-180000Z 10006KT 070V170 9999 FEW050 SCT230 16/04 Q1024 RMK PP000=
SPZO Nov2005-180100Z VRB02KT 9999 FEW050 SCT230 16/04 Q1025 RMK PP000=
SPZO Nov2005-180200Z VRB02KT 9999 SCT060 15/03 Q1026 RMK PP000=
SPZO Nov2005-180300Z 10004KT 9999 FEW050 SCT100 13/03 Q1027 RMK PP000=
SPZO Nov2005-180400Z 00000KT 9999 FEW060 SCT080 13/03 Q1028 RMK PP000=
SPZO Nov2005-180500Z 00000KT 9999 SCT050 SCT060 13/03 Q1027 RMK PP000=
SPZO Nov2005-180600Z 00000KT 9999 SCT050 SCT080 12/04 Q1027 RMK PP000=
SPZO Nov2005-180700Z 00000KT 9999 FEW040 BKN080 12/04 Q1027 RMK PP000=
SPZO Nov2005-180800Z 10015KT 9999 BKN040 SCT070 11/05 Q1027 RMK PP000=
SPZO Nov2005-180900Z 11009KT 9999 BKN040 SCT050 11/04 Q1027 RMK PP000=
SPZO Nov2005-181000Z 10008KT 9999 SCT040 BKN070 10/03 Q1027 RMK PP000=
SPZO Nov2005-181100Z 07004KT 360V090 9999 SCT040 BKN100 10/04 Q1028 RMK PP000=
SPZO Nov2005-181200Z 00000KT 9999 SCT050 SCT100 11/04 Q1029 NOSIG RMK PP000=
SPZO Nov2005-181300Z 04003KT 340V100 9999 FEW046 SCT100 BKN230 14/05 Q1029 NOSIG RMK PP000=
SPZO Nov2005-181400Z VRB02KT 9999 FEW043 BKN200 16/05 Q1029 N0SIG RMK PP000=
SPZO Nov2005-181500Z VRB03KT 9999 FEW046 BKN200 18/05 Q1028 NOSING RMK PP000=
SPZO Nov2005-181600Z VRB05KT 9999 SCT046 SCT230 20/04 Q1027 NOSIG RMK PP000 WIND RWY10 00000KT=
SPZO Nov2005-181700Z 15004KT 090V200 9999 BKN046 SCT230 20/02 Q1026 NOSIG RMK PP000 WIND RWY10 VRB04KT=
SPZO Nov2005-181800Z 27005KT 250V020 9999 FEW040TCU SCT050 BKN200 21/04 Q1025 NOSIG RMK PP000=
SPZO Nov2005-181900Z 09005KT 010V180 9999 FEW040TCU SCT050 BKN200 21/03 Q1023 NOSIG RWY10 29013KT 210V030=
SPZO Nov2005-182000Z 27011KT 270V350 9999 FEW047 SCT060 BKN200 21/04 Q1022 NOSIG RMK PP000 RWY10 30018KT 250V020=
SPZO Nov2005-182100Z 28010KT 260V350 9999 FEW043TCU SCT060 BKN200 20/04 Q1022 TEMPO VCSH RMK PP000 RWY10 28013KT 250V350=
SPZO Nov2005-182200Z 34008KT 280V360 9999 SCT047 BKN200 18/05 Q1022 TEMPO -RA RMK PP000 RWY10 35009KT TMAX 23.5=
SPZO Nov2005-182300Z 36005KT 9999 SCT043 SCT200 18/05 Q1023 NOSIG RMK PP000=
SPZO Nov2005-190000Z 30005KT 250V350 9999 FEW043 SCT200 15/06 Q1024 RMK PP000=
SPZO Nov2005-190100Z 08004KT 360V170 9999 FEW040 SCT060 16/06 Q1026 RMK PP000=
SPZO Nov2005-190200Z VRB01KT 9999 FEW060 15/06 Q1027 RMK PP000=
SPZO Nov2005-190300Z VRB02KT 9999 SCT060 13/06 Q1028 RMK PP000=
SPZO Nov2005-190400Z VRB02KT 9999 FEW040 12/06 Q1027 RMK PP000=
SPZO Nov2005-190500Z 28003KT 9999 FEW040 11/06 Q1027 RMK PP000=
SPZO Nov2005-190600Z 00000KT 9999 SCT040 SCT080 11/06 Q1026 RMK PP000=
SPZO Nov2005-190700Z VRB02KT 9999 SCT050 11/06 Q1026 RMK PP000=
SPZO Nov2005-190800Z 00000KT 9999 SCT050 10/06 Q1026 RMK PP000=
SPZO Nov2005-190900Z 00000KT 9999 FEW040 SCT080 10/07 Q1027 RMK PP000=
SPZO Nov2005-191000Z 26002KT 9999 BKN040 SCT070 11/07 Q1027 RMK PP000=
SPZO Nov2005-191100Z 28003KT 9999 FEW037 SCT040 BKN070 11/07 Q1028 RMK PP000=
SPZO Nov2005-191200Z VRB03KT 9999 FEW033 SCT047 BKN100 12/07 Q1029 NOSIG RMK PP000=
SPZO Nov2005-191300Z 00000KT 9999 FEW033 SCT047 BKN120 15/07 Q1030 NOSIG RMK PP000 RWY10 06006KT=
SPZO Nov2005-191400Z 27008KT 250V350 9999 VCRA SCT037TCU BKN047 14/06 Q1030 TEMPO -RA RMK PP000 RWY10 30010KT 240V360=
SPZO Nov2005-191500Z 28008KT 250V010 8000 -RA SCT033TCU BKN040 13/06 Q1031 NOSIG RMK PPTRZ RWY10 26015KT 210V320=
SPZO Nov2005-191600Z VRB04KT 9999 FEW033 SCT047 BKN070 14/06 Q1031 RERA NOSIG RMK PPTRZ RWY10 33010KT 220V360=
SPZO Nov2005-191700Z 28005KT 190V350 9999 FEW037 SCT050 BKN100 15/05 Q1030 NOSIG RMK PP000 RWY10 28008KT 240V330=
SPZO Nov2005-191800Z 29006KT 250V350 9999 FEW040TCU SCT046 BKN080 17/05 Q1029 TEMPO VCSH RMK PP000 WIND RWY10 29007KT 200V350=
SPZO Nov2005-191900Z VRB04KT 9999 FEW040TCU SCT046 BKN080 18/05 Q1028 TEMPO VCSH RMK PP000 WIND RWY10 VRB05KT=
SPZO Nov2005-192000Z 29005KT 250V360 9999 FEW043 SCT046 BKN080 18/05 Q1027 NOSIG RMK PP000=
SPZO Nov2005-192100Z 28004KT 250V350 9999 SCT040 BKN050 17/05 Q1026 NOSIG RMK PP000=
SPZO Nov2005-192200Z 00000KT 9999 SCT040 BKN050 17/05 Q1025 NOSIG RMK PP000 TMAX 19.5=
SPZO Nov2005-192300Z 00000KT 9999 FEW040 BKN050 17/06 Q1026 NOSIG RMK PP000=
SPZO Nov2005-200000Z 26006KT 9999 FEW040 BKN050 15/07 Q1027 RMK PP000=
SPZO Nov2005-200100Z 00000KT 9999 SCT050 13/06 Q1028 RMK PP000=
SPZO Nov2005-200200Z VRB02KT 9999 FEW060 12/07 Q1029 RMK PP000=
SPZO Nov2005-200300Z 27004KT 9999 SCT050 12/06 Q1030 RMK PP000=
SPZO Nov2005-200400Z 00000KT 9999 FEW060 11/06 Q1029 RMK PP000=
SPZO Nov2005-200500Z 00000KT 9999 SCT060 12/06 Q1029 RMK PP000=
SPZO Nov2005-200600Z 00000KT 9999 SCT050 11/07 Q1029 RMK PP000=
SPZO Nov2005-200700Z 00000KT 9999 FEW050 11/07 Q1028 RMK PP000=
SPZO Nov2005-200800Z 00000KT 9999 SCT050 11/07 Q1028 RMK PP000=
SPZO Nov2005-200900Z 00000KT 9999 BKN040 SCT046 11/08 Q1028 RMK PP000=
SPZO Nov2005-201000Z 10007KT 9999 -DZ FEW025 SCT037 BKN043 10/06 Q1029 RMK CLNG BLW 1200M PP004=
SPZO Nov2005-201100Z 10004KT 080V190 9999 -DZ FEW030 SCT037 BKN046 10/06 Q1030 RMK CLNG BLW 1200M PP002=
SPZO Nov2005-201200Z 26002KT 9000 -DZ SCT036 SCT043 BKN080 10/07 Q1031 BECMG 9999 RMK PP002=
SPZO Nov2005-201300Z 00000KT 9000 -DZ SCT036 SCT043 BKN060 11/07 Q1031 NOSIG RMK PPTRZ=
SPZO Nov2005-201400Z 12003KT 090V170 8000 -RA FEW030 BKN043 BKN060 10/07 Q1032 NOSIG RMK PP006=
SPZO Nov2005-201500Z 06003KT 350V100 8000 -RA VCSH FEW030 SCT040 OVC060 11/07 Q1032 NOSIG RMK PP006 VCSH CUAD W/E=
SPZO Nov2005-201600Z 09003KT 360V170 9000 -RA VCSH FEW030 SCT043 OVC060 11/07 Q1032 NOSIG RMK VCSH QUAD E PP010 WIND RWY10 10007KT 040V140=
SPZO Nov2005-201700Z 07004KT 360V110 9000 -RA VCSH FEW030 SCT043 OVC060 11/08 Q1031 NOSIG RMK PP002 VCSH QUAD W/E WIND RWY10 09008KT 030V140=
SPZO Nov2005-201800Z 00000KT 9999 -DZ FEW030 SCT043 OVC100 12/07 Q1030 NOSIG RMK PPTRZ=
SPZO Nov2005-201900Z 09008KT 9000 RA VCSH FEW030 BKN043 OVC080 11/07 Q1030 TEMPO 9999 NSW RMK PP004=
SPZO Nov2005-202000Z VRB02KT 9999 FEW030 BKN050 OVC100 12/07 Q1029 NOSIG RMK PP002=
SPZO Nov2005-202100Z VRB02KT 9999 FEW040 OVC100 13/06 Q1027 NOSIG RMK PP000=
SPZO Nov2005-202200Z 10004KT 070V170 9999 FEW050 OVC100 13/07 Q1028 NOSIG RMK PP000 TMAX 14.8=
SPZO Nov2005-202300Z 00000KT 9999 FEW050 OVC150 12/06 Q1029 NOSIG RMK PP000=
SPZO Nov2005-210000Z 09003KT 9999 SCT050 SCT100 12/08 Q1030 RMK PP000=
SPZO Nov2005-210100Z 19002KT 9999 BKN050 SCT100 12/08 Q1030 RMK PP000=
SPZO Nov2005-210200Z 08004KT 9999 BKN050 11/07 Q1031 RMK PP000=
SPZO Nov2005-210300Z 10010KT 080V170 7000 -RA SCT040 SCT050 09/06 Q1032 RMK PP002=
SPZO Nov2005-210400Z 26005KT 9000 SCT040 BKN050 09/06 Q1031 RERA RMK PP004=
SPZO Nov2005-210500Z 11004KT 090V170 9999 FEW040 BKN050 09/07 Q1031 RMK PP000=
SPZO Nov2005-210600Z 00000KT 9999 FEW040 BKN050 09/06 Q1030 RMK PP000=
SPZO Nov2005-210700Z 00000KT 9999 OVC050 08/06 Q1029 RMK PP000=
SPZO Nov2005-210800Z 00000KT 9999 OVC050 08/06 Q1029 RMK PP000=
SPZO Nov2005-210900Z 00000KT 9999 OVC050 08/06 Q1030 RMK PP000=
SPZO Nov2005-211000Z 08003KT 9999 OVC050 08/06 Q1030 RMK PP000=
SPZO Nov2005-211100Z 10002KT 9999 OVC040 08/06 Q1030 RMK PP000=
SPZO Nov2005-211200Z 10003KT 070V170 9999 SCT030 BKN043 09/06 Q1031 NOSIG RMK PP000=
SPZO Nov2005-211300Z VRB02KT 9999 FEW037 SCT200 12/07 Q1031 NOSIG RMK PP000=
SPZO Nov2005-211400Z VRB01KT 9999 FEW036 SCT043 BKN080 14/06 Q1031 NOSIG RMK PP000=
SPZO Nov2005-211500Z 00000KT 9999 FEW040 SCT080 16/05 Q1030 NOSIG RMK PP000=
SPZO Nov2005-211600Z VRB03KT 9999 SCT040 BKN080 17/05 Q1029 NOSIG RMK PP000=
SPZO Nov2005-211700Z 08004KT 360V170 9999 SCT040 BKN080 18/04 Q1028 NOSIG RMK PP000=
SPZO Nov2005-211800Z VRB03KT 9999 SCT050 BKN080 19/06 Q1027 NOSIG RMK PP000 RWY10 32007KT 230V030=
SPZO Nov2005-211900Z 03009KT 340V080 9999 FEW040TCU SCT050 BKN100 20/06 Q1026 NOSIG RMK PP000 RWY10 04016KT 300V080=
SPZO Nov2005-212000Z 11009KT 090V170 9999 SCT047 BKN070 19/06 Q1025 NOSIG RMK PP000 RWY10 12015KT 070V160=
SPZO Nov2005-212100Z 03010KT 300V090 9999 SCT050 SCT070 19/05 Q1024 NOSIG RMK PP000 RWY10 03015KT 320V080=
SPZO Nov2005-212200Z 10020KT 9999 SCT050 SCT080 18/06 Q1025 NOSIG RMK PP000 RWY10 11025G40KT TMAX 21.2=
SPZO Nov2005-212300Z 08004KT 9999 SCT047 15/05 Q1025 NOSIG RMK PP000=
SPZO Nov2005-220000Z VRB03KT 9999 FEW050 14/06 Q1025 RMK PP000=
SPZO Nov2005-220100Z VRB02KT 9999 SCT050 14/07 Q1027 RMK PP000=
SPZO Nov2005-220200Z VRB03KT 9999 SCT050 12/07 Q1028 RMK PP000=
SPZO Nov2005-220300Z VRB02KT 9999 FEW043 SCT080 13/07 Q1029 RMK PP000=
SPZO Nov2005-220400Z 00000KT 9999 -RA OVC040 09/06 Q1030 RMK PP006=
SPZO Nov2005-220500Z 00000KT 9999 -RA OVC040 08/06 Q1030 RMK PP004=
SPZO Nov2005-220600Z 00000KT 9999 BKN040 SCT070 08/05 Q1029 RMK PPTRZ=
SPZO Nov2005-220700Z 00000KT 9999 SCT040 SCT080 09/05 Q1028 RMK PP000=
SPZO Nov2005-220800Z VRB01KT 9999 SCT037 SCT080 08/05 Q1028 RMK PP000=
SPZO Nov2005-220900Z 00000KT 9999 SCT040 SCT100 08/05 Q1028 RMK PP000=
SPZO Nov2005-221000Z 00000KT 9999 FEW040 SCT050 07/05 Q1028 RMK PP000=
SPZO Nov2005-221100Z 09002KT 9999 SCT060 08/06 Q1029 RMK PP000=
SPZO Nov2005-221200Z 10004KT 9999 FEW050 SCT230 10/06 Q1030 NOSIG RMK PP000=
SPZO Nov2005-221300Z VRB03KT 9999 SCT050 SCT230 12/06 Q1030 NOSIG RMK PP000=
SPZO Nov2005-221400Z 12004KT 360V170 9999 SCT050 SCT230 14/06 Q1030 NOSIG RMK PP000=
SPZO Nov2005-221500Z VRB03KT 9999 SCT050 SCT230 17/06 Q1029 NOSIG RMK PP000=
SPZO Nov2005-221600Z VRB04KT 9999 SCT050 SCT230 18/04 Q1028 NOSIG RMK PP000=
SPZO Nov2005-221700Z 07006KT 360V110 9999 SCT050 SCT230 20/03 Q1026 NOSIG RMK PP000 WIND RWY10 VRB07KT=
SPZO Nov2005-221800Z 29005KT 240V020 9999 FEW040TCU SCT047 22/04 Q1024 TEMPO VCSH RMK PP000 RWY10 30015KT 280V070=
SPZO Nov2005-221900Z 02015KT 360V080 9000 TS VCSH FEW037CB SCT047TCU BKN080 17/05 Q1024 TEMPO RA RMK PP000 RWY10 02013KT 320V080=
SPZO Nov2005-222000Z 15008KT 090V180 9000 -RA SCT037TCU BKN050 15/07 Q1024 NOSIG RMK PP000 RWY10 16012KT 100V200=
SPZO Nov2005-222100Z 00000KT 8000 RA SCT037TCU BKN047 13/08 Q1025 RETS NOSIG RMK PP014=
SPZO Nov2005-222200Z VRB02KT 9000 -RA SCT037 BKN047 11/07 Q1026 NOSIG RMK PP006 TMAX 22.3=
SPZO Nov2005-222300Z VRB02KT 8000 RA FEW025 SCT033 BKN043 10/07 Q1028 NOSIG RMK PP020=
SPZO Nov2005-230000Z VRB03KT 9999 SCT025 BKN040 10/08 Q1028 RMK PP010=
SPZO Nov2005-230100Z VRB03KT 9999 FEW025 OVC040 10/07 Q1028 RMK PP000=
SPZO Nov2005-230200Z VRB03KT 9999 FEW030 OVC043 10/06 Q1029 RMK PP000=
SPZO Nov2005-230300Z 09004KT 9999 SCT030 BKN043 10/07 Q1030 RMK PP000=
SPZO Nov2005-230400Z 12005KT 9999 OVC040 10/06 Q1030 RMK PP000=
SPZO Nov2005-230500Z VRB02KT 9999 SCT037 BKN043 09/06 Q1029 RMK PP000=
SPZO Nov2005-230600Z 00000KT 9999 SCT037 SCT043 09/06 Q1028 RMK PP000=
SPZO Nov2005-230700Z VRB92KT 9999 BKN040 SCT046 08/06 Q1027 RMK PP000=
SPZO Nov2005-230800Z VRB02KT 9999 BKN040 SCT050 08/06 Q1027 RMK PP000=
SPZO Nov2005-230900Z 00000KT 9999 BKN046 06/04 Q1027 RMK PP000=
SPZO Nov2005-231000Z 00000KT 9999 SCT040 SCT070 07/05 Q1028 RMK PP000=
SPZO Nov2005-231100Z 09002KT 9999 FEW040 BKN200 07/05 Q1029 RMK PP000=
SPZO Nov2005-231200Z 00000KT 9999 FEW040 SCT200 10/06 Q1030 NOSIG RMK PP000=
SPZO Nov2005-231300Z 00000KT 9999 FEW040 SCT200 13/07 Q1030 NOSIG RMK PP000=
SPZO Nov2005-231400Z VRB03KT 9999 FEW050 SCT200 15/04 Q1030 NOSIG RMK PP000=
SPZO Nov2005-231500Z VRB04KT 9999 FEW050 SCT200 17/04 Q1029 NOSIG RMK PP000=
SPZO Nov2005-231600Z VRB03KT 270V080 9999 FEW050 SCT200 18/01 Q1028 NOSIG RMK PP000 RWY10 10009KT=
SPZO Nov2005-231700Z 36006KT 270V080 9999 SCT050 SCT200 19/02 Q1027 NOSIG RMK PP000 RWY10 VRB06KT=
SPZO Nov2005-231800Z VRB03KT 9999 SCT050 SCT230 21/02 Q1025 NOSIG RMK PP000 WIND RWY10 VRB05KT=
SPZO Nov2005-231900Z 29004KT 9999 SCT050 SCT230 20/00 Q1024 NOSIG RMK PP000 WIND RWY10 23010KT=
SPZO Nov2005-232000Z 09006KT 010V170 9999 SCT050 21/01 Q1022 NOSIG RMK PP000=
SPZO Nov2005-232100Z VRB03KT 9999 FEW050 SCT230 22/M02 Q1021 NOSIG RMK PP000=
SPZO Nov2005-232200Z 29008KT 250V350 9999 FEW050 SCT230 21/M01 Q1021 NOSIG RMK PP000 TMAX 22.2=
SPZO Nov2005-232300Z 28010KT 250V350 9999 FEW050 SCT230 19/M03 Q1021 NOSIG RMK PP000=
SPZO Nov2005-240000Z 27004KT 9999 FEW200 17/M01 Q1022 RMK PP000=
SPZO Nov2005-240100Z 36004KT 9999 SKC 15/04 Q1024 RMK PP000=
SPZO Nov2005-240200Z VRB03KT 9999 SKC 15/04 Q1025 RMK PP000=
SPZO Nov2005-240300Z 00000KT 9999 SKC 13/05 Q1026 RMK PP000=
SPZO Nov2005-240400Z 00000KT 9999 SKC 12/05 Q1027 RMK PP000=
SPZO Nov2005-240500Z 00000KT 9999 SKC 10/05 Q1026 RMK PP000 NOSIG=
SPZO Nov2005-240600Z 00000KT 9999 SKC 10/06 Q1026 RMK PP000=
SPZO Nov2005-240700Z 00000KT 9999 SKC 10/03 Q1025 RMK PP000=
SPZO Nov2005-240800Z 25004KT 9999 SKC 09/03 Q1025 RMK PP000=
SPZO Nov2005-240900Z 00000KT 9999 FEW200 07/03 Q1026 RMK PP000=
SPZO Nov2005-241000Z VRB03KT 9999 FEW047 SCT100 07/03 Q1026 RMK PP000=
SPZO Nov2005-241100Z 00000KT 9999 FEW060 BKN100 08/04 Q1027 RMK PP000=
SPZO Nov2005-241200Z 00000KT 9999 SCT050 OVC100 09/04 Q1029 NOSIG RMK PP000=
SPZO Nov2005-241300Z 29003KT 250V350 9999 SCT050 OVC100 12/01 Q1029 NOSIG RMK PP000=
SPZO Nov2005-241400Z 00000KT 9999 FEW050 OVC100 13/00 Q1029 NOSIG RMK PP000=
SPZO Nov2005-241500Z VRB02KT 9999 FEW050 OVC150 15/01 Q1029 NOSIG RMK PP000=
SPZO Nov2005-241600Z VRB03KT 9999 FEW050 SCT150 OVC230 16/01 Q1028 NOSIG RMK PP000=
SPZO Nov2005-241700Z VRB04KT 9999 FEW050 OVC230 18/02 Q1027 NOSIG RMK PP000=
SPZO Nov2005-241800Z VRB06KT 9999 SCT050 SCT230 19/02 Q1025 NOSIG RMK PP000=
SPZO Nov2005-241900Z 24004KT 170V290 9999 SCT040 SCT050 18/03 Q1024 TEMPO VCSH RMK PP000=
SPZO Nov2005-242000Z VRB04KT 9999 FEW043 BKN080 19/03 Q1023 NOSIG RMK PP000=
SPZO Nov2005-242100Z 28010KT 250V350 9999 SCT040 SCT230 19/03 Q1023 NOSIG RMK WIND RWY10 28015KT PP000=
SPZO Nov2005-242200Z 28010KT 9999 SCT040 SCT230 18/03 Q1023 NOSIG RMK PP000 T.MAX 19.7=
SPZO Nov2005-242300Z 34004KT 270V360 9999 SCT040 SCT100 17/03 Q1024 NOSIG RMK PP000=
SPZO Nov2005-250000Z 27007KT 9999 BKN050 14/04 Q1025 RMK PP000=
SPZO Nov2005-250100Z 27008KT 9999 BKN050 13/05 Q1027 RMK PP000=
SPZO Nov2005-250200Z 00000KT 9999 BKN050 13/04 Q1028 RMK PP000=
SPZO Nov2005-250300Z 10002KT 9999 BKN050 11/05 Q1028 RMK PP000=
SPZO Nov2005-250400Z 00000KT 9999 BKN050 11/05 Q1028 RMK PP000=
SPZO Nov2005-250500Z 00000KT 9999 BKN050 10/05 Q1028 RMK PP000=
SPZO Nov2005-250600Z 09002KT 9999 BKN050 09/05 Q1028 RMK PP000=
SPZO Nov2005-250700Z 00000KT 9999 BKN050 09/06 Q1027 RMK PP000=
SPZO Nov2005-250800Z 00000KT 9999 BKN050 09/05 Q1027 RMK PP000=
SPZO Nov2005-250900Z 00000KT 9999 BKN050 09/05 Q1027 RMK PP000=
SPZO Nov2005-251000Z 00000KT 9999 SCT040 SCT050 10/05 Q1028 RMK PP000=
SPZO Nov2005-251100Z 00000KT 9999 SCT040 SCT050 10/06 Q1029 RMK PP000=
SPZO Nov2005-251200Z 00000KT 9999 SCT037 BKN050 10/06 Q1030 NOSIG PP000=
SPZO Nov2005-251300Z 00000KT 9999 SCT040 BKN080 12/05 Q1030 NOSIG PP000=
SPZO Nov2005-251400Z VRB02KT 9999 SCT040 SCT080 14/06 Q1030 NOSIG PP000=
SPZO Nov2005-251500Z 00000KT 9999 SCT040 SCT080 16/06 Q1029 NOSIG PP000=
SPZO Nov2005-251600Z VRB03KT 9999 SCT040 BKN060 17/04 Q1028 NOSIG RMK PP000=
SPZO Nov2005-251700Z VRB04KT 9999 SCT050 20/03 Q1027 NOSIG RMX PP000=
SPZO Nov2005-251800Z VRB05KT 9999 SCT050TCU BKN080 20/03 Q1025 TEMPO VCSH RMK PP000 RWY10 19011KT=
SPZO Nov2005-251900Z 29015KT 260V350 9999 FEW043TCU SCT050 BKN080 20/03 Q1024 TEMPO VCSH RMK PP000 RWY10 31015KT 270V020=
SPZO Nov2005-252000Z 27010KT 190V350 9999 FEW043TCU SCT050 BKN100 21/03 Q1024 NOSIG RMK PP000 RWY10 32004KT 260V020=
SPZO Nov2005-252100Z 28018KT 260V350 9999 VCRA FEW040TCU SCT050 BKN080 17/04 Q1024 NOSIG RMK PP000 RWY10 30025KT 270V360=
SPZO Nov2005-252200Z VRB02KT 9999 SCT047 BKN080 16/03 Q1024 NOSIG RMK PP000 RWY10 35004KT TMAX 20.8=
SPZO Nov2005-252300Z 36006KT 340V080 9999 FEW050 BKN100 16/03 Q1024 NOSIG RMK PP000=
SPZO Nov2005-260000Z 28010KT 260V350 9999 FEW040 BKN100 14/04 Q1025 RMK PP000=
SPZO Nov2005-260100Z 00000KT 9999 BKN100 14/04 Q1026 RMK PP000=
SPZO Nov2005-260200Z 09004KT 9999 FEW043 BKN080 12/06 Q1027 RMK PP000=
SPZO Nov2005-260300Z 08004KT 9999 SCT040 SCT080 12/05 Q1028 RMK PP000=
SPZO Nov2005-260400Z 00000KT 9999 SCT037 SCT070 11/06 Q1028 RMK PP000=
SPZO Nov2005-260500Z 28007KT 9999 SCT037 SCT050 12/06 Q1028 RMK PP000=
SPZO Nov2005-260600Z 00000KT 9999 SCT037 SCT046 12/06 Q1027 RMK PP000=
SPZO Nov2005-260700Z 27008KT 9999 BKN040 SCT046 12/06 Q1026 RMK PP000=
SPZO Nov2005-260800Z 28004KT 9999 BKN040 SCT046 11/06 Q1026 RMK PP000=
SPZO Nov2005-260900Z VRB03KT 9999 BKN040 SCT080 11/06 Q1026 RMK PP000=
SPZO Nov2005-261000Z VRB03KT 9999 FEW030 SCT040 BKN046 10/07 Q1027 RMK PP000=
SPZO Nov2005-261100Z 10005KT 9999 SCT037 BKN060 11/07 Q1028 RMK PP000=
SPZO Nov2005-261200Z 10006KT 9000 BKN040 SCT080 11/07 Q1028 NOSIG RMK HZ PP000=
SPZO Nov2005-261300Z VRB03KT 9000 SCT040 SCT080 14/07 Q1028 BECMG FM1330 9999 RMK HZ PP000=
SPZO Nov2005-261400Z VRB02KT 9999 SCT046 SCT080 16/04 Q1028 NOSIG RMK PP000=
SPZO Nov2005-261500Z VRB06KT 9999 SCT046 SCT080 17/03 Q1027 NOSIG RMK PP000 WIND RWY10 30012KT 230V030=
SPZO Nov2005-261600Z VRB06KT 9999 SCT046 SCT080 18/03 Q1026 NOSIG RMX PP000 RWY10 30017KT=
SPZO Nov2005-261700Z VRB07KT 9999 VCSH FEW043TCU SCT050 18/04 Q1025 NOSIG RMK PP000 RWY 10 30028G39KT=
SPZO Nov2005-261800Z 30028KT 9999 FEW040TCU SCT050 SCT080 18/04 Q1025 NOSIG RMK PP000 RWY10 05012KT 360V110=
SPZO Nov2005-261900Z 36011KT 9999 VCRA SCT043TCU SCT053 18/05 Q1024 NOSIG RMK PP000 RWY10 02015KT 290V080=
SPZO Nov2005-262000Z 01011KT 340V070 9999 FEW040TCU SCT050 18/05 Q1023 NOSIG RMK PP000 RWY10 32020KT 250V050=
SPZO Nov2005-262100Z 10009KT 070V170 9999 FEW043TCU SCT050 19/05 Q1023 NOSIG RMK PP000 RWY10 33012KT 250V020=
SPZO Nov2005-262200Z 12006KT 9999 SCT050 18/05 Q1022 NOSIG RMK PP000 TMAX 20.3=
SPZO Nov2005-262300Z VRB02KT 9999 FEW050 17/04 Q1023 NOSIG RMK PP000=
SPZO Nov2005-270300Z 00000KT 9999 BKN040 12/06 Q1027 RMK PP000=
SPZO Nov2005-270400Z 00000KT 9999 SCT040 12/06 Q1027 RMK PP000=
SPZO Nov2005-270500Z 00000KT 9999 BKN040 12/05 Q1026 RMK PP000=
SPZO Nov2005-270600Z 27011KT 9999 SCT040 12/05 Q1026 RMK PP000=
SPZO Nov2005-270700Z 26006KT 9999 FEW037 SCT047 12/05 Q1026 RMK PP000=
SPZO Nov2005-270800Z 28007KT 9999 FEW040 SCT200 11/05 Q1026 RMK PP000=
SPZO Nov2005-270900Z 00000KT 9999 FEW040 10/05 Q1026 RMK PP000=
SPZO Nov2005-271000Z 00000KT 9999 FEW047 SCT200 09/04 Q1026 RMK PP000=
SPZO Nov2005-271100Z 28004KT 9999 FEW050 SCT200 08/04 Q1027 RMK PP000=
SPZO Nov2005-271200Z 11003KT 9999 FEW043 BKN200 10/05 Q1028 NOSIG RMK PP000 RWY10 27007KT=
SPZO Nov2005-271300Z VRB03KT 9999 SCT043 SCT200 15/05 Q1028 NOSIG RMK PP000 RWY10 VRB07KT=
SPZO Nov2005-271400Z 03005KT 270V070 9999 SCT050 SCT150 15/03 Q1028 NOSIG RMK PP000 RWY10 VRB04KT=
SPZO Nov2005-271500Z VRB02KT 9999 FEW050 SCT150 17/01 Q1027 NOSIG RMK PP000 RWY10 32007KT 270V090=
SPZO Nov2005-271600Z 34006KT 270V080 9999 FEW050 SCT120 20/02 Q1026 NOSIG RMK PP000 RWY10 21005KT 110V300=
SPZO Nov2005-271700Z 02006KT 300V090 9999 FEW050 SCT200 20/M01 Q1024 NOSIG RMK PP000=
SPZO Nov2005-271800Z 29008KT 250V020 9999 SCT050 SCT230 21/02 Q1023 NOSIG RMK PP000 WIND RWY10 28023KT 310V330=
SPZO Nov2005-271900Z 33004KT 250V080 9999 FEW050 SCT230 22/M03 Q1021 NOSIG RMK PP000 WIND RWY10 VRB14KT=
SPZO Nov2005-272000Z 33007KT 250V020 9999 FEW050 SCT230 23/M05 Q1020 NOSIG RMK PP000 WIND RWY10 34006KT 260V040=
SPZO Nov2005-272100Z 30010KT 270V010 9999 FEW050 BKN230 22/M05 Q1019 NOSIG RMK PP000 WIND RWY10 31014KT 240V040=
SPZO Nov2005-272200Z 28013KT 260V350 9999 BKN230 21/M05 Q1019 NOSIG RMK PP000 WIND RWY10 29019KT 250V020 TMAX 23.7=
SPZO Nov2005-272300Z 28009KT 250V350 9999 BKN230 18/M05 Q1020 NOSIG RMK PP000=
SPZO Nov2005-280000Z 34004KT 9999 FEW200 16/M03 Q1021 RMK PP000=
SPZO Nov2005-280100Z 27008KT 9999 SKC 14/02 Q1022 RMK PP000=
SPZO Nov2005-280200Z VRB03KT 9999 SKC 13/02 Q1023 RMK PP000=
SPZO Nov2005-280300Z 08005KT 9999 SKC 12/05 Q1025 RMK PP000=
SPZO Nov2005-280400Z 00000KT 9999 SKC 10/04 Q1025 RMK PP000=
SPZO Nov2005-280500Z 00000KT 9999 SKC 09/04 Q1025 RMK PP000=
SPZO Nov2005-280600Z 28005KT 9999 SKC 09/04 Q1024 RMK PP000=
SPZO Nov2005-280700Z 00000KT 9999 SKC 08/04 Q1024 RMK PP000=
SPZO Nov2005-280800Z 00000KT 9999 SKC 08/04 Q1024 RMK PP000=
SPZO Nov2005-280900Z 00000KT 9999 SKC 07/04 Q1024 RMK PP000=
SPZO Nov2005-281000Z 00000KT 9999 FEW060 SCT200 07/03 Q1025 RMK PP000=
SPZO Nov2005-281100Z 00000KT 9000 SCT200 06/03 Q1026 HZ RMK PP000=
SPZO Nov2005-281200Z 00000KT 9000 SCT230 10/04 Q1027 BECMG 9999 RMK HZ PP000=
SPZO Nov2005-281300Z 00000KT 9999 SCT230 14/03 Q1027 NOSIG RMK PP000=
SPZO Nov2005-281400Z VRB03KT 9999 SCT230 16/02 Q1026 NOSIG RMK PP000=
SPZO Nov2005-281500Z VRB03KT 9999 FEW050 SCT230 19/03 Q1026 NOSIG RMK PP000 WIND RWY10 VRB09KT=
SPZO Nov2005-281600Z VRB04KT 9999 FEW050 SCT230 20/00 Q1024 NOSIG RMK PP000 WIND RWY10 VRB06KT=
SPZO Nov2005-281700Z VRB04KT 9999 FEW050 SCT230 22/00 Q1023 NOSIG RMK PP000 WIND RWY10 VRB09KT=
SPZO Nov2005-281800Z VRB06KT 9999 FEW050 SCT230 23/M01 Q1022 NOSIG RMK PP000=
SPZO Nov2005-281900Z 01012KT 340V080 9999 SCT050 SCT230 25/01 Q1021 NOSIG RMK PP000=
SPZO Nov2005-282000Z 01012KT 330V080 9999 FEW050 SCT230 23/03 Q1020 NOSIG RMK PP000=
SPZO Nov2005-282100Z 08010KT 360V110 9999 FEW043TCU SCT230 20/04 Q1020 TEMPO VCSH RMK PP000=
SPZO Nov2005-282200Z 01012KT 350V080 9999 FEW100 BKN230 20/05 Q1020 NOSIG RMK PP000 T.MAX 24.5=
SPZO Nov2005-282300Z VRB05KT 9999 SCT100 SCT230 19/04 Q1021 NOSIG RMK PP000=
SPZO Nov2005-290000Z 05004KT 360V110 9999 BKN100 18/04 Q1022 RMK PP000=
SPZO Nov2005-290100Z 24003KT 180V300 9999 BKN100 16/04 Q1023 RMK PP000=
SPZO Nov2005-290200Z 27005KT 9999 BKN100 14/05 Q1024 RMK PP000=
SPZO Nov2005-290300Z 10003KT 9999 BKN100 13/05 Q1025 RMK PP000=
SPZO Nov2005-290400Z 00000KT 9999 BKN100 12/05 Q1025 RMK PP000=
SPZO Nov2005-290500Z 09002KT 9999 BKN100 12/06 Q1025 RMK PP000=
SPZO Nov2005-290600Z 09002KT 9999 BKN100 11/06 Q1024 RMK PP000=
SPZO Nov2005-290700Z 09002KT 9999 BKN100 10/05 Q1024 RMK PP000=
SPZO Nov2005-290800Z 00000KT 9999 BKN100 10/05 Q1024 RMK PP000=
SPZO Nov2005-290900Z 00000KT 9999 BKN100 08/05 Q1024 RMK PP000=
SPZO Nov2005-291000Z 00000KT 9999 BKN100 08/04 Q1025 RMK PP0000=
SPZO Nov2005-291100Z 00000KT 9999 FEW050 SCT100 09/05 Q1026 RMK PP000=
SPZO Nov2005-291200Z 08002KT 9000 BKN230 12/06 Q1027 NOSIG RMK PP000=
SPZO Nov2005-291300Z VRB02KT 9999 FEW043 BKN230 15/06 Q1027 NOSIG RMK PP000=
SPZO Nov2005-291400Z 00000KT 9999 FEW043 SCT230 17/07 Q1027 NOSIG RMK PP000=
SPZO Nov2005-291500Z VRB04KT 9999 SCT050 SCT230 18/05 Q1026 NOSIG RMK PP000=
SPZO Nov2005-291600Z VRB04KT 9999 SCT050 SCT230 22/05 Q1025 NOSIG RMK PP000=
SPZO Nov2005-291700Z VRB03KT 9999 SCT050 SCT230 21/04 Q1024 NOSIG RMK PP000=
SPZO Nov2005-291800Z 00000KT 9999 VCRA SCT043TCU SCT050 22/03 Q1023 NOSIG RMK PP000 RWY10 36012KT 310V070=
SPZO Nov2005-291900Z 11008KT 9999 SCT043TCU SCT050 21/04 Q1022 NOSIG RMK PP000 RWY10 04015KT 030V100=
SPZO Nov2005-292000Z 36012KT 340V080 9999 FEW040TCU SCT050 BKN200 21/04 Q1022 NOSIG RMK PP000 RWY10 29010KT 210V360=
SPZO Nov2005-292100Z 01010KT 350V110 9999 SCT047 BKN200 20/03 Q1023 NOSIG RMK PP000 RWY10 10012KT 050V140=
SPZO Nov2005-292200Z 03010KT 360V080 9999 FEW040TCU SCT047 BKN100 19/03 Q1023 TEMPO VCSH RMK PP000 TMAX 22.8=
SPZO Nov2005-292300Z 10015KT 090V170 9999 VCRA FEW040TCU SCT047 BKN060 15/05 Q1025 NOSIG RMK PP000=
SPZO Nov2005-300000Z VRB04KT 9999 BKN040 SCT050 15/04 Q1024 RMK PP000=
SPZO Nov2005-300100Z 13005KT 080V190 9999 SCT040 SCT070 14/04 Q1026 RMK PP000=
SPZO Nov2005-300200Z 09002KT 9999 FEW050 13/04 Q1027 RMK PP000=
SPZO Nov2005-300300Z 00000KT 9999 FEW040 SCT070 11/05 Q1028 RMK PP000=
SPZO Nov2005-300400Z 00000KT 9999 FEW050 10/04 Q1028 RMK PP000=
SPZO Nov2005-300500Z VRB03KT 9999 FEW080 10/04 Q1028 RMK PP000=
SPZO Nov2005-300600Z 00000KT 9999 SCT050 09/04 Q1027 RMK PP000=
SPZO Nov2005-300700Z 00000KT 9999 FEW050 09/04 Q1027 RMK PP000=
SPZO Nov2005-300800Z 00000KT 9999 FEW060 08/05 Q1027 RMK PP000=
SPZO Nov2005-300900Z 00000KT 9999 FEW060 08/04 Q1027 RMK PP000=
SPZO Nov2005-301000Z 00000KT 9999 FEW040 SCT200 07/04 Q1029 RMK PP000=
SPZO Nov2005-301100Z 10002KT 9999 FEW040 BKN230 08/05 Q1029 RMK PP000=
SPZO Nov2005-301200Z 00000KT 9999 SCT040 SCT230 11/06 Q1029 NOSIG RMK PP000=
SPZO Nov2005-301300Z 00000KT 9999 SCT040 SCT100 15/06 Q1029 NOSIG RMK PP000=
SPZO Nov2005-301400Z VRB02KT 9999 SCT040 SCT100 16/06 Q1029 NOSIG RMK PP000=
SPZO Nov2005-301500Z VRB02KT 9999 SCT040 SCT120 19/05 Q1028 NOSIG RMK PP000=
SPZO Nov2005-301600Z VRB04KT 9999 SCT040TCU SCT100 18/05 Q1028 TEMPO VCSH RMK PP000 RA CDTE E RWY10 28009KT=
SPZO Nov2005-301700Z 29007KT 250V020 9999 SCT040TCU SCT046 19/06 Q1027 TEMPO VCSH RMK PP000 RWY 10 31019KT RA CDTE E=
SPZO Nov2005-301800Z 05005KT 350V050 9999 TS VCSH SCT040TCU SCT050 18/07 Q1026 NOSIG RMK PP000 RWY10 VRB05KT=
SPZO Nov2005-301900Z VRB02KT 9999 -RA SCT040TCU SCT050 19/06 Q1025 NOSIG RMK PP002 RWY10 24006KT=
SPZO Nov2005-302000Z 28006KT 270V340 9000 VCRA FEW040TCU SCT050 SCT200 19/05 Q1023 RERA NOSIG RMK PP006 RWY10 32011KT 250V020=
SPZO Nov2005-302100Z 00000KT 9999 FEW040TCU SCT050 SCT200 20/03 Q1022 NOSIG RMK PP000 RWY10 33017KT 280V040=
SPZO Nov2005-302200Z 01005KT 320V100 9000 -TSRA FEW033CB SCT040 SCT060 18/04 Q1023 NOSIG RMK PPTRZ RWY10 01020KT 240V040 TMAX 21.2=
SPZO Nov2005-302300Z VRB02KT 8000 TSRA FEW033CB BKN047 12/07 Q1026 NOSIG RMK PP050=
SPZO Dic2005-010000Z VRB02KT 9999 OVC040 12/08 Q1027 RMK PP000=
SPZO Dic2005-010100Z 00000KT 9999 OVC040 12/07 Q1027 RMK PP000=
SPZO Dic2005-010200Z VRB01KT 9999 FEW040 SCT080 12/08 Q1028 RMK PP000=
SPZO Dic2005-010300Z VRB02KT 9999 FEW040 SCT080 12/08 Q1029 RMK PP000=
SPZO Dic2005-010400Z 00000KT 9999 FEW040 SCT060 12/08 Q1029 RMK PP000=
SPZO Dic2005-010500Z 00000KT 9999 FEW040 SCT050 12/07 Q1029 RMK PP000=
SPZO Dic2005-010600Z VRB03KT 9999 SCT040 SCT050 11/07 Q1028 RMK PP000=
SPZO Dic2005-010700Z 29004KT 9999 SCT040 SCT070 11/07 Q1028 RMK PP000=
SPZO Dic2005-010800Z 00000KT 9999 SCT037 SCT070 10/06 Q1027 RMK PP000=
SPZO Dic2005-010900Z 10006KT 9999 BKN040 SCT050 10/07 Q1028 RMK PP000=
SPZO Dic2005-011000Z 09005KT 9999 FEW030 SCT040 BKN043 09/07 Q1028 RMK PP000=
SPZO Dic2005-011100Z 09002KT 9999 FEW036 BKN043 09/06 Q1029 RMK PP000=
SPZO Dic2005-011200Z VRB02KT 9999 FEW033 SCT050 BKN080 11/06 Q1029 NOSIG RMK PP000=
SPZO Dic2005-011300Z VRB02KT 9999 FEW033 SCT047 BKN070 12/06 Q1030 NOSIG RMK PP000=
SPZO Dic2005-011400Z VRB02KT 9999 FEW033 SCT053 BKN150 14/06 Q1029 NOSIG RMK PP000=
SPZO Dic2005-011500Z 32005KT 260V040 9999 SCT040 SCT200 16/05 Q1029 NOSIG RMK PP000 RWY10 00000KT=
SPZO Dic2005-011600Z VRB02KT 9999 FEW040TCU BKN050 17/04 Q1027 TEMPO VCSH RMK PP000 RWY10 VRB02KT=
SPZO Dic2005-011700Z 04003KT 270V100 9999 SCT040TCU OVC060 18/05 Q1026 NOSIG RMK PP000 RWY10 13004KT 330V270=
SPZO Dic2005-011800Z 34006KT 9999 SCT040TCU BKN060 17/05 Q1026 TEMPO VCSH PP000=
SPZO Dic2005-011900Z VRB06KT 9999 -TSRA VCSH SCT040TCU SCT043CB BKN080 14/05 Q1026 TEMPO FM20 9000 NSW RMK WIND RWY10 VRB12G27KT PP004=
SPZO Dic2005-012000Z 01009KT 340V080 9999 -RA SCT040 SCT043 BKN080 11/05 Q1027 WS LDG RWY28 TEMPO NSW RMK WIND RWY10 02017G33KT 300V110 PP016=
SPZO Dic2005-012100Z 16003KT 9999 SCT040 SCT043 BKN080 12/06 Q1027 RERA NOSIG RMK PP002=
SPZO Dic2005-012200Z 08003KT 9999 FEW040 OVC080 12/06 Q1027 NOSIG RMK PP000=
SPZO Dic2005-012300Z 00000KT 9999 SCT050 OVC200 11/04 Q1027 NOSIG RMK PP000=
SPZO Dic2005-020000Z 00000KT 9999 BKN200 11/06 Q1028 RMK PP000=
SPZO Dic2005-020100Z 00000KT 9999 SCT040 SCT100 10/06 Q1029 RMK PP000=
SPZO Dic2005-020200Z VRB03KT 9999 BKN050 10/06 Q1030 RMK PP000=
SPZO Dic2005-020300Z 00000KT 9999 FEW040 SCT050 09/06 Q1030 RMK PP000=
SPZO Dic2005-020400Z 00000KT 9999 BKN040 09/06 Q1030 RMK PP000=
SPZO Dic2005-020500Z 00000KT 9999 SCT037 SCT047 09/06 Q1030 RMK PP000=
SPZO Dic2005-020600Z 00000KT 9999 SCT037 BKN050 10/06 Q1029 RMK PP000=
SPZO Dic2005-020700Z 00000KT 9999 SCT037 BKN047 09/07 Q1028 RMK PP000=
SPZO Dic2005-020800Z 00000KT 9999 SCT037 BKN047 09/06 Q1028 RMK PP000=
SPZO Dic2005-020900Z 00000KT 9999 SCT033 BKN043 09/06 Q1028 RMK PP000=
SPZO Dic2005-021000Z 00000KT 9999 SCT037 SCT047 09/06 Q1029 RMK PP000=
SPZO Dic2005-021100Z 00000KT 9000 SCT043 SCT053 09/07 Q1029 HZ RMK PP000=
SPZO Dic2005-021200Z 00000KT 9999 SCT050 SCT080 12/05 Q1030 NOSIG RMK PP000=
SPZO Dic2005-021300Z 09003KT 9999 SCT046 SCT080 12/04 Q1030 NOSIG RMK PP000=
SPZO Dic2005-021400Z 00000KT 9999 SCT050 SCT080 14/04 Q1031 NOSIG RMK PP000=
SPZO Dic2005-021500Z VRB01KT 9999 SCT050 SCT080 16/04 Q1030 NOSIG RMK PP000=
SPZO Dic2005-021600Z VRB02KT 9999 SCT050 SCT080 16/05 Q1029 NOSIG RMK PP000=
SPZO Dic2005-021700Z 00000KT 9999 BKN050 SCT080 17/04 Q1028 NOSIG RMK PP000=
SPZO Dic2005-021800Z 01010KT 340V080 9999 SCT050 SCT080 17/03 Q1028 RMK PP000=
SPZO Dic2005-021900Z 01013KT 340V080 9999 SCT050 SCT080 17/03 Q1026 NOSIG RMK PP000=
SPZO Dic2005-022000Z 01012KT 350V080 9999 FEW040 SCT050 18/03 Q1025 NOSIG RMK PP000=
SPZO Dic2005-022100Z 01012KT 340V080 9999 SCT050 18/03 Q1025 NOSIG RMK PP000=
SPZO Dic2005-022200Z 35009KT 270V020 9999 FEW050 17/02 Q1024 NOSIG RMK PP000 T.MAX 18.8=
SPZO Dic2005-022300Z 36008KT 340V070 9999 FEW050 16/02 Q1025 NOSIG RMK PP000=
SPZO Dic2005-030000Z 00000KT 9999 SKC 14/03 Q1026 RMK PP000=
SPZO Dic2005-030100Z 27006KT 9999 SKC 12/06 Q1027 RMK PP000=
SPZO Dic2005-030200Z 00000KT 9999 SKC 11/04 Q1028 RMK PP000=
SPZO Dic2005-030300Z VRB02KT 9999 SKC 09/04 Q1029 RMK PP000=
SPZO Dic2005-030400Z 00000KT 9999 SKC 09/04 Q1029 RMK PP000=
SPZO Dic2005-030500Z 00000KT 9999 FEW100 10/05 Q1029 RMK PP000=
SPZO Dic2005-030600Z 00000KT 9999 FEW080 09/05 Q1028 RMK PP000=
SPZO Dic2005-030700Z 00000KT 9999 FEW060 SCT080 08/05 Q1028 RMK PP000=
SPZO Dic2005-030800Z 00000KT 9999 SCT040 BKN050 09/05 Q1027 RMK PP000=
SPZO Dic2005-030900Z 00000KT 9999 SCT040 BKN050 09/06 Q1027 RMK PP000=
SPZO Dic2005-031000Z 10003KT 9999 FEW037 SCT043 BKN060 09/06 Q1028 RMK PP000=
SPZO Dic2005-031100Z 00000KT 9000 BKN040 SCT050 10/06 Q1029 FU/HZ RMK PP000 RWY10 VRB03KT=
SPZO Dic2005-031200Z VRB02KT 9000 SCT036 BKN047 11/06 Q1030 FU NOSIG RMK PP000=
SPZO Dic2005-031300Z VRB02KT 9000 SCT036 BKN050 12/06 Q1030 BECMG 9999 RMK FU PP000=
SPZO Dic2005-031400Z 28006KT 250V350 9999 FEW036 BKN050 15/07 Q1030 NOSIG RMK WIND RWY10 28012KT 240V330 PP000=
SPZO Dic2005-031500Z 25004KT 180V350 9999 SCT040 SCT100 17/06 Q1029 NOSIG RMK PP000=
SPZO Dic2005-031600Z VRB03KT 9999 FEW040 SCT050 18/05 Q1029 NOSIG RMK PP000=
SPZO Dic2005-031700Z 00000KT 9999 FEW040TCU SCT050 21/05 Q1027 NOSIG RMK PP000=
SPZO Dic2005-031800Z 00000KT 9999 SCT050 21/04 Q1026 NOSIG RMK PP000=
SPZO Dic2005-031900Z 27006KT 9999 SCT050 22/02 Q1024 TEMPO VCSH RMK PP000 RWY10 21006KT=
SPZO Dic2005-032000Z 34010G20KT 9999 SCT043 SCT080 20/04 Q1023 TEMPO=
SPZO Dic2005-032100Z 32005G19KT 9999 SCT043TCU SCT080 19/04 Q1023 TEMPO VCSH RMK PP000 RWY10 34017G31KT=
SPZO Dic2005-032200Z 11010KT 9999 VCRA SCT043TCU SCT080 13/08 Q1025 NOSIG RMK PP004 RWY10 12018KT RA BTN 2148 AND 2154 TMX 22.9=
SPZO Dic2005-032300Z 10004KT 9999 VCRA SCT043TCU BKN080 13/07 Q1026 NOSIG RMK PP000=
SPZO Dic2005-040000Z 09009KT 9000 -RA SCT036 BKN043 11/08 Q1028 RMK PP006=
SPZO Dic2005-040100Z VRB01KT 9999 -RA FEW025 OVC040 11/08 Q1029 RMK PP012=
SPZO Dic2005-040200Z 10004KT 9999 -DZ SCT025 BKN043 10/08 Q1029 RMK PP004=
SPZO Dic2005-040300Z 09004KT 9999 SCT025 BKN043 11/08 Q1030 RMK PPTRZ=
SPZO Dic2005-040400Z 10005KT 9999 SCT030 BKN046 11/08 Q1030 RMK PP000=
SPZO Dic2005-040500Z 08002KT 9999 SCT030 BKN043 10/08 Q1030 RMK PP000=
SPZO Dic2005-040600Z 10006KT 9999 -RA SCT030 BKN040 10/08 Q1029 RMK PP002=
SPZO Dic2005-040700Z 00000KT 9999 -RA OVC040 10/08 Q1029 RMK PP004=
SPZO Dic2005-040800Z 10004KT 9999 FEW020 OVC040 10/08 Q1029 RMK PP000=
SPZO Dic2005-040900Z 00000KT 9999 SCT036 BKN043 10/07 Q1028 RMK PP000=
SPZO Dic2005-041000Z 10003KT 9999 FEW025 SCT040 BKN046 10/08 Q1029 RMK PP000=
SPZO Dic2005-041100Z VRB01KT 9999 FEW030 SCT040 BKN060 09/07 Q1030 RMK PP000=
SPZO Dic2005-041200Z 00000KT 9999 FEW036 BKN046 11/07 Q1030 NOSIG RMK PP000=
SPZO Dic2005-041300Z VRB01KT 9999 FEW040 14/08 Q1030 NOSIG RMK PP000 BCFG CDTE NE=
SPZO Dic2005-041400Z VRB03KT 9999 FEW036 BKN046 15/07 Q1030 NOSIG RMK PP000=
SPZO Dic2005-041500Z 00000KT 9999 FEW036 BKN046 15/07 Q1030 NOSIG RMK PP000=
SPZO Dic2005-041600Z 30004KT 9999 FEW036 BKN046 18/05 Q1028 NOSIG RMK PP000 RWY10 25004KT=
SPZO Dic2005-041700Z VRB03KT 9999 FEW043 BKN047 20/05 Q1027 NOSIG RMK PP000 RWY10 29011=
SPZO Dic2005-041800Z VRB03KT 9999 SCT043 BKN200 20/07 Q1025 NOSIG RMK PP000=
SPZO Dic2005-041900Z 28003KT 180V290 9999 FEW040TCU SCT050 BKN100 20/04 Q1024 NOSIG RMK PP000 RWY10 36010KT 280V080=
SPZO Dic2005-042000Z 13012KT 090V170 9000 TS -RA FEW033CB SCT040TCU BKN050 11/07 Q1026 NOSIG RMK PPTRZ RWY10 12025G38KT 090V150=
SPZO Dic2005-042100Z 21010KT 170V330 9999 FEW040TCU SCT050 BKN100 12/08 Q1025 RETS TEMPO RA RMK PP008 RWY10 23013KT 160V240=
SPZO Dic2005-042200Z 09007KT 9999 SCT060 BKN150 13/08 Q1024 NOSIG RMK PP000 TMAX 20.7=
SPZO Dic2005-042300Z 10005KT 9999 SCT050 BKN150 12/08 Q1026 NOSIG RMK PP000=
SPZO Dic2005-050000Z 10003KT 9999 SCT050 BKN100 12/08 Q1027 RMK PP000=
SPZO Dic2005-050100Z 26003KT 9999 SCT040 BKN100 12/08 Q1028 RMK PP000=
SPZO Dic2005-050200Z 00000KT 9999 SCT040 BKN100 12/05 Q1028 RMK PP000=
SPZO Dic2005-050300Z 21001KT 9999 SCT040 BKN100 12/06 Q1029 RMK PP000=
SPZO Dic2005-050400Z 28003KT 9999 SCT040 BKN100 12/07 Q1029 RMK PP000=
SPZO Dic2005-050500Z 24001KT 9999 FEW050 BKN120 11/07 Q1028 RMK PP000=
SPZO Dic2005-050600Z 00000KT 9999 FEW040 SCT120 10/07 Q1027 RMK PP000=
SPZO Dic2005-050700Z 27005KT 9999 FEW040 SCT120 09/06 Q1027 RMK PP000=
SPZO Dic2005-050800Z 07005KT 9999 FEW040 SCT120 08/05 Q1026 RMK PP000=
SPZO Dic2005-050900Z 26002KT 9999 FEW040 SCT120 08/05 Q1027 RMK PP000=
SPZO Dic2005-051000Z 28002KT 9999 FEW040 SCT120 08/06 Q1027 RMK PP000=
SPZO Dic2005-051100Z 08003KT 9999 SCT040 BKN120 08/06 Q1028 RMK PP000=
SPZO Dic2005-051200Z VRB03KT 9999 FEW060 OVC150 10/06 Q1029 NOSIG RMK PP000=
SPZO Dic2005-051300Z VRB02KT 9999 FEW060 OVC150 12/07 Q1029 NOSIG RMK PP000=
SPZO Dic2005-051400Z 00000KT 9999 FEW070 OVC150 14/05 Q1029 NOSIG RMK PP000=
SPZO Dic2005-051500Z 00000KT 9999 FEW043 SCT070 OVC150 16/06 Q1029 NOSIG RMK PP000=
SPZO Dic2005-051600Z VRB03KT 9999 FEW047 SCT080 BKN150 17/04 Q1028 NOSIG RMK PP000 RWY10 VRB03KT=
SPZO Dic2005-051700Z 24004KT 190V340 9999 FEW047 SCT070 BKN200 18/05 Q1027 NOSIG RMK PP000 RWY10 0000KT=
SPZO Dic2005-051800Z VRB03KT 9999 FEW043 SCT080 BKN200 19/01 Q1025 NOSIG RMK PP000=
SPZO Dic2005-051900Z 15008KT 090V200 8000 -RA FEW037CB SCT040 BKN046 13/07 Q1026 BECMG FM1940 9999 NSW RMK RWY10 14016G29KT 090V180 PPTRZ=
SPZO Dic2005-052000Z 00000KT 9999 -RA FEW025 SCT043 BKN070 11/08 Q1026 TEMPO NSW RMK PP020=
SPZO Dic2005-052100Z 00000KT 9999 FEW030 SCT043 BKN080 14/07 Q1025 NOSIG RMK PP000=
SPZO Dic2005-052200Z 00000KT 9999 SCT050 BKN100 14/07 Q1025 NOSIG RMK PP000 T.MAX 20.2=
SPZO Dic2005-052300Z VRB02KT 9999 BKN046 SCT100 13/07 Q1024 NOSIG RMK PP000=
SPZO Dic2005-060000Z 00000KT 9999 SCT070 SCT200 13/07 Q1025 RMK PP000=
SPZO Dic2005-060100Z 00000KT 9999 SCT200 12/07 Q1025 RMK PP000=
SPZO Dic2005-060200Z VRB03KT 9999 SKC 11/07 Q1025 RMK PP000=
SPZO Dic2005-060300Z 00000KT 9999 SKC 10/07 Q1026 RMK PP000=
SPZO Dic2005-060400Z 00000KT 9999 SKC 09/06 Q1026 RMK PP000=
SPZO Dic2005-060500Z 00000KT 9999 SKC 08/06 Q1026 RMK PP000=
SPZO Dic2005-060600Z 00000KT 9999 SKC 07/06 Q1025 RMK PP000=
SPZO Dic2005-060700Z VRB02KT 9999 SKC 07/05 Q1025 RMK PP000=
SPZO Dic2005-060800Z 00000KT 9999 SKC 06/05 Q1025 RMK PP000=
SPZO Dic2005-060900Z 00000KT 9999 SCT050 06/05 Q1025 RMK PP000=
SPZO Dic2005-061000Z 00000KT 9999 SCT050 06/05 Q1025 RMK PP000=
SPZO Dic2005-061100Z 00000KT 8000 SCT043 SCT200 07/05 Q1026 RMK PP000 VISIB RED DUE FU/HZ=
SPZO Dic2005-061200Z 00000KT 8000 FEW043 SCT200 10/07 Q1027 BECMG 9999 RMK HZ PP000=
SPZO Dic2005-061300Z 00000KT 9999 FEW040 SCT200 12/07 Q1027 NOSIG RMK PP000=
SPZO Dic2005-061400Z 00000KT 9999 FEW043 15/08 Q1027 NOSIG RMK PP000=
SPZO Dic2005-061500Z VRB03KT 9999 SCT045 17/06 Q1026 NOSIG RMK PP000=
SPZO Dic2005-061600Z VRB04KT 9999 SCT045 19/05 Q1025 NOSIG RMK RWY10 VRB05KT PP000=
SPZO Dic2005-061700Z VRB05KT 9999 SCT050 SCT200 20/04 Q1023 TEMPO VCSH FEW040 SCT043CB BKN200 RMK RWY10 VRB6G21KT PP000=
SPZO Dic2005-061800Z 01009KT 340V080 9999 VCSH FEW036CB SCT040 BKN070 18/06 Q1023 NOSIG RMK PP000=
SPZO Dic2005-061900Z 06004KT 350V110 9999 VCSH SCT040 BKN070 18/04 Q1022 NOSIG RMK PP000=
SPZO Dic2005-062000Z 19004KT 090V260 9999 SCT043 SCT200 20/M00 Q1021 NOSIG RMK PP000=
SPZO Dic2005-062100Z 13008KT 090V170 9999 SCT043CB BKN080 15/05 Q1022 NOSIG RMK PP000=
SPZO Dic2005-062200Z 24004KT 180V270 9999 SCT043 BKN080 15/04 Q1021 NOSIG RMK PP000 T.MAX 21.3=
SPZO Dic2005-062300Z 10005KT 090V170 9999 SCT046 BKN080 14/06 Q1022 NOSIG RMK PP000=
SPZO Dic2005-070000Z 00000KT 9999 SCT040 SCT060 13/07 Q1023 RMK PP000=
SPZO Dic2005-070100Z 32005KT 9999 FEW037 SCT047 14/04 Q1025 RMK PP000=
SPZO Dic2005-070200Z 00000KT 9999 BKN040 14/04 Q1026 RMK PP000=
SPZO Dic2005-070300Z 26008KT 9999 SCT040 SCT100 13/05 Q1026 RMK PP000=
SPZO Dic2005-070400Z 34008KT 9999 BKN040 12/05 Q1026 RMK PP000=
SPZO Dic2005-070500Z 00000KT 9999 BKN040 12/05 Q1026 RMK PP000=
SPZO Dic2005-070600Z 00000KT 9999 SCT037 SCT047 11/05 Q1025 RMK PP000=
SPZO Dic2005-070700Z 00000KT 9999 SCT040 SCT100 10/05 Q1024 RMK PP000=
SPZO Dic2005-070800Z 00000KT 9999 BKN040 10/05 Q1024 RMK PP000=
SPZO Dic2005-070900Z 00000KT 9999 SCT047 BKN060 09/05 Q1024 RMK PP000=
SPZO Dic2005-071000Z 07003KT 9999 SCT047 SCT060 10/05 Q1025 RMK PP000=
SPZO Dic2005-071100Z 00000KT 9999 SCT050 BKN060 10/05 Q1026 RMK PP000=
SPZO Dic2005-071200Z 00000KT 9999 SCT050 BKN100 10/06 Q1026 NOSIG RMK PP000=
SPZO Dic2005-071300Z 00000KT 9999 FEW060 OVC100 13/07 Q1026 NOSIG RMK PP000=
SPZO Dic2005-071400Z VRB03KT 9999 SCT100 BKN230 17/02 Q1026 NOSIG RMK PP000=
SPZO Dic2005-071500Z 00000KT 9999 FEW100 BKN230 18/01 Q1025 NOSIG RMK PP000=
SPZO Dic2005-071600Z 32006KT 270V020 9999 FEW043 BKN230 18/02 Q1024 NOSIG RMK PP000=
SPZO Dic2005-071700Z VRB04KT 9999 FEW043 BKN230 20/01 Q1024 NOSIG RMK PP000=
SPZO Dic2005-071800Z 08007KT 360V110 9999 FEW043 OVC230 21/M04 Q1022 NOSIG RMK PP000=
SPZO Dic2005-071900Z 09007KT 9999 SCT043 OVC120 20/M02 Q1021 NOSIG RMK PP000 RWY10 11011KT=
SPZO Dic2005-072000Z 06009KT 9999 FEW043 OVC120 20/04 Q1020 NOSIG RMK PP000 RYW10 02021KT=
SPZO Dic2005-072100Z 01009KT 9999 FEW043 OVC120 17/05 Q1021 NOSIG RMK PP000 RWY10 32016=
SPZO Dic2005-072200Z 10006KT 360V170 9999 FEW043 OVC120 16/04 Q1021 NOSIG RMK RWY10 04011KT PP000 TMX.21.8=
SPZO Dic2005-072300Z 00000KT 9999 FEW043 OVC120 15/05 Q1022 NOSIG RMK PP000=
SPZO Dic2005-080000Z VRB02KT 9999 FEW043 OVC100 14/05 Q1023 RMK PP000=
SPZO Dic2005-080100Z VRB03KT 9999 OVC100 13/05 Q1025 RMK PP000=
SPZO Dic2005-080200Z 08005KT 9999 FEW050 BKN120 12/05 Q1026 RMK PP000=
SPZO Dic2005-080300Z 09004KT 9999 FEW050 OVC120 12/06 Q1027 RMK PP000=
SPZO Dic2005-080400Z 00000KT 9999 SCT050 BKN100 12/06 Q1027 RMK PP000=
SPZO Dic2005-080500Z 00000KT 9999 FEW050 BKN080 11/06 Q1027 RMK PP000=
SPZO Dic2005-080600Z VRB02KT 9999 FEW050 BKN080 11/07 Q1026 RMK PP000=
SPZO Dic2005-080700Z 00000KT 9999 SCT050 SCT080 11/07 Q1026 RMK PP000=
SPZO Dic2005-080800Z 00000KT 9999 SCT036 BKN070 10/07 Q1025 RMK PP000=
SPZO Dic2005-080900Z VRB02KT 9999 SCT036 BKN050 10/07 Q1025 RMK PP000=
SPZO Dic2005-081000Z VRB01KT 9999 SCT036 SCT050 10/07 Q1025 RMK PP000=
SPZO Dic2005-081100Z 10002KT 9999 SCT036 BKN050 10/07 Q1026 RMK PP000=
SPZO Dic2005-081200Z VRB02KT 9999 FEW033 SCT046 12/07 Q1027 NOSIG RMK PP000=
SPZO Dic2005-081300Z VRB02KT 9999 SCT046 14/07 Q1028 NOSIG RMK PP000=
SPZO Dic2005-081400Z VRB03KT 9999 SCT046 16/04 Q1027 NOSIG RMK RWY10 26005KT 120V040 PP000=
SPZO Dic2005-081500Z VRB07KT 9999 SCT050 19/03 Q1026 NOSIG RMK RWY10 18007KT PP000=
SPZO Dic2005-081600Z VRB04KT 9999 SCT050 20/03 Q1025 NOSIG RMK RWY 34008KT 240V060 PP000=
SPZO Dic2005-081700Z VRB05KT 9999 SCT050 21/02 Q1024 NOSIG RMK PP000=
SPZO Dic2005-081800Z VRB03KT 9999 VCRA FEW040TCU BKN050 21/M01 Q1022 NOSIG RMK PP000 RWY10 09011KT 030V110=
SPZO Dic2005-081900Z 31013KT 270V010 9999 VCRA FEW040TCU SCT050 SCT200 20/02 Q1022 NOSIG RMK PP000 RWY10 33020KT 250V010=
SPZO Dic2005-082000Z 29006KT 250V350 9999 SCT047 BKN200 22/02 Q1021 NOSIG RMK PP000 RWY10 3001KT 250V030=
SPZO Dic2005-082100Z 00000KT 9999 VCRA FEW040TCU SCT050 21/04 Q1021 TEMPO RA RMK PP000 RWY10 35009KT 280V030=
SPZO Dic2005-082200Z 11010KT 080V170 9999 VCRA FEW040TCU BKN050 18/06 Q1022 NOSIG RMK PP000 RWY10 VRB04KT TMAX 22.7=
SPZO Dic2005-082300Z 11013KT 9999 VCRA FEW040TCU BKN047 16/06 Q1024 NOSIG RMK PP000=
SPZO Dic2005-090000Z 06010KT 9999 OVC040 14/06 Q1025 RMK PP000=
SPZO Dic2005-090100Z 13003KT 9999 BKN040 SCT100 15/06 Q1026 RMK PP000=
SPZO Dic2005-090200Z 32008KT 9999 BKN040 BKN100 14/06 Q1027 RMK PP000=
SPZO Dic2005-090300Z 28011KT 9999 SCT040 BKN100 13/06 Q1028 RMK PP000=
SPZO Dic2005-090400Z 29004KT 9999 SCT040 BKN100 13/06 Q1028 RMK PP000=
SPZO Dic2005-090500Z 27006KT 9999 SCT040 BKN100 12/05 Q1028 RMK PP000=
SPZO Dic2005-090600Z 27005KT 9999 SCT040 11/05 Q1027 RMK PP000=
SPZO Dic2005-090700Z 28003KT 9999 SCT040 10/05 Q1027 RMK PP000=
SPZO Dic2005-090800Z 06001KT 9999 SCT040 SCT100 10/06 Q1026 RMK PP000=
SPZO Dic2005-090900Z 05001KT 9999 SCT040 SCT100 10/06 Q1027 RMK PP000=
SPZO Dic2005-091000Z 00000KT 9999 FEW040 SCT100 10/04 Q1027 RMK PP000=
SPZO Dic2005-091100Z 00000KT 9999 SCT040 BKN120 10/06 Q1028 RMK PP000=
SPZO Dic2005-091200Z 00000KT 9999 FEW036 SCT043 BKN100 11/07 Q1029 NOSIG RMK PP000=
SPZO Dic2005-091300Z 00000KT 9999 FEW036 BKN046 13/07 Q1029 NOSIG RMK PP000=
SPZO Dic2005-091400Z 08004KT 9999 FEW046 SCT100 16/06 Q1030 NOSIG RMK PP000=
SPZO Dic2005-091500Z 36004KT 9999 SCT046 SCT120 17/06 Q1029 NOSIG RMK PP000=
SPZO Dic2005-091600Z 06006KT 9999 FEW040TCU SCT050 17/06 Q1028 TEMPO VCSH RMK PP000=
SPZO Dic2005-091700Z 13005KT 9999 FEW040TCU SCT050 18/03 Q1027 TEMPO VCSH RMK PP000 RWY10 11017KT=
SPZO Dic2005-091800Z 10008KT 070V170 9999 VCSH FEW040TCU SCT046 BKN080 18/03 Q1026 NOSIG RMK PP000=
SPZO Dic2005-091900Z 10011KT 070V170 9999 FEW040TCU SCT046 BKN080 19/03 Q1025 NOSIG RMK PP000=
SPZO Dic2005-092000Z 01012KT 340V080 9999 VCSH SCT040 SCT050 17/04 Q1025 NOSIG RMK WIND RWY10 VRB21G41KT PP000=
SPZO Dic2005-092100Z 09008KT 070V170 9999 VCSH BKN040 SCT080 17/06 Q1026 NOSIG RMK PP000=
SPZO Dic2005-092200Z VRB03KT 9999 FEW043 SCT230 18/05 Q1025 NOSIG RMK PP000 T.MAX 18.9=
SPZO Dic2005-092300Z 01008KT 340V080 9999 FEW050 SCT230 16/04 Q1025 NOSIG RMK PP000=
SPZO Dic2005-100000Z 34005KT 9999 FEW050 SCT200 15/04 Q1026 RMK PP000=
SPZO Dic2005-100100Z 07005KT 9999 SCT200 14/04 Q1028 RMK PP000=
SPZO Dic2005-100200Z 00000KT 9999 FEW200 12/04 Q1028 RMK PP000=
SPZO Dic2005-100300Z 00000KT 9999 SKC 11/04 Q1029 RMK PP000=
SPZO Dic2005-100400Z 00000KT 9999 SKC 10/04 Q1029 RMK PP000=
SPZO Dic2005-100500Z 00000KT 9999 SKC 08/04 Q1029 RMK PP000=
SPZO Dic2005-100600Z 00000KT 9999 SKC 08/04 Q1029 RMK PP000=
SPZO Dic2005-100700Z 27003KT 9999 SKC 07/03 Q1028 RMK PP000=
SPZO Dic2005-100800Z VRB03KT 9999 SKC 06/04 Q1028 RMK PP000=
SPZO Dic2005-100900Z 00000KT 9999 SKC 06/03 Q1028 RMK PP000=
SPZO Dic2005-101000Z VRB03KT 9999 FEW200 06/03 Q1029 RMK PP000=
SPZO Dic2005-101100Z 00000KT 8000 FEW200 06/03 Q1030 RMK PP000 VISIB RED DUE FU/HZ=
SPZO Dic2005-101200Z 00000KT 9000 FEW120 10/05 Q1031 BECMG 9999 RMK PP000=
SPZO Dic2005-101300Z 10004KT 070V170 9999 FEW040 SCT120 12/05 Q1031 NOSIG RMK PP000=
SPZO Dic2005-101400Z 10005KT 080V180 9999 SCT040 BKN080 13/05 Q1031 NOSIG RMK PP000=
SPZO Dic2005-101500Z VRB02KT 9999 SCT040 BKN080 15/04 Q1030 NOSIG RMK PP000=
SPZO Dic2005-101600Z 00000KT 9999 BKN043 SCT060 16/03 Q1030 NOSIG RMK PP000=
SPZO Dic2005-101800Z 01011KT 340V080 9999 BKN040 SCT080 18/02 Q1028 NOSIG RMK PP000=
SPZO Dic2005-101900Z 02010KT 340V080 9999 FEW040 SCT050 19/02 Q1026 NOSIG RMK PP000=
SPZO Dic2005-102000Z 01012KT 340V080 9999 SCT050 20/03 Q1025 NOSIG RMK PP000=
SPZO Dic2005-102100Z 01013G23KT 340V080 9999 FEW050 20/02 Q1024 NOSIG RMK PP000=
SPZO Dic2005-102200Z 01010KT 340V080 9999 FEW050 19/03 Q1024 NOSIG RMK PP000 T.MAX 20.7=
SPZO Dic2005-102300Z 01009KT 340V080 9999 FEW050 SCT200 18/02 Q1025 NOSIG RMK PP000 RWY10 VRB09KT=
SPZO Dic2005-110000Z 03005KT 9999 SCT200 16/02 Q1026 RMK PP000=
SPZO Dic2005-110100Z 00000KT 9999 FEW200 16/04 Q1028 RMK PP000=
SPZO Dic2005-110200Z 06004KT 9999 FEW050 SCT200 15/04 Q1029 RMK PP000=
SPZO Dic2005-110300Z 10010KT 9999 SCT050 SCT200 13/05 Q1030 RMK PP000=
SPZO Dic2005-110400Z 00000KT 9999 FEW050 SCT200 12/04 Q1030 RMK PP000=
SPZO Dic2005-110500Z 00000KT 9999 SCT040 SCT050 12/04 Q1030 RMK PP000=
SPZO Dic2005-110600Z 10005KT 9999 SCT040 SCT050 13/05 Q1029 RMK PP000=
SPZO Dic2005-110700Z 07004KT 9999 FEW037 SCT047 12/05 Q1028 RMK PP000=
SPZO Dic2005-110800Z 00000KT 9999 FEW037 SCT047 12/05 Q1028 RMK PP000=
SPZO Dic2005-110900Z VRB02KT 9999 SCT037 SCT050 12/06 Q1028 RMK PP000=
SPZO Dic2005-111000Z 27003KT 9999 SCT040 SCT047 11/05 Q1029 RMK PP000=
SPZO Dic2005-111100Z 30003KT 9999 SCT047 BKN080 BKN150 10/05 Q1030 RMK PP000=
SPZO Dic2005-111200Z 00000KT 9999 SCT050 BKN100 BKN200 13/06 Q1030 NOSIG RMK PP000=
SPZO Dic2005-111300Z 00000KT 9999 FEW050 SCT100 BKN230 14/05 Q1030 NOSIG RMK PP000=
SPZO Dic2005-111400Z VRB02KT 9999 SCT046 SCT230 17/06 Q1030 NOSIG RMK PP000=
SPZO Dic2005-111500Z 36012KT 340V080 9999 VCSH FEW040TCU BKN050 15/05 Q1030 NOSIG RMK WIND RWY10 VRB17G30KT PP000=
SPZO Dic2005-111600Z VRB06KT 9999 VCSH FEW040 BKN050 17/05 Q1030 NOSIG RMK WIND RWY10 10015G26KT 030V160 PP000=
SPZO Dic2005-111700Z VRB04KT 9999 FEW040 SCT050 17/05 Q1029 NOSIG RMK PP000=
SPZO Dic2005-111800Z 13013KT 090V170 9999 FEW040TCU BKN047 17/05 Q1028 RWY10 12024KT 070V160 NOSIG RMK PP000=
SPZO Dic2005-111900Z 13006KT 9999 FEW040 BKN047 18/05 Q1027 TEMPO VCSH RMK RWY10 08011G21KT PP000=
SPZO Dic2005-112000Z 35009KT 9999 FEW040 SCT080 18/05 Q1026 NOSIG RMK PP000=
SPZO Dic2005-112100Z 27009KT 9999 SCT045 BKN100 17/05 Q1026 NOSIG RMK RWY10 33008KT PP000=
SPZO Dic2005-112200Z 28013KT 9999 SCT045 BKN100 16/06 Q1027 NOSIG RMK RWY10 300/18KT TEM MAX.19.6 PP000=
SPZO Dic2005-112300Z 28010KT 9000 VCRA SCT040 BKN100 15/06 Q1027 NOSIG RMK PP000=
SPZO Dic2005-120000Z 08005KT 8000 RA SCT036 BKN043 11/09 Q1029 RMK PP022=
SPZO Dic2005-120100Z VRB03KT 9999 -RA FEW025 OVC043 10/08 Q1031 RMK PP040=
SPZO Dic2005-120200Z 00000KT 9999 -RA SCT030 BKN046 10/07 Q1032 RMK PP024=
SPZO Dic2005-120300Z 00000KT 9000 SCT025 BKN046 10/08 Q1032 RMK PP004=
SPZO Dic2005-120400Z 00000KT 9999 FEW025 OVC046 11/06 Q1032 RMK PP000=
SPZO Dic2005-120500Z 20005KT 9999 OVC040 11/06 Q1031 RMK PP000=
SPZO Dic2005-120600Z 00000KT 9999 FEW030 OVC046 11/05 Q1031 RMK PP000=
SPZO Dic2005-120700Z VRB02KT 9999 BKN040 SCT046 10/06 Q1030 RMK PP000=
SPZO Dic2005-120800Z 00000KT 9999 BKN040 SCT050 10/06 Q1030 RMK PP000=
SPZO Dic2005-120900Z VRB02KT 9999 SCT040 SCT050 10/06 Q1029 RMK PP000=
SPZO Dic2005-121000Z 00000KT 9999 FEW030 SCT040 BKN050 09/06 Q1029 RMK PP000=
SPZO Dic2005-121100Z VRB01KT 9999 SCT036 BKN200 10/07 Q1030 RMK PP000=
SPZO Dic2005-121200Z 08002KT 9999 SCT036 BKN050 11/07 Q1031 NOSIG RMK PP000=
SPZO Dic2005-121300Z 00000KT 9999 FEW036 SCT046 BKN060 12/05 Q1031 NOSIG RMK PP000=
SPZO Dic2005-121400Z 00000KT 9999 FEW036 BKN046 13/06 Q1031 NOSIG RMK PP000=
SPZO Dic2005-121500Z VRB03KT 9999 FEW040 BKN050 15/05 Q1030 NOSIG RMK PP000=
SPZO Dic2005-121600Z VRB05KT 9999 FEW040 SCT050 17/06 Q1029 NOSIG RMK RWY10 VRB05KT PP000=
SPZO Dic2005-121700Z 00000KT 9999 FEW040TCU SCT050 18/04 Q1028 TEMPO VCSH RMK RWY 10 36008KT PP000=
SPZO Dic2005-121800Z 01010KT 300V060 9000 VCRA SCT040TCU SCT050 18/03 Q1027 NOSIG RMK PP000 RWY10 02008KT 330V110=
SPZO Dic2005-121900Z 01007KT 340V080 9999 FEW043 SCT200 17/05 Q1026 NOSIG RMK PP000=
SPZO Dic2005-122000Z 36008KT 300V060 9999 SCT050 20/06 Q1024 NOSIG RMK PP000 RWY10 VRB08KT=
SPZO Dic2005-122100Z 34007KT 280V060 9999 SCT050 21/06 Q1023 NOSIG RMK PP000 RWY10 04011KT 340V090=
SPZO Dic2005-122200Z 01006KT 360V080 9999 FEW043 SCT050 20/05 Q1023 NOSIG RMK PP000 TMAX 21.5=
SPZO Dic2005-122300Z 02010KT 9999 FEW050 SCT200 17/06 Q1024 NOSIG RMK PP000=
SPZO Dic2005-130000Z 28005KT 9999 FEW040TCU SCT050 16/05 Q1026 RMK PP000=
SPZO Dic2005-130100Z 04007KT 9999 SCT040 15/06 Q1027 RMK PP000=
SPZO Dic2005-130200Z 21001KT 9999 SCT040 14/06 Q1029 RMK PP000=
SPZO Dic2005-130300Z 28002KT 9999 SCT040 13/06 Q1029 RMK PP000=
SPZO Dic2005-130400Z 10004KT 9999 FEW050 12/07 Q1030 RMK PP000=
SPZO Dic2005-130500Z 16001KT 9999 FEW050 12/06 Q1030 RMK PP000=
SPZO Dic2005-130600Z 28002KT 9999 SCT050 10/06 Q1030 RMK PP000=
SPZO Dic2005-130700Z 00000KT 9999 SCT050 FEW080 10/06 Q1029 RMK PP000=
SPZO Dic2005-130800Z 00000KT 9999 SCT050 FEW080 10/06 Q1029 RMK PP000=
SPZO Dic2005-130900Z 27002KT 9999 SCT050 09/06 Q1028 RMK PP000=
SPZO Dic2005-131000Z 00000KT 9999 SCT050 08/06 Q1029 RMK PP000=
SPZO Dic2005-131100Z 00000KT 9000 FEW043 BKN200 09/06 Q1030 RMK PP000=
SPZO Dic2005-131200Z VRB03KT 9999 FEW043 BKN200 12/07 Q1031 NOSIG RMK PP000=
SPZO Dic2005-131300Z 06002KT 9999 FEW040 BKN230 14/07 Q1031 NOSIG RMK PP000=
SPZO Dic2005-131400Z VRB03KT 9999 FEW040 SCT230 16/06 Q1031 NOSIG RMK RWY10 12008KT PP000=
SPZO Dic2005-131500Z VRB02KT 9999 FEW043 BKN230 18/05 Q1030 NOSIG RMK RWY10 13008KT PP000=
SPZO Dic2005-131600Z 07005KT 9999 FEW043 BKN230 19/02 Q1029 NOSIG RMK RWY10 34003KT PP000=
SPZO Dic2005-131700Z 33008KT 9999 FEW043 BKN230 20/02 Q1028 NOSIG RMK RWY10 VRB04KT PP000=
SPZO Dic2005-131800Z VRB04KT 9999 SCT046 SCT230 21/M00 Q1026 NOSIG RMK PP000=
SPZO Dic2005-131900Z 27005KT 250V350 9999 SCT050 SCT230 22/M01 Q1024 NOSIG RMK PP000=
SPZO Dic2005-132000Z 10005KT 360V170 9999 SCT050 23/00 Q1023 NOSIG RMK PP000=
SPZO Dic2005-132100Z VRB03KT 9999 FEW050 23/M01 Q1022 NOSIG RMK PP000=
SPZO Dic2005-132200Z VRB08KT 9999 FEW050 23/02 Q1021 NOSIG RMK PP000=
SPZO Dic2005-132300Z VRB04KT 9999 SCT230 19/02 Q1022 NOSIG RMK PP000=
SPZO Dic2005-140000Z 00000KT 9999 SCT200 17/03 Q1024 RMK PP000=
SPZO Dic2005-140100Z 00000KT 9999 BKN200 15/03 Q1026 RMK PP000=
SPZO Dic2005-140200Z 00000KT 9999 SCT200 14/04 Q1027 RMK PP000=
SPZO Dic2005-140300Z 00000KT 9999 FEW200 13/05 Q1028 RMK PP000=
SPZO Dic2005-140400Z 12008KT 9999 SCT037 SCT200 12/05 Q1029 RMK PP000=
SPZO Dic2005-140500Z 19004KT 9999 SCT037 SCT050 BKN070 10/07 Q1030 RMK PP010 RESH BTN 0420/0440=
SPZO Dic2005-140600Z 00000KT 9999 FEW025 SCT040 BKN050 09/07 Q1028 RMK PP000=
SPZO Dic2005-140700Z 00000KT 9999 -RA SCT037 BKN047 10/07 Q1028 RMK PP002=
SPZO Dic2005-140800Z 00000KT 9999 -RA SCT037 BKN047 10/07 Q1027 RMK PPTRZ=
SPZO Dic2005-140900Z 10003KT 9999 FEW030 BKN043 09/07 Q1027 RERA RMK PP000=
SPZO Dic2005-141000Z 11003KT 9999 FEW025 BKN043 09/07 Q1028 RMK PP000=
SPZO Dic2005-141100Z VRB02KT 9999 FEW030 BKN040 OVC080 09/07 Q1029 RMK PP000=
SPZO Dic2005-141200Z 00000KT 9999 FEW025 SCT040 BKN043 10/07 Q1030 NOSIG RMK PP000=
SPZO Dic2005-141300Z 00000KT 9999 FEW040 OVC150 12/07 Q1031 NOSIG RMK PP000=
SPZO Dic2005-141400Z 08005KT 360V170 9999 FEW043 BKN200 13/07 Q1031 NOSIG RMK PP000=
SPZO Dic2005-141500Z 10006KT 070V170 9999 SCT043 OVC200 15/07 Q1031 NOSIG RMK PP000=
SPZO Dic2005-141600Z 10006KT 9999 FEW040 SCT046 OVC200 16/06 Q1030 NOSIG RMK PP000=
SPZO Dic2005-141700Z VRB04KT 360V270 9999 FEW040 OVC200 17/05 Q1029 NOSIG RMK PP000=
SPZO Dic2005-141800Z VRB06KT 9999 VCSH FEW040TCU SCT050 20/05 Q1027 NOSIG RMK PP000=
SPZO Dic2005-141900Z 27008KT 180V350 9999 VCSH FEW040TCU SCT050 21/05 Q1025 NOSIG RMK PP000=
SPZO Dic2005-142000Z 10016KT 080V170 9999 VCSH FEW040CB SCT050 16/06 Q1025 RESHRA NOSIG RMK PP008=
SPZO Dic2005-142100Z 10014KT 080V170 9999 SCT043 15/04 Q1024 NOSIG RMK PP000=
SPZO Dic2005-142200Z 10007KT 090V170 9999 FEW050 SCT230 15/04 Q1025 NOSIG RMK PP000 T.MAX 21.8=
SPZO Dic2005-142300Z 00000KT 9999 FEW050 SCT230 14/05 Q1025 NOSIG RMK PP000=
SPZO Dic2005-150000Z 00000KT 9999 BKN200 12/07 Q1026 RMK PP000=
SPZO Dic2005-150100Z 00000KT 9999 SCT070 SCT200 11/06 Q1027 RMK PP000=
SPZO Dic2005-150200Z 00000KT 9999 BKN050 SCT070 12/06 Q1028 RMK PP000=
SPZO Dic2005-150300Z 00000KT 9999 BKN040 SCT060 12/07 Q1029 RMK PP000=
SPZO Dic2005-150400Z 09003KT 9999 BKN040 SCT050 12/07 Q1029 RMK PP000=
SPZO Dic2005-150500Z 28007KT 9999 BKN040 SCT050 12/06 Q1028 RMK PP000=
SPZO Dic2005-150600Z 25005KT 9999 SCT040 SCT050 12/06 Q1027 RMK PP000=
SPZO Dic2005-150700Z 26005KT 9999 SCT040 SCT060 10/06 Q1026 RMK PP000=
SPZO Dic2005-150800Z 28007KT 9999 BKN040 11/06 Q1026 RMK PP000=
SPZO Dic2005-150900Z 08004KT 9999 BKN040 SCT050 10/06 Q1026 RMK PP000=
SPZO Dic2005-151000Z 09003KT 9999 SCT040 BKN047 10/06 Q1026 RMK PP000=
SPZO Dic2005-151100Z 00000KT 9999 BKN040 SCT047 12/06 Q1028 RMK PP000=
SPZO Dic2005-151200Z 00000KT 9999 FEW036 SCT040 BKN046 11/06 Q1028 NOSIG RMK PP000=
SPZO Dic2005-151300Z 00000KT 9999 VCSH FEW030 SCT040 BKN046 13/07 Q1029 NOSIG RMK PP000=
SPZO Dic2005-151400Z VRB02KT 9999 FEW036 SCT230 16/07 Q1028 NOSIG RMK PP000=
SPZO Dic2005-151500Z VRB04KT 9999 SCT040 SCT100 18/06 Q1028 NOSIG RMK PP000=
SPZO Dic2005-151600Z VRB04KT 9999 FEW040 SCT050 20/05 Q1027 NOSIG RMK PP000=
SPZO Dic2005-151700Z VRB04KT 9999 FEW040 SCT050 20/03 Q1025 NOSIG RMK PP000=
SPZO Dic2005-151800Z VRB04KT 9999 SCT043 SCT050 21/02 Q1028 NOSIG RMK PP000=
SPZO Dic2005-151900Z 26011KT 9999 SCT043TCU SCT050 20/05 Q1023 TEMPO VCSH RMK RWY10 28023G34KT PP000=
SPZO Dic2005-152000Z 02008KT 340V080 9999 FEW043TCU SCT100 19/05 Q1022 NOSIG RMK RWY10 36009KT 300V110 PP000=
SPZO Dic2005-152100Z 01010KT 340V080 9999 SCT043TCU BKN100 19/04 Q1021 TEMPO VCSH RWY10 01014KT 270V090 RMK PP000=
SPZO Dic2005-152200Z 02009G19KT 9999 SCT040TCU OVC100 17/04 Q1023 TEMPO RA RMK PP008 TEM.MAX.22.2 RA BTN 2145- 2150=
SPZO Dic2005-152300Z 16006KT 9999 SCT040 OVC100 16/05 Q1024 TEMPO=
SPZO Dic2005-160000Z 13004KT 190V090 9999 BKN040 SCT050 14/05 Q1026 RMK PP000=
SPZO Dic2005-160100Z 19007KT 090V260 9999 SCT043 SCT050 13/06 Q1028 RMK PP000=
SPZO Dic2005-160200Z VRB04KT 9999 VCSH OVC040 12/06 Q1029 RMK PP000=
SPZO Dic2005-160300Z VRB03KT 9999 OVC040 12/06 Q1030 RMK PP000=
SPZO Dic2005-160400Z 09007KT 9999 -RA SCT036 BKN040 10/08 Q1030 RMK PP006=
SPZO Dic2005-160500Z VRB02KT 9999 -RA SCT036 BKN043 10/07 Q1030 RMK PP002=
SPZO Dic2005-160600Z 00000KT 9999 -RA FEW030 OVC040 09/06 Q1029 RMK PP004=
SPZO Dic2005-160700Z 00000KT 9999 -RA OVC040 08/06 Q1029 RMK PP014=
SPZO Dic2005-160800Z 00000KT 9999 DZ BKN040 SCT070 09/06 Q1029 RMK PP008=
SPZO Dic2005-160900Z 00000KT 9999 DZ SCT030 BKN040 09/06 Q1029 RMK PP006=
SPZO Dic2005-161000Z VRB01KT 9999 FEW025 SCT040 BKN070 09/06 Q1029 RMK PP000=
SPZO Dic2005-161100Z 17001KT 9999 SCT036 SCT200 09/06 Q1029 RMK PP000=
SPZO Dic2005-161200Z 00000KT 9999 FEW036 BKN046 09/06 Q1030 NOSIG RMK PP000=
SPZO Dic2005-161300Z 22002KT 9999 FEW036 SCT046 13/05 Q1030 NOSIG RMK PP000 BCFG CDTE NE=
SPZO Dic2005-161400Z VRB01KT 9999 FEW040 SCT046 15/06 Q1030 NOSIG RMK PP000=
SPZO Dic2005-161500Z 09005KT 360V170 9999 FEW040 SCT050 15/05 Q1029 NOSIG RMK PP000=
SPZO Dic2005-161600Z 08005KT 9999 SCT040 SCT050 16/05 Q1029 NOSIG RMK PP000=
SPZO Dic2005-161700Z VRB04KT 350V180 9999 FEW040 BKN046 16/04 Q1028 TEMPO VCSH RMK PP000=
SPZO Dic2005-161800Z VRB02KT 9999 FEW040TCU BKN050 18/04 Q1026 NOSIG RMK PP000=
SPZO Dic2005-161900Z 01011KT 340V060 9999 FEW040TCU BKN050 18/06 Q1025 TEMPO -RA RMK PP000 RWY10 01015KT 310V090=
SPZO Dic2005-162000Z 36006KT 9999 VCRA FEW040TCU SCT050 SCT200 19/04 Q1024 NOSIG RMK PP000 RWY10 02010KT=
SPZO Dic2005-162100Z 33005KT 9999 VCRA SCT040TCU SCT050 BKN200 19/05 Q1023 NOSIG RMK PP000 RWY10 28010KT=
SPZO Dic2005-162200Z VRB03KT 9999 FEW040TCU SCT050 BKN150 15/06 Q1024 RESH TEMPO SH RMK PP002 RWY10 VRB02KT TMAX 19.8 SH BTN 2130/2145=
SPZO Dic2005-162300Z VRB04KT 9999 SCT040TCU SCT050 BKN200 15/08 Q1025 TEMPO VCSH RMK PP000=
SPZO Dic2005-170000Z 08002KT 9999 FEW040 SCT200 13/09 Q1026 RMK PP000=
SPZO Dic2005-170100Z 00000KT 9999 FEW050 13/08 Q1027 RMK PP000=
SPZO Dic2005-170200Z 21002KT 9999 SCT050 BKN080 13/08 Q1028 RMK PP000=
SPZO Dic2005-170300Z 26005KT 9999 BKN040 SCT080 12/06 Q1029 RMK PP001=
SPZO Dic2005-170400Z 26005KT 9999 SCT040 SCT080 13/06 Q1029 RMK PP000=
SPZO Dic2005-170500Z 28009KT 9999 SCT036 SCT080 11/06 Q1029 RMK PP000=
SPZO Dic2005-170600Z 35007KT 9999 BKN036 SCT080 11/05 Q1029 RMK PP000=
SPZO Dic2005-170700Z 29005KT 9999 -DZ OVC036 10/05 Q1029 RMK PP009=
SPZO Dic2005-170800Z 10004KT 9000 -DZ OVC036 09/06 Q1030 RMK PP01.2=
SPZO Dic2005-170900Z 00000KT 9000 FEW030 BKN036 08/06 Q1030 RMK PP002=
SPZO Dic2005-171000Z 09003KT 9000 -DZ FEW025 BKN036 08/06 Q1030 RMK PP008=
SPZO Dic2005-171100Z 02001KT 9000 FEW025 BKN046 09/06 Q1031 RMK PP000=
SPZO Dic2005-171200Z VRB02KT 9999 FEW033 SCT050 11/07 Q1031 NOSIG RMK PP000=
SPZO Dic2005-171300Z VRB03KT 9999 FEW040 SCT150 13/06 Q1031 NOSIG RMK RWY10 VRB06 PP000=
SPZO Dic2005-171400Z VRB03KT 9999 FEW040 SCT150 15/06 Q1032 NOSIG RMK PP000=
SPZO Dic2005-171500Z VRB03KT 9999 SCT050 17/06 Q1031 NOSIG RMK PP000=
SPZO Dic2005-171600Z 00000KT 9999 SCT040TCU SCT046 17/04 Q1030 TEMPO VCSH RMK PP000=
SPZO Dic2005-171700Z VRB02KT 9999 SCT040 SCT046 16/05 Q1029 RERA NOSIG RMK PPTRZ RWY10 13007KT 090V200=
SPZO Dic2005-171800Z VRB06KT 9999 SCT050 20/04 Q1028 NOSIG RMK PP000=
SPZO Dic2005-171900Z VRB05KT 9999 SCT050 20/04 Q1026 NOSIG RMK PP000=
SPZO Dic2005-172000Z VRB04KT 9999 VCSH FEW040CB SCT050 20/04 Q1025 NOSIG RMK WIND RWY10 VRB10G24KT PP000=
SPZO Dic2005-172100Z 18011KT 160V260 9999 VCSH SCT040CB BKN046 16/05 Q1025 TEMPO -RA RMK PP000=
SPZO Dic2005-172200Z VRB04KT 9999 VCSH SCT040CB BKN050 13/07 Q1026 NOSIG RMK PP000 T.MAX 21.2=
SPZO Dic2005-172300Z 29006KT 270V350 9999 SCT043TCU BKN100 14/07 Q1027 NOSIG RMK PP000=
SPZO Dic2005-180000Z 07004KT 9999 FEW040 BKN200 12/08 Q1028 RMK PP000=
SPZO Dic2005-180100Z 00000KT 9999 SCT040 SCT100 12/08 Q1029 RMK PP000=
SPZO Dic2005-180200Z 00000KT 9999 SCT040 SCT100 12/08 Q1030 RMK PP000=
SPZO Dic2005-180300Z 12005KT 9999 SCT040 BKN100 12/06 Q1030 RMK PP000=
SPZO Dic2005-180400Z 00000KT 9999 BKN040 SCT050 12/06 Q1031 RMK PP000=
SPZO Dic2005-180500Z 00000KT 9999 BKN040 SCT050 11/07 Q1031 RMK PP000=
SPZO Dic2005-180600Z 10004KT 9999 -RA SCT033 BKN043 10/07 Q1030 RMK PP006=
SPZO Dic2005-180700Z VRB02KT 9999 -RA FEW033 BKN043 10/07 Q1030 RMK PP004=
SPZO Dic2005-180800Z 09003KT 9999 FEW025 SCT040 BKN070 10/07 Q1030 RERA RMK PP002=
SPZO Dic2005-180900Z 00000KT 9999 FEW025 BKN040 10/07 Q1030 RMK PP000=
SPZO Dic2005-181000Z 00000KT 9999 FEW025 BKN043 10/07 Q1030 RMK PP000=
SPZO Dic2005-181100Z 00000KT 9999 FEW030 BKN047 10/08 Q1031 RMK PP000=
SPZO Dic2005-181200Z 00000KT 9999 FEW025 SCT060 BKN080 11/08 Q1031 NOSIG RMK PP000=
SPZO Dic2005-181300Z 00000KT 9999 FEW025 SCT060 BKN080 13/08 Q1031 NOSIG RMK PP000=
SPZO Dic2005-181400Z 00000KT 9999 FEW030 SCT080 BKN100 14/07 Q1031 NOSIG RMK PP000=
SPZO Dic2005-181500Z 00000KT 9999 SCT040 BKN080 16/05 Q1031 NOSIG RMK PP000=
SPZO Dic2005-181600Z VRB05KT 9999 VCSH FEW036TCU SCT043 BKN080 16/06 Q1031 NOSIG RMK PP000=
SPZO Dic2005-181700Z VRB03KT 9999 VCSH FEW036TCU SCT043 BKN080 16/06 Q1030 NOSIG RMK PP000=
SPZO Dic2005-181800Z VRB04KT 9999 FEW036 SCT043 BKN080 16/05 Q1029 NOSIG RMK PP000=
SPZO Dic2005-181900Z 00000KT 9999 SCT043 SCT230 18/06 Q1028 NOSIG RMK PP000=
SPZO Dic2005-182000Z 27008KT 180V350 9999 SCT043 SCT230 19/07 Q1027 NOSIG RMK WIND RWY10 28020KT=
SPZO Dic2005-182100Z 28014KT 250V350 9999 FEW040 SCT046 19/06 Q1026 NOSIG RMK WIND RWY10 29021KT 250V350 PP000=
SPZO Dic2005-182200Z 28013KT 9999 FEW040TCU SCT050 19/05 Q1026 NOSIG RMK WIND RWY10 29018KT PP000 T.MAX 19.4=
SPZO Dic2005-182300Z 28012KT 260V350 9999 SCT043 SCT046 16/08 Q1027 NOSIG RMK PP000=
SPZO Dic2005-190000Z 27008KT 9000 TS VCRA FEW037CB BKN047 14/07 Q1028 RMK PP000=
SPZO Dic2005-190100Z VRB03KT 8000 TSRA SCT033CB BKN043 08/06 Q1031 RMK PP080=
SPZO Dic2005-190200Z VRB03KT 8000 -RA SCT030 BKN040 10/07 Q1032 RETS RMK PP024=
SPZO Dic2005-190300Z 00000KT 9999 SCT030 BKN043 10/07 Q1032 RERA RMK PPTRZ=
SPZO Dic2005-190400Z 00000KT 9999 FEW033 SCT043 BKN080 10/07 Q1032 RMK PP000=
SPZO Dic2005-190500Z 00000KT 9999 SCT040 BKN070 10/07 Q1031 RMK PP000=
SPZO Dic2005-190600Z 00000KT 9999 FEW030 SCT040 BKN070 10/08 Q1031 RMK PP000=
SPZO Dic2005-190700Z 00000KT 9999 SCT040 SCT070 10/08 Q1030 RMK PP000=
SPZO Dic2005-190800Z VRB03KT 9999 SCT037 BKN070 10/07 Q1029 RMK PP000=
SPZO Dic2005-190900Z 00000KT 9999 FEW033 SCT043 BKN070 10/07 Q1029 RMK PP000=
SPZO Dic2005-191000Z 00000KT 9999 FEW037 SCT043 SCT100 09/07 Q1030 RMK PP000=
SPZO Dic2005-191100Z 00000KT 9999 FEW037 BKN047 09/07 Q1030 RMK PP000=
SPZO Dic2005-191200Z 10002KT 9999 SCT036 BKN100 10/08 Q1031 NOSIG RMK PP000=
SPZO Dic2005-191300Z 00000KT 9999 FEW036 SCT100 BKN230 13/07 Q1031 NOSIG RMK PP000=
SPZO Dic2005-191400Z 12004KT 080V170 9999 FEW036 SCT100 BKN230 14/05 Q1031 NOSIG RMK PP000=
SPZO Dic2005-191500Z VRB03KT 9999 FEW043 BKN230 17/06 Q1031 NOSIG RMK PP000=
SPZO Dic2005-191600Z 00000KT 9999 SCT043 BKN230 18/05 Q1030 NOSIG RMK PP000=
SPZO Dic2005-191700Z 24004KT 160V290 9999 SCT046 SCT230 20/06 Q1028 NOSIG RMK PP000=
SPZO Dic2005-191800Z VRB06KT 9999 FEW046 SCT230 22/05 Q1027 NOSIG RMK PP000=
SPZO Dic2005-191900Z 11008KT 9999 SCT046 SCT230 22/02 Q1025 NOSIG RMK RWY10 05014KT 330V120 PP000=
SPZO Dic2005-192000Z 01013G23KT 330V100 9999 FEW046 SCT230 21/03 Q1024 NOSIG RMK RWY10 03014G34 PP000=
SPZO Dic2005-192100Z 01013KT 340V080 9999 FEW046 SCT230 19/01 Q1024 NOSIG RMK RWY10 04017G38KT PP000=
SPZO Dic2005-192200Z 01015KT 9999 FEW046 BKN230 18/03 Q1024 NOSIG RMK TEM.MAX.22.3 PP000=
SPZO Dic2005-192300Z VRB08KT 9999 FEW046 SCT230 17/02 Q1025 NOSIG RMK PP000=
SPZO Dic2005-200000Z VRB04KT 9999 SCT043 SCT230 16/04 Q1027 RMK PP000=
SPZO Dic2005-200100Z 01005KT 340V100 9999 SCT040 SCT230 15/04 Q1028 RMK PP000=
SPZO Dic2005-200200Z 00000KT 9999 FEW050 SCT230 13/05 Q1029 RMK PP000=
SPZO Dic2005-200300Z 00000KT 9999 FEW040 SCT230 12/06 Q1029 RMK PP000=
SPZO Dic2005-200400Z VRB02KT 9999 FEW043 SCT230 11/06 Q1030 RMK PP000=
SPZO Dic2005-200500Z 00000KT 9999 FEW040 SCT230 10/06 Q1029 RMK PP000=
SPZO Dic2005-200600Z 00000KT 9999 FEW040 SCT070 09/05 Q1029 RMK PP000=
SPZO Dic2005-200700Z 00000KT 9999 FEW040 SCT230 09/06 Q1028 RMK PP000=
SPZO Dic2005-200800Z 00000KT 9999 FEW036 SCT070 08/05 Q1028 RMK PP000=
SPZO Dic2005-200900Z 00000KT 9999 FEW040 SCT230 07/05 Q1028 RMK PP000=
SPZO Dic2005-201000Z VRB02KT 9999 FEW040 SCT230 07/04 Q1029 RMK PP000=
SPZO Dic2005-201100Z 00000KT 9999 FEW230 07/04 Q1030 RMK PP000=
SPZO Dic2005-201200Z 00000KT 9999 FEW230 11/05 Q1030 NOSIG RMK PP000=
SPZO Dic2005-201300Z VRB02KT 9999 FEW230 14/05 Q1030 NOSIG RMK PP000=
SPZO Dic2005-201400Z 00000KT 9999 FEW046 SCT230 17/05 Q1031 NOSIG RMK PP000=
SPZO Dic2005-201500Z VRB03KT 9999 FEW046 BKN230 19/05 Q1029 NOSIG RMK RWY10 13009G20KT PP000=
SPZO Dic2005-201600Z VRB02KT 9999 BKN046 SCT230 18/02 Q1028 NOSIG RMK RWY10 170/10KT PP000=
SPZO Dic2005-201700Z VRB04KT 9999 SCT046 SCT230 20/03 Q1027 NOSIG RMK RWY10 14014G32KT 070V220 PP000=
SPZO Dic2005-201800Z 01015KT 340V080 9999 FEW047 SCT200 21/01 Q1026 NOSIG RMK PP000 RWY10 08014KT 030V120=
SPZO Dic2005-201900Z 01012KT 360V070 9999 FEW050 BKN200 21/M00 Q1025 NOSIG RMK PP000 RWY10 05015KT 330V150=
SPZO Dic2005-202000Z 01010KT 350V070 9999 FEW040TCU SCT050 BKN200 20/03 Q1025 NOSIG RMK PP000 RWY10 02020KT 330V080=
SPZO Dic2005-202100Z 09018KT 9000 -RA SCT037TCU SCT047 BKN100 13/05 Q1028 NOSIG RMK PPTRZ RWY10 11025G40KT 070V140=
SPZO Dic2005-202200Z 02004KT 9000 -RA SCT040TCU BKN060 13/04 Q1029 NOSIG RMK PPTRZ RWY10 03015KT 300V080 TMAX 21.5=
SPZO Dic2005-202300Z 00000KT 9999 SCT047 BKN080 13/04 Q1028 NOSIG RERA RMK PPTRZ=
SPZO Dic2005-210000Z 00000KT 9999 SCT046 OVC080 12/04 Q1029 RMK PP000=
SPZO Dic2005-210100Z 07002KT 9999 FEW046 SCT100 12/05 Q1030 RMK PP000=
SPZO Dic2005-210200Z 16001KT 9999 FEW046 11/05 Q1031 RMK PP000=
SPZO Dic2005-210300Z 12002KT 9999 FEW046 11/05 Q1032 RMK PP000=
SPZO Dic2005-210400Z 00000KT 9999 FEW046 10/05 Q1032 RMK PP000=
SPZO Dic2005-210500Z 13002KT 9999 FEW046 09/05 Q1031 RMK PP000=
SPZO Dic2005-210600Z 09001KT 9999 FEW046 SCT230 09/05 Q1031 RMK PP000=
SPZO Dic2005-210700Z 09002KT 9999 FEW046 SCT230 08/05 Q1030 RMK PP000=
SPZO Dic2005-210800Z 00000KT 9999 FEW046 SCT230 08/05 Q1030 RMK PP000=
SPZO Dic2005-210900Z 08002KT 9999 FEW046 08/05 Q1030 RMK PP000=
SPZO Dic2005-211000Z 00000KT 9999 FEW046 07/05 Q1030 RMK PP000=
SPZO Dic2005-211100Z 07001KT 9999 FEW046 SCT200 07/04 Q1031 RMK PP000=
SPZO Dic2005-211200Z 00000KT 9999 SCT060 BKN200 08/05 Q1032 NOSIG RMK PP000=
SPZO Dic2005-211300Z 00000KT 9999 SCT100 BKN200 11/06 Q1033 NOSIG RMK PP000=
SPZO Dic2005-211400Z 00000KT 9999 FEW037 SCT150 BKN200 13/05 Q1033 NOSIG RMK PP000=
SPZO Dic2005-211500Z VRB02KT 9999 FEW037TCU SCT047 BKN200 16/05 Q1032 NOSIG RMK PP000=
SPZO Dic2005-211600Z 00000KT 9999 FEW040TCU BKN053 18/04 Q1031 TEMPO VCSH RMK PP000 RWY10 12010KT 090V150=
SPZO Dic2005-211700Z VRB04KT 9999 FEW040TCU SCT050 BKN200 19/04 Q1030 NOSIG RMK PP000=
SPZO Dic2005-211800Z VRB02KT 9999 SCT043 SCT080 19/04 Q1029 NOSIG RMK PP000=
SPZO Dic2005-211900Z 35006KT 270V070 9999 SCT043 SCT230 20/02 Q1027 NOSIG RMK PP000=
SPZO Dic2005-212000Z 00000KT 9999 FEW040TCU SCT046 BKN200 21/02 Q1025 NOSIG RMK PP000=
SPZO Dic2005-212100Z 02014KT 340V080 9999 SCT040 BKN080 18/04 Q1025 NOSIG RMK PP000=
SPZO Dic2005-212200Z 01010KT 270V080 9999 SCT060TCU BKN100 17/03 Q1026 NOSIG RMK PP000 TMAX 21.5=
SPZO Dic2005-212300Z 01009KT 340V080 9999 FEW060 OVC100 16/04 Q1027 NOSIG RMK PP000=
SPZO Dic2005-220000Z 10008KT 9999 SCT060 BKN100 14/06 Q1028 RMK PP000=
SPZO Dic2005-220100Z 10006KT 9999 FEW060 BKN100 13/06 Q1029 RMK PP000=
SPZO Dic2005-220200Z 00000KT 9999 SCT050 SCT100 13/06 Q1030 RMK PP000=
SPZO Dic2005-220300Z 00000KT 9999 SCT040 BKN080 13/06 Q1031 RMK PP000=
SPZO Dic2005-220400Z 00000KT 9999 FEW040 BKN100 12/06 Q1031 RMK PP000=
SPZO Dic2005-220500Z 08004KT 9999 SCT040 SCT080 12/07 Q1030 RMK PP000=
SPZO Dic2005-220600Z 00000KT 9999 SCT040 BKN060 12/06 Q1030 RMK PP000=
SPZO Dic2005-220700Z 00000KT 9999 SCT040 BKN060 11/06 Q1029 RMK PP000=
SPZO Dic2005-220800Z 00000KT 9999 BKN040 SCT060 12/06 Q1029 RMK PP000=
SPZO Dic2005-220900Z 00000KT 9999 BKN040 SCT050 12/06 Q1029 RMK PP000=
SPZO Dic2005-221000Z 00000KT 9999 FEW037 BKN047 12/06 Q1030 RMK PP000=
SPZO Dic2005-221100Z 00000KT 9999 SCT040 SCT200 11/06 Q1030 RMK PP000=
SPZO Dic2005-221200Z 10004KT 9999 SCT040 SCT200 14/06 Q1031 NOSIG RMK PP000 RWY10 VRB04KT=
SPZO Dic2005-221300Z 07005KT 360V100 9999 FEW037 SCT047 BKN200 15/06 Q1031 NOSIG RMK PP000 RWY10 15010KT 100V180=
SPZO Dic2005-221400Z VRB03KT 9999 SCT040 SCT200 18/05 Q1031 NOSIG RMK PP000 RWY10 VRB09KT=
SPZO Dic2005-221500Z 09008KT 030V190 9999 BKN050 18/04 Q1030 NOSIG RMK PP000 RWY10 VRB05KT=
SPZO Dic2005-221600Z VRB03KT 9999 SCT050 19/02 Q1029 NOSIG RMK PP000 RWY10 36008KT 340V140=
SPZO Dic2005-221700Z VRB05KT 9999 BKN050 22/04 Q1028 NOSIG RMK PP000 RWY10 05007KT 330V110=
SPZO Dic2005-221800Z VRB04KT 9999 SCT050 22/01 Q1027 NOSIG RMK PP000=
SPZO Dic2005-221900Z 10007KT 070V180 9999 SCT050 20/01 Q1026 NOSIG RMK PP000=
SPZO Dic2005-222000Z 36010KT 270V080 9999 SCT050 21/03 Q1024 NOSIG RMK PP000=
SPZO Dic2005-222100Z 01008KT 270V080 9999 SCT046 20/03 Q1024 NOSIG RMK PP000=
SPZO Dic2005-222200Z 03007KT 340V080 9999 FEW043TCU SCT050 18/03 Q1025 NOSIG RMK PP000 T.MAX 22.6=
SPZO Dic2005-222300Z 01006KT 340V100 9999 FEW043 SCT230 17/03 Q1026 NOSIG RMK PP000=
SPZO Dic2005-230000Z 00000KT 9999 BKN040 15/04 Q1028 RMK PP000=
SPZO Dic2005-230100Z VRB02KT 9999 SCT040 15/04 Q1029 RMK PP000=
SPZO Dic2005-230200Z 27008KT 9999 SCT040 12/05 Q1030 RMK PP000=
SPZO Dic2005-230300Z 00000KT 9999 BKN040 13/06 Q1031 RMK PP000=
SPZO Dic2005-230400Z 00000KT 9999 SCT040 13/05 Q1031 RMK PP000=
SPZO Dic2005-230500Z 00000KT 9999 BKN040 13/05 Q1030 RMK PP000=
SPZO Dic2005-230600Z 00000KT 9999 SCT037 SCT047 13/05 Q1029 RMK PP000=
SPZO Dic2005-230700Z 00000KT 9999 BKN043 11/05 Q1029 RMK PP000=
SPZO Dic2005-230800Z 10004KT 9999 FEW040 09/04 Q1029 RMK PP000=
SPZO Dic2005-230900Z VRB03KT 9999 FEW040 SCT050 09/04 Q1029 RMK PP000=
SPZO Dic2005-231000Z 00000KT 9999 FEW037 SCT070 09/04 Q1030 RMK PP000=
SPZO Dic2005-231100Z 00000KT 9999 FEW037 SCT070 08/04 Q1031 RMK PP000=
SPZO Dic2005-231200Z 00000KT 9999 FEW150 12/05 Q1032 NOSIG RMK PP000=
SPZO Dic2005-231300Z 00000KT 9999 FEW043 14/04 Q1032 NOSIG RMK PP000=
SPZO Dic2005-231400Z VRB03KT 9999 SCT046 17/03 Q1031 NOSIG RMK PP000=
SPZO Dic2005-231500Z VRB03KT 9999 SCT050 18/02 Q1031 NOSIG RMK PP000=
SPZO Dic2005-231600Z VRB04KT 9999 SCT050 18/03 Q1029 NOSIG RMK PP000=
SPZO Dic2005-231700Z VRB04KT 9999 SCT050 21/04 Q1028 NOSIG RMK PP000=
SPZO Dic2005-231800Z 08008KT 350V100 9999 BKN050 22/02 Q1027 NOSIG RMK PP000 RWY10 VRB02KT=
SPZO Dic2005-231900Z 11008KT 100V250 9999 BKN050 21/01 Q1025 NOSIG RMK PP000 RWY10 28014KT 250V340=
SPZO Dic2005-232000Z 03005KT 310V120 9999 SCT050 SCT200 23/03 Q1024 NOSIG RMK PP000 RWY10 01011KT 310V090=
SPZO Dic2005-232100Z 36005KT 340V080 9999 SCT050 SCT200 22/02 Q1023 NOSIG RMK PP000 RWY10 03010KT 300V090=
SPZO Dic2005-232200Z 36009KT 9999 FEW047 BKN200 21/03 Q1023 NOSIG RMK PP000 TMAX 23.1=
SPZO Dic2005-232300Z 10010KT 9999 SCT047 BKN200 18/05 Q1025 NOSIG RMK PP000=
SPZO Dic2005-240000Z 00000KT 9999 SCT050 17/04 Q1027 RMK PP000=
SPZO Dic2005-240100Z 09006KT 9999 SCT050 15/05 Q1028 RMK PP000=
SPZO Dic2005-240200Z 00000KT 9999 SCT050 14/05 Q1029 RMK PP000=
SPZO Dic2005-240300Z 00000KT 9999 SCT050 12/06 Q1030 RMK PP000=
SPZO Dic2005-240400Z 00000KT 9999 FEW036 SCT050 12/05 Q1030 RMK PP000=
SPZO Dic2005-240500Z 00000KT 9999 FEW040 SCT046 13/06 Q1030 RMK PP000=
SPZO Dic2005-240600Z 00000KT 9999 SCT040 SCT046 13/06 Q1029 RMK PP000=
SPZO Dic2005-240700Z 00000KT 9999 BKN040 SCT050 13/07 Q1029 RMK PP000=
SPZO Dic2005-240800Z 00000KT 9999 BKN040 SCT050 13/07 Q1029 RMK PP000=
SPZO Dic2005-240900Z 00000KT 9999 SCT040 SCT080 12/07 Q1029 RMK PP000=
SPZO Dic2005-241000Z 00000KT 9999 VCSH BKN040 SCT070 12/07 Q1029 RMK PP000=
SPZO Dic2005-241100Z VRB04KT 9999 VCSH SCT036 BKN050 12/07 Q1030 RMK PP000=
SPZO Dic2005-241200Z VRB03KT 9999 FEW036 BKN050 13/08 Q1030 REDZ NOSIG RMK PPTRZ RA CDTE W=
SPZO Dic2005-241300Z 00000KT 9999 FEW040 SCT046 16/06 Q1031 NOSIG RMK PP000=
SPZO Dic2005-241400Z VRB04KT 9999 FEW040 SCT046 17/05 Q1031 NOSIG RMK RWY10 10003KT PP000=
SPZO Dic2005-241500Z VRB05KT 9999 FEW043TCU SCT046 BKN100 16/04 Q1031 TEMPO VCSH RMK RWY10 09008G19 PP000=
SPZO Dic2005-241600Z VRB02KT 9999 FEW040 SCT046 18/06 Q1030 TEMPO VCSH RMK RWY10 14012KT RA CDTE.NE PP000=
SPZO Dic2005-241700Z 01008KT 9999 RA FEW040 SCT046 16/07 Q1029 BECMG FM1730 NSW RMK RWY10 07015G28 PP002=
SPZO Dic2005-241800Z 10011KT 080V140 9999 FEW040TCU BKN047 19/05 Q1028 TEMPO VCSH RMK PPTRZ RWY10 02014KT 330V100=
SPZO Dic2005-241900Z 10006KT 080V160 9999 FEW040TCU SCT050 SCT200 18/06 Q1027 TEMPO VCSH RMK PP000 RWY10 12016KT 040V160=
SPZO Dic2005-242000Z 28012KT 260V340 9999 FEW040TCU SCT050 BKN200 18/05 Q1026 NOSIG RMK PP000 RWY10 28020KT 250V330=
SPZO Dic2005-242100Z 27012KT 9999 SCT040TCU SCT047 BKN200 18/04 Q1026 TEMPO VCSH RMK PP000 RWY10 28020KT 250V310=
SPZO Dic2005-242200Z 28014KT 9999 FEW040TCU SCT050 BKN200 15/06 Q1027 TEMPO VCSH RMK PP000 RWY10 30020KT 260V020 TMAX 20.7=
SPZO Dic2005-242300Z 30010KT 9999 SCT043 BKN200 15/06 Q1027 NOSIG RMK PP000=
SPZO Dic2005-250000Z 28007KT 9999 SCT043 BKN200 14/06 Q1028 RMK PP000=
SPZO Dic2005-250100Z 28006KT 9999 FEW043 SCT200 13/07 Q1030 RMK PP000=
SPZO Dic2005-250200Z 30004KT 9999 SCT040 SCT200 14/07 Q1031 RMK PP000=
SPZO Dic2005-250300Z 23003KT 9999 SCT036 SCT100 14/07 Q1032 RMK PP000=
SPZO Dic2005-250400Z 30003KT 9000 -RA BKN036 SCT100 10/07 Q1032 RMK PP014=
SPZO Dic2005-250500Z 00000KT 9000 BKN036 SCT100 09/06 Q1032 RMK PP008=
SPZO Dic2005-250600Z 00000KT 9999 SCT036 SCT100 09/06 Q1031 RMK PP000=
SPZO Dic2005-250700Z 00000KT 9999 SCT036 SCT100 09/07 Q1030 RMK PP000=
SPZO Dic2005-250800Z 00000KT 9999 SCT036 SCT100 10/07 Q1030 RMK PP000=
SPZO Dic2005-250900Z 00000KT 9999 SCT036 SCT100 09/07 Q1030 RMK PP000=
SPZO Dic2005-251000Z 00000KT 9999 SCT036 SCT100 07/06 Q1030 RMK PP000=
SPZO Dic2005-251100Z 00000KT 9999 SCT040 BKN100 08/06 Q1030 RMK PP000=
SPZO Dic2005-251200Z 00000KT 9999 FEW060 OVC150 10/07 Q1031 NOSIG RMK PP000=
SPZO Dic2005-251300Z 00000KT 9999 FEW060 OVC150 11/07 Q1031 NOSIG RMK PP000=
SPZO Dic2005-251400Z 09004KT 9999 FEW040 SCT150 BKN200 13/07 Q1032 NOSIG RMK PP000 RWY10 11008KT 040V150=
SPZO Dic2005-251500Z VRB02KT 9999 SCT043 OVC100 14/06 Q1032 NOSIG RMK PP000 RWY10 10006KT 360V150=
SPZO Dic2005-251600Z 09004KT 070V170 9999 SCT047 OVC150 15/06 Q1031 NOSIG RMK PP000 RWY10 VRB02KT=
SPZO Dic2005-251700Z 12005KT 030V150 9999 SCT047 OVC150 16/06 Q1030 NOSIG RMK PP000 RWY10 11004KT 020V140=
SPZO Dic2005-251800Z 00000KT 9999 VCRA SCT040TCU OVC150 17/06 Q1029 NOSIG RMK PP000 RWY10 18007KT=
SPZO Dic2005-251900Z 12010KT 090V170 9999 VCSH FEW040 SCT043TCU BKN150 16/07 Q1028 NOSIG RMK WIND RWY10 10021G33KT 050V130 PP000=
SPZO Dic2005-252000Z 26007KT 9999 FEW037TCU SCT047 BKN100 13/08 Q1028 RERA NOSIG RMK PP004 RWY10 00000KT=
SPZO Dic2005-252100Z 21004KT 160V260 9999 SCT043 BKN100 15/06 Q1027 NOSIG RMK PP000=
SPZO Dic2005-252200Z 00000KT 9999 SCT043 BKN230 15/06 Q1027 NOSIG RMK PP000 TMAX 17.8=
SPZO Dic2005-252300Z 01006KT 340V080 9999 SCT043 BKN080 14/05 Q1028 NOSIG RMK PP000=
SPZO Dic2005-260000Z 00000KT 9999 BKN050 SCT070 13/05 Q1029 RMK PP000=
SPZO Dic2005-260100Z VRB02KT 9999 SCT040 BKN100 13/06 Q1030 RMK PP000=
SPZO Dic2005-260200Z 00000KT 9999 SCT040 BKN100 13/06 Q1031 RMK PP000=
SPZO Dic2005-260300Z 00000KT 9999 SCT040 BKN100 12/05 Q1032 RMK PP000=
SPZO Dic2005-260400Z VRB03KT 9999 FEW037 SCT047 BKN100 12/06 Q1032 RMK PP000=
SPZO Dic2005-260500Z 09006KT 9999 RA SCT040 BKN070 10/07 Q1031 RMK PP0008=
SPZO Dic2005-260600Z 00000KT 9999 -RA SCT037 BKN060 09/07 Q1031 RMK PP002=
SPZO Dic2005-260700Z 00000KT 9999 FEW037 BKN050 09/07 Q1030 RERA RMK PP000=
SPZO Dic2005-260800Z 00000KT 9999 FEW037 BKN047 10/07 Q1029 RMK PP000=
SPZO Dic2005-260900Z VRB02KT 9999 FEW025 SCT037 BKN047 10/07 Q1029 RMK PP000=
SPZO Dic2005-261000Z VRB02KT 9999 -DZ SCT027 SCT037 BKN050 10/08 Q1030 RMK PPTRZ CLNG BLW 1200M=
SPZO Dic2005-261100Z VRB03KT 9999 -DZ FEW025 SCT037 BKN050 09/07 Q1030 RMK PPTRZ RWY10 10007KT CLNG BLW 1200M=
SPZO Dic2005-261200Z 09003KT 9999 -DZ FEW025 SCT037 BKN043 10/08 Q1031 NOSIG RMK RWY10 09003KT PPTRZ=
SPZO Dic2005-261300Z VRB02KT 9999 -DZ SCT030 SCT043 OVC080 11/07 Q1032 NOSIG RMK RWY10 10004KT PP002=
SPZO Dic2005-261400Z VRB01KT 9999 VCSH SCT030 SCT043 OVC080 12/07 Q1032 NOSIG RMK PPTRZ=
SPZO Dic2005-261500Z VRB01KT 9999 VCSH SCT037 SCT043 OVC080 14/08 Q1031 NOSIG RMK RWY10 VRB02KT PP000=
SPZO Dic2005-261600Z VRB02KT 9999 VCSH SCT037 SCT043 BKN080 14/07 Q1030 NOSIG RMK RWY10 VRB05KT PP000=
SPZO Dic2005-261700Z VRB03KT 9999 SCT040 BKN080 16/08 Q1029 NOSIG RMK RWY10 VRB07KT PP000=
SPZO Dic2005-261800Z 11013KT 070V170 9999 VCSH SCT036 BKN060 17/07 Q1028 NOSIG RMK PP000=
SPZO Dic2005-261900Z 14012KT 090V190 9999 SCT040 BKN080 17/07 Q1028 NOSIG RMK PP000=
SPZO Dic2005-262000Z VRB07KT 9999 SCT040 SCT060 17/06 Q1027 NOSIG RMK PP000=
SPZO Dic2005-262100Z 36013KT 9999 SCT040 SCT060 16/04 Q1026 NOSIG RMK PP000=
SPZO Dic2005-262200Z VRB04KT 9999 SCT040 SCT080 16/04 Q1027 NOSIG RMK PP000 T.MAX 18.6=
SPZO Dic2005-262300Z 01012KT 340V080 9999 SCT036 SCT080 14/04 Q1028 NOSIG RMK PP000=
SPZO Dic2005-270000Z 03005KT 9999 SCT037 SCT047 14/04 Q1029 RMK PP000=
SPZO Dic2005-270100Z 10004KT 9999 SCT037 BKN050 13/05 Q1030 RMK PP000=
SPZO Dic2005-270200Z 00000KT 9999 SCT040 12/05 Q1031 RMK PP000=
SPZO Dic2005-270300Z 00000KT 9999 BKN040 12/05 Q1032 RMK PP000=
SPZO Dic2005-270400Z 00000KT 9999 BKN040 12/05 Q1032 RMK PP000=
SPZO Dic2005-270500Z 00000KT 9999 SCT040 SCT050 12/05 Q1031 RMK PP000=
SPZO Dic2005-270600Z 00000KT 9999 SCT033 BKN040 11/05 Q1030 RMK PP000=
SPZO Dic2005-270700Z 00000KT 9999 BKN040 11/05 Q1030 RMK PP000=
SPZO Dic2005-270800Z 00000KT 9999 SCT037 SCT050 11/05 Q1030 RMK PP000=
SPZO Dic2005-270900Z 00000KT 9999 SCT037 BKN047 11/05 Q1030 RMK PP000=
SPZO Dic2005-271000Z 00000KT 9999 SCT037 BKN047 10/06 Q1030 RMK PP000=
SPZO Dic2005-271100Z 00000KT 9999 SCT040 SCT050 11/05 Q1031 RMK PP000=
SPZO Dic2005-271200Z 00000KT 9999 SCT043 BKN100 11/06 Q1031 NOSIG RMK PP000=
SPZO Dic2005-271300Z 13003KT 080V180 9999 FEW043 SCT230 13/05 Q1032 NOSIG RMK PP000=
SPZO Dic2005-271400Z VRB02KT 9999 SCT043 SCT230 16/05 Q1031 NOSIG RMK PP000=
SPZO Dic2005-271500Z VRB03KT 9999 FEW040 SCT100 17/04 Q1031 NOSIG RMK PP000=
SPZO Dic2005-271600Z VRB06KT 9999 FEW036TCU SCT046 BKN080 18/05 Q1030 NOSIG RMK PP000=
SPZO Dic2005-271700Z VRB02KT 9999 FEW043 BKN080 20/05 Q1028 NOSIG RMK PP000=
SPZO Dic2005-271800Z VRB04KT 9999 FEW043 BKN080 21/04 Q1027 NOSIG RMK RWY10 VRB08KT PP000=
SPZO Dic2005-271900Z 36009KT 9999 FEW043TCU BKN050 20/04 Q1025 TEMPO VCSH RMK RWY VRB10KT PP000=
SPZO Dic2005-272000Z 19013KT 160V260 7000 +TSRA SCT040CB BKN046 11/05 Q1025 BECMG FM2040 -RA PP046 RWY10 11016G33KT=
SPZO Dic2005-272100Z 19004KT 8000 TSRA BKN036 SCT046 11/08 Q1027 BECMG FM2130 -RA NSC RMK PP040 CLNG BLW 1200M=
SPZO Dic2005-272200Z 00000KT 9999 -RA SCT040 BKN046 11/07 Q1027 NOSIG RMK TMX.22.10 PP006=
SPZO Dic2005-272300Z VRB02KT 9999 -RA SCT040 BKN046 11/08 Q1027 NOSIG RMK PP002=
SPZO Dic2005-280000Z 00000KT 9999 VCSH FEW025 SCT040 BKN046 10/08 Q1028 RMK PP004=
SPZO Dic2005-280100Z 13004KT 090V170 9999 BKN040 SCT050 11/08 Q1029 RMK PP000=
SPZO Dic2005-280200Z 28001KT 9999 -DZ FEW025 SCT040 BKN070 10/08 Q1030 RMK PP006=
SPZO Dic2005-280300Z VRB03KT 9999 OVC040 10/08 Q1030 RMK PPTRZ=
SPZO Dic2005-280400Z 00000KT 9999 -DZ BKN040 SCT070 11/08 Q1030 RMK PP002=
SPZO Dic2005-280500Z 00000KT 9999 SCT030 BKN040 11/08 Q1029 RMK PP000=
SPZO Dic2005-280600Z 10002KT 9999 FEW030 OVC043 10/08 Q1028 RMK PP000=
SPZO Dic2005-280700Z 00000KT 9999 SCT025 BKN043 10/08 Q1027 RMK PP000=
SPZO Dic2005-280800Z 21004KT 9999 SCT025 BKN046 10/07 Q1027 RMK PP000=
SPZO Dic2005-280900Z 27007KT 9999 SCT036 BKN040 10/06 Q1027 RMK PP000=
SPZO Dic2005-281000Z 27004KT 9999 VCSH FEW030 SCT040 BKN043 09/06 Q1027 RMK PP002=
SPZO Dic2005-281100Z VRB02KT 7000 VCSH FEW025 SCT040 BKN046 10/07 Q1028 RMK PP000=
SPZO Dic2005-281200Z VRB02KT 9999 DZ FEW036 SCT043 BKN046 10/07 Q1029 BECMG FM1230 NSW RMK BCFG CDTE NE PP010=
SPZO Dic2005-281300Z 00000KT 9999 FEW036 SCT043 BKN050 11/07 Q1029 NOSIG RMK PPTRZ BCFG CDTE NE=
SPZO Dic2005-281400Z VRB01KT 9999 FEW030 SCT043 BKN050 13/08 Q1030 NOSIG RMK BCFG CDTE.NE PP000=
SPZO Dic2005-281500Z VRB01KT 9999 FEW033 SCT043 BKN080 15/07 Q1029 NOSIG RMK PP000=
SPZO Dic2005-281600Z VRB03KT 9999 FEW036 SCT046 BKN080 15/07 Q1028 NOSIG RMK PP000=
SPZO Dic2005-281700Z 15006KT 070V240 9999 FEW036 SCT046 BKN050 14/07 Q1029 TEMPO VCSH RMK PP000=
SPZO Dic2005-281800Z VRB02KT 9999 FEW033TCU SCT043 BKN050 16/06 Q1026 NOSIG RMK PP000 RWY10 VRB06KT=
SPZO Dic2005-281900Z VRB08KT 9000 TSRA FEW033CB SCT043TCU BKN050 15/07 Q1026 NOSIG RMK PP000 RWY10 32008KT 260V010=
SPZO Dic2005-282000Z 28012KT 8000 RA SCT033TCU BKN043 10/07 Q1026 NOSIG RMK PP056 RWY10 28016KT=
SPZO Dic2005-282100Z 10006KT 6000 RA SCT033 BKN043 10/08 Q1026 NOSIG RMK PP024 RWY10 10010KT=
SPZO Dic2005-282200Z 10003KT 7000 5000E RA SCT027 BKN037 09/07 Q1026 NOSIG RMK PP046 RWY10 10004KT TMAX 17.5 CLNG BLW 1200M=
SPZO Dic2005-282300Z 00000KT 9000 -RA FEW020 SCT033 BKN043 09/07 Q1026 NOSIG RMK PPTRZ=
SPZO Dic2005-290000Z 10003KT 9999 FEW025 SCT033 BKN050 09/07 Q1026 RMK PP000=
SPZO Dic2005-290100Z 00000KT 9999 SCT033 BKN080 09/07 Q1028 RMK PP000=
SPZO Dic2005-290200Z 00000KT 9999 SCT033 OVC080 10/07 Q1028 RMK PP000=
SPZO Dic2005-290300Z 00000KT 9999 SCT033 OVC080 10/07 Q1029 RMK PP000=
SPZO Dic2005-290400Z 00000KT 9999 SCT033 BKN080 10/07 Q1029 RMK PP000=
SPZO Dic2005-290500Z 00000KT 9999 SCT030 BKN080 10/08 Q1028 RMK PPP00=
SPZO Dic2005-290600Z 00000KT 9999 SCT030 BKN080 10/08 Q1027 RMK PP000=
SPZO Dic2005-290700Z OOOOOKT 9999 SCT030 BKN080 10/08 Q1026 RMK PP000=
SPZO Dic2005-290800Z 10302KT 9999 SCT030 BKN080 10/08 Q1026 RMK PP000=
SPZO Dic2005-290900Z 11002KT 9999 SCT030 BKN080 09/08 Q1026 RMK PP000=
SPZO Dic2005-291000Z 11003KT 9999 SCT030 BKN080 09/07 Q1026 RMK PP000=
SPZO Dic2005-291100Z 08002KT 9999 FEW030 SCT040 BKN050 10/08 Q1027 RMK PP000=
SPZO Dic2005-291200Z VRB02KT 9999 FEW025 SCT033 BKN043 10/07 Q1028 NOSIG RMK PP000=
SPZO Dic2005-291300Z 00000KT 9999 SCT030 SCT040 BKN200 13/07 Q1028 NOSIG RMK PP000=
SPZO Dic2005-291400Z 00000KT 9999 VCRA SCT033 BKN043 14/08 Q1028 TEMPO -RA RMK PP000 BIRD HAZARD THR RWY28=
SPZO Dic2005-291500Z 08007KT 010V100 9999 VCRA SCT037 SCT047 BKN070 14/07 Q1027 NOSIG RMK PP000 RWY10 07006KT 020V150=
SPZO Dic2005-291600Z VRB03KT 9000 FEW036 SCT043 SCT050 16/08 Q1026 TEMPO -RA RMK PP000 RWY10 09010KT RA CDTE NE/E=
SPZO Dic2005-291700Z 13005KT 070V180 8000 VCRA SCT037TCU SCT047 BKN070 16/06 Q1025 TEMPO -RA RMK PP000 RWY10 04006KT 020V170=
SPZO Dic2005-291800Z 10010KT 090V170 9000 VCSH FEW036 SCT043 BKN070 12/08 Q1025 TEMPO -RA RMK PP000=
SPZO Dic2005-291900Z 09003KT 360V170 9999 FEW036 SCT046 BKN200 13/08 Q1024 NOSIG RMK PP000=
SPZO Dic2005-292000Z 00000KT 9999 FEW036TCU SCT043 BKN200 16/05 Q1023 TEMPO VCSH RMK PP000=
SPZO Dic2005-292100Z 28008KT 250V350 9999 VCSH FEW036TCU SCT040 BKN046 15/08 Q1022 TEMPO -RA RMK PP000=
SPZO Dic2005-292200Z 13004KT 070V200 9999 -RA FEW036CB SCT040 BKN043 12/07 Q1023 RESHRA NOSIG RMK PP076 T.MAX 16.7=
SPZO Dic2005-292300Z 00000KT 9000 RA SCT036 BKN043 11/08 Q1024 NOSIG RMK PP018=
SPZO Dic2005-300000Z 00000KT 9999 -RA SCT030 BKN040 11/08 Q1026 RMK PP010=
SPZO Dic2005-300100Z 00000KT 9999 SCT030 SCT040 10/07 Q1026 RERA RMK PP004=
SPZO Dic2005-300200Z 00000KT 9999 SCT033 BKN050 11/08 Q1027 RMK PP000=
SPZO Dic2005-300300Z 00000KT 9999 -RA SCT030 BKN040 11/09 Q1028 RMK PPTRZ=
SPZO Dic2005-300400Z 08004KT 9000 RA FEW025 SCT033 BKN040 10/08 Q1028 NOSIG RMK PP012=
SPZO Dic2005-300500Z 00000KT 9999 FEW025 SCT033 BKN047 09/08 Q1027 RERA RMK PP002=
SPZO Dic2005-300600Z 00000KT 9999 FEW020 SCT030 BKN050 10/08 Q1027 RMK PP000=
SPZO Dic2005-300700Z 00000KT 9999 FEW020 SCT030 BKN050 10/07 Q1026 RMK PP000=
SPZO Dic2005-300800Z 00000KT 9999 FEW020 SCT030 BKN047 10/07 Q1026 RMK PP000=
SPZO Dic2005-300900Z 00000KT 9999 -DZ FEW020 SCT030 BKN040 10/08 Q1026 RMK PPTRZ CLNG BLW 1200M=
SPZO Dic2005-301000Z 25004KT 9999 FEW025 SCT033 BKN043 10/07 Q1026 REDZ RMK PPTRZ=
SPZO Dic2005-301100Z 25004KT 9000 VCRA FEW027 SCT033 BKN043 10/07 Q1027 RMK PP000 RWY10 28010KT CLNG BLW 1200M=
SPZO Dic2005-301200Z VRB02KT 9999 FEW025 SCT040 BKN060 10/07 Q1028 NOSIG RMK PP000=
SPZO Dic2005-301300Z VRB02KT 9999 SCT033 BKN250 13/07 Q1028 NOSIG RMK PP000=
SPZO Dic2005-301400Z 00000KT 9999 SCT033 BKN070 15/08 Q1028 NOSIG RMK PP000=
SPZO Dic2005-301500Z VRB02KT 9999 SCT040 BKN080 15/06 Q1027 NOSIG RMK PP000=
SPZO Dic2005-301600Z VRB03KT 9999 SCT040 BKN080 16/07 Q1027 NOSIG RMK PP000=
SPZO Dic2005-301700Z 20004KT 160V260 9999 SCT040 BKN080 16/09 Q1026 RESHRA NOSIG RMK PP008=
SPZO Dic2005-301800Z VRB04KT 9999 VCSH SCT040 SCT080 17/05 Q1025 NOSIG RMK PP000=
SPZO Dic2005-301900Z 34005KT 260V020 9999 VCSH SCT040 SCT080 16/05 Q1024 NOSIG RMK PP000=
SPZO Dic2005-302000Z VRB04KT 9999 SCT040 SCT080 17/05 Q1024 NOSIG RMK PP000=
SPZO Dic2005-302100Z VRB03KT 9999 SCT036 SCT100 16/05 Q1024 NOSIG RMK PP000=
SPZO Dic2005-302200Z 10011KT 070V170 9999 SCT036 SCT100 15/06 Q1024 NOSIG RMK PP000 T.MAX 18.0=
SPZO Dic2005-302300Z 11007KT 070V170 9999 SCT040TCU SCT050 13/05 Q1025 NOSIG RMK PP000=
SPZO Dic2005-310000Z 09004KT 9999 SCT037 BKN047 13/05 Q1026 RMK PP000=
SPZO Dic2005-310100Z 09003KT 9999 SCT033 BKN043 12/05 Q1027 RMK PP000=
SPZO Dic2005-310200Z 00000KT 9999 SCT033 BKN043 12/06 Q1028 RMK PP000=
SPZO Dic2005-310300Z 00000KT 9999 SCT040 SCT100 12/06 Q1028 RMK PP000=
SPZO Dic2005-310400Z 07003KT 9999 BKN040 10/06 Q1028 RMK PP000=
SPZO Dic2005-310500Z 00000KT 9999 FEW060 09/06 Q1027 RMK PP000=
SPZO Dic2005-310600Z 00000KT 9999 FEW050 09/06 Q1027 RMK PP000=
SPZO Dic2005-310700Z 00000KT 9999 FEW050 08/06 Q1027 RMK PP000=
SPZO Dic2005-310800Z 00000KT 9999 FEW050 08/06 Q1026 RMK PP000=
SPZO Dic2005-310900Z 00000KT 9999 FEW050 08/06 Q1026 RMK PP000=
SPZO Dic2005-311000Z 00000KT 9999 SCT050 07/05 Q1027 RMK PP000=
SPZO Dic2005-311100Z 00000KT 9999 SCT050 07/05 Q1027 RMK PP000=
SPZO Dic2005-311200Z 00000KT 9999 FEW050 SCT100 08/06 Q1028 NOSIG RMK PP000=
SPZO Dic2005-311300Z 00000KT 9999 FEW036 SCT050 BKN100 10/07 Q1028 NOSIG RMK PP000=
SPZO Dic2005-311400Z 00000KT 9999 SCT040 15/07 Q1028 NOSIG RMK PP000=
SPZO Dic2005-311500Z 00000KT 9999 SCT040 SCT230 17/06 Q1028 NOSIG RMK PP000=
SPZO Dic2005-311600Z 00000KT 9999 SCT040 SCT230 19/05 Q1027 NOSIG RMK PP000=
SPZO Dic2005-311700Z 00000KT 9999 SCT043 SCT230 19/05 Q1026 NOSIG RMK PP000=
SPZO Dic2005-311800Z VRB04KT 9999 SCT043 SCT230 22/07 Q1025 NOSIG RMK PP000=
SPZO Dic2005-311900Z 30006KT 9999 SCT043TCU SCT050 22/04 Q1024 TEMPO=
SPZO Dic2005-312000Z 32005KT 9999 FEW043TCU SCT050 22/04 Q1022 NOSIG RMK PP000=
SPZO Dic2005-312100Z 27013KT 250V350 9999 FEW043TCU SCT050 21/05 Q1021 TEMPO VCSH RMK PP000 RWY10 28010KT=
SPZO Dic2005-312200Z 11008KT 9999 FEW043TCU SCT050 18/07 Q1022 NOSIG RMK PP000 RWY10 26011KT T MAX.22.0=
SPZO Dic2005-312300Z 10009KT 9999 FEW043 SCT050 16/07 Q1023 NOSIG RMK PP000=
SPZO Ene2006-010000Z 09009KT 9999 FEW043 14/08 Q1024 RMK PP000=
SPZO Ene2006-010100Z 11003KT 9999 FEW050 14/07 Q1025 RMK PP000=
SPZO Ene2006-010200Z 18001KT 9999 FEW050 13/07 Q1026 RMK PP000=
SPZO Ene2006-010300Z 00000KT 9999 SCT050 11/07 Q1027 RMK PP000=
SPZO Ene2006-010400Z 00000KT 9999 FEW050 SCT050 11/07 Q1027 RMK PP000=
SPZO Ene2006-010500Z 28006KT 9999 SCT040 SCT050 12/07 Q1027 RMK PP000=
SPZO Ene2006-010600Z 10008KT 9999 FEW040 SCT050 10/06 Q1028 RMK PP000=
SPZO Ene2006-010700Z 07004KT 9999 SCT040 SCT050 10/06 Q1027 RMK PP000=
SPZO Ene2006-010800Z 00000KT 9999 -RA SCT036 BKN043 09/06 Q1027 RMK PP004=
SPZO Ene2006-010900Z 00000KT 9999 SCT036 BKN043 09/06 Q1026 RMK PP000=
SPZO Ene2006-011000Z 00000KT 9000 VCSH FEW025 SCT040 BKN043 09/07 Q1027 RMK PP000=
SPZO Ene2006-011100Z 00000KT 9999 VCSH SCT036 BKN043 09/07 Q1028 RMK PP000=
SPZO Ene2006-011200Z 09003KT 9000 VCSH SCT036 BKN046 10/07 Q1029 NOSIG RMK PP002 -RA BTN 1145/1150=
SPZO Ene2006-011300Z 08002KT 9999 VCSH SCT036 BKN046 10/07 Q1029 NOSIG RMK PP000=
SPZO Ene2006-011400Z VRB02KT 9999 FEW036 SCT040 BKN050 12/06 Q1029 NOSIG RMK PP000=
SPZO Ene2006-011500Z 10002KT 9999 FEW036 SCT043 SCT050 13/08 Q1029 NOSIG RMK PP000=
SPZO Ene2006-011600Z 05002KT 9999 SCT040 SCT050 15/07 Q1028 NOSIG RMK PP000=
SPZO Ene2006-011700Z VRB02KT 9999 SCT040 SCT050 18/06 Q1027 TEMPO VCSH RMK PP000 RA CDTE E RWY10 15010G22KT=
SPZO Ene2006-011800Z 27005KT 9000 RA FEW037TCU SCT047 BKN070 16/09 Q1026 NOSIG RMK PPTRZ=
SPZO Ene2006-011900Z 00000KT 9999 FEW047 SCT070 BKN200 18/04 Q1024 RERA TEMPO VCSH RMK PP002 RWY10 VRB04KT=
SPZO Ene2006-012000Z 23003KT 170V260 9999 VCRA FEW037TCU SCT050 BKN150 18/06 Q1023 TEMPO -RA RMK PP000 RWY10 VRB03KT=
SPZO Ene2006-012100Z VRB04KT 9000 -TSRA FEW033CB SCT043TCU BKN100 15/08 Q1023 NOSIG RMK PP024 RWY10 VRB06KT=
SPZO Ene2006-012200Z VRB05KT 9000 TSRA FEW033CB SCT043TCU BKN150 10/07 Q1023 NOSIG RMK PP124 RWY10 17009KT TMAX 19.7=
SPZO Ene2006-012300Z 10007KT 9000 TSRA FEW033CB SCT043TCU BKN060 12/08 Q1025 NOSIG RMK PP080=
SPZO Ene2006-020000Z 00000KT 8000 TSRA SCT033CB SCT043TCU 10/07 Q1028 RMK PP056=
SPZO Ene2006-020100Z 32002KT 8000 -RA OVC033 09/06 Q1029 RMK PP022=
SPZO Ene2006-020200Z 31003KT 8000 -RA BKN033 SCT040 09/07 Q1029 RMK PP006=
SPZO Ene2006-020300Z 00000KT 9000 SCT033 SCT040 09/07 Q1023 RMK PP002=
SPZO Ene2006-020400Z 00000KT 9999 SCT033 SCT040 09/07 Q1029 RMK PP000=
SPZO Ene2006-020500Z 00000KT 9999 SCT033 SCT040 10/07 Q1028 RMK PP000=
SPZO Ene2006-020600Z 00000KT 9999 SCT033 BKN080 09/06 Q1028 RMK PP000=
SPZO Ene2006-020700Z 00000KT 9999 SCT033 BKN080 09/07 Q1027 RMK PP000=
SPZO Ene2006-020800Z 09002KT 9999 SCT033 BKN080 09/07 Q1027 RMK PP000=
SPZO Ene2006-020900Z 00000KT 9999 SCT033 BKN080 09/07 Q1026 RMK PP000=
SPZO Ene2006-021000Z 00000KT 9999 FEW033 SCT040 SCT080 09/07 Q1027 RMK PP000=
SPZO Ene2006-021100Z 28002KT 9999 FEW037 OVC050 09/07 Q1028 RMK PP000=
SPZO Ene2006-021200Z VRB02KT 9999 FEW037 OVC060 10/08 Q1029 NOSIG RMK PP000 RWY10 10004KT=
SPZO Ene2006-021300Z 28005KT 260V350 9999 FEW037 OVC080 11/08 Q1029 NOSIG RMK PP000 RWY10 25005KT 190V340=
SPZO Ene2006-021400Z 10004KT 070V160 9999 SCT080 BKN150 13/09 Q1029 RMK PP000 RWY10 28008KT 250V330=
SPZO Ene2006-021500Z 27008KT 9999 SCT040 SCT060 BKN080 13/06 Q1029 TEMPO -RA RMK PP000 RWY10 26017KT 230V350=
SPZO Ene2006-021600Z 30010KT 270V350 9000 VCRA SCT040 SCT050 BKN080 14/05 Q1028 NOSIG RMK PP000 RWY10 31015KT 250V010=
SPZO Ene2006-021700Z 28012KT 260V350 9999 FEW043 OVC070 14/05 Q1028 NOSIG RMK PP000 RWY10 31015KT 260V350=
SPZO Ene2006-021800Z 08006KT 360V110 8000 -RA FEW036 SCT040 BKN050 12/05 Q1028 NOSIG RMK PP004=
SPZO Ene2006-021900Z 00000KT 8000 -RA FEW036 SCT043 BKN050 12/06 Q1028 NOSIG RMK PPTRZ WIND RWY10 00000KT=
SPZO Ene2006-022000Z 26003KT 150V350 8000 -RA FEW036 SCT040 BKN050 11/07 Q1027 RMK PP006 WIND RWY10 20004KT 100V300=
SPZO Ene2006-022100Z 26003KT 8000 -RA FEW036 SCT040 BKN050 11/07 Q1027 RMK PP004 WIND RWY10 28006KT=
SPZO Ene2006-022200Z 25003KT 180V290 9999 SCT040 BKN050 12/07 Q1026 RMK WIND RWY10 28012KT 250V330 PP000 TMAX 14.4=
SPZO Ene2006-022300Z 26005KT 9999 OVC050 11/06 Q1027 RMK PP000=
SPZO Ene2006-030000Z 28004KT 9999 -RA SCT037 BKN047 10/07 Q1028 RMK PP004=
SPZO Ene2006-030100Z 26005KT 9999 SCT037 BKN047 10/07 Q1029 RMK PPTRZ=
SPZO Ene2006-030200Z 27006KT 9999 SCT037 BKN050 10/06 Q1030 RMK PP000=
SPZO Ene2006-030300Z 27005KT 9999 FEW030 BKN043 10/06 Q1030 RMK PP000=
SPZO Ene2006-030400Z VRB02KT 9999 FEW037 BKN047 10/07 Q1030 RMK PP000=
SPZO Ene2006-030500Z 00000KT 9999 SCT037 SCT047 10/07 Q1030 RMK PP000=
SPZO Ene2006-030600Z VRB02KT 9999 BKN040 SCT050 09/07 Q1029 RMK PP000=
SPZO Ene2006-030700Z 00000KT 9999 SCT037 BKN050 09/07 Q1028 RMK PP000=
SPZO Ene2006-030800Z 00000KT 9999 SCT037 BKN050 09/07 Q1028 RMK PP000=
SPZO Ene2006-030900Z 00000KT 9999 FEW030 SCT040 BKN050 09/07 Q1028 RMK PP000=
SPZO Ene2006-031000Z 00000KT 9999 FEW033 SCT043 BKN050 09/07 Q1028 RMK PP000=
SPZO Ene2006-031100Z 00000KT 9999 FEW037 SCT043 BKN060 09/07 Q1029 RMK PP000=
SPZO Ene2006-031200Z 00000KT 9999 FEW036 SCT043 BKN050 10/08 Q1030 NOSIG RMK PP000=
SPZO Ene2006-031300Z 00000KT 9999 FEW036 SCT043 BKN050 11/08 Q1030 NOSIG RMK PP000=
SPZO Ene2006-031400Z VRB02KT 9999 FEW036 SCT046 BKN060 13/07 Q1030 NOSIG RMK PP000=
SPZO Ene2006-031500Z VRB02KT 9999 FEW036 SCT046 BKN060 13/05 Q1030 NOSIG RMK PP000=
SPZO Ene2006-031600Z 33004KT 250V020 9999 FEW036 SCT046 BKN060 15/05 Q1029 NOSIG RMK PP000=
SPZO Ene2006-031700Z VRB04KT 9999 FEW036 SCT046 BKN060 16/05 Q1028 NOSIG RMK PP000=
SPZO Ene2006-031800Z 30006KT 250V360 9999 FEW036 SCT043 BKN080 17/05 Q1027 NOSIG RMK WIND RWY10 28013KT=
SPZO Ene2006-031900Z 36012KT 9999 -RA FEW036 SCT040 BKN046 13/07 Q1026 NOSIG RMK PP002=
SPZO Ene2006-032000Z VRB06KT 9999 SCT040 SCT080 17/07 Q1025 RMK PP000=
SPZO Ene2006-032100Z 10016KT 070V170 8000 VCSH FEW033 SCT040 BKN046 16/05 Q1025 RMK PP000=
SPZO Ene2006-032200Z 08006KT 360V170 9999 SCT036 BKN050 12/08 Q1026 RMK PPTRZ T.MAX 17.3=
SPZO Ene2006-032300Z 10005KT 9999 SCT036 SCT050 12/08 Q1026 RMK PP000=
SPZO Ene2006-040000Z 09005KT 9999 OVC050 11/08 Q1027 RMK PP000=
SPZO Ene2006-040100Z 09003KT 9999 OVC050 11/08 Q1028 RMK PP000=
SPZO Ene2006-040200Z 00000KT 9999 OVC050 11/07 Q1028 RMK PP000=
SPZO Ene2006-040300Z 00000KT 9999 BKN050 10/08 Q1029 RMK PP000=
SPZO Ene2006-040400Z 00000KT 9999 BKN050 09/07 Q1029 RMK PP000=
SPZO Ene2006-040500Z 00000KT 9999 BKN050 09/07 Q1029 RMK PP000=
SPZO Ene2006-040600Z 00000KT 9999 BKN050 09/07 Q1028 RMK PP000=
SPZO Ene2006-040700Z 00000KT 9999 BKN050 10/07 Q1028 RMK PP000=
SPZO Ene2006-040800Z 00000KT 9999 BKN050 10/07 Q1027 RMK PP000=
SPZO Ene2006-040900Z 00000KT 9999 OVC050 10/08 Q1027 RMK PP000=
SPZO Ene2006-041000Z 00000KT 9999 SCT040 BKN050 10/08 Q1027 RMK PP000=
SPZO Ene2006-041100Z 00000KT 9999 SCT040 BKN050 10/08 Q1028 RMK PP002=
SPZO Ene2006-041200Z 00000KT 9999 FEW030 SCT040 BKN080 11/08 Q1029 NOSIG RMK PP000=
SPZO Ene2006-041300Z 00000KT 9999 FEW030 SCT043 BKN080 12/07 Q1029 NOSIG RMK PP000=
SPZO Ene2006-041400Z VRB01KT 9999 FEW036 SCT046 15/06 Q1029 NOSIG RMK PP000=
SPZO Ene2006-041500Z 01005KT 340V080 9000 -RA SCT036 BKN046 13/07 Q1029 NOSIG RMK PP002=
SPZO Ene2006-041600Z VRB03KT 9999 SCT040 16/06 Q1028 NOSIG RMK PP000=
SPZO Ene2006-041700Z VRB03KT 9999 FEW036 SCT046 17/07 Q1027 NOSIG RMK PP000=
SPZO Ene2006-041800Z VRB04KT 9999 FEW040 SCT046 19/06 Q1025 NOSIG RMK PP000=
SPZO Ene2006-041900Z 10011KT 9999 FEW040TCU BKN046 17/08 Q1024 TEMPO -RA RMK PP000 RWY10 09014KT=
SPZO Ene2006-042000Z 10011KT 9999 FEW040TCU BKN046 17/08 Q1024 RMK PP000=
SPZO Ene2006-042100Z 11008KT 9999 VCSH FEW040TCU SCT046 SCT080 17/07 Q1023 RMK PPOOO=
SPZO Ene2006-042200Z 24011KT 9999 VCSH FEW040TCU BKN046 14/05 Q1024 RMK PP000 RWY10 29016G30KT T.MX.19.7=
SPZO Ene2006-042300Z 32001KT 9999 SCT040 BKN080 13/05 Q1025 RMK PP000=
SPZO Ene2006-050000Z 28004KT 9999 SCT036 BKN046 12/07 Q1026 RMK PP000=
SPZO Ene2006-050100Z VRB02KT 9999 SCT036 BKN060 12/07 Q1027 RMK PP000=
SPZO Ene2006-050200Z VRB01KT 9999 SCT040 SCT080 12/07 Q1028 RMK PP000=
SPZO Ene2006-050300Z 28007KT 9999 SCT040 SCT070 12/06 Q1028 RMK PP000=
SPZO Ene2006-050400Z 29009KT 9999 SCT040 SCT060 12/07 Q1029 RMK PP000=
SPZO Ene2006-050500Z 28006KT 9999 SCT036 SCT050 12/07 Q1028 RMK PP000=
SPZO Ene2006-050600Z 00000KT 9999 SCT036 BKN046 11/06 Q1027 RMK PP000=
SPZO Ene2006-050700Z VRB03KT 9999 SCT040 BKN046 10/08 Q1027 RMK PP000=
SPZO Ene2006-050800Z 09003KT 9999 BKN040 SCT046 10/08 Q1026 RMK PP000=
SPZO Ene2006-050900Z 10003KT 9000 -RA SCT033 BKN043 09/08 Q1026 RMK PP006=
SPZO Ene2006-051000Z 09002KT 9999 VCSH FEW025 SCT040 BKN043 09/08 Q1027 RMK PPTRZ=
SPZO Ene2006-051100Z VRB02KT 8000 -DZ FEW020 SCT036 BKN043 09/08 Q1027 RMK CLNG BLW 1200M PP002=
SPZO Ene2006-051200Z VRB02KT 9000 FEW030 SCT036 BKN046 10/08 Q1028 RERA BECMG FM1230 FEW030 SCT040 BKN046 RMK PP006 CLNG BLW 1200M=
SPZO Ene2006-051300Z 12005KT 090V170 9000 -RA FEW030 SCT036 BKN046 10/08 Q1029 NOSIG RMK PP000 CLNG BLW 1200M=
SPZO Ene2006-051400Z 09003KT 7000 RA FEW020 SCT036 BKN043 10/08 Q1029 NOSIG RMK PP010 CLNG BLW 1200M=
SPZO Ene2006-051500Z VRB02KT 9999 FEW025 SCT036 BKN046 12/08 Q1028 NOSIG RMK PPTRZ=
SPZO Ene2006-051600Z VRB03KT 9999 FEW036 SCT040 BKN050 14/08 Q1028 TEMPO=
SPZO Ene2006-051700Z 11005KT 070V170 9999 FEW036 SCT040 BKN050 15/08 Q1026 TEMPO VCSH RMK PP000 RWY10 10012KT RA CDTE W=
SPZO Ene2006-051800Z VRB03KT 9000 VCRA SCT037TCU BKN047 17/08 Q1025 TEMPO -RA RMK PP000 RWY10 29012KT 260V010=
SPZO Ene2006-051900Z 10008KT 9000 VCRA SCT037TCU BKN043 14/09 Q1025 TEMPO -RA RMK PP000 RWY10 04014KT 360V100=
SPZO Ene2006-052000Z VRB06KT 9999 VCRA FEW033 SCT040TCU BKN050 14/08 Q1025 RMK PP000 RWY10 18006KT 100V280=
SPZO Ene2006-052100Z 10007KT 9999 VCRA FEW033TCU SCT043 BKN060 13/08 Q1024 RMK PP000 RWY10 10010KT 060V140=
SPZO Ene2006-052200Z 10006KT 9999 FEW030 SCT037 BKN060 13/07 Q1024 RMK PP000 RWY10 09008KT TMAX 16.7=
SPZO Ene2006-052300Z 10009KT 9999 FEW033TCU SCT043 BKN050 12/07 Q1025 RMK PP000 RWY10 10013KT=
SPZO Ene2006-060000Z 09005KT 9999 FEW033TCU SCT043 BKN050 11/08 Q1026 RMK PP000=
SPZO Ene2006-060100Z 00000KT 9000 -RA FEW033TCU SCT043 10/08 Q1027 RMK PP018=
SPZO Ene2006-060200Z 00000KT 9999 FEW030 SCT043 BKN050 10/08 Q1028 RMK PP002=
SPZO Ene2006-060300Z 00000KT 9999 FEW030 SCT043 BKN050 10/08 Q1029 RMK PP000=
SPZO Ene2006-060400Z 00000KT 9999 SCT033 SCT043 11/08 Q1029 RMK PP000=
SPZO Ene2006-060500Z 00000KT 9999 SCT033 BKN043 11/08 Q1028 RMK PP000=
SPZO Ene2006-060600Z 00000KT 9999 SCT033 BKN043 11/07 Q1028 RMK PP000=
SPZO Ene2006-060700Z 26002KT 9999 SCT033 BKN043 10/07 Q1027 RMK PP000=
SPZO Ene2006-060800Z 00000KT 9999 FEW033 BKN043 10/07 Q1027 RERA PP004=
SPZO Ene2006-060900Z 00000KT 9999 SCT033 SCT050 10/08 Q1027 RMK PP000=
SPZO Ene2006-061000Z 00000KT 9999 FEW033 SCT050 09/07 Q1028 RMK PP000=
SPZO Ene2006-061100Z 00000KT 9999 FEW033 SCT080 08/06 Q1029 RMK PP000=
SPZO Ene2006-061200Z 00000KT 9999 FEW030 SCT040 10/07 Q1029 NOSIG RMK PP000=
SPZO Ene2006-061300Z 00000KT 9999 FEW030 SCT040 13/07 Q1030 NOSIG RMK PP000=
SPZO Ene2006-061400Z 00000KT 9999 SCT043 16/07 Q1030 NOSIG RMK PP000 RWY10 VRB04KT=
SPZO Ene2006-061500Z 17005KT 9999 SCT047 17/02 Q1029 NOSIG RMK PP000=
SPZO Ene2006-061600Z VRB03KT 9999 BKN050 18/02 Q1028 NOSIG RMK PP000=
SPZO Ene2006-061700Z 00000KT 9999 BKN050 19/03 Q1027 NOSIG RMK PP000=
SPZO Ene2006-061800Z 02011KT 340V080 9999 BKN050 20/02 Q1026 NOSIG RMK PP000 RWY10 02015G26KT=
SPZO Ene2006-061900Z 31010KT 240V080 9999 SCT050 20/02 Q1025 NOSIG RMK PP000 RWY10 02021KT=
SPZO Ene2006-062000Z 01012KT 340V080 9999 SCT050 20/01 Q1024 RMK PP000=
SPZO Ene2006-062100Z 01012KT 340V080 9999 BKN050 18/03 Q1024 RMK PP000=
SPZO Ene2006-062200Z 02010KT 340V080 9999 BKN050 17/04 Q1025 RMK PP000 WIND RWY10 VRB12KT TMAX 20.5=
SPZO Ene2006-062300Z 01006KT 340V080 9999 BKN046 16/04 Q1025 RMK PP000=
SPZO Ene2006-070000Z 10022G34KT 9999 BL SCT037TCU BKN047 12/05 Q1028 RMK PP000 RWY10 10044G60KT=
SPZO Ene2006-070100Z 10004KT 9999 FEW037TCU BKN043 11/04 Q1030 RMK PP000=
SPZO Ene2006-070200Z 30008KT 9999 SCT037 BKN043 11/04 Q1029 RMK PP000=
SPZO Ene2006-070300Z 28015KT 9999 SCT037 BKN050 10/04 Q1030 RMK PP000=
SPZO Ene2006-070400Z 28009KT 9999 SCT037 BKN047 10/04 Q1030 RMK PP000=
SPZO Ene2006-070500Z VRB02KT 9999 FEW037 SCT050 10/04 Q1030 RMK PP000=
SPZO Ene2006-070600Z 00000KT 9999 FEW040 09/04 Q1030 RMK PP000=
SPZO Ene2006-070700Z 00000KT 9999 FEW040 08/04 Q1029 RMK PP000=
SPZO Ene2006-070800Z 00000KT 9999 FEW040 08/04 Q1029 RMK PP000=
SPZO Ene2006-070900Z 00000KT 9999 SCT040 07/05 Q1029 RMK PP000=
SPZO Ene2006-071000Z 00000KT 9999 FEW037 07/05 Q1030 RMK PP000=
SPZO Ene2006-071100Z 00000KT 9999 FEW040 SCT200 06/04 Q1030 RMK PP000=
SPZO Ene2006-071200Z 00000KT 9999 SCT040 SCT230 11/05 Q1031 NOSIG RMK PP000=
SPZO Ene2006-071300Z 00000KT 9999 SCT040 SCT230 13/06 Q1032 NOSIG RMK PP000=
SPZO Ene2006-071400Z VRB03KT 9999 SCT050 15/05 Q1031 NOSIG RMK PP000=
SPZO Ene2006-071500Z 00000KT 9999 SCT050 17/02 Q1031 NOSIG RMK PP000=
SPZO Ene2006-071600Z 00000KT 9999 SCT050 18/03 Q1029 NOSIG RMK PP000=
SPZO Ene2006-071700Z 00000KT 9999 SCT050 19/03 Q1029 NOSIG RMK PP000=
SPZO Ene2006-071800Z 06013KT 350V080 9999 FEW040TCU SCT050 19/02 Q1028 NOSIG RMK PP000=
SPZO Ene2006-071900Z 01012KT 9999 SCT050 19/02 Q1027 NOSIG RMK PP000=
SPZO Ene2006-072000Z 35006KT 270V080 9999 FEW050 19/02 Q1025 RMK PP000=
SPZO Ene2006-072100Z 36007KT 270V080 9999 SCT050 20/01 Q1024 RMK PP000=
SPZO Ene2006-072200Z 01005KT 340V080 9999 SCT050 18/02 Q1024 RMK PP000 T.MAX 20.2=
SPZO Ene2006-072300Z 36007KT 280V070 9999 FEW040 SCT230 16/03 Q1025 RMK PP000=
SPZO Ene2006-080000Z 10007KT 080V170 9999 SCT050 15/04 Q1027 RMK PP000=
SPZO Ene2006-080100Z 00000KT 9999 SCT050 14/04 Q1028 RMK PP000=
SPZO Ene2006-080200Z 00000KT 9999 SCT050 12/05 Q1029 RMK PP000=
SPZO Ene2006-080300Z 00000KT 9999 SCT050 12/05 Q1029 RMK PP000=
SPZO Ene2006-080400Z 28006KT 260V350 9999 OVC040 11/06 Q1030 RMK PP000=
SPZO Ene2006-080500Z 00000KT 8000 -DZ OVC040 10/06 Q1029 RMK PPTRZ=
SPZO Ene2006-080600Z 00000KT 9000 BKN046 09/05 Q1029 REDZ PPTRZ=
SPZO Ene2006-080700Z 00000KT 9999 BKN046 09/06 Q1028 RMK PP000=
SPZO Ene2006-080800Z 00000KT 9999 BKN046 08/05 Q1028 RMK PP000=
SPZO Ene2006-080900Z 00000KT 9999 BKN046 09/06 Q1028 RMK PP000=
SPZO Ene2006-081000Z 00000KT 9999 BKN046 10/06 Q1029 RMK PP000=
SPZO Ene2006-081100Z 00000KT 9999 SCT046 09/06 Q1030 RMK PP000=
SPZO Ene2006-081200Z VRB01KT 9999 FEW046 12/07 Q1030 NOSIG RMK PP000=
SPZO Ene2006-081300Z 00000KT 9999 SCT050 14/05 Q1030 NOSIG RMK PP000=
SPZO Ene2006-081400Z VRB01KT 9999 SCT050 16/04 Q1030 NOSIG RMK PP000=
SPZO Ene2006-081500Z VRB02KT 9999 SCT046 17/03 Q1030 NOSIG RMK PP000=
SPZO Ene2006-081600Z 29005KT 250V360 9999 SCT040 SCT230 18/03 Q1029 NOSIG RMK PP000=
SPZO Ene2006-081700Z 10007KT 360V170 9999 FEW040 SCT050 20/02 Q1028 NOSIG RMK PP000=
SPZO Ene2006-081800Z VRB06KT 9999 SCT040 SCT200 20/03 Q1027 NOSIG RMK PP000=
SPZO Ene2006-081900Z 03018G29KT 9999 FEW043TCU SCT050 19/03 Q1025 TEMPO VCSH RMK RWY10 02025G44KT PP000=
SPZO Ene2006-082000Z 01009KT 9999 SCT043 SCT080 18/04 Q1025 RMK PP000=
SPZO Ene2006-082100Z 07008KT 360V100 9999 SCT043 SCT080 19/05 Q1025 RMK RWY10 10011G24KT PP000=
SPZO Ene2006-082200Z 10017KT 9999 FEW043 SCT080 15/04 Q1026 RMK PP000 RWY10 11037G51 T.MAX.21.1=
SPZO Ene2006-082300Z 10006KT 9999 FEW043 SCT080 14/04 Q1026 RMK PP000=
SPZO Ene2006-090000Z 00000KT 9999 FEW040 SCT230 13/04 Q1027 RMK PP000=
SPZO Ene2006-090100Z 10004KT 9999 FEW040 11/05 Q1028 RMK PP000=
SPZO Ene2006-090200Z 00000KT 9999 FEW050 SCT100 11/05 Q1029 RMK PP000=
SPZO Ene2006-090300Z 00000KT 9999 FEW040 SCT100 11/06 Q1030 RMK PP000=
SPZO Ene2006-090400Z 00000KT 9999 FEW046 SCT070 10/05 Q1030 RMK PP000=
SPZO Ene2006-090500Z 00000KT 9999 SCT043 SCT070 10/05 Q1030 RMK PP000=
SPZO Ene2006-090600Z 00000KT 9999 SCT040 SCT050 09/05 Q1029 RMK PP000=
SPZO Ene2006-090700Z 00000KT 9999 SCT040 SCT046 09/05 Q1028 RMK PP000=
SPZO Ene2006-090800Z 00000KT 9999 BKN040 SCT046 10/06 Q1028 RMK PP000=
SPZO Ene2006-090900Z 00000KT 9999 BKN040 SCT046 09/06 Q1028 RMK PP000=
SPZO Ene2006-091000Z 00000KT 9999 SCT043 SCT050 10/06 Q1029 RMK PP000=
SPZO Ene2006-091100Z 09004KT 9999 SCT040 SCT050 08/06 Q1030 RMK PP000=
SPZO Ene2006-091200Z 00000KT 9999 SCT040 SCT050 11/06 Q1030 NOSIG RMK PP000=
SPZO Ene2006-091300Z 00000KT 9999 FEW040 SCT050 14/06 Q1031 NOSIG RMK PP000=
SPZO Ene2006-091400Z VRB02KT 9999 FEW040 BKN046 15/05 Q1031 NOSIG RMK PP000 RWY10 12008KT=
SPZO Ene2006-091500Z VRB02KT 9999 FEW043 BKN050 16/05 Q1031 NOSIG RMK PP000=
SPZO Ene2006-091600Z VRB05KT 9999 FEW043 SCT050 18/05 Q1029 NOSIG RMK PP000 RWY10 VRB08KT=
SPZO Ene2006-091700Z VRB05KT 9999 FEW040 SCT050 20/05 Q1028 NOSIG RMK PP000 RWY10 29013KT=
SPZO Ene2006-091800Z 00000KT 9999 SCT040TCU SCT050 19/02 Q1027 TEMPO VCSH RMK PP000 RWY10 18010KT=
SPZO Ene2006-091900Z 26003KT 9999 FEW037TCU SCT047 BKN200 20/02 Q1025 NOSIG RMK PP000 RWY10 23006KT=
SPZO Ene2006-092000Z VRB04KT 9999 FEW037TCU SCT047BKN200 22/02 Q1023 RMK PP000 RWY10 00000KT=
SPZO Ene2006-092100Z 30012KT 260V010 9999 VCRA SCT040TCU OVC150 21/03 Q1022 RMK PP000 RWY10 31018KT 250V020=
SPZO Ene2006-092200Z 09009KT 070V170 9000 VCRA SCT040TCU OVC120 16/05 Q1024 RMK PP000 RWY10 09016KT TMAX 22.1=
SPZO Ene2006-092300Z 08009KT 8000 TSRA FEW037CB BKN043 11/08 Q1026 RMK PP100=
SPZO Ene2006-100000Z 00000KT 8000 TS SCT034CB BKN043 12/07 Q1027 RMK PP004=
SPZO Ene2006-100100Z 11007KT 8000 FEW033 OVC040 11/08 Q1029 RMK PP000=
SPZO Ene2006-100200Z 13005KT 9000 FEW033 OVC040 11/07 Q1030 RMK PP000=
SPZO Ene2006-100300Z 06003KT 9999 FEW033 OVC040 10/07 Q1030 RMK RERA PP002=
SPZO Ene2006-100400Z 00000KT 9000 DZ FEW033 OVC040 10/08 Q1031 RMK PP006=
SPZO Ene2006-100500Z 00000KT 8000 DZ FEW033 OVC040 10/07 Q1030 RMK PP012=
SPZO Ene2006-100600Z 00000KT 8000 FEW033 BKN040 09/07 Q1029 RMK PP012=
SPZO Ene2006-100700Z 00000KT 8000 SCT033 BKN040 10/07 Q1029 RMK RERA PP002=
SPZO Ene2006-100800Z 28007KT 8000 SCT033 BKN040 10/06 Q1028 RMK PP000=
SPZO Ene2006-100900Z 28004KT 8000 FEW033 SCT040 SCT080 10/06 Q1028 RMK PP000=
SPZO Ene2006-101000Z 27002KT 9999 FEW033 SCT045 SCT080 10/06 Q1028 RMK PP000=
SPZO Ene2006-101100Z 12002KT 9999 FEW033 SCT045 09/07 Q1029 RMK PP000=
SPZO Ene2006-101200Z VRB02KT 9999 SCT033 SCT070 11/07 Q1030 NOSIG RMK PP000=
SPZO Ene2006-101300Z 00000KT 9999 FEW033 BKN043 12/06 Q1030 NOSIG RMK PP000 RWY10 17005KT=
SPZO Ene2006-101400Z 00000KT 9999 FEW037 SCT047 15/05 Q1030 NOSIG RMK PP000=
SPZO Ene2006-101500Z 00000KT 9999 SCT043 16/06 Q1030 NOSIG RMK PP000 RWY10 VRB04KT=
SPZO Ene2006-101600Z 28004KT 9999 SCT047 18/08 Q1029 NOSIG RMK PP000 RWY10 VRB02KT=
SPZO Ene2006-101700Z 24006KT 190V260 9999 FEW040TCU SCT050 19/05 Q1027 NOSIG RMK PP000 RWY10 19008KT 150V210=
SPZO Ene2006-101800Z 16011KT 190V200 9999 -RA SCT040 SCT046 16/04 Q1026 BECMG FM1840 NSW RMK PPTRZ RWY10 13023G36KT=
SPZO Ene2006-101900Z 01009KT 340V080 9000 VCSH SCT043 SCT046 17/03 Q1025 RERA NOSIG RMK VCSH QUAD W PPTRZ=
SPZO Ene2006-102000Z 01012KT 340V080 9999 VCSH SCT046 SCT050 18/05 Q1024 RMK VCSH QUAD E PP000 WIND RWY10 02017KT 330V110=
SPZO Ene2006-102100Z 10024KT 9000 VCSH SCT040 SCT043 13/07 Q1026 RMK VCSH QUAD E PP000 WIND RWY10 10042G57KT 050V150=
SPZO Ene2006-102200Z VRB04KT 9000 -RA SCT040 SCT043 12/07 Q1025 RMK PP008 WIND RWY10 19006KT 130V240 TMAX 19.6=
SPZO Ene2006-102300Z 10008KT 070V170 9999 SCT046 BKN050 12/06 Q1026 RMK PPTRZ=
SPZO Ene2006-110000Z 00000KT 9999 SCT060 BKN100 11/07 Q1026 RMK PP000=
SPZO Ene2006-110100Z 10004KT 9999 FEW060 SCT120 10/07 Q1028 RMK PP000=
SPZO Ene2006-110200Z 00000KT 9999 FEW050 SCT150 10/07 Q1029 RMK PP000=
SPZO Ene2006-110300Z 00000KT 9999 SCT100 SCT200 09/07 Q1029 RMK PP000=
SPZO Ene2006-110400Z 00000KT 9999 SCT200 09/06 Q1029 RMK PP000=
SPZO Ene2006-110500Z 00000KT 9999 SCT100 08/06 Q1028 RMK PP000=
SPZO Ene2006-110600Z 00000KT 9999 FEW120 SCT200 07/06 Q1028 RMK PP000=
SPZO Ene2006-110700Z 00000KT 9999 FEW100 SCT200 07/05 Q1027 RMK PP000=
SPZO Ene2006-110800Z 00000KT 9999 SCT200 07/05 Q1027 RMK PP000=
SPZO Ene2006-110900Z 06003KT 9999 FEW060 SCT200 06/04 Q1027 RMK PP000=
SPZO Ene2006-111000Z 00000KT 9999 FEW050 SCT200 06/05 Q1027 RMK PP000=
SPZO Ene2006-111100Z 00000KT 9000 FEW033 SCT043 BKN200 06/05 Q1028 RMK PP000 VISIB RED DUE BR/HZ=
SPZO Ene2006-111200Z 09003KT 8000 SCT040 SCT060 08/06 Q1028 BECMG FM13 9000 RMK HZ/BR PP000=
SPZO Ene2006-111300Z 13002KT 090V180 9999 SCT040 SCT070 10/07 Q1029 NOSIG RMK PP000 WIND RWY10 13007KT 090V180=
SPZO Ene2006-111400Z 12002KT 080V190 9999 SCT043 SCT060 13/07 Q1029 NOSIG RMK PP000 WIND RWY10 VRB02KT=
SPZO Ene2006-111500Z VRB03KT 9999 SCT043 SCT100 16/05 Q1028 NOSIG RMK PP000 WIND RWY10 VRB03KT=
SPZO Ene2006-111600Z VRB03KT 9999 SCT043 SCT100 17/06 Q1027 NOSIG RMK PP000 WIND RWY10 VRB15KT=
SPZO Ene2006-111700Z 09005KT 360V170 9999 SCT046 SCT100 19/05 Q1025 NOSIG RMK PP000 WIND RWY10 VRB05KT=
SPZO Ene2006-111800Z VRB03KT 9999 FEW040TCU SCT043 BKN100 20/04 Q1024 NOSIG RMK PP000=
SPZO Ene2006-111900Z 01016KT 340V080 9999 VCSH FEW036TCU SCT040 BKN080 17/06 Q1024 TEMPO -RA PP000=
SPZO Ene2006-112000Z 27011KT 9999 FEW036TCU SCT043 BKN080 16/05 Q1024 RMK PP000=
SPZO Ene2006-112100Z 27009KT 9999 VCSH SCT040 SCT080 16/06 Q1024 RMK PP000=
SPZO Ene2006-112200Z 34006KT 270V360 9999 VCSH FEW036 SCT040 BKN070 16/05 Q1025 RMK PP000 T.MAX 20.3=
SPZO Ene2006-112300Z VRB03KT 9999 VCSH FEW036 SCT040 BKN046 14/07 Q1026 RMK PP000=
SPZO Ene2006-120000Z 10007KT 080V170 9999 OVC050 12/07 Q1027 RMK PP000=
SPZO Ene2006-120100Z 09005KT 070V170 9999 OVC050 12/07 Q1028 RMK PP000=
SPZO Ene2006-120200Z 12004KT 080V190 9999 OVC050 12/07 Q1029 RMK PP000=
SPZO Ene2006-120300Z 11004KT 080V170 9999 OVC050 11/07 Q1029 RMK PP000=
SPZO Ene2006-120400Z 08002KT 360V170 9999 OVC050 12/06 Q1029 RMK PP000=
SPZO Ene2006-120500Z 13003KT 090V200 5000 +RA FEW030 SCT040 BKN043 10/08 Q1029 RMK PP026=
SPZO Ene2006-120600Z 00000KT 5000 +RA FEW030 SCT033 BKN040 09/07 Q1028 RMK PP036=
SPZO Ene2006-120700Z 00000KT 5000 RA FEW030 SCT033 BKN040 09/07 Q1028 RMK PP016=
SPZO Ene2006-120800Z 00000KT 7000 -RA FEW030 SCT033 BKN040 09/07 Q1027 RMK PP010=
SPZO Ene2006-120900Z 00000KT 9000 FEW030 SCT040 BKN043 09/07 Q1027 RERA RMK PPTRZ=
SPZO Ene2006-121000Z 00000KT 9999 FEW030 SCT040 BKN046 09/06 Q1028 RMK PP000=
SPZO Ene2006-121100Z 00000KT 9999 FEW030 SCT040 BKN050 10/07 Q1028 RMK PP000=
SPZO Ene2006-121200Z 00000KT 9999 FEW025 SCT040 BKN050 10/07 Q1028 NOSIG RMK PP000=
SPZO Ene2006-121300Z 00000KT 9999 FEW036 SCT043 BKN060 12/06 Q1029 NOSIG RMK PP000=
SPZO Ene2006-121400Z VRB01KT 9999 VCSH FEW036 SCT040 BKN046 12/05 Q1029 NOSIG RMK PP000=
SPZO Ene2006-121500Z VRB01KT 9999 FEW036 SCT043 BKN080 14/06 Q1029 NOSIG RMK PP000=
SPZO Ene2006-121600Z VRB01KT 9999 FEW036 SCT043 BKN080 15/06 Q1028 NOSIG RMK PP000=
SPZO Ene2006-121700Z VRB02KT 9999 SCT043 SCT080 16/05 Q1027 NOSIG RMK PP000=
SPZO Ene2006-121800Z 25002KT 9999 SCT043 SCT050 19/07 Q1026 NOSIG RMK PP000=
SPZO Ene2006-121900Z VRB03KT 9999 FEW040TCU BKN046 19/06 Q1024 TEMPO=
SPZO Ene2006-122000Z VRB08KT 9999 -DZ SCT040TCU BKN046 15/07 Q1024 RMK PP008=
SPZO Ene2006-122100Z 01006KT 9999 FEW040TCU SCT046 BKN080 15/09 Q1023 RMK PP000 RWY10 04017G31=
SPZO Ene2006-122200Z VRB05KT 9999 FEW040 SCT046 BKN080 16/06 Q1023 RMK PP000 RWY10 23012 T.MAX.19.8=
SPZO Ene2006-122300Z 10006KT 9999 VCSH FEW040 BKN046 15/08 Q1024 RMK PP000=
SPZO Ene2006-130000Z VRB02KT 9999 -RA SCT036 BKN043 12/08 Q1025 RMK PP034=
SPZO Ene2006-130100Z 10004KT 090V170 9000 -RA FEW025 OVC043 11/09 Q1027 RMK PP034=
SPZO Ene2006-130200Z 08006KT 9999 DZ FEW025 OVC046 11/08 Q1028 RMK PP004=
SPZO Ene2006-130300Z VRB03KT 9999 -RA FEW025 OVC040 10/08 Q1029 RMK PP002=
SPZO Ene2006-130400Z 00000KT 9999 SCT020 BKN043 10/08 Q1028 RMK PP002=
SPZO Ene2006-130500Z 00000KT 9999 FEW030 OVC040 10/08 Q1028 RMK PP000=
SPZO Ene2006-130600Z 00000KT 9999 OVC040 10/09 Q1028 RMK PP000=
SPZO Ene2006-130700Z 00000KT 9999 SCT036 SCT046 10/08 Q1027 RMK PP000=
SPZO Ene2006-130800Z 00000KT 9999 SCT036 BKN046 10/08 Q1027 RMK PP000=
SPZO Ene2006-130900Z 09003KT 9999 SCT030 BKN043 10/08 Q1027 RMK PP000=
SPZO Ene2006-131000Z 10004KT 9999 FEW025 SCT040 BKN043 10/08 Q1028 RMK PP000=
SPZO Ene2006-131100Z 13004KT 090V170 9999 FEW020 SCT036 BKN043 10/08 Q1028 RMK CLNG BLW 1200M PP000=
SPZO Ene2006-131200Z 08003KT 9999 FEW020 SCT036 BKN043 10/08 Q1029 NOSING RMK CLNG BLW 1200M PP000=
SPZO Ene2006-131300Z 10005KT 9999 FEW030 SCT036 BKN046 11/08 Q1030 NOSIG RMK PP000 RA CDTE E=
SPZO Ene2006-131400Z VRB03KT 9999 SCT036 BKN046 11/09 Q1030 NOSIG RMK PP000 RWY10 11010KT=
SPZO Ene2006-131500Z VRB04KT 9999 FEW036TCU SCT043 SCT050 14/08 Q1029 TEMPO VCSH RMK PP002 -RA BTN 1445-1450=
SPZO Ene2006-131600Z VRB02KT 9999 FEW040TCU BKN046 15/07 Q1029 TEMPO VCSH RMK PP000 RWY10 VRB05KT=
SPZO Ene2006-131700Z VRB01KT 9999 FEW040TCU BKN046 15/08 Q1028 TEMPO VCRA RMK PP000 RWY10 270/07=
SPZO Ene2006-131800Z 10004KT 070V170 9999 VCRA SCT040TCU BKN050 16/08 Q1029 NOSIG RMK PP000 RWY10 11010KT 030V200=
SPZO Ene2006-131900Z 08006KT 9999 VCRA SCT040TCU BKN050 17/07 Q1025 NOSIG RMK PP000 RWY10 11008KT 040V150=
SPZO Ene2006-132000Z 10010KT 090V170 9999 SCT040TCU BKN047 15/09 Q1025 RMK PP000 RWY10 11020KT 090V150=
SPZO Ene2006-132100Z 12005KT 7000 TS -RA FEW033CB SCT037 BKN047 11/09 Q1026 RMK PP054 RWY10 10020KT=
SPZO Ene2006-132200Z VRB02KT 6000 RA SCT030 SCT037 BKN043 11/08 Q1027 RETS RMK PP004 RWY10 10006KT TMAX 17.0 CLNG BLW 1200M=
SPZO Ene2006-132300Z 00000KT 7000 -RA SCT025 SCT033 BKN040 11/09 Q1028 RMK PP014 CLNG BLW 1200M=
SPZO Ene2006-140000Z 00000KT 7000 -RA SCT020 SCT033 SCT040 11/08 Q1028 RMK PP006 CLNG BLW 1200M=
SPZO Ene2006-140100Z 00000KT 8000 -DZ SCT030 SCT037 11/09 Q1029 RMK CLNG BLW 1200M PP004=
SPZO Ene2006-140200Z 10003KT 9999 SCT033 SCT040 11/09 Q1029 RMK CLNG BLW 1200M PP000=
SPZO Ene2006-140300Z 09002KT 9999 SCT033 SCT040 10/08 Q1030 RMK CLNG BLW 1200M PP000=
SPZO Ene2006-140400Z 08001KT 9999 SCT033 SCT040 11/09 Q1030 RMK CLNG BLW 1200M PP000=
SPZO Ene2006-140500Z 00000KT 9999 FEW030 SCT033 SCT040 11/09 Q1029 RMK CLNG BLW 1200M PP000=
SPZO Ene2006-140600Z 28004KT 9999 -RA SCT030 BKN040 10/09 Q1029 RMK PP020=
SPZO Ene2006-140700Z 07003KT 9999 -DZ SCT030 BKN040 10/08 Q1029 RMK CLNG BLW 1200M PP016=
SPZO Ene2006-140800Z 00000KT 9000 -RA SCT030 BKN040 09/07 Q1029 RMK CLNG BLW 1200M PP014=
SPZO Ene2006-140900Z 00000KT 9000 -RA SCT030 BKN040 09/07 Q1029 RMK CLNG BLW 1200M PP020=
SPZO Ene2006-141000Z 09003KT 9000 -RA SCT030 BKN040 08/06 Q1028 RMK CLNG BLW 1200M PP028=
SPZO Ene2006-141100Z 00000KT 6000 -RA BKN030 SCT040 08/06 Q1031 RMK CLNG BLW 1200M PP020=
SPZO Ene2006-141200Z VRB02KT 8000 -RA SCT027 SCT037 BKN047 08/07 Q1031 NOSIG RMK CLNG BLW 1200M PP008=
SPZO Ene2006-141300Z 11002KT 9999 -RA SCT027 BKN050 10/07 Q1031 NOSIG RMK PP002 RWY10 15005KT=
SPZO Ene2006-141400Z 00000KT 9999 SCT030 SCT050 BKN100 12/05 Q1031 RERA NOSIG RMK PPTRZ BIRD HAZARD THR RWY28=
SPZO Ene2006-141500Z VRB02KT 9999 SCT037 BKN053 14/06 Q1031 NOSIG RMK PP000 RWY10 16011KT 100V220=
SPZO Ene2006-141600Z 17004KT 100V240 9999 FEW037TCU SCT043 BKN100 15/06 Q1030 TEMPO VCSH RMK PP000 RWY10 19008KT 140V260=
SPZO Ene2006-141700Z 00000KT 9999 FEW037TCU SCT043 SCT200 17/06 Q1029 TEMPO VCSH RMK PP000 RWY10 17008KT=
SPZO Ene2006-141800Z VRB02KT 9999 FEW040 SCT050 17/07 Q1027 NOSIG RMK PP000=
SPZO Ene2006-141900Z VRB02KT 9999 VCSH FEW040 BKN046 19/06 Q1026 NOSIG RMK VCSH QUAD W/NW RMK PP000 WIND RWY10 29018G29KT 250V350=
SPZO Ene2006-142000Z 29008KT 250V250 9999 FEW040TCU BKN046 17/06 Q1025 TEMPO VCSH RMK PP000 RWY10 01010KT 300V1290=
SPZO Ene2006-142100Z VRB05KT 9999 FEW043 SCT060 19/07 Q1024 NOSIG RMK PP000 WIND RWY10 27012KT=
SPZO Ene2006-142200Z 01007KT 340V080 9999 FEW043 SCT050 18/06 Q1025 TEMPO VCSH RMK WIND RWY10 29015KT 240V010 PP000 TMAX 19.1=
SPZO Ene2006-142300Z 35005KT 270V020 9999 FEW043 BKN050 16/06 Q1025 TEMPO VCSH RMK PP000=
SPZO Ene2006-150000Z 10015KT 9000 TS -RA FEW033CB BKN040 13/09 Q1027 RMK PPTRZ=
SPZO Ene2006-150100Z 11005KT 8000 RA SCT030 BKN040 11/07 Q1029 RMK PP010=
SPZO Ene2006-150200Z 00000KT 8000 RA FEW025 SCT033 BKN040 10/08 Q1030 RMK PP048=
SPZO Ene2006-150300Z 00000KT 8000 RA FEW025 SCT033 BKN040 09/08 Q1031 RMK PP048=
SPZO Ene2006-150400Z 26006KT 9000 RA FEW025 BKN037 09/07 Q1030 RMK PP028=
SPZO Ene2006-150500Z 25003KT 8000 RA SCT025 BKN037 09/07 Q1030 RMK PP022=
SPZO Ene2006-150600Z 27004KT 9000 -RA SCT025 BKN037 08/06 Q1030 RMK PP042=
SPZO Ene2006-150700Z 00000KT 9000 RA SCT025 BKN037 08/06 Q1029 RMK PP044=
SPZO Ene2006-150800Z 27003KT 9000 RA SCT075 BKN037 07/06 Q1029 RMK PP030 CLNG BLW 1200M=
SPZO Ene2006-150900Z 00000KT 9000 RA SCT025 BKN037 07/05 Q1029 RMK PP018 CLNG BLW 1200M=
SPZO Ene2006-151000Z 10004KT 9000 -RA FEW020 SCT030 BKN037 07/05 Q1030 RMK PP022 CLNG BLW 1200M=
SPZO Ene2006-151100Z 00000KT 9000 RA SCT020 SCT033 BKN040 06/04 Q1031 RMK PP012 CLNG BLW 1200M=
SPZO Ene2006-151200Z 09004KT 7000 -RA SCT015 SCT025 BKN033 06/04 Q1031 NOSIG RMK CLNG BLW 1200M PP006=
SPZO Ene2006-151300Z 10005KT 8000 -RA SCT015 SCT025 BKN033 06/04 Q1031 BECMG FM14 9000 RMK CLNG BLW 1200M PP006=
SPZO Ene2006-151400Z 10005KT 080V170 8000 -RA FEW020 SCT033 BKN040 07/04 Q1031 BECMG FM15 9000 RMK CLNG BLW 1200M PPTRZ=
SPZO Ene2006-151500Z 10005KT 070V170 9000 -DZ FEW030 SCT040 BKN043 09/04 Q1031 BECMG FM16 9999 RMK PP002=
SPZO Ene2006-151600Z 10004KT 360V170 9999 -DZ FEW030 SCT040 BKN046 11/05 Q1030 NOSIG RMK PPTRZ=
SPZO Ene2006-151700Z 03004KT 340V110 9999 -DZ FEW030 SCT040 BKN046 12/06 Q1029 NOSIG RMK PPTRZ WIND RWY10 VRB04KT=
SPZO Ene2006-151800Z VRB03KT 9999 SCT030 SCT040 BKN070 13/06 Q1029 NOSIG RMK PPTRZ=
SPZO Ene2006-151900Z 00000KT 9999 VCSH FEW030 SCT040 BKN060 13/06 Q1028 NOSIG RMK PPTRZ=
SPZO Ene2006-152000Z VRB01KT 9999 VCSH SCT036 SCT050 15/06 Q1026 NOSIG RMK PP000=
SPZO Ene2006-152100Z VRB02KT 9999 SCT036 SCT060 17/07 Q1026 TEMPO VCSH RMK PP000=
SPZO Ene2006-152200Z VRB01KT 9999 FEW036TCU SCT043 BKN080 15/06 Q1025 NOSIG RMK PP000 T.MAX 17.0=
SPZO Ene2006-152300Z VRB01KT 9999 SCT040 SCT200 15/07 Q1026 NOSIG RMK PP000=
SPZO Ene2006-160000Z 09006KT 9999 BKN040 12/07 Q1026 RMK PP000=
SPZO Ene2006-160100Z 00000KT 9999 BKN050 13/08 Q1028 RMK PP000=
SPZO Ene2006-160200Z 00000KT 9999 BKN050 12/08 Q1028 RMK PP000=
SPZO Ene2006-160300Z 26002KT 9999 BKN050 11/08 Q1029 RMK PP000=
SPZO Ene2006-160400Z 09002KT 9999 BKN050 09/07 Q1029 RMK PP000=
SPZO Ene2006-160500Z 00000KT 9999 BKN050 10/07 Q1029 RMK PP000=
SPZO Ene2006-160600Z 00000KT 9999 OVC050 10/08 Q1028 RMK PP000=
SPZO Ene2006-160700Z 00000KT 9999 OVC050 10/08 Q1028 RMK PP000=
SPZO Ene2006-160800Z 00000KT 9999 OVC050 10/07 Q1027 RMK PP000=
SPZO Ene2006-160900Z 00000KT 9999 OVC050 10/08 Q1028 RMK PP000=
SPZO Ene2006-161000Z 00000KT 9999 OVC050 09/07 Q1029 RMK PP000=
SPZO Ene2006-161100Z 00000KT 9999 OVC050 10/08 Q1029 RMK PP000=
SPZO Ene2006-161200Z VRB01KT 9999 FEW036 SCT043 BKN080 10/08 Q1030 NOSIG RMK PP000=
SPZO Ene2006-161300Z VRB01KT 9999 FEW036 SCT080 12/08 Q1030 NOSIG RMK PP000=
SPZO Ene2006-161400Z 11004KT 070V200 9999 SCT036 SCT080 14/06 Q1030 NOSIG RMK PP000=
SPZO Ene2006-161500Z VRB03KT 9999 FEW036TCU SCT043 BKN080 16/06 Q1030 TEMPO VCSH PP000=
SPZO Ene2006-161600Z VRB03KT 9999 FEW036 SCT043 BKN080 16/06 Q1029 NOSIG RMK PP000=
SPZO Ene2006-161700Z VRB04KT 9999 FEW036TCU SCT050 19/07 Q1028 TEMPO VCSH RMK PP000=
SPZO Ene2006-161800Z 12006KT 9999 FEW036TCU SCT050 SCT080 17/06 Q1027 TEMPO VCSH RMK PP000 RWY10 12012KT=
SPZO Ene2006-161900Z 08005KT 9999 FEW040TCU BKN046 18/05 Q1026 TEMPO VCSH RMK PP000=
SPZO Ene2006-162000Z 01012KT 9999 FEW040TCU BKN046 18/06 Q1025 TEMPO VCSH RMK PP000 RWY10 VRB20KT=
SPZO Ene2006-162100Z 36007KT 340V080 9999 VCSH FEW040TCU BKN046 17/06 Q1025 NOSIG RMK PP000 RWY 33014KT 280V040=
SPZO Ene2006-162200Z VRBO4KT 9999 VCSH FEW040TCU BKN046 16/06 Q1025 NOSIG RMK PP000=
SPZO Ene2006-162300Z 02007KT 9999 VCSH FEW040TCU BKN046 16/06 Q1026 REDZ NOSIG RMK PPTRZ=
SPZO Ene2006-170000Z VRB04KT 9000 -RA FEW036TCU OVC043 13/07 Q1027 RMK PP002=
SPZO Ene2006-170100Z VRB02KT 9999 -RA BKN040 SCT046 12/08 Q1029 RMK PP014=
SPZO Ene2006-170200Z VRB02KT 8000 -RA FEW025 OVC040 11/08 Q1030 RMK PP024=
SPZO Ene2006-170300Z VRB03KT 9000 -RA SCT036 BKN040 11/08 Q1030 RMK PP012=
SPZO Ene2006-170400Z 00000KT 9000 -RA OVC040 10/08 Q1031 RMK PP018=
SPZO Ene2006-170500Z 00000KT 9999 -RA FEW025 OVC040 10/07 Q1030 RMK PP012=
SPZO Ene2006-170600Z 00000KT 9000 DZ SCT025 BKN040 09/07 Q1030 RMK PP012=
SPZO Ene2006-170700Z 00000KT 8000 -RA SCT030 BKN040 09/07 Q1030 RMK PP028=
SPZO Ene2006-170800Z 00000KT 9000 -RA SCT036 BKN043 09/07 Q1030 RMK PP028=
SPZO Ene2006-170900Z 00000KT 8000 -RA SCT025 BKN040 09/07 Q1030 RMK PP018=
SPZO Ene2006-171000Z 00000KT 9000 -RA FEW025 SCT036 BKN043 08/07 Q1031 RMK CLNG BLW 1200M PP014=
SPZO Ene2006-171100Z 00000KT 8000 -RA FEW025 SCT036 BKN043 09/07 Q1032 RMK CLNG BLW 1200M PP010=
SPZO Ene2006-171200Z 26002KT 9000 RA FEW025 SCT033 BKN043 08/06 Q1033 NOSIG RMK CLNG BLW 1200M PP006=
SPZO Ene2006-171300Z VRB02KT 9999 -RA FEW033 SCT037 BKN043 09/06 Q1033 NOSIG RMK PP004=
SPZO Ene2006-171400Z 00000KT 9999 -RA FEW025 SCT036 BKN043 10/07 Q1033 TEMPO 9000 RMK PP002=
SPZO Ene2006-171500Z VRB02KT 9999 DZ FEW030 SCT040 BKN046 12/06 Q1033 BECMG FM16 NSW RMK PPTRZ=
SPZO Ene2006-171600Z 00000KT 9999 VCRA FEW033 SCT043 BKN046 13/07 Q1033 NOSIG RMK PPTRZ=
SPZO Ene2006-171700Z VRB03KT 9999 FEW036 SCT043 BKN100 14/07 Q1031 NOSIG RMK PP000=
SPZO Ene2006-171800Z VRB03KT 9000 VCRA FEW037TCU BKN047 16/08 Q1030 NOSIG RMK PP000 RWY10 VRB03KT=
SPZO Ene2006-171900Z 33007KT 280V360 8000 RA FEW037TCU BKN043 14/09 Q1030 NOSIG RMK PP010 RWY10 01006KT 300V070=
SPZO Ene2006-172000Z 09009KT 9999 -DZ FEW033 SCT047 BKN060 13/09 Q1029 NOSIG RMK PP004 RWY10 08010KT 020V140=
SPZO Ene2006-172100Z 10009KT 090V160 9999 FEW033TCU SCT043 BKN060 13/08 Q1029 REDZ TEMPO VCSH RMK PPTRZ RWY10 12014KT=
SPZO Ene2006-172200Z 11007KT 9999 FEW037 SCT047 BKN060 13/08 Q1029 NOSIG RMK PP000 RWY10 09010KT TMAX 16.2=
SPZO Ene2006-172300Z 10003KT 9999 VCRA FEW037TCU SCT043 BKN080 13/08 Q1029 NOSIG RMK PP000=
SPZO Ene2006-180000Z 08002KT 9999 FEW036TCU SCT043 BKN080 13/08 Q1030 RMK PP000=
SPZO Ene2006-180100Z 00000KT 9999 FEW036 SCT043 BKN080 13/07 Q1031 RMK PP000=
SPZO Ene2006-180200Z 00000KT 9999 SCT036 SCT050 12/07 Q1032 RMK PP000=
SPZO Ene2006-180300Z 10004KT 9999 SCT036 SCT050 11/07 Q1032 RMK PP000=
SPZO Ene2006-180400Z 00000KT 9999 SCT036 BKN050 11/07 Q1032 RMK PP000=
SPZO Ene2006-180500Z 00000KT 9999 SCT036 BKN050 11/07 Q1032 RMK PP000=
SPZO Ene2006-180600Z 00000KT 9999 SCT036 BKN050 11/07 Q1031 RMK PP000=
SPZO Ene2006-180700Z 08001KT 9999 SCT036 BKN050 10/08 Q1030 RMK PP000=
SPZO Ene2006-180800Z 00000KT 9999 FEW033 SCT036 BKN080 10/08 Q1030 RMK PP000=
SPZO Ene2006-180900Z 00000KT 9999 FEW033 SCT036 BKN080 10/08 Q1030 RMK PP000=
SPZO Ene2006-181000Z 00000KT 9999 FEW033 SCT036 BKN080 10/07 Q1031 RMK PP000=
SPZO Ene2006-181100Z 00000KT 9999 FEW033 SCT036 BKN080 10/07 Q1031 RMK PP000=
SPZO Ene2006-181200Z 00000KT 9000 -DZ FEW027 SCT037 BKN070 11/07 Q1032 NOSIG PPTRZ=
SPZO Ene2006-181300Z 00000KT 9999 FEW030 SCT040 BKN200 13/08 Q1032 REDZ NOSIG RMK PPTRZ RWY10 VRB03KT=
SPZO Ene2006-181400Z VRB03KT 9999 FEW033TCU SCT043 BKN150 13/07 Q1032 TEMPO VCSH RMK PP000 RWY10 09009KT=
SPZO Ene2006-181500Z 14006KT 080V170 9999 FEW037TCU SCT043 BKN100 16/06 Q1032 TEMPO VCSH RMK PP000 RWY10 09004KT 050V170=
SPZO Ene2006-181600Z 00000KT 9000 VCRA SCT037TCU SCT043 BKN053 16/05 Q1031 NOSIG RMK PP000 RWY10 VRB010KT=
SPZO Ene2006-181700Z 24005KT 180V270 9000 VCRA FEW037TCU SCT047 BKN080 15/08 Q1030 NOSIG RMK PP000 RWY10 26009KT 220V300=
SPZO Ene2006-181800Z VRB02KT 9000 VCSH FEW036TCU SCT040 BKN050 18/08 Q1029 NOSIG RMK VCSH QUAD W/NW PP000 WIND RWY10 VRB08KT=
SPZO Ene2006-181900Z 29014KT 270V350 9000 VCSH FEW036TCU SCT040 BKN050 15/07 Q1028 TEMPO -RA RMK VCSH QUAD W/NW/NE PP000 WIND RWY10 32014KT 250V030=
SPZO Ene2006-182000Z 27012KT 9000 -RA FEW036TCU SCT040 BKN050 14/08 Q1027 NOSIG RMK VCSH QUAD NW/E PP002=
SPZO Ene2006-182100Z 29008KT 250V350 9999 FEW036 SCT046 BKN060 15/07 Q1026 RERA TEMPO -RA RMK PPTRZ WIND RWY10 25006KT 170V320=
SPZO Ene2006-182200Z 29008KT 270V350 8000 -RA FEW036 SCT046 BKN060 13/08 Q1027 NOSIG RMK PP004 TMAX 19.2=
SPZO Ene2006-182300Z 26006KT 9000 SCT046 BKN060 13/07 Q1027 RERA TEMPO=
SPZO Ene2006-190000Z 00000KT 9999 SCT040 BKN050 13/08 Q1028 RMK PP000=
SPZO Ene2006-190100Z 25006KT 8000 RA SCT030 BKN040 10/07 Q1030 RMK PP020=
SPZO Ene2006-190200Z VRB02KT 9000 -RA FEW020 SCT030 BKN040 09/07 Q1031 RMK PP078=
SPZO Ene2006-190300Z 10003KT 9999 SCT020 BKN037 09/07 Q1031 RERA RMK PP006=
SPZO Ene2006-190400Z 09008KT 9999 SCT020 BKN037 08/06 Q1031 RMK PP000=
SPZO Ene2006-190500Z 10007KT 9999 SCT020 BKN030 08/06 Q1031 RMK PP000=
SPZO Ene2006-190600Z 10009KT 9999 SCT020 BKN040 07/05 Q1030 RMK PP000=
SPZO Ene2006-190700Z 00000KT 9000 -RA SCT020 BKN037 07/05 Q1029 RMK PP028=
SPZO Ene2006-190800Z 10003KT 9999 FEW020 SCT037 BKN047 07/05 Q1028 RERA RMK PP004=
SPZO Ene2006-190900Z 00000KT 9999 FEW020 SCT037 BKN047 07/05 Q1028 RMK PP000=
SPZO Ene2006-191000Z 09004KT 9999 FEW020 SCT033 BKN043 07/05 Q1029 RMK PP000 CLNG BLW 1200M=
SPZO Ene2006-191100Z 00000KT 9999 FEW025 SCT033 BKN050 08/05 Q1029 RMK PP000=
SPZO Ene2006-191200Z 00000KT 9999 SCT033 SCT043 BKN046 09/05 Q1029 NOSIG RMK PP000=
SPZO Ene2006-191300Z 00000KT 9999 FEW033 SCT043 BKN046 11/07 Q1030 NOSIG RMK PP000=
SPZO Ene2006-191400Z 00000KT 9999 FEW033 SCT043 BKN050 13/06 Q1029 NOSIG RMK PP000=
SPZO Ene2006-191500Z VRB03KT 9999 SCT043 SCT050 15/05 Q1029 NOSIG RMK PP000=
SPZO Ene2006-191600Z VRB02KT 9999 SCT043 SCT050 16/05 Q1028 NOSIG RMK PP000 WIND RWY10 28007KT 210V340=
SPZO Ene2006-191700Z VRB04KT 9999 SCT043 SCT050 17/05 Q1026 NOSIG RMK PP000 WIND RWY10 VRB07KT=
SPZO Ene2006-191800Z VRB04KT 250V080 9999 VCSH SCT040 SCT050 18/06 Q1025 NOPSIG RMK PP000=
SPZO Ene2006-191900Z 30006KT 250V010 9999 FEW040 SCT050 19/05 Q1024 NOSIG RMK PP000=
SPZO Ene2006-192000Z 29008KT 250V350 9999 SCT050 20/05 Q1022 NOSIG RMK PP000=
SPZO Ene2006-192100Z 30010KT 260V350 9999 SCT050 20/04 Q1021 NOSIG RMK=
SPZO Ene2006-192200Z 28014KT 260V350 9999 FEW050 19/04 Q1021 NOSIG RMK=
SPZO Ene2006-192300Z 28011KT 270V350 9999 FEW050 17/04 Q1021 NOSIG RMK WIND RWY10 30016KT 260V350=
SPZO Ene2006-200000Z 28009KT 260V350 9999 SCT050 16/04 Q1022 RMK PP000=
SPZO Ene2006-200100Z 28004KT 9999 SCT050 13/07 Q1024 RMK PP000=
SPZO Ene2006-200200Z 08003KT 9999 SCT050 11/07 Q1025 RMK PP000=
SPZO Ene2006-200300Z 29002KT 9999 SCT050 12/07 Q1025 RMK PP000=
SPZO Ene2006-200400Z 28003KT 9999 SCT050 11/07 Q1026 RMK PP000=
SPZO Ene2006-200500Z 00000KT 9999 BKN050 11/07 Q1025 RMK PP000=
SPZO Ene2006-200600Z 00000KT 9999 BKN050 11/07 Q1025 RMK PP000=
SPZO Ene2006-200700Z 00000KT 9999 BKN050 11/07 Q1024 RMK PP000=
SPZO Ene2006-200800Z 00000KT 9999 BKN050 11/07 Q1024 RMK PP000=
SPZO Ene2006-200900Z 28003KT 9999 FEW030 SCT040 BKN050 09/06 Q1024 RMK PP000=
SPZO Ene2006-201000Z 29004KT 9999 FEW030 SCT040 BKN050 09/06 Q1025 RMK PP000=
SPZO Ene2006-201100Z 28006KT 9999 SCT030 SCT036 BKN050 09/05 Q1025 RMK PP000 CLNG BLW 1200M=
SPZO Ene2006-201200Z 00000KT 9999 FEW030 SCT040 BKN050 10/07 Q1027 NOSIG RMK BCO BCBR CDTE NE PP000=
SPZO Ene2006-201300Z 11004KT 070V170 9999 FEW030 SCT040 BKN080 11/06 Q1027 NOSIG RMK PP000=
SPZO Ene2006-201400Z VRB03KT 9999 FEW030 SCT043 BKN080 12/06 Q1027 NOSIG RMK PP000=
SPZO Ene2006-201500Z 00000KT 9999 FEW030 SCT043 BKN200 14/05 Q1027 NOSIG RMK PP000=
SPZO Ene2006-201600Z 11006KT 070V170 9999 FEW040 SCT046 15/06 Q1026 NOSIG RMK PP000=
SPZO Ene2006-201700Z VRB02KT 9999 VCSH FEW040TCU SCT046 16/06 Q1025 NOSIG RMK PP000=
SPZO Ene2006-201800Z VRB09KT 9999 FEW040TCU SCT046 17/07 Q1024 TEMPO VCSH RMK PP000=
SPZO Ene2006-201900Z 28015KT 9999 -RA FEW040TCU SCT046 BKN050 14/06 Q1024 BECMG FM1940 NSW RMK PPTRZ RWY10 300/17 250V360=
SPZO Ene2006-202000Z 27012KT 9999 SCT046 BKN080 16/06 Q1023 RERA NOSIG RMK PPTRZ RWY 28022KT=
SPZO Ene2006-202100Z 28012KT 250V350 9999 SCT046 BKN080 16/07 Q1022 RMK PP000 RWY10 29017G28KT 250V350=
SPZO Ene2006-202200Z 28007KT 250V350 9999 FEW043TCU SCT200 17/05 Q1022 TEMPO VCSH RMK PP000 RWY10 33012 T.MAX.18.4=
SPZO Ene2006-202300Z 27008KT 9999 FEW046 SCT200 15/07 Q1022 NOSIG RMK PP000=
SPZO Ene2006-210000Z 28008KT 9999 FEW050 SCT230 13/07 Q1023 RMK PP000=
SPZO Ene2006-210100Z 26005KT 9999 FEW050 SCT230 13/07 Q1024 RMK PP000=
SPZO Ene2006-210200Z 26004KT 9999 FEW050 SCT200 12/07 Q1026 RMK PP000=
SPZO Ene2006-210300Z VRB02KT 9999 FEW050 SCT200 11/07 Q1026 RMK PP000=
SPZO Ene2006-210400Z 00000KT 9999 FEW040 SCT050 11/07 Q1027 RMK PP000=
SPZO Ene2006-210500Z 00000KT 9999 FEW040 SCT050 11/07 Q1026 RMK PP000=
SPZO Ene2006-210600Z 00000KT 9999 FEW040 SCT050 08/06 Q1026 RMK PP000=
SPZO Ene2006-210700Z 19001KT 9999 SCT040 SCT050 09/07 Q1026 RMK PP000=
SPZO Ene2006-210800Z 00000KT 9999 SCT040 SCT046 10/07 Q1026 RMK PP000=
SPZO Ene2006-210900Z 00000KT 9999 BKN040 SCT050 10/07 Q1025 RMK PP000=
SPZO Ene2006-211000Z 00000KT 9999 SCT036 BKN043 09/06 Q1026 RMK PP000=
SPZO Ene2006-211100Z 09002KT 9999 FEW030 SCT040 BKN043 09/07 Q1027 RMK PP000=
SPZO Ene2006-211200Z 00000KT 9999 FEW040 BKN046 10/07 Q1028 N0SIG RMK PP0000=
SPZO Ene2006-211300Z 00000KT 9999 FEW040 BKN046 12/07 Q1029 NOSIG RMK PP000=
SPZO Ene2006-211400Z 00000KT 9999 FEW040 BKN046 14/05 Q1029 NOSIG RMK PP000=
SPZO Ene2006-211500Z VRB02KT 9999 FEW040 BKN046 14/05 Q1029 TEMPO VCSH RMK PP000=
SPZO Ene2006-211600Z VRB03KT 9999 FEW040 BKN046 16/06 Q1028 TEMPO VCSH RMK PP000 RWY10 VRB07KT=
SPZO Ene2006-211700Z VRB04KT 9999 VCRA FEW040TCU BKN046 16/04 Q1028 NOSIG RMK PP000 RWY10 VRB03KT=
SPZO Ene2006-211800Z 35006KT 340V080 9999 VCRA FEW040TCU SCT047 SCT070 17/06 Q1027 NOSIG RMK PP000 RWY10 04010KT 330V130=
SPZO Ene2006-211900Z 01007KT 270V060 9999 FEW040TCU SCT050 18/04 Q1025 NOSIG RMK PP000 RWY10 VRB03KT=
SPZO Ene2006-212000Z 34007KT 280V060 9999 FEW040TCU SCT047 BKN200 18/06 Q1024 TEMPO VCSH RMK PP000 RWY10 01008KT 290V080=
SPZO Ene2006-212100Z 02006KT 280V070 9999 FEW040TCU SCT050 BKN200 18/06 Q1023 NOSIG RMK PP000 RWY10 28014KT 230V320=
SPZO Ene2006-212200Z 27016KT 190V340 9999 SCT040TCU SCT047 BKN200 19/05 Q1023 NOSIG RMK PP000 RWY10 29018KT 250V360 TMAX 19.9=
SPZO Ene2006-212300Z 18008KT 9000 VCRA TS FEW033CB BKN043TCU 17/07 Q1025 NOSIG RMK PP000=
SPZO Ene2006-220000Z 14006KT 9000 RA TS SCT030CB BKN040 09/06 Q1026 RMK PP090=
SPZO Ene2006-220100Z 27005KT 9999 -RA SCT030 BKN040 11/08 Q1027 RMK PP062=
SPZO Ene2006-220200Z 00000KT 9999 SCT030 BKN040 11/08 Q1028 RMK PP002=
SPZO Ene2006-220300Z 00000KT 9999 FEW033 SCT040 11/08 Q1029 RMK PP000=
SPZO Ene2006-220400Z 00000KT 9999 FEW033 SCT040 11/08 Q1029 RMK PP000=
SPZO Ene2006-220500Z 00000KT 9999 FEW033 BKN040 11/08 Q1029 RERA RMK PP002=
SPZO Ene2006-220600Z 00000KT 9999 -RA SCT030 BKN040 10/06 Q1028 RMK PP006=
SPZO Ene2006-220700Z 00000KT 9000 RA SCT030 BKN040 09/07 Q1028 RMK PP036=
SPZO Ene2006-220800Z 28004KT 9000 -RA SCT030 BKN040 09/06 Q1029 RMK PP026=
SPZO Ene2006-220900Z 27002KT 9000 -RA SCT030 BKN040 08/06 Q1028 RMK PP026=
SPZO Ene2006-221000Z 00000KT 8000 -RA SCT030 BKN040 08/06 Q1029 RMK PP008=
SPZO Ene2006-221100Z 00000KT 8000 -RA FEW030 SCT033 BKN040 08/06 Q1030 RMK CLNG BLW 1200M PP006=
SPZO Ene2006-221200Z 00000KT 9999 -DZ SCT030 SCT070 BKN150 08/06 Q1030 BECMG FM13 NSW RMK PPTRZ=
SPZO Ene2006-221300Z VRB02KT 9999 FEW027 SCT037 BKN080 10/07 Q1031 REDZ NOSIG RMK PPTRZ=
SPZO Ene2006-221400Z 10003KT 080V170 9999 FEW030 SCT040 BKN080 10/06 Q1031 NOSIG RMK PP000 RWY10 09005KT 360V140=
SPZO Ene2006-221500Z 07003KT 020V170 9999 SCT027 SCT040 BKN100 12/07 Q1031 NOSIG RMK PP000 RWY10 10008KT 360V140 BIRD HAZARD THR RWY28=
SPZO Ene2006-221600Z 09004KT 010V170 9999 FEW030TCU SCT040 OVC100 12/06 Q1030 NOSIG RMK PP000 RWY10 11008KT 060V130=
SPZO Ene2006-221700Z 10003KT 080V160 9999 FEW033TCU SCT043 OVC100 13/06 Q1030 TEMPO VCSH RMK PP000 RWY10 VRB04KT=
SPZO Ene2006-221800Z 08004KT 360V150 9000 VCRA FEW033TCU SCT043 OVC090 14/06 Q1029 TEMPO -RA RMK PP000 RWY10 VRB03KT=
SPZO Ene2006-221900Z 10003KT 080V160 9999 VCRA FEW033TCU SCT043 OVC080 14/07 Q1028 NOSIG RMK PP000 RWY10 25006KT 180V320=
SPZO Ene2006-222000Z 33003KT 9999 FEW037 SCT050 OVC100 14/06 Q1027 NOSIG RMK PP000=
SPZO Ene2006-222100Z 00000KT 9999 SCT037 OVC150 15/06 Q1026 NOSIG RMK PP000=
SPZO Ene2006-222200Z 10005KT 9999 FEW033TCU SCT043 BKN150 14/08 Q1027 TEMPO BCSH PP000 TMAX 15.5=
SPZO Ene2006-222300Z 10005KT 9999 FEW033TCU BKN043 13/07 Q1027 NOSIG RMK PP000=
SPZO Ene2006-230000Z 00000KT 9999 FEW033TCU BKN040 13/07 Q1028 RMK PP000=
SPZO Ene2006-230100Z 00000KT 9999 SCT033 BKN040 13/06 Q1029 RMK PP000=
SPZO Ene2006-230200Z 28004KT 9999 SCT030 BKN040 12/07 Q1030 RMK PP000=
SPZO Ene2006-230300Z 00000KT 9999 SCT030 SCT040 12/07 Q1030 RMK PP000=
SPZO Ene2006-230400Z 10006KT 9999 SCT030 SCT040 11/08 Q1030 RMK PP000=
SPZO Ene2006-230500Z 10005KT 9999 SCT030 BKN040 10/07 Q1030 RMK PP000=
SPZO Ene2006-230600Z 00000KT 9999 SCT030 BKN040 10/07 Q1029 RMK PP000=
SPZO Ene2006-230700Z 00000KT 9000 DZ FEW025 SCT033 BKN040 10/07 Q1029 RMK PPTRZ=
SPZO Ene2006-230800Z 00000KT 9999 FEW033 SCT050 SCT080 09/07 Q1028 RESH RMK PP002=
SPZO Ene2006-230900Z 00000KT 9999 SCT040 SCT080 09/07 Q1028 RMK PP000=
SPZO Ene2006-231000Z 00000KT 9999 SCT037 SCT080 08/06 Q1029 RMK PP000=
SPZO Ene2006-231100Z 00000KT 9999 FEW030 BKN040 09/07 Q1030 RMK PP000=
SPZO Ene2006-231200Z 00000KT 9999 FEW030 SCT040 SCT060 11/08 Q1030 NOSIG RMK PP000=
SPZO Ene2006-231300Z VRB02KT 9999 FEW030 SCT040 13/07 Q1030 NOSIG RMK PP000=
SPZO Ene2006-231400Z 00000KT 9999 FEW033TCU SCT047 15/06 Q1030 NOSIG RMK PP000 RWY10 11005KT=
SPZO Ene2006-231500Z 08006KT 020V160 9999 FEW037 BKN047 16/06 Q1029 NOSIG RMK PP000 RWY10 VRB05KT=
SPZO Ene2006-231600Z 00000KT 9999 SCT037 BKN050 17/04 Q1029 NOSIG RMK PP000 RWY10 VRB02KT=
SPZO Ene2006-231700Z VRB03KT 9999 VCRA FEW037TCU BKN050 17/04 Q1027 NOSIG RMK PP000 RWY10 VRB03KT=
SPZO Ene2006-231800Z VRB04KT 9999 VCSH FEW036TCU BKN050 19/07 Q1027 NOSIG RMK PP000=
SPZO Ene2006-231900Z 35006KT 270V080 9999 VCSH FEW040TCU SCT050 20/05 Q1025 NOSIG RMK PP000=
SPZO Ene2006-232000Z 01007KT 270V080 9999 FEW040TCU SCT050 20/05 Q1024 TEMPO VCSH RMK PP000=
SPZO Ene2006-232100Z 01009KT 340V080 9999 FEW040TCU SCT050 18/06 Q1024 NOSIG RMK PP000=
SPZO Ene2006-232200Z VRB03KT 9999 FEW040 SCT050 18/05 Q1024 NOSIG RMK PP000=
SPZO Ene2006-232300Z 35008KT 270V010 9999 SCT040 16/06 Q1024 NOSIG RMK PP000=
SPZO Ene2006-240000Z 03006KT 360V080 9999 BKN040 SCT050 16/06 Q1025 RMK PP000=
SPZO Ene2006-240100Z 00000KT 9999 SCT033 BKN043 15/07 Q1027 RMK PP000=
SPZO Ene2006-240200Z 00000KT 9999 SCT030 SCT040 13/07 Q1028 RMK SH BTN 0130/50 PP002=
SPZO Ene2006-240300Z 00000KT 9999 FEW030 SCT040 12/07 Q1029 RMK PP000=
SPZO Ene2006-240400Z 00000KT 9999 FEW030 SCT040 12/07 Q1029 RMK PP000=
SPZO Ene2006-240500Z 00000KT 9999 SCT030 SCT040 11/08 Q1029 RMK PP000=
SPZO Ene2006-240600Z 00000KT 9999 SCT033 SCT040 11/07 Q1028 RMK PP000=
SPZO Ene2006-240700Z 00000KT 9999 SCT030 SCT040 11/08 Q1028 RMK PP000=
SPZO Ene2006-240800Z 00000KT 9999 SCT040 11/07 Q1028 RMK PP000=
SPZO Ene2006-240900Z 00000KT 9999 SCT033 SCT043 10/07 Q1028 RMK PP000=
SPZO Ene2006-241000Z 00000KT 9999 FEW037 BKN043 10/07 Q1028 RMK PP000=
SPZO Ene2006-241100Z 00000KT 9000 VCRA FEW033 BKN043 10/08 Q1029 RMK PP000=
SPZO Ene2006-241200Z 00000KT 9999 VCSH FEW036 SCT043 BKN050 11/08 Q1030 NOSIG RMK PP000=
SPZO Ene2006-241300Z VRB02KT 9999 FEW036 SCT040 BKN050 14/07 Q1030 NOSIG RMK PP000=
SPZO Ene2006-241400Z VRB02KT 9999 VCSH FEW036 SCT040 BKN050 14/06 Q1030 NOSIG RMK PP000=
SPZO Ene2006-241500Z 09005KT 9999 VCRA FEW036 SCT040 BKN070 14/06 Q1030 NOSIG RMK PP000=
SPZO Ene2006-241600Z 36008KT 280V010 9999 VCRA FEW036TCU SCT040 BKN070 13/07 Q1030 TEMPO -RA RMK PP000=
SPZO Ene2006-241700Z 11007KT 070V170 9999 VCRA SCT040 SCT046 15/08 Q1029 NOSIG RMK RA BTN 1645-50 PP002=
SPZO Ene2006-241800Z VRB05KT 9999 VCRA FEW040TCU SCT046 BKN080 16/07 Q1028 NOSIG RMK PP000 RWY VRB10KT=
SPZO Ene2006-241900Z VRB10KT 9999 VCRA FEW040 SCT046 BKN080 17/08 Q1027 NOSIG RMK PP000 RWY10 VRB09KT=
SPZO Ene2006-242000Z 15004KT 9000 -RA FEW036TCU SCT043 BKN050 12/08 Q1027 NOSIG RMK PP010 RWY10 16004KT 090V200=
SPZO Ene2006-242100Z VRB03KT 9999 VCRA FEW033 SCT043 SCT060 14/07 Q1026 RERA NOSIG RMK PP004=
SPZO Ene2006-242200Z VRB02KT 9999 VCRA FEW033 SCT043 SCT060 15/08 Q1026 NOSIG RMK PP000 T.MAX.18.9=
SPZO Ene2006-242300Z 27009KT 9999 VCRA FEW033 SCT043 SCT046 13/09 Q1026 NOSIG RMK PP000=
SPZO Ene2006-250000Z VRB03KT 8000 RA SCT036 BKN040 11/08 Q1028 RMK PP054=
SPZO Ene2006-250100Z 00000KT 9000 -RA SCT036 BKN043 11/08 Q1029 RMK PP008=
SPZO Ene2006-250200Z 08004KT 9999 -RA FEW025 OVC040 10/08 Q1030 RMK PP018=
SPZO Ene2006-250300Z VRB03KT 9999 -RA FEW025 OVC043 10/08 Q1031 RMK PP010=
SPZO Ene2006-250400Z 00000KT 9000 -RA SCT025 BKN040 10/08 Q1031 RMK PP020=
SPZO Ene2006-250500Z 00000KT 9000 RA SCT030 BKN049 09/07 Q1031 RMK PP054=
SPZO Ene2006-250600Z 00000KT 9999 -RA BKN040 SCT046 08/06 Q1031 RMK PP012=
SPZO Ene2006-250700Z 10006KT 9999 -RA BKN040 SCT046 09/06 Q1031 RMK PP012=
SPZO Ene2006-250800Z 10004KT 9999 -RA OVC040 08/06 Q1029 RMK PP016=
SPZO Ene2006-250900Z 10004KT 9999 DZ FEW025 OVC040 07/06 Q1031 RMK PP002=
SPZO Ene2006-251000Z VRB02KT 9000 FEW025 SCT040 BKN043 08/06 Q1032 RMK PPTRZ=
SPZO Ene2006-251100Z 00000KT 9999 FEW025 SCT036 BKN046 08/06 Q1032 RMK CLNG BLW 1200M PP000=
SPZO Ene2006-251200Z 00000KT 9999 FEW030 SCT036 BKN043 08/06 Q1033 RERA NOSIG RMK PPTRZ=
SPZO Ene2006-251300Z 00000KT 9999 SCT036 BKN046 09/06 Q1033 NOSIG RMK PP000 BCBR CDTE.NE/E=
SPZO Ene2006-251400Z 00000KT 9999 SCT036 BKN046 11/06 Q1034 NOSIG RMK PP000 BCBR CDTE NE=
SPZO Ene2006-251500Z VRB02KT 9999 SCT036 BKN046 13/07 Q1034 TEMPO VCSH RMK PP000 BCBR CDTE NE=
SPZO Ene2006-251600Z VRB02KT 9999 -RA SCT036 BKN046 12/06 Q1033 RMK PP000=
SPZO Ene2006-251700Z 00000KT 9999 -RA SCT036 BKN046 13/06 Q1032 NOSIG RMK PPTRZ=
SPZO Ene2006-251800Z 06007KT 010V100 9999 VCRA FEW033TCU SCT047 BKN200 14/08 Q1032 NOSIG RMK PP006 RWY10 12007KT 070V220=
SPZO Ene2006-251900Z 09004KT 9000 -RA FEW033TCU SCT043 BKN053 13/08 Q1031 NOSIG RMK PP008 RWY10 10007KT BIRD HAZARD FIRST HALF RWY28=
SPZO Ene2006-252000Z 00000KT 9999 -RA FEW033TCU SCT043 BKN150 14/06 Q1029 NOSIG RMK PP002 RWY10 00000KT=
SPZO Ene2006-252100Z VRB03KT 9999 VCRA FEW033TCU SCT043 BKN080 14/06 Q1029 TEMPO -RA RMK PP014 RWY10 VRB02KT=
SPZO Ene2006-252200Z 00000KT 9999 SCT037 BKN047 14/08 Q1029 TEMPO VCSH RMK PPTRZ TMAX 14.5=
SPZO Ene2006-252300Z 10007KT 9000 -RA FEW033TCU BKN043 13/08 Q1030 NOSIG RMK PP002=
SPZO Ene2006-260000Z 09006KT 9999 FEW035TCU BKN043 11/08 Q1030 RMK PP034=
SPZO Ene2006-260100Z 13002KT 9999 SCT036 BKN050 11/08 Q1031 RMK RERA PP006=
SPZO Ene2006-260200Z 00000KT 9999 SCT036 BKN050 11/08 Q1032 RMK PP000=
SPZO Ene2006-260300Z 04002KT 9999 SCT036 BKN050 11/09 Q1033 RMK PP000=
SPZO Ene2006-260400Z 00000KT 9999 SCT036 BKN050 11/09 Q1033 RMK PP000=
SPZO Ene2006-260500Z 00000KT 9999 SCT036 BKN046 10/08 Q1033 RMK PP000=
SPZO Ene2006-260600Z 10006KT 9999 FEW036 SCT046 SCT050 10/08 Q1032 RERA RMK PP002=
SPZO Ene2006-260700Z 10003KT 9999 FEW033 SCT046 BKN080 10/08 Q1031 RMK PP000=
SPZO Ene2006-260800Z 12002KT 9999 FEW033 SCT046 BKN080 09/07 Q1031 RMK PP000=
SPZO Ene2006-260900Z 00000KT 9999 FEW033 SCT046 BKN080 09/07 Q1031 RMK PP000=
SPZO Ene2006-261000Z 00000KT 9999 FEW033 SCT046 BKN080 09/07 Q1032 RMK PP000=
SPZO Ene2006-261100Z 00000KT 9999 FEW033 SCT046 BKN080 09/07 Q1032 RMK PP000=
SPZO Ene2006-261200Z 00000KT 9999 FEW030 SCT040 BKN047 10/08 Q1034 NOSIG RMK PP000=
SPZO Ene2006-261300Z 00000KT 9999 FEW030 SCT040 BKN070 12/08 Q1034 NOSIG RMK PP000 RWY10 00000KT=
SPZO Ene2006-261400Z VRB03KT 9999 FEW030 SCT040 BKN070 14/07 Q1034 NOSIG RMK PP000 RWY10 VRB05KT=
SPZO Ene2006-261500Z VRB02KT 8000 TS VCSH FEW030CB SCT037TCU BKN050 13/06 Q1034 RMK PP000 RWY10 10014KT=
SPZO Ene2006-261600Z 09009KT 9999 FEW033 SCT043 BKN080 12/08 Q1034 TEMPO=
SPZO Ene2006-261700Z VRB02KT 9000 VCRA SCT030TCU SCT043 BKN050 13/06 Q1034 TEMPO -RA RMK PPTRZ RWY10 27007KT=
SPZO Ene2006-261800Z VRB03KT 9000 VCSH SCT030TCU SCT040 BKN046 13/06 Q1033 TEMPO -RA RMK VCSH QUAD W/E PP000 WIND RWY10 VRB03KT0=
SPZO Ene2006-261900Z VRB03KT 8000 -RA SCT030TCU SCT040 BKN046 13/07 Q1032 NOSIG RMK VCSH QUAD W/E PPTRZ WIND RWY10 VRB03KT=
SPZO Ene2006-262000Z VRB03KT 9999 -RA FEW040 BKN060 13/07 Q1031 NOSIG RMK PP002=
SPZO Ene2006-262100Z VRB02KT 9999 FEW040 SCT060 BKN100 14/07 Q1030 RERA TEMPO VCSH RMK PPTRZ WIND RWY10 VRB02KT=
SPZO Ene2006-262200Z 27006KT 9999 FEW040 SCT050 BKN080 15/07 Q1030 NOSIG RMK PP000 WIND RWY10 29014KT TMAX 15.8=
SPZO Ene2006-262300Z 27011KT 9999 FEW040 SCT050 BKN080 13/06 Q1030 NOSIG RMK PP000=
SPZO Ene2006-270000Z 27008KT 9999 FEW040 OVC100 12/06 Q1031 RMK PP000=
SPZO Ene2006-270100Z 00000KT 9999 FEW040 SCT120 12/07 Q1032 RMK PP000=
SPZO Ene2006-270200Z 00000KT 9999 SCT040 SCT060 11/07 Q1033 RMK PP000=
SPZO Ene2006-270300Z 00000KT 9999 BKN040 10/07 Q1033 RMK PP000=
SPZO Ene2006-270400Z 00000KT 9999 SCT040 10/07 Q1033 RMK PP000=
SPZO Ene2006-270500Z 00000KT 9999 BKN040 09/07 Q1033 RMK PP000=
SPZO Ene2006-270600Z 00000KT 9999 BKN040 09/07 Q1032 RMK PP000=
SPZO Ene2006-270700Z 00000KT 9999 SCT037 SCT050 09/07 Q1032 RMK PP000=
SPZO Ene2006-270800Z 00000KT 9999 SCT037 BKN050 09/08 Q1032 RMK PP000=
SPZO Ene2006-270900Z VRB02KT 9999 SCT040 BKN050 09/07 Q1032 RMK PP000=
SPZO Ene2006-271000Z 00000KT 9999 SCT040 BKN050 09/07 Q1032 RMK PP000=
SPZO Ene2006-271100Z 00000KT 9999 FEW040 SCT060 BKN080 09/07 Q1033 RMK PP000=
SPZO Ene2006-271200Z 00000KT 8000 SCT036 SCT050 BKN070 10/08 Q1034 BECMG=
SPZO Ene2006-271300Z 09002KT 9000 SCT036 SCT050 BKN070 11/08 Q1034 BECMG FM14 9999 RMK HZ QUAD E PP000=
SPZO Ene2006-271400Z 00000KT 9999 SCT036 SCT050 BKN070 13/07 Q1034 NOSIG RMK PP000=
SPZO Ene2006-271500Z VRB02KT 9999 FEW036 SCT043 BKN100 16/06 Q1034 NOSIG RMK PP000=
SPZO Ene2006-271600Z VRB03KT 9000 VCSH FEW036 SCT043 BKN070 16/07 Q1033 NOSIG RMK VCSH QUAD N/NE PP000=
SPZO Ene2006-271700Z 08005KT 360V110 9000 -RA SCT036 SCT043 BKN070 13/07 Q1033 NOSIG RMK PP002 WIND RWY10 VRB05KT=
SPZO Ene2006-271800Z VRB03KT 9999 VCRA FEW036 SCT043 BKN070 14/07 Q1033 TEMPO -RA RMK PP020=
SPZO Ene2006-271900Z VRB02KT 9999 VCRA FEW036 SCT040 BKN070 15/06 Q1032 TEMPO -RA RMK PP000=
SPZO Ene2006-272000Z 28005KT 250V350 9999 VCRA FEW036 SCT043 BKN100 15/06 Q1031 NOSIG RMK PP000=
SPZO Ene2006-272100Z VRB03KT 9999 FEW036 SCT046 16/06 Q1030 NOSIG RMK PP000=
SPZO Ene2006-272200Z VRB02KT 9999 SCT040 SCT050 17/05 Q1030 NOSIG RMK PP000 T.MAX 17.5=
SPZO Ene2006-272300Z 00000KT 9999 SCT040 SCT050 15/07 Q1030 NOSIG RMK PP000=
SPZO Ene2006-280000Z 28006KT 9999 BKN046 13/08 Q1031 RMK PP000=
SPZO Ene2006-280100Z 27002KT 9999 BKN046 13/07 Q1032 RMK PP000=
SPZO Ene2006-280200Z 00000KT 9999 BKN046 12/07 Q1033 RMK PP000=
SPZO Ene2006-280300Z 00000KT 9999 BKN050 12/08 Q1034 RMK PP000=
SPZO Ene2006-280400Z 00000KT 9999 BKN050 11/08 Q1034 RMK PP000=
SPZO Ene2006-280500Z 00000KT 9999 OVC050 11/08 Q1033 RMK PP000=
SPZO Ene2006-280600Z 00000KT 9999 OVC050 11/08 Q1032 RMK PP000=
SPZO Ene2006-280700Z 00000KT 9999 OVC050 11/08 Q1032 RMK PP000=
SPZO Ene2006-280800Z 09002KT 9999 OVC050 11/08 Q1032 RMK PP000=
SPZO Ene2006-280900Z 08002KT 9999 SCT040 BKN050 11/08 Q1032 RMK PP000=
SPZO Ene2006-281000Z 09002KT 9999 SCT040 BKN050 10/08 Q1032 RMK PP000=
SPZO Ene2006-281100Z 00000KT 9999 SCT040 BKN050 10/08 Q1033 RMK PP000=
SPZO Ene2006-281200Z 10004KT 090V170 9999 SCT040 BKN080 11/09 Q1034 NOSIG RMK PP000=
SPZO Ene2006-281300Z VRB02KT 9999 FEW030 SCT043 13/08 Q1034 NOSIG RMK PP000=
SPZO Ene2006-281400Z VRB01KT 9999 FEW030 SCT040 BKN050 14/07 Q1034 NOSIG RMK PP000=
SPZO Ene2006-281500Z VRB01KT 9999 FEW033 SCT040 BKN050 15/06 Q1034 NOSIG RMK PP000=
SPZO Ene2006-281600Z VRB02KT 9999 FEW036 SCT043 BKN080 16/07 Q1033 NOSIG RMK PP000=
SPZO Ene2006-281700Z VRB02KT 9999 VCRA FEW036TCU SCT043 BKN080 18/07 Q1032 RMK PP000=
SPZO Ene2006-281800Z 01009KT 9999 VCRA FEW036TCU SCT043 BKN080 19/08 Q1031 TEMPO-RA RMK PP000 RWY10 01014G27KT=
SPZO Ene2006-281900Z VRB08KT 9999 VCRA FEW036TCU SCT043 SCT080 19/09 Q1030 NOSIGA RMK PP000 RWY10 VRB08G28KT=
SPZO Ene2006-282000Z VRB10KT 9999 VCRA FEW036TCU SCT043 SCT080 17/09 Q1030 NOSIG RMK PP000 RWY10 VRB11G23FT=
SPZO Ene2006-282100Z 10014KT 9999 VCRA FEW036TCU SCT043 SCT080 15/09 Q1029 TEMPO -RA RMK PP000 RWY10 VRB13KT 080V180=
SPZO Ene2006-282200Z 10010KT 7000 -RA FEW036 SCT043 BKN050 15/08 Q1029 NOSIG RMK PP000 RWY10 VRB09KT T.MAX.. 19.20=
SPZO Ene2006-282300Z VRB04KT 9999 VCRA SCT036TCU BKN043 12/08 Q1030 RERA NOSIG RMK PP036=
SPZO Ene2006-290000Z 27004KT 9999 -RA FEW030 OVC040 11/07 Q1031 RMK PP002=
SPZO Ene2006-290100Z 00000KT 9999 FEW025 SCT046 11/07 Q1031 RMK PP000=
SPZO Ene2006-290200Z 00000KT 9999 SCT040 SCT050 11/08 Q1032 RMK PP000=
SPZO Ene2006-290300Z 00000KT 9999 SCT040 SCT050 11/09 Q1033 RMK PP000=
SPZO Ene2006-290400Z VRB02KT 9999 SCT036 SCT050 11/09 Q1033 RMK PP000=
SPZO Ene2006-290500Z 00000KT 9999 BKN040 SCT050 10/09 Q1032 RMK PP000=
SPZO Ene2006-290600Z 00000KT 9999 OVC040 10/08 Q1031 RMK PP000=
SPZO Ene2006-290700Z 00000KT 9999 OVC043 10/08 Q1031 RMK PP000=
SPZO Ene2006-290800Z VRB02KT 9999 SCT040 SCT046 10/08 Q1031 RMK PP000=
SPZO Ene2006-290900Z 00000KT 9999 SCT040 SCT050 09/08 Q1031 RMK PP000=
SPZO Ene2006-291000Z 08001KT 9999 SCT025 SCT040 BKN050 08/07 Q1031 RMK PP000=
SPZO Ene2006-291100Z VRB01KT 9999 SCT025 SCT040 08/06 Q1032 RMK PP000=
SPZO Ene2006-291200Z VRB01KT 9999 FEW025 SCT046 09/08 Q1032 BECMG FM13 FEW040 SCT050 RMK PP000=
SPZO Ene2006-291300Z 00000KT 9999 FEW030 SCT046 13/08 Q1033 NOSIG RMK PP000=
SPZO Ene2006-291400Z VRB02KT 9999 FEW036 SCT050 15/07 Q1033 NOSIG RMK PP000=
SPZO Ene2006-291500Z VRB03KT 9999 FEW040 SCT050 17/04 Q1032 NOSIG RMK PP000=
SPZO Ene2006-291600Z VRB01KT 9999 FEW040TCU SCT050 17/05 Q1031 NOSIG RMK PP000=
SPZO Ene2006-291700Z 06003KT 360V110 9999 VCRA FEW040TCU SCT050 17/05 Q1030 NOSIG RMK PP000 RWY10 VRB06KT=
SPZO Ene2006-291800Z 10004KT 070V170 9999 FEW043 SCT050 18/05 Q1029 TEMPO=
SPZO Ene2006-291900Z 02016KT 350V080 9000 VCSH SCT043 SCT046 17/04 Q1028 TEMPO -RA RMK VCSH QUAD W/N/NE PP000=
SPZO Ene2006-292000Z VRB06KT 9999 VCSH SCT043 SCT150 18/06 Q1027 NOSIG RMK PP000 RWY10 02017G38KT=
SPZO Ene2006-292100Z VRB04KT 9999 SCT040 SCT100 19/06 Q1026 NOSIG RMK -RA BTN 20:35/20:45 PP002=
SPZO Ene2006-292200Z 01011KT 340V080 9999 SCT040 SCT100 17/05 Q1027 NOSIG RMK WIND RWY10 01019KT 260V070 PP000 TMAX 19.7=
SPZO Ene2006-292300Z 36007KT 340V100 9999 FEW040 SCT100 16/03 Q1027 NOSIG RMK PP000=
SPZO Ene2006-300000Z 00000KT 9999 FEW040 SCT100 15/03 Q1027 RMK PP000=
SPZO Ene2006-300100Z 00000KT 9999 SKC 13/04 Q1029 RMK PP000=
SPZO Ene2006-300200Z 00000KT 9999 FEW050 12/05 Q1030 RMK PP000=
SPZO Ene2006-300300Z 08003KT 9999 FEW050 11/06 Q1031 RMK PP000=
SPZO Ene2006-300400Z 18002KT 9999 SCT050 12/06 Q1031 RMK PP000=
SPZO Ene2006-300500Z 10003KT 9999 SCT040 SCT050 11/07 Q1031 RMK PP000=
SPZO Ene2006-300600Z 07005KT 9999 SCT040 SCT050 10/08 Q1031 RERA RMK PP000 -RA BTN 0530/0545=
SPZO Ene2006-300700Z 00000KT 9999 SCT040 BKN050 10/07 Q1030 RERA RMK PP004=
SPZO Ene2006-300800Z 00000KT 9999 -RA SCT040 SCT050 10/07 Q1030 RMK PP002=
SPZO Ene2006-300900Z 00000KT 9999 SCT040 08/07 Q1030 RMK PP000=
SPZO Ene2006-301000Z 00000KT 9999 FEW040 SCT050 08/06 Q1031 RMK PP000=
SPZO Ene2006-301100Z 00000KT 9999 FEW040 SCT080 07/06 Q1031 RMK PP000=
SPZO Ene2006-301200Z 00000KT 9999 SCT043 SCT100 09/07 Q1032 NOSIG RMK PP000=
SPZO Ene2006-301300Z 00000KT 9999 SCT043 12/08 Q1032 NOSIG RMK PP000=
SPZO Ene2006-301400Z 12004KT 070V200 9999 FEW040 SCT050 14/07 Q1032 NOSIG RMK PP000 RWY10 12008KT=
SPZO Ene2006-301500Z VRB03KT 9999 SCT040 SCT050 17/05 Q1032 NOSIG RMK PP000 WIND RWY10 14008KT 060V210=
SPZO Ene2006-301600Z VRB02KT 9999 SCT043 SCT050 17/06 Q1031 NOSIG RMK PP000 WIND RWY10 12009KT 040V160=
SPZO Ene2006-301700Z 00000KT 9999 SCT043 SCT050 18/05 Q1030 NOSIG RMK PP000 WIND RWY10 12007KT 060V200=
SPZO Ene2006-301800Z VRB03KT 9999 SCT043 SCT050 20/04 Q1028 NOSIG RMK PP000 WIND RWY10 13009KT 030V200=
SPZO Ene2006-301900Z 11011KT 090V170 9999 SCT043 SCT050 19/06 Q1027 TEMPO=
SPZO Ene2006-302000Z VRB04KT 9999 FEW043 BKN060 20/03 Q1026 TEMPO VCSH RMK PP000 RWY10 36010KT=
SPZO Ene2006-302100Z 02011KT 340V080 9999 FEW043TCU SCT050 BKN060 18/03 Q1025 TEMPO VCSH RMK PP000=
SPZO Ene2006-302200Z 01010KT 340V080 9999 FEW043TCU SCT050 BKN060 17/03 Q1026 NOSIG RMK WIND RWY10 02020KT 290V110 PP000 TMAX 21.2=
SPZO Ene2006-302300Z 02007KT 350V100 9999 FEW043 BKN050 16/02 Q1026 NOSIG RMK PP000=
SPZO Ene2006-310000Z 13003KT 090V170 9999 OVC050 15/05 Q1028 RMK PP000=
SPZO Ene2006-310100Z 00000KT 9999 OVC050 13/07 Q1029 RMK PP000=
SPZO Ene2006-310200Z 00000KT 9999 OVC050 12/07 Q1030 RMK PP000=
SPZO Ene2006-310300Z 09003KT 9999 BKN050 11/07 Q1031 RMK PP000=
SPZO Ene2006-310400Z 00000KT 9999 BKN050 11/06 Q1031 RMK PP000=
SPZO Ene2006-310500Z 00000KT 9999 BKN050 12/07 Q1031 RMK PP000=
SPZO Ene2006-310600Z 10005KT 090V170 9999 BKN050 11/07 Q1031 RMK PP000=
SPZO Ene2006-310700Z 00000KT 9999 BKN050 11/07 Q1030 RMK PP000=
SPZO Ene2006-310800Z 00000KT 9999 BKN050 10/06 Q1030 RMK PP000=
SPZO Ene2006-310900Z 00000KT 9999 BKN050 08/06 Q1030 RMK PP000=
SPZO Ene2006-311000Z 00000KT 9999 BKN050 09/06 Q1031 RMK PP000=
SPZO Ene2006-311100Z 11002KT 9999 BKN050 08/06 Q1031 RMK PP000=
SPZO Ene2006-311200Z 00000KT 9999 FEW040 SCT050 11/07 Q1032 NOSIG RMK PP000=
SPZO Ene2006-311300Z VRB01KT 9999 FEW040 BKN050 13/07 Q1032 NOSIG RMK PP000=
SPZO Ene2006-311400Z VRB02KT 9999 FEW040 BKN050 14/06 Q1032 NOSIG RMK PP000=
SPZO Ene2006-311500Z VRB02KT 9999 SCT040 SCT050 17/06 Q1031 NOSIG RMK PP000 WIND RWY10 VRB03KT=
SPZO Ene2006-311600Z VRB02KT 9999 SCT040 SCT050 18/04 Q1030 NOSIG RMK PP000 WIND RWY10 VRB02KT=
SPZO Ene2006-311700Z 01010KT 270V080 8000 RA SCT040 SCT050 13/06 Q1030 NOSIG RMK PP012 WIND RWY10 05019G31KT 340V130=
SPZO Ene2006-311800Z 24005KT 170V280 9999 SCT040 SCT050 18/06 Q1029 NOSIG RMK PP000=
SPZO Ene2006-311900Z VRB03KT 9999 FEW040 SCT050 19/06 Q1027 TEMPO VCSH RMK PP000=
SPZO Ene2006-312000Z 36012KT 270V080 9999 VCSH FEW040TCU SCT050 19/03 Q1026 NOSIG RMK PP000=
SPZO Ene2006-312100Z 01009KT 340V080 9999 VCSH FEW040TCU SCT050 20/07 Q1025 NOSIG RMK PP000=
SPZO Ene2006-312200Z VRB08KT 9999 FEW040 SCT080 17/05 Q1026 NOSIG RMK PP000 T.MAX 20.7=
SPZO Ene2006-312300Z 02011KT 280V080 9999 FEW040 SCT200 16/02 Q1027 NOSIG RMK PP000=
SPZO Feb2006-010000Z 16004KT 090V190 9999 SCT050 15/02 Q1028 RMK PP000=
SPZO Feb2006-010100Z 09004KT 070V170 9999 BKN050 13/05 Q1029 RMK PP000=
SPZO Feb2006-010200Z 00000KT 9999 BKN050 12/05 Q1031 RMK PP000=
SPZO Feb2006-010300Z 00000KT 9999 BKN050 11/06 Q1032 RMK PP000=
SPZO Feb2006-010400Z 00000KT 9999 BKN050 10/06 Q1032 RMK PP000=
SPZO Feb2006-010500Z 00000KT 9999 BKN050 09/06 Q1031 RMK PP000=
SPZO Feb2006-010600Z 00000KT 9999 BKN050 08/06 Q1031 RMK PP000=
SPZO Feb2006-010700Z 00000KT 9999 BKN050 08/06 Q1031 RMK PP000=
SPZO Feb2006-010800Z 00000KT 9999 BKN050 07/05 Q1031 RMK PP000=
SPZO Feb2006-010900Z 00000KT 9999 BKN050 08/05 Q1031 RMK PP000=
SPZO Feb2006-011000Z 00000KT 9999 BKN050 09/06 Q1031 RMK PP000=
SPZO Feb2006-011100Z 00000KT 9999 BKN050 09/06 Q1031 RMK PP000=
SPZO Feb2006-011200Z 29003KT 270V350 9999 FEW050 SCT080 11/06 Q1031 NOSIG RMK PP000=
SPZO Feb2006-011300Z 08004KT 360V110 9999 SCT040 BKN050 11/07 Q1032 NOSIG RMK PP000=
SPZO Feb2006-011400Z 00000KT 9999 FEW050 SCT080 15/05 Q1032 NOSIG RMK PP000=
SPZO Feb2006-011500Z 00000KT 9999 SCT050 17/05 Q1031 NOSIG RMK PP000=
SPZO Feb2006-011600Z VRB04KT 9999 SCT040 SCT050 19/06 Q1030 NOSIG RMK PP000=
SPZO Feb2006-011700Z 04005KT 340V110 9999 SCT040 SCT060 20/06 Q1029 NOSIG RMK PP000=
SPZO Feb2006-011800Z VRB03KT 9999 SCT040 SCT060 21/06 Q1027 NOSIG RMK PP000=
SPZO Feb2006-011900Z 01007KT 340V080 9999 FEW036TCU SCT040 BKN080 19/05 Q1026 TEMPO VCSH RMK PP000 RWY10 VRB10G22KT=
SPZO Feb2006-012000Z 09005KT 9999 FEW036 SCT040 BKN080 18/06 Q1026 TEMPO VCSH RMK PP000 RWY10 VRB13KT=
SPZO Feb2006-012100Z 10012KT 9999 FEW036 SCT040 BKN080 16/07 Q1025 NOSIG RMK PP000 RWY10 100/18G30KT 030V150=
SPZO Feb2006-012200Z 09012KT 9999 FEW036 SCT040 BKN080 16/06 Q1026 NOSIG RMK PP000 RWY10 11010KT 340V150 TX 21.3=
SPZO Feb2006-012300Z VRB02KT 9999 FEW036 SCT040 BKN080 15/06 Q1027 NOSIG RMK PP000=
SPZO Feb2006-020000Z 36005KT 270V110 9999 FEW040 BKN070 14/06 Q1027 RMK PP000=
SPZO Feb2006-020100Z 07004KT 360V100 9999 SCT040 SCT070 13/06 Q1028 RMK PP000=
SPZO Feb2006-020200Z VRB03KT 9999 FEW040 SCT080 13/07 Q1030 RMK PP000=
SPZO Feb2006-020300Z VRB03KT 9999 FEW040 SCT046 13/06 Q1030 RMK PP000=
SPZO Feb2006-020400Z VRB03KT 9999 SCT040 SCT046 12/07 Q1031 RMK PP000=
SPZO Feb2006-020500Z 27004KT 9999 SCT040 SCT050 12/06 Q1030 RMK PP000=
SPZO Feb2006-020600Z 00000KT 9999 BKN040 SCT046 10/07 Q1030 RMK PP000=
SPZO Feb2006-020700Z 00000KT 9999 BKN040 SCT050 10/06 Q1029 RMK PP000=
SPZO Feb2006-020800Z 00000KT 9999 OVC040 10/07 Q1029 RMK PP000=
SPZO Feb2006-020900Z 00000KT 9999 BKN040 SCT080 10/07 Q1029 RMK PP000=
SPZO Feb2006-021000Z 00000KT 9999 FEW040 SCT060 10/07 Q1029 RMK PP000=
SPZO Feb2006-021100Z 00000KT 9999 FEW040 OVC080 09/07 Q1030 RMK PP000=
SPZO Feb2006-021200Z 06001KT 9999 FEW040 OVC080 10/07 Q1031 NOSIG RMK PP000=
SPZO Feb2006-021300Z 00000KT 9999 FEW040 OVC080 12/06 Q1031 NOSIG RMK PP000=
SPZO Feb2006-021400Z VRB02KT 9999 FEW040 OVC080 14/06 Q1031 NOSIG RMK PP000=
SPZO Feb2006-021500Z VRB03KT 9999 SCT046 BKN050 16/06 Q1031 NOSIG RMK PP000=
SPZO Feb2006-021600Z 02008KT 270V080 9999 SCT046 BKN050 17/04 Q1031 NOSIG RMK PP000 RWY10 03014G29KT 320V110=
SPZO Feb2006-021700Z VRB10KT 330V090 9999 SCT046 SCT050 19/04 Q1030 NOSIG RMK PP000 RWY10 020/17G29 320V150=
SPZO Feb2006-021800Z 36013KT 340V080 9999 SCT046 SCT100 19/03 Q1029 NOSIG RMK PP000 WIND RWY10 08024G41KT=
SPZO Feb2006-021900Z 01012KT 270V080 9999 SCT046 SCT100 19/05 Q1028 NOSIG RMK PP000 WIND RWY10 07016G33KT 340V140=
SPZO Feb2006-022000Z 02010KT 270V080 9999 BKN050 19/04 Q1027 NOSIG RMK PP000 RWY10 36018G39KT=
SPZO Feb2006-022100Z VRB08KT 9999 BKN050 19/03 Q1026 NOSIG RMK PP000=
SPZO Feb2006-022200Z 36009KT 270V080 9999 BKN050 18/04 Q1026 NOSIG RMK=
SPZO Feb2006-022300Z 35007KT 9999 SCT050 17/03 Q1026 NOSIG RMK PP000=
SPZO Feb2006-030000Z 01008KT 9999 FEW050 16/04 Q1027 RMK PP000=
SPZO Feb2006-030100Z VRB05KT 9999 FEW050 14/04 Q1028 RMK PP000=
SPZO Feb2006-030200Z VRB05KT 360V170 9999 FEW050 13/05 Q1030 RMK PP000=
SPZO Feb2006-030300Z 10004KT 9999 FEW050 12/05 Q1031 RMK PP000=
SPZO Feb2006-030400Z 00000KT 9999 FEW050 11/05 Q1031 RMK PP000=
SPZO Feb2006-030500Z 00000KT 9999 FEW040 10/05 Q1031 RMK PP000=
SPZO Feb2006-030600Z 00000KT 9999 FEW040 09/05 Q1030 RMK PP000=
SPZO Feb2006-030700Z 00000KT 9999 SCT040 09/05 Q1030 RMK PP000=
SPZO Feb2006-030800Z 00000KT 9999 SCT040 SCT050 09/06 Q1030 RMK PP000=
SPZO Feb2006-030900Z 00000KT 9999 SCT040 SCT050 09/06 Q1030 RMK PP000=
SPZO Feb2006-031000Z 00000KT 9999 SCT040 SCT050 10/06 Q1030 RMK PP000=
SPZO Feb2006-031100Z 09004KT 9999 SCT040 09/05 Q1030 RMK PP000=
SPZO Feb2006-031200Z VRB01KT 9999 FEW043 SCT230 11/06 Q1031 NOSIG RMK PP000=
SPZO Feb2006-031300Z 00000KT 9999 SCT040 14/06 Q1031 NOSIG RMK PP000=
SPZO Feb2006-031400Z VRB01KT 9999 FEW040 SCT050 14/04 Q1031 NOSIG RMK PP000=
SPZO Feb2006-031500Z VRB01KT 9999 SCT046 16/04 Q1031 NOSIG RMK PP000=
SPZO Feb2006-031600Z VRB03KT 9999 FEW040 SCT050 18/05 Q1030 NOSIG RMK PP000=
SPZO Feb2006-031700Z 02010KT 270V080 9999 FEW040 SCT050 20/04 Q1029 NOSIG RMK PP000=
SPZO Feb2006-031800Z VRB05KT 9999 SCT050 SCT100 21/04 Q1027 NOSIG RMK PP000 WIND RWY10 VRB12KT=
SPZO Feb2006-031900Z VRB04KT 9999 SCT050 SCT100 21/03 Q1026 NOSIG RMK PP000 WIND RWY10 01012KT 300V070=
SPZO Feb2006-032000Z VRB03KT 9999 SCT050 SCT200 23/M01 Q1025 NOSIG RMK PP000=
SPZO Feb2006-032100Z 02005KT 340V080 9999 SCT050 SCT200 21/01 Q1024 NOSIG RMK PP000 WIND RWY10 VRB08KT=
SPZO Feb2006-032200Z 01009KT 340V080 9999 SCT050 SCT200 20/06 Q1024 NOSIG RMK WIND RWY10 VRB17G29KT PP000 TMAX 23.0=
SPZO Feb2006-032300Z VRB05KT 9999 SCT050 SCT200 18/05 Q1025 NOSIG RMK PP000=
SPZO Feb2006-040000Z VRB06KT 9999 RA SCT036TCU BKN050 15/08 Q1026 RMK PP012=
SPZO Feb2006-040100Z 11007KT 9999 SCT036 BKN050 14/06 Q1028 RMK PP000=
SPZO Feb2006-040200Z 10008KT 9999 SCT036 BKN050 14/07 Q1030 RMK RERA PP002=
SPZO Feb2006-040300Z 09012KT 9000 SHRA SCT036 BKN050 10/08 Q1031 RMK PP024=
SPZO Feb2006-040400Z 00000KT 9000 -SHRA SCT036 BKN050 10/08 Q1032 RMK PP022=
SPZO Feb2006-040500Z 00000KT 9000 SCT036 BKN050 10/08 Q1032 RMK PP000=
SPZO Feb2006-040600Z 00000KT 9999 SCT036 BKN050 10/08 Q1031 RMK PP000=
SPZO Feb2006-040700Z 00000KT 9999 -DZ BKN036 SCT050 10/08 Q1031 RMK PP004=
SPZO Feb2006-040800Z 00000KT 9999 FEW030 BKN036 10/07 Q1030 RMK PP010=
SPZO Feb2006-040900Z 00000KT 9999 -DZ FEW030 BKN036 10/07 Q1030 RMK PP004=
SPZO Feb2006-041000Z 00000KT 9999 FEW030 BKN050 10/08 Q1032 RMK PP000=
SPZO Feb2006-041100Z 00000KT 9999 SCT033 BKN040 10/08 Q1031 RMK RERA PP002=
SPZO Feb2006-041200Z 00000KT 9000 -RA FEW030 SCT040 OVC080 10/07 Q1032 TEMPO 9999 NSW RMK PP002 WIND RWY10 00000KT=
SPZO Feb2006-041300Z 00000KT 9999 SCT033 SCT100 BKN230 11/07 Q1032 RERA NOSIG RMK PP002 WIND RWY10 00000KT=
SPZO Feb2006-041400Z VRB02KT 9999 FEW030 BKN043 BKN230 13/07 Q1032 NOSIG RMK PP000=
SPZO Feb2006-041500Z 25003KT 180V350 9999 FEW033 SCT043 BKN230 15/07 Q1032 NOSIG RMK PP000=
SPZO Feb2006-041600Z VRB03KT 9999 FEW033 SCT043 BKN230 16/06 Q1031 NOSIG RMK PP000 WIND RWY10 VRB07KT=
SPZO Feb2006-041700Z VRB02KT 9999 VCSH SCT043 SCT100 17/08 Q1030 NOSIG RMK=
SPZO Feb2006-041800Z 26006KT 180V350 9999 VCSH FEW040TCU SCT043 BKN050 18/07 Q1028 NOSIG RMK PP000=
SPZO Feb2006-041900Z 10013KT 080V180 9999 VCSH FEW036 SCT043CB BKN080 16/08 Q1028 RESHRA NOSIG RMK WIND RWY10 12025G38KT 080V170 PP002=
SPZO Feb2006-042000Z 08005KT 360V110 9999 VCSH FEW036 SCT043 BKN080 13/08 Q1027 NOSIG RMK PP000=
SPZO Feb2006-042100Z 10006KT 050V170 9999 FEW040 OVC080 12/07 Q1027 NOSIG RMK PP000=
SPZO Feb2006-042200Z 00000KT 9999 SCT050 BKN080 13/07 Q1027 NOSIG RMK PP000 T.MAX 18.7=
SPZO Feb2006-042300Z 00000KT 9999 SCT050 SCT100 12/07 Q1027 NOSIG RMK PP000=
SPZO Feb2006-050000Z 10004KT 9999 BKN050 SCT070 11/08 Q1028 RMK PP000=
SPZO Feb2006-050100Z 00000KT 9999 BKN050 11/08 Q1029 RMK PP000=
SPZO Feb2006-050200Z 00000KT 9999 BKN050 10/08 Q1029 RMK PP000=
SPZO Feb2006-050300Z 00000KT 9999 OVC050 10/08 Q1030 RMK PP000=
SPZO Feb2006-050400Z 00000KT 9999 OVC050 09/07 Q1030 RMK PP000=
SPZO Feb2006-050500Z 00000KT 9999 OVC050 09/07 Q1030 RMK PP000=
SPZO Feb2006-050600Z 00000KT 9999 OVC050 09/07 Q1030 RMK PP000=
SPZO Feb2006-050700Z 00000KT 9999 BKN050 10/07 Q1029 RMK PP000=
SPZO Feb2006-050800Z 00000KT 9999 BKN050 09/07 Q1029 RMK PP000=
SPZO Feb2006-050900Z 00000KT 9999 BKN050 SCT070 09/07 Q1029 RMK PP000=
SPZO Feb2006-051000Z 00000KT 9999 BKN050 SCT070 09/07 Q1029 RMK PP000=
SPZO Feb2006-051100Z 00000KT 5000 BR SCT020 SCT040 BKN070 10/08 Q1030 RMK PP000=
SPZO Feb2006-051200Z VRB02KT 9999 FEW025 SCT043 BKN100 10/08 Q1030 NOSIG RMK PP000=
SPZO Feb2006-051300Z 00000KT 9999 SCT030 BKN230 14/07 Q1031 NOSIG RMK PP000=
SPZO Feb2006-051400Z VRB03KT 9999 SCT036 SCT230 14/06 Q1031 NOSIG RMK PP000=
SPZO Feb2006-051500Z VRB04KT 9999 FEW036 SCT043 BKN100 16/07 Q1031 NOSIG RMK PP000=
SPZO Feb2006-051600Z 00000KT 9999 SCT040 SCT100 17/06 Q1030 NOSIG RMK PP000=
SPZO Feb2006-051700Z 04003KT 340V150 9999 SCT040 SCT100 19/07 Q1029 NOSIG RMK PP000=
SPZO Feb2006-051800Z VRB02KT 9999 SCT040 SCT100 20/04 Q1027 NOSIG RMK PP000 RWY10 11010KT 040V190=
SPZO Feb2006-051900Z 16012G22KT 090V260 9999 SCT043TCU SCT050 16/04 Q1026 TEMPO VCSH RMK PP000 RWY10 14019G31KT 070V210=
SPZO Feb2006-052000Z VRB03KT 9999 FEW040 SCT046 20/05 Q1026 TEMPO VCSH RMK PP000 RWY10 VRB03=
SPZO Feb2006-052100Z 26009KT 9999 FEW040TCU BKN046 18/04 Q1025 TEMPO=
SPZO Feb2006-052200Z VRB03KT 9999 FEW040TCU SCT050 20/04 Q1025 NOSIG RMK PP000 RWY10 29005KT=
SPZO Feb2006-052300Z VRB05KT 9999 FEW046TCU SCT050 18/06 Q1026 NOSIG RMK PP000=
SPZO Feb2006-060000Z 28011KT 9999 SCT040 SCT050 16/07 Q1027 RMK PP000=
SPZO Feb2006-060100Z 28010KT 260V350 9999 SCT050 14/06 Q1028 RMK PP000=
SPZO Feb2006-060200Z 28005KT 250V350 9999 FEW040 SCT050 13/07 Q1029 RMK PP000=
SPZO Feb2006-060300Z 28007KT 9999 FEW040 SCT050 14/06 Q1029 RMK PP000=
SPZO Feb2006-060400Z 00000KT 9999 FEW040 SCT080 13/08 Q1030 RMK PP000=
SPZO Feb2006-060500Z 00000KT 9999 SCT040 SCT046 12/08 Q1030 RMK PP000=
SPZO Feb2006-060600Z VRB03KT 9999 -RA SCT036 BKN046 12/08 Q1029 RMK PP004=
SPZO Feb2006-060700Z 00000KT 9999 BKN040 SCT046 10/07 Q1029 RMK PP002=
SPZO Feb2006-060800Z 00000KT 9999 -DZ BKN040 SCT070 09/07 Q1020 RMK PP002=
SPZO Feb2006-060900Z 00000KT 9999 BKN040 SCT050 09/07 Q1029 RMK PP000=
SPZO Feb2006-061000Z VRB01KT 9999 FEW030 SCT040 BKN070 09/07 Q1030 RMK PP000=
SPZO Feb2006-061100Z VRB01KT 9999 FEW030 SCT040 BKN046 10/07 Q1031 RMK PP000=
SPZO Feb2006-061200Z 00000KT 9999 FEW033 SCT040 BKN046 10/07 Q1032 NOSIG RMK PP000=
SPZO Feb2006-061300Z 00000KT 9999 FEW033 SCT040 BKN046 11/07 Q1032 NOSIG RMK PP000=
SPZO Feb2006-061400Z 00000KT 9999 FEW033 SCT040 BKN046 12/06 Q1032 NOSIG RMK PP000=
SPZO Feb2006-061500Z 00000KT 9999 FEW033 OVC080 14/06 Q1032 NOSIG RMK PP000=
SPZO Feb2006-061600Z VRB02KT 9999 FEW033 OVC080 17/07 Q1031 NOSIG RMK PP000=
SPZO Feb2006-061700Z VRB02KT 9999 SCT033 OVC080 17/06 Q1030 NOSIG RMK PP000 RWY10 VRB07KT=
SPZO Feb2006-061800Z 11004KT 070V200 9999 BKN043 SCT070 19/04 Q1029 NOSIG RMK PP000 WIND RWY10 VRB06KT=
SPZO Feb2006-061900Z VRB03KT 9999 BKN043 SCT070 19/05 Q1027 NOSIG RMK PP000 WIND RWY10 VRB07KT=
SPZO Feb2006-062000Z VRB02KT 9999 SCT043 BKN150 20/04 Q1026 NOSIG RMK PP000 RWY10 31008G18KT=
SPZO Feb2006-062100Z 28007KT 250V350 9999 SCT043 SCT100 19/06 Q1025 NOSIG RMK PP000 WIND RWY10 33012KT 250V030=
SPZO Feb2006-062200Z 28011KT 260V350 9999 SCT043 SCT080 18/08 Q1024 NOSIG RMK WIND RWY10 30020G31KT PP000 TX 21.0=
SPZO Feb2006-062300Z 28012KT 9999 SCT050 SCT100 16/07 Q1025 NOSIG RMK PP000=
SPZO Feb2006-070000Z 27011KT 9999 SCT046 BKN080 16/07 Q1026 RMK PP000=
SPZO Feb2006-070100Z 27012KT 9999 SCT046 BKN080 15/07 Q1027 RMK PP000=
SPZO Feb2006-070200Z 28011KT 9999 SCT046 BKN080 15/06 Q1028 RMK PP000=
SPZO Feb2006-070300Z 26008KT 9999 -RA BKN040 SCT046 13/08 Q1029 RERA RMK PP008=
SPZO Feb2006-070400Z 13004KT 9999 BKN040 SCT046 13/08 Q1030 RMK PP002=
SPZO Feb2006-070500Z 08004KT 9000 -RA BKN040 SCT046 10/07 Q1030 RMK PP038=
SPZO Feb2006-070600Z 00000KT 9000 -RA BKN033 SCT046 10/07 Q1030 RMK PP020=
SPZO Feb2006-070700Z 00000KT 9000 -RA BKN033 SCT046 09/08 Q1030 RMK PP034=
SPZO Feb2006-070800Z OOOOOKT 8000 -RA BKN033 SCT046 09/07 Q1029 RMK PP016=
SPZO Feb2006-070900Z 26003KT 8000 -RA FEW033 SCT040 SCT046 08/06 Q1029 RMK PP008=
SPZO Feb2006-071000Z 00000KT 8000 -RA FEW033 SCT040 SCT046 08/06 Q1029 PP006=
SPZO Feb2006-071100Z 26004KT 7000 -RA FEW030 OVC040 08/06 Q1030 RMK PP006=
SPZO Feb2006-071200Z 10002KT 8000 -RA FEW025 SCT036 BKN043 08/06 Q1030 NOSIG RMK CLNG BLW 1200M PP006=
SPZO Feb2006-071300Z VRB02KT 9000 -RA SCT025 SCT036 BKN046 09/06 Q1031 BECMG FM1340 SCT036 BKN046 RMK CLNG BLW 1200M PP006=
SPZO Feb2006-071400Z VRB01KT 9999 -RA FEW025 SCT040 BKN046 10/06 Q1031 NOSIG RMK PP002=
SPZO Feb2006-071500Z VRB03KT 9999 -DZ SCT025 SCT040 BKN070 11/07 Q1031 BECMG FM1600 NSW RMK PP002=
SPZO Feb2006-071600Z 11004KT 070V170 9999 VCSH SCT030 SCT040 BKN070 13/07 Q1030 NOSIG RMK PPTRZ=
SPZO Feb2006-071700Z VRB03KT 9999 VCSH FEW036 SCT040 BKN080 14/07 Q1030 NOSIG RMK PP000=
SPZO Feb2006-071800Z VRB03KT 9999 SCT036 SCT043 BKN070 16/08 Q1028 TEMPO=
SPZO Feb2006-071900Z 06004KT 340V110 9999 VCSH FEW036 SCT043 BKN100 16/08 Q1026 NOSIG RMK PP000=
SPZO Feb2006-072000Z 10005KT 9999 FEW036 SCT043 BKN100 16/07 Q1025 NOSIG RMK PP000=
SPZO Feb2006-072100Z 36005KT 270V080 9999 SCT043 BKN230 17/06 Q1024 NOSIG RMK PP000=
SPZO Feb2006-072200Z 36009KT 9999 SCT043 SCT230 17/06 Q1024 NOSIG RMK PP000 TMAX 17.7=
SPZO Feb2006-072300Z VRB04KT 9999 SCT043 SCT230 15/06 Q1025 NOSIG RMK PP000=
SPZO Feb2006-080000Z 00000KT 9999 FEW043 SCT200 14/06 Q1026 RMK PP000=
SPZO Feb2006-080100Z 28004KT 9999 FEW043 BKN100 13/06 Q1027 RMK PP000=
SPZO Feb2006-080200Z 09003KT 9999 FEW043 BKN050 12/08 Q1028 RMK PP000=
SPZO Feb2006-080300Z 00000KT 9999 FEW043 BKN050 12/07 Q1029 RMK PP000=
SPZO Feb2006-080400Z 00000KT 9999 FEW043 BKN050 12/07 Q1029 RMK PP000=
SPZO Feb2006-080500Z 00000KT 9999 FEW043 BKN050 12/08 Q1029 RMK PP000=
SPZO Feb2006-080600Z 00000KT 9999 SCT040 BKN050 12/08 Q1028 RMK PP000=
SPZO Feb2006-080700Z 08003KT 9999 SCT040 BKN050 11/08 Q1027 RMK PP000=
SPZO Feb2006-080800Z 00000KT 9999 BKN040 SCT050 11/07 Q1027 RMK PP000=
SPZO Feb2006-080900Z 00000KT 9999 BKN040 SCT050 11/07 Q1026 RMK PP000=
SPZO Feb2006-081000Z 28004KT 9999 BKN040 SCT050 11/06 Q1027 RERA RMK PP001=
SPZO Feb2006-081100Z 27003KT 9999 BKN040 SCT050 11/06 Q1027 RMK PP000=
SPZO Feb2006-081200Z 25004KT 9999 FEW036 SCT040 BKN050 12/07 Q1028 NOSIG RMK PP000=
SPZO Feb2006-081300Z VRB03KT 9999 FEW036 SCT040 BKN050 14/06 Q1029 NOSIG RMK PP000=
SPZO Feb2006-081400Z VRB03KT 9999 FEW036 SCT043 BKN050 14/06 Q1029 NOSIG RMK PP000=
SPZO Feb2006-081500Z VRB03KT 9999 FEW036 SCT043 BKN050 16/06 Q1029 NOSIG RMK PP000 WIND RWY10 VRB05KT=
SPZO Feb2006-081600Z VRB03KT 9999 FEW036 SCT043 BKN070 17/05 Q1028 NOSIG RMK PP000 WIND RWY10 10009KT 030V200=
SPZO Feb2006-081700Z 10010KT 070V110 9999 SCT043 SCT070 18/08 Q1027 NOSIG RMK PP000 WIND RWY10 13006KT 060V200=
SPZO Feb2006-081800Z 11007KT 070V170 9999 VCSH FEW040TCU SCT043 BKN080 18/08 Q1026 NOSIG RMK PP000=
SPZO Feb2006-081900Z 12005KT 080V190 9999 VCSH FEW040 SCT046 BKN100 20/07 Q1024 NOSIG RMK PP000=
SPZO Feb2006-082000Z 28016KT 260V350 9999 VCSH FEW040TCU BKN046 20/08 Q1024 NOSIG RMK WIND RWY10 30021KT PP000=
SPZO Feb2006-082100Z 27013KT 9999 VCSH SCT040TCU SCT046 15/09 Q1024 TEMPO-RA RMK WIND RWY10 27021KT PP000=
SPZO Feb2006-082200Z 28011KT 260V350 9999 VCSH SCT040 SCT046 15/08 Q1024 RESHRA NOSIG RMK WIND RWY10 29016KT PP004 T.MAX 20.1=
SPZO Feb2006-082300Z 27010KT 9999 VCSH SCT040 SCT046 16/07 Q1024 NOSIG RMK PP000=
SPZO Feb2006-090000Z 34007KT 270V020 9999 BKN050 15/06 Q1025 RMK PP000=
SPZO Feb2006-090100Z 34005KT 270V020 9999 BKN050 15/06 Q1027 RMK PP000=
SPZO Feb2006-090200Z 31007KT 270V360 9999 BKN050 15/07 Q1028 RMK PP000=
SPZO Feb2006-090300Z 31004KT 270V350 9999 BKN050 14/07 Q1028 RMK PP000=
SPZO Feb2006-090400Z VRB03KT 9999 BKN050 13/07 Q1029 RMK PP000=
SPZO Feb2006-090500Z 09003KT 9999 BKN050 12/07 Q1029 RMK PP000=
SPZO Feb2006-090600Z 00000KT 9999 OVC050 12/08 Q1029 RMK PP000=
SPZO Feb2006-090700Z 08005KT 9999 OVC050 12/08 Q1028 RMK PP000=
SPZO Feb2006-090800Z 09002KT 9999 OVC050 12/07 Q1028 RMK PP000=
SPZO Feb2006-090900Z 00000KT 9999 SCT030 BKN040 12/06 Q1028 RMK PP000=
SPZO Feb2006-091000Z 09004KT 9999 SCT030 BKN040 11/07 Q1029 RMK PP000=
SPZO Feb2006-091100Z 10002KT 9999 SCT030 BKN040 11/07 Q1029 RMK PP000 WIND RWY10 10005KT=
SPZO Feb2006-091200Z 10002KT 9999 FEW030 SCT040 BKN050 11/07 Q1031 NOSIG RMK PP000=
SPZO Feb2006-091300Z 08005KT 9999 FEW030 SCT040 BKN060 12/07 Q1031 NOSIG RMK PP000=
SPZO Feb2006-091400Z VRB02KT 9999 FEW030 SCT043 BKN060 14/07 Q1031 NOSIG RMK PP000=
SPZO Feb2006-091500Z VRB03KT 9999 FEW036 SCT043 BKN080 15/07 Q1031 NOSIG RMK PP000=
SPZO Feb2006-091600Z 10006KT 360V170 9999 FEW036 SCT043 BKN060 16/07 Q1030 NOSIG RMK PP000=
SPZO Feb2006-091700Z VRB06KT 9999 VCSH FEW040TCU BKN046 18/08 Q1029 NOSIG RMK PP000=
SPZO Feb2006-091800Z VRB05KT 360V180 9999 VCSH FEW040TCU BKN046 18/06 Q1028 NOSIG RMK PP000 RWY10 VRB04KT 040V230=
SPZO Feb2006-091900Z 27013KT 9999 VCSH FEW040TCU BKN046 18/07 Q1027 NOSIG RMK PP000 REWY10 27023G41KT=
SPZO Feb2006-092000Z 27010KT 9999 VCSH SCT040 BKN046 17/08 Q1027 TEMPO -RA RMK PP000 RWY10 27020G32KT=
SPZO Feb2006-092100Z 27012KT 9999 VCSH SCT040 BKN046 16/08 Q1027 NOSIG RMK PP000=
SPZO Feb2006-092200Z 27010KT 9999 VCSH SCT040 BKN046 15/08 Q1027 NOSIG RMK PP000 TX.18.9=
SPZO Feb2006-092300Z 27011KT 9999 VCSH SCT040 BKN046 14/08 Q1027 NOSIG RMK PP000=
SPZO Feb2006-100000Z 27007KT 9999 SCT040 SCT050 14/08 Q1029 RMK PP000=
SPZO Feb2006-100100Z VRB01KT 9999 SCT040 SCT050 13/07 Q1030 RMK PP000=
SPZO Feb2006-100200Z VRB02KT 9999 SCT040 SCT060 12/08 Q1031 RMK P000=
SPZO Feb2006-100300Z 00000KT 9999 SCT040 SCT050 12/08 Q1032 RMK PP000=
SPZO Feb2006-100400Z 00000KT 9999 SCT040 SCT080 12/08 Q1032 RMK PP000=
SPZO Feb2006-100500Z 00000KT 9999 SCT050 SCT080 12/08 Q1021 RMK PP0000=
SPZO Feb2006-100600Z 00000KT 9999 BKN040 SCT070 11/08 Q1031 RMK PP000=
SPZO Feb2006-100700Z 00000KT 9999 OVC040 12/08 Q1030 RMK PP000=
SPZO Feb2006-100800Z 00000KT 9999 SCT040 SCT050 12/08 Q1030 RMK PP000=
SPZO Feb2006-100900Z 00000KT 9999 BKN040 SCT046 12/08 Q1030 RMK PP000=
SPZO Feb2006-101000Z 28004KT 270V350 9999 FEW036 SCT040 BKN046 12/07 Q1030 RMK PP000=
SPZO Feb2006-101100Z 27002KT 9999 VCSH FEW036 SCT040 BKN050 11/07 Q1031 RMK PP000=
SPZO Feb2006-101200Z 27002KT 9999 FEW036 SCT040 BKN046 12/08 Q1032 NOSIG RMK PP000=
SPZO Feb2006-101300Z 11004KT 9999 FEW036 SCT040 BKN050 13/07 Q1033 NOSIG RMK PP000=
SPZO Feb2006-101400Z 10004KT 9999 FEW040 SCT046 BKN080 14/07 Q1033 NOSIG RMK PP000=
SPZO Feb2006-101500Z 11003KT 9999 SCT040 BKN046 15/02 Q1033 TEMPO VCSH RMK PP000=
SPZO Feb2006-101600Z 00000KT 9999 SCT040 BKN046 16/06 Q1033 TEMPO VCSH RMK PP000=
SPZO Feb2006-101700Z 10010KT 9999 VCSH SCT040 BKN046 18/08 Q1032 NOSIG RMK PP000 RWY10 25010KT=
SPZO Feb2006-101800Z 27008KT 9999 VCSH SCT040 BKN043 18/09 Q1030 NOSIG RMK=
SPZO Feb2006-101900Z 28011KT 250V350 9999 VCSH SCT040 BKN043 18/08 Q1029 TEMPO -RA RMK VCSH QUAD N/NE PP000 WIND RWY10 27013KT 220V320=
SPZO Feb2006-102000Z 26012KT 180V290 9999 VCSH FEW040TCU SCT043 BKN050 16/08 Q1029 NOSIG RMK PP000 RWY10 32015G32KT=
SPZO Feb2006-102100Z 26005KT 180V350 9999 VCSH SCT043 BKN050 15/08 Q1029 NOSIG RMK PP000 RWY10 27013KT=
SPZO Feb2006-102200Z 32004KT 250V020 9999 FEW043 SCT050 BKN070 16/08 Q1029 NOSIG RMK WIND RWY10 30008KT 260V350 PP000 TMAX 18.9=
SPZO Feb2006-102300Z 00000KT 9999 SCT050 SCT070 16/07 Q1029 NOSIG RMK PP000=
SPZO Feb2006-110000Z 08004KT 9999 SCT046 BKN080 15/07 Q1030 RMK PP000=
SPZO Feb2006-110100Z VRB06KT 360V120 9999 SCT046 BKN080 15/05 Q1032 RMK PP000=
SPZO Feb2006-110200Z 01008KT 9999 BKN040 SCT046 14/04 Q1033 RMK PP000=
SPZO Feb2006-110300Z 15003KT 9999 BKN040 SCT046 13/06 Q1033 RMK PP000=
SPZO Feb2006-110400Z 25004KT 9999 BKN040 SCT046 12/07 Q1034 RMK PP000=
SPZO Feb2006-110500Z 00000KT 9999 BKN040 SCT046 13/06 Q1033 RMK PP000=
SPZO Feb2006-110600Z 35004KT 9999 BKN040 SCT046 12/07 Q1033 RMK PP000=
SPZO Feb2006-110700Z 00000KT 9999 BKN040 SCT046 11/07 Q1032 RMK PP000=
SPZO Feb2006-110800Z 00000KT 9999 BKN040 SCT046 11/06 Q1032 RMK PP000=
SPZO Feb2006-110900Z 28005KT 9999 SCT040 SCT046 11/06 Q1031 RMK PP000=
SPZO Feb2006-111000Z 26006KT 9999 FEW040 BKN046 11/06 Q1032 RMK PP000=
SPZO Feb2006-111100Z 26004KT 9999 FEW036 SCT043 BKN050 10/06 Q1032 RMK PP000=
SPZO Feb2006-111200Z VRB02KT 9999 FEW033 SCT043 BKN050 11/06 Q1033 NOSIG RMK PP000=
SPZO Feb2006-111300Z VRB01KT 9999 FEW036 SCT043 BKN060 12/06 Q1034 NOSIG RMK PP000=
SPZO Feb2006-111400Z VRB01KT 9999 FEW036 SCT043 BKN070 14/06 Q1034 NOSIG RMK PP000=
SPZO Feb2006-111500Z VRB01KT 9999 SCT040 SCT060 16/06 Q1034 NOSIG RMK PP000=
SPZO Feb2006-111600Z VRB04KT 9999 SCT040 SCT060 17/07 Q1033 NOSIG RMK PP000=
SPZO Feb2006-111700Z 12004KT 080V180 9999 FEW040TCU SCT050 17/05 Q1032 TEMPO VCSH RMK PP000=
SPZO Feb2006-111800Z 35007KT 270V080 9999 FEW040TCU SCT050 20/07 Q1030 NOSIG RMK PP000 WIND RWY10 29019KT 240V350=
SPZO Feb2006-111900Z 28017KT 250V350 9999 VCSH FEW040 SCT046TCU 18/08 Q1029 NOSIG RMK PP000 WIND RWY10 30027G38KT 240V010=
SPZO Feb2006-112000Z 30004KT 250V010 9999 VCSH FEW040 SCT046TCU BKN230 19/06 Q1028 NOSIG RMK WIND RWY10 32016G26KT 250V040 PP000=
SPZO Feb2006-112100Z 28012KT 250V350 9999 FEW040 BKN043 BKN100 16/07 Q1028 NOSIG RMK WIND RWY10 30017KT 240V350 PP000=
SPZO Feb2006-112200Z 10008KT 9999 BKN043 BKN100 15/06 Q1029 NOSIG RMK PP000 TMAX 20.2=
SPZO Feb2006-112300Z 11005KT 080V170 9999 BKN043 SCT080 15/06 Q1029 NOSIG RMK PP000=
SPZO Feb2006-120000Z 08004KT 9999 BKN043 SCT080 14/05 Q1030 RMK PP000=
SPZO Feb2006-120100Z 26006KT 9999 -RA OVC040 13/08 Q1031 RMK PPTZS=
SPZO Feb2006-120200Z 28006KT 9999 -RA OVC040 12/08 Q1033 RMK PP010=
SPZO Feb2006-120300Z 28002KT 9999 -RA OVC040 11/09 Q1034 RMK PP016=
SPZO Feb2006-120400Z 00000KT 9999 -RA OVC040 10/08 Q1034 RMK PP010=
SPZO Feb2006-120500Z 00000KT 9999 -RA FEW030 OVC040 10/07 Q1034 RMK PP016=
SPZO Feb2006-120600Z 00000KT 9999 -RA FEW030 BKN040 09/07 Q1033 RMK PP024=
SPZO Feb2006-120700Z 10003KT 9999 -RA FEW030 BKN040 09/07 Q1033 RMK PP028=
SPZO Feb2006-120800Z 09003KT 9999 -RA FEW030 BKN040 08/06 Q1032 RMK PP001=
SPZO Feb2006-120900Z 10002KT 9999 -RA FEW030 BKN040 08/06 Q1032 RMK PP006=
SPZO Feb2006-121000Z 10001KT 8000 -RA FEW030 OVC040 08/06 Q1032 RMK CLNG BLW 1200M PP010=
SPZO Feb2006-121100Z 08002KT 7000 -RA FEW030 OVC040 07/05 Q1033 RMK CLNG BLW 1200M PP022=
SPZO Feb2006-121200Z 08002KT 9000 -RA SCT030 OVC070 07/05 Q1034 NOSIG RMK PP017=
SPZO Feb2006-121300Z 00000KT 8000 RA SCT025 SCT046 OVC070 07/04 Q1035 TEMPO 7000 RMK PP012=
SPZO Feb2006-121400Z 00000KT 7000 RA FEW025 SCT033 OVC060 07/05 Q1035 TEMPO FM1435 9000 RMK PP016=
SPZO Feb2006-121500Z 00000KT 7000 RA FEW025 SCT033 OVC070 07/05 Q1035 TEMPO FM1520 8000 RMK PP022=
SPZO Feb2006-121600Z 00000KT 8000 RA FEW025 SCT033 OVC070 08/05 Q1035 TEMPO 9000 RMK PP018=
SPZO Feb2006-121700Z 00000KT 9000 -RA FEW025 SCT033 OVC080 08/05 Q1034 NOSIG RMK PP012=
SPZO Feb2006-121800Z VRB01KT 9000 -RA FEW025 SCT036 OVC080 09/05 Q1033 NOSIG RMK PP004=
SPZO Feb2006-121900Z 00000KT 9999 FEW030 SCT100 12/05 Q1031 NOSIG RMK PP002=
SPZO Feb2006-122000Z 00000KT 9999 FEW036 SCT046 15/05 Q1029 NOSIG RMK PP000=
SPZO Feb2006-122100Z 00000KT 9999 FEW040 SCT046 15/05 Q1028 NOSIG RMK PP000=
SPZO Feb2006-122200Z 12004KT 080V190 9999 FEW040 SCT046 16/06 Q1027 NOSIG RMK PP000 T.MAX 16.9=
SPZO Feb2006-122300Z 00000KT 9999 FEW043 SCT230 15/06 Q1027 NOSIG RMK PP000=
SPZO Feb2006-130000Z 10004KT 9999 SCT050 SCT100 12/07 Q1028 RMK PP000=
SPZO Feb2006-130100Z 00000KT 9999 BKN050 12/07 Q1029 RMK PP000=
SPZO Feb2006-130200Z 10005KT 8000 -RA SCT040 SCT050 11/06 Q1032 RMK PP004=
SPZO Feb2006-130300Z VRB02KT 8000 +RA BKN040 SCT050 09/07 Q1033 RMK PP036=
SPZO Feb2006-130400Z 00000KT 9000 -RA OVC040 09/07 Q1032 RMK PP002=
SPZO Feb2006-130500Z 00000KT 9999 OVC040 09/07 Q1031 RERA RMK PPTRZ=
SPZO Feb2006-130600Z 10003KT 9000 -DZ OVC040 09/07 Q1031 RMK PP002=
SPZO Feb2006-130700Z 07003KT 9999 OVC040 09/07 Q1030 REDZ RMK PPTRZ=
SPZO Feb2006-130800Z 00000KT 9999 BKN040 SCT050 09/07 Q1029 RMK PP000=
SPZO Feb2006-130900Z 00000KT 9999 SCT040 BKN050 08/07 Q1029 RMK PP000=
SPZO Feb2006-131000Z 00000KT 9999 FEW040 SCT050 BKN060 09/07 Q1029 RMK PP000=
SPZO Feb2006-131100Z 00000KT 9999 FEW040 SCT050 BKN060 09/07 Q1030 RMK PP000=
SPZO Feb2006-131200Z 00000KT 9999 FEW030 SCT046 BKN060 09/07 Q1030 NOSIG RMK PP000=
SPZO Feb2006-131300Z 00000KT 9999 FEW030 BKN100 10/07 Q1031 NOSIG RMK PP000=
SPZO Feb2006-131400Z 00000KT 9999 FEW040 13/07 Q1031 NOSIG RMK PP000=
SPZO Feb2006-131500Z VRB03KT 9999 FEW040 SCT050 16/07 Q1031 NOSIG RMK PP000=
SPZO Feb2006-131600Z VRB02KT 9999 FEW040 SCT050 18/06 Q1030 NOSIG RMK PP000=
SPZO Feb2006-131700Z VRB04KT 9999 FEW040TCU SCT050 18/06 Q1029 NOSIG RMK PP000=
SPZO Feb2006-131800Z VRB05KT 9999 SCT046 SCT230 20/07 Q1028 NOSIG RMK PP000=
SPZO Feb2006-131900Z 34008KT 270V310 9999 BKN046 21/04 Q1026 NOSIG RMK PP000 RWY10 35010KT=
SPZO Feb2006-132000Z 34005KT 270V010 9999 FEW040TCU BKN046 20/05 Q1025 TEMPO VCSH RMK PP000 RWY10 VRB03KT=
SPZO Feb2006-132100Z 29010KT 9999 FEW040TCU BKN046 20/04 Q1024 TEMPO VCSH RMK PP000 RWY10 30010G32KT=
SPZO Feb2006-132200Z 29015KT 270V360 9999 FEW040TCU BKN060 20/04 Q1024 NOSIG RMK PP000 TX.21.6=
SPZO Feb2006-132300Z 28012KT 9999 FEW043 BKN200 19/05 Q1024 NOSIG RMK PP000=
SPZO Feb2006-140000Z 28006KT 270V350 9999 SCT040 SCT070 16/06 Q1026 RMK PP000=
SPZO Feb2006-140100Z 28007KT 9999 SCT050 15/07 Q1027 RMK PP000=
SPZO Feb2006-140200Z 26005KT 9999 SCT040 SCT080 15/07 Q1029 RMK PP000=
SPZO Feb2006-140300Z 27007KT 9999 SCT040 SCT080 14/07 Q1030 RMK PP000=
SPZO Feb2006-140400Z VRB02KT 9999 SCT040 SCT070 13/07 Q1030 RMK PP000=
SPZO Feb2006-140500Z 00000KT 9999 SCT036 BKN043 13/08 Q1029 RMK PP000=
SPZO Feb2006-140600Z 00000KT 9999 SCT036 BKN046 11/07 Q1029 RMK PP000=
SPZO Feb2006-140700Z 10004KT 9999 BKN040 SCT046 10/08 Q1029 RMK PP000=
SPZO Feb2006-140800Z 00000KT 9999 OVC040 11/07 Q1029 RMK PP000=
SPZO Feb2006-140900Z 00000KT 9999 BKN040 SCT046 11/07 Q1029 RMK PP000=
SPZO Feb2006-141000Z 00000KT 9999 SCT040 SCT060 10/07 Q1029 RMK PP000=
SPZO Feb2006-141100Z 00000KT 9999 SCT040 SCT080 09/07 Q1030 RMK PP000=
SPZO Feb2006-141200Z 00000KT 9999 FEW040 OVC200 10/07 Q1030 NOSIG RMK PP000=
SPZO Feb2006-141300Z VRB02KT 9999 FEW040 OVC230 12/07 Q1030 NOSIG RMK PP000=
SPZO Feb2006-141400Z VRB02KT 9999 FEW040 OVC230 15/07 Q1031 NOSIG RMK PP000=
SPZO Feb2006-141500Z VRB03KT 9999 SCT040 OVC100 16/05 Q1031 NOSIG RMK PP000=
SPZO Feb2006-141600Z VRB02KT 9999 FEW040 OVC100 16/04 Q1030 NOSIG RMK PP000=
SPZO Feb2006-141700Z VRB04KT 090V270 9999 FEW040 OVC100 19/03 Q1029 NOSIG RMK PP000=
SPZO Feb2006-141800Z VRB03KT 9999 SCT050 BKN080 20/03 Q1028 NOSIG RMK PP000 WIND RWY10 VRB04KT=
SPZO Feb2006-141900Z 28010KT 260V350 9999 SCT050 BKN080 19/M00 Q1027 NOSIG RMK PP000 WIND RWY10 32014KT 260V040=
SPZO Feb2006-142000Z VRB04KT 9999 FEW043 BKN100 20/M00 Q1026 NOSIG RMK PP000 RWY10 VRB06KT=
SPZO Feb2006-142100Z 28009KT 250V350 9999 FEW043 BKN100 19/01 Q1025 NOSIG RMK PP000 WIND RWY10 32013KT 240V050=
SPZO Feb2006-142200Z 30014KT 250V350 9999 FEW043 BKN100 19/M01 Q1025 NOSIG RMK WIND RWY10 30020KT 250V350 PP000 TMAX 20.6=
SPZO Feb2006-142300Z 32008KT 270V010 9999 FEW043 BKN100 18/01 Q1025 NOSIG RMK PP000=
SPZO Feb2006-150000Z 34004KT 9999 SCT043 BKN100 17/01 Q1026 RMK PP000=
SPZO Feb2006-150100Z 08003KT 9999 SCT043 SCT100 14/06 Q1027 RMK PP000=
SPZO Feb2006-150200Z 10017KT 9999 SCT040 SCT100 11/04 Q1030 RMK PP000=
SPZO Feb2006-150300Z 10006KT 9999 FEW040 SCT100 10/05 Q1031 RMK PP000=
SPZO Feb2006-150400Z 00000KT 9999 FEW040 SCT100 10/05 Q1031 RMK PP000=
SPZO Feb2006-150500Z 00000KT 9999 FEW040 SCT100 09/05 Q1031 RMK PP000=
SPZO Feb2006-150600Z 27002KT 9999 FEW040 SCT100 08/05 Q1030 RMK PP000=
SPZO Feb2006-150700Z 08002KT 9999 FEW040 SCT100 08/05 Q1030 RMK PP000=
SPZO Feb2006-150800Z 09001KT 9999 FEW040 SCT100 07/05 Q1029 RMK PP000=
SPZO Feb2006-150900Z 00000KT 9999 SCT040 SCT100 07/04 Q1029 RMK PP000=
SPZO Feb2006-151000Z 00000KT 9999 SCT040 SCT100 07/05 Q1029 RMK PP000=
SPZO Feb2006-151100Z 08002KT 9999 FEW033 SCT040 SCT080 07/05 Q1030 RMK PP000=
SPZO Feb2006-151200Z 00000KT 9999 FEW036 SCT230 09/06 Q1031 NOSIG RMK PP000=
SPZO Feb2006-151300Z 09006KT 9999 FEW036 SCT046 10/06 Q1031 NOSIG RMK PP000=
SPZO Feb2006-151400Z VRB02KT 9999 SCT040 SCT230 14/06 Q1031 NOSIG RMK PP000=
SPZO Feb2006-151500Z VRB02KT 9999 SCT040 SCT230 16/05 Q1031 NOSIG RMK PP000=
SPZO Feb2006-151600Z VRB03KT 9999 SCT040 SCT230 18/02 Q1030 NOSIG RMK PP000=
SPZO Feb2006-151700Z 29008KT 180V350 9999 FEW040 BKN230 19/01 Q1029 RMK PP000=
SPZO Feb2006-151800Z 36004KT 270V080 9999 SCT050 SCT100 19/02 Q1028 NOSIG RMK PP000 WIND RWY10 VRB05KT=
SPZO Feb2006-151900Z VRB03KT 9999 SCT050 BKN230 21/01 Q1027 NOSIG RMK PP000=
SPZO Feb2006-152000Z 28008KT 180V350 9999 SCT050 BKN230 20/03 Q1027 NOSIG RMK WIND RWY10 29019G30KT 230V340 PP000=
SPZO Feb2006-152100Z 28016KT 260V350 9999 SCT050 SCT230 19/00 Q1026 NOSIG RMK WIND RWY10 32022KT 260V030 PP000=
SPZO Feb2006-152200Z 28012KT 260V350 9999 SCT050 SCT230 19/M02 Q1025 NOSWIG RMK WIND RWY10 VRB16KT PP000 TMAX 21.2=
SPZO Feb2006-152300Z 28013KT 260V350 9999 SCT050 SCT230 18/M01 Q1026 NOSIG RMK PP000=
SPZO Feb2006-160000Z 33004KT 9999 FEW050 SCT230 15/M01 Q1027 RMK PP000=
SPZO Feb2006-160100Z 26006KT 9999 FEW050 SCT230 14/M05 Q1027 RMK PP000=
SPZO Feb2006-160200Z 00000KT 9999 FEW050 SCT230 12/03 Q1028 RMK PP000=
SPZO Feb2006-160300Z 27002KT 9999 FEW050 SCT230 10/02 Q1029 RMK PP000=
SPZO Feb2006-160400Z 00000KT 9999 FEW050 SCT200 09/04 Q1030 RMK PP000=
SPZO Feb2006-160500Z 00000KT 9999 FEW050 SCT200 09/05 Q1029 RMK PP000=
SPZO Feb2006-160600Z 00000KT 9999 FEW050 SCT200 08/04 Q1029 RMK PP000=
SPZO Feb2006-160700Z 00000KT 9999 FEW050 SCT200 07/04 Q1028 RMK PP000=
SPZO Feb2006-160800Z 00000KT 9999 FEW050 SCT200 07/04 Q1028 RMK PP000=
SPZO Feb2006-160900Z 00000KT 9999 FEW050 SCT200 06/04 Q1028 RMK PP000=
SPZO Feb2006-161000Z 00000KT 9999 FEW050 SCT200 06/04 Q1029 RMK PP000=
SPZO Feb2006-161100Z 00000KT 9999 FEW050 SCT230 06/04 Q1029 RMK PP000=
SPZO Feb2006-161200Z 00000KT 8000 FEW230 08/05 Q1030 NOSIG RMK HZ PP000=
SPZO Feb2006-161300Z 00000KT 9999 FEW230 12/06 Q1031 NOSIG RMK PP000=
SPZO Feb2006-161400Z 00000KT 9999 FEW050 14/05 Q1031 NOSIG RMK PP000=
SPZO Feb2006-161500Z VRB02KT 9999 FEW050 17/04 Q1030 NOSIG RMK PP000=
SPZO Feb2006-161600Z VRB02KT 9999 FEW050 18/05 Q1029 NOSIG RMK PP000 WIND RWY10 VRB05KT=
SPZO Feb2006-161700Z VRB02KT 9999 SCT050 20/M01 Q1028 NOSIG RMK PP000 WIND RWY10 26006KT 160V320=
SPZO Feb2006-161800Z 00000KT 9999 SCT050 22/M00 Q1027 NOSIG RMK PP000=
SPZO Feb2006-161900Z VRB06KT 9999 SCT050 23/M01 Q1026 NOSIG RMK PP000=
SPZO Feb2006-162000Z 01011KT 340V080 9999 SCT050 21/04 Q1025 NOSIG RMK PP000=
SPZO Feb2006-162100Z 36008KT 330V080 9999 SCT050 20/05 Q1024 NOSIG RMK PP000=
SPZO Feb2006-162200Z 36012KT 9999 SCT050 18/05 Q1024 NOSIG RMK PP000 T.MAX 23.5=
SPZO Feb2006-162300Z VRB05KT 9999 FEW050 SCT230 17/06 Q1025 NOSIG RMK PP000=
SPZO Feb2006-170000Z VRB03KT 9999 SCT050 15/05 Q1027 RMK PP000=
SPZO Feb2006-170100Z 10004KT 9999 SCT050 13/05 Q1028 RMK PP000=
SPZO Feb2006-170200Z 10002KT 9999 SCT050 12/05 Q1029 RMK PP000=
SPZO Feb2006-170300Z 00000KT 9999 SCT050 11/06 Q1030 RMK PP000=
SPZO Feb2006-170400Z 07004KT 360V080 9999 SCT050 09/06 Q1030 RMK PP000=
SPZO Feb2006-170500Z 00000KT 9999 SCT050 09/05 Q1030 RMK PP000=
SPZO Feb2006-170600Z 28003KT 9999 SCT050 08/05 Q1030 RMK PP000=
SPZO Feb2006-170700Z 10002KT 9999 SCT050 07/05 Q1029 RMK PP000=
SPZO Feb2006-170800Z 00000KT 9999 SCT050 08/05 Q1029 RMK PP000=
SPZO Feb2006-170900Z 10002KT 9999 SCT050 07/05 Q1029 RMK PP000=
SPZO Feb2006-171000Z 00000KT 9999 SCT050 07/05 Q1030 RMK PP000=
SPZO Feb2006-171100Z 00000KT 9999 SCT050 06/04 Q1031 RMK PP000=
SPZO Feb2006-171200Z 00000KT 9999 FEW060 08/06 Q1032 NOSIG RMK PP000=
SPZO Feb2006-171300Z VRB02KT 9999 FEW040 12/06 Q1032 NOSIG RMK PP000=
SPZO Feb2006-171400Z VRB03KT 9999 FEW043 15/07 Q1032 NOSIG RMK PP000=
SPZO Feb2006-171500Z VRB05KT 9999 SCT050 16/05 Q1032 NOSIG RMK PP000=
SPZO Feb2006-171600Z 11005KT 070V190 9999 SCT050 18/04 Q1031 NOSIG RMK PP000=
SPZO Feb2006-171700Z VRB07KT 9999 SCT050 19/04 Q1030 NOSIG RMK PP000=
SPZO Feb2006-171800Z VRB05KT 9999 SCT050 21/04 Q1029 NOSIG RMK PP000 RWY10 020/17KT=
SPZO Feb2006-171900Z VRB08KT 270V080 9999 SCT050 21/03 Q1027 NOSIG RMK PP000 RWY 010/13G24KT 300V120=
SPZO Feb2006-172000Z 03008KT 270V110 9999 SCT050 21/03 Q1026 NOSIG RMK PP000 RWY10 07013G25KT=
SPZO Feb2006-172100Z VRB07KT 9999 SCT050 21/03 Q1025 NOSIG RMK PP000 RWY10 25011G24KT=
SPZO Feb2006-172200Z VRB10KT 9999 SCT050 18/04 Q1025 NOSIG RMK PP000=
SPZO Feb2006-172300Z 12007KT 9999 SCT050 18/05 Q1026 NOSIG RMK PP000=
SPZO Feb2006-180000Z 01004KT 270V110 9999 SCT043 16/05 Q1027 RMK PP000=
SPZO Feb2006-180100Z VRB02KT 9999 FEW040 SCT080 14/06 Q1029 RMK PP000=
SPZO Feb2006-180200Z 04005KT 8000 RA SCT036 BKN043 10/05 Q1033 RMK PP012=
SPZO Feb2006-180300Z 18004KT 7000 -RA OVC040 09/07 Q1034 RMK PP046=
SPZO Feb2006-180400Z 00000KT 9999 -RA SCT036 BKN043 09/06 Q1034 RMK PP052=
SPZO Feb2006-180500Z VRB02KT 9999 SCT036 BKN046 10/06 Q1031 RMK PP006=
SPZO Feb2006-180600Z 13006KT 9999 SCT040 BKN050 09/06 Q1030 RMK PP000=
SPZO Feb2006-180700Z 00000KT 9999 BKN040 SCT046 09/06 Q1030 RMK PP000=
SPZO Feb2006-180800Z 00000KT 9999 OVC040 09/06 Q1030 RMK PP000=
SPZO Feb2006-180900Z VRB03KT 9999 SCT040 SCT070 09/06 Q1030 RMK PP000=
SPZO Feb2006-181000Z 08003KT 9999 FEW050 07/05 Q1030 RMK PP000=
SPZO Feb2006-181100Z 08002KT 9999 FEW050 06/05 Q1031 RMK PP000=
SPZO Feb2006-181200Z 00000KT 9999 SCT050 08/06 Q1031 NOSIG RMK PP000=
SPZO Feb2006-181300Z 00000KT 9999 FEW050 SCT200 12/06 Q1032 NOSIG RMK PP000=
SPZO Feb2006-181400Z VRB02KT 9999 SCT050 14/06 Q1032 NOSIG RMK PP000=
SPZO Feb2006-181500Z VRB02KT 360V170 9999 SCT046 16/06 Q1032 NOSIG RMK PP000=
SPZO Feb2006-181600Z VRB03KT 9999 FEW040 SCT046 18/06 Q1031 NOSIG RMK PP000=
SPZO Feb2006-181700Z VRB03KT 9999 SCT046 SCT230 18/06 Q1030 NOSIG RMK PP000 RWY10 VRB07KT=
SPZO Feb2006-181800Z 36007KT 280V080 9999 SCT046 SCT230 20/08 Q1028 NOSIG RMK PP000=
SPZO Feb2006-181900Z 35008KT 270V080 9999 SCT050 SCT230 20/05 Q1027 NOSIG RMK PP000=
SPZO Feb2006-182000Z 36009KT 340V080 9999 SCT046 SCT230 19/05 Q1026 NOSIG RMK PP000=
SPZO Feb2006-182100Z 35010KT 290V020 9999 SCT046 SCT100 19/05 Q1025 NOSIG RMK PP000 RWY10 02016G29KT=
SPZO Feb2006-182200Z 36011KT 340V080 9999 FEW046 SCT230 18/06 Q1025 NOSIG RMK PP000 T.MAX 20.5=
SPZO Feb2006-182300Z 01012KT 340V080 9999 FEW040TCU SCT230 15/06 Q1026 NOSIG RMK PP000=
SPZO Feb2006-190000Z 34002KT 9999 SCT040TCU BKN050 14/05 Q1028 RMK PP000=
SPZO Feb2006-190100Z 05006KT 7000 -SHRA OVC040 09/05 Q1033 RMK PP060=
SPZO Feb2006-190200Z 00000KT 8000 -SHRA BKN040 SCT046 08/06 Q1034 RMK PP024=
SPZO Feb2006-190300Z 00000KT 8000 -SHRA OVC040 08/06 Q1035 RMK PP028=
SPZO Feb2006-190400Z 00000KT 8000 -SHRA OVC040 08/05 Q1035 RMK PP014=
SPZO Feb2006-190500Z 28006KT 250V360 9999 FEW030 BKN040 08/05 Q1034 RMK PP000=
SPZO Feb2006-190600Z 24006KT 9999 FEW030 SCT040 SCT080 08/04 Q1033 RMK PP000=
SPZO Feb2006-190700Z 32002KT 9999 FEW030 SCT040 SCT080 08/04 Q1032 RMK PP000=
SPZO Feb2006-190800Z 00000KT 9999 FEW030 SCT040 08/05 Q1032 RMK PP000=
SPZO Feb2006-190900Z 09003KT 9999 FEW030 SCT040 07/05 Q1031 RMK PP000=
SPZO Feb2006-191000Z 28002KT 9999 FEW030 SCT040 SCT080 07/05 Q1031 RMK PP000=
SPZO Feb2006-191100Z 25002KT 9999 FEW030 SCT040 BKN080 08/05 Q1032 RMK PP000=
SPZO Feb2006-191200Z VRB02KT 9999 FEW036 09/06 Q1033 NOSIG RMK PP000=
SPZO Feb2006-191300Z 00000KT 9999 FEW036 SCT050 11/04 Q1033 NOSIG RMK PP000=
SPZO Feb2006-191400Z 09003KT 360V170 9999 FEW036 BKN230 12/06 Q1034 NOSIG RMK PP000=
SPZO Feb2006-191500Z 00000KT 9999 FEW036 SCT050 14/06 Q1033 NOSIG RMK PP000=
SPZO Feb2006-191600Z VRB02KT 9999 SCT046 16/04 Q1032 NOSIG RMK PP000=
SPZO Feb2006-191700Z VRB02KT 9999 SCT043 SCT080 17/06 Q1032 NOSIG RMK PP000=
SPZO Feb2006-191800Z VRB04KT 9999 SCT043 SCT080 19/05 Q1030 NOSIG RMK PP000 WIND RWY10 VRB05KT=
SPZO Feb2006-191900Z 06008KT 360V100 9999 SCT043 SCT080 18/03 Q1029 NOSIG RMK PP000 WIND RWY10 VRB07KT=
SPZO Feb2006-192000Z VRB03KT 9999 SCT046 19/02 Q1027 NOSIG RMK PP000=
SPZO Feb2006-192100Z VRB03KT 9999 SCT046 SCT230 20/03 Q1026 NOSIG RMK PP000 WIND RWY10 VRB03KT=
SPZO Feb2006-192200Z VRB03KT 9999 SCT046 SCT230 19/06 Q1026 NOSIG RMK WIND RWY10 03016KT 340V080 PP000 TMAX 20.7=
SPZO Feb2006-192300Z 02005KT 340V080 9999 VCTS SCT043CB SCT230 16/06 Q1027 TEMPO NSW RMK PP000=
SPZO Feb2006-200000Z VRB03KT 9999 VCTS SCT040CB SCT230 15/06 Q1028 RMK PP000=
SPZO Feb2006-200100Z 08006KT 9999 FEW040 SCT060 14/07 Q1030 RMK PP000=
SPZO Feb2006-200200Z VRB03KT 9999 FEW040 SCT060 13/07 Q1030 RMK PP000=
SPZO Feb2006-200300Z 10011KT 9999 SCT040 SCT046 12/07 Q1031 RMK PP000=
SPZO Feb2006-200400Z 28005KT 9999 SCT036 SCT070 11/06 Q1032 RMK PP000=
SPZO Feb2006-200500Z VRB01KT 9999 SCT036 SCT050 11/05 Q1032 RMK PP000=
SPZO Feb2006-200600Z 00000KT 9999 BKN040 SCT046 11/06 Q1031 RMK PP000=
SPZO Feb2006-200700Z 09002KT 9999 OVC040 11/07 Q1031 RMK PP000=
SPZO Feb2006-200800Z 00000KT 8000 -RA OVC040 10/07 Q1030 RMK PP008=
SPZO Feb2006-200900Z VRB03KT 9000 -RA SCT036 BKN043 09/06 Q1030 RMK PP012=
SPZO Feb2006-201000Z VRB02KT 9999 FEW030 SCT043 BKN050 09/06 Q1030 RMK PP000=
SPZO Feb2006-201100Z VRB01KT 9999 FEW036 SCT050 10/07 Q1030 RMK PP000=
SPZO Feb2006-201200Z VRB02KT 9999 SCT043 SCT046 10/07 Q1031 NOSIG RMK PP000 WIND RWY10 28004KT 210V320=
SPZO Feb2006-201300Z 27002KT 9999 SCT043 SCT046 12/07 Q1032 NOSIG RMK PP000 WIND RWY10 29002KT=
SPZO Feb2006-201400Z VRB01KT 9999 SCT043 SCT060 14/07 Q1032 NOSIG RMK PP000=
SPZO Feb2006-201500Z VRB02KT 9999 SCT043 SCT060 15/06 Q1032 NOSIG RMK PP000 WIND RWY10 VRB03=
SPZO Feb2006-201600Z 05008KT 350V110 9999 SCT046 SCT060 16/05 Q1031 NOSIG RMK PP000 WIND RWY10 VRB07KT=
SPZO Feb2006-201700Z 01008KT 340V080 9999 SCT046 SCT230 18/02 Q1030 NOSIG RMK PP000 WIND RWY10 04013KT 310V120=
SPZO Feb2006-201800Z 01010KT 280V080 9999 SCT050 SCT230 19/05 Q1029 NOSIG RMK PP000=
SPZO Feb2006-201900Z 35005KT 270V080 9999 SCT050 19/02 Q1027 NOSIG RMK PP000=
SPZO Feb2006-202000Z 01012KT 340V080 9999 SCT046 SCT230 18/03 Q1026 NOSIG RMK PP000=
SPZO Feb2006-202100Z 35010KT 9999 SCT046 SCT230 19/03 Q1025 NOSIG RMK PP000=
SPZO Feb2006-202200Z 01012KT 350V080 9999 FEW050 SCT230 18/05 Q1025 NOSIG RMK PP000 TMAX 20.0=
SPZO Feb2006-202300Z 01014KT 9999 FEW050 SCT230 16/04 Q1026 NOSIG RMK PP000=
SPZO Feb2006-210000Z 01009KT 320V070 9999 SCT050 14/05 Q1028 RMK PP000=
SPZO Feb2006-210100Z 02006KT 340V080 9999 SCT050 14/05 Q1028 RMK PP000=
SPZO Feb2006-210200Z VRB02KT 9999 BKN050 13/05 Q1030 RMK PP000=
SPZO Feb2006-210300Z 26002KT 9999 BKN050 13/06 Q1030 RMK PP000=
SPZO Feb2006-210400Z 05006KT 340V110 9999 BKN050 13/04 Q1031 RMK PP000=
SPZO Feb2006-210500Z 10008KT 070V170 8000 -RA SCT040 SCT050 11/06 Q1031 RMK PP004=
SPZO Feb2006-210600Z 10003KT 060V140 8000 RA SCT036 SCT043 09/06 Q1032 RMK PP026=
SPZO Feb2006-210700Z 09007KT 7000 RA SCT036 SCT043 07/05 Q1031 RMK PP018=
SPZO Feb2006-210800Z 09002KT 7000 RA SCT036 SCT043 07/05 Q1031 RMK PP014=
SPZO Feb2006-210900Z 10002KT 8000 -RA SCT036 SCT043 07/05 Q1030 RMK PPTRZ=
SPZO Feb2006-211000Z 00000KT 9000 SCT036 BKN043 07/05 Q1030 RERA RMK PPTRZ=
SPZO Feb2006-211100Z 00000KT 9999 FEW036 SCT043 BKN050 07/05 Q1031 RMK PP000=
SPZO Feb2006-211200Z 08003KT 9999 FEW030 SCT043 BKN080 08/06 Q1031 NOSIG RMK PP000=
SPZO Feb2006-211300Z VRB03KT 9999 FEW025 SCT040 BKN080 08/06 Q1032 NOSIG RMK PP000=
SPZO Feb2006-211400Z VRB03KT 9999 FEW025 SCT040 BKN070 10/06 Q1033 NOSIG RMK PP000=
SPZO Feb2006-211500Z VRB03KT 9999 FEW025 SCT040 BKN070 11/06 Q1033 NOSIG RMK PP000=
SPZO Feb2006-211600Z 11007KT 080V170 9999 VCSH FEW025 SCT040 BKN070 11/07 Q1033 NOSIG RMK PP000=
SPZO Feb2006-211700Z VRB02KT 9999 VCSH FEW030 SCT043 BKN200 13/05 Q1031 NOSIG RMK PP000=
SPZO Feb2006-211800Z VRB04KT 9999 FEW030 SCT040 BKN100 15/07 Q1030 TEMPO=
SPZO Feb2006-211900Z 10008KT 9999 VCSH FEW030 SCT040 BKN080 14/06 Q1029 NOSIG RMK PP00O RWY10 11017=
SPZO Feb2006-212000Z VRB03KT 9999 SCT040 BKN080 15/07 Q1028 TEMPO VCSH RMK PP000 RWY VRB07KT=
SPZO Feb2006-212100Z VRB02KT 9999 SCT040 SCT080 18/08 Q1026 NOSIG RMK PP000=
SPZO Feb2006-212200Z VRB08KT 9999 SCT040 SCT080 17/04 Q1026 NOSIG RMK PP002 RASH BTN 2145 TO 2150 TX.17.8=
SPZO Feb2006-212300Z 24005KT 9999 SCT040 BKN080 16/04 Q1027 NOSIG RMK PP000=
SPZO Feb2006-220000Z VRB01KT 9999 FEW040 BKN080 13/05 Q1028 RMK PP000=
SPZO Feb2006-220100Z 00000KT 9999 FEW050 12/05 Q1029 RMK PP000=
SPZO Feb2006-220200Z 00000KT 9999 FEW050 11/06 Q1030 RMK PP000=
SPZO Feb2006-220300Z 00000KT 9999 FEW050 10/06 Q1030 RMK PP000=
SPZO Feb2006-220400Z 00000KT 9999 FEW040 09/06 Q1030 RMK PP000=
SPZO Feb2006-220500Z VRB01KT 9999 FEW040 09/06 Q1030 RMK PP000=
SPZO Feb2006-220600Z 00000KT 9999 FEW040 SCT050 09/06 Q1030 RMK PP000=
SPZO Feb2006-220700Z 00000KT 9999 FEW050 08/05 Q1029 RMK PP000=
SPZO Feb2006-220800Z 00000KT 9999 FEW050 07/05 Q1029 RMK PP000=
SPZO Feb2006-220900Z 00000KT 9999 FEW040 07/05 Q1029 RMK PP000=
SPZO Feb2006-221000Z 00000KT 9999 FEW040 SCT230 07/05 Q1030 RMK PP000=
SPZO Feb2006-221100Z 00000KT 9999 FEW050 SCT230 06/05 Q1030 RMK PP000=
SPZO Feb2006-221200Z 00000KT 9999 FEW050 BKN230 08/06 Q1031 NOSIG RMK PP000=
SPZO Feb2006-221300Z 00000KT 9999 FEW050 BKN230 11/07 Q1031 NOSIG RMK PP000=
SPZO Feb2006-221400Z VRB02KT 9999 FEW050 SCT230 13/06 Q1031 NOSIG RMK PP000=
SPZO Feb2006-221500Z VRB02KT 9999 FEW050 BKN230 16/07 Q1031 NOSIG RMK PP000 RWY10 VRB05KT=
SPZO Feb2006-221600Z VRB02KT 9999 SCT046 BKN230 17/07 Q1029 NOSIG RMK PP000 RWY10 15007KT 100V220=
SPZO Feb2006-221700Z VRB03KT 9999 SCT046 BKN230 18/07 Q1029 NOSIG RMK PP000=
SPZO Feb2006-221800Z VRB04KT 9999 SCT050 20/05 Q1027 NOSIG RMK PP000 RWY10 09011KT 030V120=
SPZO Feb2006-221900Z 03010KT 340V080 9999 FEW043TCU SCT050 21/04 Q1025 NOSIG RMK PP000 RWY10 05018KT 360V130=
SPZO Feb2006-222000Z 36010KT 340V090 9999 FEW043TCU SCT050 21/05 Q1024 NOSIG RMK PP000 RWY10 06020KT 350V150=
SPZO Feb2006-222100Z 35004KT 280V070 9999 SCT043TCU SCT080 21/04 Q1024 NOSIG RMK PP000 RWY10 04017KT 350V110=
SPZO Feb2006-222200Z VRB02KT 9999 FEW043 SCT080 BKN200 18/04 Q1024 NOSIG RMK PP000 TMAX 21.5=
SPZO Feb2006-222300Z 10010KT 9999 FEW040 SCT100 BKN200 16/06 Q1025 NOSIG RMK PP000=
SPZO Feb2006-230000Z 13003KT 9999 SCT040 BKN080 15/06 Q1026 RMK PP000=
SPZO Feb2006-230100Z 00000KT 9999 SCT040 BKN080 15/07 Q1027 RMK PP000=
SPZO Feb2006-230200Z 07003KT 9999 BKN040 SCT080 13/08 Q1027 RMK PP000=
SPZO Feb2006-230300Z 35002KT 9999 SCT040 SCT100 13/07 Q1028 RMK PP000=
SPZO Feb2006-230400Z 00000KT 9999 SCT040 11/07 Q1029 RMK PP000=
SPZO Feb2006-230500Z 00000KT 9999 SCT040 11/08 Q1029 RMK PP000=
SPZO Feb2006-230600Z 00000KT 9999 SCT040 10/07 Q1028 RMK PP000=
SPZO Feb2006-230700Z 00000KT 9999 SCT040 SCT080 10/07 Q1028 RMK PP000=
SPZO Feb2006-230800Z 08004KT 9999 SCT040 SCT080 09/07 Q1028 RMK PP000=
SPZO Feb2006-230900Z 18002KT 9999 SCT040 SCT080 10/07 Q1028 RMK PP000=
SPZO Feb2006-231000Z 08002KT 9999 FEW040 SCT050 10/07 Q1028 RMK PP000=
SPZO Feb2006-231100Z 00000KT 9999 FEW033 SCT040 SCT080 09/07 Q1029 RMK PP000=
SPZO Feb2006-231200Z 00000KT 9999 FEW037 BKN050 11/07 Q1030 NOSIG RMK PP000=
SPZO Feb2006-231300Z 00000KT 9999 SCT040 14/08 Q1030 NOSIG RMK PP000=
SPZO Feb2006-231400Z 08004KT 020V130 9999 SCT040 16/08 Q1030 NOSIG RMK PP000 RWY10 04006KT 350V070=
SPZO Feb2006-231500Z VRB03KT 9999 SCT047 18/07 Q1030 NOSIG RMK PP000=
SPZO Feb2006-231600Z 10006KT 080V220 9999 FEW043TCU SCT050 19/07 Q1029 NOSIG RMK PP000=
SPZO Feb2006-231700Z VRB06KT 9999 FEW043TCU SCT050 21/08 Q1027 NOSIG RMK PP000 RWY10 VRB08KT=
SPZO Feb2006-231800Z VRB04KT 9999 FEW040 SCT050 21/04 Q1026 NOSIG RMK PP000=
SPZO Feb2006-231900Z VRB02KT 9999 BKN046 21/04 Q1025 NOSIG RMK PP000 WIND RWY10 14006KT 060V210=
SPZO Feb2006-232000Z VRB03KT 9999 FEW040 SCT050 22/04 Q1024 NOSIG RMK PP000=
SPZO Feb2006-232100Z 01009KT 340V080 9999 SCT050 SCT100 22/05 Q1023 NOSIG RMK PP000 WIND RWY10 VRB14KT=
SPZO Feb2006-232200Z 03010KT 340V080 9999 SCT050 SCT100 20/06 Q1023 NOSIG RMK WIND RWY10 VRB12KT PP000 TMAX 23.2=
SPZO Feb2006-232300Z 11007KT 070V170 9999 SCT050 SCT100 17/07 Q1024 NOSIG RMK PP000=
SPZO Feb2006-240000Z 02004KT 9999 FEW040 SCT200 16/07 Q1025 RMK PP000=
SPZO Feb2006-240100Z 10006KT 9999 FEW040 SCT200 14/08 Q1027 RMK PP000=
SPZO Feb2006-240200Z 00000KT 9999 FEW040 BKN200 14/08 Q1028 RMK PP000=
SPZO Feb2006-240300Z 00000KT 9999 SCT040 SCT200 13/08 Q1029 RMK PP000=
SPZO Feb2006-240400Z 00000KT 9999 BKN040 13/08 Q1029 RMK PP000=
SPZO Feb2006-240500Z 00000KT 9999 BKN040 13/09 Q1029 RMK PP000=
SPZO Feb2006-240600Z 00000KT 9999 SCT040 SCT050 13/09 Q1029 RMK PP000=
SPZO Feb2006-240700Z 00000KT 9999 SCT040 SCT050 12/08 Q1028 RMK PP000=
SPZO Feb2006-240800Z 00000KT 9999 SCT050 11/07 Q1028 RMK PP000=
SPZO Feb2006-240900Z 00000KT 9999 FEW200 10/07 Q1028 RMK PP000=
SPZO Feb2006-241000Z VRB02KT 9999 FEW200 09/07 Q1029 RMK PP000=
SPZO Feb2006-241100Z 00000KT 9999 SCT200 08/06 Q1029 RMK PP000=
SPZO Feb2006-241200Z 00000KT 9999 SCT230 11/07 Q1030 NOSIG RMK PP000=
SPZO Feb2006-241300Z 00000KT 9999 FEW046 SCT230 15/06 Q1030 NOSIG RMK PP000=
SPZO Feb2006-241400Z 00000KT 9999 FEW046 18/05 Q1030 NOSIG RMK PP000=
SPZO Feb2006-241500Z VRB02KT 9999 FEW046 19/05 Q1030 NOSIG RMK PP000=
SPZO Feb2006-241600Z VRB03KT 9999 SCT046 20/07 Q1029 NOSIG RMK PP000=
SPZO Feb2006-241700Z VRB04KT 9999 SCT046 21/06 Q1027 NOSIG RMK PP000 WIND RWY10 VRB10KT=
SPZO Feb2006-241800Z VRB09KT 9999 SCT046 22/02 Q1026 NOSIG RMK PP000=
SPZO Feb2006-241900Z 04014KT 360V080 9999 FEW050 22/02 Q1025 NOSIG RMK PP000=
SPZO Feb2006-242000Z 03012KT 340V080 9999 SCT050 22/02 Q1024 NOSIG RMK PP000=
SPZO Feb2006-242100Z 01014KT 340V080 9999 FEW043 SCT230 21/03 Q1023 NOSIG RMK PP000=
SPZO Feb2006-242200Z 01010KT 340V080 9999 FEW043 BKN230 20/02 Q1024 NOSIG RMK PP000 T.MAX 22.7=
SPZO Feb2006-242300Z 36007KT 340V080 9999 FEW043 BKN230 19/03 Q1025 NOSIG RMK PP000=
SPZO Feb2006-250000Z VRB02KT 9999 SCT050 16/04 Q1026 RMK PP000=
SPZO Feb2006-250100Z 00000KT 9999 SCT050 14/07 Q1028 RMK PP000=
SPZO Feb2006-250200Z 00000KT 9999 BKN050 14/06 Q1029 RMK PP000=
SPZO Feb2006-250300Z 00000KT 9999 BKN050 14/07 Q1030 RMK PP000=
SPZO Feb2006-250400Z 00000KT 9999 BKN050 14/07 Q1030 RMK PP000=
SPZO Feb2006-250500Z 00000KT 9999 BKN050 13/07 Q1030 RMK PP000=
SPZO Feb2006-250600Z 00000KT 9999 BKN050 12/07 Q1030 RMK PP000=
SPZO Feb2006-250700Z 28006KT 250V350 9999 BKN050 12/06 Q1029 RMK PP000=
SPZO Feb2006-250800Z 26006KT 9999 BKN050 12/06 Q1029 RMK PP000=
SPZO Feb2006-250900Z VRB02KT 9999 OVC050 12/06 Q1029 RMK PP000=
SPZO Feb2006-251000Z VRB02KT 9999 BKN043 SCT080 11/06 Q1029 RMK PP000=
SPZO Feb2006-251100Z VRB02KT 9999 SCT043 SCT080 10/05 Q1029 RMK PP000=
SPZO Feb2006-251200Z 00000KT 9999 SCT100 BKN200 11/06 Q1030 NOSIG RMK PP000=
SPZO Feb2006-251300Z 00000KT 9999 FEW037 BKN200 14/07 Q1031 NOSIG RMK PP000=
SPZO Feb2006-251400Z VRB04KT 9999 FEW040 SCT150 BKN200 15/05 Q1031 NOSIG RMK PP000=
SPZO Feb2006-251500Z 00000KT 9999 SCT040TCU SCT100 BKN200 15/05 Q1031 NOSIG RMK PP000 RWY10 VRB03KT=
SPZO Feb2006-251600Z 00000KT 9999 FEW040TCU SCT150 BKN200 17/07 Q1030 NOSIG RMK PP000 RWY10 VRB03KT=
SPZO Feb2006-251700Z 00000KT 9999 FEW040 SCT150 BKN200 17/05 Q1030 NOSIG RMK PP000 RWY10 04010KT=
SPZO Feb2006-251800Z VRB03KT 9999 FEW040 SCT150 BKN200 18/04 Q1028 NOSIG RMK PP000 RWY10 VRB08KT=
SPZO Feb2006-251900Z VRB03KT 9999 FEW040 SCT150 20/03 Q1027 NOSIG RMK PP000 RWY10 VRB06KT=
SPZO Feb2006-252000Z VRB04KT 9999 FEW040 SCT200 20/04 Q1025 NOSIG RMK PP000 RWY10 VRB07KT=
SPZO Feb2006-252100Z VRB03KT 9999 FEW040 BKN200 21/02 Q1024 NOSIG RMK PP000 RWY10 VRB05KT=
SPZO Feb2006-252200Z VRB06KT 9999 FEW040TCU SCT046 BKN100 19/05 Q1024 TEMPO VCSH RMK PP000 TX.21.6=
SPZO Feb2006-252300Z 33012KT 9999 -TSRA SCT040CB BKN046 15/07 Q1026 RERA BECMG FM2330 NSW RMK PPTRZ=
SPZO Feb2006-260000Z 12006KT 9999 VCRA SCT033 BKN043 12/08 Q1028 RMK PPTRZ=
SPZO Feb2006-260100Z 00000KT 9999 -RA SCT030 BKN040 13/08 Q1029 RMK PP002=
SPZO Feb2006-260200Z 34004KT 9999 -RA FEW030 BKN040 12/06 Q1030 RMK PP004=
SPZO Feb2006-260300Z 00000KT 9999 SCT040 SCT050 12/07 Q1030 RMK PP000=
SPZO Feb2006-260400Z 27008KT 9999 SCT040 SCT050 11/07 Q1030 RMK PP000=
SPZO Feb2006-260500Z 27008KT 9999 SCT043 BKN050 11/06 Q1030 RMK PP000=
SPZO Feb2006-260600Z VRB03KT 9999 SCT040 SCT050 10/07 Q1029 RMK PP000=
SPZO Feb2006-260700Z 00000KT 9999 BKN040 SCT050 10/07 Q1028 RMK PP000=
SPZO Feb2006-260800Z 00000KT 9999 SCT040 BKN060 10/07 Q1028 RMK PP000=
SPZO Feb2006-260900Z 00000KT 9999 BKN040 SCT050 10/07 Q1028 RMK PP000=
SPZO Feb2006-261000Z VRB02KT 9999 BKN040 SCT050 10/07 Q1028 RMK PP000=
SPZO Feb2006-261100Z 00000KT 9999 SCT040 BKN047 10/07 Q1028 RMK PP000=
SPZO Feb2006-261200Z 09003KT 9999 SCT040 BKN050 11/08 Q1029 NOSIG RMK PP000 RWY10 28008KT 230V360=
SPZO Feb2006-261300Z 09002KT 9999 FEW030 SCT040 BKN100 12/08 Q1029 NOSIG RMK PP000 RWY10 10004KT=
SPZO Feb2006-261400Z VRB02KT 9999 FEW033 SCT040 SCT100 12/07 Q1030 NOSIG RMK PP000 RWY10 0000KT=
SPZO Feb2006-261500Z 10002KT 9999 FEW033 SCT040 BKN100 14/08 Q1030 NOSIG RMK PP000 RWY10 VRB04KT=
SPZO Feb2006-261600Z VRB02KT 9999 FEW033 SCT040 BKN100 16/07 Q1030 NOSIG RMK PP000 RWY10 VRB04KT=
SPZO Feb2006-261700Z VRB03KT 9999 SCT040 BKN100 18/06 Q1029 NOSIG RMK PP000 RWY10 VRB05KT=
SPZO Feb2006-261800Z 27007KT 250V350 9999 SCT040TCU BKN080 17/07 Q1027 TEMPO VCSH RMK PP000 RWY10 26010KT 220V310=
SPZO Feb2006-261900Z 34008KT 270V010 9000 VCRA SCT037TCU SCT047 BKN080 17/07 Q1026 NOSIG RMK PP000 RWY10 01008KT 350V040=
SPZO Feb2006-262000Z 36010KT 280V010 9000 VCRA FEW037TCU SCT050 BKN200 16/07 Q1025 NOSIG RMK PP000 RWY10 03014KT 340V090=
SPZO Feb2006-262100Z 27007KT 9999 FEW040TCU SCT047 BKN100 17/07 Q1025 TEMPO VCSH RMK PP000 RWY10 VRB02KT=
SPZO Feb2006-262200Z 27004KT 9999 SCT040 BKN080 17/05 Q1025 TEMPO VCSH RMK PP000 TMAX 18.9=
SPZO Feb2006-262300Z 10006KT 9999 SCT047 BKN060 14/08 Q1026 NOSIG RMK PP000=
SPZO Feb2006-270000Z 11009KT 9999 SCT040 BKN050 13/08 Q1026 RMK PP000=
SPZO Feb2006-270100Z 09006KT 9999 SCT040 SCT080 12/08 Q1028 RMK PP000=
SPZO Feb2006-270200Z 11002KT 090V180 9999 SCT040 SCT080 12/08 Q1029 RMK PP000=
SPZO Feb2006-270300Z 00000KT 9999 SCT040 SCT080 12/08 Q1029 RMK PP000=
SPZO Feb2006-270400Z 10003KT 090V180 9999 BKN040 SCT080 12/08 Q1030 RMK PP000=
SPZO Feb2006-270500Z 10003KT 070V180 9999 -RA OVC040 10/07 Q1030 RMK PP022=
SPZO Feb2006-270600Z 00000KT 9000 -RA FEW030 BKN040 10/08 Q1030 RMK PP018=
SPZO Feb2006-270700Z 00000KT 8000 -RA FEW030 BKN040 10/07 Q1029 RMK PP008=
SPZO Feb2006-270800Z 00000KT 9000 -RA BKN040 SCT043 10/08 Q1028 RMK PP002=
SPZO Feb2006-270900Z 00000KT 9999 BKN040 SCT043 10/08 Q1028 RMK PP000=
SPZO Feb2006-271000Z 00000KT 9999 FEW030 OVC040 10/08 Q1028 RMK PP000=
SPZO Feb2006-271100Z 10003KT 9999 FEW030 SCT040 SCT046 10/08 Q1028 RMK PP000=
SPZO Feb2006-271200Z 11005KT 090V170 9999 SCT030 SCT040 BKN047 10/07 Q1029 NOSIG RMK PP000 RWY10 10007KT 060V120=
SPZO Feb2006-271300Z 10006KT 9999 FEW027 SCT043 BKN060 11/08 Q1030 NOSIG RMK PP000 RWY10 11006KT 080V140=
SPZO Feb2006-271400Z 00000KT 9999 FEW033 SCT047 BKN070 13/07 Q1030 NOSIG RMK PP000 RWY10 00000KT=
SPZO Feb2006-271500Z 09005KT 070V170 9999 FEW037 SCT050 BKN100 14/07 Q1030 NOSIG RMK PP000 RWY10 10009KT 040V150=
SPZO Feb2006-271600Z VRB03KT 9999 SCT040TCU SCT060 16/07 Q1029 NOSIG RMK PP000 RWY10 VRB09KT=
SPZO Feb2006-271700Z 06009KT 9000 -RA SCT037TCU BKN050 17/07 Q1028 NOSIG RMK PPTRZ RWY10 02012KT 330V060=
SPZO Feb2006-271800Z 28012KT 9999 VCSH SCT043 BKN050 15/08 Q1028 RERA NOSIG RMK PPTRZ RWY10 29017KT=
SPZO Feb2006-271900Z 27011KT 9999 VCSH SCT043TCU BKN046 14/07 Q1028 NOSIG RMK WIND RWY10 27014KT 230V310 PP000=
SPZO Feb2006-272000Z 28007KT 9999 VCSH FEW040TCU SCT046 BKN080 13/08 Q1027 NOSIG RMK PPTRZ=
SPZO Feb2006-272100Z 36004KT 340V080 9999 SCT043 BKN080 14/07 Q1027 NOSIG RMK PP000=
SPZO Feb2006-272200Z VRB02KT 9999 SCT043 SCT080 14/08 Q1027 NOSIG RMK WIND RWY10 07003KT 340V150 PP000 TMAX 18.2=
SPZO Feb2006-272300Z 09002KT 9999 SCT043 SCT080 14/08 Q1027 NOSIG RMK PP000=
SPZO Feb2006-280000Z 00000KT 9999 FEW040TCU BKN060 13/08 Q1028 RMK PP000=
SPZO Feb2006-280100Z 00000KT 9999 BKN040 12/08 Q1029 RMK PP000=
SPZO Feb2006-280200Z 00000KT 9999 SCT040 12/09 Q1030 RMK PP000=
SPZO Feb2006-280300Z 00000KT 9999 FEW040 SCT050 12/08 Q1030 RMK PP000=
SPZO Feb2006-280400Z 00000KT 9999 SCT050 SCT100 11/08 Q1030 RMK PP000=
SPZO Feb2006-280500Z 10003KT 9999 FEW050 BKN100 10/08 Q1030 RMK PP000=
SPZO Feb2006-280600Z 00000KT 9999 SCT060 SCT100 10/08 Q1030 RMK PP000=
SPZO Feb2006-280700Z 00000KT 9999 SCT060 SCT150 10/08 Q1029 RMK PP000=
SPZO Feb2006-280800Z 00000KT 9999 FEW040 BKN060 10/08 Q1029 RMK PP000=
SPZO Feb2006-280900Z 00000KT 9999 FEW043 SCT060 BKN100 10/08 Q1028 RMK PP000=
SPZO Feb2006-281000Z 00000KT 9999 SCT040 BKN070 10/08 Q1029 RMK PP000=
SPZO Feb2006-281100Z 00000KT 9000 FEW040 SCT060 BKN200 10/08 Q1029 HZ RMK PP000=
SPZO Feb2006-281200Z VRB02KT 9000 SCT050 OVC150 10/08 Q1030 NOSIG RMK HZ PP000=
SPZO Feb2006-281300Z 00000KT 9999 SCT040 SCT150 BKN230 12/09 Q1031 NOSIG RMK PP000=
SPZO Feb2006-281400Z 00000KT 9999 SCT040 BKN230 14/07 Q1031 NOSIG RMK PP000=
SPZO Feb2006-281500Z VRB02KT 9999 SCT040 BKN230 16/07 Q1031 NOSIG RMK PP000=
SPZO Feb2006-281600Z VRB02KT 9999 SCT040 BKN060 16/06 Q1031 NOSIG RMK PP000 WIND RWY10 VRB03KT=
SPZO Feb2006-281700Z VRB02KT 9999 SCT040 BKN070 17/08 Q1030 NOSIG RMK PP000 WIND RWY10 VRB03KT=
SPZO Feb2006-281800Z 00000KT 9999 FEW040TCU SCT050 19/06 Q1028 NOSIG RMK PP000 RWY10 VRB03KT=
SPZO Feb2006-281900Z 27013KT 9000 VCRA SCT040TCU SCT050 18/07 Q1027 NOSIG RMK PP000 RWY10 29015KT 230V020=
SPZO Feb2006-282000Z 17004KT 100V190 9999 -RA FEW040TCU SCT050 BKN070 15/07 Q1026 TEMPO FM2025 NSW RMK PP014 RWY10 10005KT 050V130=
SPZO Feb2006-282100Z 10003KT 9999 VCSH SCT037TCU SCT047 BKN150 15/08 Q1026 TEMPO -RA RMK PP012 RWY10 12007KT 070V170=
SPZO Feb2006-282200Z 25005KT 180V290 9000 -RA SCT037TCU BKN047 14/08 Q1026 NOSIG RMK PPTRZ TMAX 20.0=
SPZO Feb2006-282300Z 26005KT 9999 SCT040 SCT080 13/09 Q1025 NOSIG RMK PPTRZ=
SPZO Mar2006-010000Z 28004KT 9999 BKN050 12/08 Q1028 RMK PP000=
SPZO Mar2006-010100Z 00000KT 9999 BKN050 11/08 Q1029 RMK PP000=
SPZO Mar2006-010200Z 00000KT 9999 BKN050 11/08 Q1030 RMK PP000=
SPZO Mar2006-010300Z 00000KT 9999 BKN050 11/08 Q1031 RMK PP000=
SPZO Mar2006-010400Z 00000KT 9999 BKN050 11/08 Q1031 RMK PP000=
SPZO Mar2006-010500Z 00000KT 9999 BKN046 12/08 Q1031 RMK PP000=
SPZO Mar2006-010600Z 10005KT 8000 -RA SCT036 BKN046 11/08 Q1031 RMK PPTRZ=
SPZO Mar2006-010700Z 00000KT 9000 FEW036 BKN046 10/08 Q1030 RERA RMK PP002=
SPZO Mar2006-010800Z 00000KT 9999 FEW036 BKN046 10/08 Q1030 RMK PP000=
SPZO Mar2006-010900Z 26006KT 180V280 9999 SCT040 BKN046 10/07 Q1030 RMK PP000=
SPZO Mar2006-011000Z 25005KT 9999 SCT040 BKN046 10/06 Q1030 RMK PP000=
SPZO Mar2006-011100Z 08002KT 9999 SCT036 BKN043 10/07 Q1031 RMK PP000=
SPZO Mar2006-011200Z 00000KT 9999 FEW033 BKN043 11/08 Q1032 NOSIG RMK PP000 RWY10 17004KT=
SPZO Mar2006-011300Z 00000KT 9999 FEW033 SCT043 BKN080 13/07 Q1033 NOSIG RMK PP000 RWY10 VRB03KT=
SPZO Mar2006-011400Z VRB02KT 9999 SCT033 BKN043 14/07 Q1033 NOSIG RMK PP000 RWY10 15008KT 060V190=
SPZO Mar2006-011500Z 00000KT 9999 SCT040 SCT070 16/06 Q1033 NOSIG RMK PP000=
SPZO Mar2006-011600Z 00000KT 9999 SCT043 17/09 Q1031 NOSIG RMK PP000=
SPZO Mar2006-011700Z VRB02KT 9999 SCT040TCU SCT050 19/04 Q1030 NOSIG RMK PP000 RWY10 00000KT=
SPZO Mar2006-011800Z 31011KT 270V350 9999 VCSH FEW040 SCT043CB BKN060 18/06 Q1029 NOSIG RMK WIND RWY10 32022G32KT 250V030 PP000=
SPZO Mar2006-011900Z 26007KT 9999 VCSH SCT043 SCT050 17/06 Q1028 NOSIG RMK RWY10 29012KT 240V350=
SPZO Mar2006-012000Z 10010KT 9999 FEW040 SCT043 SCT050 15/09 Q1028 TEMPO=
SPZO Mar2006-012100Z 10007KT 9999 FEW040 SCT043 18/09 Q1026 NOSIG RMK PP000 RWY10 18005G18KT=
SPZO Mar2006-012200Z 08003KT 9999 FEW040TCU SCT043 16/07 Q1026 RMK TEMPO=
SPZO Mar2006-012300Z 00000KT 9999 FEW040 SCT080 15/07 Q1027 NOSIG RMK PP000=
SPZO Mar2006-020000Z VRB03KT 9999 SCT050 14/07 Q1028 RMK PP000=
SPZO Mar2006-020100Z 26004KT 9999 SCT050 13/08 Q1029 RMK PP000=
SPZO Mar2006-020200Z 00000KT 9999 SCT050 11/08 Q1030 RMK PP000=
SPZO Mar2006-020300Z 00000KT 9999 SCT050 11/07 Q1031 RMK PP000=
SPZO Mar2006-020400Z 00000KT 9999 SCT050 11/08 Q1031 RMK PP000=
SPZO Mar2006-020500Z VRB02KT 9999 BKN050 11/08 Q1031 RMK PP000=
SPZO Mar2006-020600Z VRB02KT 9999 SCT036 BKN040 11/08 Q1031 RMK PP000=
SPZO Mar2006-020700Z VRB02KT 5000 +RA SCT033 BKN040 09/06 Q1031 RMK PP034=
SPZO Mar2006-020800Z VRB02KT 5000 RA SCT033 BKN040 09/07 Q1031 RMK PP010=
SPZO Mar2006-020900Z 10003KT 5000 RA SCT033 SCT040 08/07 Q1032 RMK PP018=
SPZO Mar2006-021000Z 00000KT 5000 +RA SCT030 SCT040 08/07 Q1032 RMK PP042=
SPZO Mar2006-021100Z 27002KT 7000 RA SCT030 SCT040 BKN043 08/07 Q1033 RMK PP012=
SPZO Mar2006-021200Z 00000KT 8000 -RA FEW030 SCT036 BKN046 08/06 Q1033 BECMG FM13 SCT036 BKN046 RMK CLNG BLW 1200M PP004=
SPZO Mar2006-021300Z VRB02KT 9999 -DZ FEW025 BKN080 10/07 Q1034 BCMG 1330 NSW RMK PP002=
SPZO Mar2006-021400Z VRB02KT 9999 FEW030 BKN080 13/07 Q1034 REDZ NOSIG RMK PPTRZ=
SPZO Mar2006-021500Z VRB02KT 9999 SCT040 BKN060 16/06 Q1034 NOSIG RMK PP000 RWY10 VRB04KT=
SPZO Mar2006-021600Z VRB03KT 9999 SCT040 BKN060 16/07 Q1033 NOSIG RMK PP000=
SPZO Mar2006-021700Z VRB03KT 9999 SCT043 BKN050 17/08 Q1032 NOSIG RMK PP000 RWY10 VRB03KT=
SPZO Mar2006-021800Z 25007KT 130V320 9999 SCT047TCU SCT200 18/07 Q1030 NOSIG RMK PP000 RWY10 VRB03KT=
SPZO Mar2006-021900Z 22009KT 190V350 9999 SCT043TCU SCT200 20/07 Q1028 NOSIG RMK PP000 RWY10 23010KT 170V340=
SPZO Mar2006-022000Z 28007KT 240V030 9999 VCSH SCT040TCU SCT200 19/05 Q1027 NOSIG RMK PP000 RWY10 30014KT 230V340=
SPZO Mar2006-022100Z 00000KT 9999 FEW040TCU SCT200 18/07 Q1026 NOSIG RMK PP000 RWY10 12007KT 070V150=
SPZO Mar2006-022200Z 35008KT 340V080 9999 SCT043 19/06 Q1025 NOSIG RMK PP000 RWY10 29010KT TMAX 20.6=
SPZO Mar2006-022300Z 00000KT 9999 FEW040TCU SCT050 17/07 Q1027 NOSIG RMK PP000=
SPZO Mar2006-030000Z 29006KT 9999 SCT050 16/08 Q1027 RMK PP000=
SPZO Mar2006-030100Z 32007KT 270V360 9999 SCT050 15/08 Q1028 RMK PP000=
SPZO Mar2006-030200Z 27007KT 250V360 9999 SCT046 14/08 Q1029 RMK PP000=
SPZO Mar2006-030300Z 02002KT 9999 -RA BKN046 SCT050 13/09 Q1030 RMK PP004=
SPZO Mar2006-030400Z 00000KT 9999 BKN046 SCT050 13/09 Q1031 RMK PP000=
SPZO Mar2006-030500Z 02006KT 9000 -RA BKN040 SCT043 12/08 Q1031 RMK PP002=
SPZO Mar2006-030600Z 00000KT 9000 -RA FEW030 BKN040 11/06 Q1031 RMK PP020=
SPZO Mar2006-030700Z 00000KT 8000 RA FEW030 OVC040 09/07 Q1032 RMK PP048=
SPZO Mar2006-030800Z 00000KT 8000 RA FEW030 OVC040 08/06 Q1031 RMK PP040=
SPZO Mar2006-030900Z 27003KT 8000 -RA FEW030 OVC040 08/05 Q1031 RMK PP012=
SPZO Mar2006-031000Z 27002KT 8000 -RA FEW030 OVC040 08/05 Q1031 RMK PP010=
SPZO Mar2006-031100Z 00000KT 8000 -RA FEW030 SCT035 BKN046 08/06 Q1032 RMK PP016 CLNG BLW 1200M=
SPZO Mar2006-031200Z 00000KT 9999 -RA FEW027 SCT037 BKN047 08/06 Q1033 BECMG FM13 SCT036 BKN046 RMK PP004 CLNG BLW 1200M=
SPZO Mar2006-031300Z VRB02KT 9000 -RA SCT027 SCT037 BKN050 08/06 Q1034 NOSIG RMK PP008 CLNG BLW 1200M=
SPZO Mar2006-031400Z 09006KT 7000 -RA FEW020 SCT033 BKN043 08/06 Q1035 NOSIG RMK PP004 CLNG BLW 1200M=
SPZO Mar2006-031500Z VRB02KT 8000 -RA FEW020 SCT036 BKN046 08/06 Q1036 NOSIG RMK PP012 CLNG BLW 1200M=
SPZO Mar2006-031600Z 10004KT 070V170 6000 RA SCT020 SCT030 BKN047 09/06 Q1036 BECMG FM17 9000 RMK PP014 CLNG BLW 1200M=
SPZO Mar2006-031700Z 10008KT 070V170 8000 -RA SCT020 SCT033 BKN047 10/07 Q1035 BECMG FM18 SCT036 BKN046 RMK PP004 RWY10 09010KT 070V140 CLNG BLW 1200M=
SPZO Mar2006-031800Z 11007KT 070V170 9999 SCT033 SCT046 BKN050 11/05 Q1034 NOSIG RMK WIND RWY10 10010KT 010V170 PPTRZ=
SPZO Mar2006-031900Z 00000KT 9999 SCT033 BKN100 14/06 Q1032 NOSIG RMK PP000=
SPZO Mar2006-032000Z VRB02KT 9999 SCT036 BKN100 14/06 Q1030 NOSIG RMK WIND RWY10 VRB02KT PP000=
SPZO Mar2006-032100Z VRB02KT 9999 FEW036 SCT046 BKN150 16/06 Q1029 NOSIG RMK PP000=
SPZO Mar2006-032200Z 10009KT 080V180 9999 FEW036 SCT050 BKN230 14/08 Q1028 NOSIG RMK PP000 TMAX 16.1=
SPZO Mar2006-032300Z 10006KT 080V170 9999 FEW043 SCT230 12/07 Q1029 NOSIG RMK PP000=
SPZO Mar2006-040000Z 10004KT 9999 FEW040 SCT200 11/07 Q1030 RMK PP000=
SPZO Mar2006-040100Z 00000KT 9999 SKC 10/07 Q1031 RMK PP000=
SPZO Mar2006-040200Z 00000KT 9999 SKC 09/07 Q1032 RMK PP000=
SPZO Mar2006-040300Z 00000KT 9999 SKC 09/07 Q1032 RMK PP000=
SPZO Mar2006-040400Z 00000KT 9999 SKC 09/07 Q1033 RMK PP000=
SPZO Mar2006-040500Z 00000KT 9999 SKC 07/06 Q1032 RMK PP000=
SPZO Mar2006-040600Z 00000KT 9999 SKC 07/06 Q1032 RMK PP000=
SPZO Mar2006-040700Z 00000KT 9999 SKC 07/06 Q1031 RMK PP000=
SPZO Mar2006-040800Z 00000KT 9999 SKC 07/05 Q1031 RMK PP000=
SPZO Mar2006-040900Z 00000KT 9999 FEW040 07/06 Q1031 RMK PP000=
SPZO Mar2006-041000Z 00000KT 9999 FEW020 SCT040 07/06 Q1031 RMK PP000=
SPZO Mar2006-041100Z 00000KT 9000 FEW037 SCT050 OVC100 07/06 Q1032 HZ RMK PP000=
SPZO Mar2006-041200Z 00000KT 8000 FEW025 SCT060 OVC100 08/06 Q1033 TEMPO 7000 RMK BR PP000=
SPZO Mar2006-041300Z VRB01KT 9000 FEW025 SCT080 OVC150 09/07 Q1034 NOSIG RMK BR PP000=
SPZO Mar2006-041400Z 00000KT 9999 FEW025 SCT060 OVC100 11/07 Q1034 NOSIG RMK PP000=
SPZO Mar2006-041500Z 00000KT 9999 FEW025 SCT100 BKN230 14/08 Q1033 NOSIG RMK PP000=
SPZO Mar2006-041600Z VRB03KT 9999 SCT043 OVC230 16/08 Q1033 NOSIG RMK PP000=
SPZO Mar2006-041700Z 08005KT 360V170 9999 SCT043 OVC230 17/06 Q1032 NOSIG RMK WIND RWY10 VRB06KT PP000=
SPZO Mar2006-041800Z 29003KT 250V020 9999 SCT050 BKN230 18/07 Q1030 NOSIG RMK PP000=
SPZO Mar2006-041900Z 00000KT 9999 SCT050 BKN230 20/05 Q1029 NOSIG RMK PP000=
SPZO Mar2006-042000Z 00000KT 9999 SCT050 BKN230 19/06 Q1028 NOSIG RMK PP000 RWY10 VRB04KT=
SPZO Mar2006-042100Z 09005KT 9999 TS FEW040CB SCT046 BKN100 17/08 Q1027 TEMPO VCSH RMK PP000 RWY10 VRB03KT=
SPZO Mar2006-042200Z 36006KT 270V020 9999 SCT046 BKN100 16/06 Q1027 NOSIG RMK PP000 RWY10 VRB03KT TX.19.6=
SPZO Mar2006-042300Z 34005KT 270V040 9999 SCT046 BKN100 16/07 Q1028 NOSIG RMK PP000=
SPZO Mar2006-050000Z VRB03KT 9999 BKN043 SCT080 14/08 Q1029 RMK PP000=
SPZO Mar2006-050100Z 00000KT 9999 BKN043 13/08 Q1030 RMK PP000=
SPZO Mar2006-050200Z 00000KT 9999 BKN043 13/09 Q1031 RMK PP000=
SPZO Mar2006-050300Z VRB02KT 9999 OVC043 13/09 Q1032 RMK PP000=
SPZO Mar2006-050400Z 00000KT 9999 OVC043 13/08 Q1032 RMK PP000=
SPZO Mar2006-050500Z 00000KT 9999 OVC043 12/08 Q1032 RMK PP000=
SPZO Mar2006-050600Z 00000KT 9999 OVC043 12/08 Q1032 RMK PP000=
SPZO Mar2006-050700Z 00000KT 9999 OVC043 12/07 Q1031 RMK PP000=
SPZO Mar2006-050800Z 00000KT 9999 BKN043 SCT046 11/08 Q1031 RMK PP000=
SPZO Mar2006-050900Z 00000KT 9999 SCT043 SCT046 11/08 Q1031 RMK PP000=
SPZO Mar2006-051000Z 00000KT 9999 SCT043 BKN046 11/08 Q1032 RMK PP000=
SPZO Mar2006-051100Z 00000KT 9999 SCT043 SCT080 11/08 Q1032 RMK PP000=
SPZO Mar2006-051200Z 00000KT 9999 SCT040 BKN230 10/07 Q1033 NOSIG RMK PP000 RWY10 29009=
SPZO Mar2006-051300Z 00000KT 9999 SCT040 BKN100 12/07 Q1034 NOSIG RMK PP000 RWY10 VRB02KT=
SPZO Mar2006-051400Z VRB02KT 9999 SCT040 BKN230 13/07 Q1034 NOSIG RMK PP000=
SPZO Mar2006-051500Z VRB01KT 9999 SCT040 BKN230 15/06 Q1034 NOSIG RMK PP000 RWY10 VRB05KT=
SPZO Mar2006-051600Z VRB02KT 9999 SCT040 BKN100 16/06 Q1034 NOSIG RMK PP000 RWY10 VRB04KT=
SPZO Mar2006-051700Z VRB02KT 9999 SCT043 SCT060 19/06 Q1033 NOSIG RMK PP000=
SPZO Mar2006-051800Z 13004KT 070V200 9999 SCT046 SCT060 19/06 Q1031 NOSIG RMK PP000=
SPZO Mar2006-051900Z 10006KT 020V190 9999 SCT046 SCT060 20/09 Q1030 NOSIG RMK PP000 RWY10 07007KT 360V140=
SPZO Mar2006-052000Z 10008KT 080V170 9999 FEW040TCU BKN046 18/05 Q1029 TEMPO VCSH RMKPP000=
SPZO Mar2006-052100Z VRB03KT 9999 FEW040 BKN230 19/06 Q1028 NOSIG RMK PP000=
SPZO Mar2006-052200Z VRB04KT 9999 FEW040 BKN230 19/05 Q1028 NOSIG RMK PP000 TX.20.5=
SPZO Mar2006-052300Z 02011KT 320V080 9999 SCT046 BKN230 17/05 Q1029 NOSIG RMK PP000=
SPZO Mar2006-060000Z VRB03KT 9999 BKN046 15/04 Q1030 RMK PP000=
SPZO Mar2006-060100Z 11005KT 090V170 9999 BKN046 14/05 Q1031 RMK PP000=
SPZO Mar2006-060200Z 00000KT 9999 BKN046 12/06 Q1032 RMK PP000=
SPZO Mar2006-060300Z 00000KT 9999 BKN046 11/06 Q1033 RMK PP000=
SPZO Mar2006-060400Z 00000KT 9999 BKN046 11/07 Q1033 RMK PP000=
SPZO Mar2006-060500Z 00000KT 9999 BKN046 11/06 Q1032 RMK PP000=
SPZO Mar2006-060600Z 00000KT 9999 BKN046 10/07 Q1032 RMK PP000=
SPZO Mar2006-060700Z 00000KT 9999 BKN046 10/07 Q1032 RMK PP000=
SPZO Mar2006-060800Z 00000KT 9999 BKN046 09/07 Q1032 RMK PP000=
SPZO Mar2006-060900Z VRB02KT 9999 BKN046 SCT050 09/07 Q1032 RMK PP000=
SPZO Mar2006-061000Z VRB02KT 9999 SCT046 SCT050 09/07 Q1032 RMK PP000=
SPZO Mar2006-061100Z 00000KT 8000 SCT050 SCT080 09/07 Q1033 RMK HZ PP000=
SPZO Mar2006-061200Z 28003KT 9999 FEW040 BKN080 10/07 Q1033 NOSIG RMK PP000=
SPZO Mar2006-061300Z 10003KT 070V180 9999 FEW050 BKN200 13/07 Q1034 NOSIG RMK PP000 RWY10 11009KT=
SPZO Mar2006-061400Z 07003KT 350V150 9999 FEW036 SCT200 15/07 Q1034 NOSIG RMK PP000=
SPZO Mar2006-061500Z VRB02KT 9999 SCT040 18/07 Q1033 NOSIG RMK PP000 RWY10 VRB09KT=
SPZO Mar2006-061600Z VRB03KT 9999 SCT046 18/06 Q1032 NOSIG RMK PP000 RWY10 VRB06KT=
SPZO Mar2006-061700Z VRB05KT 9999 SCT046 20/05 Q1031 NOSIG RMK PP000 RWY10 VRB7G20KT=
SPZO Mar2006-061800Z 01013KT 280V070 9999 SCT050 21/05 Q1029 NOSIG RMK PP000 RWY10 02013KT 270V050=
SPZO Mar2006-061900Z 35009KT 340V070 9999 SCT050 22/03 Q1028 NOSIG RMK PP000 RWY10 03020KT 330V110=
SPZO Mar2006-062000Z 02009KT 350V070 9999 FEW050 SCT200 21/02 Q1027 NOSIG RMK PP000 RWY10 06008KT 360V120=
SPZO Mar2006-062100Z 04010KT 350V080 9999 FEW050 BKN200 21/04 Q1027 NOSIG RMK PP000 RWY10 02016KT 320V100=
SPZO Mar2006-062200Z 03006KT 9999 FEW047 BKN200 20/05 Q1026 NOSIG RMK PP000 TMAX 22.5=
SPZO Mar2006-062300Z 15005KT 9999 FEW040 BKN200 17/05 Q1028 NOSIG RMK PP000=
SPZO Mar2006-070000Z 10007KT 9999 FEW050 15/05 Q1029 RMK PP000=
SPZO Mar2006-070100Z VRB02KT 9999 FEW050 15/06 Q1030 RMK PP000=
SPZO Mar2006-070200Z 00000KT 9999 FEW050 SCT060 15/06 Q1031 RMK PP000=
SPZO Mar2006-070300Z 00000KT 9999 FEW050 SCT060 13/07 Q1031 RMK PP000=
SPZO Mar2006-070400Z 00000KT 9999 FEW046 SCT060 11/08 Q1031 RMK PP000=
SPZO Mar2006-070500Z 00000KT 9999 FEW046 SCT060 11/07 Q1031 RMK PP000=
SPZO Mar2006-070600Z 00000KT 9999 FEW046 SCT060 11/07 Q1031 RMK PP000=
SPZO Mar2006-070700Z 00000KT 9999 SCT046 BKN060 12/08 Q1030 RMK PP000=
SPZO Mar2006-070800Z 00000KT 9999 SCT040 BKN050 11/08 Q1030 RMK RERA PP002=
SPZO Mar2006-070900Z 00000KT 9999 SCT040 SCT050 11/08 Q1030 RMK PP000=
SPZO Mar2006-071000Z 09010KT 8000 FEW030 OVC046 10/07 Q1032 RMK RERA PP004=
SPZO Mar2006-071100Z 08004KT 070V190 9999 -RA SCT030 BKN046 09/07 Q1032 RMK PP004=
SPZO Mar2006-071200Z 09002KT 9999 FEW040 SCT050 BKN070 09/07 Q1033 NOSIG RMK PPTRZ=
SPZO Mar2006-071300Z 00000KT 9999 FEW040 BKN150 12/06 Q1034 NOSIG RMK PP000=
SPZO Mar2006-071400Z 00000KT 9999 FEW040 BKN100 13/07 Q1034 NOSIG RMK PP000=
SPZO Mar2006-071500Z 00000KT 9999 SCT043 SCT100 16/06 Q1033 NOSIG RMK PP000=
SPZO Mar2006-071600Z 00000KT 9999 SCT043 SCT100 18/06 Q1032 NOSIG RMK PP000=
SPZO Mar2006-071700Z 00000KT 9999 SCT043 SCT100 20/07 Q1031 NOSIG RMK PP000=
SPZO Mar2006-071800Z VRB06KT 9999 BKN046 20/06 Q1030 NOSIG RMK PP000 RWY10 11015KT=
SPZO Mar2006-071900Z VRB03KT 9999 FEW033 BKN046 20/04 Q1029 NOSIG RMK WIND RWY10 27015KT 220V310 PP000=
SPZO Mar2006-072000Z 29009KT 250V360 9999 FEW033 BKN046 21/06 Q1027 NOSIG RMK WIND RWY10 31016G28KT 240V030 PP000=
SPZO Mar2006-072100Z 29016KT 260V350 9999 BKN046 19/07 Q1026 NOSIG RMK PP000 WIND RWY10 32019G30KT 260V030 PP000=
SPZO Mar2006-072200Z 28013KT 260V350 9999 SCT046 SCT150 18/07 Q1026 NOSIG RMK WIND RWY10 30022KT 260V360 PP000 TMAX 21.6=
SPZO Mar2006-072300Z 29013KT 260V350 9999 SCT046 SCT150 17/06 Q1027 NOSIG RMK PP000=
SPZO Mar2006-080000Z 28013KT 9999 FEW060 SCT200 15/07 Q1028 RMK PP000=
SPZO Mar2006-080100Z 28006KT 9999 SCT200 14/07 Q1029 RMK PP000=
SPZO Mar2006-080200Z 28009KT 9999 FEW080 13/07 Q1030 RMK PP000=
SPZO Mar2006-080300Z 26008KT 9999 SKC 13/06 Q1030 RMK PP000=
SPZO Mar2006-080400Z 00000KT 9999 SKC 11/07 Q1031 RMK PP000=
SPZO Mar2006-080500Z 00000KT 9999 FEW020 10/06 Q1031 RMK PP000=
SPZO Mar2006-080600Z 00000KT 9999 FEW040 09/06 Q1031 RMK PP000=
SPZO Mar2006-080700Z 00000KT 9999 FEW040 08/06 Q1030 RMK PP000=
SPZO Mar2006-080800Z 00000KT 9999 FEW100 08/05 Q1030 RMK PP000=
SPZO Mar2006-080900Z 00000KT 9999 FEW080 08/05 Q1030 RMK PP000=
SPZO Mar2006-081000Z 00000KT 9999 SCT047 08/06 Q1031 RMK PP000=
SPZO Mar2006-081100Z 00000KT 9999 SCT050 SCT200 08/06 Q1031 RMK PP000=
SPZO Mar2006-081200Z 00000KT 9999 SCT050 SCT230 10/07 Q1032 NOSIG RMK PP000=
SPZO Mar2006-081300Z VRB02KT 9999 FEW046 SCT230 13/08 Q1032 NOSIG RMK PP000=
SPZO Mar2006-081400Z VRB02KT 9999 FEW046 16/08 Q1033 NOSIG RMK PP000=
SPZO Mar2006-081500Z VRB02KT 9999 SCT046 19/07 Q1032 NOSIG RMK PP000=
SPZO Mar2006-081600Z VRB04KT 9999 SCT050 20/04 Q1031 NOSIG RMK WIND RWY10 VRB05KT PP000=
SPZO Mar2006-081700Z VRB04KT 9999 SCT050 21/04 Q1029 NOSIG RMK WIND RWY10 10010KT 330V140 PP000=
SPZO Mar2006-081800Z 04007KT 340V110 9999 BKN050 22/04 Q1029 NOSIG RMK PP000 RWY10 34012G24KT=
SPZO Mar2006-081900Z 05007KT 340V110 9999 BKN050 22/02 Q1027 NOSIG RMK PP000 RWY10 VRB07G20KT=
SPZO Mar2006-082000Z 05004KT 340V110 9999 BKN050 22/03 Q1026 NOSIG RMK PP000 RWY10 VRB03KT=
SPZO Mar2006-082100Z 19006KT 160V280 9999 BKN050 19/05 Q1025 NOSIG RMK PP000 RWY10 20020G31KT 160V250=
SPZO Mar2006-082200Z VRB06KT 9999 SCT050 SCT080 20/04 Q1025 NOSIG RMK PP000 RWY10 VRB08KT TX.22.9=
SPZO Mar2006-082300Z 01008KT 340V080 9999 FEW050 18/04 Q1025 NOSIG RMK PP000 RWY10 VRB07KT=
SPZO Mar2006-090000Z 28008KT 250V350 9999 SCT050 16/05 Q1026 RMK PP000=
SPZO Mar2006-090100Z 00000KT 9999 SCT050 15/06 Q1027 RMK PP000=
SPZO Mar2006-090200Z 00000KT 9999 SCT050 14/06 Q1028 RMK PP000=
SPZO Mar2006-090300Z 00000KT 9999 SCT050 12/06 Q1029 RMK PP000=
SPZO Mar2006-090400Z 00000KT 9999 SCT050 11/06 Q1029 RMK PP000=
SPZO Mar2006-090500Z 00000KT 9999 BKN050 10/06 Q1029 RMK PP000=
SPZO Mar2006-090600Z 00000KT 9999 BKN050 11/07 Q1029 RMK PP000=
SPZO Mar2006-090700Z 00000KT 9999 BKN050 10/07 Q1029 RMK PP000=
SPZO Mar2006-090800Z 00000KT 9999 BKN050 09/06 Q1028 RMK PP000=
SPZO Mar2006-090900Z 00000KT 9999 BKN050 09/06 Q1028 RMK PP000=
SPZO Mar2006-091000Z 10003KT 9999 BKN050 08/06 Q1029 RMK PP000=
SPZO Mar2006-091100Z 00000KT 9999 SCT050 SCT100 08/06 Q1030 RMK PP000=
SPZO Mar2006-091200Z VRB02KT 9999 SCT050 BKN080 09/06 Q1031 NOSIG RMK PP000 RWY10 12007KT=
SPZO Mar2006-091300Z 10006KT 070V180 9999 FEW040 BKN080 10/07 Q1031 NOSIG RMK PP000 RWY10 10012KT 040V150=
SPZO Mar2006-091400Z 00000KT 9999 FEW040 BKN080 14/08 Q1032 NOSIG RMK PP000 RWY10 VRB03KT=
SPZO Mar2006-091500Z 27003KT 180V340 9999 FEW050 BKN150 15/06 Q1031 NOSIG RMK PP000 RWY10 00000KT=
SPZO Mar2006-091600Z VRB03KT 9999 FEW050 BKN230 18/05 Q1031 NOSIG RMK PP000 RWY10 VRB07KT=
SPZO Mar2006-091700Z VRB04KT 9999 FEW050 BKN230 20/04 Q1030 NOSIG RMK PP000 RWY10 01013G30KT 300V110=
SPZO Mar2006-091800Z VRB08KT 9999 SCT050 21/03 Q1028 NOSIG RMK PP000 RWY10 VRB13KT=
SPZO Mar2006-091900Z 07009KT 340V090 9999 SCT050 SCT230 21/03 Q1027 NOSIG RMK PP000 RWY10 VRB11KT=
SPZO Mar2006-092000Z 07015KT 330V090 9999 FEW043TCU SCT060 20/04 Q1026 TEMPO VCSH RMK PP000 RWY10 VRB24G41=
SPZO Mar2006-092100Z 01016G27KT 330V080 9999 FEW046TCU BKN060 18/04 Q1026 TEMPO VCSH RMK PP000 RWY10 02026G52KT 330V090=
SPZO Mar2006-092200Z 11008KT 340V090 9999 FEW050 BKN080 17/02 Q1026 NOSIG RMK PP000 REWY10 VRB11KT TX.22.0=
SPZO Mar2006-092300Z 07009KT 340V090 9999 BKN060 16/03 Q1026 NOSIG RMK PP000=
SPZO Mar2006-100000Z VRB02KT 9999 BKN050 15/03 Q1027 RMK PP000=
SPZO Mar2006-100100Z 10006KT 090V170 9999 BKN050 12/04 Q1028 RMK PP000=
SPZO Mar2006-100200Z 00000KT 9999 BKN050 12/05 Q1029 RMK PP000=
SPZO Mar2006-100300Z 00000KT 9999 SCT050 10/05 Q1030 RMK PP000=
SPZO Mar2006-100400Z 27003KT 9999 SCT050 09/05 Q1030 RMK PP000=
SPZO Mar2006-100500Z 00000KT 9999 SCT050 09/04 Q1031 RMK PP000=
SPZO Mar2006-100600Z 00000KT 9999 SCT050 08/05 Q1030 RMK PP000=
SPZO Mar2006-100700Z 00000KT 9999 SCT050 08/05 Q1030 RMK PP000=
SPZO Mar2006-100800Z 00000KT 9999 SCT050 07/04 Q1030 RMK PP000=
SPZO Mar2006-100900Z VRB02KT 9999 SCT050 SCT100 08/05 Q1030 RMK PP000=
SPZO Mar2006-101000Z 00000KT 9999 SCT050 SCT100 08/05 Q1031 RMK PP000=
SPZO Mar2006-101100Z 00000KT 9999 SCT050 SCT100 08/05 Q1032 RMK PP000=
SPZO Mar2006-101200Z 00000KT 9999 FEW040 SCT230 09/05 Q1033 NOSIG RMK PP000=
SPZO Mar2006-101300Z 00000KT 9999 FEW046 SCT230 13/06 Q1033 NOSIG RMK PP000=
SPZO Mar2006-101400Z VRB03KT 9999 SCT050 SCT230 14/06 Q1034 NOSIG RMK PP000 RWY10 12008KT=
SPZO Mar2006-101500Z VRB02KT 9999 FEW050 SCT230 17/05 Q1033 NOSIG RMK PP000 RWY10 VRB05KT=
SPZO Mar2006-101600Z VRB04KT 9999 FEW050 SCT230 18/02 Q1033 NOSIG RMK PP000 RWY10 VRB06KT=
SPZO Mar2006-101700Z VRB03KT 9999 SCT050 SCT230 20/03 Q1032 NOSIG RMK PP000 RWY10 VRB05KT=
SPZO Mar2006-101800Z VRB04KT 9999 SCT050 SCT200 21/00 Q1030 NOSIG RMK PP000 RWY10 VRB09KT=
SPZO Mar2006-101900Z 00000KT 9999 SCT050 SCT200 22/M01 Q1028 NOSIG RMK PP000 RWY10 03010KT 310V080=
SPZO Mar2006-102000Z VRB05KT 9999 SCT050 SCT200 22/02 Q1026 NOSIG RMK PP000 RWY10 15009KT 070V210=
SPZO Mar2006-102100Z VRB03KT 010V160 9999 SCT050 SCT200 22/01 Q1026 NOSIG RMK PP000 RWY10 VRB05KT=
SPZO Mar2006-102200Z 10005KT 9999 FEW050 SCT200 21/01 Q1025 NOSIG RMK PP000 TMAX 23.0=
SPZO Mar2006-102300Z 01004KT 9999 SCT200 19/05 Q1025 NOSIG RMK PP000=
SPZO Mar2006-110000Z 05004KT 340V110 9999 FEW050 SCT200 17/06 Q1027 RMK PP000=
SPZO Mar2006-110100Z 10008KT 060V180 9999 SCT046 BKN050 16/07 Q1029 RMK PP000=
SPZO Mar2006-110200Z VRB03KT 8000 -RA OVC040 14/08 Q1030 RMK PP002=
SPZO Mar2006-110300Z VRB01KT 8000 -RA OVC040 14/08 Q1030 RMK PP004=
SPZO Mar2006-110400Z 00000KT 8000 FEW030 BKN040 13/09 Q1031 RMK PP000=
SPZO Mar2006-110500Z 08003KT 9999 BKN040 SCT046 13/08 Q1030 RMK PP000=
SPZO Mar2006-110600Z 17002KT 9999 SCT040 SCT046 13/08 Q1030 RMK PP000=
SPZO Mar2006-110700Z VRB02KT 9999 SCT040 SCT046 13/07 Q1029 RMK PP000=
SPZO Mar2006-110800Z 34008KT 9999 -RA SCT040 BKN046 12/06 Q1030 RMK PP008=
SPZO Mar2006-110900Z VRB05KT 150V280 8000 -TSRA SCT040CB BKN046 11/06 Q1030 RMK PP012=
SPZO Mar2006-111000Z VRB06KT 8000 -RA SCT040 BKN046 10/05 Q1031 RMK PP024=
SPZO Mar2006-111100Z 04008KT 270V070 8000 -RA FEW030 OVC040 09/04 Q1032 RMK CLNG BLW 1200M PP002=
SPZO Mar2006-111200Z 00000KT 9999 FEW033 SCT060 OVC080 09/05 Q1033 NOSIG RMK PPTRZ RWY10 06004KT=
SPZO Mar2006-111300Z 06003KT 9999 SCT040 OVC100 11/06 Q1034 NOSIG RMK PP000 RWY10 13003KT=
SPZO Mar2006-111400Z 10004KT 070V170 9999 FEW037 SCT050 OVC150 11/06 Q1034 NOSIG RMK PP000 RWY10 15005KT 090V220=
SPZO Mar2006-111500Z 08003KT 020V160 9999 SCT043 SCT100 BKN200 13/05 Q1034 NOSIG RMK PP000 RWY10 11014KT 010V150=
SPZO Mar2006-111600Z VRB02KT 9999 SCT047 SCT100 BKN200 14/05 Q1033 NOSIG RMK PP000 RWY10 VRB04KT=
SPZO Mar2006-111700Z VRB02KT 9999 FEW047 SCT150 BKN200 16/06 Q1032 NOSIG RMK PP000 RWY10 VRB04KT=
SPZO Mar2006-111800Z VRB02KT 9999 SCT050 SCT100 18/08 Q1030 TEMPO VCSH RMK PP000=
SPZO Mar2006-111900Z VRB04KT 9999 SCT050 SCT100 18/06 Q1029 NOSIG RMK PP000=
SPZO Mar2006-112000Z VRB05KT 9999 SCT050 20/05 Q1028 NOSIG RMK WIND RWY10 VRB05G14KT PP000=
SPZO Mar2006-112100Z 02010KT 340V080 9999 BKN050 19/03 Q1026 NOSIG RMK PP000 WIND RWY10 02011G21KT 320V100=
SPZO Mar2006-112200Z VRB06KT 9999 BKN050 18/04 Q1027 NOSIG RMK WIND RWY10 VRB12KT PP000 TMAX 19.8=
SPZO Mar2006-112300Z VRB04KT 9000 -RA SCT040 BKN050 13/08 Q1028 NOSIG RMK PP006=
SPZO Mar2006-120000Z 10007KT 9999 SCT040 BKN200 11/08 Q1029 RMK PPTRZ=
SPZO Mar2006-120100Z 00000KT 9999 FEW037 SCT047 BKN200 12/07 Q1030 RMK PP000=
SPZO Mar2006-120200Z 10004KT 9999 FEW040 BKN200 11/07 Q1031 RMK PP000=
SPZO Mar2006-120300Z 00000KT 9999 FEW060 BKN200 10/08 Q1031 RMK PP000=
SPZO Mar2006-120400Z 00000KT 9999 FEW050 BKN120 11/08 Q1031 RMK PP000=
SPZO Mar2006-120500Z 00000KT 9999 FEW050 BKN100 10/08 Q1031 RMK PP000=
SPZO Mar2006-120600Z 00000KT 9999 SCT050 SCT100 10/07 Q1030 RMK PP000=
SPZO Mar2006-120800Z 00000KT 9999 SCT040 SCT080 09/07 Q1030 RMK PP000=
SPZO Mar2006-120900Z 00000KT 9999 FEW040 SCT150 09/07 Q1030 RMK PP000=
SPZO Mar2006-121000Z 09003KT 9999 SCT043 08/06 Q1030 RMK PP000=
SPZO Mar2006-121100Z 00000KT 9999 FEW027 SCT200 08/06 Q1030 RMK PP000=
SPZO Mar2006-121200Z 00000KT 9999 SCT026 SCT040 10/07 Q1031 NOSIG RMK PP000=
SPZO Mar2006-121300Z 00000KT 9999 FEW026 SCT040 13/08 Q1032 NOSIG RMK PP000=
SPZO Mar2006-121400Z VRB02KT 9999 FEW033 15/08 Q1032 NOSIG RMK PP000=
SPZO Mar2006-121500Z VRB04KT 9999 SCT036 16/07 Q1031 NOSIG RMK PP000=
SPZO Mar2006-121600Z 08005KT 360V170 9999 SCT040 18/06 Q1030 NOSIG RMK=
SPZO Mar2006-121700Z 11004KT 080V190 9999 SCT050 19/05 Q1029 NOSIG RMK=
SPZO Mar2006-121800Z 02008KT 340V080 9999 SCT050 21/04 Q1027 NOSIG RMK PP000 RWY10 VRB11KT=
SPZO Mar2006-121900Z 35008KT 270V020 9999 SCT050 21/01 Q1026 NOSIG RMK PP000 RWY10 VRB10KT=
SPZO Mar2006-122000Z 01010KT 340V080 9999 SCT050 BKN230 21/02 Q1025 NOSIG RMK PP000 RWY10 04017G31KT 320V100=
SPZO Mar2006-122100Z 02013KT 340V080 9999 SCT050 BKN230 19/M02 Q1024 NOSIG RMK PP000 RWY10 VRB17G110KT=
SPZO Mar2006-122200Z 02013KT 350V080 9999 FEW050 BKN230 19/01 Q1024 NOSIG RMK PP000 RWY10 VRB17G30KT TX.21.8=
SPZO Mar2006-122300Z 01010KT 340V080 9999 FEW050 BKN230 18/01 Q1024 NOSIG RMK PP000 RWY10 VRB16G32KT=
SPZO Mar2006-130000Z VRB03KT 9999 SCT050 SCT230 15/01 Q1025 RMK PP000=
SPZO Mar2006-130100Z VRB05KT 9999 BKN050 14/02 Q1026 RMK PP000=
SPZO Mar2006-130200Z 00000KT 9999 BKN050 12/03 Q1028 RMK PP000=
SPZO Mar2006-130300Z VRB03KT 9999 BKN050 12/04 Q1029 RMK PP000=
SPZO Mar2006-130400Z 00000KT 9999 BKN050 12/06 Q1029 RMK PP000=
SPZO Mar2006-130500Z 00000KT 9999 BKN050 12/05 Q1029 RMK PP000=
SPZO Mar2006-130600Z 10008KT 080V170 9999 BKN050 11/06 Q1028 RMK PP000=
SPZO Mar2006-130700Z 07004KT 360V100 9999 OVC050 11/06 Q1028 RMK PP000=
SPZO Mar2006-130800Z 00000KT 9999 OVC050 10/06 Q1028 RMK PP000=
SPZO Mar2006-130900Z VRB02KT 9999 BKN050 SCT060 10/06 Q1028 RMK PP000=
SPZO Mar2006-131000Z 00000KT 9999 BKN050 SCT060 10/06 Q1028 RMK PP000=
SPZO Mar2006-131100Z 00000KT 9999 FEW040 SCT050 BKN060 09/06 Q1028 RMK PP000=
SPZO Mar2006-131200Z VRB02KT 9999 SCT046 BKN080 10/07 Q1029 NOSIG RMK PP000=
SPZO Mar2006-131300Z 00000KT 9999 FEW033 BKN060 11/07 Q1030 NOSIG RMK PP000 RWY10 00000KT=
SPZO Mar2006-131400Z 08005KT 010V170 9999 FEW033 SCT060 BKN080 13/06 Q1030 NOSIG RMK PP000 RWY10 09004KT 040V150=
SPZO Mar2006-131500Z 00000KT 9999 FEW037 SCT050 BKN100 15/06 Q1030 NOSIG RMK PP000 RWY10 00000KT=
SPZO Mar2006-131600Z 00000KT 9999 FEW037TCU SCT050 BKN200 17/05 Q1029 NOSIG RMK PP000 RWY10 00000KT=
SPZO Mar2006-131700Z VRB08KT 9999 FEW037TCU SCT050 20/06 Q1028 NOSIG RMK PP000 RWY10 14006KT 080V200=
SPZO Mar2006-131800Z 19006KT 090V260 9999 FEW043TCU BKN046 18/05 Q1026 TEMPO VCSH RMK PP000 RWY10 16014KT 120V200=
SPZO Mar2006-131900Z VRB04KT 9999 FEW043TCU SCT050 20/05 Q1025 TEMPO VCSH RMK PP000 RWY10 VRB09KT=
SPZO Mar2006-132000Z 26008KT 180V340 9999 FEW043TCU SCT050 20/05 Q1023 NOSIG RMK PP000 RWY10 VRB11KT=
SPZO Mar2006-132100Z 01012KT 360V090 9999 FEW043TCU SCT050 18/05 Q1023 NOSIG RMK RWY10 02010G28KT PP000=
SPZO Mar2006-132200Z 01009KT 340V080 9999 VCSH FEW043TCU SCT050 19/05 Q1023 TEMPO 9000 RMK PP000 RWY10 020/11G25KT TX.21.3=
SPZO Mar2006-132300Z 00000KT 9999 VCSH FEW043TCU BKN050 14/08 Q1024 NOSIG RMK PP062 RWY10 VRB04KT=
SPZO Mar2006-140000Z VRB02KT 9999 FEW060 SCT200 14/07 Q1024 RMK PP006=
SPZO Mar2006-140100Z VRB02KT 9999 SCT050 13/08 Q1026 RMK PP000=
SPZO Mar2006-140200Z 00000KT 9999 SCT050 11/08 Q1027 RMK PP000=
SPZO Mar2006-140300Z 10004KT 9999 SCT050 10/07 Q1027 RMK PP000=
SPZO Mar2006-140400Z 19002KT 9999 SCT050 11/08 Q1028 RMK PP000=
SPZO Mar2006-140500Z 00000KT 9999 SCT050 10/08 Q1027 RMK PP000=
SPZO Mar2006-140600Z 00000KT 9999 BKN050 10/07 Q1027 RMK PP000=
SPZO Mar2006-140700Z 00000KT 9999 BKN050 10/08 Q1026 RMK PP000=
SPZO Mar2006-140800Z 08002KT 9999 BKN050 10/08 Q1026 RMK PP000=
SPZO Mar2006-140900Z 00000KT 9999 BKN050 SCT060 10/07 Q1026 RMK PP000=
SPZO Mar2006-141000Z 00000KT 9999 BKN050 SCT060 10/07 Q1026 RMK PP000=
SPZO Mar2006-141100Z 10002KT 9999 FEW040 SCT050 BKN060 10/07 Q1027 RMK PP000=
SPZO Mar2006-141200Z 00000KT 9999 SCT050 BKN080 11/08 Q1028 NOSIG RMK PP000=
SPZO Mar2006-141300Z 08003KT 360V110 9999 FEW043 SCT050 BKN080 11/07 Q1029 NOSIG RMK PP000 RWY10 10008KT 040V140=
SPZO Mar2006-141400Z 00000KT 9999 FEW043 SCT050 BKN080 14/07 Q1029 NOSIG RMK PP000 RWY10 VRB02KT=
SPZO Mar2006-141500Z VRB02KT 9999 FEW040 SCT046 BKN060 16/08 Q1029 NOSIG RMK PP000 RWY10 VRB05KT=
SPZO Mar2006-141600Z VRB03KT 9999 SCT040 SCT060 17/07 Q1029 NOSIG RMK PP000 RWY10 VRB05KT=
SPZO Mar2006-141700Z VRB03KT 9999 FEW043TCU SCT046 18/05 Q1028 TEMPO VCSH RMK PP000 RWY10 VRB08KT=
SPZO Mar2006-141800Z 00000KT 9999 BKN050 19/04 Q1027 NOSIG RMK PP000 RMY10 VRB04KT=
SPZO Mar2006-141900Z VRB08KT 9999 SCT050 20/03 Q1025 NOSIG RMK PP000 RWY10 05014KT 340V100=
SPZO Mar2006-142000Z 01010KT 350V080 9999 SCT040TCU SCT050 19/04 Q1024 TEMPO VCSH RMK PP000 RWY10 05020KT 350V110=
SPZO Mar2006-142100Z 17007KT 100V190 9999 SCT037TCU SCT050 18/05 Q1024 TEMPO VCSH RMK PP000 RWY10 04008KT=
SPZO Mar2006-142200Z 19005KT 120V260 9999 SCT037TCU SCT047 17/06 Q1025 TEMPO VCSH RMK PP000 RWY10 17006KT 130V230 TMAX 20.9=
SPZO Mar2006-142300Z 10012KT 020V170 9999 SCT037TCU SCT047 BKN200 14/07 Q1026 NOSIG RMK PP000 RWY10 17012KT=
SPZO Mar2006-150000Z 10007KT 090V180 9999 FEW040TCU SCT046 BKN200 12/06 Q1027 RMK PP000=
SPZO Mar2006-150100Z 00000KT 9999 SCT050 BKN230 12/06 Q1028 RMK PP000=
SPZO Mar2006-150200Z 00000KT 9999 SCT050 BKN230 10/07 Q1029 RMK PP000=
SPZO Mar2006-150300Z 00000KT 9999 SCT050 BKN230 11/07 Q1030 RMK PP000=
SPZO Mar2006-150400Z 10003KT 090V180 9999 SCT046 SCT080 11/07 Q1030 RMK PP000=
SPZO Mar2006-150500Z 12002KT 090V180 9999 BKN046 SCT080 11/07 Q1030 RMK PP000=
SPZO Mar2006-150600Z 00000KT 9999 BKN046 SCT080 09/07 Q1030 RMK PP000=
SPZO Mar2006-150700Z 00000KT 9999 BKN046 SCT080 09/07 Q1030 RMK PP000=
SPZO Mar2006-150800Z 00000KT 9999 BKN046 SCT080 09/07 Q1029 RMK PP000=
SPZO Mar2006-150900Z 00000KT 9999 BKN046 SCT080 09/07 Q1029 RMK PP000=
SPZO Mar2006-151000Z 13002KT 090V180 9999 SCT046 SCT080 08/07 Q1029 RMK PP000=
SPZO Mar2006-151100Z 00000KT 9999 FEW030 SCT046 BKN080 07/06 Q1029 RMK PP000=
SPZO Mar2006-151200Z 00000KT 9999 FEW030 SCT047 BKN200 10/07 Q1030 NOSIG RMK PP000 RWY10 15005KT=
SPZO Mar2006-151300Z 00000KT 9999 SCT033 SCT200 12/08 Q1031 NOSIG RMK PP000 RWY10 12003KT=
SPZO Mar2006-151400Z VRB03KT 9999 SCT040 13/07 Q1031 NOSIG RMK PP000 RWY10 07010KT 020V150=
SPZO Mar2006-151500Z VRB06KT 9999 BKN047 16/07 Q1031 NOSIG RMK PP000 RWY10 VRB02KT=
SPZO Mar2006-151600Z 05011KT 360V170 9999 SCT047 SCT060 17/06 Q1031 NOSIG RMK PP000 RWY10 04007KT 340V110=
SPZO Mar2006-151700Z 02009KT 340V080 9999 SCT040 SCT050 16/03 Q1030 NOSIG RMK PP000 RWY10 01018KT 280V060=
SPZO Mar2006-151800Z 36008KT 280V080 9999 SCT050 SCT100 19/04 Q1028 NOSIG RMK WIND RWY10 01016G28KT 270V080 PP000=
SPZO Mar2006-151900Z 36012KT 340V080 9999 SCT050 19/02 Q1027 NOSIG RMK=
SPZO Mar2006-152000Z 01011KT 340V080 9999 SCT050 SCT230 19/01 Q1026 NOSIG RMK WIND RWY10 06019G31KT 360V120 PP000=
SPZO Mar2006-152100Z 01009KT 340V080 9999 SCT050 SCT230 19/03 Q1025 NOSIG RMK WIND RWY10 05018G28KT 340V120 PP000=
SPZO Mar2006-152200Z 01014KT 340V080 9999 SCT050 SCT230 17/04 Q1025 NOSIG RMK WIND RWY10 02017G30KT 290V100 PP000 TMAX 19.9=
SPZO Mar2006-152300Z VRB03KT 9999 BKN050 16/03 Q1026 NOSIG RMK PP000=
SPZO Mar2006-160000Z 14005KT 9999 SCT040 SCT200 14/04 Q1027 RMK PP000=
SPZO Mar2006-160100Z 13004KT 9999 FEW040 SCT200 13/05 Q1029 RMK PP000=
SPZO Mar2006-160200Z 00000KT 9999 SCT050 BKN200 12/05 Q1030 RMK PP000=
SPZO Mar2006-160300Z 00000KT 9999 FEW050 BKN200 11/05 Q1030 RMK PP000=
SPZO Mar2006-160400Z 00000KT 9999 FEW050 BKN200 10/05 Q1031 RMK PP000=
SPZO Mar2006-160500Z 00000KT 9999 FEW050 SCT100 BKN200 10/05 Q1031 RMK PP000=
SPZO Mar2006-160600Z 00000KT 9999 FEW050 SCT150 BKN200 10/06 Q1031 RMK PP000=
SPZO Mar2006-160700Z 09003KT 9999 SCT070 BKN200 09/06 Q1030 RMK PP000=
SPZO Mar2006-160800Z 00000KT 9999 SCT070 BKN200 09/06 Q1030 RMK PP000=
SPZO Mar2006-160900Z 00000KT 9999 SCT070 BKN200 09/05 Q1030 RMK PP000=
SPZO Mar2006-161000Z VRB02KT 9999 BKN060 SCT070 09/06 Q1030 RMK PP000=
SPZO Mar2006-161100Z 00000KT 9999 SCT060 SCT070 BKN200 09/06 Q1030 RMK PP000=
SPZO Mar2006-161200Z 00000KT 9999 SCT060 BKN100 09/06 Q1031 NOSIG RMK PP000=
SPZO Mar2006-161300Z 00000KT 9999 FEW040 SCT100 OVC230 12/07 Q1032 NOSIG RMK PP000=
SPZO Mar2006-161400Z 00000KT 9999 FEW040 OVC230 14/05 Q1032 NOSIG RMK PP000=
SPZO Mar2006-161500Z VRB02KT 9999 SCT043 BKN230 17/07 Q1031 NOSIG RMK WIND RWY10 VRB03KT PP000=
SPZO Mar2006-161600Z VRB03KT 9999 SCT043 BKN230 18/05 Q1030 NOSIG RMK PP000=
SPZO Mar2006-161700Z VRB02KT 9999 FEW040 SCT046 BKN080 17/05 Q1029 NOSIG RMK WIND RWY10 VRB06KT PP000=
SPZO Mar2006-161800Z VRB02KT 9999 FEW040 SCT046 BKN100 19/05 Q1028 NOSIG RMK PP000 RWY10 VRB03KT=
SPZO Mar2006-161900Z 00000KT 9999 SCT050 SCT230 20/04 Q1026 NOSIG RMK PP000 RWY10 04011KT 320V090=
SPZO Mar2006-162000Z VRB04KT 9999 FEW040TCU BKN050 20/06 Q1025 TEMPO VCSH RMK PP000 RWY10 33005KT 270V080=
SPZO Mar2006-162100Z 35009KT 270V010 9999 -RA SCT040CB SCT050 17/06 Q1025 TEMPO NSW RMK PPTRZ RWY10 35015G26KT 270V050=
SPZO Mar2006-162200Z 32007KT 260V010 9999 SCT040 BKN050 16/05 Q1025 NOSIG RMK PPTRZ RWY10 VRB09KT TX 21.5=
SPZO Mar2006-162300Z 00000KT 9999 SCT040 BKN050 16/06 Q1025 NOSIG RMK PP000=
SPZO Mar2006-170000Z 09004KT 9999 BKN050 13/07 Q1026 RMK PP000=
SPZO Mar2006-170100Z 00000KT 9999 BKN050 12/07 Q1028 RMK PP000=
SPZO Mar2006-170200Z 00000KT 9999 BKN050 12/07 Q1029 RMK PP000=
SPZO Mar2006-170300Z 08002KT 9999 BKN050 11/07 Q1029 RMK PP000=
SPZO Mar2006-170400Z 00000KT 9999 BKN050 12/08 Q1030 RMK PP000=
SPZO Mar2006-170500Z 08004KT 360V110 5000 +RA FEW030TCU SCT040 BKN050 09/07 Q1031 RMK PP060=
SPZO Mar2006-170600Z 28002KT 5000 RA SCT030TCU SCT040 BKN050 09/07 Q1031 RMK PP028=
SPZO Mar2006-170700Z 00000KT 5000 RA SCT030TCU SCT040 BKN050 08/07 Q1030 RMK PP034=
SPZO Mar2006-170800Z 00000KT 5000 RA SCT030TCU SCT040 BKN050 08/07 Q1030 RMK PP028=
SPZO Mar2006-170900Z 00000KT 5000 RA FEW020TCU SCT030 BKN040 08/06 Q1030 RMK CLNG BLW 1200M PP016=
SPZO Mar2006-171000Z 09002KT 6000 -RA FEW020 SCT033 BKN040 08/06 Q1030 RMK CLNG BLW 1200M PP008=
SPZO Mar2006-171100Z 10003KT 7000 -RA FEW025 SCT036 BKN050 08/06 Q1030 RMK CLNG BLW 1200M PP002=
SPZO Mar2006-171200Z 10002KT 9999 DZ FEW025 SCT036 BKN046 08/07 Q1031 BECMG FM13 NSW RMK PP002=
SPZO Mar2006-171300Z VRB03KT 9999 FEW020 SCT036 BKN046 09/07 Q1032 REDZ BECMG FM14 SCT040 BKN046 RMK PP002=
SPZO Mar2006-171400Z VRB02KT 9999 SCT036 BKN046 11/06 Q1032 NOSIG RMK PP000=
SPZO Mar2006-171500Z VRB02KT 9999 FEW033 SCT043 BKN050 12/06 Q1032 NOSIG RMK PP000=
SPZO Mar2006-171600Z 08004KT 360V170 9999 FEW030 SCT043 BKN060 13/06 Q1031 NOSIG RMK PP000=
SPZO Mar2006-171700Z 09003KT 060V120 9999 FEW036 SCT046 BKN060 13/07 Q1030 TEMPO VCSH RMK WIND RWY10 10006KT 040V160 PP000=
SPZO Mar2006-171800Z 07003KT 9999 VCSH FEW036 SCT043 BKN060 15/06 Q1029 TEMPO-RA RMK PP000 RWY10 VRB09KT=
SPZO Mar2006-171900Z 10004KT 070V170 9999 VCSH FEW040 SCT043 BKN060 14/08 Q1028 TEMPO-RA RMK PP000 RWY10 11019KT=
SPZO Mar2006-172000Z 11010KT 9999 VCSH FEW036 SCT043 BKN060 13/07 Q1027 NOSIG RMK PP000 RWY10 09018KT=
SPZO Mar2006-172100Z 10007KT 050V180 9999 VCSH FEW040 SCT046 BKN060 14/08 Q1027 NOSIG RMK PP000 RWY10 10013KT=
SPZO Mar2006-172200Z 00000KT 9999 FEW040 BKN060 16/07 Q1026 NOSIG RMK PP000 TX.16.2=
SPZO Mar2006-172300Z 00000KT 9999 FEW040 BKN080 15/07 Q1026 NOSIG RMK PP000=
SPZO Mar2006-180000Z 10002KT 9999 BKN050 12/08 Q1027 RMK PP000=
SPZO Mar2006-180100Z 10003KT 9999 BKN050 12/08 Q1028 RMK PP000=
SPZO Mar2006-180200Z 00000KT 9999 BKN050 12/08 Q1029 RMK PP000=
SPZO Mar2006-180300Z 00000KT 9999 BKN050 11/08 Q1029 RMK PP000=
SPZO Mar2006-180400Z 17002KT 9999 BKN050 11/08 Q1029 RMK PP000=
SPZO Mar2006-180500Z 00000KT 9999 BKN050 10/08 Q1029 RMK PP000=
SPZO Mar2006-180600Z 00000KT 9999 BKN050 10/08 Q1028 RMK PP000=
SPZO Mar2006-180700Z 00000KT 9999 BKN050 10/08 Q1028 RMK PP000=
SPZO Mar2006-180800Z 00000KT 9999 BKN050 10/08 Q1028 RMK PP000=
SPZO Mar2006-180900Z 00000KT 9999 OVC050 10/08 Q1028 RMK PP000=
SPZO Mar2006-181000Z 10005KT 7000 -RA SCT033 BKN040 10/08 Q1028 RMK PP024=
SPZO Mar2006-181100Z 00000KT 9000 FEW036 SCT040 BKN060 10/08 Q1028 RMK PPTRZ=
SPZO Mar2006-181200Z 00000KT 9999 FEW030 SCT040 BKN060 09/08 Q1029 NOSIG RMK PP000=
SPZO Mar2006-181300Z 00000KT 9999 FEW033 SCT040 BKN060 11/06 Q1029 NOSIG RMK PP000=
SPZO Mar2006-181400Z 00000KT 9999 FEW036 SCT043 BKN150 13/07 Q1030 NOSIG RMK PP000=
SPZO Mar2006-181500Z 07003KT 350V170 9999 FEW040 SCT043 BKN150 14/05 Q1030 NOSIG RMK PP000=
SPZO Mar2006-181600Z VRB03KT 9999 FEW040 SCT050 BKN150 16/07 Q1029 NOSIG RMK PP000 RWY10 VRB09KT=
SPZO Mar2006-181700Z 09006KT 070V180 9999 FEW040TCU SCT050 BKN100 16/06 Q1029 TEMPO VCSH RMK PP000 RWY10 09010KT 010V170=
SPZO Mar2006-181800Z 01006KT 350V080 9000 VCSH SCT040TCU BKN050 15/06 Q1028 NOSIG RMK PP000 RWY10 04016KT 330V110=
SPZO Mar2006-181900Z VRB03KT 9999 FEW040TCU SCT050 BKN100 17/05 Q1028 TEMPO VCSH RMK PP000 RWY10 03014KT 350V060=
SPZO Mar2006-182000Z 10006KT 080V190 9999 FEW043 SCT070 BKN200 17/06 Q1027 NOSIG RMK PP000 RWY10 02014KT 300V120=
SPZO Mar2006-182100Z 10004KT 080V170 9999 FEW050 SCT100 BKN200 16/05 Q1026 NOSIG RMK PP000 RWY10 11015KT 060V150=
SPZO Mar2006-182200Z 32004KT 280V060 9999 FEW050 SCT200 17/05 Q1026 NOSIG RMK PP000 RWY10 VRB02KT TMAX 17.9=
SPZO Mar2006-182300Z 35005KT 9999 FEW050 SCT200 15/03 Q1026 NOSIG RMK PP000=
SPZO Mar2006-190000Z 29003KT 260V360 9999 FEW050 SCT200 13/06 Q1027 RMK PP000=
SPZO Mar2006-190100Z 27010KT 250V360 9999 FEW050 SCT200 12/06 Q1028 RMK PP000=
SPZO Mar2006-190200Z 28007KT 340V360 9999 FEW050 SCT200 11/06 Q1029 RMK PP000=
SPZO Mar2006-190300Z 33004KT 260V010 9999 SCT050 BKN200 12/06 Q1030 RMK PP000=
SPZO Mar2006-190400Z 00000KT 9999 SCT050 BKN150 11/06 Q1030 RMK PP000=
SPZO Mar2006-190500Z 00000KT 9999 BKN046 SCT100 10/07 Q1030 RMK PP000=
SPZO Mar2006-190600Z 00000KT 9999 BKN046 09/07 Q1030 RMK PP000=
SPZO Mar2006-190700Z 00000KT 9999 BKN046 08/06 Q1029 RMK PP000=
SPZO Mar2006-190800Z 00000KT 9999 SCT046 07/05 Q1029 RMK PP000=
SPZO Mar2006-190900Z 00000KT 9999 SCT046 07/04 Q1029 RMK PP000=
SPZO Mar2006-191000Z 00000KT 9999 FEW040 SCT200 07/05 Q1029 RMK PP000=
SPZO Mar2006-191100Z 00000KT 9999 FEW040 SCT200 05/03 Q1030 RMK PP000=
SPZO Mar2006-191200Z 00000KT 9000 FEW043 SCT200 07/05 Q1030 BECMG FM13 9999 RMK PP000 RWY10 00000KT=
SPZO Mar2006-191300Z 00000KT 9999 FEW043 SCT200 11/05 Q1030 NOSIG RMK PP000 RWY10 13004KT=
SPZO Mar2006-191400Z VRB03KT 9999 FEW047 SCT200 15/06 Q1030 NOSIG RMK PP000 RWY10 VRB03KT=
SPZO Mar2006-191500Z 00000KT 9999 SCT047 SCT200 17/02 Q1030 NOSIG RMK PP000 RWY10 VRB03KT=
SPZO Mar2006-191600Z VRB02KT 9999 SCT047 18/03 Q1029 NOSIG RMK PP000 RWY10 VRB07KT=
SPZO Mar2006-191700Z VRB02KT 9999 SCT047 19/03 Q1028 NOSIG RMK PP000 RWY10 VRB12KT=
SPZO Mar2006-191800Z VRB03KT 9999 SCT050 20/04 Q1026 NOSIG RMK PP000 WIND RWY10 12007KT 040V170=
SPZO Mar2006-191900Z 33007KT 270V010 9999 FEW040 SCT050 19/05 Q1025 NOSIG RMK WIND RWY10 01013KT 300V100 PP000=
SPZO Mar2006-192000Z 35006KT 270V080 9999 FEW040 SCT050 18/04 Q1024 TEMPO=
SPZO Mar2006-192100Z VRB02KT 9000 FEW036 SCT050 18/06 Q1023 RERA TEMPO VCSH RMK PP002=
SPZO Mar2006-192200Z 01007KT 340V080 9999 FEW036 SCT050 17/06 Q1023 TEMPO=
SPZO Mar2006-192300Z 03005KT 350V110 9999 BKN050 16/07 Q1024 TEMPO VCSH RMK PP000=
SPZO Mar2006-200000Z 00000KT 9999 SCT040 14/07 Q1025 RMK PP000=
SPZO Mar2006-200100Z 00000KT 9999 SCT040 13/07 Q1026 RMK PP000=
SPZO Mar2006-200200Z 28004KT 9999 BKN040 12/08 Q1028 RMK PP000=
SPZO Mar2006-200300Z 07012KT 9000 RA SCT033 SCT043 09/06 Q1029 RMK PP036=
SPZO Mar2006-200400Z VRB02KT 9000 -RA SCT027 BKN040 09/07 Q1030 RMK PP010=
SPZO Mar2006-200500Z 00000KT 9000 RA FEW020 SCT030 BKN040 09/07 Q1030 RMK PP030=
SPZO Mar2006-200600Z 00000KT 9999 -RA FEW020 BKN033 09/07 Q1030 RMK CLNG BLW 1200M PP014=
SPZO Mar2006-200700Z 00000KT 9999 -RA FEW020 SCT030 BKN037 09/07 Q1029 NOSIG RMK CLNG BLW 1200M PP022=
SPZO Mar2006-200800Z 00000KT 9999 -RA FEW020 SCT30 BKN037 08/07 Q1028 RMK CLNG BLW 1200M PPTRZ=
SPZO Mar2006-200900Z 00000KT 9999 -RA FEW020 SCT027 BKN037 08/06 Q1028 PP006 RMK CLNG BLW 1200M PP008=
SPZO Mar2006-201000Z 00000KT 9000 RA FEW020 SCT027 BKN040 08/07 Q1029 RMK CLNG BLW 1200M PP034=
SPZO Mar2006-201100Z 00000KT 8000 RA FEW020 SCT030 BKN043 08/07 Q1029 RMK CLNG BLW 1200M PP008=
SPZO Mar2006-201200Z 00000KT 8000 SCT033 BKN046 09/07 Q1030 RERA NOSIG RMK BCBR QUAD NE/E PP002=
SPZO Mar2006-201300Z 00000KT 8000 SCT033 BKN050 11/07 Q1030 NOSIG RMK BCBR QUAD NE/E PP000=
SPZO Mar2006-201400Z VRB02KT 9999 FEW036 SCT043 SCT050 13/06 Q1030 NOSIG RMK PP000=
SPZO Mar2006-201500Z VRB03KT 9999 FEW036 SCT043 BKN050 15/07 Q1030 NOSIG RMK PP000=
SPZO Mar2006-201600Z 00000KT 9999 SCT043 SCT050 17/07 Q1029 NOSIG RMK PP000=
SPZO Mar2006-201700Z VRB02KT 9999 SCT043 SCT050 17/06 Q1028 TEMPO VCSH RMK PP000=
SPZO Mar2006-201800Z VRB02KT 9999 VCSH FEW043TCU BKN050 17/06 Q1027 NOSIG RMK PP000 RWY10 VRB07KT=
SPZO Mar2006-201900Z 34009KT 270V360 9999 VCSH FEW043TCU BKN046 16/07 Q1026 TEMPO -RA RMK PP000 RWY10 VRB15KT=
SPZO Mar2006-202000Z VRB02KT 9999 -RA SCT040TCU BKN046 14/07 Q1026 NOSIG RMK PP004 RWY10 VRB10KT=
SPZO Mar2006-202100Z VRB02KT 9999 VCSH FEW040TCU BKN046 15/08 Q1025 NOSIG RMK PP002=
SPZO Mar2006-202200Z VRB02KT 9999 -RA SCT040 BKN046 14/07 Q1025 NOOSIG PPTRZ RWY10 VRB07KT TX.18.7=
SPZO Mar2006-202300Z VRB02KT 9999 -RA SCT040 BKN046 13/08 Q1026 NOSIG RMK PP002=
SPZO Mar2006-210000Z 10003KT 9000 OVC040 11/08 Q1027 RERA RMK PP004=
SPZO Mar2006-210100Z 09003KT 9000 -RA FEW030 BKN040 11/08 Q1028 RMK PPTRZ=
SPZO Mar2006-210200Z 00000KT 9999 FEW030 BKN040 11/08 Q1029 RERA RMK PP002=
SPZO Mar2006-210300Z 00000KT 9999 OVC040 11/09 Q1030 RMK PP000=
SPZO Mar2006-210400Z 00000KT 9999 OVC040 11/09 Q1030 RMK PP000=
SPZO Mar2006-210500Z 10003KT 9999 OVC050 11/09 Q1029 RMK PP000=
SPZO Mar2006-210600Z 08002KT 8000 -RA FEW030 BKN040 10/09 Q1029 RMK PP004=
SPZO Mar2006-210700Z 00000KT 7000 RA SCT030 BKN040 10/08 Q1029 RMK PP016=
SPZO Mar2006-210800Z 30005KT 270V350 7000 -RA SCT030 BKN040 10/08 Q1029 RMK PP006=
SPZO Mar2006-210900Z VRB02KT 7000 -RA SCT033 BKN040 09/07 Q1029 RMK PP004=
SPZO Mar2006-211000Z 00000KT 7000 RA FEW030 SCT033 BKN043 09/07 Q1029 RMK CLNG BLW 1200M PP018=
SPZO Mar2006-211100Z 00000KT 7000 -RA FEW030 SCT033 BKN046 09/07 Q1030 RMK CLNG BLW 1200M PP004=
SPZO Mar2006-211200Z 00000KT 9999 -RA FEW025 SCT030 BKN060 09/08 Q1030 BECMG FM13 NSW RMK PP002=
SPZO Mar2006-211300Z 00000KT 9999 FEW025 SCT033 BKN060 11/07 Q1031 NOSIG RMK PP004=
SPZO Mar2006-211400Z 00000KT 9999 FEW027 SCT040TCU BKN060 13/06 Q1031 NOSIG RMK PP000 RWY10 VRB08KT=
SPZO Mar2006-211500Z 00000KT 9999 FEW033TCU SCT043 BKN070 15/07 Q1031 NOSIG RMK PP000 RWY10 13005KT 070V180=
SPZO Mar2006-211600Z 25005KT 190V340 9999 SCT040TCU SCT050 17/08 Q1030 NOSIG RMK PP000 RWY10 VRB05KT=
SPZO Mar2006-211700Z 11005KT 080V190 9000 VCRA SCT037TCU BKN047 16/08 Q1030 TEMPO -RA RMK PP000 RWY10 03009KT 300V090=
SPZO Mar2006-211800Z 35008KT 270V020 9000 RA FEW037TCU SCT043 BKN047 12/07 Q1030 BCMG FM1930 NSW RMK PP022 RWY10 VRB08KT=
SPZO Mar2006-211900Z VRB02KT 9999 -RA FEW036 SCT043 BKN046 12/08 Q1029 BECMG FM1930 NSW RMK PP018=
SPZO Mar2006-212000Z 26003KT 9999 -RA FEW036 SCT043 BKN046 13/09 Q1028 NOSIG RMK PPTRZ RWY10 VRB03KT=
SPZO Mar2006-212100Z 26006KT 180V290 9999 VCSH SCT040 BKN046 14/08 Q1028 NOSIG RMK PPTRZ RWY10 VRB07KT=
SPZO Mar2006-212200Z 28004KT 9999 FEW040 SCT046 BKN050 14/08 Q1027 NOSIG RMK PP000 RWY10 VRB03KT TX.17.7=
SPZO Mar2006-212300Z 31004KT 270V360 9999 VCSH SCT040 BKN050 14/07 Q1028 NOSIG RMK PP000 RWY10 32005KT=
SPZO Mar2006-220000Z 10007KT 080V170 9999 OVC050 11/08 Q1029 RMK PP000=
SPZO Mar2006-220100Z 10004KT 080V170 9999 OVC050 11/08 Q1030 RMK PP000=
SPZO Mar2006-220200Z 11003KT 9999 OVC050 11/08 Q1031 RMK PP000=
SPZO Mar2006-220300Z 00000KT 9999 SCT040 BKN050 11/08 Q1031 RMK PP000=
SPZO Mar2006-220400Z 08002KT 9999 SCT040 SCT050 11/09 Q1031 RMK PP000=
SPZO Mar2006-220500Z 00000KT 9999 BKN040 SCT050 11/09 Q1030 RMK PP000=
SPZO Mar2006-220600Z 00000KT 9999 OVC040 10/09 Q1030 RMK PP000=
SPZO Mar2006-220700Z 00000KT 9999 OVC040 10/09 Q1030 RMK PP000=
SPZO Mar2006-220800Z 00000KT 7000 -RA SCT030 BKN040 10/09 Q1029 RMK PPTRZ=
SPZO Mar2006-220900Z 00000KT 7000 -RA SCT030 BKN040 10/08 Q1029 RMK PP006=
SPZO Mar2006-221000Z 00000KT 7000 -RA SCT030 SCT040 BKN043 10/08 Q1030 RMK PP004=
SPZO Mar2006-221100Z 00000KT 8000 SCT030 SCT040 BKN050 10/08 Q1030 RMK PPTRZ=
SPZO Mar2006-221200Z 00000KT 9999 VCSH FEW025 SCT040 BKN046 11/08 Q1031 NOSIG RMK PP000=
SPZO Mar2006-221300Z 00000KT 9999 VCSH FEW025 SCT040 BKN046 12/08 Q1032 NOSIG RMK PP000=
SPZO Mar2006-221400Z VRB03KT 9999 FEW030 SCT040 BKN046 13/07 Q1032 NOSIG RMK PP000 RWY10 VRB03KT=
SPZO Mar2006-221500Z VRB03KT 9999 VCSH FEW036 SCT040 BKN046 14/07 Q1032 NOSIG RMK PP000 RWY10 VRB07KT=
SPZO Mar2006-221600Z 29008KT 270V360 9999 RA FEW036TCU SCT040 BKN046 13/08 Q1032 NOSIG RMK PPTRZ RWY10 25009KT=
SPZO Mar2006-221700Z VRB06KT 9999 VCSH FEW036 SCT040 BKN050 13/08 Q1032 RERA NOSIG RMK PPTRZ=
SPZO Mar2006-221800Z VRB02KT 9999 SCT043 SCT200 16/06 Q1029 NOSIG RMK PP000 RWY10 VRB04KT=
SPZO Mar2006-221900Z 33003KT 250V010 9999 VCRA SCT043TCU SCT200 18/08 Q1028 NOSIG RMK PP000 RWY10 VRB05KT=
SPZO Mar2006-222000Z 30005KT 210V340 9999 VCRA FEW037 SCT043TCU BKN200 17/06 Q1027 TEMPO -RA RMK PP000 RWY10 30017KT 260V020=
SPZO Mar2006-222100Z 28006KT 260V350 9999 VCRA SCT040TCU SCT080 BKN200 17/07 Q1027 TEMPO -RA RMK PP000 RWY10 29012KT 270V330=
SPZO Mar2006-222200Z 33011KT 9999 -RA SCT037TCU BKN050 15/06 Q1027 NOSIG RMK PPTRZ RWY10 36006KT TMAX 19.0=
SPZO Mar2006-222300Z VRB05KT 9999 VCSH FEW037TCU SCT043 BKN050 14/08 Q1028 RMK PPTRZ=
SPZO Mar2006-230000Z 00000KT 9999 VCSH SCT037TCU BKN043 11/08 Q1029 RMK PP008=
SPZO Mar2006-230100Z 25004KT 9000 -RA OVC040 10/08 Q1031 RMK PP032=
SPZO Mar2006-230200Z 34003KT 9000 -RA BKN040 SCT043 10/08 Q1032 RMK PP038=
SPZO Mar2006-230300Z 18002KT 9000 -RA BKN040 SCT043 10/08 Q1032 RMK PP004=
SPZO Mar2006-230400Z 00000KT 9000 OVC040 10/08 Q1032 RMK PP000=
SPZO Mar2006-230500Z 00000KT 9000 -RA FEW030 BKN040 10/08 Q1032 RMK PP020=
SPZO Mar2006-230600Z 00000KT 9000 FEW030 BKN040 10/08 Q1031 RMK PP000=
SPZO Mar2006-230700Z 00000KT 9000 FEW030 BKN040 10/07 Q1031 RMK PP000=
SPZO Mar2006-230800Z 00000KT 9000 FEW030 BKN040 10/08 Q1030 RMK PP000=
SPZO Mar2006-230900Z 00000KT 9000 FEW030 BKN040 10/08 Q1030 RMK PP000=
SPZO Mar2006-231000Z 00000KT 9000 FEW030 BKN040 10/08 Q1030 RERA RMK PP002=
SPZO Mar2006-231100Z 00000KT 9999 FEW030 SCT040 BKN050 09/08 Q1031 RMK PP000=
SPZO Mar2006-231200Z 09007KT 9999 FEW030 SCT040 BKN050 10/08 Q1032 NOSIG RMK PP000=
SPZO Mar2006-231300Z VRB01KT 9999 FEW030 SCT040 BKN150 11/08 Q1033 NOSIG RMK PP000 RWY10 VRB02KT=
SPZO Mar2006-231400Z VRB03KT 9999 FEW030 SCT040 BKN150 12/08 Q1033 NOSIG RMK PP000 RWY10 VRB04KT=
SPZO Mar2006-231500Z VRB04KT 9999 FEW033 SCT040 BKN150 14/07 Q1033 NOSIG RMK PP000=
SPZO Mar2006-231600Z VRB02KT 9999 VCSH FEW033 SCT043 BKN080 15/07 Q1032 NOSIG RMK PP000=
SPZO Mar2006-231700Z 28008KT 250V350 9999 VCSH SCT040 SCT080 15/08 Q1032 NOSIG RMK RWY10 27014KT 220V340 TCU W PP000=
SPZO Mar2006-231800Z VRB03KT 9999 VCSH FEW033 SCT043TCU BKN080 16/06 Q1030 NOSIG RMK VCSH QUAD NE/E WIND RWY10 VRB04KT PP000=
SPZO Mar2006-231900Z 11011KT 090V170 9999 VCSH FEW033 SCT043TCU BKN080 14/08 Q1029 NOSIG RMK VCSH QUAD NE/E WIND RWY10 11029KT 070V140 PP000=
SPZO Mar2006-232000Z 10004KT 070V170 9999 VCSH FEW033 SCT043TCU BKN080 15/08 Q1028 NOSIG RMK VCSH QUAD NE/SW PP000=
SPZO Mar2006-232100Z 24004KT 180V290 9999 VCSH FEW033 SCT060TCU BKN080 16/07 Q1028 NOSIG RMK WIND RWY10 26008KT 210V310 PP000=
SPZO Mar2006-232200Z 28013KT 9999 VCSH SCT050 SCT080 13/08 Q1028 NOSIG RMK RWY10 29027G39KT 240V330 TMAX 18.0 PP000=
SPZO Mar2006-232300Z 27010KT 9999 SCT050 SCT080 12/07 Q1028 NOSIG RMK PP000=
SPZO Mar2006-240000Z 27005KT 9999 FEW200 11/06 Q1029 RMK PP000=
SPZO Mar2006-240100Z 00000KT 9999 SKC 10/06 Q1030 RMK PP000=
SPZO Mar2006-240200Z 00000KT 9999 SCT040 10/07 Q1031 RMK PP000=
SPZO Mar2006-240300Z 00000KT 9999 SCT040 SCT050 10/07 Q1032 RMK PP000=
SPZO Mar2006-240400Z 00000KT 9999 SCT040 BKN050 10/08 Q1031 RMK PP000=
SPZO Mar2006-240500Z 00000KT 9999 SCT040 BKN050 10/08 Q1031 RMK PP000=
SPZO Mar2006-240600Z 00000KT 9999 SCT037 BKN047 10/08 Q1030 RMK PP000=
SPZO Mar2006-240700Z 00000KT 9999 FEW030 SCT040 BKN050 10/08 Q1030 RMK PP000=
SPZO Mar2006-240800Z 00000KT 9999 FEW030 SCT040 BKN050 10/08 Q1029 RMK PP000=
SPZO Mar2006-240900Z 00000KT 9999 SCT037 BKN047 10/07 Q1029 RMK PP000=
SPZO Mar2006-241000Z 00000KT 9999 SCT030 BKN043 10/08 Q1029 RMK PP000=
SPZO Mar2006-241100Z 00000KT 9999 FEW033TCU SCT040 BKN047 10/08 Q1030 PP000=
SPZO Mar2006-241200Z VRB02KT 9999 FEW043 SCT060 OVC100 10/08 Q1031 NOSIG RMK PP000=
SPZO Mar2006-241300Z VRB02KT 9999 FEW030 SCT060 BKN100 11/08 Q1032 NOSIG RMK PP000=
SPZO Mar2006-241400Z VRB02KT 9999 FEW030 SCT060 BKN100 13/08 Q1032 NOSIG RMK PP000=
SPZO Mar2006-241500Z VRB03KT 9999 FEW030 SCT050 BKN100 14/07 Q1032 NOSIG RMK PP000=
SPZO Mar2006-241600Z 09004KT 360V170 9999 FEW033 SCT050 BKN100 16/08 Q1031 NOSIG RMK PP000=
SPZO Mar2006-241700Z VRB04KT 9999 FEW036 SCT050 BKN100 17/08 Q1030 NOSIG RMK PP000=
SPZO Mar2006-241800Z VRB04KT 9999 VCSH SCT050 SCT120 18/06 Q1029 NOSIG RMK PP000 RWY10 VRB13KT=
SPZO Mar2006-241900Z 03012KT 350V080 9999 SCT050 SCT120 18/06 Q1028 NOSIG RMK PP000 RWY10 VRB19G34KT=
SPZO Mar2006-242000Z 01014KT 340V080 9999 SCT050 SCT120 17/05 Q1028 NOSIG RMK PP000 RWY10 VRB14G24KT=
SPZO Mar2006-242100Z 36005KT 340V080 9999 SCT050 SCT100 16/05 Q1027 NOSIG RMK PP000 RWY10 VRB13G30KT=
SPZO Mar2006-242200Z 02007KT 340V080 9999 SCT050 SCT100 16/04 Q1027 NOSIG RMK PP000 RWY10 VRB05G24KT TX.18.9=
SPZO Mar2006-242300Z VRB03KT 9999 FEW046TCU SCT050 BKN100 15/05 Q1027 NOSIG RMK PP000 RWY10 02010KT 320V080=
SPZO Mar2006-250000Z VRB03KT 9999 SCT050 SCT100 14/05 Q1029 RMK PP000=
SPZO Mar2006-250100Z 28005KT 9999 BKN050 12/07 Q1030 RMK PP000=
SPZO Mar2006-250200Z 09003KT 9999 BKN050 10/06 Q1031 RMK PP000=
SPZO Mar2006-250300Z 00000KT 9999 BKN050 10/06 Q1031 RMK PP000=
SPZO Mar2006-250400Z 00000KT 9999 BKN050 09/06 Q1031 RMK PP000=
SPZO Mar2006-250500Z 00000KT 9999 BKN050 08/06 Q1031 RMK PP000=
SPZO Mar2006-250600Z 00000KT 9999 SCT050 08/06 Q1031 RMK PP000=
SPZO Mar2006-250700Z 00000KT 9999 SCT050 08/05 Q1031 RMK PP000=
SPZO Mar2006-250800Z 00000KT 9999 SCT050 08/04 Q1030 RMK PP000=
SPZO Mar2006-250900Z 00000KT 9999 BKN050 08/06 Q1030 RMK PP000=
SPZO Mar2006-251000Z 00000KT 9999 BKN050 08/06 Q1030 RMK PP000=
SPZO Mar2006-251100Z 00000KT 9999 SCT040 SCT050 07/06 Q1031 RMK PP000=
SPZO Mar2006-251200Z 00000KT 8000 SCT050 SCT080 09/07 Q1032 BECMG 9999 RMK HZ PP000=
SPZO Mar2006-251300Z 00000KT 9999 FEW037 SCT070 BKN200 10/07 Q1033 NOSIG RMK PP000 RWY10 VRB03KT=
SPZO Mar2006-251400Z 09003KT 9999 SCT037 SCT080 12/06 Q1033 NOSIG RMK PP000 RWY10 11006KT 040V150=
SPZO Mar2006-251500Z VRB04KT 9999 SCT043 SCT230 16/07 Q1032 NOSIG RMK PP000 RWY10 13008KT 040V190=
SPZO Mar2006-251600Z 09005KT 350V160 9999 FEW040TCU SCT050 17/07 Q1032 NOSIG RMK PP000 RWY10 11015KT 070V200=
SPZO Mar2006-251700Z VRB02KT 9999 SCT040TCU SCT050 BKN200 18/06 Q1031 NOSIG RMK PP00 RWY10 12011KT 090V230=
SPZO Mar2006-251800Z 23006KT 080V200 9999 FEW040 SCT050 BKN200 19/07 Q1030 NOSIG RMK PP000 RWY10 VRB11KT=
SPZO Mar2006-251900Z 33008KT 9999 SCT050 BKN200 20/07 Q1028 NOSIG RMK PP000 RWY10 VRB11KT=
SPZO Mar2006-252000Z 01011KT 270V080 9999 FEW040TCU SCT050 BKN200 20/04 Q1027 NOSIG RMK PP000 RWY10 03011G26KT=
SPZO Mar2006-252100Z VRB05KT 9999 FEW040TCU SCT050 BKN200 19/05 Q1027 NOSIG RMK PP000 RWY10 VRB16G32=
SPZO Mar2006-252200Z 01008KT 330V090 9999 SCT050 BKN200 18/04 Q1027 NOSIG RMK PP000 RWY10VRB14 TX.20.7=
SPZO Mar2006-252300Z 11006KT 340V090 9999 SCT050 BKN200 16/04 Q1028 NOSIG RMK PP000 RWY10 VRB10KT=
SPZO Mar2006-260000Z VRB04KT 9999 BKN050 14/06 Q1029 RMK PP000=
SPZO Mar2006-260100Z VRB03KT 9999 BKN050 11/05 Q1030 RMK PP000=
SPZO Mar2006-260200Z 09002KT 9999 BKN050 10/06 Q1032 RMK PP000=
SPZO Mar2006-260300Z 27003KT 9999 BKN050 10/06 Q1033 RMK PP000=
SPZO Mar2006-260400Z 00000KT 9999 BKN050 11/07 Q1033 RMK PP000=
SPZO Mar2006-260500Z 17002KT 9999 BKN050 10/07 Q1032 RMK PP000=
SPZO Mar2006-260600Z 00000KT 9999 BKN050 10/06 Q1032 RMK PP000=
SPZO Mar2006-260700Z 00000KT 9999 BKN050 09/05 Q1032 RMK PP000=
SPZO Mar2006-260800Z 00000KT 9999 BKN050 09/05 Q1031 RMK PP000=
SPZO Mar2006-260900Z 00000KT 9999 SCT050 08/05 Q1031 RMK PP000=
SPZO Mar2006-261000Z 00000KT 9999 SCT050 06/04 Q1031 RMK PP000=
SPZO Mar2006-261100Z 00000KT 9999 SCT050 SCT100 06/04 Q1032 RMK PP000=
SPZO Mar2006-261200Z 00000KT 9999 OVC150 07/05 Q1033 NOSIG RMK PP000=
SPZO Mar2006-261300Z 00000KT 9999 OVC150 09/06 Q1033 NOSIG RMK PP000=
SPZO Mar2006-261400Z 00000KT 9999 FEW040 OVC150 12/06 Q1034 NOSIG RMK PP000=
SPZO Mar2006-261500Z VRB02KT 9999 FEW040 OVC150 14/06 Q1033 NOSIG RMK PP000=
SPZO Mar2006-261600Z VRB03KT 9999 SCT040 OVC150 15/06 Q1033 NOSIG RMK PP000=
SPZO Mar2006-261700Z VRB04KT 9999 SCT040 OVC120 16/04 Q1032 NOSIG RMK PP000 RWY10 VRB04KT=
SPZO Mar2006-261800Z 00000KT 9999 FEW040 OVC100 16/04 Q1031 RMK PP000 RWY10 03015KT 290V070=
SPZO Mar2006-261900Z 04006KT 9999 FEW040 SCT080 OVC200 16/04 Q1030 NOSIG RMK PP000 RWY10 03015KT 320V120=
SPZO Mar2006-262000Z 02010KT 340V070 9999 FEW040 SCT100 OVC200 16/03 Q1029 NOSIG RMK PP000 RWY10 04015KT 340V120=
SPZO Mar2006-262100Z 02005KT 350V080 9999 FEW040 OVC200 15/03 Q1029 NOSIG RMK PP000 RWY10 05009KT 320V110=
SPZO Mar2006-262200Z 00000KT 9999 SCT150 OVC200 15/04 Q1029 NOSIG RMK PP000 TMAX 17.2=
SPZO Mar2006-262300Z 00000KT 9999 FEW060 SCT150 BKN200 13/06 Q1029 NOSIG RMK PP000=
SPZO Mar2006-270000Z 00000KT 9999 SCT050 BKN150 12/05 Q1030 RMK PP000=
SPZO Mar2006-270100Z 00000KT 9999 SCT046 BKN120 12/06 Q1031 RMK PP000=
SPZO Mar2006-270200Z 00000KT 9999 SCT046 09/06 Q1032 RMK PP000=
SPZO Mar2006-270300Z 00000KT 9999 SCT046 09/06 Q1032 RMK PP000=
SPZO Mar2006-270400Z 26003KT 9999 SCT046 08/06 Q1033 RMK PP000=
SPZO Mar2006-270500Z 00000KT 9999 SCT046 09/06 Q1033 RMK PP000=
SPZO Mar2006-270600Z 00000KT 9999 SCT046 09/06 Q1032 RMK PP000=
SPZO Mar2006-270700Z 00000KT 9999 SCT046 09/06 Q1032 RMK PP000=
SPZO Mar2006-270800Z 00000KT 9999 SCT046 09/06 Q1031 RMK PP000=
SPZO Mar2006-270900Z 00000KT 9999 SCT040 BKN046 09/06 Q1031 RMK PP000=
SPZO Mar2006-271000Z 00000KT 9999 SCT040 BKN046 08/06 Q1031 RMK PP000=
SPZO Mar2006-271100Z 00000KT 9999 SCT050 BKN100 08/06 Q1031 RMK PP000=
SPZO Mar2006-271200Z 00000KT 9999 BKN047 SCT060 08/06 Q1033 NOSIG RMK PP000 RWY10 VRB03KT=
SPZO Mar2006-271300Z 00000KT 9999 BKN043 SCT053 11/07 Q1033 NOSIG RMK PP000=
SPZO Mar2006-271400Z 00000KT 9999 FEW037 SCT050 BKN070 12/07 Q1034 RMK PP000 RWY10 0000KT=
SPZO Mar2006-271500Z VRB02KT 9999 BKN043 SCT150 14/07 Q1034 NOSIG RMK PP000 RWY10 09006KT 020V150=
SPZO Mar2006-271600Z 00000KT 9999 BKN047 SCT100 15/06 Q1033 NOSIG RMK PP000 RWY10 10009KT 020V170=
SPZO Mar2006-271700Z VRB02KT 9999 SCT047 BKN060 18/05 Q1031 NOSIG RMK PP000 VRB06KT=
SPZO Mar2006-271800Z VRB02KT 9999 BKN043 SCT230 19/05 Q1030 NOSIG RMK PP000=
SPZO Mar2006-271900Z 36007KT 340V080 9999 FEW040 BKN043 20/06 Q1028 NOSIG RMK WIND RWY10 35008KT 240V060 PP000=
SPZO Mar2006-272000Z 09008KT 360V170 9999 FEW040 BKN043 18/07 Q1027 NOSIG RMK WIND RWY10 VRB10KT PP000=
SPZO Mar2006-272100Z 12007KT 070V200 9999 FEW043TCU SCT050 BKN230 17/06 Q1027 NOSIG RMK PP000=
SPZO Mar2006-272200Z 10006KT 070V170 9999 FEW040TCU SCT050 BKN230 16/06 Q1027 NOSIG RMK PP000 TMAX 20.6=
SPZO Mar2006-272300Z VRB02KT 9999 SCT050 SCT230 16/06 Q1028 NOSIG RMK PP000=
SPZO Mar2006-280000Z 00000KT 9999 SCT040 SCT150 15/05 Q1029 RMK PP000=
SPZO Mar2006-280100Z 00000KT 9999 FEW100 13/06 Q1031 RMK PP000=
SPZO Mar2006-280200Z 00000KT 9999 FEW040 12/07 Q1032 RMK PP000=
SPZO Mar2006-280300Z 00000KT 9999 SCT040 11/06 Q1033 RMK PP000=
SPZO Mar2006-280400Z 09003KT 9999 SCT040 SCT050 10/07 Q1033 RMK PP000=
SPZO Mar2006-280500Z 09003KT 9999 SCT040 SCT050 10/07 Q1033 RMK PP000=
SPZO Mar2006-280600Z 00000KT 9999 SCT050 09/06 Q1033 RMK PP000=
SPZO Mar2006-280700Z 00000KT 9999 SCT050 09/06 Q1032 RMK PP000=
SPZO Mar2006-280800Z 00000KT 9999 SCT040 09/06 Q1031 RMK PP000=
SPZO Mar2006-280900Z 00000KT 9999 FEW040 SCT050 09/06 Q1031 RMK PP000=
SPZO Mar2006-281000Z VRB02KT 9999 BKN043 08/06 Q1032 RMK PP000=
SPZO Mar2006-281100Z 00000KT 9999 FEW040 SCT200 08/05 Q1032 RMK PP000=
SPZO Mar2006-281200Z 00000KT 9000 SCT150 09/06 Q1034 BECMG 9999 RMK HZ PP000=
SPZO Mar2006-281300Z 00000KT 9999 FEW043 13/06 Q1034 NOSIG RMK PP000=
SPZO Mar2006-281400Z VRB02KT 9999 FEW043 15/06 Q1034 NOSIG RMK PP000=
SPZO Mar2006-281500Z VRB03KT 9999 SCT050 17/05 Q1033 NOSIG RMK PP000 WIND RWY10 VRB03KT=
SPZO Mar2006-281600Z VRB06KT 9999 FEW040 SCT050 18/05 Q1033 NOSIG RMK PP000=
SPZO Mar2006-281700Z 08006KT 360V110 9999 SCT043 SCT060 17/05 Q1032 NOSIG RMK WIND RWY10 10014KT 030V170 PP000=
SPZO Mar2006-281800Z 00000KT 9999 SCT043 BKN100 18/03 Q1031 NOSIG RMK PP000=
SPZO Mar2006-281900Z VRB04KT 9999 SCT046 SCT100 21/05 Q1029 NOSIG RMK PP000 RWY10 VRB06KT=
SPZO Mar2006-282000Z VRB06KT 9999 SCT043TCU SCT050 20/05 Q1027 TEMPO VCSH RMK PP000 RWY10 28010KT 230V320=
SPZO Mar2006-282100Z VRB08KT 9999 SCT043TCU SCT230 18/05 Q1027 NOSIG RMK PP000 RWY10 VRB12G22KT=
SPZO Mar2006-282200Z 07009KT 340V090 9999 VCTS SCT043CB SCT230 17/06 Q1027 NOSIG RMK PP000 RWY10 VRB08KT TX.22.1=
SPZO Mar2006-282300Z 11008KT 340V080 9999 SCT043TCU BKN230 16/06 Q1028 NOSIG RMK PP000 RWY10 VRB07KT=
SPZO Mar2006-290000Z 26004KT 190V290 9999 BKN050 14/06 Q1029 RMK PP000=
SPZO Mar2006-290100Z 29004KT 180V350 9999 BKN050 13/06 Q1030 RMK PP000=
SPZO Mar2006-290200Z 32005KT 270V020 9999 BKN050 14/07 Q1031 RMK PP000=
SPZO Mar2006-290300Z 28006KT 250V350 9999 OVC050 14/07 Q1032 RMK PP000=
SPZO Mar2006-290400Z 28009KT 260V350 9999 OVC050 13/06 Q1033 RMK PP000=
SPZO Mar2006-290500Z 26004KT 9999 OVC050 13/06 Q1032 RMK PP000=
SPZO Mar2006-290600Z 10003KT 9999 OVC050 12/07 Q1032 RMK PP000=
SPZO Mar2006-290700Z 10005KT 9999 OVC050 10/08 Q1031 RMK PP000=
SPZO Mar2006-290800Z 00000KT 9999 OVC050 10/08 Q1030 RMK PP000=
SPZO Mar2006-290900Z 10003KT 9999 BKN050 SCT100 09/07 Q1030 RMK PP000=
SPZO Mar2006-291000Z 00000KT 9999 FEW030 BKN046 09/08 Q1031 RMK PP000=
SPZO Mar2006-291100Z 00000KT 9999 SCT030 BKN040 10/08 Q1031 RMK PP000=
SPZO Mar2006-291200Z 00000KT 9999 FEW027 SCT037 BKN047 10/08 Q1032 NOSIG RMK PP000=
SPZO Mar2006-291300Z 00000KT 9999 FEW025 SCT033 BKN043 11/08 Q1033 NOSIG RMK PP000=
SPZO Mar2006-291400Z 10005KT 030V170 9999 SCT030 OVC043 12/08 Q1033 NOSIG RMK PP000 RWY10 12004KT 070V150=
SPZO Mar2006-291500Z VRB02KT 9999 SCT033 SCT040 BKN060 13/08 Q1033 NOSIG RMK PP000 RWY10 11007KT 090V170=
SPZO Mar2006-291600Z VRB03KT 9999 FEW030TCU SCT043 BKN060 15/06 Q1032 NOSIG RMK PP000 RWY10 VRB02KT=
SPZO Mar2006-291700Z 00000KT 9999 FEW037TCU SCT047 BKN070 17/06 Q1031 NOSIG RMK PP000 RWY10 VRB08KT=
SPZO Mar2006-291800Z 07006KT 350V110 9999 VCSH SCT043TCU SCT050 BKN080 16/06 Q1030 TEMPO -RA RMK PP000 RWY10 VRB13G23KT=
SPZO Mar2006-291900Z 06011KT 340V090 9999 VCSH SCT043TCU SCT050 BKN080 15/05 Q1029 NOSIG RMK PP000 RWY10 VRB12KT=
SPZO Mar2006-292000Z VRB02KT 9999 FEW043TCU SCT050 BKN080 17/05 Q1028 NOSIG RMK PP000 RWY10 VRB05KT=
SPZO Mar2006-292100Z VRB07KT 9999 SCT050 BKN100 16/07 Q1027 NOSIG RMK PP000 RWY10 VRB10KT=
SPZO Mar2006-292200Z 26009KT 9999 FEW050 BKN120 15/06 Q1027 NOSIG RMK PP000 RWY10 28017KT TX.18.3=
SPZO Mar2006-292300Z 25007KT 9999 FEW050 BKN200 14/06 Q1027 NOSIG RMK PP000 RWY10 25010KT=
SPZO Mar2006-300000Z 27005KT 9999 SCT050 12/07 Q1029 RMK PP000=
SPZO Mar2006-300100Z VRB02KT 9999 BKN050 11/07 Q1029 RMK PP000=
SPZO Mar2006-300200Z 09002KT 9999 BKN050 10/07 Q1031 RMK PP000=
SPZO Mar2006-300300Z 00000KT 9999 BKN050 10/07 Q1031 RMK PP000=
SPZO Mar2006-300400Z 00000KT 9999 BKN050 10/07 Q1031 RMK PP000=
SPZO Mar2006-300500Z 00000KT 9999 SCT046 BKN050 10/07 Q1031 RMK PP000=
SPZO Mar2006-300600Z VRB02KT 5000 RA SCT040 BKN043 11/07 Q1030 RMK PP010=
SPZO Mar2006-300700Z VRB03KT 5000 RA SCT040 BKN043 10/06 Q1030 RMK PP014=
SPZO Mar2006-300800Z VRB02KT 6000 -RA SCT040 BKN043 09/07 Q1030 RMK PP008=
SPZO Mar2006-300900Z 00000KT 7000 -RA SCT040 BKN043 09/07 Q1030 RMK PP008=
SPZO Mar2006-301000Z 00000KT 8000 FEW025 SCT030 BKN043 09/07 Q1030 RERA RMK PPTRZ=
SPZO Mar2006-301100Z 00000KT 9000 SCT030 BKN040 09/07 Q1030 RMK PP000=
SPZO Mar2006-301200Z 00000KT 9999 SCT040 BKN046 09/07 Q1031 PP000=
SPZO Mar2006-301300Z 00000KT 9999 SCT036 BKN050 10/08 Q1032 NOSIG RMK BCOS BCBR/NE PP000=
SPZO Mar2006-301400Z 00000KT 9999 SCT036 BKN050 13/08 Q1032 NOSIG RMK PP000=
SPZO Mar2006-301500Z VRB02KT 9999 SCT036 BKN050 14/05 Q1032 NOSIG RMK PP000 RWY10 VRB04KT=
SPZO Mar2006-301600Z 10004KT 060V180 9999 SCT040 BKN050 15/06 Q1031 NOSIG RMK PP000 RWY10 VRB06KT=
SPZO Mar2006-301700Z VRB03KT 9999 SCT040 BKN050 16/06 Q1030 NOSIG RMK PP00 RWY10 VRB05KT=
SPZO Mar2006-301800Z 34006KT 270V020 9999 SCT040TCU BKN050 17/06 Q1029 TEMPO VCSH RMK PP000 RWY10 01020G30KT=
SPZO Mar2006-301900Z VRB05KT 9999 FEW040TCU BKN050 14/07 Q1028 TEMPO VCSH RMK WIND RWY10 10007KT 050V180 PP000=
SPZO Mar2006-302000Z 10009KT 070V170 9999 FEW043TCU BKN050 17/08 Q1027 TEMPO VCSH RMK WIND RWY10 16014KT 130V220 PP000=
SPZO Mar2006-302100Z 10010KT 070V170 9999 FEW043TCU BKN060 14/07 Q1027 TEMPO VCSH RMK WIND RWY10 10019KT 060V130 PP000=
SPZO Mar2006-302200Z 10009KT 9999 SCT043 BKN100 13/07 Q1027 NOSIG RMK WIND RWY10 10012KT 040V140 PP000 TMAX 18.1=
SPZO Mar2006-302300Z 11005KT 090V170 9999 FEW043 SCT100 12/07 Q1027 NOSIG RMK PP000=
SPZO Mar2006-310000Z 00000KT 9999 FEW043 SCT100 11/07 Q1028 RMK PP000=
SPZO Mar2006-310100Z 00000KT 9999 FEW043 SCT100 11/08 Q1030 RMK PP000=
SPZO Mar2006-310200Z 00000KT 9999 FEW050 SCT100 10/08 Q1030 RMK PP000=
SPZO Mar2006-310300Z 00000KT 9999 SCT050 SCT100 11/08 Q1031 RMK PP000=
SPZO Mar2006-310400Z 00000KT 9999 FEW050 SCT100 11/08 Q1031 RMK PP000=
SPZO Mar2006-310500Z 00000KT 9999 FEW043 SCT100 11/08 Q1030 RMK PP000=
SPZO Mar2006-310600Z 09002KT 9999 SCT040 SCT100 11/08 Q1030 RMK PP000=
SPZO Mar2006-310700Z 09009KT 9999 -RA BKN040 SCT080 10/06 Q1030 RMK PPTRZ RA LIG INICIO 0645Z=
SPZO Mar2006-310800Z 10007KT 9000 RA BKN033 SCT050 09/07 Q1030 RMK PP076=
SPZO Mar2006-310900Z 09004KT 9000 -RA FEW030 OVC040 08/07 Q1031 RMK PP018=
SPZO Mar2006-311000Z 10006KT 9000 FEW030 BKN040 08/06 Q1031 RMK PP002=
SPZO Mar2006-311100Z 10004KT 9000 FEW025 SCT033 BKN043 08/06 Q1032 RMK PP000 CLNG BLW 1200M=
SPZO Mar2006-311200Z VRB03KT 9999 RA SCT020 BKN037 08/06 Q1033 NOSIG RMK PP010 CLNG BLW 1200M=
SPZO Mar2006-311300Z 00000KT 9000 -RA SCT025 SCT037 BKN060 09/07 Q1034 BECMG FM1330 SCT036 BKN046 RMK PP010 CLNG BLW 1200M=
SPZO Mar2006-311400Z 09005KT 050V220 9999 SCT030 SCT047 BKN100 11/07 Q1034 NOSIG RMK PP002 RWY10 11004KT 070V170=
SPZO Mar2006-311500Z 12003KT 080V190 9999 FEW030 SCT047 BKN100 14/06 Q1034 NOSIG RMK PP000=
SPZO Mar2006-311600Z VRB06KT 9999 SCT033 BKN200 16/08 Q1033 NOSIG RMK PP000 RWY10 00000KT=
SPZO Mar2006-311700Z 15006KT 050V220 9000 VCSH SCT037TCU SCT050 16/07 Q1031 NOSIG RMK PP000 RWY10 08008KT 020V160=
SPZO Mar2006-311800Z 28009KT 270V350 9000 -RA SCT030TCU BKN040 13/08 Q1030 NOSIG RMK WIND RWY10 31011KT 250V360 PPT010=
SPZO Mar2006-311900Z VRB04KT 9999 FEW030TCU SCT040 BKN046 16/08 Q1029 RERA NOSIG RMK WIND RWY10 07009KT 010V130 PPTRZ=
SPZO Mar2006-312000Z 10005KT 070V170 9999 -RA FEW033TCU SCT043TCU BKN080 14/08 Q1029 TEMPO FM2010 NSW RMK PP000=
SPZO Mar2006-312100Z 00000KT 9999 FEW030 SCT043 BKN230 14/08 Q1029 RERA NOSIG RMK PP002=
SPZO Mar2006-312200Z VRB02KT 9999 SCT043 SCT230 15/09 Q1028 NOSIG RMK PP000 TMAX 22.5=
SPZO Mar2006-312300Z 00000KT 9999 SCT043 14/07 Q1029 NOSIG RMK PP000=
