SPZO Nov2003-010000Z 05005KT 9999 FEW040 SCT200 15/05 Q1026 RMK PP000=
SPZO Nov2003-010100Z VRB03KT 9999 FEW040 12/06 Q1027 RMK PP000=
SPZO Nov2003-010200Z 00000KT 9999 FEW040 SCT070 12/05 Q1028 RMK PP000=
SPZO Nov2003-010300Z 27004KT 9999 SKC 10/05 Q1028 RMKPP000=
SPZO Nov2003-010400Z 00000KT 9999 SCT040 09/05 Q1028 RMK PP000=
SPZO Nov2003-010500Z 28004KT 9999 SCT040 SCT060 09/05 Q1028 RMK PP000=
SPZO Nov2003-010600Z 00000KT 9000 -RA SCT030 BKN040 10/06 Q1027 RMK PPTRZ=
SPZO Nov2003-010700Z 28011KT 8000 -RA SCT030 BKN040 09/06 Q1027 RMK PP002=
SPZO Nov2003-010800Z 00000KT 8000 -RA BKN030 SCT040 09/06 Q1028 RMK PP020=
SPZO Nov2003-010900Z 00000KT 8000 -RA FEW025 SCT033 BKN040 08/06 Q1029
SPZO Nov2003-011000Z 00000KT 7000 RA FEW025 BKN037 07/06 Q1029 RMK PP016 CLNG BLW 1200M=
SPZO Nov2003-011100Z 10004KT 7000 -RA FEW025 SCT037 BKN050 07/05 Q1030 RMK PP016 CLNG BLW 1200M=
SPZO Nov2003-011200Z 00000KT 9999 SCT037 BKN046 08/04 Q1030 NOSIG RMK PP002 RWY WET RA CDTE NE/E=
SPZO Nov2003-011300Z 00000KT 9999 SCT037 BKN046 10/04 Q1031 NOSIG RMK PP000=
SPZO Nov2003-011400Z 00000KT 9999 FEW037 BKN046 11/05 Q1031 NOSIG RMK PP000=
SPZO Nov2003-011500Z VRB02KT 9999 SCT035 BKN050 13/05 Q1031 NOSIG RMK PP000=
SPZO Nov2003-011600Z VRB02KT 9999 FEW040 OVC060 15/04 Q1030 NOSIG RMK PP000=
SPZO Nov2003-011700Z VRB03KT 9999 FEW040 OVC060 16/04 Q1028 NOSIG RMK PP000=
SPZO Nov2003-011800Z VRB03KT 9999 FEW040 OVC060 17/04 Q1027 NOSIG RMK PP000=
SPZO Nov2003-011900Z 27009KT 190V350 9999 SCT046 SCT090 19/02 Q1026 NOSIG RMK PP000=
SPZO Nov2003-012000Z 01010KT 340V080 9999 SCT046 BKN070 17/04 Q1025 NOSIG RMK PP000=
SPZO Nov2003-012100Z 01010KT 340V080 9999 SCT050 SCT080 17/03 Q1025 NOSIG RMK PP000=
SPZO Nov2003-012200Z VRB06KT 9999 SCT050 SCT100 17/05 Q1024 NOSIG RMK PP000 TMAX 19.2=
SPZO Nov2003-012300Z VRB04KT 9999 SCT050 SCT100 14/05 Q1025 NOSIG RMK PP000=
SPZO Nov2003-020000Z VRB02KT 9999 FEW050 SCT200 12/04 Q1027 RMK PP000=
SPZO Nov2003-020100Z VRB03KT 9999 FEW040 SCT200 12/04 Q1028 RMK PP000=
SPZO Nov2003-020200Z 08004KT 9999 SCT040 10/04 Q1029 RMK PP000=
SPZO Nov2003-020300Z VRB03KT 9999 SCT040 10/04 Q1030 RMK PP000=
SPZO Nov2003-020400Z 00000KT 9999 FEW040 SCT050 09/04 Q1030 RMK PP000=
SPZO Nov2003-020500Z 00000KT 9999 FEW037 SCT050 10/05 Q1029 RMK PP000=
SPZO Nov2003-020600Z 00000KT 9999 SCT037 SCT050 09/05 Q1029 RMK PP000=
SPZO Nov2003-020700Z 00000KT 9999 SCT040 SCT046 08/05 Q1028 RMK PP000=
SPZO Nov2003-020800Z 00000KT 9999 FEW030 SCT040 08/05 Q1028 RMK PP000=
SPZO Nov2003-020900Z 00000KT 9999 SCT040 SCT070 08/05 Q1028 RMK PP000=
SPZO Nov2003-021000Z VRB02KT 9999 FEW040 SCT060 07/05 Q1028 RMK PP000=
SPZO Nov2003-021100Z 00000KT 9999 FEW040 SCT300 07/04 Q1029 RMK PP000=
SPZO Nov2003-021200Z 00000KT 9999 SCT050 11/05 Q1030 NOSIG RMK PP000=
SPZO Nov2003-021300Z VRB03KT 9999 FEW043 BKN100 13/04 Q1030 NOSIG RMK PP000=
SPZO Nov2003-021400Z VRB04KT 9999 SCT040 SCT100 14/04 Q1030 NOSIG RMK PP000=
SPZO Nov2003-021500Z VRB02KT 9999 SCT046 SCT050 17/03 Q1029 NOSIG RMK PP000=
SPZO Nov2003-021600Z VRB05KT 9999 SCT050 19/03 Q1028 NOSIG RMK PP000=
SPZO Nov2003-021700Z 08004KT 360V170 9999 SCT043 SCT050 18/02 Q1027 NOSIG RMK PP000=
SPZO Nov2003-021800Z 36005KT 340V080 9999 SCT040 SCT050 19/02 Q1026 TEMPO VCRA RMK PP000=
SPZO Nov2003-021900Z 36009KT 9999 BKN043 SCT060 18/02 Q1025 NOSIG RMK PP000=
SPZO Nov2003-022000Z 01012KT 340V080 9999 SCT043 SCT060 18/04 Q1024 NOSIG RMK PP000=
SPZO Nov2003-022100Z 01012KT 340V080 9999 VCSH SCT043 BKN060 17/03 Q1024 NOSIG RMK PP000=
SPZO Nov2003-022200Z 02011KT 340V080 9999 VCSH SCT043 SCT060 15/04 Q1025 NOSIG RMK PP000 TMAX 19.2=
SPZO Nov2003-022300Z VRB05KT 9999 SCT043 SCT060 13/04 Q1027 NOSIG RMK PP000=
SPZO Nov2003-030000Z VRB02KT 9999 SCT040 BKN050 13/04 Q1028 RMK PP000=
SPZO Nov2003-030100Z VRB03KT 9999 SCT040 SCT050 12/04 Q1029 RMK PP000=
SPZO Nov2003-030200Z 12005KT 9999 SCT037 BKN046 12/04 Q1030 RMK PP000=
SPZO Nov2003-030300Z 10005KT 9999 SCT037 SCT060 11/04 Q1031 RMK PP000=
SPZO Nov2003-030400Z 00000KT 9000 RA OVC040 09/06 Q1031 RMK PP016=
SPZO Nov2003-030500Z 00000KT 9000 -RA OVC040 08/06 Q1031 RMK PP032=
SPZO Nov2003-030600Z 00000KT 9999 -DZ SCT040 SCT050 08/06 Q1030 RMK PP008=
SPZO Nov2003-030700Z 00000KT 9999 SCT037 BKN046 09/06 Q1030 RMK PPTRZ=
SPZO Nov2003-030800Z 00000KT 9999 -DZ SCT030 BKN040 08/06 Q1029 RMK PP002=
SPZO Nov2003-030900Z 00000KT 9999 BKN040 SCT050 08/06 Q1030 RMK PPTRZ=
SPZO Nov2003-031100Z 00000KT 9999 FEW030 SCT040 BKN050 09/07 Q1030 RMK PP000=
SPZO Nov2003-031200Z VRB01KT 9999 FEW030 SCT040 BKN060 10/07 Q1031 NOSIG RMK PP000=
SPZO Nov2003-031300Z VRB01KT 9999 SCT033 BKN080 12/06 Q1031 NOSIG RMK PP000=
SPZO Nov2003-031400Z VRB03KT 9999 SCT033 BKN100 13/06 Q1031 NOSIG RMK PP000=
SPZO Nov2003-031500Z VRB03KT 9999 SCT040 BKN080 16/05 Q1030 NOSIG RMK PP000=
SPZO Nov2003-031600Z 26005KT 9999 SCT043 BKN060 17/05 Q1029 NOSIG RMK RWY10 27008KT 210V330 PP000=
SPZO Nov2003-031700Z VRB03KT 9999 SCT040 SCT060 18/04 Q1028 TEMPO VCSH RMK PP000=
SPZO Nov2003-031800Z VRB05KT 9999 VCSH BKN043 SCT053 18/05 Q1027 NOSIG RMK PP000=
SPZO Nov2003-031900Z 36010KT 270V080 9999 BKN043 18/04 Q1025 NOSIG RMK PP000=
SPZO Nov2003-032000Z 36013KT 9999 VCSH FEW040TCU BKN043 16/05 Q1025 NOSIG RMK TCU Y VCSH AL SW PP002=
SPZO Nov2003-032100Z 36006KT 270V080 9999 SCT043TCU SCT047 17/04 Q1025 TEMPO -SHRA RMK PP000=
SPZO Nov2003-032200Z 36009KT 340V080 9999 -SHRA SCT043 SCT047 16/05 Q1025 TEMPO NSW RMK PP000 TMAX 19.4=
SPZO Nov2003-032300Z VRB02KT 9999 BKN043 15/05 Q1026 NOSIG RMK PP000=
SPZO Nov2003-040000Z VRB03KT 9999 BKN040 13/05 Q1028 RMK PP000=
SPZO Nov2003-040100Z 10005KT 070V170 9999 BKN040 11/04 Q1029 RMK PP000=
SPZO Nov2003-040200Z 10011KT 9999 BKN040 11/04 Q1030 RMK PP000=
SPZO Nov2003-040300Z 10011KT 080V170 8000 -RA SCT030 BKN040 09/06 Q1031 RMK PP008=
SPZO Nov2003-040400Z 11007KT 070V170 8000 -RA SCT030 BKN040 08/06 Q1031 RMK PP020=
SPZO Nov2003-040500Z VRB02KT 7000 RA SCT030 BKN040 07/06 Q1031 RMK PP034=
SPZO Nov2003-040600Z 26002KT 9000 FEW030 BKN040 08/05 Q1030 RERA RMK PP002=
SPZO Nov2003-040700Z VRB03KT 9999 FEW030 BKN040 08/05 Q1029 RMK PP000=
SPZO Nov2003-040800Z 00000KT 9999 OVC040 08/05 Q1029 RMK PP000=
SPZO Nov2003-040900Z 00000KT 9999 OVC050 07/05 Q1030 RMK PP000=
SPZO Nov2003-041000Z 00000KT 9999 BKN050 SCT060 06/04 Q1030 RMK PP000=
SPZO Nov2003-041100Z 00000KT 9999 FEW050 SCT150 06/04 Q1031 RMK PP000=
SPZO Nov2003-041200Z 00000KT 9999 FEW043 SCT300 10/06 Q1032 NOSIG RMK PP000=
SPZO Nov2003-041300Z VRB02KT 9999 SCT043 12/06 Q1032 NOSIG RMK PP000=
SPZO Nov2003-041400Z VRB03KT 9999 SCT043 14/04 Q1032 NOSIG RMK PP000=
SPZO Nov2003-041500Z VRB03KT 9999 SCT043 16/04 Q1031 NOSIG RMK PP000=
SPZO Nov2003-041600Z VRB02KT 9999 SCT043 18/03 Q1030 NOSIG RMK PP000=
SPZO Nov2003-041700Z VRB05KT 9999 FEW043 20/M00 Q1028 NOSIG RMK PP000=
SPZO Nov2003-041800Z VRB05KT 9999 FEW043 21/M00 Q1027 NOSIG RMK PP000=
SPZO Nov2003-041900Z VRB03KT 9999 FEW050 23/00 Q1026 NOSIG RMK PP000=
SPZO Nov2003-042000Z VRB04KT 9999 FEW060 22/M01 Q1024 NOSIG RMK PP000=
SPZO Nov2003-042100Z VRB03KT 9999 FEW060 22/M02 Q1024 NOSIG RMK PP000 RWY10 08006KT=
SPZO Nov2003-042200Z VRB03KT 9999 FEW060 22/M04 Q1024 NOSIG RMK PP000 TMX:23.8 RWY10 28014KT=
SPZO Nov2003-042300Z 34010KT 270V350 9999 SKC 19/M00 Q1024 NOSIG RMK PP000 RWY10 30012KT=
SPZO Nov2003-050000Z 27009KT 9999 SKC 16/05 Q1026 RMK PP000=
SPZO Nov2003-050100Z 10007KT 9999 SKC 13/06 Q1028 RMK PP000=
SPZO Nov2003-050200Z 09008KT 9999 SKC 12/06 Q1029 RMK PP000=
SPZO Nov2003-050300Z 15004KT 090V200 9999 SKC 12/06 Q1030 RMK PP000=
SPZO Nov2003-050400Z 00000KT 9999 SKC 10/06 Q1030 RMK PP000=
SPZO Nov2003-050500Z 00000KT 9999 SKC 09/06 Q1030 RMK PP000=
SPZO Nov2003-050600Z 00000KT 9999 SKC 09/06 Q1029 RMK PP000=
SPZO Nov2003-050700Z 00000KT 9999 SKC 08/05 Q1029 RMK PP000=
SPZO Nov2003-050800Z 00000KT 9999 SKC 08/05 Q1029 RMK PP000=
SPZO Nov2003-050900Z 00000KT 9999 SKC 07/05 Q1029 RMK PP000=
SPZO Nov2003-051000Z 00000KT 9999 FEW060 06/05 Q1030 RMK PP000=
SPZO Nov2003-051100Z 00000KT 9999 SCT050 07/05 Q1030 RMK PP000=
SPZO Nov2003-051200Z VRB01KT 9999 FEW046 12/06 Q1031 NOSIG RMK PP000=
SPZO Nov2003-051300Z VRB01KT 9999 FEW046 15/05 Q1032 NOSIG RMK PP000=
SPZO Nov2003-051400Z VRB02KT 9999 FEW060 17/03 Q1031 NOSIG RMK PP000 RWY10 06007KT=
SPZO Nov2003-051500Z VRB03KT 9999 FEW060 18/02 Q1030 NOSIG RMK PP000=
SPZO Nov2003-051600Z 02008KT 340V080 9999 FEW060 20/00 Q1029 NOSIG RMK PP000 04011KT=
SPZO Nov2003-051700Z VRB04KT 9999 FEW060 22/M03 Q1028 NOSIG RMK PP000 RWY10 13009KT=
SPZO Nov2003-051800Z 32007KT 240V020 9999 SCT060 23/M02 Q1026 NOSIG RMK PP000 RWY10 05007KT=
SPZO Nov2003-051900Z 15006KT 090V190 9999 SCT060 23/M02 Q1025 NOSIG RMK PP000 RWY10 30011KT=
SPZO Nov2003-052000Z VRB06KT 9999 FEW060 23/M05 Q1024 NOSIG RMK PP000 RWY10 VRB06KT=
SPZO Nov2003-052100Z 30008KT 250V360 9999 FEW060 24/M07 Q1023 NOSIG RMK PP000 RWY10 27007KT=
SPZO Nov2003-052200Z 01013KT 350V080 9999 SKC 19/03 Q1024 NOSIG RMK PP000 RWY10 02024G40KT TMX:24.6=
SPZO Nov2003-052300Z 13009KT 080V200 9999 SKC 16/05 Q1025 NOSIG RMK PP000 RWY10 02017KT=
SPZO Nov2003-060000Z 13008KT 9999 SKC 14/05 Q1027 RMK PP000=
SPZO Nov2003-060100Z VRB03KT 9999 SKC 13/04 Q1028 RMK PP000=
SPZO Nov2003-060200Z VRB02KT 9999 SKC 12/04 Q1030 RMK PP000=
SPZO Nov2003-060300Z 00000KT 9999 SKC 10/05 Q1030 RMK PP000=
SPZO Nov2003-060400Z 00000KT 9999 SKC 10/05 Q1030 RMK PP000=
SPZO Nov2003-060500Z 00000KT 9999 FEW040 SCT050 09/05 Q1030 RMK PP000=
SPZO Nov2003-060600Z 00000KT 9999 SCT050 08/04 Q1030 RMK PP000=
SPZO Nov2003-060700Z 00000KT 9999 SCT050 08/05 Q1030 RMK PP000=
SPZO Nov2003-060800Z 00000KT 9999 FEW040 SCT050 09/05 Q1029 RMK PP000=
SPZO Nov2003-060900Z 00000KT 9999 FEW040 SCT050 08/05 Q1029 RMK PP000=
SPZO Nov2003-061000Z VRB02KT 9999 SCT040 SCT050 08/05 Q1030 RMK PP000=
SPZO Nov2003-061100Z 00000KT 9000 FEW040 SCT050 09/05 Q1030 RMK PP000=
SPZO Nov2003-061200Z 00000KT 9000 FEW043 12/05 Q1031 NOSIG RMK PP000=
SPZO Nov2003-061300Z VRB03KT 9999 FEW043 15/05 Q1031 NOSIG RMK PP000=
SPZO Nov2003-061400Z VRB03KT 9999 FEW046 17/03 Q1031 NOSIG RMK PP000=
SPZO Nov2003-061500Z VRB03KT 9999 SCT060 19/02 Q1030 NOSIG RMK PP000 12013KT=
SPZO Nov2003-061600Z VRB04KT 9999 SCT060 SCT100 20/M01 Q1029 NOSIG RMK PP000 RWY10 18008KT=
SPZO Nov2003-061700Z VRB04KT 9999 SCT060 22/M03 Q1028 NOSIG RMK PP000 RWY10 36013G29KT=
SPZO Nov2003-061800Z VRB06KT 9999 SCT060 22/M02 Q1026 NOSIG RMK PP000 RWY10 18010KT=
SPZO Nov2003-061900Z 36008KT 270V080 9999 BKN043 22/M00 Q1024 NOSIG RMK PP000=
SPZO Nov2003-062000Z VRB04KT 9999 SCT043 22/M01 Q1023 NOSIG RMK PP000=
SPZO Nov2003-062100Z 01013KT 340V080 9999 SCT043 20/02 Q1024 NOSIG RMK PP000=
SPZO Nov2003-062200Z 01015KT 350V080 9999 FEW043 19/05 Q1024 NOSIG RMK PP000 TMAX 23.7=
SPZO Nov2003-062300Z 01016KT 340V080 9999 FEW060 16/02 Q1026 NOSIG RMK PP000=
SPZO Nov2003-070000Z VRB03KT 9999 SKC 15/02 Q1027 RMK PP000=
SPZO Nov2003-070100Z 26004KT 9999 SKC 13/03 Q1029 RMK PP000=
SPZO Nov2003-070200Z VRB02KT 9999 SKC 13/03 Q1030 RMK PP000=
SPZO Nov2003-070300Z 12004KT 9999 SKC 10/03 Q1031 RMK PP000=
SPZO Nov2003-070400Z 00000KT 9999 SKC 10/03 Q1031 RMK PP000=
SPZO Nov2003-070500Z 00000KT 9999 SKC 08/04 Q1030 RMK PP000=
SPZO Nov2003-070600Z 00000KT 9999 SKC 09/03 Q1030 RMK PP000=
SPZO Nov2003-070700Z 00000KT 9999 FEW050 09/03 Q1029 RMK PP000=
SPZO Nov2003-070800Z 00000KT 9999 FEW050 06/03 Q1029 RMK PP000=
SPZO Nov2003-070900Z 00000KT 9999 FEW050 06/03 Q1029 RMK PP000=
SPZO Nov2003-071000Z VRB03KT 9999 FEW040 06/03 Q1030 RMK PP000=
SPZO Nov2003-071100Z 00000KT 9000 FEW040 07/04 Q1030 RMK PP000=
SPZO Nov2003-071200Z VRB01KT 9000 FEW043 11/04 Q1031 BECMG 9999 RMK HZ PP000=
SPZO Nov2003-071300Z VRB02KT 9999 FEW043 14/04 Q1031 NOSIG RMK PP000=
SPZO Nov2003-071400Z VRB02KT 9999 FEW043 16/03 Q1031 NOSIG RMK PP000=
SPZO Nov2003-071500Z VRB04KT 9999 SCT043 19/05 Q1030 NOSIG RMK PP000=
SPZO Nov2003-071600Z VRB05KT 9999 FEW040 SCT047 21/M00 Q1029 NOSIG RMK PP000=
SPZO Nov2003-071700Z 03009KT 340V080 9999 FEW040 SCT047 22/01 Q1027 RMK PP000=
SPZO Nov2003-071800Z 02011KT 340V100 9999 FEW040 SCT047 22/M00 Q1026 NOSIG RMK PP000=
SPZO Nov2003-071900Z 02014KT 340V080 9999 VCSH BKN043 20/00 Q1026 NOSIG RMK PP000=
SPZO Nov2003-072000Z 02015KT 290V080 9999 BKN043 SCT100 17/M00 Q1026 NOSIG RMK CB DISTANTE AL W PP000=
SPZO Nov2003-072100Z 03013KT 340V080 9999 SCT043 BKN080 16/M01 Q1026 NOSIG RMK CB DISTANTE AL W PP000=
SPZO Nov2003-072200Z VRB07KT 9999 SCT043 BKN080 15/02 Q1028 NOSIG RMK PP000 TMAX 23.2=
SPZO Nov2003-072300Z VRB03KT 9999 SCT060 BKN080 14/02 Q1028 NOSIG RMK PP000=
SPZO Nov2003-080000Z 08004KT 9999 BKN050 SCT060 14/03 Q1028 RMK PP000=
SPZO Nov2003-080100Z 13003KT 9999 BKN050 SCT060 14/03 Q1029 RMK PP000=
SPZO Nov2003-080200Z 14003KT 9999 BKN050 SCT060 13/03 Q1030 RMK PP000=
SPZO Nov2003-080300Z 00000KT 9999 OVC050 12/04 Q1030 RMK PP000=
SPZO Nov2003-080400Z 28002KT 9999 OVC050 11/04 Q1030 RMK PP000=
SPZO Nov2003-080500Z 00000KT 9999 OVC050 09/03 Q1030 RMK PP000=
SPZO Nov2003-080600Z 08002KT 9999 BKN050 SCT100 08/03 Q1030 RMK PP000=
SPZO Nov2003-080700Z 00000KT 9999 BKN050 SCT100 07/03 Q1029 RMK PP000=
SPZO Nov2003-080800Z 00000KT 9999 SCT050 SCT100 07/03 Q1029 RMK PP000=
SPZO Nov2003-080900Z 00000KT 9999 SCT050 BKN100 06/02 Q1029 RMK PP000=
SPZO Nov2003-081000Z 09002KT 9999 FEW050 SCT100 06/02 Q1030 RMK PP000=
SPZO Nov2003-081100Z 00000KT 9999 FEW100 06/03 Q1031 RMK PP000=
SPZO Nov2003-081200Z 00000KT 9000 SKC 11/04 Q1032 BECMG 9999 RMK HZ PP000=
SPZO Nov2003-081300Z 00000KT 9999 SKC 14/03 Q1032 NOSIG RMK PP000=
SPZO Nov2003-081400Z VRB02KT 9999 FEW043 17/03 Q1032 NOSIG RMK PP000=
SPZO Nov2003-081500Z VRB04KT 9999 FEW043 20/01 Q1031 NOSIG RMK PP000=
SPZO Nov2003-081600Z VRB05KT 9999 SCT043 21/M01 Q1029 NOSIG RMK PP000=
SPZO Nov2003-081700Z 01013KT 340V080 9999 SCT043 23/M07 Q1028 NOSIG RMK PP000=
SPZO Nov2003-081800Z 01013KT 280V080 9999 FEW043 23/M08 Q1027 NOSIG RMK PP000=
SPZO Nov2003-081900Z 02014KT 340V080 9999 FEW060 23/M07 Q1026 NOSIG RMK PP000=
SPZO Nov2003-082000Z 01014KT 340V080 9999 FEW060 22/M08 Q1025 NOSIG
SPZO Nov2003-082100Z 02016KT 340V080 9999 FEW070 21/M04 Q1025 NOSIG RMK PP000 RWY10 03027G44KT=
SPZO Nov2003-082200Z 02018G28KT 350V080 9999 FEW100 17/M00 Q1026 NOSIG RMK PP000 RWY10 03025G49 TMX:23.1=
SPZO Nov2003-082300Z 01015KT 340V080 9999 FEW100 15/M00 Q1027 NOSIG RMK PP000 RWY10 03028G45KT=
SPZO Nov2003-090000Z 03009KT 350V080 9999 SKC 15/M00 Q1028 RMK PP000=
SPZO Nov2003-090100Z 26002KT 9999 SKC 12/02 Q1030 RMK PP000=
SPZO Nov2003-090200Z 07002KT 9999 SKC 12/01 Q1031 RMK PP000=
SPZO Nov2003-090300Z 04002KT 9999 SKC 12/02 Q1031 RMK PP000=
SPZO Nov2003-090400Z 00000KT 9999 FEW050 11/02 Q1031 RMK PP000=
SPZO Nov2003-090500Z 08003KT 9999 FEW050 09/01 Q1031 RMK PP000=
SPZO Nov2003-090600Z 00000KT 9999 FEW050 08/02 Q1030 RMK PP000=
SPZO Nov2003-090700Z 00000KT 9999 FEW050 08/02 Q1030 RMK PP000=
SPZO Nov2003-090800Z 00000KT 9999 FEW050 07/02 Q1030 RMK PP000=
SPZO Nov2003-090900Z 00000KT 9999 FEW050 06/02 Q1030 RMK PP000=
SPZO Nov2003-091000Z 00000KT 9999 FEW050 06/02 Q1031 RMK PP000=
SPZO Nov2003-091100Z 00000KT 9999 SKC 06/03 Q1031 RMK PP000=
SPZO Nov2003-091200Z 00000KT 9999 SKC 12/03 Q1032 NOSIG RMK PP000=
SPZO Nov2003-091300Z VRB02KT 9999 SKC 15/02 Q1032 NOSIG RMK PP000=
SPZO Nov2003-091400Z VRB03KT 9999 FEW060 17/02 Q1031 NOSIG RMK PP000=
SPZO Nov2003-091500Z VRB03KT 9999 FEW060 20/00 Q1030 NOSIG RMK PP000=
SPZO Nov2003-091600Z 29007KT 250V350 9999 FEW060 21/M03 Q1029 NOSIG RMK PP000 RWY10 16008KT=
SPZO Nov2003-091700Z VRB06KT 9999 FEW060 23/M04 Q1028 NOSIG RMK PP000 RWY10 04006KT=
SPZO Nov2003-091800Z 36012KT 340V080 9999 FEW060 23/M07 Q1026 NOSIG RMK PP000 RWY10 35008KT=
SPZO Nov2003-091900Z 02012KT 340V080 9999 FEW060 23/M03 Q1025 NOSIG RMK PP000 RWY10 06017G36=KT
SPZO Nov2003-092000Z 01020G30KT 340V080 9999 FEW060 21/00 Q1024 NOSIG RMK PP000 RWY10 02031G54KT=
SPZO Nov2003-092100Z 01019G29KT 350V080 9999 FEW060 19/01 Q1025 NOSIG RMK PP000 RWY10 03027G49KT=
SPZO Nov2003-092200Z 10025KT 080V170 9999 FEW040 SCT046 15/02 Q1027 NOSIG RMK PP000 RWY10 11043G60KT RA CDTS E/SE TMX:23.7=
SPZO Nov2003-092300Z 10010KT 9999 FEW043 BKN050 13/02 Q1029 NOSIG RMK PP000 RWY10 12021KT=
SPZO Nov2003-100000Z 27006KT 9999 BKN040 SCT050 13/02 Q1029 RMK PP000=
SPZO Nov2003-100100Z 09007KT 9999 FEW040 SCT050 12/03 Q1030 RMK PP000=
SPZO Nov2003-100200Z 10007KT 9999 FEW050 11/04 Q1031 RMK PP000=
SPZO Nov2003-100300Z 08005KT 9999 FEW040 SCT050 11/03 Q1031 RMK PP000=
SPZO Nov2003-100400Z 00000KT 9999 FEW040 09/03 Q1031 RMK PP000=
SPZO Nov2003-100500Z 00000KT 9999 SCT050 09/03 Q1031 RMK PP000=
SPZO Nov2003-100600Z 00000KT 9999 SCT040 09/03 Q1030 RMK PP000=
SPZO Nov2003-100700Z 00000KT 9999 FEW040 08/03 Q1030 RMK PP000=
SPZO Nov2003-100800Z 00000KT 9999 SCT040 07/03 Q1030 RMK PP000=
SPZO Nov2003-100900Z VRB02KT 9999 SCT040 08/04 Q1030 RMK PP000=
SPZO Nov2003-101000Z 00000KT 9999 SCT040 SCT050 08/03 Q1031 RMK PP000=
SPZO Nov2003-101100Z VRB01KT 9999 FEW040 BKN050 08/04 Q1032 RMK PP000=
SPZO Nov2003-101200Z 00000KT 9999 FEW040 BKN046 09/04 Q1033 NOSIG RMK PP000=
SPZO Nov2003-101300Z VRB03KT 9999 SCT040 SCT100 12/04 Q1034 NOSIG RMK PP000 RWY10 11010KT=
SPZO Nov2003-101400Z 14004KT 080V190 9999 SCT040 SCT050 14/04 Q1034 NOSIG RMK PP000 RWY10 11008KT=
SPZO Nov2003-101500Z 12006KT 010V180 9999 FEW040 SCT050 15/03 Q1033 NOSIG RMK PP000 RWY10 10011KT=
SPZO Nov2003-101600Z VRB04KT 9999 FEW040 SCT050 17/02 Q1032 NOSIG RMK PP000 RWY10 05013KT=
SPZO Nov2003-101700Z 36008KT 280V080 9999 SCT050 18/02 Q1030 NOSIG RMK PP000 RWY10 03012KT=
SPZO Nov2003-101800Z VRB04KT 9999 SCT060 20/02 Q1028 NOSIG RMK PP000 RWY10 36009KT=
SPZO Nov2003-101900Z VRB05KT 9999 BKN043 20/01 Q1026 NOSIG RMK PP000=
SPZO Nov2003-102000Z VRB05KT 9999 SCT043 SCT060 20/M00 Q1025 NOSIG RMK PP000=
SPZO Nov2003-102100Z 01013KT 340V080 9999 SCT043 SCT080 19/02 Q1025 NOSIG RMK PP000=
SPZO Nov2003-102200Z 01014KT 340V080 9999 SCT040 SCT043 16/02 Q1025 NOSIG RMK PP000 TMAX 22.1=
SPZO Nov2003-102300Z 32008KT 270V080 9999 BKN043 SCT047 15/01 Q1028 NOSIG RMK PP000=
SPZO Nov2003-110000Z 04005KT 9999 -RA BKN040 SCT047 12/04 Q1029 RMK PP004=
SPZO Nov2003-110100Z 11004KT 9999 BKN043 11/05 Q1030 RMK PP000=
SPZO Nov2003-110200Z 10006KT 9999 SCT040 SCT047 11/04 Q1032 RMK PP000=
SPZO Nov2003-110300Z 12005KT 9999 BKN040 SCT047 11/03 Q1032 RMK PP000=
SPZO Nov2003-110400Z 09004KT 9999 OVC040 11/03 Q1032 RMK PP000=
SPZO Nov2003-110500Z 00000KT 9999 OVC043 11/04 Q1032 RMK PP000=
SPZO Nov2003-110600Z 00000KT 9999 BKN040 SCT050 11/04 Q1031 RMK PP000=
SPZO Nov2003-110700Z 00000KT 9999 SCT040 SCT047 11/04 Q1030 RMK PP000=
SPZO Nov2003-110800Z 00000KT 9999 SCT030 BKN043 11/04 Q1030 RMK PP000=
SPZO Nov2003-110900Z 00000KT 9999 SCT040 SCT050 10/04 Q1030 RMK PP000=
SPZO Nov2003-111000Z 00000KT 9999 VCRA BKN040 SCT047 10/04 Q1031 RMK PP000=
SPZO Nov2003-111100Z 18004KT 9999 FEW037 SCT040 BKN050 10/04 Q1031 RMK PP000=
SPZO Nov2003-111200Z VRB03KT 9999 SCT033 BKN047 11/04 Q1032 TEMPO SCT033 SCT060 RMK PP000=
SPZO Nov2003-111300Z VRB04KT 9999 SCT033 BKN043 14/05 Q1032 NOSIG RMK PP000=
SPZO Nov2003-111400Z 00000KT 9999 SCT033 BKN047 13/04 Q1032 NOSIG RMK PP000=
SPZO Nov2003-111500Z VRB03KT 9999 BKN043 16/05 Q1032 NOSIG RMK PP000=
SPZO Nov2003-111600Z VRB03KT 9999 BKN043 17/03 Q1031 NOSIG RMK PP000=
SPZO Nov2003-111700Z VRB03KT 9999 BKN043 18/02 Q1029 NOSIG RMK PP000=
SPZO Nov2003-111800Z VRB03KT 9999 BKN040 SCT043 17/02 Q1029 TEMPO -RA RMK PP000=
SPZO Nov2003-111900Z 30011KT 260V350 9999 VCSH SCT043TCU BKN047 15/05 Q1028 TEMPO -RA RMK PP000=
SPZO Nov2003-112000Z 01009KT 340V080 9999 SCT043 SCT060 18/04 Q1027 NOSIG RMK PP000=
SPZO Nov2003-112100Z 35007KT 270V020 9999 SCT043 16/03 Q1026 NOSIG RMK PP000=
SPZO Nov2003-112200Z 35007KT 9999 BKN043 15/03 Q1026 NOSIG RMK PP000 TMAX 19.2=
SPZO Nov2003-112300Z 35007KT 270V020 9999 FEW040 BKN043 15/03 Q1027 NOSIG RMK PP000=
SPZO Nov2003-120000Z 27008KT 9999 OVC050 14/05 Q1028 RMK PP000=
SPZO Nov2003-120100Z 28009KT 270V350 9999 OVC050 14/05 Q1029 RMK PP000=
SPZO Nov2003-120200Z 28008KT 270V350 9999 OVC050 13/06 Q1030 RMK PP000=
SPZO Nov2003-120300Z 08008KT 9999 OVC050 10/07 Q1031 RMK PP000=
SPZO Nov2003-120400Z VRB02KT 9999 OVC050 09/06 Q1030 RMK PP000=
SPZO Nov2003-120500Z 10002KT 9999 OVC050 08/06 Q1030 RMK PP000=
SPZO Nov2003-120600Z 08003KT 9999 BKN050 07/05 Q1030 RMK PP000=
SPZO Nov2003-120700Z 00000KT 9999 BKN050 07/05 Q1029 RMK PP000=
SPZO Nov2003-120800Z 00000KT 9999 BKN050 08/06 Q1029 RMK PP000=
SPZO Nov2003-120900Z 07002KT 9999 BKN050 08/05 Q1029 RMK PP000=
SPZO Nov2003-121000Z 00000KT 9999 BKN050 08/05 Q1030 RMK PP000=
SPZO Nov2003-121100Z 10002KT 9999 SCT050 09/06 Q1031 RMK PP000=
SPZO Nov2003-121200Z VRB02KT 9999 FEW033 SCT100 10/06 Q1031 NOSIG RMK PP000=
SPZO Nov2003-121300Z 00000KT 9999 FEW033 14/07 Q1032 TEMPO SCT040 RMK PP000=
SPZO Nov2003-121400Z VRB03KT 9999 SCT040 16/06 Q1031 NOSIG RMK PP000=
SPZO Nov2003-121500Z VRB03KT 9999 BKN043 19/04 Q1030 NOSIG RMK PP000=
SPZO Nov2003-121600Z VRB03KT 9999 FEW040 SCT047 20/03 Q1029 NOSIG RMK PP000=
SPZO Nov2003-121700Z VRB03KT 9999 FEW040 SCT047 22/02 Q1027 NOSIG RMK PP000=
SPZO Nov2003-121800Z VRB02KT 9999 BKN043 24/00 Q1026 NOSIG RMK PP000=
SPZO Nov2003-121900Z 02019KT 340V080 9999 FEW043TCU BKN050 19/03 Q1025 NOSIG RMK PP000 RWY10 03024G42KT=
SPZO Nov2003-122000Z 16007KT 080V200 9999 FEW043TCU BKN050 18/05 Q1026 TEMPO VC-RA RMK PP000 RWY10 12015KT=
SPZO Nov2003-122100Z 11006KT 070V200 9999 FEW043 BKN050 17/05 Q1026 NOSIG REMK PP000 RWY10 01006KT=
SPZO Nov2003-122200Z 03004KT 280V090 9999 FEW043 SCT100 18/04 Q1026 NOSIG RMK PP000 RWY10 03013KT TMX:24.5=
SPZO Nov2003-122300Z VRB03KT 9999 FEW050 16/04 Q1026 NOSIG RMK PP000 RWY10 02012G22KT=
SPZO Nov2003-130000Z VRB02KT 9999 FEW050 14/04 Q1027 RMK PP000=
SPZO Nov2003-130100Z 00000KT 9999 FEW050 13/04 Q1029 RMK PP000=
SPZO Nov2003-130200Z 00000KT 9999 FEW050 13/04 Q1030 RMK PP000=
SPZO Nov2003-130300Z 00000KT 9999 SCT050 13/05 Q1031 RMK PP000=
SPZO Nov2003-130400Z 00000KT 9999 SCT050 12/05 Q1031 RMK PP000=
SPZO Nov2003-130500Z 00000KT 9999 SCT050 12/05 Q1031 RMK PP000=
SPZO Nov2003-130600Z 08003KT 9999 BKN050 10/04 Q1030 RMK PP000=
SPZO Nov2003-130700Z 27003KT 9999 BKN050 10/03 Q1030 RMK PP000=
SPZO Nov2003-130800Z 08002KT 9999 BKN050 08/04 Q1030 RMK PP000=
SPZO Nov2003-130900Z 00000KT 9999 BKN050 07/03 Q1030 RMK PP000=
SPZO Nov2003-131000Z 09004KT 9999 SCT050 06/03 Q1030 RMK PP000=
SPZO Nov2003-131100Z 00000KT 9999 FEW050 10/04 Q1031 RMK PP000=
SPZO Nov2003-131200Z 00000KT 9999 FEW043 13/04 Q1032 NOSIG RMK PP000=
SPZO Nov2003-131300Z VRB02KT 9999 FEW040 SCT050 13/05 Q1033 NOSIG RMK PP000 RWY10 12007KT=
SPZO Nov2003-131400Z VRB03KT 9999 FEW043 SCT050 15/05 Q1033 NOSIG RMK PP000 RWY10 12008KT=
SPZO Nov2003-131500Z VRB02KT 9999 FEW043 SCT050 19/04 Q1032 NOSIG RMK PP000 RWY10 03005KT=
SPZO Nov2003-131600Z VRB06KT 9999 FEW043 BKN050 18/04 Q1031 NOSIG RMK PP000 RWY10 34006KT=
SPZO Nov2003-131700Z VRB04KT 9999 SCT050 20/03 Q1030 NOSIG RMK PP000 RWY10 12006KT=
SPZO Nov2003-131800Z VRB04KT 9999 BKN050 22/03 Q1028 NOSIG RMK PP000 RWY10 30010KT=
SPZO Nov2003-131900Z VRB04KT 9999 BKN050 20/03 Q1026 NOSIG RMK PP000 RWY10 32013KT=
SPZO Nov2003-132000Z 01008KT 340V080 9999 SCT050 20/03 Q1025 NOSIG RMK PP000 RWY10 35010KT=
SPZO Nov2003-132100Z 01010KT 340V080 9999 SCT050 21/04 Q1025 NOSIG RMK PP000 RWY10 32012KT=
SPZO Nov2003-132200Z 35008KT 270V020 9999 FEW043 BKN100 19/04 Q1025 NOSIG RMK PP000 TMX:21.9=
SPZO Nov2003-132300Z 01007KT 340V080 9999 FEW100 18/04 Q1026 NOSIG RMK PP000 RWY10 02013KT=
SPZO Nov2003-140000Z 27008KT 9999 FEW040 SCT050 16/06 Q1028 RMK PP000=
SPZO Nov2003-140100Z 07006KT 9999 SCT040 SCT047 16/05 Q1029 RMK PP000=
SPZO Nov2003-140200Z 08005KT 9999 SCT040 SCT050 14/05 Q1030 RMK PP000=
SPZO Nov2003-140300Z 18008KT 9999 BKN040 14/03 Q1032 RMK PP000=
SPZO Nov2003-140400Z 27007KT 9000 -RA OVC040 11/06 Q1033 RMK PP004=
SPZO Nov2003-140500Z 27006KT 9000 -RA OVC040 09/07 Q1033 RMK PP014=
SPZO Nov2003-140600Z 10006KT 9999 -RA OVC040 09/07 Q1032 RMK PP020=
SPZO Nov2003-140700Z 09006KT 9999 SCT037 BKN043 08/06 Q1031 RMK PP002=
SPZO Nov2003-140800Z 00000KT 9999 SCT030 BKN040 08/04 Q1031 RMK PP000=
SPZO Nov2003-140900Z VRB03KT 9999 SCT037 BKN043 08/06 Q1031 RMK PP000=
SPZO Nov2003-141000Z VRB01KT 9999 BKN040 SCT050 09/06 Q1031 RMK PP000=
SPZO Nov2003-141100Z VRB01KT 9999 FEW037 SCT043 BKN050 09/06 Q1032 RMK PP000=
SPZO Nov2003-141200Z 00000KT 9999 FEW043 OVC050 10/06 Q1033 NOSIG RMK PP000=
SPZO Nov2003-141300Z 00000KT 9999 FEW037 OVC050 11/06 Q1033 NOSIG RMK PP000=
SPZO Nov2003-141400Z 00000KT 9999 FEW040 OVC050 12/06 Q1033 NOSIG RMK PP000 RWY10 10005KT=
SPZO Nov2003-141500Z VRB01KT 9999 FEW043 OVC050 14/06 Q1033 NOSIG RMK PP000=
SPZO Nov2003-141600Z VRB02KT 9999 FEW040 OVC050 15/06 Q1032 NOSIG RMK PP000=
SPZO Nov2003-141700Z VRB02KT 9999 FEW043 OVC060 16/04 Q1031 NOSIG RMK PP000 RWY10 28004KT=
SPZO Nov2003-141800Z VRB02KT 9999 FEW046 OVC080 18/03 Q1030 NOSIG RMK PP000 RWY10 10007KT=
SPZO Nov2003-141900Z VRB05KT 9999 FEW050 OVC100 19/03 Q1029 NOSIG RMK PP000=
SPZO Nov2003-142000Z VRB04KT 9999 FEW060 OVC300 20/02 Q1027 NOSIG RMK PP000=
SPZO Nov2003-142100Z 28008KT 250V350 9999 FEW050 OVC300 19/01 Q1026 NOSIG RMK PP000=
SPZO Nov2003-142200Z 28006KT 250V350 9999 FEW043 OVC300 19/04 Q1026 NOSIG RMK PP000 TMAX 20.1=
SPZO Nov2003-142300Z 27005KT 9999 BKN300 16/03 Q1026 NOSIG RMK PP000=
SPZO Nov2003-150000Z 34006KT 9999 FEW040 BKN300 15/06 Q1027 RMK PP000=
SPZO Nov2003-150100Z 06004KT 9999 FEW050 SCT300 14/05 Q1029 RMK PP000=
SPZO Nov2003-150200Z VRB01KT 9999 FEW040 SCT300 13/06 Q1030 TMK PP000=
SPZO Nov2003-150300Z 08004KT 9999 FEW040 SCT100 11/07 Q1030 RMK PP000=
SPZO Nov2003-150400Z 00000KT 9999 SCT040 SCT050 11/06 Q1030 RMK PP000=
SPZO Nov2003-150500Z 00000KT 9999 FEW040 SCT050 11/07 Q1029 RMK PP000=
SPZO Nov2003-150600Z 00000KT 9999 SCT040 SCT050 10/07 Q1029 RMK PP000=
SPZO Nov2003-150700Z 00000KT 9999 SCT040 SCT050 09/06 Q1028 RMK PP000=
SPZO Nov2003-150800Z 00000KT 9999 SCT040 SCT050 09/06 Q1028 RMK PP000=
SPZO Nov2003-150900Z 00000KT 9999 FEW037 SCT050 09/06 Q1028 RMK PP000=
SPZO Nov2003-151000Z 00000KT 9999 FEW040 BKN050 08/05 Q1029 RMK PP000=
SPZO Nov2003-151100Z 00000KT 9999 FEW050 SCT300 08/05 Q1030 RMK PP000=
SPZO Nov2003-151200Z VRB01KT 9999 FEW043 12/06 Q1031 NOSIG RMK PP000=
SPZO Nov2003-151300Z VRB02KT 9999 FEW043 16/07 Q1031 NOSIG RMK PP000=
SPZO Nov2003-151400Z 00000KT 9999 SCT043 18/05 Q1031 NOSIG RMK PP000=
SPZO Nov2003-151500Z VRB03KT 9999 FEW040 SCT043 18/05 Q1030 NOSIG RMK PP000=
SPZO Nov2003-151600Z VRB04KT 9999 BKN043 21/01 Q1029 NOSIG RMK PP000=
SPZO Nov2003-151700Z 02009KT 340V060 9999 BKN043 20/03 Q1028 NOSIG RMK PP000=
SPZO Nov2003-151800Z 04007KT 330V140 9999 BKN043 22/01 Q1026 NOSIG RMK PP000=
SPZO Nov2003-151900Z 36011KT 330V040 9999 VCSH SCT043 SCT047TCU 20/04 Q1025 NOSIG RMK PP000=
SPZO Nov2003-152000Z 00000KT 9999 VCSH SCT043 SCT047TCU 18/05 Q1026 NOSIG RMK PP000=
SPZO Nov2003-152100Z VRB03KT 9999 SCT043 20/04 Q1025 NOSIG RMK PP000=
SPZO Nov2003-152200Z 31008KT 260V350 9999 SCT043 19/03 Q1025 NOSIG RMK PP000 TMAX 22.8=
SPZO Nov2003-152300Z 22006KT 190V260 9999 FEW047 17/05 Q1025 NOSIG RMK PP000=
SPZO Nov2003-160000Z 00000KT 9999 FEW050 16/05 Q1026 RMK PP000=
SPZO Nov2003-160100Z 00000KT 9999 FEW050 12/05 Q1027 RMK PP000=
SPZO Nov2003-160200Z 00000KT 9999 FEW050 12/05 Q1028 RMK PP000=
SPZO Nov2003-160300Z 00000KT 9999 FEW050 11/05 Q1029 RMK PP000=
SPZO Nov2003-160400Z 00000KT 9999 FEW050 11/05 Q1029 RMK PP000=
SPZO Nov2003-160500Z 00000KT 9999 FEW050 11/06 Q1029 RMK PP000=
SPZO Nov2003-160600Z 00000KT 9999 FEW050 10/06 Q1029 RMK PP000=
SPZO Nov2003-160700Z 00000KT 9999 FEW050 08/05 Q1028 RMK PP000=
SPZO Nov2003-160800Z 00000KT 9999 FEW050 08/06 Q1029 RMK PP000=
SPZO Nov2003-160900Z 00000KT 9999 SCT050 08/05 Q1029 RMK PP000=
SPZO Nov2003-161000Z 28004KT 9999 SCT050 08/06 Q1030 RMK PP000=
SPZO Nov2003-161100Z 00000KT 9999 SCT050 09/06 Q1031 RMK PP000=
SPZO Nov2003-161200Z 00000KT 9999 FEW043 SCT060 12/07 Q1031 NOSIG RMK PP000=
SPZO Nov2003-161300Z 24005KT 180V320 9999 SCT040 15/07 Q1032 NOSIG RMK PP000=
SPZO Nov2003-161400Z 24006KT 160V290 9999 SCT040 17/06 Q1031 NOSIG RMK PP000=
SPZO Nov2003-161500Z VRB03KT 9999 FEW040 SCT043 20/03 Q1030 NOSIG RMK PP000=
SPZO Nov2003-161600Z VRB06KT 9999 FEW040 SCT043 20/02 Q1029 NOSIG RMK PP000=
SPZO Nov2003-161700Z 23007KT 160V320 9999 FEW040 SCT047 21/03 Q1028 NOSIG RMK RWY10 25014G28KT 200V310 PP000=
SPZO Nov2003-161800Z VRB02KT 9999 BKN043 20/02 Q1027 NOSIG RMK PP000=
SPZO Nov2003-161900Z VRB07KT 9999 SCT050 23/01 Q1025 NOSIG RMK PP000 REWY10 31016KT=
SPZO Nov2003-162000Z 29010KT 230V010 9999 SCT050 23/01 Q1024 NOSIG RMK PP000 RWY10 30014KT=
SPZO Nov2003-162100Z 27009KT 200V320 9999 SCT050 22/01 Q1024 NOSIG RMK PP000 RWY10 28008KT=
SPZO Nov2003-162200Z 27009KT 200V320 9999 BKN050 20/03 Q1024 NOSIG RMK PP000 RWY10 31015KT TMX:23.7=
SPZO Nov2003-162300Z VRB06KT 9999 FEW050 18/04 Q1025 NOSIG RMK PP000 RWY10 34010KT=
SPZO Nov2003-170000Z 10008KT 070V140 9999 FEW050 15/05 Q1027 RMK PP000=
SPZO Nov2003-170100Z 11004KT 070V150 9999 FEW050 14/04 Q1028 RMK PP000=
SPZO Nov2003-170200Z VRB02KT 9999 FEW050 13/05 Q1029 RMK PP000=
SPZO Nov2003-170300Z VRB02KT 9999 SCT050 12/05 Q1030 RMK PP000=
SPZO Nov2003-170400Z 00000KT 9999 SCT050 12/05 Q1029 RMK PP000=
SPZO Nov2003-170500Z 30004KT 240V050 9999 SCT050 12/06 Q1029 RMK PP000=
SPZO Nov2003-170600Z VRB03KT 9999 BKN050 12/05 Q1028 RMK PP000=
SPZO Nov2003-170700Z 00000KT 9999 BKN050 10/04 Q1028 RMK PP000=
SPZO Nov2003-170800Z 00000KT 9999 SCT050 08/04 Q1028 RMK PP000=
SPZO Nov2003-170900Z 00000KT 9999 SCT050 08/04 Q1028 RMK PP000=
SPZO Nov2003-171000Z 00000KT 9999 SCT050 07/04 Q1029 RMK PP000=
SPZO Nov2003-171100Z 00000KT 9999 FEW050 08/05 Q1030 RMK PP000=
SPZO Nov2003-171200Z 00000KT 9999 FEW043 14/06 Q1031 NOSIG RMK PP000=
SPZO Nov2003-171300Z VRB02KT 9999 FEW043 15/04 Q1031 NOSIG RMK PP000=
SPZO Nov2003-171400Z VRB04KT 9999 FEW043 17/01 Q1030 NOSIG RMK PP000=
SPZO Nov2003-171500Z 01005KT 270V070 9999 FEW043 19/M03 Q1029 NOSIG RMK PP000=
SPZO Nov2003-171600Z VRB06KT 9999 SCT043 21/M02 Q1028 NOSIG RMK PP000=
SPZO Nov2003-171700Z VRB06KT 9999 SCT043 22/M06 Q1026 NOSIG RMK PP000=
SPZO Nov2003-171800Z 31007KT 260V360 9999 SCT043 23/M03 Q1025 NOSIG RMK PP000=
SPZO Nov2003-171900Z 26005KT 170V330 9999 BKN043 25/M05 Q1023 NOSIG RMK PP000=
SPZO Nov2003-172000Z VRB03KT 9999 FEW040 SCT047 25/M05 Q1022 NOSIG RMK PP000=
SPZO Nov2003-172100Z 30011KT 250V350 9999 SCT043 23/M04 Q1022 NOSIG RMK PP000=
SPZO Nov2003-172200Z 35009KT 290V040 9999 SCT043 21/02 Q1022 NOSIG RMK PP000 TMAX 24.9=
SPZO Nov2003-172300Z 34009KT 300V020 9999 SKC 19/01 Q1023 NOSIG RMK PP000=
SPZO Nov2003-180000Z 30007KT 9999 SKC 17/05 Q1025 RMK PP000=
SPZO Nov2003-180100Z 08006KT 9999 SKC 14/06 Q1026 RMK PP000=
SPZO Nov2003-180200Z 10007KT 9999 SKC 13/06 Q1027 RMK PP000=
SPZO Nov2003-180300Z 07004KT 9999 SKC 13/05 Q1028 RMK PP000=
SPZO Nov2003-180400Z 00000KT 9999 SKC 10/04 Q1028 RMK PP000=
SPZO Nov2003-180500Z 00000KT 9999 SKC 10/04 Q1028 RMK PP000=
SPZO Nov2003-180600Z 00000KT 9999 SKC 08/04 Q1028 RMK PP000=
SPZO Nov2003-180700Z 00000KT 9999 SKC 09/04 Q1027 RMK PP000=
SPZO Nov2003-180800Z 00000KT 9999 FEW050 09/04 Q1027 RMK PP000=
SPZO Nov2003-180900Z 00000KT 9999 FEW050 08/04 Q1028 RMK PP000=
SPZO Nov2003-181000Z 00000KT 9999 SKC 07/04 Q1028 RMK PP000=
SPZO Nov2003-181100Z VRB01KT 9000 SKC 07/03 Q1029 RMK PP000=
SPZO Nov2003-181200Z VRB02KT 9999 SKC 12/04 Q1030 NOSIG RMK PP000=
SPZO Nov2003-181300Z VRB02KT 9999 SKC 15/03 Q1030 NOSIG RMK PP000=
SPZO Nov2003-181400Z VRB03KT 9999 SKC 17/M03 Q1030 NOSIG RMK PP000=
SPZO Nov2003-181500Z VRB04KT 9999 SKC 18/M05 Q1028 NOSIG RMK PP000 RWY10 01011KT=
SPZO Nov2003-181600Z VRB05KT 9999 FEW060 20/M09 Q1027 NOSIG RMK PP000 RWY10 08005KT=
SPZO Nov2003-181700Z VRB04KT 9999 FEW060 22/M08 Q1026 NOSIG RMK PP000 RWY10 12008KT=
SPZO Nov2003-181800Z 26007KT 190V330 9999 SCT050 24/M07 Q1024 NOSIG RMK PP000 RWY10 30018KT=
SPZO Nov2003-181900Z VRB07KT 9999 BKN043 23/M00 Q1024 NOSIG RMK PP000=
SPZO Nov2003-182000Z 03010KT 340V070 9999 SCT047 21/M01 Q1023 NOSIG RMK PP000=
SPZO Nov2003-182100Z 12012KT 090V170 9999 SCT047 21/M00 Q1023 NOSIG RMK PP000=
SPZO Nov2003-182200Z 01007KT 320V070 9999 SCT047 18/02 Q1023 NOSIG RMK PP000 TMAX 24.5=
SPZO Nov2003-182300Z 36007KT 300V050 9999 FEW040 SCT080 17/02 Q1025 NOSIG RMK PP000=
SPZO Nov2003-190000Z 11007KT 9999 FEW050 15/03 Q1026 RMK PP000=
SPZO Nov2003-190100Z 10006KT 9999 FEW050 13/03 Q1028 RMK PP000=
SPZO Nov2003-190200Z VRB03KT 9999 SKC 13/03 Q1029 RMK PP000=
SPZO Nov2003-190300Z 10004KT 9999 SKC 09/03 Q1030 RMK PP000=
SPZO Nov2003-190400Z 00000KT 9999 SKC 10/03 Q1031 RMK PP000=
SPZO Nov2003-190500Z 00000KT 9999 SKC 09/03 Q1031 RMK PP000=
SPZO Nov2003-190600Z 00000KT 9999 SKC 08/03 Q1030 RMK PP000=
SPZO Nov2003-190700Z 00000KT 9999 SKC 07/03 Q1029 RMK PP000=
SPZO Nov2003-190800Z 00000KT 9999 SKC 06/02 Q1029 RMK PP000=
SPZO Nov2003-190900Z 00000KT 9999 SKC 07/03 Q1029 RMK PP000=
SPZO Nov2003-191000Z 00000KT 9999 SKC 06/02 Q1030 RMK PP000=
SPZO Nov2003-191100Z 00000KT 9000 BKN300 07/03 Q1031 RMK PP000=
SPZO Nov2003-191200Z 00000KT 9999 FEW043 SCT300 11/04 Q1032 NOSIG RMK PP000=
SPZO Nov2003-191300Z VRB01KT 9999 FEW043 SCT300 14/05 Q1031 NOSIG RMK PP000=
SPZO Nov2003-191400Z 00000KT 9999 FEW043 SCT300 17/04 Q1031 NOSIG RMK PP000=
SPZO Nov2003-191500Z VRB02KT 9999 FEW043 19/01 Q1030 NOSIG RMK PP000=
SPZO Nov2003-191600Z 04004KT 320V110 9999 SCT043 20/M02 Q1029 NOSIG RMK PP000=
SPZO Nov2003-191700Z VRB05KT 9999 SCT043 23/M02 Q1026 NOSIG RMK PP000=
SPZO Nov2003-191800Z 27006KT 220V350 9999 BKN043 22/M04 Q1025 NOSIG RMK PP000=
SPZO Nov2003-191900Z 36011KT 320V040 9999 FEW037 BKN043 21/01 Q1025 NOSIG RMK PP000=
SPZO Nov2003-192000Z 35011KT 320V030 9999 SCT043 22/00 Q1023 NOSIG RMK PP000=
SPZO Nov2003-192100Z 03011KT 340V070 9999 FEW043 21/M00 Q1023 NOSIG RMK PP000=
SPZO Nov2003-192200Z VRB03KT 9999 FEW060 21/M01 Q1022 NOSIG RMK PP000 TMAX 23.3=
SPZO Nov2003-192300Z 01009KT 320V050 9999 FEW060 19/02 Q1023 NOSIG RMK PP000=
SPZO Nov2003-200000Z 32005KT 260V010 9999 FEW050 17/04 Q1025 RMK PP000=
SPZO Nov2003-200100Z VRB02KT 9999 FEW050 15/05 Q1027 RMK PP000=
SPZO Nov2003-200200Z VRB03KT 9999 FEW050 12/05 Q1028 RMK PP000=
SPZO Nov2003-200300Z VRB02KT 9999 FEW050 13/05 Q1029 RMK PP000=
SPZO Nov2003-200400Z 00000KT 9999 FEW050 12/05 Q1029 RMK PP000=
SPZO Nov2003-200500Z 00000KT 9999 FEW050 10/05 Q1029 RMK PP000=
SPZO Nov2003-200600Z 11013KT 080V150 9999 FEW050 10/04 Q1029 RMK PP000=
SPZO Nov2003-200700Z VRB02KT 9999 FEW050 10/04 Q1029 RMK PP000=
SPZO Nov2003-200800Z 00000KT 9999 SCT050 10/04 Q1029 RMK PP000=
SPZO Nov2003-200900Z 08003KT 7000 -RA FEW040 SCT050 09/05 Q1029 RMK PP002=
SPZO Nov2003-201000Z 09002KT 9000 FEW040 SCT050 08/05 Q1029 RERA RMK PP002=
SPZO Nov2003-201100Z 00000KT 9999 SCT060 09/05 Q1030 RMK PP000=
SPZO Nov2003-201200Z VRB01KT 9999 FEW100 SCT300 12/05 Q1031 NOSIG RMK PP000=
SPZO Nov2003-201300Z VRB02KT 9999 FEW043 BKN300 14/04 Q1031 NOSIG RMK PP000=
SPZO Nov2003-201400Z 06004KT 320V130 9999 FEW043 BKN300 16/04 Q1031 NOSIG RMK PP000=
SPZO Nov2003-201500Z VRB03KT 9999 SCT043 BKN300 18/04 Q1030 NOSIG RMK PP000=
SPZO Nov2003-201600Z 02013KT 330V050 9999 SCT043 OVC300 19/01 Q1029 NOSIG RMK PP000=
SPZO Nov2003-201700Z VRB04KT 9999 SCT043 BKN300 20/01 Q1028 NOSIG RMK PP000=
SPZO Nov2003-201800Z 01014KT 330V060 9999 SCT043 BKN300 20/00 Q1027 NOSIG RMK PP000=
SPZO Nov2003-201900Z 03015KT 330V070 9999 SCT043 BKN300 21/00 Q1026 NOSIG RMK PP000=
SPZO Nov2003-202000Z 02019KT 330V070 9999 FEW043 BKN300 19/01 Q1025 NOSIG RMK PP000=
SPZO Nov2003-202100Z 01016KT 340V070 9999 FEW043 BKN300 18/00 Q1025 NOSIG RMK PP000=
SPZO Nov2003-202200Z 02014KT 340V060 9999 FEW043 BKN300 16/02 Q1026 NOSIG RMK PP000 TMAX 20.7=
SPZO Nov2003-202300Z 01010KT 330V070 9999 SCT060 BKN300 15/02 Q1027 NOSIG RMK PP000=
SPZO Nov2003-210000Z 11014KT 9999 SCT050 SCT100 12/04 Q1029 RMK PP000=
SPZO Nov2003-210100Z 00000KT 9999 BKN050 12/02 Q1029 RMK PP000=
SPZO Nov2003-210200Z VRB03KT 9999 BKN050 10/03 Q1031 RMK PP000=
SPZO Nov2003-210300Z VRB02KT 9999 SCT050 10/03 Q1031 RMK PP000=
SPZO Nov2003-210400Z 00000KT 9999 SCT050 08/02 Q1031 RMK PP000=
SPZO Nov2003-210500Z 00000KT 9999 SCT050 07/02 Q1031 RMK PP000=
SPZO Nov2003-210600Z 00000KT 9999 SCT050 06/02 Q1031 RMK PP000=
SPZO Nov2003-210700Z 00000KT 9999 SCT050 05/02 Q1030 RMK PP000=
SPZO Nov2003-210800Z 00000KT 9999 SCT050 06/02 Q1030 RMK PP000=
SPZO Nov2003-210900Z 00000KT 9999 FEW060 05/01 Q1030 RMK PP000=
SPZO Nov2003-211000Z 00000KT 9999 FEW080 05/01 Q1030 RMK PP000=
SPZO Nov2003-211100Z 00000KT 9999 FEW100 05/01 Q1031 RMK PP000=
SPZO Nov2003-211200Z 00000KT 9999 BKN300 10/02 Q1032 NOSIG RMK PP000=
SPZO Nov2003-211300Z VRB03KT 9999 BKN300 12/03 Q1032 NOSIG RMK PP000=
SPZO Nov2003-211400Z VRB02KT 9999 FEW047 BKN300 15/01 Q1032 NOSIG RMK PP000=
SPZO Nov2003-211500Z VRB04KT 9999 FEW047 17/M01 Q1031 NOSIG RMK PP000=
SPZO Nov2003-211600Z VRB04KT 9999 FEW047 SCT300 19/01 Q1030 NOSIG RMK PP000=
SPZO Nov2003-211700Z VRB07KT 9999 FEW047 21/M01 Q1029 NOSIG RMK PP000=
SPZO Nov2003-211800Z 01012KT 340V080 9999 SCT047 22/00 Q1027 NOSIG RMK PP000=
SPZO Nov2003-211900Z 36011KT 300V060 9999 SCT047 21/01 Q1026 NOSIG RMK PP000=
SPZO Nov2003-212000Z 01014KT 330V050 9999 FEW047 21/M00 Q1025 NOSIG RMK PP000=
SPZO Nov2003-212100Z 02012KT 330V090 9999 FEW043 19/01 Q1025 NOSIG RMK PP000=
SPZO Nov2003-212200Z 02010KT 330V060 9999 FEW043 18/M00 Q1025 NOSIG RMK PP000 TMAX 21.9=
SPZO Nov2003-212300Z 03010KT 350V080 9999 FEW300 16/M01 Q1027 TEMPO SKC RMK PP00=
SPZO Nov2003-220000Z 22004KT 9999 FEW300 15/00 Q1028 RMK PP000=
SPZO Nov2003-220100Z 12004KT 9999 SKC 13/02 Q1030 RMK PP000=
SPZO Nov2003-220200Z 08007KT 9999 SKC 11/02 Q1031 RMK PP000=
SPZO Nov2003-220300Z 09004KT 9999 SKC 13/03 Q1032 RMK PP000=
SPZO Nov2003-220400Z 00000KT 9999 SKC 12/03 Q1031 RMK PP000=
SPZO Nov2003-220500Z 00000KT 9999 SKC 12/03 Q1031 RMK PP000=
SPZO Nov2003-220600Z 00000KT 9999 SKC 12/03 Q1030 RMK PP000=
SPZO Nov2003-220700Z 10005KT 9999 FEW050 11/04 Q1030 RMK PP000=
SPZO Nov2003-220800Z 00000KT 9999 FEW040 11/03 Q1030 RMK PP000=
SPZO Nov2003-220900Z VRB03KT 9999 FEW040 SCT050 10/03 Q1030 RMK PP000=
SPZO Nov2003-221000Z 00000KT 9999 FEW040 SCT050 09/03 Q1031 RMK PP000=
SPZO Nov2003-221100Z 00000KT 9999 FEW050 SCT300 11/04 Q1032 RMK PP000=
SPZO Nov2003-221200Z VRB01KT 9999 FEW043 BKN300 14/04 Q1032 NOSIG RMK PP000=
SPZO Nov2003-221300Z VRB01KT 9999 SCT043 BKN300 15/04 Q1032 NOSIG RMK PP000=
SPZO Nov2003-221400Z VRB04KT 9999 SCT043 SCT300 18/04 Q1032 NOSIG RMK PP000=
SPZO Nov2003-221500Z VRB03KT 9999 FEW043 SCT047 BKN300 19/02 Q1031 NOSIG RMK PP000=
SPZO Nov2003-221600Z VRB03KT 9999 FEW043 SCT047 BKN300 20/02 Q1030 NOSIG RMK PP000=
SPZO Nov2003-221700Z VRB04KT 9999 FEW043 SCT047 BKN300 20/02 Q1028 RMK PP000=
SPZO Nov2003-221800Z VRB04KT 9999 BKN043 SCT300 23/M02 Q1027 NOSIG RMK PP000=
SPZO Nov2003-221900Z 31006KT 230V020 9999 BKN043 23/02 Q1025 NOSIG RMK PP000=
SPZO Nov2003-222000Z 02007KT 320V080 9999 BKN043 21/01 Q1024 NOSIG BRMK PP000=
SPZO Nov2003-222100Z 01008KT 300V070 9999 SCT043 22/03 Q1024 NOSIG RMK PP000=
SPZO Nov2003-222200Z 07008KT 020V110 9999 FEW047 20/03 Q1024 NOSIG RMK PP000 TMAX 24.3=
SPZO Nov2003-222300Z VRB04KT 9999 FEW060 BKN300 18/04 Q1025 NOSIG RMK PP000=
SPZO Nov2003-230000Z 00000KT 9999 FEW050 SCT300 16/03 Q1027 RMK PP000=
SPZO Nov2003-230100Z VRB01KT 9999 SCT050 15/03 Q1029 RMK PP000=
SPZO Nov2003-230200Z 10004KT 9999 FEW040 SCT050 13/03 Q1030 RMK PP000=
SPZO Nov2003-230300Z 03006KT 9999 FEW040 SCT050 14/03 Q1030 RMK PP000=
SPZO Nov2003-230400Z VRB02KT 9999 FEW040 SCT050 13/04 Q1030 RMK PP000=
SPZO Nov2003-230500Z 10005KT 9999 SCT050 13/04 Q1030 RMK PP000=
SPZO Nov2003-230600Z 10007KT 9999 BKN050 12/05 Q1030 RMK PP000=
SPZO Nov2003-230700Z 00000KT 9999 BKN050 12/05 Q1029 RMK PP000=
SPZO Nov2003-230800Z 00000KT 9999 SCT040 11/06 Q1029 RMK PP000=
SPZO Nov2003-230900Z 00000KT 9999 FEW040 SCT050 10/06 Q1029 RMK PP000=
SPZO Nov2003-231000Z 00000KT 9999 FEW040 SCT050 10/05 Q1030 RMK PP000=
SPZO Nov2003-231100Z 00000KT 9999 SCT043 BKN300 09/05 Q1030 RMK PP000=
SPZO Nov2003-231200Z VRB02KT 9999 FEW100 BKN300 11/08 Q1031 NOSIG RMK PP000=
SPZO Nov2003-231300Z VRB02KT 9999 FEW043 BKN300 14/05 Q1031 NOSIG RMK PP000=
SPZO Nov2003-231400Z VRB03KT 9999 SCT043 SCT300 18/04 Q1031 NOSIG RMK PP000=
SPZO Nov2003-231500Z VRB03KT 9999 SCT043 SCT300 19/05 Q1030 NOSIG RMK PP000=
SPZO Nov2003-231600Z 03005KT 300V110 9999 FEW043 SCT047 BKN300 21/04 Q1028 NOSIG RMK PP000=
SPZO Nov2003-231700Z 26005KT 230V340 9999 FEW043 SCT047 BKN300 22/00 Q1027 NOSIG RMK PP000=
SPZO Nov2003-231800Z VRB05KT 9999 BKN043 SCT300 23/01 Q1026 NOSIG RMK PP000=
SPZO Nov2003-231900Z VRB05KT 9999 BKN043 SCT300 23/00 Q1025 NODIG RMK PP000=
SPZO Nov2003-232000Z 27011KT 220V360 9999 -DZ VCSH SCT043CB SCT060 19/01 Q1025 TEMPO -RA RMK PPTRZ=
SPZO Nov2003-232100Z 33006KT 270V020 9999 SCT043 BKN100 18/04 Q1025 NOSIG REDZ RMK PPTRZ=
SPZO Nov2003-232200Z 01006KT 290V090 9999 SCT043 SCT100 18/03 Q1025 NOSIG RMK PP000 TMAX 24.7=
SPZO Nov2003-232300Z 13006KT 090V200 9999 SCT060 SCT300 16/04 Q1026 NOSIG RMK PP000=
SPZO Nov2003-240000Z 00000KT 9999 SCT050 SCT100 15/04 Q1027 RMK PP000=
SPZO Nov2003-240100Z 00000KT 9999 BKN050 13/04 Q1028 RMK PP000=
SPZO Nov2003-240200Z 00000KT 9999 BKN050 13/05 Q1029 RMK PP000=
SPZO Nov2003-240300Z 00000KT 9999 BKN050 13/05 Q1030 RMK PP000=
SPZO Nov2003-240400Z 00000KT 9999 BKN050 13/06 Q1029 RMK PP000=
SPZO Nov2003-240500Z 00000KT 9999 BKN050 12/06 Q1029 RMK PP000=
SPZO Nov2003-240600Z 10003KT 9999 OVC050 12/07 Q1029 RMK PP000=
SPZO Nov2003-240700Z 09003KT 9999 OVC050 12/07 Q1029 RMK PP000=
SPZO Nov2003-240800Z 11007KT 9999 OVC050 10/07 Q1029 RMK PP000=
SPZO Nov2003-240900Z 12004KT 8000 -DZ OVC050 10/06 Q1029 RMK PPTRZ=
SPZO Nov2003-241000Z 11002KT 9000 BKN050 10/06 Q1029 REDZ RMK PP002=
SPZO Nov2003-241100Z 09002KT 9999 BKN050 09/06 Q1030 RMK PP000=
SPZO Nov2003-241200Z VRB01KT 9999 FEW050 SCT300 12/07 Q1030 NOSIG RMK PP000=
SPZO Nov2003-241300Z VRB02KT 9999 FEW047 SCT300 15/06 Q1030 NOSIG RMK PP000=
SPZO Nov2003-241400Z VRB02KT 9999 FEW043 SCT300 16/05 Q1030 NOSIG RMK PP000=
SPZO Nov2003-241500Z VRB02KT 9999 SCT043 20/04 Q1029 NOSIG RMK PP000=
SPZO Nov2003-241600Z VRB03KT 9999 FEW043 SCT047 22/05 Q1028 NOSIG RMK PP000=
SPZO Nov2003-241700Z VRB03KT 9999 BKN043 23/M00 Q1026 NOSIG RMK PP000=
SPZO Nov2003-241800Z VRB03KT 9999 BKN043 25/00 Q1024 NOSIG RMK PP000=
SPZO Nov2003-241900Z 05012KT 350V100 9999 BKN043 24/03 Q1022 NODIG RMK PP000=
SPZO Nov2003-242000Z VRB07KT 9999 TS VCSH SCT047CB SCT080 20/03 Q1023 TEMPO -SHRA RMK PP000=
SPZO Nov2003-242100Z VRB06KT 9999 SCT043CB BKN080 18/04 Q1024 RETS NOSIG RMK PP000=
SPZO Nov2003-242200Z 09009KT 9999 SCT043 BKN080 17/05 Q1024 NOSIG RMK PP000 TMAX 24.9=
SPZO Nov2003-242300Z 13005KT 100V180 9999 FEW043 BKN080 16/05 Q1024 NOSIG RMK PP000=
SPZO Nov2003-250000Z 10006KT 9999 SCT050 SCT070 15/05 Q1025 RMK PP000=
SPZO Nov2003-250100Z 10002KT 9999 BKN050 14/05 Q1027 RMK PP000=
SPZO Nov2003-250200Z 00000KT 9999 BKN050 13/05 Q1028 RMK PP000=
SPZO Nov2003-250300Z 11009KT 070V140 9999 BKN050 13/05 Q1029 RMK PP000=
SPZO Nov2003-250400Z 12006KT 090V160 9999 BKN050 12/05 Q1029 RMK PP000=
SPZO Nov2003-250500Z 00000KT 9999 BKN050 11/05 Q1029 RMK PP000=
SPZO Nov2003-250600Z 30003KT 9999 BKN050 09/04 Q1029 RMK PP000=
SPZO Nov2003-250700Z 00000KT 9999 BKN050 09/04 Q1028 RMK PP000=
SPZO Nov2003-250800Z 00000KT 9999 BKN050 09/04 Q1027 RMK PP000=
SPZO Nov2003-250900Z 00000KT 9999 BKN050 08/04 Q1027 RMK PP000=
SPZO Nov2003-251000Z 00000KT 9999 SCT050 07/04 Q1028 RMK PP000=
SPZO Nov2003-251100Z 11002KT 9999 FEW050 SCT100 07/04 Q1028 RMK PP000=
SPZO Nov2003-251200Z VRB03KT 9999 BKN100 12/05 Q1029 NOSIG RMK PP000 RWY10 11007KT=
SPZO Nov2003-251300Z VRB02KT 9999 BKN090 15/05 Q1029 N0SIG RMK PP000=
SPZO Nov2003-251400Z VRB02KT 9999 BKN090 17/03 Q1029 N0SIG RMK PP000 RWY10 VRB04KT=
SPZO Nov2003-251500Z VRB03KT 9999 FEW050 OVC080 18/02 Q1028 NOSIG RMK PP000 RWY10 24007KT=
SPZO Nov2003-251600Z 26005KT 180V340 9999 FEW050 OVC080 20/02 Q1027 NOSIG RMK PP000 RWY10 35010KT=
SPZO Nov2003-251700Z 27008KT 210V320 9999 SCT046 BKN060 20/03 Q1026 NOSIG RMK RWY10 28014KT PP000 -RA CDTS NE/E=
SPZO Nov2003-251800Z 01011KT 340V060 9999 SCT043 BKN050 19/02 Q1026 TEMPO VC-RA RMK PP000 RWY10 02021KT=
SPZO Nov2003-251900Z 02017KT 330V070 9999 SCT043 BKN050 16/03 Q1027 TEMPO VC-RA RMK PP000 RWY10 03026KT=
SPZO Nov2003-252000Z 04010KT 360V110 9999 SCT043 OVC060 16/03 Q1026 NOSIG RMK PP000 RWY10 03021G40KT=
SPZO Nov2003-252100Z 36011KT 330V040 9999 FEW043 OVC060 15/02 Q1026 NOSIG RMK PP000 RWY10 01015KT=
SPZO Nov2003-252200Z VRB03KT 9999 OVC060 15/03 Q1025 NOSIG RMK PP000 RWY10 02011KT TMX20.6=
SPZO Nov2003-252300Z 11005KT 080V150 9999 BKN060 13/03 Q1026 NOSIG RMK PP000 RWY10 11010KT=
SPZO Nov2003-260000Z VRB03KT 9999 SCT040 SCT070 13/03 Q1026 RMK PP000=
SPZO Nov2003-260100Z VRB03KT 9999 SCT050 10/03 Q1027 RMK PP000=
SPZO Nov2003-260200Z 00000KT 9999 FEW050 10/03 Q1028 RMK PP000=
SPZO Nov2003-260300Z VRB02KT 9999 FEW060 08/03 Q1029 RMK PP000=
SPZO Nov2003-260400Z 00000KT 9999 SKC 09/03 Q1030 RMK PP000=
SPZO Nov2003-260500Z 00000KT 9999 SKC 08/03 Q1029 RMK PP000=
SPZO Nov2003-260600Z 00000KT 9999 FEW060 08/03 Q1028 RMK PP000=
SPZO Nov2003-260700Z 00000KT 9999 FEW060 08/03 Q1028 RMK PP000=
SPZO Nov2003-260800Z 00000KT 9999 SCT050 08/03 Q1028 RMK PP000=
SPZO Nov2003-260900Z 00000KT 9999 FEW040 SCT050 08/03 Q1028 RMK PP000=
SPZO Nov2003-261000Z VRB01KT 9999 BKN040 SCT050 08/03 Q1029 RMK PP000=
SPZO Nov2003-261100Z VRB01KT 9999 FEW040 BKN070 09/04 Q1029 RMK PP000=
SPZO Nov2003-261200Z VRB02KT 9999 BKN100 12/04 Q1030 NOSIG RMK PP000=
SPZO Nov2003-261300Z VRB02KT 9999 BKN100 14/03 Q1030 NOSIG RMK PP000=
SPZO Nov2003-261400Z VRB02KT 9999 FEW050 BKN200 17/03 Q1030 NOSIG RMK PP000=
SPZO Nov2003-261500Z VRB04KT 9999 FEW050 SCT200 20/03 Q1029 NOSIG RMK PP000 RWY10 23007KT=
SPZO Nov2003-261600Z VRB04KT 9999 SCT050 22/02 Q1028 NOSIG RMK PP000 RWY10 25006KT=
SPZO Nov2003-261700Z 29008KT 220V350 9999 FEW043TCU BKN050 21/03 Q1027 TEMPO VC-RA RMK PP000 EWY10 34012G23KT=
SPZO Nov2003-261800Z VRB04KT 9999 SCT043 BKN050 21/03 Q1025 NOSIG RMK PP000 RWY10 33008KT=
SPZO Nov2003-261900Z 01010KT 330V060 9999 SCT050 SCT200 22/04 Q1024 NOSIG RMK PP000 RWY10 04018G34KT=
SPZO Nov2003-262000Z 01008KT 320V070 9999 SCT046 BKN200 21/04 Q1023 NOSIG RMK PP000 RWY10 02017KT=
SPZO Nov2003-262100Z 01006KT 320V070 9999 SCT050 22/04 Q1023 NOSIG RMK PP000 RWY10 05007KT=
SPZO Nov2003-262200Z 01009KT 330V050 9999 BKN046 19/06 Q1024 NOSIG RMK PP000 TMX:22.3=
SPZO Nov2003-262300Z VRB03KT 9999 BKN046 17/05 Q1025 NOSIG RMK PP000=
SPZO Nov2003-270000Z 33005KT 9999 SCT040 SCT050 16/05 Q1027 RMK PP000=
SPZO Nov2003-270100Z 22008KT 9000 RA BKN040 SCT047 11/05 Q1030 RMK PP008=
SPZO Nov2003-270200Z 30006KT 9999 SCT037 BKN040 10/05 Q1032 RMK PP006=
SPZO Nov2003-270300Z 27005KT 9999 OVC040 11/06 Q1032 RMK PP000=
SPZO Nov2003-270400Z 00000KT 9999 OVC040 10/06 Q1032 RMK PP000=
SPZO Nov2003-270500Z 00000KT 9999 SCT030 BKN040 10/07 Q1031 RMK PP000=
SPZO Nov2003-270600Z 00000KT 9999 RA SCT030 BKN043 10/07 Q1031 RMK PP008=
SPZO Nov2003-270700Z 29003KT 9999 SCT030 BKN043 09/07 Q1030 RMK PP012=
SPZO Nov2003-270800Z 11004KT 9999 OVC040 09/07 Q1029 RMK PP000=
SPZO Nov2003-270900Z VRB03KT 9999 SCT030 BKN043 08/06 Q1029 RMK PP000=
SPZO Nov2003-271000Z 00000KT 9999 FEW037 SCT040 BKN047 09/07 Q1030 RMK PP000=
SPZO Nov2003-271100Z 00000KT 9999 FEW037 SCT040 BKN050 10/07 Q1031 RMK PP000=
SPZO Nov2003-271200Z 00000KT 9999 SCT040 SCT050 11/07 Q1032 NOSIG RMK PP000=
SPZO Nov2003-271300Z VRB03KT 9999 FEW040 SCT050 14/06 Q1032 NOSIG RMK PP000=
SPZO Nov2003-271400Z VRB02KT 9999 FEW040 SCT050 17/08 Q1032 NOSIG RMK PP000 RWY10 VRB04KT=
SPZO Nov2003-271500Z VRB03KT 9999 FEW040 SCT050 18/06 Q1031 NOSIG RMK PP000 RWY10 08007KT=
SPZO Nov2003-271600Z VRB02KT 9999 BKN050 19/05 Q1030 NOSIG RMK PP000 RWY10 25010KT=
SPZO Nov2003-271700Z VRB06KT 9999 BKN050 21/05 Q1029 NOSIG RMK PP000 RWY10 32014KT=
SPZO Nov2003-271800Z 26008KT 9999 RERA FEW043 BKN050 17/05 Q1028 NOSIG RMK PP002 RWY10 21005KT RA CDTS E/ SE=
SPZO Nov2003-271900Z VRB03KT 9999 -RA FEW043TCU BKN050 20/05 Q1026 NOSIG RMK PP000 RWY10 0905KT=
SPZO Nov2003-272000Z 26007KT 210V330 9999 RERA SCT040 BKN046 15/06 Q1027 TEMPO VCRA RMK PP002=
SPZO Nov2003-272100Z VRB02KT 9999 SCT043 BKN050 15/08 Q1027 NOSIG RMK PP000 RWY10 24005KT=
SPZO Nov2003-272200Z 29004KT 260V320 9999 SCT040 BKN050 15/07 Q1027 TEMPO VC-RA RMK PP000 RWY10 VRB03KT TMX:21.6=
SPZO Nov2003-272300Z VRB03KT 9999 BKN050 14/07 Q1027 NOSIG RMK PP000 RWY10 10007KT=
SPZO Nov2003-280000Z VRB03KT 9999 BKN050 14/08 Q1028 RMK PP000=
SPZO Nov2003-280100Z 23002KT 9999 BKN050 13/09 Q1029 RMK PP000=
SPZO Nov2003-280200Z 00000KT 9999 BKN050 13/08 Q1030 RMK PP000=
SPZO Nov2003-280300Z 00000KT 9999 BKN050 13/09 Q1030 RMK PP000=
SPZO Nov2003-280400Z VRB02KT 7000 -RA SCT040 BKN050 13/09 Q1030 RMK PPTRZ=
SPZO Nov2003-280500Z 24004KT 220V080 8000 FEW040 BKN050 13/05 Q1030 RERA RMK PPTRZ=
SPZO Nov2003-280600Z 27005KT 9999 FEW040 BKN050 12/07 Q1029 RMK PP000=
SPZO Nov2003-280700Z 26006KT 9999 OVC050 12/07 Q1029 RMK PP000=
SPZO Nov2003-280800Z 28006KT 9999 OVC050 10/07 Q1029 RMK PP000=
SPZO Nov2003-280900Z 26003KT 9999 BKN050 SCT070 10/07 Q1029 RMK PP000=
SPZO Nov2003-281000Z 29002KT 9999 BKN050 SCT070 10/06 Q1029 RMK PP000=
SPZO Nov2003-281100Z 08002KT 9999 BKN050 SCT070 10/06 Q1030 RMK PP000=
SPZO Nov2003-281200Z VRB02KT 9999 FEW043 OVC050 11/06 Q1031 NOSIG RMK PP000 RWY10 11006KT=
SPZO Nov2003-281300Z 00000KT 9999 FEW043 BKN060 13/06 Q1031 NOSIG RMK PP000=
SPZO Nov2003-281400Z VRB01KT 9999 FEW043 OVC050 15/06 Q1031 NOSIG RMK PP000=
SPZO Nov2003-281500Z VRB02KT 9999 SCT043 BKN060 16/05 Q1030 NOSIG RMK PP000=
SPZO Nov2003-281600Z VRB03KT 9999 SCT043 BKN050 18/04 Q1029 TEMPO VCRA RMK PP000 RWY10 23005KT =
SPZO Nov2003-281700Z 25009KT 210V290 9999 SCT043 BKN050 17/07 Q1029 TEMPO VCRA RMK PP000 RWY10 24011KT RA CDTS NW/W=
SPZO Nov2003-281800Z 30006KT 230V040 9999 SCT043 BKN050 15/06 Q1028 TEMPO VCRA RMK PP000 RWY10 35010KT RA TODOS CDTS=
SPZO Nov2003-281900Z 31007KT 230V020 9999 SCT043 BKN060 16/06 Q1027 NOSIG RMK PP000 RWY10 28019KT RA CDTE W=
SPZO Nov2003-282000Z 28011KT 240V320 9999 SCT046 BKN080 16/05 Q1026 NOSIG RMK PP000 RWY10 28014KT=
SPZO Nov2003-282100Z 28008KT 250V320 9999 FEW046 BKN100 16/06 Q1026 NOSIG RMK PP000 RWY10 28015KT=
SPZO Nov2003-282200Z 27009KT 230V300 9999 SCT046 OVC090 16/06 Q1026 NOSIG RMK PP000 EWY10 28014KT RA CDTE W TMX:18.2=
SPZO Nov2003-282300Z 31009KT 280V340 9000 VCRA BKN043 SCT050 12/07 Q1027 NOSIG RMK PP004 RWY10 31010KT=
SPZO Nov2003-290000Z VRB03KT 9999 OVC050 12/07 Q1028 RMK PP000=
SPZO Nov2003-290100Z VRB02KT 9999 OVC050 12/07 Q1028 RMK PP000=
SPZO Nov2003-290200Z 01002KT 9999 OVC050 12/07 Q1029 RMK PP000=
SPZO Nov2003-290300Z 00000KT 9999 OVC050 11/07 Q1030 RMK PP000=
SPZO Nov2003-290400Z 00000KT 9999 BKN050 10/06 Q1029 RMK PP000=
SPZO Nov2003-290500Z 00000KT 9999 BKN050 08/06 Q1028 RMK PP000=
SPZO Nov2003-290600Z 10004KT 060V140 9999 BKN050 08/06 Q1028 RMK PP000=
SPZO Nov2003-290700Z 29003KT 9999 BKN050 08/05 Q1027 RMK PP000=
SPZO Nov2003-290800Z 28003KT 9999 BKN050 07/05 Q1027 RMK PP000=
SPZO Nov2003-290900Z 29002KT 9999 BKN050 07/04 Q1027 RMK PP000=
SPZO Nov2003-291000Z 00000KT 9999 SCT050 06/04 Q1027 RMK PP000=
SPZO Nov2003-291100Z 29004KT 9999 SCT050 SCT230 06/05 Q1028 RMK PP000=
SPZO Nov2003-291200Z VRB02KT 9999 FEW046 12/05 Q1029 NOSIG RMK PP000=
SPZO Nov2003-291300Z VRB02KT 9999 FEW046 15/05 Q1029 NOSIG RMK PP000=
SPZO Nov2003-291400Z VRB04KT 9999 FEW046 SCT200 16/05 Q1028 NOSIG RMK PP000 RWY10 VRB06KT=
SPZO Nov2003-291500Z VRB04KT 9999 FEW050 SCT200 19/05 Q1028 NOSIG RMK PP000 25006KT=
SPZO Nov2003-291600Z 13005KT 060V210 9999 SCT050 SCT230 21/04 Q1026 NOSIG RMK PP000 RWY10 15010KT=
SPZO Nov2003-291700Z VRB02KT 9999 SCT050 SCT100 22/04 Q1025 NOSIG RMK PP000 RWY10 06011KT=
SPZO Nov2003-291800Z VRB04KT 9999 SCT043 BKN060 21/03 Q1024 TEMPO VCRA RMK PP000 RWY10 35011KT=
SPZO Nov2003-291900Z 36006KT 9999 SCT043 BKN060 19/04 Q1024 NOSIG RMK PP000 RWY10 32009KT=
SPZO Nov2003-292000Z 14007KT 110V200 9000 -RA SCT040TCU BKN050 15/07 Q1024 NOSIG RMK PP000 RWY10 15014KT=
SPZO Nov2003-292100Z 12004KT 060V190 9999 BKN090 18/08 Q1023 NOSIG RMK PP014 RWY10 13006KT=
SPZO Nov2003-292200Z 08004KT 9999 BKN100 17/07 Q1023 NOSIG RMK PP000 RWY10 11009KT TMX:22.1=
SPZO Nov2003-292300Z 09005KT 9999 SCT100 15/05 Q1023 NOSIG RMK PP000 RWY10 09007KT=
SPZO Nov2003-300000Z 11004KT 9999 FEW050 SCT100 15/06 Q1024 PP000=
SPZO Nov2003-300100Z 00000KT 9999 FEW050 SCT300 14/06 Q1025 RMK PP000=
SPZO Nov2003-300200Z 00000KT 9999 FEW300 12/07 Q1027 RMK PP000=
SPZO Nov2003-300300Z VRB03KT 9999 FEW050 12/07 Q1027 RMK PP000=
SPZO Nov2003-300400Z 00000KT 9999 FEW080 12/07 Q1027 RMK PP000=
SPZO Nov2003-300500Z 00000KT 9999 SCT040 12/07 Q1027 RMK PP000=
SPZO Nov2003-300600Z 00000KT 9999 SCT050 12/07 Q1026 RMK PP000=
SPZO Nov2003-300700Z 00000KT 9999 FEW040 SCT050 12/08 Q1026 RMK PP000=
SPZO Nov2003-300800Z 00000KT 9999 FEW040 SCT050 12/07 Q1026 RMK PP000=
SPZO Nov2003-300900Z 00000KT 9999 SCT040 SCT080 11/07 Q1026 RMK PP000=
SPZO Nov2003-301000Z 00000KT 9999 SCT040 SCT080 09/06 Q1026 RMK PP000=
SPZO Nov2003-301100Z VRB02KT 9999 SCT040 SCT100 09/07 Q1028 RMK PP000=
SPZO Nov2003-301200Z 00000KT 9999 BKN100 12/07 Q1029 NOSIG RMK PP000=
SPZO Nov2003-301300Z VRB02KT 9999 FEW043 SCT120 15/06 Q1029 NOSIG RMK PP000 RWY10 14004KT=
SPZO Nov2003-301400Z VRB03KT 9999 SCT046 17/05 Q1028 NOSIG RMK PP000=
SPZO Nov2003-301500Z VRB03KT 9999 SCT050 20/04 Q1028 NOSIG RMK PP000 RWY10 VRB06KT=
SPZO Nov2003-301600Z VRB03KT 9999 SCT050 22/04 Q1027 NOSIG RMK PP000 RWY10 08005KT=
SPZO Nov2003-301700Z VRB04KT 9999 BKN050 22/03 Q1025 NOSIG RMK PP000 RWY10 07008KT=
SPZO Nov2003-301800Z 02008KT 9999 SCT050 SCT200 22/04 Q1024 NOSIG RMK PP000 RWY10 02015KT=
SPZO Nov2003-301900Z 03008KT 350V070 9999 TS RERA FEW043TCU BKN050 20/04 Q1024 TEMPO VCRA RMK PPTRZ RWY10 04013KT=
SPZO Nov2003-302000Z 35007KT 260V070 9999 FEW043TCU BKN050 20/04 Q1023 TEMPO VCRA RMK PP000 RWY10 02017KT=
SPZO Nov2003-302100Z 36011KT 330V050 9999 SCT050 SCT100 20/04 Q1023 NOSIG RMK PP000 RWY10 01017KT=
SPZO Nov2003-302200Z VRB07KT 9999 SCT050 SCT100 19/04 Q1024 NOSIG RMK PP000 RWY10 02013KT TMX:23.6=
SPZO Nov2003-302300Z 10004KT 020V160 9999 BKN050 18/05 Q1024 NOSIG RMK PP000 RWY10 04011KT=
SPZO Dic2003-010000Z 11007KT 9999 SCT050 SCT080 16/06 Q1026 RMK PP000=
SPZO Dic2003-010100Z 00000KT 9999 SCT040 SCT080 16/06 Q1027 RMK PP000=
SPZO Dic2003-010200Z VRB01KT 9999 SCT040 SCT080 15/06 Q1028 RMK PP000=
SPZO Dic2003-010300Z 00000KT 9999 SCT040 SCT070 15/05 Q1029 RMK PP000=
SPZO Dic2003-010400Z 28010KT 9999 SCT030 BKN043 13/07 Q1029 RMK PP000=
SPZO Dic2003-010500Z 25008KT 9999 SCT030 BKN043 13/06 Q1029 RMK PP000=
SPZO Dic2003-010600Z 00000KT 9999 OVC040 12/06 Q1028 RMK PP000=
SPZO Dic2003-010700Z 00000KT 9999 SCT030 BKN040 11/06 Q1027 RMK PP000=
SPZO Dic2003-010800Z 26005KT 9999 OVC040 11/06 Q1027 RMK PP000=
SPZO Dic2003-010900Z 00000KT 9999 FEW040 SCT050 10/06 Q1028 RMK PP000=
SPZO Dic2003-011000Z 00000KT 9999 SCT040 SCT080 10/06 Q1028 RMK PP000=
SPZO Dic2003-011100Z VRB02KT 9999 BKN040 SCT070 10/06 Q1029 RMK PP000=
SPZO Dic2003-011200Z 00000KT 9999 FEW043 BKN060 14/06 Q1030 NOSIG RMK PP000=
SPZO Dic2003-011300Z 11005KT 030V170 9999 FEW046 SCT060 15/06 Q1030 NOSIG RMK PP000=
SPZO Dic2003-011400Z VRB03KT 9999 FEW046 SCT050 18/06 Q1030 NOSIG RMK PP000 RWY10 15008KT=
SPZO Dic2003-011500Z VRB05KT 9999 BKN050 20/03 Q1029 NOSIG RMK PP000 RWY10 04005KT=
SPZO Dic2003-011600Z VRB03KT 9999 FEW043TCU SCT050 20/04 Q1028 NOSIG RMK PP000 RWY10 35006KT=
SPZO Dic2003-011700Z VRB03KT 9999 FEW043TCU BKN050 20/05 Q1027 TEMPO VCRA RMK PP000 EWY10 29007KT=
SPZO Dic2003-011800Z 31010KT 260V340 9999 FEW043 SCT050 21/04 Q1025 NOSIG PP000 RWY10 31018G32=
SPZO Dic2003-011900Z 12014KT 080V190 9999 FEW043TCU BKN050 16/07 Q1024 TEMPO VCRA PP000 EWY10 10017KT=
SPZO Dic2003-012000Z VRB02KT 9999 TS FEW043TCU SCT050 17/08 Q1024 TEMPO VCRA RMK PP000 RWY10 25009KT=
SPZO Dic2003-012100Z 29013KT 9999 FEW043 SCT050 16/05 Q1024 TEMPO VCRA RMK PP000 RWY10 30021G35GT=
SPZO Dic2003-012200Z 28012KT 240V310 9999 SCT050 18/06 Q1024 NOSIG RMK PP000 RWY10 28013KT TMX:23.1=
SPZO Dic2003-012300Z 26009KT 230V290 9999 SCT100 16/05 Q1025 NOSIG RMK PP000 RWY10 27015KT=
SPZO Dic2003-020000Z 28008KT 9999 FEW150 14/05 Q1026 RMK PP000=
SPZO Dic2003-020100Z 00000KT 9999 FEW150 13/06 Q1028 RMK PP000=
SPZO Dic2003-020200Z 00000KT 9999 FEW040 SCT060 13/06 Q1029 RMK PP000=
SPZO Dic2003-020300Z 00000KT 9999 SCT040 SCT060 13/07 Q1030 RMK PP000=
SPZO Dic2003-020400Z 30006KT 9999 -DZ SCT037 BKN050 12/06 Q1030 RMK PP002=
SPZO Dic2003-020500Z 26004KT 9999 -DZ SCT037 BKN050 11/07 Q1030 RMK PP002=
SPZO Dic2003-020600Z 28005KT 9999 SCT040 SCT050 11/07 Q1029 RMK REDZ PP000=
SPZO Dic2003-020700Z 29006KT 9999 SCT037 BKN047 11/07 Q1029 RMK PP000=
SPZO Dic2003-020800Z 29005KT 9999 SCT030 BKN040 11/06 Q1029 RMK CLNG BLW 1200M PP000=
SPZO Dic2003-020900Z 30009KT 9999 SCT030 BKN040 11/06 Q1029 RMK CLNG BLW 1200M PP000=
SPZO Dic2003-021000Z 27008KT 8000 DZ SCT033 SCT040 10/06 Q1029 RMK CLNG BLW 1200M PPTRZ=
SPZO Dic2003-021200Z 31006KT 280V350 9999 SCT035 BKN050 11/05 Q1030 NOSIG RMK PP000 RWY10 33007KT=
SPZO Dic2003-021300Z VRB02KT 9999 SCT037 SCT060 14/05 Q1030 NOSIG RMK PP000 RW10 VRB07KT=
SPZO Dic2003-021400Z VRB02KT 9999 SCT040 SCT046 14/05 Q1030 NOSIG RMK PP000=
SPZO Dic2003-021500Z VRB03KT 9999 FEW043 BKN050 16/06 Q1030 NOSIG RMK PP000 RWY10 11008KT=
SPZO Dic2003-021600Z VRB04KT 9999 FEW050 SCT100 18/04 Q1029 NOSIG RMK PP000 RWY10 31007KT=
SPZO Dic2003-021700Z VRB06KT 9999 FEW050 BKN120 20/04 Q1027 NOSIG RMK PP000 RWY10 22013KT=
SPZO Dic2003-021800Z VRB04KT 9999 FEW050 SCT120 22/03 Q1025 NOSIG RMK PP000 RWY10 26011KT=
SPZO Dic2003-021900Z VRB03KT 9999 FEW043TCU BKN050 21/02 Q1024 TEMPO
SPZO Dic2003-022000Z 11018KT 070V160 9999 -RA BKN043 SCT050 16/06 Q1024 NOSIG RMK PP000 RWY10 12029G44KT=
SPZO Dic2003-022100Z 36016KT 320V060 9999 SCT046 BKN060 17/02 Q1022 NOSIG RMK PP002 RWY10 35026G38KT=
SPZO Dic2003-022200Z 11008KT 9999 BKN070 16/01 Q1024 NOSIG RMK PP000 RWY10 11009KT TMX:23.1=
SPZO Dic2003-022300Z 00000KT 9999 SCT080 15/03 Q1024 NOSIG RMK PP000=
SPZO Dic2003-030000Z 00000KT 9999 FEW070 BKN200 13/04 Q1026 RMK PP000=
SPZO Dic2003-030100Z 00000KT 9999 FEW040 BKN200 14/04 Q1026 RMK PP000=
SPZO Dic2003-030200Z 00000KT 9999 FEW040 SCT200 14/03 Q1028 RMK PP000=
SPZO Dic2003-030300Z 26005KT 9999 SKC 10/03 Q1028 RMK PP000=
SPZO Dic2003-030400Z 00000KT 9999 SKC 09/03 Q1028 RMK PP000=
SPZO Dic2003-030500Z 00000KT 9999 SKC 09/04 Q1027 RMK PP000=
SPZO Dic2003-030600Z 28004KT 9999 SKC 07/03 Q1027 RMK PP000=
SPZO Dic2003-030700Z 00000KT 9999 FEW060 07/03 Q1026 RMK PP000=
SPZO Dic2003-030800Z 00000KT 9999 SKC 06/03 Q1026 RMK PP000=
SPZO Dic2003-030900Z 00000KT 9999 SKC 06/03 Q1026 RMK PP000=
SPZO Dic2003-031000Z 00000KT 9999 SKC 06/02 Q1027 RMK PP000=
SPZO Dic2003-031100Z 00000KT 9999 SCT200 06/03 Q1028 RMK PP000=
SPZO Dic2003-031200Z 00000KT 9999 SCT070 08/04 Q1029 NOSIG RMK PP000=
SPZO Dic2003-031300Z 00000KT 9999 FEW120 13/05 Q1029 NOSIG RMK PP000=
SPZO Dic2003-031400Z VRB03KT 9999 SCT120 16/05 Q1028 NOSIG RMK PP000=
SPZO Dic2003-031500Z 00000KT 9999 BKN080 17/04 Q1028 NOSIG RMK PP000=
SPZO Dic2003-031600Z VRB02KT 9999 BKN100 16/03 Q1028 NOSIG RMK PP000 RWY10 12005KT=
SPZO Dic2003-031700Z VRB02KT 9999 OVC100 17/02 Q1027 NOSIG RMK PP000=
SPZO Dic2003-031800Z VRB02KT 9999 OVC100 17/02 Q1027 NOSIG RMK PP000 RWY10 03005KT=
SPZO Dic2003-031900Z VRB02KT 9999 BKN100 18/02 Q1026 NOSIG RMK PP000 RWY10 VRB05KT=
SPZO Dic2003-032000Z 26004KT 9999 BKN100 19/00 Q1024 NOSIIG RMK PP000 RWY10 VRB03KT=
SPZO Dic2003-032100Z VRB02KT 9999 BKN200 20/03 Q1023 NOSIG RMK PP000 RWY10 VRB02KT=
SPZO Dic2003-032200Z 24004KT 170V290 9999 BKN200 21/02 Q1022 NOSIG RMK PP000 RWY10 26008KT TMX:21.0=
SPZO Dic2003-032300Z 27009KT 240V300 9999 SCT120 19/02 Q1023 NOSIG RMK PP000 RWY10 27014KT=
SPZO Dic2003-040000Z 28004KT 9999 SKC 16/06 Q1024 RMK PP000=
SPZO Dic2003-040100Z 00000KT 9999 SKC 15/05 Q1025 RMK PP000=
SPZO Dic2003-040200Z VRB02KT 9999 FEW040 SCT100 14/06 Q1027 RMK LGT NE PP000=
SPZO Dic2003-040300Z 00000KT 9999 SCT040 BKN100 13/06 Q1028 RMK PP000=
SPZO Dic2003-040400Z 00000KT 9999 SCT040 SCT050 12/06 Q1028 RMK PP000=
SPZO Dic2003-040500Z 29004KT 9999 SCT037 BKN047 13/07 Q1027 RMK PP000=
SPZO Dic2003-040600Z 10004KT 9999 SCT040 BKN060 13/06 Q1026 RMK PP000=
SPZO Dic2003-040700Z 32004KT 9999 SCT040 BKN060 12/06 Q1026 RMK PP000=
SPZO Dic2003-040800Z 00000KT 9999 SCT040 SCT060 10/05 Q1026 RMK PP000=
SPZO Dic2003-040900Z 00000KT 9999 BKN040 10/06 Q1026 RMK PP000=
SPZO Dic2003-041000Z 00000KT 9999 BKN043 10/06 Q1027 RMK PP000=
SPZO Dic2003-041100Z 00000KT 9999 SCT043 BKN060 11/07 Q1029 RMK PP000=
SPZO Dic2003-041200Z VRB02KT 9999 FEW046 BKN080 12/07 Q1029 NOSIG RMK PP000=
SPZO Dic2003-041300Z VRB03KT 9999 OVC080 14/06 Q1030 NOSIG RMK PP000 RWY10 VRB07KT=
SPZO Dic2003-041400Z VRB03KT 9999 FEW043 OVC090 16/07 Q1030 NOSIG RMK PP000 RWY10 06003KT=
SPZO Dic2003-041500Z 06005KT 010V130 9999 FEW043 BKN120 18/06 Q1029 NOSIG RMK PP000 12009KT=
SPZO Dic2003-041600Z VRB04KT 9999 FEW043 BKN120 19/06 Q1028 NOSIG RMK PP000 08012KT=
SPZO Dic2003-041700Z 10006KT 020V150 9999 SCT046 BKN080 19/03 Q1027 TEMPO VCRA RMK PP000 RWY10 07012KT RA CDTE W=
SPZO Dic2003-041800Z 01015KT 340V070 9999 SCT046 BKN080 18/05 Q1026 TEMPO VC-RA RMK PP000 RWY10 02026G40KT=
SPZO Dic2003-041900Z VRB03KT 9000 TSRA VCSH SCT043CB BKN053 14/05 Q1026 TEMPO FM1920 9999 NSW RMK PP024=
SPZO Dic2003-042000Z 01013KT 330V080 9999 FEW040 SCT043 BKN100 16/06 Q1026 RESHRA NOSIG RMK PP002=
SPZO Dic2003-042100Z 30010KT 250V010 9999 FEW040 SCT043 BKN080 16/05 Q1026 NOSIG RMK PP000=
SPZO Dic2003-042200Z 32009KT 260V050 9999 FEW043 SCT080 BKN300 16/05 Q1026 NOSIG RMK PP000 TMAX 20.5=
SPZO Dic2003-042300Z VRB04KT 9999 SCT060 BKN300 15/05 Q1026 NOSIG RMK PP000=
SPZO Dic2003-050000Z VRB01KT 9999 FEW050 SCT300 13/04 Q1027 RMK PP000=
SPZO Dic2003-050100Z 28004KT 9999 FEW050 SCT300 11/05 Q1028 RMK PP000=
SPZO Dic2003-050200Z 29005KT 9999 FEW050 SCT100 10/05 Q1029 RMK PP000=
SPZO Dic2003-050300Z VRB03KT 9999 FEW050 SCT100 11/05 Q1030 RMK PP000=
SPZO Dic2003-050400Z 00000KT 9999 FEW040 SCT070 10/06 Q1030 RMK PP000=
SPZO Dic2003-050500Z 00000KT 9999 FEW040 SCT050 08/05 Q1030 RMK PP000=
SPZO Dic2003-050600Z 00000KT 9999 SCT040 SCT050 08/04 Q1028 RMK PP000=
SPZO Dic2003-050700Z 00000KT 9999 BKN040 SCT050 07/04 Q1028 RMK PP000=
SPZO Dic2003-050800Z 00000KT 9999 SCT040 06/04 Q1028 RMK PP000=
SPZO Dic2003-050900Z 00000KT 9999 FEW040 SCT050 06/04 Q1028 RMK PP000=
SPZO Dic2003-051000Z 00000KT 9999 SCT043 SCT080 07/04 Q1029 RMK PP000=
SPZO Dic2003-051100Z 00000KT 9999 SCT050 BKN100 07/04 Q1030 RMK PP000=
SPZO Dic2003-051200Z 00000KT 9999 FEW060 SCT150 OVC300 09/05 Q1031 NOSIG RMK PP000=
SPZO Dic2003-051300Z 00000KT 9999 FEW043 SCT100 OVC300 12/06 Q1031 NOSIG RMK PP000=
SPZO Dic2003-051400Z VRB02KT 9999 FEW043 SCT100 OVC300 15/06 Q1030 NOSIG RMK PP000=
SPZO Dic2003-051500Z VRB02KT 9999 SCT043 OVC300 17/06 Q1030 NOSIG RMK PP000=
SPZO Dic2003-051600Z VRB02KT 9999 SCT043 OVC300 21/03 Q1029 NOSIG RMK PP000=
SPZO Dic2003-051700Z VRB03KT 9999 SCT043 OVC300 22/03 Q1027 NOSIG RMK PP000=
SPZO Dic2003-051800Z VRB05KT 9999 BKN043 SCT300 22/03 Q1026 NOSIG RMK PP000=
SPZO Dic2003-051900Z 36007KT 290V090 9999 BKN043 SCT300 22/05 Q1024 NOSIG RMK PP000=
SPZO Dic2003-052000Z 36008KT 320V050 9999 SCT040 SCT043TCU BKN300 21/02 Q1024 TEMPO VCSH RMK PP000=
SPZO Dic2003-052100Z 30011KT 240V340 9999 SCT040 SCT043CB BKN100 20/02 Q1024 TEMPO -SHRA RMK PP000=
SPZO Dic2003-052200Z 20009KT 120V250 9999 BKN043 SCT100 17/05 Q1025 NOSIG RMK PP000 TMAX 22.8=
SPZO Dic2003-052300Z VRB03KT 9999 BKN043 OVC100 17/04 Q1026 NOSIG RMK PP000=
SPZO Dic2003-060000Z VRB03KT 9999 BKN040 SCT100 16/04 Q1027 RMK PP000=
SPZO Dic2003-060100Z 30006KT 9999 BKN040 SCT080 15/04 Q1027 RMK PP000=
SPZO Dic2003-060200Z 27007KT 9999 SCT040 SCT080 14/05 Q1028 RMK PP000=
SPZO Dic2003-060300Z 27007KT 9999 SCT040 SCT100 12/05 Q1029 RMK PP000=
SPZO Dic2003-060400Z 00000KT 9999 SCT043 SCT070 11/05 Q1029 RMK PP000=
SPZO Dic2003-060500Z 00000KT 9999 SCT040 SCT050 10/05 Q1029 RNK PP000=
SPZO Dic2003-060600Z 00000KT 9999 BKN040 10/05 Q1029 RMK PP000=
SPZO Dic2003-060700Z 00000KT 9999 BKN043 09/05 Q1028 RMK PP000=
SPZO Dic2003-060800Z 00000KT 9999 BKN040 09/05 Q1028 RMK PP000=
SPZO Dic2003-060900Z 00000KT 9999 FEW040 SCT050 08/05 Q1028 RMK PP000=
SPZO Dic2003-061000Z 00000KT 9999 FEW050 SCT300 07/04 Q1029 RMK PP000=
SPZO Dic2003-061100Z 00000KT 9999 FEW050 SCT300 09/05 Q1030 RMK PP000=
SPZO Dic2003-061200Z VRB01KT 9999 FEW100 SCT300 12/06 Q1030 NOSIG RMK PP000=
SPZO Dic2003-061300Z VRB03KT 9999 FEW043 15/06 Q1030 NOSIG RMK PP000=
SPZO Dic2003-061400Z VRB02KT 9999 FEW043 18/06 Q1030 NOSIG RMK PP000=
SPZO Dic2003-061500Z VRB03KT 9999 SCT043 SCT300 20/05 Q1029 NOSIG RMK PP000=
SPZO Dic2003-061600Z 21006KT 140V260 9999 BKN043 22/02 Q1028 NOSIG RMK PP000=
SPZO Dic2003-061700Z 27005KT 200V330 9999 BKN043 22/01 Q1026 NOSIG RMK PP000=
SPZO Dic2003-061800Z 21011KT 170V250 9999 -DZ VCSH SCT043 SCT047TCU 18/03 Q1026 TEMPO NSW RMK PP030=
SPZO Dic2003-061900Z 28007KT 210V330 9999 SCT050 22/05 Q1024 NOSIG RMK PP000 RWY10 27017KT=
SPZO Dic2003-062000Z 02009KT 330V070 9999 FEW043TCU SCT050 23/01 Q1024 TEMPO VC-RA RMK PP000 RWY10 25011KT=
SPZO Dic2003-062100Z 29015KT 250V320 9999 FEW043TCU SCT046 19/02 Q1024 TEMPO VCRA RMK PP000 RWY10 29020G38KT=
SPZO Dic2003-062200Z 24011KT 200V280 9999 DZ BKN046 16/05 Q1025 BECMG FM2230 NSW RMK PPTRZ RWY10 25021KT TMX:14.9=
SPZO Dic2003-062300Z VRB03KT 9999 BKN046 17/05 Q1026 NOSIG RMK PP000 RWY10 VRB03KT=
SPZO Dic2003-070000Z 25004KT 9999 SCT040 SCT050 15/05 Q1027 RMK PP000=
SPZO Dic2003-070100Z 26007KT 9999 BKN040 15/07 Q1029 RMK PP000=
SPZO Dic2003-070200Z 27006KT 9999 BKN040 SCT046 14/07 Q1030 RMK PP000=
SPZO Dic2003-070300Z 17006KT 9000 RA OVC040 13/07 Q1030 RMK PP012=
SPZO Dic2003-070400Z 09006KT 9000 RA OVC040 09/07 Q1033 RMK PP058=
SPZO Dic2003-070500Z 00000KT 9000 RA OVC040 08/04 Q1033 RMK PP044=
SPZO Dic2003-070600Z 00000KT 9999 DZ FEW030 BKN040 10/05 Q1030 RMK PP016=
SPZO Dic2003-070700Z 00000KT 9999 FEW037 BKN040 09/04 Q1030 RMK PPTRZ=
SPZO Dic2003-070800Z 00000KT 9999 SCT037 BKN043 08/05 Q1029 RMK PP000=
SPZO Dic2003-070900Z VRB03KT 9999 SCT040 SCT050 07/05 Q1030 RMK PP000=
SPZO Dic2003-071000Z VRB03KT 9999 FEW040 SCT070 06/05 Q1030 RMK PP000=
SPZO Dic2003-071100Z 00000KT 9999 FEW040 SCT300 08/06 Q1031 RMK PP000=
SPZO Dic2003-071200Z 00000KT 9999 FEW037 11/06 Q1032 NOSIG RMK PP000=
SPZO Dic2003-071300Z 00000KT 9999 FEW033 SCT050 12/05 Q1032 NOSIG RMK PP000=
SPZO Dic2003-071400Z VRB02KT 9999 SCT040 15/06 Q1032 NOSIG RMK PP000 RWY10 VRB02KT=
SPZO Dic2003-071500Z VRB02KT 9999 SCT040 17/06 Q1031 NOSIG RMK PP000 RWY10 17004KT=
SPZO Dic2003-071600Z VRB02KT 9999 SCT050 18/05 Q1030 NOSIG RMK PP000=
SPZO Dic2003-071700Z VRB04KT 9999 SCT050 20/06 Q1028 NOSIG RMK PP000 RWY10 VRB04KT=
SPZO Dic2003-071800Z VRB05KT 9999 BKN050 22/06 Q1027 NOSIG RMK PP000 RWY10 32017KT=
SPZO Dic2003-071900Z 29008KT 9999 BKN050 21/06 Q1025 NOSIG RMK PP000 RWY10 27020G31KT=
SPZO Dic2003-072000Z 29008KT 9999 BKN050 23/02 Q1024 NOSIG RMK PP000 02015G26KT=
SPZO Dic2003-072100Z 01009KT 330V070 9999 BKN050 22/02 Q1024 NOSIG RMK PP000 RWY10 01013KT=
SPZO Dic2003-072200Z VRB07KT 9999 FEW046 BKN080 20/05 Q1024 NOSIG RMK PP000 RWY10 04012KT 23.7=
SPZO Dic2003-072300Z 02011KT 330V070 9999 SCT046 17/04 Q1025 NOSIG RMK PP000 RWY10 04013KT=
SPZO Dic2003-080000Z VRB03KT 9999 SCT040 SCT050 16/05 Q1027 RMK PP000=
SPZO Dic2003-080100Z VRB02KT 9999 BKN040 SCT046 16/06 Q1028 RMK PP000=
SPZO Dic2003-080200Z 00000KT 9999 OVC043 15/06 Q1029 RMK PP000=
SPZO Dic2003-080300Z VRB03KT 9999 OVC040 14/07 Q1030 RMK PP000=
SPZO Dic2003-080400Z 26008KT 9999 OVC043 13/08 Q1030 RMK PP000=
SPZO Dic2003-080500Z 28008KT 9999 SCT037 BKN040 13/08 Q1030 RMK PP000=
SPZO Dic2003-080600Z 00000KT 9999 SCT030 BKN040 13/08 Q1029 RMK PP000=
SPZO Dic2003-080700Z 28008KT 9999 BKN040 SCT046 12/07 Q1029 RMK PP000=
SPZO Dic2003-080800Z 28007KT 9999 -RA OVC040 12/07 Q1029 RMK PP004=
SPZO Dic2003-080900Z 25004KT 9999 SCT030 BKN043 11/08 Q1029 RMK PP004=
SPZO Dic2003-081000Z VRB03KT 9999 BKN040 SCT050 11/07 Q1030 RMK PP000=
SPZO Dic2003-081100Z VRB03KT 9999 SCT040 SCT050 11/09 Q1030 RMK PP000=
SPZO Dic2003-081200Z VRB03KT 9999 FEW037 BKN050 14/08 Q1031 NOSIG RMK PP000=
SPZO Dic2003-081300Z 00000KT 9999 FEW040 SCT050 15/07 Q1031 NOSIG RMK PP000=
SPZO Dic2003-081400Z VRB02KT 9999 BKN050 18/08 Q1031 NOSIG RMK PP000 31005KT=
SPZO Dic2003-081500Z VRB03KT 9999 FEW050 SCT200 19/06 Q1030 NOSIG RMK PP000 VRB04KT=
SPZO Dic2003-081600Z VRB05KT 9999 SCT050 21/07 Q1029 NOSIG RMK PP000 RWY10 34007KT=
SPZO Dic2003-081700Z 02014KT 320V100 9999 TS FEW043TCU BKN046 20/02 Q1028 TEMPO VCRA RMK PP000 RWY10 02005KT RA CDTS NE/NW=
SPZO Dic2003-081800Z VRB03KT 9999 BKN060 18/04 Q1028 NOSIG RMK PP000 RWY10 16006KT=
SPZO Dic2003-081900Z VRB03KT 9999 SCT043 BKN100 19/03 Q1027 NOSIG RMK PP000=
SPZO Dic2003-082000Z VRB02KT 9999 SCT043 BKN100 20/02 Q1026 NOSIG RMK PP000=
SPZO Dic2003-082100Z 20005KT 120V290 9999 BKN043 22/02 Q1025 NOSIG RMK PP000=
SPZO Dic2003-082200Z 27010KT 230V310 9999 VCSH BKN043 20/05 Q1026 NOSIG RMK PP000 TMAX 22.0=
SPZO Dic2003-082300Z 26005KT 220V300 9999 VCSH SCT043CB SCT047 19/04 Q1026 NOSIG RMK CB SE PP000=
SPZO Dic2003-090000Z 08005KT 9999 SCT040 SCT050 16/06 Q1027 RMK PP000=
SPZO Dic2003-090100Z 00000KT 9999 SCT050 15/06 Q1029 RMK PP000=
SPZO Dic2003-090200Z 29004KT 9999 FEW050 13/06 Q1029 RMK PP000=
SPZO Dic2003-090300Z VRB02KT 9999 FEW050 13/06 Q1030 RMK PP000=
SPZO Dic2003-090400Z 00000KT 9999 FEW100 11/06 Q1030 RMK PP000=
SPZO Dic2003-090500Z 00000KT 9999 FEW050 10/06 Q1030 RMK PP000=
SPZO Dic2003-090600Z 00000KT 9999 SCT050 10/06 Q1030 RMK PP000=
SPZO Dic2003-090700Z 00000KT 9999 SCT050 09/06 Q1029 RMK PP000=
SPZO Dic2003-090800Z 00000KT 9999 FEW050 08/05 Q1028 RMK PP000=
SPZO Dic2003-090900Z 00000KT 9999 FEW040 SCT050 08/05 Q1029 RMK PP000=
SPZO Dic2003-091000Z 00000KT 9999 SCT040 SCT070 09/05 Q1030 RMK PP000=
SPZO Dic2003-091100Z VRB01KT 9999 FEW050 BKN300 08/05 Q1031 RMK PP000=
SPZO Dic2003-091200Z 00000KT 8000 SCT043 SCT300 11/06 Q1031 BECMG 9999 RMK HZ PP000=
SPZO Dic2003-091300Z VRB03KT 9999 SCT043 SCT300 15/07 Q1032 NOSIG RMK PP000=
SPZO Dic2003-091400Z VRB03KT 9999 SCT043 SCT060 17/07 Q1032 NOSIG RMK PP000=
SPZO Dic2003-091500Z VRB03KT 9999 BKN043 19/07 Q1031 NOSIG RMK PP000=
SPZO Dic2003-091600Z VRB06KT 9999 BKN043 21/07 Q1029 NOSIG RMK PP000=
SPZO Dic2003-091700Z 29012KT 240V330 9999 TS VCSH SCT043 FEW047CB BKN300 20/05 Q1029 TEMPO NSW RMK CB E PP000=
SPZO Dic2003-091800Z VRB06KT 9999 -RA VCSH SCT043 BKN047CB 13/05 Q1029 RETSRA TEMPO NSW RMK PP060=
SPZO Dic2003-091900Z 09004KT 050V140 9999 SCT047 BKN100 16/07 Q1027 NOSIG RMK PP002=
SPZO Dic2003-092000Z VRB03KT 9999 SCT043 SCT300 19/06 Q1026 NOSIG RMK PP000=
SPZO Dic2003-092100Z VRB03KT 9999 SCT043 SCT300 22/02 Q1025 NOSIG RMK PP000=
SPZO Dic2003-092200Z 27014KT 9999 SCT043 SCT300 20/03 Q1024 NOSIG RMK RWY10 30021G31KT 260V360 PP000 TMAX 22.7=
SPZO Dic2003-092300Z 30004KT 250V360 9999 SCT043 SCT300 17/05 Q1025 NOSIG RWY10 27017KT 240V310 RMK PP000=
SPZO Dic2003-100000Z 29006KT 9999 FEW040 SCT200 15/04 Q1027 RMK PP000=
SPZO Dic2003-100100Z 28004KT 9999 FEW100 SCT200 14/05 Q1028 RMK PP000=
SPZO Dic2003-100200Z 00000KT 9999 FEW100 SCT200 13/06 Q1029 RMK PP000=
SPZO Dic2003-100300Z 00000KT 9999 FEW040 SCT100 SCT200 10/06 Q1030 RMK PP000=
SPZO Dic2003-100400Z 00000KT 9999 SCT040 SCT150 11/07 Q1030 RMK PP000=
SPZO Dic2003-100500Z 00000KT 9999 SCT040 SCT150 11/07 Q1030 RMK PP000=
SPZO Dic2003-100600Z 00000KT 9999 BKN040 SCT100 12/07 Q1029 RMK PP000=
SPZO Dic2003-100700Z 00000KT 9999 SCT040 SCT100 11/08 Q1028 RMK PP000=
SPZO Dic2003-100800Z 12004KT 9999 SCT043 SCT080 11/08 Q1028 RMK PP000=
SPZO Dic2003-100900Z 00000KT 9999 SCT040 SCT080 11/07 Q1028 RMK PP000=
SPZO Dic2003-101000Z 00000KT 9999 SCT047 SCT070 11/06 Q1029 RMK PP000=
SPZO Dic2003-101100Z 00000KT 9999 SCT050 SCT080 11/06 Q1030 RMK PP000=
SPZO Dic2003-101200Z VRB02KT 9999 SCT043 BKN080 12/07 Q1030 NOSIG RMK PP000=
SPZO Dic2003-101300Z 00000KT 9999 FEW033 SCT043 BKN300 15/07 Q1031 NOSIG RMK PP000=
SPZO Dic2003-101400Z 00000KT 9999 BKN043 SCT300 17/07 Q1030 NOSIG RMK PP000=
SPZO Dic2003-101500Z VRB03KT 9999 VCSH FEW030 SCT043TCU BKN060 18/07 Q1030 TEMPO -RA RMK PP000=
SPZO Dic2003-101600Z 31006KT 250V350 9999 BKN043 SCT080 17/07 Q1029 NOSIG RMK PP000=
SPZO Dic2003-101700Z 29012KT 260V320 9999 -DZ VCSH SCT043 BKN053 16/07 Q1028 TEMPO NSW RMK PPTRZ=
SPZO Dic2003-101800Z 28009KT 240V320 9999 BKN043 SCT080 18/06 Q1028 NOSIG RMK PPTRZ=
SPZO Dic2003-101900Z 27011KT 240V300 9999 FEW043 BKN060 19/04 Q1027 NOSIG RMK PP000 RWY10 30018G33KT=
SPZO Dic2003-102000Z 28014KT 250V320 9999 SCT050 SCT100 20/06 Q1026 NOSIG RMK PP000 RWY10 28017G31KT=
SPZO Dic2003-102100Z 28010KT 240V310 9999 SCT040TCU SCT050 19/05 Q1025 TEMPO VCRA RMK PP000 RWY10 28016KT RA CDTE E=
SPZO Dic2003-102200Z 23007KT 200V270 9999 -RA SCT040TCU BKN046 10/07 Q1028 NOSIG RMK PP042 RWY10 24013KT TAX:20.8=
SPZO Dic2003-102300Z VRB03KT 9000 -RA SCT033 BKN046 11/07 Q1029 NOSIG RMK PP004 RWY10 VRB03KT=
SPZO Dic2003-110000Z 00000KT 9999 BKN040 SCT060 11/07 Q1030 RMK PPTRZ=
SPZO Dic2003-110100Z VRB03KT 9999 BKN040 SCT070 11/07 Q1031 RMK PP000=
SPZO Dic2003-110200Z 00000KT 9999 BKN040 SCT060 10/07 Q1031 RMK PP000=
SPZO Dic2003-110300Z 00000KT 9999 SCT100 BKN200 11/07 Q1031 RMK PP000=
SPZO Dic2003-110400Z 00000KT 9999 SCT060 BKN100 11/08 Q1030 RMK PP000=
SPZO Dic2003-110500Z 00000KT 9999 SCT100 SCT200 10/07 Q1030 RMK PP000=
SPZO Dic2003-110600Z 00000KT 9999 SKC 09/07 Q1029 RMK PP000=
SPZO Dic2003-110700Z 00000KT 9999 SKC 08/07 Q1029 RMK PP000=
SPZO Dic2003-110800Z 00000KT 9999 SKC 08/07 Q1028 PP000=
SPZO Dic2003-110900Z 07004KT 9999 FEW037 SCT050 08/07 Q1029 RMK PP000=
SPZO Dic2003-111000Z 00000KT 9999 SCT037 SCT050 08/07 Q1029 RMK PP000=
SPZO Dic2003-111100Z 00000KT 9000 FEW025 SCT037 SCT050 08/06 Q1030 RMK PP000=
SPZO Dic2003-111200Z VRB02KT 8000 VCFG FEW037 BKN050 11/08 Q1031 BECMG FM13 9999 RMK PP000=
SPZO Dic2003-111300Z VRB02KT 9999 FEW035 BKN046 14/08 Q1031 NOSIG RMK PP000=
SPZO Dic2003-111400Z VRB03KT 9999 FEW040 BKN050 15/07 Q1030 NOSIG RMK PP000=
SPZO Dic2003-111500Z VRB03KT 9999 SCT043 SCT100 17/05 Q1030 NOSIG RMK PP000 31004KT=
SPZO Dic2003-111600Z VRB02KT 9999 SCT043 SCT200 19/04 Q1029 NOSIG RMK PP000 RMK RWY10 30006KT=
SPZO Dic2003-111700Z VRB04KT 9999 SCT046 SCT100 20/04 Q1027 NOSIG RMK PP000 RWY10 28008KT=
SPZO Dic2003-111800Z 35013KT 270V080 9999 SCT040TCU BKN050 16/07 Q1027 TEMPO VCRA RMK PP000 RWY10 02019KT RA CDTE N=
SPZO Dic2003-111900Z 02011KT 340V080 9999 SCT043 BKN046 15/06 Q1027 TEMPO VCRA RMK PP000 RWY10 04009G22KT=
SPZO Dic2003-112000Z 17005KT 9000 -RA SCT040 BKN050 13/07 Q1027 NOSIG
SPZO Dic2003-112100Z 10006KT 9999 RERA SCT040 BKN050 13/09 Q1027 NOSIG
SPZO Dic2003-112200Z 26004KT 180V290 9999 FEW043 BKN100 15/09 Q1026
SPZO Dic2003-112300Z 10008KT 9999 BKN100 12/08 Q1027 NOSIG RMK PP000
SPZO Dic2003-120000Z VRB01KT 9999 SCT040 BKN080 12/07 Q1028 RMK PP000=
SPZO Dic2003-120100Z 00000KT 9999 SCT040 SCT080 12/08 Q1029 RMK PP000=
SPZO Dic2003-120200Z 07004KT 9999 SCT040 SCT070 12/09 Q1029 RMK PP000=
SPZO Dic2003-120300Z 00000KT 9999 FEW040 SCT070 12/09 Q1030 RMK PP000=
SPZO Dic2003-120400Z VRB02KT 9000 -RA OVC040 12/09 Q1030 RMK PP002=
SPZO Dic2003-120500Z 00000KT 9999 SCT040 SCT050 11/09 Q1029 RMK PPTRZ=
SPZO Dic2003-120600Z 00000KT 9999 BKN040 SCT050 12/09 Q1029 RMK PP000=
SPZO Dic2003-120700Z 00000KT 9999 OVC040 11/09 Q1029 RMK PP000=
SPZO Dic2003-120800Z 00000KT 9000 -RA SCT030 BKN040 11/07 Q1028 RMK PP004=
SPZO Dic2003-120900Z VRB02KT 9999 OVC040 11/07 Q1028 RMK PPTRZ=
SPZO Dic2003-121000Z 00000KT 9999 BKN040 SCT050 10/08 Q1029 RMK PP000=
SPZO Dic2003-121100Z VRB02KT 9999 BKN040 SCT060 10/08 Q1030 RMK PP000=
SPZO Dic2003-121200Z 00000KT 9999 SCT040 SCT060 12/09 Q1030 NOSIG RMK PP000=
SPZO Dic2003-121300Z 00000KT 9999 FEW033 SCT040 SCT050 13/07 Q1031 NOSIG RMK PP000=
SPZO Dic2003-121400Z 00000KT 9999 SCT040 BKN050 15/08 Q1031 NOSIG RMK PP000 RWY10 VRB03KT=
SPZO Dic2003-121500Z VRB02KT 9999 SCT040 BKN050 16/07 Q1030 NOSIG RMK PP000 RWY10 23004KT=
SPZO Dic2003-121600Z VRB03KT 9999 SCT040 BKN050 16/06 Q1029 NOSIG RMK PP000=
SPZO Dic2003-121700Z VRB03KT 9999 DZ FEW037TCU SCT040 BKN046 13/07 Q1029 BECMG FM1830 NSW RMK PP002 RWY10 25006KT=
SPZO Dic2003-121900Z 28006KT 250V350 9999 FEW033 SCT040 BKN060 16/07 Q1028 NOSIG RMK PPTRZ=
SPZO Dic2003-122000Z 23005KT 160V280 8000 VCSH FEW033 BKN040 FEW043TCU 16/06 Q1027 RESHRA TEMPO 9000 NSW RMK PP002=
SPZO Dic2003-122100Z VRB03KT 9999 FEW037 SCT040 BKN060 15/07 Q1026 NOSIG RMK PP000=
SPZO Dic2003-122200Z 28013KT 260V350 9999 FEW030 SCT040 BKN100 15/06 Q1026 NOSIG RMK RWY10 28023G33KT 240V320 PP000 TMAX 17.8=
SPZO Dic2003-122300Z 27011KT 9999 VCSH FEW033 BKN040 BKN100 14/07 Q1027 NOSIG RMK PP000=
SPZO Dic2003-130000Z 26006KT 9999 BKN040 SCT046 13/07 Q1027 RMK PP000=
SPZO Dic2003-130100Z 28008KT 9999 OVC040 13/06 Q1028 RMK PP000=
SPZO Dic2003-130200Z 28006KT 9999 SCT030 BKN040 13/07 Q1029 RMK PP000=
SPZO Dic2003-130300Z 27006KT 9999 SCT030 BKN040 10/08 Q1030 RMK PP000=
SPZO Dic2003-130400Z 10007KT 9999 SCT030 BKN043 10/08 Q1030 RMK PP000=
SPZO Dic2003-130500Z 10008KT 9999 OVC040 10/07 Q1029 RMK PP000=
SPZO Dic2003-130600Z 11007KT 9999 OVC043 10/07 Q1029 RMK PP000=
SPZO Dic2003-130700Z 10011KT 9999 SCT030 BKN043 10/06 Q1028 RMK PP000=
SPZO Dic2003-130800Z 11008KT 9999 RA OVC040 10/07 Q1029 RMK PP008=
SPZO Dic2003-130900Z VRB02KT 9999 SCT030 BKN040 08/05 Q1029 RMK PP002=
SPZO Dic2003-131000Z VRBO1KT 9000 -DZ FEW030 SCT037 BKN046 08/05 Q1030 RMK CLNG BLW 1200M PPTRZ=
SPZO Dic2003-131100Z 00000KT 9999 -DZ FEW030 SCT040 BKN046 08/05 Q1030 RMK PP004=
SPZO Dic2003-131200Z 00000KT 9999 VCSH FEW025 BKN040 BKN060 09/05 Q1031 NOSIG RMK PPTRZ=
SPZO Dic2003-131300Z VRB03KT 9000 SCT030 SCT043 BKN080 10/06 Q1031 BECMG 9999 RMK HZ PP000=
SPZO Dic2003-131400Z VRB01KT 9999 SCT037 BKN060 13/05 Q1031 NOSIG RMK PP000=
SPZO Dic2003-131500Z 00000KT 9999 SCT037 BKN043 14/06 Q1030 NOSIG RMK PP000=
SPZO Dic2003-131600Z VRB02KT 9999 SCT040 BKN080 15/07 Q1030 NOSIG RMK PP000=
SPZO Dic2003-131700Z VRB04KT 9999 BKN043 18/06 Q1028 NOSIG RMK PP000=
SPZO Dic2003-131800Z 28013KT 250V350 9999 VCSH FEW043TCU BKN043 18/07 Q1027 NOSIG RMK PP000=
SPZO Dic2003-131900Z 26012KT 9999 FEW043CB SCT047 BKN060 14/06 Q1026 NOSIG RMK RWY10 26020G31KT 230V300 PP000=
SPZO Dic2003-132000Z 28006KT 260V360 9999 SCT040 BKN100 15/06 Q1025 NOSIG RMK PP000=
SPZO Dic2003-132100Z 28008KT 250V350 9999 SCT043 BKN100 17/07 Q1025 NOSIG RMK PP000=
SPZO Dic2003-132200Z 27008KT 9999 SCT043 BKN100 17/07 Q1025 NOSIG RMK PP000 TMAX 19.5=
SPZO Dic2003-132300Z VRB03KT 9999 SCT043 SCT300 16/06 Q1025 NOSIG RMK PP000=
SPZO Dic2003-140000Z 28008KT 9999 FEW043 SCT200 14/06 Q1026 RMK PP000=
SPZO Dic2003-140100Z 34004KT 9999 BKN040 13/07 Q1027 RMK PP000=
SPZO Dic2003-140200Z 27006KT 9999 BKN040 12/07 Q1028 RMK PP000=
SPZO Dic2003-140300Z 00000KT 9999 BKN040 12/07 Q1029 RMK PP000=
SPZO Dic2003-140400Z 28008KT 9999 FEW037 BKN047 12/07 Q1029 RMK PP000=
SPZO Dic2003-140500Z 28006KT 9999 SCT037 BKN047 12/07 Q1028 PP000=
SPZO Dic2003-140600Z 28008KT 9999 FEW037 BKN037 12/07 Q1027 RMK PP000=
SPZO Dic2003-140700Z 29006KT 9999 SCT037 BKN047 11/07 Q1027 RMK PP000=
SPZO Dic2003-140800Z 10004KT 9999 -DZ FEW030 BKN040 11/08 Q1027 RMK PPTRZ=
SPZO Dic2003-140900Z 10005KT 9999 -DZ SCT033 BKN043 10/07 Q1027 RMK PP002=
SPZO Dic2003-141000Z 09006KT 9000 -DZ FEW030 SCT037 BKN043 09/07 Q1028 PP002=
SPZO Dic2003-141100Z 00000KT 9999 FEW025 SCT037 BKN043 09/07 Q1029 RMK REDZ PP002=
SPZO Dic2003-141200Z 00000KT 9999 SCT025 SCT040 BKN060 09/07 Q1029 NOSIG RMK PP000=
SPZO Dic2003-141300Z 00000KT 9999 SCT030 12/07 Q1030 NOSIG RMK PP000=
SPZO Dic2003-141400Z VRB03KT 9999 SCT037 SCT100 14/06 Q1030 NOSIG RMK PP000=
SPZO Dic2003-141500Z 00000KT 9999 FEW030 SCT043 BKN100 17/06 Q1029 NOSIG RMK PP000=
SPZO Dic2003-141600Z 28009KT 250V360 9999 SCT043 SCT100 18/06 Q1028 NOSIG RMK PP000=
SPZO Dic2003-141700Z 26007KT 180V350 9999 BKN043 SCT100 19/03 Q1027 NOSIG RWY10 30022G34KT 250V010 RMK PP000=
SPZO Dic2003-141800Z 29013KT 250V360 9999 BKN043 SCT100 21/03 Q1026 NOSIG RMK RWY10 30020G34KT 250V020 PP000=
SPZO Dic2003-141900Z 28016KT 260V350 9999 FEW040TCU SCT050 20/05 Q1025 TEMPO VCRA RMK PP000 RWY10 30025G36KT RA CDTE E=
SPZO Dic2003-142000Z 27017KT 250V350 9999 SCT043 SCT050 19/04 Q1024 NOSIG RMK PP000 RWY10 29022G38KT RA CDTE E=
SPZO Dic2003-142100Z 10014KT 080V170 9999 FEW040TCU BKN050 16/07 Q1024 TEMPO RA RMK PP000 RWY10 11020G34KT=
SPZO Dic2003-142200Z 12007KT 080V170 9999 FEW043 BKN100 16/07 Q1025 NOSIG RMK PP000 RWY10 08012G25KT TMX: 21.3=
SPZO Dic2003-142300Z 12010KT 080V170 9999 SCT060 15/06 Q1025 NOSIG RMK PP000 RWY10 10014KT=
SPZO Dic2003-150000Z VRB03KT 9999 SCT040 14/06 Q1026 RMK PP000=
SPZO Dic2003-150100Z VRB02KT 9999 BKN040 13/06 Q1028 RMK PP000=
SPZO Dic2003-150200Z VRB02KT 9999 BKN040 13/06 Q1028 RMK PP000=
SPZO Dic2003-150300Z 00000KT 9999 SCT040 12/07 Q1029 RMK PP000=
SPZO Dic2003-150400Z 00000KT 9999 SCT040 12/07 Q1030 RMK PP000=
SPZO Dic2003-150500Z 00000KT 9999 SCT040 11/07 Q1029 RMK PP000=
SPZO Dic2003-150600Z 00000KT 9999 BKN040 10/07 Q1028 RMK PP000=
SPZO Dic2003-150700Z VRB03KT 9999 BKN040 10/07 Q1028 RMK PP000=
SPZO Dic2003-150800Z 00000KT 9999 SCT040 19/09 Q1028 RMK PP000=
SPZO Dic2003-150900Z 00000KT 9999 FEW040 SCT050 18/07 Q1027 RMK PP000=
SPZO Dic2003-151000Z 00000KT 9999 BKN043 10/07 Q1028 RMK PP000=
SPZO Dic2003-151100Z 00000KT 9999 FEW040 BKN047 10/07 Q1029 RMK PP000=
SPZO Dic2003-151200Z VRB02KT 9999 FEW040 BKN050 12/07 Q1030 NOSIG RMK PP000=
SPZO Dic2003-151300Z VRB02KT 9999 SCT040 15/07 Q1030 NOSIG RMK PP000=
SPZO Dic2003-151400Z VRB03KT 9999 FEW037 SCT046 17/06 Q1030 NOSIG RMK PP000=
SPZO Dic2003-151500Z VRB05KT 9999 SCT050 19/05 Q1029 NOSIG RMK PP000 RWY10 30010KT=
SPZO Dic2003-151600Z 26006KT 190V350 9999 SCT046 20/04 Q1028 NOSIG RMK PP000 RWY10 29013KT=
SPZO Dic2003-151700Z 35007KT 290V070 9999 SCT043TCU SCT050 19/05 Q1027 TEMPO -RA RWY10 34015KT=
SPZO Dic2003-151800Z 16008KT 110V240 9999 -RA SCT043TCU BKN050 15/06 Q1027 NOSIG RMK PP000 RWY10 13014KT=
SPZO Dic2003-151900Z 14004KT 090V200 9999 DZ SCT040 BKN050 12/08 Q1027 NOSIG RMK PP038 RWY10 VRB03KT=
SPZO Dic2003-152000Z VRB03KT 9999 SCT043 BKN050 13/08 Q1027 NOSIG RMK PPTRZ RWY10 11008KT=
SPZO Dic2003-152100Z 00000KT 9999 FEW040 BKN050 14/07 Q1026 NOSIG RMK PP000=
SPZO Dic2003-152300Z VRB02KT 9999 FEW040 15/07 Q1026 NOSIG RMK PP000=
SPZO Dic2003-160000Z 00000KT 9999 FEW040 SCT050 14/09 Q1027 RMK PP000=
SPZO Dic2003-160100Z VRB03KT 9999 SCT050 12/09 Q1028 RMK PP000=
SPZO Dic2003-160200Z 30005KT 9999 FEW040 SCT050 13/07 Q1030 RMK PP000=
SPZO Dic2003-160300Z 27004KT 9999 FEW040 SCT050 13/07 Q1030 RMK PP000=
SPZO Dic2003-160400Z 00000KT 9999 -RA OVC040 10/04 Q1033 RMK PPTRZ=
SPZO Dic2003-160500Z 00000KT 9000 -RA OVC040 08/06 Q1032 RMK PP030=
SPZO Dic2003-160600Z 00000KT 9000 OVC040 08/06 Q1031 RMK PP008=
SPZO Dic2003-160700Z 00000KT 9999 BKN040 SCT050 09/06 Q1031 RMK PP002=
SPZO Dic2003-160800Z 00000KT 9999 BKN040 SCT046 08/06 Q1030 RMK PP000=
SPZO Dic2003-160900Z 00000KT 9999 SCT030 BKN040 08/06 Q1030 RMK PP000=
SPZO Dic2003-161000Z VRB02KT 9999 FEW030 SCT050 07/05 Q1030 RMK PP000=
SPZO Dic2003-161100Z 00000KT 9999 BKN300 08/06 Q1031 RMK PP000=
SPZO Dic2003-161200Z VRB02KT 9999 FEW037 SCT200 11/07 Q1032 NOSIG RMK PP000 RMK BCBR NE=
SPZO Dic2003-161300Z VRB02KT 9999 FEW037 SCT043 13/06 Q1032 NOSIG RMK PP000=
SPZO Dic2003-161400Z VRB02KT 9999 SCT043 15/06 Q1032 NOSIG RMK PP000 RWY10 VRB04KT=
SPZO Dic2003-161500Z VRB02KT 9999 SCT043 16/07 Q1031 NOSIG RMK PP000 RWY10 VRB06KT=
SPZO Dic2003-161600Z VRB03KT 9999 FEW040 SCT046 18/06 Q1030 TEMPO VCRA RWY10 VRB05KT=
SPZO Dic2003-161700Z 07005KT 010V120 9999 VCRA SCT040TCU SCT046 18/07 Q1029 TEMPO RA RMK PP000 RWY10 04008G20KT=
SPZO Dic2003-161800Z 35008KT 290V080 9999 FEW043 SCT050 19/06 Q1028 NOSIG RMK PP000 RWY10 34009G20KT RA CDTE NE=
SPZO Dic2003-161900Z 12008KT 070V170 9999 SCT040 SCT047 18/09 Q1027 NOSIG RMK PP000=
SPZO Dic2003-162000Z VRB03KT 9999 SCT043 SCT080 19/07 Q1026 NOSIG RMK PP000=
SPZO Dic2003-162100Z 27014KT 9999 VCSH SCT043TCU SCT047 16/06 Q1026 NOSIG RMK RWY10 29018G29KT 250V350 PP000=
SPZO Dic2003-162200Z VRB06KT 9999 SCT043TCU SCT047 15/08 Q1026 NOSIG RMK RWY10 27015G21KT 230V320 PP000 TMAX 19.4=
SPZO Dic2003-162300Z 08005KT 040V100 9999 BKN043 SCT100 14/08 Q1027 NOSIG RMK PP000=
SPZO Dic2003-170000Z VRB02KT 9999 SCT040 SCT050 13/08 Q1029 RMK PP000=
SPZO Dic2003-170100Z 00000KT 9999 SCT040 13/08 Q1030 RMK PP000=
SPZO Dic2003-170200Z 08004KT 9999 SCT050 12/09 Q1031 RMK PP000=
SPZO Dic2003-170300Z VRB03KT 9999 SCT050 12/08 Q1031 RMK PP000=
SPZO Dic2003-170400Z 00000KT 9999 SCT040 SCT050 12/09 Q1031 RMK PP000=
SPZO Dic2003-170500Z 17004KT 9999 SCT040 SCT050 12/06 Q1031 RMK PP000=
SPZO Dic2003-170600Z 00000KT 9999 SCT040 SCT050 12/07 Q1030 RMK PP000=
SPZO Dic2003-170700Z 00000KT 9999 OVC040 11/06 Q1030 RMK PPTRZ=
SPZO Dic2003-170800Z 00000KT 9999 FEW030 BKN040 10/08 Q1029 RMK PP000=
SPZO Dic2003-170900Z VRB01KT 9999 -RA FEW030 BKN040 10/07 Q1029 RMK PP002=
SPZO Dic2003-171000Z 00000KT 9000 -RA FEW030 OVC040 09/07 Q1031 RMK PP006=
SPZO Dic2003-171100Z VRB01KT 6000 RA FEW020 SCT037 BKN046 08/05 Q1032 RMK CLNG BLW 1200M PP022=
SPZO Dic2003-171300Z 00000KT 7000 -RA VCRA FEW025 SCT037 OVC080 07/05 Q1034 TEMPO FM1330 8000 RMK CLNG BLW 1200M PP018=
SPZO Dic2003-171400Z VRB02KT 9000 -DZ SCT025 BKN040 OVC060 08/06 Q1034 TEMPO FM1430 9999 -RA VCSH FEW025 SCT037 BKN053 RMK PP006=
SPZO Dic2003-171500Z 10011KT 070V150 9999 FEW020 SCT033 OVC080 08/06 Q1034 TEMPO VCSH RMK PPTRZ=
SPZO Dic2003-171600Z 11009KT 080V150 9999 FEW025 SCT033 BKN060 09/05 Q1034 NOSIG RMK PP000=
SPZO Dic2003-171700Z VRB03KT 9999 FEW033 SCT040 BKN080 11/06 Q1033 NOSIG RMK PP000=
SPZO Dic2003-171800Z VRB02KT 9999 FEW033 SCT040 BKN080 13/05 Q1032 NOSIG RMK PP000=
SPZO Dic2003-171900Z VRB03KT 9999 FEW043 BKN080 14/06 Q1030 NOSIG RMK PP000=
SPZO Dic2003-172000Z 13005KT 100V170 9999 FEW043 BKN300 15/07 Q1029 NOSIG RMK PP000=
SPZO Dic2003-172100Z VRB03KT 9999 FEW043 BKN300 15/06 Q1028 NOSIG RMK PP000=
SPZO Dic2003-172200Z 09007KT 9999 BKN043 SCT300 14/07 Q1028 NOSIG TMK PP000 TMAX 16.1=
SPZO Dic2003-172300Z VRB01KT 9999 FEW030 BKN043 14/08 Q1029 NOSIG RMK PP000=
SPZO Dic2003-180000Z 01006KT 9999 SCT037 SCT200 14/05 Q1030 RMK PP000=
SPZO Dic2003-180100Z 24004KT 9999 FEW037 12/05 Q1031 RMK PP000=
SPZO Dic2003-180200Z 00000KT 9999 SCT040 11/06 Q1032 RMK PP000=
SPZO Dic2003-180300Z 10006KT 9999 BKN040 11/07 Q1033 RMK PP000=
SPZO Dic2003-180400Z 00000KT 9999 BKN040 11/07 Q1032 RMK PP000=
SPZO Dic2003-180500Z 00000KT 9999 BKN040 11/07 Q1032 RMK PP000=
SPZO Dic2003-180600Z 00000KT 9999 SCT033 BKN043 11/08 Q1031 RMK PP000=
SPZO Dic2003-180700Z 00000KT 9000 -RA SCT033 BKN043 11/08 Q1031 RMK PP006=
SPZO Dic2003-180800Z 00000KT 9999 -DZ SCT033 BKN040 10/07 Q1031 RMK PPTRZ=
SPZO Dic2003-180900Z 00000KT 9999 SCT033 BKN043 10/07 Q1031 RMK REDZ PPTRZ=
SPZO Dic2003-181000Z 00000KT 9999 SCT037 SCT043 09/08 Q1032 RMK PP000=
SPZO Dic2003-181100Z 00000KT 9999 FEW037 BKN043 09/08 Q1032 RMK PP000=
SPZO Dic2003-181200Z 00000KT 9999 FEW025 SCT037 BKN043 11/08 Q1033 NOSIG RMK PP000=
SPZO Dic2003-181300Z VRB01KT 9999 SCT033 BKN080 12/07 Q1034 NOSIG RMK PP000=
SPZO Dic2003-181400Z VRB02KT 9999 SCT037 BKN080 14/08 Q1033 NOSIG RMK PP000=
SPZO Dic2003-181500Z VRB02KT 9999 FEW030 BKN043 BKN300 15/06 Q1033 NOSIG RMK PP000=
SPZO Dic2003-181600Z 20004KT 090V260 9999 BKN043 16/07 Q1032 NOSIG RMK PP000=
SPZO Dic2003-181700Z VRB04KT 9999 SCT043 SCT060 19/07 Q1031 NOSIG RMK PP000=
SPZO Dic2003-181800Z 03008KT 340V080 9999 BKN043 19/04 Q1030 NOSIG RMK PP000=
SPZO Dic2003-181900Z 36014KT 340V080 9999 BKN050 20/04 Q1029 NOSIG RMK PP000 RWY10 02017G31=
SPZO Dic2003-182000Z 01010KT 340V080 9999 SCT050 19/02 Q1028 NOSIG RMK PP000 RWY10 03014G29KT=
SPZO Dic2003-182100Z 03011KT 360V080 9999 SCT050 18/02 Q1028 NOSIG RMK PP000 RWY10 05015G29KT=
SPZO Dic2003-182200Z 05007KT 360V110 9999 FEW050 17/04 Q1028 NOSIG RMK PP000 RWY10 05012G31KT TMX:19.9=
SPZO Dic2003-182300Z 02007KT 340V110 9999 FEW050 16/03 Q1029 NOSIG RMK PP000 RWY10 03014KT=
SPZO Dic2003-190000Z 27005KT 9999 SCT200 14/04 Q1030 RMK PP000=
SPZO Dic2003-190100Z 00000KT 9999 FEW200 12/04 Q1031 RMK PP000=
SPZO Dic2003-190200Z 00000KT 9999 SKC 11/05 Q1032 RMK PP000=
SPZO Dic2003-190300Z 00000KT 9999 SKC 10/05 Q1033 RMK PP000=
SPZO Dic2003-190400Z 00000KT 9999 SKC 10/06 Q1033 RMK PP000=
SPZO Dic2003-190500Z 00000KT 9999 SKC 09/06 Q1033 RMK PP000=
SPZO Dic2003-190600Z 00000KT 9999 FEW040 09/06 Q1033 RMK PP000=
SPZO Dic2003-190700Z 00000KT 9999 SCT040 09/06 Q1032 RMK PP000=
SPZO Dic2003-190800Z 00000KT 9999 BKN040 09/06 Q1032 RMK PP000=
SPZO Dic2003-190900Z 00000KT 9999 BKN040 09/06 Q1031 RMK PP000=
SPZO Dic2003-191000Z 00000KT 9999 SCT040 08/06 Q1032 RMK PP000=
SPZO Dic2003-191100Z 00000KT 9000 FEW040 08/05 Q1033 RMK HZ PP000=
SPZO Dic2003-191200Z 00000KT 9999 FEW040 11/07 Q1034 NOSIG RMK PP000=
SPZO Dic2003-191300Z VRB02KT 9999 FEW037 SCT046 13/06 Q1034 NOSIG RMK PP000=
SPZO Dic2003-191400Z VRB03KT 9999 FEW043 SCT050 15/04 Q1034 NOSIG RMK PP000 RWY10 VRB05KT=
SPZO Dic2003-191500Z VRB03KT 9999 FEW043 BKN050 16/04 Q1034 NOSIG RMK PP000 RWY10 11012KT=
SPZO Dic2003-191600Z VRB04KT 9999 SCT050 17/03 Q1033 NOSIG RMK PP000 RWY10 12020KT=
SPZO Dic2003-191700Z VRB04KT 9999 SCT050 19/03 Q1031 NOSIG RMK PP000 RWY10 14012KT=
SPZO Dic2003-191800Z VRB03KT 9999 BKN050 20/04 Q1030 TEMPO VCRA RMK PP000 RWY10 02010G22KT=
SPZO Dic2003-191900Z 02011KT 340V080 9999 SCT050 20/02 Q1029 NOSIG RMK PP000 RWY10 06016G31KT=
SPZO Dic2003-192000Z 01014KT 9999 SCT050 20/03 Q1028 NOSIG RMK PP000 RWY10 11012G22KT=
SPZO Dic2003-192100Z 36010KT 340V080 9999 FEW050 20/02 Q1027 NOSIG RMK PP000 RWY10 06016GK31T=
SPZO Dic2003-192200Z 36012KT 340V080 9999 FEW050 19/02 Q1027 NOSIG RMK PP000 RWY10 36017G31KT TMX:21.2=
SPZO Dic2003-192300Z 01010KT 350V080 9999 FEW050 17/03 Q1028 NOSIG RMK PP000 RWY10 101012G22=
SPZO Dic2003-200000Z 00000KT 9999 FEW050 SCT300 16/06 Q1029 RMK PP000=
SPZO Dic2003-200100Z 28008KT 9999 FEW050 14/05 Q1030 RMK PP000=
SPZO Dic2003-200200Z VRB02KT 9999 FEW050 13/06 Q1032 RMK PP000=
SPZO Dic2003-200300Z 24006KT 9999 SCT050 13/06 Q1033 RMK PP000=
SPZO Dic2003-200400Z 10005KT 9999 FEW040 SCT050 12/07 Q1033 RMK PP000=
SPZO Dic2003-200500Z 00000KT 9999 FEW040 SCT050 12/06 Q1032 RMK PP000=
SPZO Dic2003-200600Z 00000KT 9999 SCT040 SCT050 12/06 Q1032 RMK PP000=
SPZO Dic2003-200700Z 00000KT 9000 -RA OVC040 10/07 Q1032 RMK PPTRZ=
SPZO Dic2003-200800Z 00000KT 9999 OVC040 11/06 Q1032 RMK PP000=
SPZO Dic2003-200900Z VRB02KT 9999 FEW037 BKN043 10/05 Q1032 RMK PP000=
SPZO Dic2003-201000Z 00000KT 9999 SCT040 SCT050 10/06 Q1033 RMK PP000=
SPZO Dic2003-201100Z 27004KT 9999 SCT043 SCT300 10/05 Q1033 RMK PP000=
SPZO Dic2003-201200Z VRB02KT 9999 FEW040 BKN200 11/05 Q1034 NOSIG RMK PP000=
SPZO Dic2003-201300Z VRB02KT 9999 FEW040 SCT050 14/05 Q1034 NOSIG RMK PP000=
SPZO Dic2003-201400Z VRB02KT 9999 FEW043 SCT050 15/05 Q1034 NOSIG RMK PP000 RWY10 12005KT=
SPZO Dic2003-201500Z VRB03KT 9999 FEW040 SCT050 17/05 Q1034 NOSIG RMK PP000 RWY10 08008KT=
SPZO Dic2003-201600Z 11006KT 060V160 9999 SCT050 18/04 Q1032 NOSIG RMK PP000 RWY10 16008KT=
SPZO Dic2003-201700Z VRB03KT 9999 BKN050 21/05 Q1031 NOSIG RMK PP000 RWY10 19006KT=
SPZO Dic2003-201800Z VRB04KT 9999 FEW043TCU BKN050 22/03 Q1029 TEMPO -RA RMK PP000 RWY10 VR03KT=
SPZO Dic2003-201900Z VRB04KT 9999 BKN043 20/04 Q1028 NOSIG RMK PP000=
SPZO Dic2003-202000Z VRB10KT 9999 VCSH SCT040 SCT047TCU 20/04 Q1027 TEMPO -SHRA RMK PP000=
SPZO Dic2003-202100Z 23004KT 9000 RA SCT043CB BKN047 15/09 Q1027 TEMPO FM2130 NSW RMK PP022=
SPZO Dic2003-202200Z 26005KT 200V340 9999 -RA SCT043CB BKN047 14/08 Q1028 TEMPO NSW PP008 TMAX 22.6=
SPZO Dic2003-202300Z 26005KT 230V300 9999 SCT043 BKN050 14/08 Q1029 NOSIG RMK PPTRZ=
SPZO Dic2003-210000Z VRB02KT 9999 BKN040 SCT050 13/08 Q1030 RMK PP000=
SPZO Dic2003-210100Z 26007KT 9999 SCT040 SCT050 12/08 Q1032 RMK PP000=
SPZO Dic2003-210200Z 28009KT 9999 FEW040 SCT050 12/07 Q1033 RMK PP000=
SPZO Dic2003-210300Z 24005KT 9999 FEW040 SCT050 12/06 Q1033 RMK PP000=
SPZO Dic2003-210400Z VRB03KT 9999 SCT040 SCT047 12/07 Q1033 RMK PP000=
SPZO Dic2003-210500Z 28007KT 9999 BKN040 SCT047 11/07 Q1033 RMK PP000=
SPZO Dic2003-210600Z 28006KT 9999 OVC040 11/06 Q1032 RMK PP000=
SPZO Dic2003-210700Z 00000KT 9999 OVC040 10/07 Q1032 RMK PP002=
SPZO Dic2003-210800Z 26004KT 9999 FEW030 BKN040 10/06 Q1031 RMK PP000=
SPZO Dic2003-210900Z VRB03KT 9999 -RA FEW030 BKN040 10/07 Q1031 RMK PP002=
SPZO Dic2003-211000Z VRB01KT 9999 VCSH FEW030 SCT040 BKN046 10/07 Q1032 RMK PPOOO=
SPZO Dic2003-211100Z VRB02KT 9000 -RA FEW025 SCT037 BKN050 09/08 Q1033 RMK CLNG BLW 1200M PP004=
SPZO Dic2003-211200Z 00000KT 8000 -RA VCRA SCT020 SCT040 OVC080 09/08 Q1034 TEMPO 7000 RA RMK BR PP008=
SPZO Dic2003-211300Z VRB01KT 7000 RA VCRA SCT020 BKN040 OVC080 10/08 Q1035 NOSIG RMK BR PP010=
SPZO Dic2003-211400Z VRB01KT 8000 -DZ VCRA SCT025 SCT040 OVC080 11/08 Q1035 TEMPO 8000 RMK PP006=
SPZO Dic2003-211500Z VRB01KT 8000 -RA VCRA SCT025 SCT043 OVC100 12/06 Q1035 NOSIG RMK PPTRZ=
SPZO Dic2003-211600Z 08004KT 020V160 9000 VCRA SCT030 SCT040 OVC100 13/08 Q1034 RERA NOSIG RMK PPTRZ=
SPZO Dic2003-211700Z VRB03KT 9999 SCT033 SCT053 BKN100 14/07 Q1033 NOSIG RMK PP000=
SPZO Dic2003-211800Z VRB03KT 9999 SCT040 SCT060 15/07 Q1032 NOSIG RMK PP000=
SPZO Dic2003-211900Z VRB03KT 9999 SCT043 SCT060 17/07 Q1030 NOSIG RMK PP000=
SPZO Dic2003-212000Z 26007KT 220V320 9999 SCT040 SCT050 17/07 Q1029 NOSIG RMK PP000=
SPZO Dic2003-212100Z 25004KT 170V320 9999 SCT040 SCT050 18/06 Q1028 NOSIG RMK PP000=
SPZO Dic2003-212200Z 25004KT 170V320 9999 SCT043 SCT100 18/06 Q1028 NOSIG RMK PP000 TMAX 18.6=
SPZO Dic2003-212300Z 28009KT 250V320 9999 SCT043 SCT100 15/07 Q1028 NOSIG RMK PP000=
SPZO Dic2003-220000Z 36007KT 9999 SCT040 SCT200 14/08 Q1029 RMK PP000=
SPZO Dic2003-220100Z 26010KT 9999 SCT040 13/07 Q1030 RMK PP000=
SPZO Dic2003-220200Z 25005KT 9999 SCT040 12/07 Q1031 RMK PP000=
SPZO Dic2003-220300Z 00000KT 9999 FEW040 12/07 Q1032 RMK PP000=
SPZO Dic2003-220400Z 00000KT 9999 BKN040 12/07 Q1032 RMK PP000=
SPZO Dic2003-220500Z 00000KT 9000 -DZ BKN037 12/07 Q1032 RMK PPTRZ=
SPZO Dic2003-220600Z 22006KT 8000 RA BKN037 SCT040 11/08 Q1031 RMK PP020=
SPZO Dic2003-220700Z VRB02KT 8000 RA BKN033 SCT040 09/07 Q1031 RMK PP050=
SPZO Dic2003-220800Z 00000KT 8000 -RA BKN033 SCT040 09/07 Q1031 RMK PP026=
SPZO Dic2003-220900Z 00000KT 9999 -DZ FEW025 SCT033 BKN040 09/07 Q1031 RMK PP002=
SPZO Dic2003-221000Z 00000KT 9999 FEW025 SCT040 SCT100 09/08 Q1031 RMK PP000=
SPZO Dic2003-221100Z 00000KT 9999 SCT037 SCT047 10/08 Q1031 RMK PP000=
SPZO Dic2003-221200Z 00000KT 9999 FEW037 SCT080 13/08 Q1032 NOSIG RMK PP000=
SPZO Dic2003-221300Z VRB02KT 9999 SCT043 14/07 Q1032 NOSIG RMK PP000=
SPZO Dic2003-221400Z VRB03KT 9999 BKN043 16/06 Q1032 NOSIG RMK PP000=
SPZO Dic2003-221500Z VRB02KT 9999 SCT043 SCT060 16/05 Q1031 NOSIG RMK PP000=
SPZO Dic2003-221600Z VRB05KT 9999 FEW043 SCT047 17/05 Q1030 NOSIG RMK PP000=
SPZO Dic2003-221700Z 31005KT 240V020 9999 FEW043 SCT047 20/05 Q1029 NOSIG RMK PP000=
SPZO Dic2003-221800Z VRB04KT 9999 TS VCSH SCT043 FEW047CB SCT100 20/05 Q1028 NOSIG RMK CB NE Y DISTANTE AL E PP000=
SPZO Dic2003-221900Z 01008KT 330V060 9999 FEW043TCU BKN060 18/04 Q1027 TEMPO VCRA RMK PP000 RWY10 04009KT=
SPZO Dic2003-222000Z 30011KT 9999 FEW043 BKN060 19/06 Q1026 NOSIG RMK PP000 RWY10 29018G29KT=
SPZO Dic2003-222100Z 28012KT 250V320 9999 FEW043TCU BKN050 18/06 Q1026 TEMPO VCRA RWY10 28019G30KT=
SPZO Dic2003-222200Z 05007KT 010V080 9000 VCRA FEW043 BKN050 16/09 Q1026 TEMPO VCRA RMK PP002 TMAX:20.7 RA CDT E=
SPZO Dic2003-222300Z 36005KT 310V040 9999 FEW040TCU SCT050 17/06 Q1026 NOSIG RMK PP000=
SPZO Dic2003-230000Z 27008KT 9999 SCT050 SCT200 15/07 Q1027 RMK PP000=
SPZO Dic2003-230100Z 28005KT 9999 SCT040 14/07 Q1028 RMK PP000=
SPZO Dic2003-230200Z 00000KT 9999 FEW040 13/08 Q1029 RMK PP000=
SPZO Dic2003-230300Z 00000KT 9999 SCT040 12/08 Q1030 RMK PP000=
SPZO Dic2003-230400Z 00000KT 9999 FEW040 12/08 Q1030 RMK PP000=
SPZO Dic2003-230500Z 00000KT 9999 SCT040 10/08 Q1029 RMK PP000=
SPZO Dic2003-230600Z 00000KT 9999 BKN040 11/08 Q1029 RMK PP000=
SPZO Dic2003-230700Z 00000KT 9999 SCT040 11/08 Q1028 RMK PP000=
SPZO Dic2003-230800Z 00000KT 9999 SCT040 10/08 Q1028 RMK PP000=
SPZO Dic2003-230900Z 00000KT 9999 FEW033 SCT043 10/08 Q1028 RMK PP000=
SPZO Dic2003-231000Z 00000KT 9999 SCT040 SCT070 09/08 Q1029 RMK PP000=
SPZO Dic2003-231100Z 00000KT 9999 SCT037 SCT080 BKN200 10/08 Q1030 RMK PP000=
SPZO Dic2003-231200Z VRB02KT 9999 SCT040 BKN050 12/09 Q1030 NOSIG RMK PP000=
SPZO Dic2003-231300Z VRB02KT 9999 SCT040 BKN050 12/09 Q1030 NOSIG RMK PP000=
SPZO Dic2003-231400Z 08005KT 050V110 9999 SCT040 BKN060 13/07 Q1031 NOSIG RMK PP000 RWY10 10004KT=
SPZO Dic2003-231500Z VRB04KT 9999 SCT043 SCT200 16/07 Q1030 NOSIG RMK PP000=
SPZO Dic2003-231600Z VRB05KT 9999 SCT046 SCT200 17/06 Q1029 NOSIG RMK PP000 RWY10 09017KT=
SPZO Dic2003-231700Z VRB06KT 9999 SCT043 SCT050 18/05 Q1028 TEMPO VCRA RMK PP000 RWY10 27010KT RA CDTE W=
SPZO Dic2003-231800Z 31005KT 270V010 9999 BKN050 18/06 Q1027 NOSIG RMK PP000 RWY10 VRB04KT RA CDTE W=
SPZO Dic2003-231900Z 34008KT 290V100 9999 SCT043TCU SCT050 19/04 Q1026 TEMPO VCRA RWY10 31020G30KT=
SPZO Dic2003-232000Z 33012KT 290V040 9999 REDZ BKN043 SCT050 16/06 Q1026 NOSIG RMK PPTRZ RWY10 36014G28KT=
SPZO Dic2003-232100Z 27011KT 250V310 9999 SCT043 BKN050 16/07 Q1026
SPZO Dic2003-232200Z 26004KT 220V320 9999 FEW043 OVC100 17/06 Q1026 NOSIG RMK PP000 RWY10 30010KT TMX:20.9=
SPZO Dic2003-232300Z 28005KT 9999 FEW043 BKN100 16/06 Q1027 NOSIG RMK PP000 RWY10 28008KT=
SPZO Dic2003-240000Z VRB02KT 9999 BKN040 SCT100 15/06 Q1028 RMK PP000=
SPZO Dic2003-240100Z VRB01KT 9999 FEW040 SCT050 14/06 Q1029 RMK PP000=
SPZO Dic2003-240200Z 22004KT 9999 FEW040 SCT050 14/06 Q1029 RMK PP000=
SPZO Dic2003-240300Z 21004KT 9999 FEW040 SCT050 14/06 Q1030 RMK PP000=
SPZO Dic2003-240400Z 27007KT 9999 -RA OVC040 11/06 Q1031 RMK PPTRZ=
SPZO Dic2003-240500Z 07007KT 9999 SCT040 SCT050 11/07 Q1031 RMK PP016=
SPZO Dic2003-240600Z 00000KT 9999 OVC040 09/06 Q1030 RMK PP004=
SPZO Dic2003-240700Z 00000KT 9999 FEW030 BKN040 09/07 Q1030 RMK PP000=
SPZO Dic2003-240800Z 00000KT 9999 DZ FEW030 BKN043 08/05 Q1029 RMK PP002=
SPZO Dic2003-240900Z 00000KT 9999 SCT025 BKN043 09/07 Q1030 RMK PP002=
SPZO Dic2003-241000Z 00000KT 9999 VCRA FEW025 SCT040 BKN046 09/07 Q1031 RMK PP000=
SPZO Dic2003-241100Z VRB03KT 8000 -DZ FEW025 SCT037 BKN046 09/07 Q1031 RMK CLNG BLW 1200M PPTRZ=
SPZO Dic2003-241200Z 00000KT 7000 VCFG FEW020 SCT030 BKN040 09/07 Q1032 NOSIG RMK PP004 RWY WET CLNG BLW 1200M=
SPZO Dic2003-241300Z 00000KT 9999 FEW025 SCT037 BKN046 10/07 Q1032 BECMG FM14 SCT040 BKN046 RMK PP000 RWY WET CLNG BLW 1200M=
SPZO Dic2003-241400Z VRB02KT 9999 FEW033 SCT040 BKN046 12/08 Q1032 NOSIG RMK PP000 CDTE NE VCFG=
SPZO Dic2003-241500Z VRB02KT 9999 FEW033 SCT040 BKN046 14/07 Q1031 NOSIG RMK PP000=
SPZO Dic2003-241600Z VRB03KT 9999 FEW040 BKN060 16/07 Q1030 NOSIG RMK PP000 RWY10 VRB04KT=
SPZO Dic2003-241700Z 13004KT 050V200 9999 FEW040 SCT050 17/04 Q1029 NOSIG RMK PP000 RWY10 VRB04KT=
SPZO Dic2003-241800Z 09005KT 9999 BKN050 19/06 Q1028 TEMPO VCRA RMK PP000 RWY10 VRB05KT=
SPZO Dic2003-241900Z VRB02KT 9999 VCSH BKN043 SCT100 19/06 Q1026 NOSIG RMK PP000=
SPZO Dic2003-242000Z 01010KT 310V050 9999 BKN043 SCT100 17/06 Q1026 NOSIG RMK PP000=
SPZO Dic2003-242100Z 01008KT 320V080 9999 FEW043 SCT047 BKN300 17/05 Q1026 NOSIG RMK PP000=
SPZO Dic2003-242200Z 36008KT 310V040 9999 FEW043 SCT047 BKN300 17/06 Q1026 NOSIG RMK PP000 TMAX 19.4=
SPZO Dic2003-242300Z VRB04KT 9999 FEW033 BKN043 16/06 Q1027 NOSIG RMK PP000=
SPZO Dic2003-250000Z 13004KT 9999 SCT037 BKN043 14/07 Q1028 RMK PP000=
SPZO Dic2003-250100Z 09007KT 9999 FEW040 SCT050 13/07 Q1029 RMK PP000=
SPZO Dic2003-250200Z 20010KT 9999 SCT040 SCT046 12/05 Q1031 RMK PP000=
SPZO Dic2003-250300Z 04006KT 9000 -RA OVC040 10/06 Q1032 RMK PP010=
SPZO Dic2003-250400Z 09004KT 9000 RA OVC040 09/07 Q1032 RMK PP030=
SPZO Dic2003-250500Z VRB03KT 8000 -RA SCT030 BKN040 09/07 Q1032 RMK PP018=
SPZO Dic2003-250600Z 28005KT 9000 RA OVC040 08/06 Q1032 RMK PP022=
SPZO Dic2003-250700Z 00000KT 9999 -RA OVC043 08/05 Q1031 RMK PP016=
SPZO Dic2003-250800Z 00000KT 9999 -RA SCT030 BKN043 08/05 Q1031 RMK PP010=
SPZO Dic2003-250900Z 00000KT 9999 -RA SCT030 BKN043 08/05 Q1032 RMK PP004=
SPZO Dic2003-251000Z 00000KT 9000 -RA FEW030 SCT037 BKN050 08/05 Q1032 RMK CLNG BLW 1200M PP004=
SPZO Dic2003-251100Z 00000KT 9000 -RA FEW025 SCT037 BKN070 07/05 Q1033 RMK CLNG BLW 1200M PP012=
SPZO Dic2003-251200Z VRB01KT 9999 -DZ VCRA SCT020 SCT047 OVC100 08/05 Q1033 NOSIG RMK PP016=
SPZO Dic2003-251300Z 00000KT 8000 RA SCT025 SCT047 OVC080 08/05 Q1034 NOSIG RMK PP008=
SPZO Dic2003-251400Z VRB01KT 9999 SCT030 SCT053 BKN080 09/06 Q1034 REDZ NOSIG RMK PP014=
SPZO Dic2003-251500Z 00000KT 9999 SCT030 SCT053 BKN080 11/05 Q1033 NOSIG RMK PP000=
SPZO Dic2003-251600Z VRB02KT 9999 SCT030 BKN060 13/05 Q1032 NOSIG RMK PP000=
SPZO Dic2003-251700Z VRB04KT 9999 FEW025 SCT040 BKN080 14/06 Q1032 NOSIG RMK BIRDS HAZARD RWY 10/28 PP000=
SPZO Dic2003-251800Z VRB02KT 9999 FEW033 BKN047 16/08 Q1031 RESHRA NOSIG RMK PP002=
SPZO Dic2003-251900Z VRB03KT 9999 VCSH FEW040TCU BKN043 17/07 Q1030 NOSIG RMK PP000=
SPZO Dic2003-252000Z 25007KT 180V280 9999 BKN043 17/08 Q1028 NOSIG RMK PP000=
SPZO Dic2003-252100Z 27007KT 180V350 9999 BKN043 18/07 Q1027 NOSIG RMK PP000=
SPZO Dic2003-252200Z 27009KT 250V350 9999 BKN043 18/07 Q1027 NOSIG RMK PP000 TMAX 18.6=
SPZO Dic2003-252300Z 26006KT 9999 BKN043 16/06 Q1028 NOSIG RMK PP000=
SPZO Dic2003-260000Z 26007KT 9999 SCT047 15/07 Q1028 RMK PP000=
SPZO Dic2003-260100Z 30007KT 9999 SCT040 14/07 Q1029 RMK PP000=
SPZO Dic2003-260200Z 28009KT 9999 BKN040 14/07 Q1031 RMK PP000=
SPZO Dic2003-260300Z 22004KT 9999 FEW040 13/07 Q1031 RMK PP000=
SPZO Dic2003-260400Z VRB02KT 9999 FEW040 12/06 Q1031 RMK PP000=
SPZO Dic2003-260500Z 00000KT 9999 SCT040 SCT100 11/07 Q1031 RMK PP000=
SPZO Dic2003-260600Z 00000KT 9999 SCT040 11/07 Q1030 RMK PP000=
SPZO Dic2003-260700Z 00000KT 9999 FEW040 10/07 Q1030 RMK PP000=
SPZO Dic2003-260800Z 00000KT 9999 FEW040 10/07 Q1030 RMK PP000=
SPZO Dic2003-260900Z 00000KT 9999 SCT040 10/07 Q1030 RMK PP000=
SPZO Dic2003-261000Z 00000KT 9999 BKN043 10/07 Q1031 RMK PP000=
SPZO Dic2003-261100Z 00000KT 9999 BKN043 SCT150 10/07 Q1032 RMK PP000=
SPZO Dic2003-261200Z VRB02KT 9999 SCT047 SCT100 12/07 Q1032 NOSIG RMK PP000=
SPZO Dic2003-261300Z VRB03KT 9999 FEW033 SCT080 BKN300 12/07 Q1032 NOSIG RMK PP000=
SPZO Dic2003-261400Z VRB02KT 9999 SCT037 BKN300 15/06 Q1032 NOSIG RMK PP000=
SPZO Dic2003-261500Z VRB02KT 9999 VCSH FEW033 SCT043 BKN060 17/05 Q1031 NOSIG RMK PP000=
SPZO Dic2003-261600Z 02009KT 350V070 9999 VCSH SCT033 BKN060 15/05 Q1030 NOSIG RMK PP000=
SPZO Dic2003-261700Z 07011KT 360V110 8000 VCSH SCT043TCU SCT047 BKN100 14/06 Q1031 TEMPO 9000E FM1730 9999 RMK TCU NE Y E PP000=
SPZO Dic2003-261800Z 00000KT 9000 -RA VCSH SCT043TCU SCT047 BKN080 12/07 Q1031 TEMPO 9999 NSW RMK PP012=
SPZO Dic2003-261900Z VRB03KT 9999 REDZ FEW040 OVC050 15/07 Q1030 NOSIG RMK PP002 RWY10 36006KT=
SPZO Dic2003-262000Z VRB03KT 9999 SCT040 SCT100 16/05 Q1029 NOSIG RMK PP000 RWY10 09006KT=
SPZO Dic2003-262100Z 20004KT 140V260 9999 SCT043 17/06 Q1027 NOSIG RMK PP000 RWY10 07006KT=
SPZO Dic2003-262200Z 15004KT 100V200 9999 SCT043 17/05 Q1027 NOSIG RMK PP000 RWY10 RWY10 30009KT TMX:17.9=
SPZO Dic2003-262300Z VRB02KT 9999 BKN046 16/06 Q1027 NOSIG RMK PP000 RWY10 31012G28KT=
SPZO Dic2003-270000Z 26009KT 230V290 9999 FEW040 SCT060 13/07 Q1029 RMK PP000=
SPZO Dic2003-270100Z 26005KT 9999 FEW040 13/07 Q1029 RMK PP000=
SPZO Dic2003-270200Z 00000KT 9999 FEW040 12/08 Q1030 RMK PP000=
SPZO Dic2003-270300Z 09004KT 9999 SKC 11/08 Q1031 RMK PP000=
SPZO Dic2003-270400Z 00000KT 9999 SCT033 13/07 Q1030 RMK PP000=
SPZO Dic2003-270500Z 24005KT 9000 TS FEW033CB BKN040 12/05 Q1030 RMK VCRA PP000=
SPZO Dic2003-270600Z 25005KT 9000 -RA SCT033 BKN040 11/06 Q1030 RMK PPTRZ=
SPZO Dic2003-270700Z 00000KT 9999 SCT030 BKN040 10/07 Q1029 RMK RERA PP002=
SPZO Dic2003-270800Z 26004KT 9999 SCT030 BKN040 10/06 Q1029 RMK PP000=
SPZO Dic2003-270900Z 00000KT 9999 SCT033 BKN040 10/05 Q1029 RMK PP000=
SPZO Dic2003-271000Z 00000KT 9999 SCT033 BKN040 10/04 Q1030 RMK PP000=
SPZO Dic2003-271100Z 25004KT 9999 -DZ SCT033 BKN040 10/05 Q1031 RMK PPTRZ=
SPZO Dic2003-271200Z VRB02KT 9999 FEW040 SCT043 BKN046 11/06 Q1031 NOSIG RMK PP000=
SPZO Dic2003-271300Z 00000KT 9999 SCT043 BKN046 11/06 Q1031 NOSIG RMK PP000=
SPZO Dic2003-271400Z VRB02KT 9999 FEW040 BKN046 13/06 Q1031 NOSIG RMK PP000 RWY10 VRB04KT=
SPZO Dic2003-271500Z 28005KT 220V350 9999 FEW043 BKN060 16/07 Q1030 NOSIG RMK PP000 RWY10 28009KT=
SPZO Dic2003-271600Z VRB04KT 9999 FEW043 SCT050 16/05 Q1029 NOSIG RMK PP000 RWY10 30009G19KT=
SPZO Dic2003-271700Z VRB04KT 9999 FEW043TCU BKN050 19/05 Q1027 TEMPO VCRA RMK PP000 RWY10 VRB05KT=
SPZO Dic2003-271800Z 10010KT 9999 FEW043TCU BKN050 17/06 Q1026 TEMPO RA RMK PP002 RWY10 11018G28KT -RA CDTE E=
SPZO Dic2003-271900Z 11004KT 9999 SCT043 BKN060 17/05 Q1025 TEMPO VCRA RMK PP000 RWY10 10005KT=
SPZO Dic2003-272000Z 07006KT 9999 SCT043 BKN050 17/07 Q1025 TEMPO VCRA PP000 RWY10 03010KT=
SPZO Dic2003-272100Z 11012KT 080V150 9999 SCT043 BKN100 17/08 Q1024 TEMPO VCRA RMK PP000 RWY10 10024KT=
SPZO Dic2003-272200Z 10010KT 9999 SCT043 SCT050 15/07 Q1024 NOSIG RMK PP000 RWY10 10019KT TMX:19.9=
SPZO Dic2003-272300Z 08003KT 9999 SCT043 13/07 Q1025 NOSIG RMK PP000 RWY10 06005KT=
SPZO Dic2003-280000Z 27006KT 9999 FEW043 SCT050 13/06 Q1026 RMK PP000=
SPZO Dic2003-280100Z 28009KT 9999 FEW050 11/06 Q1027 RMK PP000=
SPZO Dic2003-280200Z VRB03KT 9999 FEW050 10/06 Q1027 RMK PP000=
SPZO Dic2003-280300Z 28005KT 9999 FEW040 SCT050 09/06 Q1027 RMK PP000=
SPZO Dic2003-280400Z 24004KT 9999 SCT043 09/05 Q1027 RMK PP000=
SPZO Dic2003-280500Z 00000KT 9999 BKN040 08/06 Q1027 RMK PP000=
SPZO Dic2003-280600Z 00000KT 9999 BKN040 SCT070 08/06 Q1026 RMK PP000=
SPZO Dic2003-280700Z 00000KT 9999 BKN040 SCT046 08/06 Q1025 RMK PP000=
SPZO Dic2003-280800Z 00000KT 9999 BKN040 08/06 Q1025 RMK PP000=
SPZO Dic2003-280900Z 00000KT 9999 SCT040 SCT050 08/06 Q1026 RMK PP000=
SPZO Dic2003-281000Z 00000KT 9999 FEW040 SCT050 08/05 Q1026 RMK PP000=
SPZO Dic2003-281100Z 00000KT 9999 FEW050 BKN300 07/05 Q1027 RMK PP000=
SPZO Dic2003-281200Z 00000KT 9999 FEW046 BKN100 10/07 Q1028 NOSIG RMK PP000=
SPZO Dic2003-281500Z VRB02KT 9999 FEW046 BKN100 16/06 Q1027 NOSIG RMK PP000 RWY10 VRB04KT=
SPZO Dic2003-281600Z VRB02KT 9999 FEW046 BKN100 17/02 Q1026 NOSIG RMK PP000 RWY10 VRB05KT=
SPZO Dic2003-281700Z VRB02KT 9999 FEW046 BKN100 19/03 Q1025 NOSIG RMK PP000 RWY10 09006G15KT=
SPZO Dic2003-281800Z VRB04KT 9999 FEW050 SCT200 20/04 Q1024 NOSIG RMK PP000 RWY10 VRB04KT=
SPZO Dic2003-281900Z VRB05KT 9999 SCT043 SCT300 20/02 Q1023 NOSIG RMK PP000=
SPZO Dic2003-282000Z VRB02KT 9999 SCT043 BKN300 21/01 Q1022 NOSIG RMK PP000=
SPZO Dic2003-282100Z 29009KT 260V350 9999 SCT043 BKN100 20/04 Q1021 NOSIG RMK PP000=
SPZO Dic2003-282200Z 01008KT 270V080 9999 SCT043 BKN100 19/05 Q1022 NOSIG RMK PP000 TMAX 21.8=
SPZO Dic2003-282300Z 30007KT 250V010 9999 FEW047 BKN100 18/06 Q1023 NOSIG RMK PP000=
SPZO Dic2003-290000Z 36008KT 9999 SCT047 BKN100 16/06 Q1024 RMK PP000=
SPZO Dic2003-290100Z 08004KT 9999 BKN100 14/07 Q1025 RMK PP000=
SPZO Dic2003-290200Z 08007KT 9999 BKN080 14/07 Q1026 RMK PP000=
SPZO Dic2003-290300Z 09004KT 9999 BKN070 13/07 Q1027 RMK PP000=
SPZO Dic2003-290400Z 00000KT 9999 FEW040 SCT070 13/07 Q1027 RMK PP000=
SPZO Dic2003-290500Z 00000KT 9999 SCT040 SCT070 12/08 Q1026 RMK PP000=
SPZO Dic2003-290600Z 00000KT 9999 SCT030 SCT070 11/07 Q1026 RMK PP000=
SPZO Dic2003-290700Z 00000KT 9999 BKN040 SCT070 11/08 Q1025 RMK PP000=
SPZO Dic2003-290800Z 00000KT 9999 BKN040 SCT050 12/07 Q1025 RMK PP000=
SPZO Dic2003-290900Z 00000KT 9999 SCT040 SCT050 11/08 Q1025 RMK PP000=
SPZO Dic2003-291000Z 00000KT 9999 SCT040 SCT050 11/08 Q1026 RMK PP000=
SPZO Dic2003-291100Z VRB02KT 9999 BKN040 SCT080 10/08 Q1027 RMK PP000=
SPZO Dic2003-291200Z 00000KT 9999 FEW030 BKN043 OVC100 11/08 Q1027 NOSIG RMK PP000=
SPZO Dic2003-291300Z 00000KT 9999 FEW043 OVC100 13/08 Q1028 NOSIG RMK PP000=
SPZO Dic2003-291400Z 00000KT 9999 FEW043 OVC100 14/08 Q1028 NOSIG RMK PP000=
SPZO Dic2003-291500Z 00000KT 9999 SCT040 OVC100 15/07 Q1027 NOSIG RMK PP000=
SPZO Dic2003-291600Z VRB02KT 9999 SCT040 OVC100 17/07 Q1027 NOSIG RMK PP000=
SPZO Dic2003-291700Z VRB02KT 9999 SCT040 OVC300 17/07 Q1025 NOSIG RMK PP000=
SPZO Dic2003-291800Z 01011KT 340V080 9999 BKN043 OVC300 18/08 Q1024 NOSIG RMK PP000=
SPZO Dic2003-291900Z 01011KT 340V080 9999 BKN043 BKN300 18/06 Q1023 NOSIG RMK CB DISTANTE SE PP000=
SPZO Dic2003-292000Z 02008KT 340V110 9999 BKN043 SCT100 18/06 Q1023 NOSIG RMK PP000=
SPZO Dic2003-292100Z 10012KT 080V170 9999 VCSH SCT040TCU BKN043 16/07 Q1023 NOSIG RMK PP000=
SPZO Dic2003-292200Z 26007KT 180V350 7000 TS VCSH FEW020 SCT030CB BKN043 10/07 Q1026 TEMPO FM2240 8000E RMK PP036 TMAX 18.9=
SPZO Dic2003-292300Z VRB02KT 9000 -DZ FEW025 BKN040 BKN080 11/07 Q1026 NOSIG RMK PP002=
SPZO Dic2003-300000Z 00000KT 9000 -DZ SCT037 BKN050 10/08 Q1027 RMK PP002=
SPZO Dic2003-300100Z 10004KT 9999 FEW025 SCT040 BKN070 10/08 Q1028 RMK REDZ PPTRZ=
SPZO Dic2003-300200Z 00000KT 9999 FEW025 SCT040 SCT070 10/08 Q1029 RMK PP000=
SPZO Dic2003-300300Z 10007KT 9000 -RA FEW025 BKN040 10/08 Q1029 RMK PP002=
SPZO Dic2003-300400Z 00000KT 9000 -RA FEW025 BKN040 09/07 Q1029 RMK PP004=
SPZO Dic2003-300500Z 00000KT 9000 -DZ FEW025 SCT037 BKN070 09/07 Q1028 RMK PP004=
SPZO Dic2003-300600Z 00000KT 9999 -DZ FEW020 SCT037 BKN050 09/07 Q1027 RMK PP002=
SPZO Dic2003-300700Z 00000KT 9000 -RA FEW020 BKN037 09/07 Q1027 RMK PP006=
SPZO Dic2003-300800Z 00000KT 9999 FEW020 BKN037 09/07 Q1026 RMK REDZ PPTRZ=
SPZO Dic2003-300900Z 00000KT 9999 FEW020 BKN040 09/07 Q1026 RMK PP000=
SPZO Dic2003-301000Z VRB03KT 9999 SCT025 SCT037 BKN050 09/07 Q1027 RMK PP000 CLNG BLW 1200M=
SPZO Dic2003-301100Z 00000KT 9999 FEW025 SCT037 SCT060 09/07 Q1028 RMK PP000=
SPZO Dic2003-301200Z 00000KT 9999 FEW025 SCT040 BKN060 10/07 Q1029 NOSIG RMK PP000=
SPZO Dic2003-301300Z 00000KT 9999 SCT030 BKN060 12/07 Q1029 NOSIG RMK PP000=
SPZO Dic2003-301400Z VRB02KT 9999 SCT033 BKN053 13/07 Q1029 NOSIG RMK PP000=
SPZO Dic2003-301500Z VRB03KT 9999 SCT040 SCT060 15/08 Q1028 NOSIG RMK PP000=
SPZO Dic2003-301600Z VRB03KT 9999 FEW030 BKN043 16/07 Q1028 NOSIG RMK PP000=
SPZO Dic2003-301700Z VRB03KT 9999 VCSH BKN043 SCT060 17/06 Q1026 NOSIG RMK PP000=
SPZO Dic2003-301800Z 09008KT 9000 VCSH FEW030 SCT043TCU BKN047 16/07 Q1025 TEMPO -SHRA RMK PP000=
SPZO Dic2003-301900Z VRB08KT 9999 BKN046 18/09 Q1024 TEMPO VCRA RMK PP000 RWY10 27013KT=
SPZO Dic2003-302000Z 09007KT 070V170 9999 BKN046 19/07 Q1023 TEMPO VCRA RMK PP000 RWY10 22004KT=
SPZO Dic2003-302100Z VRB02KT 9999 FEW043TCU BKN050 19/09 Q1022 TEMPO VCRA RMK PP000 RWY10 31004KT=
SPZO Dic2003-302200Z 10009KT 070V170 9999 FEW040 BKN046 16/06 Q1023 TEMPO VCRA RWY10 28018KT TMX:19.9=
SPZO Dic2003-302300Z VRB05KT 9999 BKN043 16/06 Q1024 NOSIG RMK PP000 RWY10 03008KT=
SPZO Dic2003-310000Z 10009KT 9999 VCRA SCT040 BKN050 14/07 Q1026 RMK PP000=
SPZO Dic2003-310100Z 27003KT 9000 RA SCT033 BKN050 12/09 Q1028 RMK PPTRZ=
SPZO Dic2003-310200Z 28004KT 9999 SCT033 BKN040 12/08 Q1029 RMK RERA PPTRZ=
SPZO Dic2003-310300Z 28004KT 9999 SCT030 BKN040 12/08 Q1029 RMK PP000=
SPZO Dic2003-310400Z 00000KT 9999 SCT030 BKN040 12/08 Q1029 RMK PP000=
SPZO Dic2003-310500Z 00000KT 9999 SCT030 BKN040 12/08 Q1029 RMK PP000=
SPZO Dic2003-310600Z 27005KT 9999 SCT030 BKN040 12/08 Q1028 RMK PP000=
SPZO Dic2003-310700Z 28007KT 9000 VCRA FEW025 SCT037 BKN047 11/08 Q1027 RMK PP000=
SPZO Dic2003-310800Z VRB03KT 9000 -RA SCT025 BKN037 11/07 Q1028 RMK PP002 CLNG BLW 1200M=
SPZO Dic2003-310900Z 00000KT 8000 RA FEW025 BKN033 10/07 Q1028 RMK PP018 CLNG BLW 1200M=
SPZO Dic2003-311000Z 00000KT 9000 -RA FEW020 SCT030 BKN040 09/07 Q1030 RMK PP002 CLNG BLW 1200M=
SPZO Dic2003-311100Z 00000KT 9000 RA FEW025 SCT037 BKN043 09/07 Q1031 RMK PP006 CLNG BLW 1200M=
SPZO Dic2003-311200Z 00000KT 9000 -RA FEW025 SCT036 BKN043 09/07 Q1031 RMK PP010=
SPZO Dic2003-311300Z VRB03KT 9999 FEW030 BKN040 11/07 Q1032 NOSIG RMK BCFG CUAD E PP002=
SPZO Dic2003-311400Z 00000KT 9999 FEW035 SCT046 13/07 Q1032 NOSIG RMK BCFG CUAD NE/E PP000=
SPZO Dic2003-311500Z VRB03KT 9999 FEW037 SCT050 15/08 Q1031 NOSIG RMK PP000 RWY10 VRB06KT=
SPZO Dic2003-311600Z VRB02KT 9999 FEW037 BKN046 16/07 Q1030 NOSIG RMK PP000=
SPZO Dic2003-311700Z VRB03KT 9999 SCT043TCU SCT046 17/07 Q1029 TEMPO -RA RMK PRECIPITACIONES DISTANTES CUAD W/E PP000=
SPZO Dic2003-311800Z 30008KT 260V350 8000 -RA SCT036 BKN046 12/09 Q1029 BECMG FM 1830 NSW RMK PP010=
SPZO Dic2003-311900Z 00000KT 9000 -DZ SCT036 BKN046 14/09 Q1028 BECMG FM 1930 NSW RMK PP008=
SPZO Dic2003-312000Z VRB03KT 9999 REDZ FEW037 BKN046 16/08 Q1027 NOSIG RMK PPTRZ RWY10 13006KT RA CDTE NW=
SPZO Dic2003-312100Z VRB01KT 9999 RERA FEW040 BKN046 15/09 Q1027 NOSIG RMK PP006 RWY10 22004KT=
SPZO Dic2003-312200Z VRB03KT 9000 -RA SCT037 BKN043 15/09 Q1027 NOSIG RMK PP000 RWY10 36011KT TMX:18.0=
SPZO Dic2003-312300Z 00000KT 9999 RERA SCT037 SCT046 13/09 Q1029 NOSIG RMK PP012 RWY10 15006KT=
SPZO Ene2004-010000Z 00000KT 9000 -RA SCT033 BKN047 13/10 Q1029 RMK PP004=
SPZO Ene2004-010100Z 28004KT 9000 -RA FEW025 SCT033 SCT047 11/10 Q1030 RMK PP030=
SPZO Ene2004-010200Z 28004KT 8000 SCT037 BKN080 12/09 Q1031 RMK FU PP002=
SPZO Ene2004-010300Z 00000KT 7000 SCT050 SCT070 11/09 Q1031 RMK FU PP000=
SPZO Ene2004-010400Z 00000KT 4000 FU SCT040 SCT060 11/10 Q1031 RMK PP000=
SPZO Ene2004-010500Z 00000KT 2000 FU SCT040 SCT060 11/09 Q1031 RMK PP000=
SPZO Ene2004-010600Z 00000KT 1500 FU SCT040 SCT050 11/09 Q1030 RMK PP000=
SPZO Ene2004-010700Z 00000KT 1000 FU SCT040 SCT050 11/09 Q1029 RMK PP000=
SPZO Ene2004-010800Z 00000KT 5000 2000E FU BKN040 11/09 Q1029 RMK PP000=
SPZO Ene2004-010900Z 00000KT 6000 3000E FU SCT040 SCT050 11/09 Q1029 RMK PP000=
SPZO Ene2004-011000Z 00000KT 5000 2000E BKN040 11/09 Q1030 RMK PP000=
SPZO Ene2004-011100Z 00000KT 4000 2000E FU SCT040 SCT050 11/09 Q1031 RMK PP000=
SPZO Ene2004-011200Z VRB03KT 8000 FEW033 SCT040 SCT060 13/09 Q1032 BECMG FM13 9999 RMK PP000 EWY10 35005KT=
SPZO Ene2004-011300Z VRB02KT 8000 FEW033 SCT046 14/10 Q1032 BECMG FM1330 9999 RWY10 10010KT=
SPZO Ene2004-011400Z VRB03KT 9999 FEW037 BKN046 15/08 Q1032 TEMPO VCRA RMK PP000 RWY10 36004KT=
SPZO Ene2004-011500Z VRB02KT 9999 FEW040 BKN046 16/09 Q1032 NOSIG RMK PP000=
SPZO Ene2004-011600Z VRB03KT 9999 FEW043 SCT050 18/08 Q1031 NOSIG RMK PP000 RWY10 VRB05KT=
SPZO Ene2004-011700Z VRB05KT 9999 -RA SCT040TCU SCT046 17/09 Q1030 NOSIG RMK PPTRZ RWY10 33015G27KT=
SPZO Ene2004-011800Z 27007KT 250V350 9000 VCSH FEW040TCU SCT046 17/09 Q1029 RERA NOSIG RMK VCSH CUAD NE/E PPTRZ=
SPZO Ene2004-011900Z 26007KT 270V080 9999 SCT043 SCT050 17/08 Q1029 NOSIG RMK PP000 RWY10 36008KT RA CDTE NW=
SPZO Ene2004-012000Z 27006KT 250V350 9999 SCT040 SCT050 17/08 Q1028 RMK PP000=
SPZO Ene2004-012100Z 24004KT 180V290 9999 SCT040 SCT050 16/09 Q1027 RMK PP000=
SPZO Ene2004-012200Z 28011KT 250V350 9999 BKN040 17/09 Q1027 RMK PP000 TMAX 19.2=
SPZO Ene2004-012300Z 30005KT 250V360 9999 BKN040 16/08 Q1028 RMK PP000=
SPZO Ene2004-020000Z 01008KT 9999 BKN040 SCT050 15/08 Q1029 RMK PP000=
SPZO Ene2004-020100Z VRB03KT 9999 SCT040 SCT050 15/08 Q1030 RMK PP000=
SPZO Ene2004-020200Z 10008KT 9999 BKN040 SCT050 13/08 Q1032 RMK PP000=
SPZO Ene2004-020300Z 03004KT 9000 RA OVC040 10/05 Q1035 RNK PP026=
SPZO Ene2004-020400Z 28004KT 8000 RA SCT030 BKN040 09/07 Q1035 RMK PP028=
SPZO Ene2004-020500Z 27003KT 8000 -RA SCT037 BKN043 09/07 Q1035 RMK PP040=
SPZO Ene2004-020600Z 28006KT 9000 -RA SCT030 BKN040 07/05 Q1034 RMK PP048=
SPZO Ene2004-020700Z 00000KT 8000 RA OVC040 06/05 Q1033 RMK PP056=
SPZO Ene2004-020800Z VRB02KT 9000 -RA SCT025 BKN040 06/05 Q1033 RMK PP030=
SPZO Ene2004-020900Z 00000KT 9999 SCT030 BKN043 07/05 Q1031 RMK PP006=
SPZO Ene2004-021000Z 00000KT 9999 FEW025 SCT043 BKN050 07/05 Q1032 RMK PP000=
SPZO Ene2004-021100Z VRB01KT 9999 FEW030 SCT043 BKN070 06/05 Q1032 RMK PP000=
SPZO Ene2004-021200Z 00000KT 9999 FEW033 BKN100 09/06 Q1033 NOSIG RMK PP000=
SPZO Ene2004-021300Z VRB02KT 9999 SCT037 11/06 Q1033 NOSIG RMK PP000 RWY10 13004KT=
SPZO Ene2004-021400Z VRB03KT 9999 SCT037 13/06 Q1033 NOSIG RMK PP000 13005KT=
SPZO Ene2004-021500Z VRB03KT 9999 SCT040 15/06 Q1032 NOSIG RMK PP000 RWY10 10007KT=
SPZO Ene2004-021600Z VRB03KT 9999 SCT040 16/08 Q1031 NOSIG RMK PP000=
SPZO Ene2004-021700Z VRB03KT 9999 SCT050 18/07 Q1030 NOSIG RMK PP000=
SPZO Ene2004-021800Z VRB04KT 9999 SCT050 19/06 Q1029 NOSIG RMK PP000=
SPZO Ene2004-021900Z VRB03KT 9999 SCT050 21/05 Q1027 NOSIG RMK PP000=
SPZO Ene2004-022000Z VRB09KT 9999 SCT050 21/09 Q1026 RMK PP000=
SPZO Ene2004-022100Z VRB02KT 9999 SCT040 21/06 Q1025 RMK PP000=
SPZO Ene2004-022200Z 36009KT 340V080 9999 BKN040 19/08 Q1025 0222 RMK PP000 TMAX 22.10=
SPZO Ene2004-022300Z 01010KT 340V080 9999 BKN040 18/08 Q1025 RMK PP000=
SPZO Ene2004-030000Z 31006KT 9000 VCRA FEW033 BKN040 17/07 Q1027 RMK PP000=
SPZO Ene2004-030100Z 10005KT 9999 SCT033 BKN040 15/08 Q1028 RMK PP000=
SPZO Ene2004-030200Z VRB03KT 9999 SCT040 SCT050 15/08 Q1029 RMK PP000=
SPZO Ene2004-030300Z 35005KT 9999 SCT040 14/07 Q1030 RMK PP000=
SPZO Ene2004-030400Z 10004KT 9999 BKN040 12/08 Q1031 RMK PP000=
SPZO Ene2004-030500Z 00000KT 9999 SCT040 SCT050 13/07 Q1030 RMK PP000=
SPZO Ene2004-030600Z 00000KT 9999 FEW033 BKN050 13/08 Q1029 RMK PP000=
SPZO Ene2004-030700Z 00000KT 9999 SCT033 BKN050 12/07 Q1029 RMK PP000=
SPZO Ene2004-030800Z 00000KT 9999 BKN033 SCT040 13/07 Q1028 RMK PP000=
SPZO Ene2004-030900Z 00000KT 9000 SHRA SCT030 BKN040 11/08 Q1028 RMK PP010=
SPZO Ene2004-031000Z 00000KT 9000 VCRA SCT033 BKN040 12/07 Q1029 RMK RESH PP002=
SPZO Ene2004-031100Z 28005KT 9999 BKN043 SCT050 11/07 Q1029 RMK PP000=
SPZO Ene2004-031200Z VRB03KT 9999 SCT043 BKN060 12/08 Q1030 NOSIG RMK
SPZO Ene2004-031300Z VRB02KT 9999 SCT040 BKN050 13/08 Q1030 NOSIG RMK PP000 RWY10 VRB03KT=
SPZO Ene2004-031400Z 00000KT 9999 SCT040 BKN046 14/08 Q1031 NOSIG RMK PP000 RWY10 VRB04KT=
SPZO Ene2004-031500Z VRB01KT 9999 SCT040 BKN046 16/07 Q1030 NOSIG RMK PP000 RWY10 VRB04KT=
SPZO Ene2004-031600Z VRB03KT 9999 FEW040 SCT050 18/06 Q1029 NOSIG RMK
SPZO Ene2004-031700Z VRB09KT 9999 SCT040 SCT050 17/07 Q1029 TEMPO VCRA RMK PP000=
SPZO Ene2004-031800Z 36010KT 340V080 9999 SCT040 SCT050 19/06 Q1028 NOSIG RMK PP000=
SPZO Ene2004-031900Z 36011KT 9999 SCT040 SCT050 19/06 Q1026 NOSIG RMK PP000=
SPZO Ene2004-032000Z 01007KT 340V080 9999 SCT040 SCT050 19/06 Q1025 RMK PP000=
SPZO Ene2004-032100Z 28016KT 250V350 9000 VCSH SCT040 SCT050 18/06 Q1025 RMO VCSH CUA W/NE PP000=
SPZO Ene2004-032200Z 27013KT 9000 FEW040TCU SCT050 13/09 Q1025 RERA RMK PP002 TMAX 20.4=
SPZO Ene2004-032300Z 28009KT 250V350 9999 BKN040 14/09 Q1026 RMK PP000=
SPZO Ene2004-040000Z 28008KT 9999 SCT037 BKN047 14/08 Q1027 RMK PP000=
SPZO Ene2004-040100Z 07005KT 9999 SCT037 BKN047 13/09 Q1029 RMK PP000=
SPZO Ene2004-040200Z 00000KT 9999 SCT033 BKN047 12/09 Q1030 RMK PP000=
SPZO Ene2004-040300Z 00000KT 8000 -RA SCT030 BKN040 12/09 Q1031 RMK PPTRZ=
SPZO Ene2004-040400Z 10005KT 9000 -RA FEW025 BKN037 10/08 Q1031 RMK PP016=
SPZO Ene2004-040500Z 10007KT 9999 FEW025 BKN037 10/07 Q1030 RMK RERA PP000=
SPZO Ene2004-040600Z 00000KT 9999 FEW025 BKN037 10/07 Q1030 RMK PP000=
SPZO Ene2004-040700Z 00000KT 9999 FEW025 SCT030 BKN040 10/07 Q1029 RMK PP000=
SPZO Ene2004-040800Z 00000KT 9999 SCT030 BKN040 10/06 Q1029 RMK PP000=
SPZO Ene2004-040900Z 00000KT 9999 SCT033 BKN043 10/06 Q1029 PP000=
SPZO Ene2004-041000Z 00000KT 9999 SCT030 BKN040 10/07 Q1029 RMK PP000=
SPZO Ene2004-041100Z 00000KT 9999 SCT033 BKN040 10/07 Q1030 RMK PP000=
SPZO Ene2004-041200Z 00000KT 9999 SCT040 BKN046 11/07 Q1030 NOSIG RMK PP000=
SPZO Ene2004-041300Z 00000KT 9999 SCT040 BKN046 12/08 Q1030 NOSIG RMK PP000=
SPZO Ene2004-041400Z VRB02KT 9999 FEW040 SCT050 15/05 Q1030 NOSIG RMK PP000 RWY10 11007KT=
SPZO Ene2004-041500Z VRB03KT 9999 SCT043 16/06 Q1029 NOSIG RMK PP000 RWY10 14011KT=
SPZO Ene2004-041600Z 07004KT 360V110 9999 BKN040 17/04 Q1029 NOSIG RMK PP000=
SPZO Ene2004-041700Z VRB03KT 9999 BKN040 18/05 Q1027 NOSIG RMK PP000=
SPZO Ene2004-041800Z VRB04KT 9999 SCT043 SCT050 20/07 Q1026 TEMPO VCRA RWY10 27007KT=
SPZO Ene2004-041900Z 34008KT 270V040 9000 -RA FEW030TCU SCT040 16/09 Q1026 NOSIG RMK PP006=
SPZO Ene2004-042000Z 30006KT 270V350 9999 FEW030TCU BKN040 15/09 Q1024 RMK PP004=
SPZO Ene2004-042100Z VRB04KT 9999 FEW030 BKN040 18/08 Q1023 RMK PP000=
SPZO Ene2004-042200Z 00000KT 9999 FEW030 BKN040 17/07 Q1023 RMK PP000 TMAX 20.7=
SPZO Ene2004-042300Z 28006KT 260V350 9999 FEW030 BKN040 15/09 Q1024 RMK PP000=
SPZO Ene2004-050000Z 08006KT 8000 +RA FEW037TCU BKN043 13/09 Q1026 PP028=
SPZO Ene2004-050100Z VRB03KT 8000 RA FEW037TCU BKN043 12/09 Q1028 RMK PP046=
SPZO Ene2004-050200Z 00000KT 9000 -RA SCT030 BKN040 11/08 Q1029 RMK PP014=
SPZO Ene2004-050300Z 00000KT 9999 OVC040 11/09 Q1029 RMK PP002=
SPZO Ene2004-050400Z 10006KT 9999 DZ OVC040 11/08 Q1029 RMK PP002=
SPZO Ene2004-050500Z 00000KT 9999 -RA SCT030 BKN043 10/08 Q1029 RMK PP016=
SPZO Ene2004-050600Z 00000KT 9999 -RA OVC040 09/08 Q1029 RMK PP010=
SPZO Ene2004-050700Z 00000KT 9000 -RA BKN037 SCT046 10/08 Q1029 RMK PP016=
SPZO Ene2004-050800Z 00000KT 9000 -RA BKN040 SCT046 08/05 Q1028 RMK PP028=
SPZO Ene2004-050900Z 00000KT 9999 SCT030 BKN040 09/06 Q1028 RMK PPTRZ=
SPZO Ene2004-051000Z 00000KT 9999 FEW030 SCT040 BKN050 08/06 Q1028 RMK PP002=
SPZO Ene2004-051100Z VRB02KT 9999 FEW030 SCT040 BKN050 09/07 Q1029 RMK PP000=
SPZO Ene2004-051200Z 00000KT 9999 SCT040 BKN046 09/07 Q1029 NOSIG RMK PP000=
SPZO Ene2004-051300Z 00000KT 9999 SCT040 OVC046 11/06 Q1029 NOSIG RMK PP000=
SPZO Ene2004-051400Z 00000KT 9999 FEW030 SCT040 BKN046 11/06 Q1030 NOSIG RMK PP000=
SPZO Ene2004-051500Z VRB02KT 9999 SCT037 BKN046 12/06 Q1029 TEMPO -RA RMK PP000=
SPZO Ene2004-051600Z 00000KT 9999 FEW030 SCT047 BKN046 12/06 Q1029 TEMPO -RA RMK PP000=
SPZO Ene2004-051700Z VRB02KT 9999 VCRA SCT037 BKN046 12/07 Q1029 TEMPO -RA RMK PP000 RAY10 VRO3KT=
SPZO Ene2004-051800Z 11004KT 070V170 9000 VCRA FEW030 SCT037 BKN046 12/08 Q1029 NOSIG RMK PPTRZ RWY10 10009KT=
SPZO Ene2004-051900Z VRB03KT 9999 FEW030 SCT040 BKN046 13/07 Q1028 NOSIG RMK PP000 RWY10 11005KT=
SPZO Ene2004-052000Z VRB03KT 9999 SCT037 BKN050 14/07 Q1027 NOSIG RMK PP000 RWY10 09006KT=
SPZO Ene2004-052100Z VRB02KT 9999 FEW037 OVC050 14/07 Q1026 NOSIG RMK PP000 RWY10 11006KT=
SPZO Ene2004-052200Z VRB03KT 9999 FEW040 SCT120 15/07 Q1026 NOSIG RMK PP000 RWY10 VRB03KT TMX:14.9=
SPZO Ene2004-052300Z 00000KT 9999 FEW040 SCT120 14/07 Q1026 NOSIG RMK PP000=
SPZO Ene2004-060000Z 00000KT 9999 SCT040 SCT070 12/08 Q1027 RMK PP000=
SPZO Ene2004-060100Z 00000KT 9999 FEW050 SCT100 11/08 Q1027 RMK PP000=
SPZO Ene2004-060200Z VRB01KT 9999 FEW040 BKN080 12/09 Q1028 RMK PP000=
SPZO Ene2004-060300Z VRB03KT 9999 SCT040 SCT080 10/08 Q1029 RMK PP000=
SPZO Ene2004-060400Z VRB02KT 9999 SCT030 BKN070 10/08 Q1029 RMK PP000=
SPZO Ene2004-060500Z 00000KT 9999 BKN040 SCT070 10/08 Q1029 RMK PP000=
SPZO Ene2004-060600Z VRB03KT 9999 BKN040 SCT070 09/07 Q1029 RMK PP000=
SPZO Ene2004-060700Z 00000KT 9999 OVC040 10/08 Q1027 RMK PP000=
SPZO Ene2004-060800Z VRB02KT 9999 BKN040 SCT050 10/08 Q1027 RMK PP000=
SPZO Ene2004-060900Z 00000KT 9999 SCT040 SCT050 10/08 Q1027 RMK PP000=
SPZO Ene2004-061000Z 00000KT 9999 BKN040 SCT050 10/08 Q1027 RMK PP000=
SPZO Ene2004-061100Z 00000KT 9999 BKN040 SCT050 10/08 Q1028 RMK PP000=
SPZO Ene2004-061200Z 00000KT 9999 FEW043 OVC060 11/08 Q1029 NOSIG RMK PP000=
SPZO Ene2004-061300Z 00000KT 9999 SCT040 BKN046 12/07 Q1029 TEMPO VCRA RMK PP000=
SPZO Ene2004-061400Z 00000KT 9999 SCT043 BKN050 12/06 Q1030 NOSIG RMK PP000=
SPZO Ene2004-061500Z 00000KT 9999 FEW040 OVC050 13/07 Q1030 NOSIG RMK PP000 RWY10 VRB04KT=
SPZO Ene2004-061600Z 00000KT 9999 FEW030 OVC050 14/06 Q1029 NOSIG RMK PP000=
SPZO Ene2004-061700Z VRB02KT 9999 FEW030 OVC050 15/06 Q1029 NOSIG RMK PP000=
SPZO Ene2004-061800Z VRB02KT 9999 FEW030 OVC050 16/06 Q1028 NOSIG
SPZO Ene2004-061900Z VRB03KT 9999 FEW040 BKN100 17/06 Q1027 NOSIG RMK PP000 RWY10 VRB04KT=
SPZO Ene2004-062000Z VRB03KT 9999 FEW040 OVC070 18/07 Q1025 RMK PP000=
SPZO Ene2004-062100Z VRB02KT 8000 VCSH FEW040 SCT050 BKN070 17/07 Q1025 RMK VCSH CUAD W PP000=
SPZO Ene2004-062200Z 26011KT 180V290 9000 FEW040 SCT050 BKN070 13/07 Q1026 RERA RMK PPTRZ TMAX 18.2=
SPZO Ene2004-062300Z 28007KT 9999 FEW040 SCT050 BKN070 13/07 Q1026
SPZO Ene2004-070000Z 27006KT 9999 FEW040 SCT050 BKN100 13/07 Q1027 RMK PP000=
SPZO Ene2004-070100Z 26007KT 9999 FEW040 SCT050 SCT200 13/08 Q1028
SPZO Ene2004-070200Z 26005KT 9999 SCT040 SCT080 12/08 Q1029 RMK PP000=
SPZO Ene2004-070300Z 00000KT 9999 SCT037 BKN047 13/07 Q1030 RMK PP000=
SPZO Ene2004-070400Z 10004KT 9999 SCT037 BKN047 10/08 Q1030 RMK PP000=
SPZO Ene2004-070500Z 00000KT 9000 RA SCT033 BKN047 10/08 Q1030 RMK PP020=
SPZO Ene2004-070600Z 00000KT 9000 -RA FEW025 SCT030 BKN040 10/08 Q1030 RMK PP016=
SPZO Ene2004-070700Z 00000KT 9000 -RA FEW025 SCT030 BKN040 10/08 Q1029 RMK PP018=
SPZO Ene2004-070800Z 00000KT 9999 -RA FEW020 SCT040 SCT070 09/08 Q1029 RMK PP002=
SPZO Ene2004-070900Z 00000KT 9999 FEW020 SCT030 SCT060 09/08 Q1029 RMK RERA PPTRZ=
SPZO Ene2004-071000Z 00000KT 9999 FEW020 SCT037 BKN047 10/08 Q1029 RMK PP000=
SPZO Ene2004-071100Z 00000KT 9999 FEW025 SCT037 SCT050 10/07 Q1030 RMK PP000=
SPZO Ene2004-071200Z 00000KT 9999 FEW033 SCT037 BKN050 11/08 Q1031
SPZO Ene2004-071300Z 00000KT 9999 SCT037 SCT050 12/08 Q1031 NOSIG RMK PP000=
SPZO Ene2004-071400Z VRB03KT 9999 FEW025 SCT037 SCT060 13/07 Q1031 NOSIG RMK PP000=
SPZO Ene2004-071500Z VRB03KT 9999 FEW030 SCT040 SCT050 14/08 Q1031
SPZO Ene2004-071600Z VRB03KT 9999 FEW030 SCT040 BKN050 14/07 Q1031
SPZO Ene2004-071700Z 29006KT 250V350 9000 VCSH FEW030 SCT040 BKN050 14/08 Q1031=
SPZO Ene2004-071800Z 29009KT 260V350 9000 -RA FEW030 SCT040 BKN050 14/09 Q1030 NOSIG RMK VCSH CUAD NW/NE PPTRZ=
SPZO Ene2004-071900Z VRB03KT 8000 RA SCT040TCU BKN050 16/08 Q1029 NOSIG RMK PP004 RWY10 26006KT=
SPZO Ene2004-072000Z 28008KT 250V350 8000 -RA FEW030TCU OVC040 14/09 Q1028 RMK VCSH CUAD W/NW/NE PP010=
SPZO Ene2004-072100Z 28004KT 250V350 9000 FEW030TCU BKN040 15/07 Q1028 RERA RMK VCSH CUAD SW/NE PP006=
SPZO Ene2004-072200Z VRB02KT 8000 -RA FEW030TCU BKN040 13/09 Q1027 RMK PP012 TMAX 16.4=
SPZO Ene2004-072300Z 00000KT 9000 FEW030 BKN040 14/09 Q1028 RERA RMK PPTRZ=
SPZO Ene2004-080000Z 00000KT 9999 -DZ SCT033 BKN043 13/09 Q1029 RMK PPTRZ=
SPZO Ene2004-080100Z 10004KT 9999 FEW037 SCT050 12/09 Q1029 RMK PP000=
SPZO Ene2004-080200Z 00000KT 9999 SCT037 11/09 Q1030 RMK PP000=
SPZO Ene2004-080300Z 27004KT 9999 FEW080 10/08 Q1030 RMK PP000=
SPZO Ene2004-080400Z 00000KT 9999 FEW100 09/08 Q1030 RMK PP000=
SPZO Ene2004-080500Z 00000KT 9999 FEW120 09/08 Q1030 RMK PP000=
SPZO Ene2004-080600Z 00000KT 9999 FEW060 SCT200 09/08 Q1029 RMK PP000=
SPZO Ene2004-080700Z 00000KT 9999 FEW150 09/07 Q1029 RMK PP000=
SPZO Ene2004-080800Z 28004KT 9999 FEW070 08/07 Q1029 RMK PP000=
SPZO Ene2004-080900Z 00000KT 9999 FEW037 SCT070 08/07 Q1029 RMK PP000=
SPZO Ene2004-081000Z 00000KT 9999 SCT037 SCT070 08/06 Q1030 RMK PP000=
SPZO Ene2004-081100Z 00000KT 9999 SCT040 SCT050 08/07 Q1030 RMK PP000=
SPZO Ene2004-081200Z 00000KT 9999 SCT043 SCT050 10/08 Q1032 NOSIG RMK PP000=
SPZO Ene2004-081300Z VRB02KT 9999 FEW043 SCT120 12/08 Q1031 NOSIG RMK PP000=
SPZO Ene2004-081400Z 09004KT 070V170 9999 FEW037 SCT110 15/08 Q1031 NOSIG RMK PP000=
SPZO Ene2004-081500Z VRB02KT 9999 FEW040 SCT050 16/06 Q1030 NOSIG RMK PP000 RWY10 12008KT=
SPZO Ene2004-081600Z VRB02KT 9999 BKN050 18/06 Q1029 NOSIG RMK PP000=
SPZO Ene2004-081700Z VRB03KT 9999 BKN050 19/05 Q1028 TEMPO VCSH RMK PP000=
SPZO Ene2004-081800Z 34015KT 270V360 8000 RA FEW040TCU BKN050 14/08 Q1027 BECMG FM 1830 NSW RMK PP022=
SPZO Ene2004-081900Z VRB05KT 9999 FEW040 SCT050 19/09 Q1026 NOSIG RMK PP026 RWY10 28019G31KT=
SPZO Ene2004-082000Z 36007KT 340V080 9999 FEW040 BKN050 20/08 Q1025 RMK PP000=
SPZO Ene2004-082100Z 36004KT 340V080 9999 FEW040 BKN050 19/07 Q1024 RMK PP000=
SPZO Ene2004-082200Z 27006KT 9999 FEW040 BKN050 17/08 Q1025 RMK PP000 TMAX 20.7=
SPZO Ene2004-082300Z 32006KT 260V020 9999 BKN050 16/06 Q1026 RMK PP000=
SPZO Ene2004-090000Z 00000KT 9999 FEW040 14/08 Q1027 RMK PP000=
SPZO Ene2004-090100Z 09004KT 9999 FEW050 12/07 Q1028 RMK PP000=
SPZO Ene2004-090200Z VRB01KT 9999 FEW050 SCT100 12/07 Q1029 RMK PP000=
SPZO Ene2004-090300Z 08004KT 9999 FEW040 SCT080 12/08 Q1030 RMK PP000=
SPZO Ene2004-090400Z 00000KT 9000 -RA BKN040 SCT070 10/07 Q1030 RMK PP004=
SPZO Ene2004-090500Z 00000KT 9000 -RA BKN040 SCT070 11/08 Q1030 RMK PP0300=
SPZO Ene2004-090600Z 00000KT 9999 SCT040 SCT070 10/07 Q1030 RMK PP004=
SPZO Ene2004-090700Z 00000KT 9999 BKN040 SCT050 10/07 Q1029 RMK PP002=
SPZO Ene2004-090800Z 00000KT 9999 BKN040 SCT046 10/08 Q1029 RMK PP000=
SPZO Ene2004-090900Z 10004KT 9999 BKN040 SCT050 10/08 Q1029 RMK PP000=
SPZO Ene2004-091000Z 00000KT 9999 BKN040 SCT050 10/08 Q1029 RMK PP000=
SPZO Ene2004-091100Z 00000KT 9999 -RA BKN040 SCT046 10/08 Q1030 RMK PPTRZ=
SPZO Ene2004-091200Z 00000KT 9999 -DZ SCT040 BKN046 11/08 Q1031 BECMG FM13 NSW RMK PPTRZ=
SPZO Ene2004-091300Z 28008KT 250V350 9999 FEW025 SCT040 BKN050 12/07 Q1032 NOSIG RMK PP002 RWY10 28014KT=
SPZO Ene2004-091400Z 28008KT 260V350 9999 FEW025 SCT043 BKN060 13/07 Q1032 NOSIG RMK PP000 RWY10 29010KT=
SPZO Ene2004-091500Z VRB02KT 9999 FEW043 BKN120 16/07 Q1031 NOSIG RMK PP000 RWY19 VRB07KT=
SPZO Ene2004-091600Z VRB02KT 9999 FEW043 BKN120 17/06 Q1030 NOSIG RMK PP000 RWY10 26005KT=
SPZO Ene2004-091700Z VRB03KT 9999 FEW043 BKN060 18/06 Q1029 NOSIG RMK PP000 RWY10 06004KT=
SPZO Ene2004-091800Z VRB02KT 9999 BKN050 20/06 Q1028 NOSIG RMK PP000 RWY10 VRB04KT=
SPZO Ene2004-091900Z 21005KT 170V270 9999 BKN050 20/07 Q1026 NOSIG RMK PP000 RWY10 29004KT=
SPZO Ene2004-092000Z VRB05KT 9999 BKN050 20/06 Q1025 NOSIG RMK PP000 RWY10 30015KT=
SPZO Ene2004-092100Z 30012KT 260V350 9999 SCT050 20/08 Q1024 NOSIG RMK PP000 RWY10 31017G28KT=
SPZO Ene2004-092200Z 28010KT 260V350 9999 SCT060 19/07 Q1024 NOSIG RMK PP000 RWY10 30016KT TMX:21.3=
SPZO Ene2004-092300Z 28008KT 260V350 9999 FEW050 18/05 Q1025 NOSIG RMK PP000 RWY10 30012KT=
SPZO Ene2004-100000Z 28010KT 9999 SCT040 SCT050 17/06 Q1026 RMK PP000=
SPZO Ene2004-100100Z VRB02KT 9999 FEW040 SCT050 15/06 Q1027 PP000=
SPZO Ene2004-100200Z 25006KT 9999 FEW040 SCT080 15/06 Q1028 RMK PP000=
SPZO Ene2004-100300Z VRB02KT 9999 FEW040 SCT080 14/08 Q1029 RMK PP000=
SPZO Ene2004-100400Z 10009KT 9999 -RA OVC040 11/07 Q1029 RMK PP002=
SPZO Ene2004-100500Z 09009KT 9999 -RA BKN040 SCT070 11/07 Q1029 RMK PP006=
SPZO Ene2004-100600Z 00000KT 9999 -RA BKN040 SCT050 10/08 Q1029 RMK PP008=
SPZO Ene2004-100700Z 00000KT 9000 -RA OVC040 10/08 Q1029 RMK PP012=
SPZO Ene2004-100800Z 00000KT 9000 -RA OVC040 10/08 Q1029 RMK PP006=
SPZO Ene2004-100900Z 13004KT 9000 -RA SCT030 BKN040 10/08 Q1029 RMK PP024=
SPZO Ene2004-101000Z VRB03KT 9999 FEW030 BKN043 10/08 Q1028 RMK PP002=
SPZO Ene2004-101100Z VRB02KT 9999 FEW025 BKN060 10/08 Q1029 RMK PP000=
SPZO Ene2004-101200Z 09004KT 9999 FEW040 OVC060 10/08 Q1030 NOSIG RMK PP000 RWY10 VRB03KT=
SPZO Ene2004-101300Z 00000KT 9999 FEW043 OVC060 11/08 Q1031 NOSIG RMK PP000=
SPZO Ene2004-101400Z 00000KT 9999 FEW040 OVC060 13/08 Q1031 NOSIG RMK PP000 RWY10 VR03KT=
SPZO Ene2004-101500Z 00000KT 9999 FEW040 OVC060 15/07 Q1030 NOSIG RMK PP000 RWY10 VRB04KT=
SPZO Ene2004-101600Z 00000KT 9999 FEW040 OVC060 16/05 Q1030 NOSIG RMK PP000=
SPZO Ene2004-101700Z 00000KT 9999 FEW050 SCT060 OVC070 17/06 Q1029 NOSIG RMK PP000=
SPZO Ene2004-101800Z VRB02KT 9999 FEW046 BKN090 18/06 Q1028 NOSIG RMK PP000=
SPZO Ene2004-101900Z 28008KT 250V350 9999 FEW050 SCT200 19/03 Q1027 NOSIG RWY10 29012KT=
SPZO Ene2004-102000Z VRB04KT 9999 SCT050 SCT100 20/05 Q1025 RMK PP000=
SPZO Ene2004-102100Z 30005KT 250V350 9999 SCT050 SCT100 21/04 Q1024
SPZO Ene2004-102200Z 30010KT 9999 SCT050 SCT100 19/05 Q1024 RMK PP000
SPZO Ene2004-102300Z 28007KT 9999 SCT050 SCT080 17/05 Q1025 RMK PP000=
SPZO Ene2004-110000Z 12006KT 9999 BKN043 SCT050 16/07 Q1026 RMK PP000=
SPZO Ene2004-110100Z 10011KT 9000 -RA SCT033 BKN043 14/06 Q1029 RMK PPTRZ=
SPZO Ene2004-110200Z 10007KT 9999 -RA SCT030 BKN040 12/08 Q1030 RMK PP004=
SPZO Ene2004-110300Z 00000KT 9999 SCT033 BKN050 12/07 Q1031 RMK RERA PP000=
SPZO Ene2004-110400Z 00000KT 9999 SCT033 BKN050 11/07 Q1031 RMK PP000=
SPZO Ene2004-110500Z 00000KT 9999 SCT033 BKN043 11/07 Q1030 RMK PP000=
SPZO Ene2004-110600Z 00000KT 9999 FEW033 SCT050 BKN080 11/07 Q1029 RMK PP000=
SPZO Ene2004-110700Z 00000KT 9999 FEW040 SCT060 BKN080 11/08 Q1029 RMK PP000=
SPZO Ene2004-110800Z 10004KT 9999 SCT037 BKN060 10/08 Q1029 RMK PP000=
SPZO Ene2004-110900Z 00000KT 9999 FEW037 BKN050 10/08 Q1029 RMK PP000=
SPZO Ene2004-111000Z 00000KT 9999 SCT040 BKN050 10/08 Q1030 RMK PP000=
SPZO Ene2004-111100Z 00000KT 9999 FEW037 SCT060 SCT200 10/08 Q1030 RMK PP000=
SPZO Ene2004-111200Z 00000KT 9999 FEW040 BKN050 12/08 Q1031 NOSIG RMK PP000=
SPZO Ene2004-111300Z VRB02KT 9999 SCT037 SCT050 14/08 Q1031 BECMG FM14 SCT043 SCT060 RMK PP000=
SPZO Ene2004-111400Z VRB03KT 9999 FEW030 SCT040 SCT050 14/08 Q1032
SPZO Ene2004-111500Z VRB02KT 9999 SCT040 BKN050 16/08 Q1031 NOSIG RMK PP000=
SPZO Ene2004-111600Z 03004KT 340V110 9999 SCT040 BKN050 16/07 Q1031 TEMPO VCSH RMK PP000=
SPZO Ene2004-111700Z VRB03KT 9999 SCT040 SCT050 19/06 Q1030 NOSIG RMK PP000=
SPZO Ene2004-111800Z 35007KT 270V020 9999 SCT040 SCT050 20/06 Q1029 NOSIG RMK PP000=
SPZO Ene2004-111900Z 36008KT 270V080 9999 BKN050 18/05 Q1028 NOSIG RMK PP000 RWY10 03015G33KT=
SPZO Ene2004-112000Z 36011KT 340V080 9999 BKN050 19/06 Q1027 RMK PP000=
SPZO Ene2004-112100Z 01009KT 340V080 9999 BKN050 18/06 Q1026 RMK PP000=
SPZO Ene2004-112200Z 01007KT 340V080 9999 BKN050 17/06 Q1027 RMK PP000 TMAX 19.6=
SPZO Ene2004-112300Z 29007KT 250V350 9999 BKN050 16/07 Q1027 RMK PP000=
SPZO Ene2004-120000Z 00000KT 9999 SCT040 SCT060 16/07 Q1028 RMK PP000=
SPZO Ene2004-120100Z 00000KT 9999 SCT050 BKN100 15/06 Q1029 RMK PP000=
SPZO Ene2004-120200Z 02004KT 9999 SCT040 BKN100 14/07 Q1030 RMK PP000=
SPZO Ene2004-120300Z 00000KT 9999 SCT037 BKN070 14/07 Q1032 RMK PP000=
SPZO Ene2004-120400Z 00000KT 9999 -RA FEW030 SCT040 BKN060 13/08 Q1032 RMK PP002=
SPZO Ene2004-120500Z 00000KT 9999 -RA FEW030 SCT040 BKN050 12/07 Q1031 RMK PP002=
SPZO Ene2004-120600Z 00000KT 9999 SCT030 BKN040 12/08 Q1031 RMK PP000=
SPZO Ene2004-120700Z 00000KT 9999 SCT030 BKN040 09/06 Q1032 RMK PP000=
SPZO Ene2004-120800Z 00000KT 8000 RA FEW025 BKN037 09/07 Q1032 RMK PP040=
SPZO Ene2004-120900Z 00000KT 8000 RA FEW025 BKN037 09/07 Q1032 RMK PP040=
SPZO Ene2004-121000Z 00000KT 9000 -RA FEW025 BKN037 09/07 Q1032 RMK PP026 CLNG BLW 1200M=
SPZO Ene2004-121100Z 00000KT 9000 -DZ FEW027 SCT037 BKN050 09/07 Q1033 RMK PP006=
SPZO Ene2004-121200Z 00000KT 9999 -DZ SCT037 BKN046 09/07 Q1034 BECMG FM13 NSW RMK PP002 RWY WET BCFG NE/E=
SPZO Ene2004-121300Z 00000KT 9999 REDZ FEW025 SCT040 BKN046 10/07 Q1034 NOSIG RMK PPTRZ RWY WET BCFG E/NE=
SPZO Ene2004-121400Z 00000KT 9999 FEW025 SCT040 BKN046 12/07 Q1034 NOSIG RMK PP000 BCFG E/NE=
SPZO Ene2004-121500Z VRB03KT 9999 FEW030 SCT040 SCT050 14/08 Q1034 NOSIG RMK PP000 RWY10 12007KT=
SPZO Ene2004-121600Z VRB04KT 9999 BKN040 15/08 Q1033 NOSIG RMK PP000=
SPZO Ene2004-121700Z VRB03KT 9999 BKN040 15/08 Q1032 TEMPO VCSH RMK PP000=
SPZO Ene2004-121800Z 11006KT 070V170 9999 SCT040 SCT050 16/07 Q1031 TEMPO VCSH RMK PP000=
SPZO Ene2004-121900Z VRB02KT 9999 SCT040 SCT050 17/08 Q1030 NOSIG RMK PP000 RWY10 18004KT=
SPZO Ene2004-122000Z VRB03KT 9000 -DZ SCT040 SCT050 17/07 Q1028 RMK PPTRZ=
SPZO Ene2004-122100Z VRB01KT 9000 SCT040 SCT050 17/08 Q1027 REDZ RMK PP002=
SPZO Ene2004-122200Z 28010KT 260V350 9999 SCT040 SCT050 17/07 Q1028 RMK PP000 TMAX 18.8=
SPZO Ene2004-122300Z 08006KT 9999 SCT040 SCT050 15/09 Q1028 RMK PP000=
SPZO Ene2004-130000Z 11008KT 9000 -RA SCT030 BKN040 13/09 Q1029 RMK PPTRZ=
SPZO Ene2004-130100Z VRB01KT 9999 BKN040 SCT050 12/09 Q1031 RMK PP008=
SPZO Ene2004-130200Z 10005KT 9000 RA SCT030 BKN040 11/09 Q1032 RMK PP010=
SPZO Ene2004-130300Z 09005KT 9999 -RA OVC040 10/09 Q1033 RMK PP018=
SPZO Ene2004-130400Z VRB03KT 9000 -RA OVC040 11/09 Q1033 RMK PP014=
SPZO Ene2004-130500Z VRB02KT 9000 RA SCT030 BKN043 10/08 Q1032 RMK PP048=
SPZO Ene2004-130600Z 00000KT 9999 -RA SCT030 BKN040 10/07 Q1031 RMK PP030=
SPZO Ene2004-130700Z 00000KT 9999 OVC040 10/07 Q1031 RMK PP004=
SPZO Ene2004-130800Z 00000KT 9999 OVC043 10/07 Q1030 RMK PP000=
SPZO Ene2004-130900Z 00000KT 9999 -RA FEW030 OVC040 10/08 Q1030 RMK PP002=
SPZO Ene2004-131000Z VRB03KT 9000 DZ SCT030 BKN040 09/08 Q1031 RMK PPTRZ=
SPZO Ene2004-131100Z VRB03KT 9000 -DZ FEW025 SCT037 BKN046 09/07 Q1031 RMK CLNG BLW 1200M PPTRZ=
SPZO Ene2004-131200Z 10004KT 8000 DZ FEW020 SCT035 BKN046 09/08 Q1032 BECMG FM1330 NSW RMK PP004 CLNG BLW 1200M RWY WET=
SPZO Ene2004-131300Z 00000KT 8000 REDZ FEW020 SCT035 BKN046 10/08 Q1032 FM14 9999 RMK PP004 RWY WET=
SPZO Ene2004-131400Z 00000KT 9999 FEW025 SCT037 BKN046 11/08 Q1033 BECMG FM15 SCT040 BKN050 RMK PP000 RWY WET BCFG NE/E=
SPZO Ene2004-131500Z 00000KT 9999 FEW030 SCT037 BKN046 13/07 Q1032 NOSIG RMK PP000 BCFG NE=
SPZO Ene2004-131600Z 13004KT 070V190 9999 FEW037 BKN050 15/08 Q1031 NOSIG RMK PP000 RWY10 12007KT=
SPZO Ene2004-131700Z 27006KT 180V350 9999 FEW040 BKN050 17/09 Q1030 NOSIG RMK PP000 RWY10 31014KT=
SPZO Ene2004-131800Z 27008KT 180V350 9999 FEW043 BKN050 19/09 Q1029 NOSIG RMK PP000 RWY10 28018KT=
SPZO Ene2004-131900Z 29009KT 250V350 9999 FEW040 SCT050 19/08 Q1027 NOSIG RMK PP000 RWY10 30018G29KT=
SPZO Ene2004-132000Z VRB03KT 9999 SCT043 SCT050 17/08 Q1026 NOSIG RMK PP000 RWY10 VRB05KT RA CDTE HRZTE NE=
SPZO Ene2004-132100Z VRB03KT 9999 DZ SCT043 SCT050 15/09 Q1026 NOSIG RMK PPTRZ RWY10 17006KT=
SPZO Ene2004-132200Z 07004KT 360V110 9999 SCT043 SCT050 14/08 Q1027 NOSIG RMK PPTRZ RWY10 10008KT TMX:19.7=
SPZO Ene2004-132300Z 10004KT 9999 BKN050 13/08 Q1027 NOSIG RMK PP000=
SPZO Ene2004-140000Z VRB02KT 9999 BKN040 SCT080 13/08 Q1028 RMK PP000=
SPZO Ene2004-140100Z VRB02KT 9999 SCT037 SCT046 13/09 Q1029 RMK PP000=
SPZO Ene2004-140200Z 24005KT 9999 BKN040 SCT070 13/06 Q1031 RMK PP000=
SPZO Ene2004-140300Z 24006KT 9999 BKN037 SCT046 12/06 Q1032 RMK PP000=
SPZO Ene2004-140400Z 30005KT 9999 OVC040 11/06 Q1032 RMK PP000=
SPZO Ene2004-140500Z 28007KT 9999 OVC043 11/06 Q1031 RMK PP000=
SPZO Ene2004-140600Z VRB03KT 9999 -RA OVC037 10/08 Q1031 RMK PP004=
SPZO Ene2004-140700Z 00000KT 9999 SCT030 BKN040 09/07 Q1030 RMK PP006=
SPZO Ene2004-140800Z VRB02KT 9999 DZ OVC040 09/07 Q1029 RMK PP002=
SPZO Ene2004-140900Z VRB02KT 9999 BKN040 SCT070 09/07 Q1029 RMK PP002=
SPZO Ene2004-141000Z 00000KT 9999 BKN040 SCT080 09/07 Q1029 RMK PP000=
SPZO Ene2004-141100Z VRB01KT 9999 SCT040 SCT080 09/07 Q1030 RMK PP000=
SPZO Ene2004-141200Z 00000KT 9999 FEW040 BKN050 10/07 Q1030 NOSIG RMK PP000 RWY WET=
SPZO Ene2004-141300Z 00000KT 9999 FEW040 BKN050 12/07 Q1030 NOSIG RMK PP000=
SPZO Ene2004-141400Z 00000KT 9999 FEW040 BKN050 13/05 Q1031 NOSIG RMK PP000=
SPZO Ene2004-141500Z VRB02KT 9999 FEW040 BKN050 15/06 Q1030 NOSIG RMK PP000 RWY10 VRB03KT=
SPZO Ene2004-141600Z VRB02KT 9999 FEW040 BKN050 17/08 Q1029 NOSIG RMK PP000=
SPZO Ene2004-141700Z VRB03KT 9999 FEW040 BKN050 17/06 Q1028 NOSIG RMK PP000=
SPZO Ene2004-141800Z 28012KT 250V350 9999 FEW040 BKN050 17/07 Q1027 NOSIG RMK PP000=
SPZO Ene2004-141900Z VRB03KT 9999 SCT046 SCT100 19/06 Q1026 NOSIG RMK PP000 RWY10 VRB05KT=
SPZO Ene2004-142000Z VRB04KT 9999 SCT043 BKN100 19/07 Q1024 TEMPO VCRA RMK PP000 RWY10 16007KT=
SPZO Ene2004-142100Z VRB03KT 9999 DZ SCT040 BKN050 19/08 Q1024 NOSIG RMK PPTRZ RWY10 18008KT=
SPZO Ene2004-142200Z 00000KT 9000 OVC040 16/09 Q1024 REDZ RMK PP004 TMAX 20.0=
SPZO Ene2004-142300Z 00000KT 9999 OVC040 16/08 Q1024 RMK PP000=
SPZO Ene2004-150000Z 25004KT 9999 SCT040 BKN100 16/08 Q1025 RMK PP000=
SPZO Ene2004-150100Z 00000KT 9999 SCT040 SCT100 15/09 Q1026 RMK PP000=
SPZO Ene2004-150200Z 19014KT 9999 -DZ SCT037 SCT060 13/07 Q1028 RMK PPTRZ=
SPZO Ene2004-150300Z 10004KT 9000 RA SCT033 BKN043 11/08 Q1029 RMK PP006=
SPZO Ene2004-150400Z 00000KT 9999 -DZ FEW025 BKN037 11/08 Q1029 RMK PP008=
SPZO Ene2004-150500Z 15005KT 9999 SCT030 BKN040 11/08 Q1028 RMK PP000=
SPZO Ene2004-150600Z 00000KT 9999 SCT030 BKN040 10/08 Q1028 RMK PP000=
SPZO Ene2004-150700Z 00000KT 9000 -RA SCT030 BKN040 10/07 Q1027 RMK PP006=
SPZO Ene2004-150800Z 00000KT 8000 -RA FEW025 SCT033 BKN043 10/08 Q1027 RMK PP018=
SPZO Ene2004-150900Z 00000KT 9000 -RA FEW025 BKN037 10/08 Q1027 RMK PP004=
SPZO Ene2004-151000Z VRB03KT 9000 -RA SCT030 BKN037 10/08 Q1027 RMK PP014 CLNG BLW 1200M=
SPZO Ene2004-151100Z 00000KT 9000 -RA FEW033 SCT040 BKN050 10/08 Q1028 RMK PP008 RWY WET=
SPZO Ene2004-151200Z 00000KT 9999 RERA SCT037 OVC046 10/08 Q1029 NOSIG RMK PPTRZ RWY WET=
SPZO Ene2004-151300Z 00000KT 9999 FEW037 BKN050 12/07 Q1029 NOSIG RMK PP000 RWY WET=
SPZO Ene2004-151400Z 00000KT 9999 SCT037 BKN050 13/07 Q1029 NOSIG RMK PP000 VRB04KT=
SPZO Ene2004-151500Z 00000KT 9999 SCT040 BKN050 14/08 Q1029 NOSIG RMK PP000 RWY10 VRB04KT=
SPZO Ene2004-151600Z VRB02KT 9999 SCT040 BKN060 15/08 Q1028 NOSIG RMK PP000=
SPZO Ene2004-151700Z 07004KT 360V110 9999 SCT040 BKN060 16/06 Q1027
SPZO Ene2004-151800Z VRB02KT 9999 BKN046 OVC090 17/06 Q1026 NOSIG RMK PP000 RWY10 28009KT=
SPZO Ene2004-151900Z 35005KT 270V080 9999 FEW040 SCT050 OVC080 17/07 Q1025 TEMPO VCSH RMK PP000=
SPZO Ene2004-152000Z 36011KT 9999 SCT040 BKN050 OVC070 15/08 Q1025 RMK PP000=
SPZO Ene2004-152100Z 13006KT 080V170 8000 -DZ FEW040 SCT050 BKN070 14/08 Q1025 RMK PPTRZ=
SPZO Ene2004-152200Z 09009KT 9999 FEW040 SCT050 BKN070 12/08 Q1026 RMK PP008 TMAX 17.6=
SPZO Ene2004-152300Z 10008KT 070V170 9999 FEW040 SCT050 BKN070 11/07 Q1027 RMK PP000=
SPZO Ene2004-160000Z 12004KT 9999 SCT040 BKN100 10/07 Q1028 RMK PP000=
SPZO Ene2004-160100Z 10005KT 9999 SCT040 SCT100 10/06 Q1029 RMK PP000=
SPZO Ene2004-160200Z 15004KT 9999 SCT040 SCT100 10/05 Q1029 RMK PP000=
SPZO Ene2004-160300Z 00000KT 9999 BKN040 SCT050 10/06 Q1030 RMK PP000=
SPZO Ene2004-160400Z 00000KT 9999 VCRA SCT037 BKN043 10/06 Q1030 RMK PP000=
SPZO Ene2004-160500Z 00000KT 9000 RA SCT033 BKN043 09/06 Q1030 RMK PP006=
SPZO Ene2004-160600Z 00000KT 9000 RA FEW025 SCT033 BKN043 09/07 Q1029 PP004=
SPZO Ene2004-160700Z 00000KT 9999 DZ FEW025 SCT037 BKN043 08/06 Q1029 RMK PP006=
SPZO Ene2004-160800Z 00000KT 9999 -DZ FEW025 SCT033 BKN040 08/07 Q1028 PP002=
SPZO Ene2004-160900Z 26004KT 9000 DZ FEW025 SCT033 BKN040 08/06 Q1028 RMK PP002=
SPZO Ene2004-161000Z 27005KT 9000 -RA FEW025 SCT037 BKN043 08/06 Q1029 RMK PP002=
SPZO Ene2004-161100Z 25004KT 9999 FEW027 SCT040 BKN047 08/06 Q1030 RMK RERA PP002=
SPZO Ene2004-161200Z VRB02KT 9999 SCT040 SCT050 10/07 Q1030 NOSIG RMK PP000 RWY WET=
SPZO Ene2004-161300Z 00000KT 9999 SCT040 BKN050 11/05 Q1031 NOSIG RMK PP000 BCFG CUAD NE=
SPZO Ene2004-161400Z VRB02KT 9999 FEW030 SCT040 BKN050 13/06 Q1031 NOSIG RMK PP000 BCFG NE=
SPZO Ene2004-161500Z VRB02KT 9999 SCT040 BKN046 13/06 Q1030 NOSIG RMK PP000 VRB04KT=
SPZO Ene2004-161600Z 31005KT 270V010 9999 SCT040 BKN050 14/04 Q1030 NOSIG RMK PP000=
SPZO Ene2004-161700Z VRB03KT 9999 FEW040 BKN050 16/06 Q1028 NOSIG RMK PP000=
SPZO Ene2004-161800Z VRB05KT 9999 FEW040TCU BKN050 17/06 Q1027 TEMPO SHRA RMK PP000=
SPZO Ene2004-161900Z 36011KT 340V080 9000 VCSH FEW040TCU BKN050 14/07 Q1027 NOSIG RMK PP000=
SPZO Ene2004-162000Z 35009KT 9999 FEW040 BKN050 15/07 Q1026 RMK PP000=
SPZO Ene2004-162100Z 36007KT 340V080 9000 VCSH FEW040 BKN050 14/07 Q1025 RMK VCSH CUAD SW/NE PP000=
SPZO Ene2004-162200Z 18005KT 160V260 8000 -RA FEW040 BKN050 11/07 Q1026 RMK PP024 TMAX 17.3=
SPZO Ene2004-162300Z 09007KT 8000 -RA FEW040 BKN050 10/08 Q1027 RMK PP030=
SPZO Ene2004-170000Z VRB01KT 9000 FEW030 BKN040 10/08 Q1028 RMK PP004=
SPZO Ene2004-170100Z VRB02KT 9999 BKN040 SCT070 09/07 Q1029 RMK PP000=
SPZO Ene2004-170200Z VRB02KT 9999 FEW025 SCT050 09/08 Q1029 RMK PP000=
SPZO Ene2004-170300Z VRB03KT 9999 FEW025 BKN050 10/08 Q1030 RMK PP000=
SPZO Ene2004-170400Z VRB02KT 9999 -RA FEW025 BKN040 09/07 Q1031 RMK PP008=
SPZO Ene2004-170500Z 00000KT 9999 SCT025 BKN040 09/08 Q1030 RMK PP004=
SPZO Ene2004-170600Z VRB03KT 9999 -RA BKN040 SCT050 09/07 Q1030 RMK PP010=
SPZO Ene2004-170700Z 00000KT 9000 -RA OVC040 08/07 Q1029 RMK PP016=
SPZO Ene2004-170800Z 10004KT 9000 -RA SCT030 BKN040 08/07 Q1029 RMK PP008=
SPZO Ene2004-170900Z 00000KT 8000 -RA SCT025 BKN040 08/07 Q1030 RNK PP004=
SPZO Ene2004-171000Z VRB01KT 8000 DZ FEW025 SCT037 BKN043 08/06 Q1030 RMK CLNG BLW 1200M PP006=
SPZO Ene2004-171100Z VRB01KT 9999 DZ FEW025 SCT037 BKN046 08/06 Q1031 RMK CLNG BLW 1200M PP002=
SPZO Ene2004-171200Z 00000KT 9000 -DZ FEW025 SCT035 BKN046 08/06 Q1032 BECMG FM13 SCT037 BKN046 RMK PP004 RWY WET CLNG BLW 1200M=
SPZO Ene2004-171300Z VRB02KT 9999 FEW030 SCT037 SCT050 09/06 Q1032 RMK PPTRZ RWY WET BCFG NE/E=
SPZO Ene2004-171400Z VRB02KT 9999 SCT037 SCT060 11/06 Q1032 NOSIG RMK PP000 RWY WET BCFG NE/E=
SPZO Ene2004-171500Z VRB04KT 9999 FEW037 SCT060 13/06 Q1031 NOSIG RMK PP000=
SPZO Ene2004-171600Z VRB03KT 9999 SCT040 SCT050 14/06 Q1030 NOSIG RMK PP000=
SPZO Ene2004-171700Z VRB03KT 9999 FEW040 SCT050 16/08 Q1029 NOSIG RMK PP000 RA CDTE NE=
SPZO Ene2004-171800Z VRB05KT 9999 SCT040TCU SCT050 16/07 Q1028 TEMPO RA RMK PP000 RWY10 36014KT=
SPZO Ene2004-171900Z 01010KT 340V080 9999 SCT040 SCT050 16/06 Q1027 TEMPO VCRA RMK PP000 RWY10 29012KT RA CDTE NW=
SPZO Ene2004-172000Z 25007KT 180V280 9999 DZ SCT040 SCT050 14/07 Q1027 NOSIG RMK PP002 RWY10 02006KT=
SPZO Ene2004-172100Z 28012KT 270V350 9000 RA SCT040 BKN046 12/07 Q1027 NOSIG RMK PP002 RWY10 VRB04KT=
SPZO Ene2004-172200Z VRB02KT 8000 RA SCT037 BKN046 10/07 Q1028 BECMG FM23 NSW RMK PP018 TMX:17.1 RWY WET RWY10 14005KT=
SPZO Ene2004-172300Z 08003KT 9999 DZ SCT040 SCT046 11/08 Q1028 BECMG FM2330 NSW RMK PP028 RWY WET=
SPZO Ene2004-180000Z VRB03KT 9999 FEW030 BKN043 10/08 Q1029 RMK PPTRZ=
SPZO Ene2004-180100Z VRB03KT 9999 SCT030 10/07 Q1029 RMK PP000=
SPZO Ene2004-180200Z 00000KT 9999 SCT030 SCT046 09/07 Q1030 RMK PP000=
SPZO Ene2004-180300Z VRB02KT 9999 FEW025 SCT050 09/08 Q1031 RMK PP000=
SPZO Ene2004-180400Z 00000KT 9999 SCT030 SCT050 09/08 Q1030 RMK PP000=
SPZO Ene2004-180500Z 00000KT 9999 SCT037 SCT050 09/08 Q1030 RMK PP000=
SPZO Ene2004-180600Z 00000KT 9999 SCT037 SCT046 08/07 Q1030 RMK PP000=
SPZO Ene2004-180700Z 00000KT 9999 BKN037 SCT046 09/08 Q1029 RMK PP002=
SPZO Ene2004-180800Z 00000KT 9999 BKN037 SCT050 09/08 Q1029 RMK PP000=
SPZO Ene2004-180900Z 00000KT 9000 DZ SCT030 BKN043 09/08 Q1029 RMK PP004=
SPZO Ene2004-181000Z 10006KT 9999 FEW025 SCT037 BKN046 09/07 Q1030 RMK CLNG BLW 1200M PP000=
SPZO Ene2004-181100Z 09006KT 9000 -DZ FEW025 SCT037 BKN046 08/06 Q1031 RMK CLNG BLW 1200M PPTRZ=
SPZO Ene2004-181200Z VRB03KT 9000 DZ FEW025 SCT035 BKN046 08/06 Q1031 NOSIG RMK PP008 RWY WET=
SPZO Ene2004-181300Z 00000KT 9000 RA FEW030 SCT035 BKN043 09/07 Q1032 NOSIG RMK PP020 RWYWET BCFG NE=
SPZO Ene2004-181400Z 00000KT 9000 -RA FEW025 SCT037 BKN046 10/07 Q1033 BECMG FM15 NSW RMK PP006 RWY WET BCFG NE=
SPZO Ene2004-181500Z VRB03KT 9999 -DZ FEW033 SCT040 SCT060 10/07 Q1032 BECMG FM16 NSW RMK PP004 RWY WET BCFG NE=
SPZO Ene2004-181600Z VRB02KT 8000 -RA FEW030 SCT040 BKN050 11/07 Q1032 NOSIG RMK PP002=
SPZO Ene2004-181700Z VRB02KT 8000 -RA SCT037 OVC046 12/07 Q1031 NOSIG RMK PP006=
SPZO Ene2004-181800Z 28006KT 260V350 7000 -RA SCT036 OVC046 11/07 Q1031 NOSIG RMK PP006=
SPZO Ene2004-181900Z VRB03KT 8000 -DZ SCT037 OVC046 13/08 Q1030 NOSIG RMK PPTRZ RWY WET VCFG NE=
SPZO Ene2004-182000Z VRB01KT 8000 -DZ FEW030 OVC040 12/08 Q1029 RMK PP006=
SPZO Ene2004-182100Z 26005KT 180V350 8000 -DZ SCT040 BKN050 12/07 Q1028 RMK PP002=
SPZO Ene2004-182200Z VRB02KT 9999 SCT040 SCT050 13/06 Q1027 RMK PP006 TMAX 13.9=
SPZO Ene2004-182300Z VRB01KT 9999 BKN040 13/06 Q1027 RMK PP000=
SPZO Ene2004-190000Z 00000KT 9999 SKC 11/07 Q1028 RMK PP000=
SPZO Ene2004-190100Z 28004KT 9999 SKC 10/07 Q1028 RMK PP000=
SPZO Ene2004-190200Z 00000KT 9999 SKC 10/08 Q1029 RMK PP000=
SPZO Ene2004-190300Z 00000KT 9999 SKC 09/07 Q1030 RMK PP000=
SPZO Ene2004-190400Z 00000KT 9999 FEW040 07/06 Q1030 RMK PP000=
SPZO Ene2004-190500Z 00000KT 9999 SKC 08/06 Q1030 RMK PP000=
SPZO Ene2004-190600Z 00000KT 9999 SKC 08/07 Q1029 RMK PP000=
SPZO Ene2004-190700Z 00000KT 9999 FEW030 SCT040 08/07 Q1029 RMK PP000=
SPZO Ene2004-190800Z 00000KT 9999 SCT037 SCT070 08/07 Q1028 RMK PP000=
SPZO Ene2004-190900Z 00000KT 9999 SCT050 08/06 Q1028 RMK PP000=
SPZO Ene2004-191000Z VRB03KT 9999 FEW037 BKN047 08/06 Q1028 RMK PP000=
SPZO Ene2004-191100Z VRB03KT 9999 FEW037 BKN047 08/07 Q1029 RMK PP000=
SPZO Ene2004-191200Z 09003KT 9999 FEW036 BKN046 10/08 Q1030 NOSIG RMK PP000=
SPZO Ene2004-191300Z 00000KT 9999 FEW036 BKN046 11/07 Q1030 NOSIG RMK
SPZO Ene2004-191400Z VRB02KT 9999 FEW036 SCT050 14/09 Q1030 NOSIG RMK PP000 RWY10 12004KT=
SPZO Ene2004-191500Z 09005KT 360V170 9999 SCT040 SCT050 14/08 Q1030 TEMPO VCRA RMK PP000 RWY10 VRB03KT=
SPZO Ene2004-191600Z VRB02KT 9999 SCT040 SCT050 16/07 Q1029 TEMPO VCSH RMK PP000=
SPZO Ene2004-191700Z VRB02KT 9999 FEW040 SCT050 18/07 Q1028 NOSIG RMK PP000=
SPZO Ene2004-191800Z VRB03KT 9999 FEW040 SCT050 18/05 Q1027 NOSIG RMK PP000=
SPZO Ene2004-191900Z VRB04KT 9999 BKN046 17/06 Q1026 NOSIG RMK PP000=
SPZO Ene2004-192000Z VRB04KT 9999 BKN046 19/06 Q1025 RMK PP000=
SPZO Ene2004-192100Z 33004KT 270V080 9999 BKN040 18/05 Q1024 RMK PP000=
SPZO Ene2004-192200Z VRB05KT 8000 -DZ OVC040 13/07 Q1025 RMK PP012 TMAX 19.5=
SPZO Ene2004-192300Z VRB02KT 9999 BKN040 12/04 Q1026 RMK PPTRZ=
SPZO Ene2004-200000Z 00000KT 9999 SCT040 SCT100 12/06 Q1027 RMK PP000=
SPZO Ene2004-200100Z 00000KT 9999 FEW040 SCT100 10/07 Q1027 RMK PP000=
SPZO Ene2004-200200Z 00000KT 9999 SCT040 SCT060 10/07 Q1029 RMK PP000=
SPZO Ene2004-200300Z 00000KT 9999 BKN040 11/08 Q1030 RMK PP000=
SPZO Ene2004-200400Z 28004KT 9999 BKN040 10/07 Q1030 RMK PP000=
SPZO Ene2004-200500Z 00000KT 9999 FEW037 SCT047 10/08 Q1030 RMK PP000=
SPZO Ene2004-200600Z 00000KT 9999 SCT037 BKN047 10/08 Q1029 RMK PP000=
SPZO Ene2004-200700Z 00000KT 9999 BKN040 10/06 Q1029 RMK PP000=
SPZO Ene2004-200800Z 00000KT 9999 BKN040 09/06 Q1029 RMK PP000=
SPZO Ene2004-200900Z 00000KT 9999 RA SCT033 BKN040 09/06 Q1028 RMK PP008=
SPZO Ene2004-201000Z 08004KT 9999 FEW025 SCT037 SCT050 09/06 Q1029
SPZO Ene2004-201100Z VRB03KT 9999 FEW025 BKN047 09/06 Q1029 RMK PP000=
SPZO Ene2004-201200Z 00000KT 9999 FEW033 BKN050 10/06 Q1030 NOSIG RMK PP000=
SPZO Ene2004-201300Z VRB02KT 9999 FEW036 BKN050 13/06 Q1030 NOSIG RMK PP000=
SPZO Ene2004-201400Z VRB02KT 9999 FEW036 BKN050 12/06 Q1031 NOSIG RMK PP000=
SPZO Ene2004-201500Z VRB02KT 9999 FEW040 SCT050 14/06 Q1030 NOSIG RMK PP000 VRB04KT=
SPZO Ene2004-201600Z VRB04KT 9999 FEW040 BKN050 16/06 Q1029 NOSIG RMK PP000=
SPZO Ene2004-201700Z VRB02KT 9999 FEW040 BKN050 17/07 Q1028 NOSIG RMK PP000=
SPZO Ene2004-201800Z VRB02KT 9999 FEW040 SCT050 18/04 Q1027 NOSIG RMK PP000=
SPZO Ene2004-201900Z 26008KT 9999 FEW043 SCT050 18/04 Q1026 NOSIG RMK PP000 RWY10 22006KT=
SPZO Ene2004-202000Z VRB04KT 9999 BKN040 20/06 Q1024 RMK PP000=
SPZO Ene2004-202100Z 28011KT 250V350 9999 SCT040 SCT060 17/06 Q1023 RMK PP000=
SPZO Ene2004-202200Z 27008KT 9999 SCT040 SCT060 19/05 Q1023 RMK PP000 TMAX 20.2=
SPZO Ene2004-202300Z 25007KT 9999 BKN050 18/06 Q1023 RMK PP000=
SPZO Ene2004-210000Z 07005KT 9999 FEW050 SCT300 15/07 Q1024 RMK PP000=
SPZO Ene2004-210100Z 08004KT 9999 FEW050 SCT080 13/07 Q1026 RMK PP000=
SPZO Ene2004-210200Z 00000KT 9999 FEW050 SCT080 13/07 Q1027 RMK PP000=
SPZO Ene2004-210300Z VRB03KT 9999 FEW040 SCT080 12/08 Q1029 RMK PP000=
SPZO Ene2004-210400Z 10008KT 9999 FEW040 SCT080 12/06 Q1029 RMK PP000=
SPZO Ene2004-210500Z 10008KT 9999 -RA BKN040 SCT070 09/07 Q1030 RMK PP002=
SPZO Ene2004-210600Z 00000KT 9999 SCT037 SCT050 09/07 Q1029 RMK PP002=
SPZO Ene2004-210700Z 00000KT 9999 -RA SCT040 SCT046 09/07 Q1029 RMK PP010=
SPZO Ene2004-210800Z 00000KT 9000 -RA OVC040 09/07 Q1029 RMK PP020=
SPZO Ene2004-210900Z VRB03KT 9000 -RA SCT030 BKN040 08/05 Q1029 RMK PP028=
SPZO Ene2004-211000Z 00000KT 9000 DZ FEW025 SCT037 BKN046 08/05 Q1030 RMK CLNG BLW 1200M PP010=
SPZO Ene2004-211100Z VRB02KT 9000 -DZ FEW025 SCT040 BKN070 08/06 Q1030 RMK PP002=
SPZO Ene2004-211200Z VRB03KT 9999 -DZ FEW025 SCT037 BKN046 08/06 Q1031 NOSIG RMK PPTRZ BCFG NE RWY WET=
SPZO Ene2004-211300Z VRB02KT 9999 REDZ FEW030 SCT037 BKN046 10/06 Q1031 NOSIG RMK BCFG NE PPTRZ=
SPZO Ene2004-211400Z 00000KT 9999 FEW030 SCT037 BKN046 11/06 Q1032 NOSIG RMK PP000 BCFG NE=
SPZO Ene2004-211500Z 00000KT 9999 FEW036 SCT040 BKN050 13/06 Q1031 NOSIG RMK PP000 RWY10 23005KT=
SPZO Ene2004-211600Z VRB02KT 9999 SCT037 SCT050 14/06 Q1031 NOSIG RMK PP000=
SPZO Ene2004-211700Z VRB02KT 9999 FEW040 SCT050 16/07 Q1029 NOSIG RMK PP000 RWY10 11010KT=
SPZO Ene2004-211800Z 08004KT 360V170 9999 SCT040 SCT050 16/07 Q1028 TEMPO VCRA RMK PP000 RWY10 33004KT RA HRZTE E=
SPZO Ene2004-211900Z 15006KT 090V200 9999 -DZ SCT043 SCT050 16/07 Q1027 NOSIG RMK PP000 RWY10 12007KT=
SPZO Ene2004-212000Z VRB01KT 9999 REDZ SCT043 SCT050 16/06 Q1026 NOSIG RMK PPTRZ RWY10 13004KT=
SPZO Ene2004-212100Z 25004KT 180V290 9999 SCT043 BKN120 17/05 Q1025 NOSIG RMK PP000 RWY10 VRB03KT=
SPZO Ene2004-212200Z 28010KT 250V350 9999 SCT043 BKN100 15/07 Q1026 NOSIG RMK PP000 RWY10 29019KT TMX:18.1=
SPZO Ene2004-212300Z 25005KT 180V220 9999 -RA SCT040 BKN046 12/08 Q1027 BECMG FM2330 NSW RMK PP002=
SPZO Ene2004-220000Z VRB02KT 9999 BKN040 SCT050 12/09 Q1028 RMK PPTRZ=
SPZO Ene2004-220100Z VRB02KT 9999 BKN040 SCT070 12/09 Q1029 RMK PP000=
SPZO Ene2004-220200Z VRB02KT 9999 -RA BKN040 SCT050 12/10 Q1029 RMK PP002=
SPZO Ene2004-220300Z VRB03KT 9999 BKN040 SCT070 12/09 Q1030 RMK PP002=
SPZO Ene2004-220400Z VRB02KT 9999 OVC040 12/09 Q1030 RMK PP000=
SPZO Ene2004-220500Z 00000KT 9999 SCT037 BKN043 12/08 Q1029 RMK PP000=
SPZO Ene2004-220600Z 00000KT 9999 SCT037 BKN040 12/07 Q1028 RMK PP000=
SPZO Ene2004-220700Z 00000KT 9999 FEW030 BKN043 10/08 Q1028 RMK PP000=
SPZO Ene2004-220800Z VRB02KT 9000 -RA SCT030 SCT043 10/08 Q1028 RMK PP014=
SPZO Ene2004-220900Z VRB03KT 9000 RA FEW025 OVC040 09/08 Q1028 RMK PP032=
SPZO Ene2004-221000Z 00000KT 8000 RA FEW025 SCT037 BKN046 08/06 Q1029 RMK CLNG BLW 1200M PP036=
SPZO Ene2004-221100Z VRB01KT 9999 -RA FEW030 SCT040 BKN050 08/06 Q1029 RMK PP014=
SPZO Ene2004-221200Z 00000KT 9999 -RA SCT036 OVC046 09/05 Q1030 TEMPO 8000 RMK PP002 RWY WET=
SPZO Ene2004-221300Z VRB03KT 8000 -RA SCT036 OVC046 08/04 Q1031 TEMPO 7000E RMK PP010 RWY WET RWY10 31009KT=
SPZO Ene2004-221400Z 00000KT 7000 -RA FEW030 SCT035 BKN046 08/05 Q1032 FM1430 8000 RMK PP010 RWY WET RWY10 28012KT=
SPZO Ene2004-221500Z 27007KT 7000 -RA FEW030 SCT037 BKN046 08/05 Q1032 BECMG FM1530 8000 RMK PP008 RWY WET RWY10 COR 28011KT=
SPZO Ene2004-221600Z 29006KT 250V350 9000 -RA FEW033 SCT036 BKN046 09/05 Q1032 NOSIG RMK RWY10 31011KT 250V020 PP008=
SPZO Ene2004-221700Z VRB03KT 8000 RA FEW030 SCT036 BKN046 09/05 Q1031 NOSIG RMK RWY10 32009KT 250V030 PP006=
SPZO Ene2004-221800Z 00000KT 7000 -RA FEW020 SCT033 BKN046 09/07 Q1030 BECMG FM1830 8000 RMK CLNG BLW 1200M PP006=
SPZO Ene2004-221900Z VRB02KT 9999 -DZ FEW025 SCT037 BKN046 10/05 Q1030 NOSIG RMK PP004=
SPZO Ene2004-222000Z VRB02KT 9000 FEW030 SCT040 BKN050 13/06 Q1028 REDZ RMK PPTRZ=
SPZO Ene2004-222100Z VRB02KT 9999 FEW030 SCT040 BKN050 12/05 Q1027 RMK PP000=
SPZO Ene2004-222200Z 10002KT 9999 FEW030 SCT040 BKN050 12/05 Q1027 RMK PP000 TMAX 12.9=
SPZO Ene2004-222300Z 08002KT 9999 FEW030 SCT040 BKN050 12/06 Q1027 RMK PP000=
SPZO Ene2004-230000Z 00000KT 9999 SCT040 BKN050 11/06 Q1028 RMK PP000=
SPZO Ene2004-230100Z 00000KT 9999 SCT040 BKN050 11/07 Q1029 RMK PP000=
SPZO Ene2004-230200Z VRB03KT 9999 SCT040 09/06 Q1030 RMK PP000=
SPZO Ene2004-230300Z 00000KT 9999 BKN040 09/07 Q1030 RMK PP000=
SPZO Ene2004-230400Z 00000KT 9999 SCT037 SCT050 09/07 Q1031 RMK PP000=
SPZO Ene2004-230500Z 00000KT 9000 DZ FEW033 BKN040 09/07 Q1030 RMK PP002=
SPZO Ene2004-230600Z 00000KT 9999 FEW030 BKN040 09/07 Q1029 RMK REDZ PP000=
SPZO Ene2004-230700Z 00000KT 9999 SCT030 BKN040 09/07 Q1029 RMK PP000=
SPZO Ene2004-230800Z 00000KT 9000 RA SCT030 BKN040 09/07 Q1028 RMK PP004=
SPZO Ene2004-230900Z 00000KT 9999 FEW025 SCT033 BKN043 09/07 Q1028 RMK RERA PPTRZ=
SPZO Ene2004-231000Z 09004KT 9999 FEW020 SCT030 BKN040 09/07 Q1028 RMK PP000 CLNG BLW 1200M=
SPZO Ene2004-231100Z 00000KT 9999 FEW020 SCT033 BKN043 09/07 Q1029 RMK PP000=
SPZO Ene2004-231200Z 00000KT 9999 -DZ FEW025 SCT037 BKN046 10/07 Q1030 NOSIG RMK PP000 RWY WET BCFG NE=
SPZO Ene2004-231300Z VRB02KT 9999 REDZ FEW030 SCT037 SCT050 11/08 Q1031=
SPZO Ene2004-231400Z VRB02KT 9999 FEW033 SCT037 SCT050 12/07 Q1031 NOSIG RMK PP000=
SPZO Ene2004-231500Z 10005KT 070V170 9999 FEW033 SCT037 SCT050 12/08 Q1030 NOSIG RMK PP000 RA CDTE NE/E=
SPZO Ene2004-231600Z 10008KT 9999 FEW030 SCT040 BKN050 15/10 Q1030 TEMPO VCSH RMK PP000=
SPZO Ene2004-231700Z 12009KT 9999 SCT033 SCT040 16/08 Q1029 TEMPO VCSH RMK PP000=
SPZO Ene2004-231800Z 12008KT 090V170 9999 SCT033 SCT040 16/08 Q1028 TEMPO VCSH RMK PP000=
SPZO Ene2004-231900Z 02011KT 9999 340V080 FEW043 SCT060 18/06 Q1027 NOSIG RMK PP000 RWY10 02013KT=
SPZO Ene2004-232000Z 10009KT 070V170 9999 SCT040 SCT050 18/07 Q1026 RMK PP000=
SPZO Ene2004-232100Z 01006KT 340V080 9999 SCT040 SCT050 16/05 Q1026 RMK PP000=
SPZO Ene2004-232200Z 03009KT 360V080 9999 BKN040 16/05 Q1026 RMK PP000 TMAX 18.4=
SPZO Ene2004-232300Z 02005KT 280V080 9999 BKN040 15/05 Q1027 RMK PP000=
SPZO Ene2004-240000Z VRB03KT 9999 FEW033 SCT040 13/05 Q1028 RMK PP000=
SPZO Ene2004-240100Z 07005KT 9999 FEW037 SCT047 12/06 Q1030 RMK PP000=
SPZO Ene2004-240200Z VRB03KT 9999 BKN040 11/06 Q1030 RMK PP000=
SPZO Ene2004-240300Z 00000KT 9999 BKN040 12/05 Q1031 RMK PP000=
SPZO Ene2004-240400Z 00000KT 9999 SCT040 SCT050 12/06 Q1032 RMK PP000=
SPZO Ene2004-240500Z 00000KT 9999 SCT040 11/07 Q1031 RMK PP000=
SPZO Ene2004-240600Z 00000KT 9999 SCT040 10/07 Q1031 RMK PP000=
SPZO Ene2004-240700Z 00000KT 9999 SCT040 10/07 Q1030 RMK PP000=
SPZO Ene2004-240800Z 00000KT 9999 BKN040 10/07 Q1030 RMK PP000=
SPZO Ene2004-240900Z 09004KT 9999 -RA SCT033 BKN040 09/07 Q1030 RMK PPTRZ=
SPZO Ene2004-241000Z 10004KT 9999 -RA FEW030 BKN040 09/07 Q1030 RMK PP002=
SPZO Ene2004-241100Z VRB03KT 9000 -RA FEW025 SCT033 BKN043 09/07 Q1031 RMK PP002 RWY WET=
SPZO Ene2004-241200Z VRB03KT 9999 REDZ FEW030 SCT037 SCT050 09/07 Q1032 NOSIG RMK PPTRZ RWY10 10006KT RWY WET=
SPZO Ene2004-241300Z VRB02KT 9999 SCT037 SCT060 10/07 Q1033 NOSIG RMK PP000 RWY10 VRB04KT BCFG NE/E=
SPZO Ene2004-241400Z 10005KT 070V170 9999 FEW037 BKN050 13/07 Q1033 NOSIG RMK PP000 RWY10 09008KT=
SPZO Ene2004-241500Z VRB05KT 9999 FEW037 BKN050 14/08 Q1032 NOSIG RMK PP000 RWY10 VRB03KT=
SPZO Ene2004-241600Z 09006KT 070V170 9999 FEW040 BKN050 15/06 Q1031 NOSIG RMK PP000=
SPZO Ene2004-241700Z VRB04KT 9999 FEW040 BKN050 18/06 Q1030 NOSIG RMK -DZ FROM1620 TIL1625 PP002=
SPZO Ene2004-241800Z VRB03KT 9999 SCT040 SCT050 18/07 Q1028 TEMPO VCSH RMK PP000=
SPZO Ene2004-241900Z 36011KT 9999 FEW040TCU BKN050 17/05 Q1027 TEMPO VCRA RMK PP000 RWY10 02013KT=
SPZO Ene2004-242000Z 36006KT 280V080 9999 FEW040TCU BKN050 17/04 Q1027 RMK PP000=
SPZO Ene2004-242100Z 27012KT 9999 SCT040TCU BKN050 16/07 Q1026 RMK PP000=
SPZO Ene2004-242200Z 26008KT 9999 SCT040 SCT050 15/06 Q1026 RMK PP000 TMAX 18.3=
SPZO Ene2004-242300Z 25002KT 9999 BKN040 15/06 Q1026 RMK PP000=
SPZO Ene2004-250000Z 27009KT 9999 BKN040 SCT050 14/07 Q1028 RMK PP000=
SPZO Ene2004-250100Z 30008KT 9000 -RA BKN037 SCT043 12/08 Q1029 RMK PP006=
SPZO Ene2004-250200Z 28005KT 9999 BKN040 SCT070 11/08 Q1030 RMK PP018=
SPZO Ene2004-250300Z 26007KT 9999 OVC040 11/08 Q1030 RMK PPTRZ=
SPZO Ene2004-250400Z VRB03KT 9999 BKN037 SCT046 11/08 Q1031 RMK PP000=
SPZO Ene2004-250500Z 28004KT 9999 SCT037 SCT043 11/07 Q1030 RMK PP000=
SPZO Ene2004-250600Z 28004KT 9999 SCT030 SCT043 11/07 Q1030 RMK PP000=
SPZO Ene2004-250700Z 27005KT 9999 BKN040 SCT046 10/07 Q1029 RMK PP000=
SPZO Ene2004-250800Z 00000KT 9000 -RA OVC040 09/08 Q1029 RMK PP010=
SPZO Ene2004-250900Z 00000KT 9999 BKN040 SCT070 09/07 Q1029 RMK PP002=
SPZO Ene2004-251000Z VRB01KT 9999 BKN040 SCT060 09/08 Q1030 RMK PP000=
SPZO Ene2004-251100Z VRB02KT 9999 FEW030 SCT040 BKN060 09/08 Q1030 RMK PP002=
SPZO Ene2004-251200Z 00000KT 9999 FEW037 SCT050 10/08 Q1031 NOSIG RMK PP000 RWY WET=
SPZO Ene2004-251300Z VRB03KT 9999 FEW037 BKN050 11/08 Q1032 NOSIG RMK PP000 RWY10 07004KT=
SPZO Ene2004-251400Z 00000KT 9999 FEW037 BKN050 14/07 Q1031 NOSIG RMK PP000 VRB03KT=
SPZO Ene2004-251500Z VRB03KT 9999 FEW040 BKN050 15/08 Q1031 NOSIG RMK PP000 RWY10 VRB03KT=
SPZO Ene2004-251600Z VRB03KT 9999 BKN050 17/06 Q1030 NOSIG RMK PP000 RWY10 02014KT=
SPZO Ene2004-251700Z 36010KT 340V080 9999 BKN050 17/04 Q1029 NOSIG RMK PP000 RWY10 06009KT=
SPZO Ene2004-251800Z VRB04KT 9999 BKN060 19/07 Q1028 NOSIG RMK PP000 RWY10 05016G27KT=
SPZO Ene2004-251900Z 01010KT 340V080 9999 FEW043TCU BKN050 18/05 Q1027 TEMPO VCRA RMK PP000 RWY10 04014G28KT=
SPZO Ene2004-252000Z 36009KT 280V080 9999 BKN050 20/05 Q1026 NOSIG RMK PP000 RWY10 03016G32KT=
SPZO Ene2004-252100Z VRB06KT 9999 SCT060 20/04 Q1025 NOSIG RMK PP000 RWY10 04011KT=
SPZO Ene2004-252200Z 09005KT 010V110 9999 FEW060 19/06 Q1025 NOSIG RMK PP000 RWY10 03012KT TMX:20.5=
SPZO Ene2004-252300Z 11007KT 080V170 9999 FEW050 16/06 Q1026 NOSIG RMK PP000=
SPZO Ene2004-260000Z 34006KT 9999 FEW040 SCT300 15/05 Q1027 RMK PP000=
SPZO Ene2004-260100Z VRB03KT 9999 FEW050 SCT080 14/06 Q1029 RMK PP000=
SPZO Ene2004-260200Z VRB03KT 9999 FEW040 SCT080 13/05 Q1030 RMK PP000=
SPZO Ene2004-260300Z VRB03KT 9999 FEW040 SCT100 12/06 Q1031 RMK PP000=
SPZO Ene2004-260400Z 00000KT 9999 SCT040 SCT070 11/07 Q1031 RMK PP000=
SPZO Ene2004-260500Z 00000KT 9999 SCT040 SCT070 10/07 Q1031 RMK PP000=
SPZO Ene2004-260600Z 00000KT 9999 SCT040 SCT080 10/07 Q1031 RMK PP000=
SPZO Ene2004-260700Z 00000KT 9999 SCT040 SCT050 10/06 Q1030 RMK PP000=
SPZO Ene2004-260800Z 00000KT 9999 BKN040 SCT080 09/07 Q1030 RMK PP000=
SPZO Ene2004-260900Z 00000KT 9999 SCT040 SCT080 09/06 Q1030 RMK PP000=
SPZO Ene2004-261000Z VRB02KT 9999 SCT040 SCT080 09/06 Q1031 RMK PP000=
SPZO Ene2004-261100Z VRB02KT 9999 SCT040 SCT080 09/06 Q1031 RMK PP000=
SPZO Ene2004-261200Z 00000KT 9999 BKN050 11/07 Q1032 NOSIG RMK PP000=
SPZO Ene2004-261300Z VRB02KT 9999 FEW043 BKN100 14/06 Q1033 NOSIG RMK PP000=
SPZO Ene2004-261400Z VRB02KT 9999 BKN043 16/06 Q1032 NOSIG RMK PP000 RWY10 VRB03KT=
SPZO Ene2004-261500Z VRB02KT 9999 FEW040 BKN050 16/06 Q1032 NOSIG RMK PP000 RWY10 12008KT=
SPZO Ene2004-261600Z VRB04KT 9999 FEW040 BKN050 18/05 Q1031 NOSIG RMK PP000=
SPZO Ene2004-261700Z VRB03KT 9999 FEW040 BKN050 19/03 Q1030 NOSIG RMK PP000=
SPZO Ene2004-261800Z 01009KT 340V080 9999 SCT050 SCT100 19/04 Q1029 NOSIG RMK PP000=
SPZO Ene2004-261900Z 04007KT 340V100 9999 BKN050 20/04 Q1028 NOSIG RMK PP000 RWY10 06011G21KT=
SPZO Ene2004-262000Z 01009KT 340V080 9999 SCT050 SCT070 21/05 Q1026 RMK PP000=
SPZO Ene2004-262100Z 09006KT 9999 SCT050 SCT070 19/06 Q1025 RMK PP000=
SPZO Ene2004-262200Z 36006KT 270V080 9999 SCT050 SCT070 20/07 Q1025 RMK PP000 TMAX 21.2=
SPZO Ene2004-262300Z 11008KT 080V170 9999 SCT050 SCT070 17/07 Q1026 RMK PP000=
SPZO Ene2004-270000Z 10006KT 9999 BKN050 15/07 Q1028 RMK PP000=
SPZO Ene2004-270100Z 36008KT 9999 BKN043 18/06 Q1029 RMK PP000=
SPZO Ene2004-270200Z 08006KT 9000 TSRA FEW033CB BKN040 14/07 Q1030 RMK PP006=
SPZO Ene2004-270300Z 26005KT 9000 VCTS SCT033 BKN043 13/08 Q1030 RMK PP002 RETS=
SPZO Ene2004-270400Z 00000KT 9999 SCT033 BKN043 13/09 Q1031 RMK PP000=
SPZO Ene2004-270500Z 00000KT 9999 SCT037 SCT060 12/09 Q1030 RMK PP000=
SPZO Ene2004-270600Z 00000KT 9999 SCT030 BKN050 12/08 Q1030 RMK PP000=
SPZO Ene2004-270700Z 02008KT 9999 SCT030 BKN050 12/06 Q1030 RMK PP000=
SPZO Ene2004-270800Z 00000KT 9999 SCT037 SCT080 11/05 Q1030 RMK PP000=
SPZO Ene2004-270900Z 00000KT 9999 BKN040 SCT070 11/06 Q1030 RMK PP000=
SPZO Ene2004-271000Z 26005KT 9999 SCT040 SCT070 11/06 Q1031 RMK PP000=
SPZO Ene2004-271100Z 00000KT 9999 SCT040 SCT200 09/06 Q1032 RMK PP000=
SPZO Ene2004-271200Z VRB02KT 9999 FEW040 BKN050 11/07 Q1033 NOSIG RMK PP000=
SPZO Ene2004-271300Z 00000KT 9999 FEW040 SCT120 14/07 Q1033 NOSIG RMK PP000=
SPZO Ene2004-271400Z 00000KT 9999 FEW040 SCT200 16/08 Q1033 NOSIG RMK PP000=
SPZO Ene2004-271500Z VRB02KT 9999 SCT050 17/04 Q1033 NOSIG RMK PP000 RWY10 35006KT=
SPZO Ene2004-271600Z VRB04KT 9999 BKN060 19/04 Q1032 NOSIG RMK PP000=
SPZO Ene2004-271700Z 04005KT 360V110 9999 BKN060 19/04 Q1031 NOSIG RMK PP000=
SPZO Ene2004-271800Z VRB06KT 9999 BKN060 20/02 Q1029 NOSIG RMK PP000=
SPZO Ene2004-271900Z 01008KT 340V080 9999 FEW050 21/01 Q1028 NOSIG RMK PP000 RWY10 35010KT=
SPZO Ene2004-272000Z 03010KT 340V080 9999 FEW050 SCT100 20/01 Q1027 RMK PP000=
SPZO Ene2004-272100Z 02009KT 340V080 9999 FEW050 SCT100 20/03 Q1026 RMK PP000=
SPZO Ene2004-272200Z 35008KT 270V020 9999 FEW050 20/03 Q1026 RMK PP000 TMAX 21.1=
SPZO Ene2004-272300Z 36008KT 340V080 9999 FEW050 17/04 Q1026 RMK PP000=
SPZO Ene2004-280000Z 00000KT 9999 SCT040 SCT100 16/05 Q1028 RMK PP000=
SPZO Ene2004-280100Z 08006KT 9999 FEW040 SCT080 14/06 Q1029 RMK PP000=
SPZO Ene2004-280200Z 00000KT 9999 SCT050 SCT100 13/06 Q1030 RMK PP000=
SPZO Ene2004-280300Z 00000KT 9999 BKN040 SCT060 14/06 Q1031 RMK PP000=
SPZO Ene2004-280400Z VRB03KT 9999 BKN040 13/07 Q1031 RMK PP000=
SPZO Ene2004-280500Z 10004KT 9999 BKN040 12/07 Q1031 RMK PP000=
SPZO Ene2004-280600Z VRB03KT 9999 SCT040 12/07 Q1031 RMK PP000=
SPZO Ene2004-280700Z VRB03KT 9999 BKN040 12/07 Q1030 RMK PP000=
SPZO Ene2004-280800Z 10010KT 9000 RA BKN040 10/07 Q1031 RMK PP012=
SPZO Ene2004-280900Z 00000KT 9999 -DZ FEW025 SCT033 BKN050 09/05 Q1032 RMK PP016=
SPZO Ene2004-281000Z 10008KT 9999 SCT037 BKN050 09/04 Q1032 RMK REDZ PPTRZ=
SPZO Ene2004-281100Z 14007KT 9999 FEW040 SCT060 08/04 Q1032 RMK PP000=
SPZO Ene2004-281200Z 00000KT 9999 BKN060 11/04 Q1033 NOSIG RMK PP000=
SPZO Ene2004-281300Z VRB02KT 9999 FEW120 12/04 Q1034 NOSIG RMK PP000=
SPZO Ene2004-281400Z VRB01KT 9999 FEW050 15/04 Q1033 NOSIG RMK PP000=
SPZO Ene2004-281500Z VRB02KT 9999 FEW060 17/05 Q1033 NOSIG RMK PP000=
SPZO Ene2004-281600Z VRB03KT 9999 SCT060 19/04 Q1032 NOSIG RMK PP000=
SPZO Ene2004-281700Z 02008KT 340V090 9999 SCT060 20/04 Q1031 NOSIG RMK PP000=
SPZO Ene2004-281800Z 01011KT 340V080 9999 SCT060 20/03 Q1030 NOSIG RMK PP000=
SPZO Ene2004-281900Z 02009KT 340V080 9999 FEW050 20/01 Q1029 NOSIG RMK PP000 RWY10 01014KT=
SPZO Ene2004-282000Z VRB08KT 9999 FEW050 20/01 Q1028 RMK PP000=
SPZO Ene2004-282100Z 02011KT 340V080 9999 FEW050 SCT100 20/02 Q1027 RMK PP000=
SPZO Ene2004-282200Z 01010KT 340V080 9999 SCT050 SCT100 19/02 Q1026 RMK PP000 TMAX 21.0=
SPZO Ene2004-282300Z 36005KT 340V080 9999 SCT050 18/03 Q1026 RMK PP000=
SPZO Ene2004-290000Z VRB03KT 9999 FEW040 SCT100 16/04 Q1028 RMK PP000=
SPZO Ene2004-290100Z VRB03KT 9999 FEW040 BKN100 15/05 Q1029 RMK PP000=
SPZO Ene2004-290200Z 35004KT 9999 FEW040 BKN080 14/05 Q1030 RMK PP000=
SPZO Ene2004-290300Z 09004KT 9999 FEW040 BKN080 13/06 Q1030 RMK PP000=
SPZO Ene2004-290400Z 00000KT 9999 SCT040 SCT070 13/06 Q1032 RMK PP000=
SPZO Ene2004-290500Z 00000KT 9999 BKN040 SCT070 13/07 Q1031 RMK PP000=
SPZO Ene2004-290600Z 00000KT 9000 RA BKN037 SCT070 10/07 Q1031 RMK PP016=
SPZO Ene2004-290700Z VRB02KT 9999 BKN040 SCT050 10/07 Q1030 RMK PP002=
SPZO Ene2004-290800Z 28003KT 9999 BKN040 SCT046 10/08 Q1030 RMK PP002=
SPZO Ene2004-290900Z 00000KT 9999 OVC040 10/08 Q1030 RMK PP000=
SPZO Ene2004-291000Z VRB03KT 9999 BKN040 SCT050 10/06 Q1030 RMK PP000=
SPZO Ene2004-291100Z 00000KT 9999 -RA FEW025 SCT037 BKN050 09/08 Q1032 RMK CLNG BLW 1200M PP008=
SPZO Ene2004-291200Z VRB02KT 9999 REDZ FEW033 SCT040 BKN050 10/07 Q1033 NOSIG RMK PPTRZ RWY WET=
SPZO Ene2004-291300Z VRB03KT 9999 FEW033 SCT050 12/06 Q1034 NOSIG RMK PP000=
SPZO Ene2004-291400Z 29004KT 250V020 9999 FEW040 SCT050 13/06 Q1033 NOSIG RMK PP000=
SPZO Ene2004-291500Z VRB02KT 9999 SCT040 16/05 Q1033 NOSIG RMK PP000 RWY10 VRB05KT=
SPZO Ene2004-291600Z VRB03KT 9999 SCT050 18/03 Q1032 NOSIG RMK PP000 RWY10 28010KT=
SPZO Ene2004-291700Z VRB06KT 9999 SCT050 19/04 Q1030 NOSIG RMK PP000 RWY10 27014KT=
SPZO Ene2004-291800Z VRB07KT 9999 SCT050 20/05 Q1029 NOSIG RMK PP000 RWY10 30015KT=
SPZO Ene2004-291900Z VRB06KT 9999 SCT046 20/05 Q1028 NOSIG RMK PP000 RWY10 VRB05KT=
SPZO Ene2004-292000Z 36007KT 270V080 9999 SCT050 19/03 Q1027 NOSIG RMK RWY10 34007KT=
SPZO Ene2004-292100Z 02006KT 340V080 9999 SCT043TCU SCT060 19/03 Q1026 TEMPO RA RMK PP000 RWY10 01013G23KT=
SPZO Ene2004-292200Z 26013KT 180V290 9999 DZ SCT043 SCT050 13/03 Q1027 PPTRZ RMK RWY10 25028G38KT TMX:20.6=
SPZO Ene2004-292300Z 26005KT 9999 FEW043 BKN100 12/04 Q1027 NOSIG RMK PPTRZ=
SPZO Ene2004-300000Z VRB02KT 9999 FEW040 SCT300 12/05 Q1028 RMK PP000=
SPZO Ene2004-300100Z VRB02KT 9999 SCT040 SCT080 12/05 Q1029 RMK PP000=
SPZO Ene2004-300200Z VRB02KT 9999 SCT040 SCT080 13/05 Q1031 RMK PP000=
SPZO Ene2004-300300Z 00000KT 9999 -RA BKN037 SCT070 10/05 Q1031 RMK PP006=
SPZO Ene2004-300400Z 00000KT 9999 BKN037 SCT070 10/06 Q1031 RMK PP002=
SPZO Ene2004-300500Z 00000KT 9999 SCT037 SCT046 10/06 Q1031 RMK PP000=
SPZO Ene2004-300600Z 00000KT 9999 SCT040 SCT046 10/07 Q1031 RMK PP000=
SPZO Ene2004-300700Z VRB03KT 9999 BKN040 SCT050 09/07 Q1030 RMK PP000=
SPZO Ene2004-300800Z 00000KT 9999 OVC040 09/07 Q1029 RMK PP000=
SPZO Ene2004-300900Z 00000KT 9999 BKN040 SCT046 09/07 Q1029 RMK PP000=
SPZO Ene2004-301000Z 00000KT 9999 SCT040 SCT050 09/07 Q1030 RMK PP000=
SPZO Ene2004-301100Z 00000KT 9999 SCT040 SCT100 09/06 Q1030 RMK PP000=
SPZO Ene2004-301200Z 09002KT 9999 FEW040 SCT060 10/07 Q1030 NOSIG RMK PP000=
SPZO Ene2004-301300Z VRB02KT 9999 FEW040 SCT060 13/07 Q1031 NOSIG RMK PP000 RWY10 VRB05KT=
SPZO Ene2004-301400Z VRB02KT 9999 SCT040 15/07 Q1031 NOSIG RMK PP000 RWY10 VRB05KT=
SPZO Ene2004-301600Z 12005KT 030V200 9999 BKN050 18/03 Q1030 NOSIG RMK PP000 RWY10 VRB06KT =
SPZO Ene2004-301700Z VRB04KT 9999 BKN050 19/03 Q1029 NOSIG RMK PP000 RWY10 05009G19KT=
SPZO Ene2004-301800Z 02008KT 300V070 9999 BKN050 18/02 Q1028 NOSIG RMK PP000 RWY10 03013KT=
SPZO Ene2004-301900Z 02011KT 330V070 9999 BKN050 19/02 Q1028 NOSIG RMK PP000 RWY10 02018G33KT=
SPZO Ene2004-302000Z 02015KT 340V060 9999 FEW043TCU SCT100 17/03 Q1027 TEMPO VCSH RMK PP000 RWY10 02020G39KT=
SPZO Ene2004-302100Z 25008KT 9999 -RA BKN043 12/08 Q1027 BECMG FM2130 NSW RMK PP016 RWY10 24007KT=
SPZO Ene2004-302200Z 26008KT 230V290 9999 FEW043 BKN200 15/08 Q1026 NOSIG RMK PPTRZ RWY10 VRB06KT TMX:20.3=
SPZO Ene2004-302300Z VRB02KT 9999 SCT120 16/06 Q1026 NOSIG RMK PP000=
SPZO Ene2004-310000Z 06003KT 9999 SCT080 14/07 Q1027 RMK PP000=
SPZO Ene2004-310100Z 08003KT 9999 SCT070 14/07 Q1028 RMK PP000=
SPZO Ene2004-310200Z 18002KT 9999 SCT060 12/07 Q1030 RMK PP000=
SPZO Ene2004-310300Z 11002KT 9999 SCT050 11/07 Q1030 RMK PP000=
SPZO Ene2004-310400Z 06003KT 8000 -DZ BKN040 11/07 Q1031 RMK PPTRZ=
SPZO Ene2004-310500Z 00000KT 9000 BKN050 11/07 Q1030 REDZ RMK PP002=
SPZO Ene2004-310600Z 07002KT 9999 SCT050 10/07 Q1030 RMK PP000=
SPZO Ene2004-310700Z 00000KT 9999 SCT050 09/07 Q1029 RMK PP000=
SPZO Ene2004-310800Z 00000KT 9999 SCT050 09/07 Q1029 RMK PP000=
SPZO Ene2004-310900Z 08003KT 9999 SCT050 SCT100 09/07 Q1029 RMK PP000=
SPZO Ene2004-311000Z 00000KT 9999 SCT050 SCT100 09/07 Q1029 RMK PP000=
SPZO Ene2004-311100Z 00000KT 9999 SCT050 SCT100 09/07 Q1030 RMK PP000=
SPZO Ene2004-311200Z 00000KT 8000 FEW043 10/07 Q1030 TEMPO 9000E RMK HZ PP000=
SPZO Ene2004-311300Z 00000KT 9999 FEW043 SCT300 12/08 Q1031 NOSIG RMK HZ PP000=
SPZO Ene2004-311400Z VRB01KT 9999 SCT043 15/07 Q1031 NOSIG RMK PP000=
SPZO Ene2004-311500Z VRB03KT 9999 FEW040 SCT043 17/07 Q1030 NOSIG RMK PP000=
SPZO Ene2004-311600Z VRB02KT 9999 FEW040 SCT043 18/05 Q1030 NOSIG RMK PP000=
SPZO Ene2004-311700Z VRB03KT 9999 FEW043 SCT047 20/03 Q1029 NOSIG RMK PP000=
SPZO Ene2004-311800Z VRB06KT 9999 FEW043 SCT047 21/05 Q1028 NOSIG RMK PP000=
SPZO Ene2004-311900Z 01012KT 340V080 9999 SCT050 20/04 Q1027 NOSIG RMK PP000 RWY10 04014G24=
SPZO Ene2004-312000Z 36008KT 270V080 9999 FEW043 SCT050 20/04 Q1025 NOSIG RMK PP000 RWY10 04015G30KT=
SPZO Ene2004-312100Z VRB03KT 9999 DZ BKN043 14/06 Q1026 BECMG FM2130 NSW RMK PP008 RWY WET=
SPZO Ene2004-312200Z VRB03KT 9999 FEW043 SCT120 16/08 Q1025 NOSIG RMK PPTRZ RWY10 26006KT TMX:20.8=
SPZO Ene2004-312300Z 00000KT 9999 SCT090 16/07 Q1026 NOSIG RMK PP000=
SPZO Feb2004-010000Z 12003KT 9999 SCT060 14/07 Q1028 RMK PP000=
SPZO Feb2004-010100Z 14004KT 9999 SCT050 14/06 Q1029 RMK PP000=
SPZO Feb2004-010200Z 08002KT 9999 SCT050 13/06 Q1030 RMK PP000=
SPZO Feb2004-010300Z 10005KT 9999 SCT050 12/07 Q1031 RMK PP000=
SPZO Feb2004-010400Z 19002KT 9999 SCT050 12/06 Q1031 RMK PP000=
SPZO Feb2004-010500Z 00000KT 9999 SCT050 12/07 Q1031 RMK PP000=
SPZO Feb2004-010600Z 00000KT 9999 SCT050 12/07 Q1030 RMK PP000=
SPZO Feb2004-010700Z 00000KT 9999 SCT050 12/06 Q1030 RMK PP000=
SPZO Feb2004-010800Z 00000KT 9999 SCT050 11/07 Q1029 RMK PP000=
SPZO Feb2004-010900Z 00000KT 9999 SCT040 BKN050 11/07 Q1030 RMK PP000=
SPZO Feb2004-011000Z 00000KT 9999 SCT037 BKN047 11/08 Q1030 RMK PP000=
SPZO Feb2004-011100Z 00000KT 9999 FEW033 SCT040 BKN047 11/08 Q1031 RMK PP000=
SPZO Feb2004-011200Z VRB02KT 9999 FEW035 SCT040 SCT050 12/08 Q1031 NOSIG RMK PP000 REY10 14004KT=
SPZO Feb2004-011300Z VRB01KT 9999 SCT040 BKN050 13/08 Q1032 NOSIG RMK PP000=
SPZO Feb2004-011400Z VRB02KT 9999 FEW040 BKN050 16/06 Q1032 NOSIG RMK PP000 RWY10 03012KT=
SPZO Feb2004-011500Z 03005KT 340V100 9999 SCT040 BKN060 15/06 Q1032 NOSIG RMK PP000 04013G23KT=
SPZO Feb2004-011600Z 01008KT 340V070 9999 FEW043 BKN070 16/05 Q1032 NOSIG RMK PP000 RWY10 02010G22KT=
SPZO Feb2004-011700Z 36015KT 9999 FEW043 BKN070 14/03 Q1031 NOSIG RMK PP000 RWY10 01019G30KT=
SPZO Feb2004-011800Z 36011KT 270V020 9999 FEW043 BKN100 16/03 Q1030
SPZO Feb2004-011900Z 01010KT 340V080 9999 BKN100 18/03 Q1029 NOSIG RMK
SPZO Feb2004-012000Z 36010KT 340V080 9999 BKN130 17/04 Q1028 NOSIG RMK
SPZO Feb2004-012100Z 01012KT 340V080 9999 BKN150 18/04 Q1026 NOSIG RMK
SPZO Feb2004-012200Z 36010KT 340V080 9999 FEW043 17/04 Q1026 NOSIG RMK
SPZO Feb2004-012300Z 02013KT 350V080 9999 FEW043 16/03 Q1027 NOSIG RMK
SPZO Feb2004-020000Z 01009KT 9999 BKN040 SCT070 15/03 Q1028 RMK PP000=
SPZO Feb2004-020100Z 08007KT 9999 SCT037 BKN043 14/06 Q1030 RMK PP000=
SPZO Feb2004-020200Z VRB03KT 9999 -RA BKN037 SCT046 10/08 Q1032 RMK PP006=
SPZO Feb2004-020300Z 10007KT 9999 -RA OVC040 10/08 Q1033 RMK PP018=
SPZO Feb2004-020400Z 00000KT 9999 SCT030 BKN043 10/07 Q1033 RMK PP006=
SPZO Feb2004-020500Z 00000KT 9999 SCT037 BKN046 11/07 Q1033 RMK PP000=
SPZO Feb2004-020600Z 00000KT 9999 DZ BKN037 SCT046 10/07 Q1032 RMK PP002=
SPZO Feb2004-020700Z 00000KT 9999 -RA OVC040 08/06 Q1032 RMK PP014=
SPZO Feb2004-020800Z VRB03KT 9999 OVC040 08/06 Q1031 RMK PPTRZ=
SPZO Feb2004-020900Z 00000KT 9999 OVC040 08/06 Q1031 RMK PP000=
SPZO Feb2004-021000Z VRB01KT 9999 FEW030 SCT050 08/06 Q1031 RMK PP000=
SPZO Feb2004-021100Z VRB02KT 9999 FEW037 SCT200 07/06 Q1032 RMK PP002=
SPZO Feb2004-021200Z 00000KT 9999 FEW040 BKN120 09/07 Q1032 NOSIG RMK PP000=
SPZO Feb2004-021300Z 00000KT 9999 FEW040 SCT100 12/06 Q1033 NOSIG RMK PP000=
SPZO Feb2004-021400Z VRB01KT 9999 SCT040 14/06 Q1033 NOSIG RMK PP000=
SPZO Feb2004-021500Z VRB03KT 9999 FEW040 16/05 Q1032 NOSIG RMK PP000 RWY10 VRB04KT=
SPZO Feb2004-021600Z 11005KT 060V170 9999 SCT043 17/05 Q1031 NOSIG RMK PP000 RWY10 VRB04KT=
SPZO Feb2004-021700Z VRB03KT 9999 SCT050 17/07 Q1030 NOSIG RMK PP000 RWY10 10008KTP=
SPZO Feb2004-021800Z 22005KT 160V290 9999 SCT060 19/05 Q1029 NOSIG RMK PP000 RWY10 22008G22KT=
SPZO Feb2004-021900Z VRB03KT 9999 FEW043 SCT047 20/05 Q1027 NOSIG RMK PP000=
SPZO Feb2004-022000Z 36005KT 270V080 9999 FEW043 SCT047 20/03 Q1025 NOSIG RMK PP000=
SPZO Feb2004-022100Z 01008KT 340V080 9999 FEW043 SCT047 19/03 Q1024 NOSIG RMK PP000=
SPZO Feb2004-022200Z 36007KT 9999 SCT043 SCT300 19/04 Q1024 NOSIG RMK PP000 TMAX 21.3=
SPZO Feb2004-022300Z 36007KT 9999 SCT043 SCT300 18/05 Q1024 NOSIG RMK PP000=
SPZO Feb2004-030000Z VRB03KT 9999 SCT040 SCT050 16/06 Q1026 RMK PP000=
SPZO Feb2004-030100Z 11006KT 9999 SCT037 SCT060 14/06 Q1027 RMK PP000=
SPZO Feb2004-030200Z VRB03KT 9999 FEW040 SCT050 14/06 Q1028 RMK PP000=
SPZO Feb2004-030300Z 11004KT 9999 SCT037 BKN046 13/07 Q1029 RMK PP000=
SPZO Feb2004-030400Z VRB03KT 9999 BKN037 SCT046 13/07 Q1030 RMK PP000=
SPZO Feb2004-030500Z 00000KT 9000 -RA BKN037 SCT046 11/07 Q1030 RMK PP010=
SPZO Feb2004-030600Z 30004KT 9999 -RA OVC040 10/07 Q1030 RMK PP014=
SPZO Feb2004-030700Z 00000KT 9999 -RA OVC049 09/07 Q1029 RMK PP008=
SPZO Feb2004-030800Z 00000KT 9999 -RA BKN040 SCT046 09/07 Q1029 RMK PP012=
SPZO Feb2004-030900Z 00000KT 9000 -RA SCT030 BKN043 09/07 Q1029 RMK PP018=
SPZO Feb2004-031000Z 00000KT 9999 -DZ FEW030 SCT040 BKN046 09/07 Q1029 RMK PP004=
SPZO Feb2004-031100Z VRB02KT 9999 -RA FEW025 SCT040 BKN046 09/07 Q1030 RMK PPTRZ=
SPZO Feb2004-031200Z 00000KT 9999 -DZ VCRA FEW025 SCT033 BKN053 10/08 Q1031 NOSIG RMK PPTRZ=
SPZO Feb2004-031300Z 00000KT 9999 SCT030 BKN043 BKN060 10/07 Q1031 REDZ TEMPO -DZ RMK PPTRZ=
SPZO Feb2004-031400Z 00000KT 9999 SCT033 BKN060 11/07 Q1032 NOSIG RMK PP000=
SPZO Feb2004-031500Z VRB02KT 9999 SCT033 BKN060 13/08 Q1032 NOSIG RMK PP000=
SPZO Feb2004-031600Z VRB02KT 9999 SCT037 BKN060 13/07 Q1031 NOSIG RMK PP000=
SPZO Feb2004-031700Z 00000KT 9999 SCT037 SCT080 16/06 Q1030 NOSIG RMK PP000=
SPZO Feb2004-031800Z VRB06KT 9999 SCT040 SCT047 17/09 Q1028 NOSIG RMK PP000=
SPZO Feb2004-031900Z 36009KT 330V080 9999 SCT040 SCT060 16/07 Q1026 NOSIG RMK PP000=
SPZO Feb2004-032000Z VRB02KT 9999 SCT043 SCT080 18/05 Q1024 NOSIG RMK PP000=
SPZO Feb2004-032100Z VRB04KT 9999 VCSH BKN043 SCT300 18/08 Q1024 NOSIG RMK PP000=
SPZO Feb2004-032200Z 36006KT 270V080 9999 BKN043 SCT100 18/08 Q1024 NOSIG RMK PP000 TMAX 19.0=
SPZO Feb2004-032300Z 10011KT 9999 -DZ VCSH BKN043 SCT047 13/08 Q1026 NOSIG RMK RERA PP006=
SPZO Feb2004-040000Z 12007KT 080V170 8000 -DZ OVC040 11/08 Q1027 RMK PP002=
SPZO Feb2004-040100Z VRB02KT 8000 -DZ OVC040 11/08 Q1028 RMK PP008=
SPZO Feb2004-040200Z 00000KT 8000 -DZ OVC040 11/08 Q1029 RMK PP004=
SPZO Feb2004-040300Z 00000KT 8000 -DZ OVC040 11/09 Q1030 RMK PP002=
SPZO Feb2004-040400Z 00000KT 9000 OVC040 11/09 Q1030 REDZ PPTRZ=
SPZO Feb2004-040500Z 26002KT 9999 OVC040 11/08 Q1030 RMK PP000=
SPZO Feb2004-040600Z 28004KT 250V350 9999 OVC040 11/08 Q1029 RMK PP000=
SPZO Feb2004-040700Z VRB02KT 8000 -DZ OVC040 10/08 Q1029 RMK PP002=
SPZO Feb2004-040800Z VRB03KT 8000 -DZ OVC040 10/07 Q1028 RMK PP004=
SPZO Feb2004-040900Z 00000KT 8000 -DZ OVC040 10/07 Q1028 RMK PP006=
SPZO Feb2004-041000Z 00000KT 8000 -DZ OVC040 09/07 Q1025 RMK PP002=
SPZO Feb2004-041100Z 00000KT 9000 BKN040 SCT070 09/07 Q1029 REDZ RMK PPTRZ=
SPZO Feb2004-041200Z VRB01KT 9999 SCT043 BKN080 10/08 Q1030 NOSIG RMK PP000=
SPZO Feb2004-041300Z 00000KT 9999 FEW033 SCT047 BKN080 11/07 Q1030 NOSIG RMK PP000=
SPZO Feb2004-041400Z 00000KT 9999 FEW033 SCT047 BKN080 13/06 Q1030 NOSIG RMK PP000=
SPZO Feb2004-041500Z VRB03KT 9999 FEW037 SCT047 BKN080 14/08 Q1030 NOSIG RMK PP000=
SPZO Feb2004-041600Z VRB02KT 9999 SCT037 BKN080 16/06 Q1029 NOSIG RMK PP000=
SPZO Feb2004-041700Z VRB04KT 9999 SCT040 BKN080 16/07 Q1028 NOSIG RMK PP000=
SPZO Feb2004-041800Z VRB04KT 9999 SCT040 SCT080 19/07 Q1027 NOSIG RMK PP000=
SPZO Feb2004-041900Z 27011KT 250V350 9999 FEW043TCU BKN050 19/09 Q1025 TEMPO VCSH RWY10 29022G40KT=
SPZO Feb2004-042000Z 27015KT 9999 FEW043TCU SCT050 19/09 Q1024 NOSIG RMK PP000 RWY10 29023G34KT=
SPZO Feb2004-042100Z 35008KT 9999 FEW040TCU BKN046 16/09 Q1024 TEMPO RA RMK PP000 RWY10 02012KT=
SPZO Feb2004-042200Z 10012KT 7000 -RA SCT035TCU BKN046 11/08 Q1025 NOSIG RMK PPTRZ RWY10 11027KT TMX:20.1=
SPZO Feb2004-042300Z 27005KT 9999 -RA SCT035 BKN046 11/08 Q1026 NOSIG RMK PP030=
SPZO Feb2004-050000Z 01003KT 8000 -DZ OVC040 11/09 Q1027 RMK PP002=
SPZO Feb2004-050100Z 09002KT 9999 OVC040 11/09 Q1028 REDZ RMK PPTRZ=
SPZO Feb2004-050200Z 00000KT 9999 OVC040 11/09 Q1029 RMK PP000=
SPZO Feb2004-050300Z 11002KT 8000 -DZ OVC040 11/09 Q1030 RMK PP002=
SPZO Feb2004-050400Z 00000KT 9000 OVC040 11/09 Q1030 REDZ RMK PPTRZ=
SPZO Feb2004-050500Z 11001KT 8000 -DZ OVC040 11/09 Q1030 RMK PP004=
SPZO Feb2004-050600Z 26004KT 230V290 8000 RA SCT030 BKN040 10/07 Q1029 RMK PP032=
SPZO Feb2004-050700Z 00000KT 8000 -DZ FEW030 BKN040 10/08 Q1029 RMK PPTRZ=
SPZO Feb2004-050800Z 00000KT 9999 FEW030 BKN040 10/08 Q1028 REDZ RMK PPTRZ=
SPZO Feb2004-050900Z 11002KT 8000 -DZ FEW030 BKN040 10/08 Q1028 RMK PPTRZ=
SPZO Feb2004-051000Z 00000KT 9000 BKN040 SCT080 10/07 Q1029 REDZ RMK PP002=
SPZO Feb2004-051100Z 09002KT 7000 -DZ FEW030 SCT040 BKN070 10/08 Q1030 RMK PP002=
SPZO Feb2004-051200Z 10002KT 9999 DZ FEW025 SCT037 BKN046 10/08 Q1030 NOSIG RMK PP004 RWY WET=
SPZO Feb2004-051300Z VRB02KT 9999 -DZ FEW030 SCT037 BKN046 10/08 Q1031 NOSIG RMK PP002 RWY WET=
SPZO Feb2004-051400Z VRB03KT 9000 REDZ FEW020 SCT036 SCT050 11/08 Q1032 BECMG FM15 9999 PP002 RWY WET BCFG NE=
SPZO Feb2004-051500Z 10004KT 360V170 9999 FEW030 SCT036 SCT050 13/08 Q1031 NOSIG RMK PP000 BCFG NE=
SPZO Feb2004-051600Z 10006KT 010V170 9999 FEW033 SCT036 SCT060 14/07 Q1030 NOSIG RMK PP000 RWY10 09012KT=
SPZO Feb2004-051700Z VRB08KT 9999 SCT036 SCT060 16/08 Q1029 NOSIG RMK PP000 RWY10 12006KT=
SPZO Feb2004-051800Z 09009KT 070V170 9999 TS SCT040TCU SCT050 17/09 Q1028 NOSIG RMK PP000 RWY10 09010KT RA CDTE NW-NE
SPZO Feb2004-051900Z 28012KT 250V350 9999 SCT040 BKN050 15/08 Q1028 TEMPO VCRA RMK P000 RWY10 28017KT RA CDTE NW-NE=
SPZO Feb2004-052000Z 28005KT 250V010 9999 SCT043 BKN050 16/07 Q1027 NOSIG RMK PP000 RWY10 28012KT RA CDTE NW=
SPZO Feb2004-052100Z 28004KT 250V350 9999 DZ SCT040 BKN050 14/08 Q1027 TEMPO RA RMK PP002 RWY10 28011KT=
SPZO Feb2004-052200Z VRB03KT 9999 REDZ BKN040 SCT070 14/08 Q1027 NOSIG RMK PPTRZ RWY10 26006KT RA CDTE NE TMX:17.2=
SPZO Feb2004-052300Z VRB01KT 9999 BKN040 SCT050 14/08 Q1027 TEMPO VCRA RMK PP000=
SPZO Feb2004-060000Z VRB01KT 9999 RERA BKN040 SCT050 12/08 Q1029 RMK PP004=
SPZO Feb2004-060100Z 00000KT 9999 SCT037 SCT046 12/09 Q1030 RMK PP000=
SPZO Feb2004-060200Z VRB01KT 9999 SCT037 SCT050 12/09 Q1030 RMK PP000=
SPZO Feb2004-060300Z VRB03KT 9999 BKN037 SCT050 12/08 Q1031 RMK PP000=
SPZO Feb2004-060400Z 00000KT 9999 OVC040 11/09 Q1031 RMK PP000=
SPZO Feb2004-060500Z VRB02KT 9999 OVC040 11/08 Q1030 RMK PP000=
SPZO Feb2004-060600Z 00000KT 9999 SCT037 BKN040 11/08 Q1030 RMK PP000=
SPZO Feb2004-060700Z 00000KT 9999 SCT030 BKN040 11/09 Q1030 RMK PP000=
SPZO Feb2004-060800Z 00000KT 9999 SCT030 SCT043 11/09 Q1029 RMK PP000=
SPZO Feb2004-060900Z 00000KT 9999 BKN040 SCT070 10/09 Q1029 RMK PP000=
SPZO Feb2004-061000Z VRB01KT 9999 BKN040 SCT070 10/07 Q1030 RMK PP000=
SPZO Feb2004-061100Z 00000KT 9999 SCT040 SCT080 10/08 Q1030 RMK PP000=
SPZO Feb2004-061200Z 00000KT 9999 FEW033 BKN046 13/08 Q1031 NOSIG RMK PP000=
SPZO Feb2004-061300Z 00000KT 9999 FEW033 BKN046 13/08 Q1031 NOSIG RMK PP000=
SPZO Feb2004-061400Z VRB03KT 9999 FEW030 BKN050 14/07 Q1032 NOSIG RMK PP000 RWY10 13006KT=
SPZO Feb2004-061500Z VRB04KT 9999 SCT040 BKN050 16/09 Q1031 NOSIG RMK PP000 RWY10 07005KT=
SPZO Feb2004-061600Z VRB01KT 9999 SCT040 SCT050 16/06 Q1031 NOSIG RMK PP000=
SPZO Feb2004-061700Z VRB02KT 9999 SCT043 SCT050 18/09 Q1029 NOSIG RMK PP002 RWY10 VRB05KT RA CDTE E=
SPZO Feb2004-061800Z 03009KT 340V080 9999 FEW043TCU BKN050 18/08 Q1028 TEMPO VCSH RMK PP000 RWY10 02017KT RA CDTE E=
SPZO Feb2004-061900Z 14006KT 080V190 9999 FEW040 BKN043 17/07 Q1027 NOSIG RMK PP000=
SPZO Feb2004-062000Z VRB05KT 9999 -RA VCSH FEW040 BKN047 15/08 Q1026 TEMPO NSW RMK PP002=
SPZO Feb2004-062100Z VRB02KT 9999 FEW040 SCT047 18/07 Q1026 NOSIG RMK PP002=
SPZO Feb2004-062200Z 05006KT 340V090 9999 FEW040 SCT060 17/07 Q1026 NOSIG RMK PP000 TMAX 19.3=
SPZO Feb2004-062300Z 35006KT 270V020 9999 BKN043 15/07 Q1026 NOSIG RMK PP000=
SPZO Feb2004-070000Z VRB03KT 9999 BKN040 SCT046 15/08 Q1028 RMK PP000=
SPZO Feb2004-070100Z 34004KT 9999 -RA BKN040 SCT070 13/09 Q1029 RMK PPTRZ=
SPZO Feb2004-070200Z VRB02KT 9999 BKN040 SCT046 12/09 Q1030 RMK PP004=
SPZO Feb2004-070300Z VRB03KT 9999 BKN037 SCT046 12/09 Q1030 RMK PP000=
SPZO Feb2004-070400Z 00000KT 9999 SCT030 BKN043 12/09 Q1030 RMK PP000=
SPZO Feb2004-070500Z 00000KT 9999 OVC040 12/09 Q1030 RMK PP000=
SPZO Feb2004-070600Z 00000KT 9999 OVC043 12/09 Q1029 RMK PP000=
SPZO Feb2004-070700Z VRB02KT 9999 SCT037 SCT046 11/09 Q1029 RMK PP000=
SPZO Feb2004-070800Z VRB02KT 9999 SCT030 SCT043 11/08 Q1029 RMK PP000=
SPZO Feb2004-070900Z 00000KT 9999 BKN040 SCT050 11/08 Q1029 RMK PP000=
SPZO Feb2004-071000Z VRB02KT 9000 -RA FEW030 SCT037 BKN046 10/07 Q1029 RMK CLNG BLW 1200M PP006=
SPZO Feb2004-071100Z 00000KT 9999 VCSH FEW030 SCT040 BKN046 10/08 Q1030 RMK PPTRZ=
SPZO Feb2004-071200Z 00000KT 8000 VCSH FEW020 SCT030 BKN070 11/08 Q1030 TEMPO 9000E RMK PP000=
SPZO Feb2004-071300Z 10004KT 080V170 9000 VCSH FEW025 SCT037 BKN060 11/09 Q1031 TEMPO 8000E RMK PP000=
SPZO Feb2004-071400Z 11005KT 070V170 9000 VCSH FEW030 SCT037 BKN060 12/09 Q1031 TEMPO 8000E RMK PP000=
SPZO Feb2004-071500Z VRB02KT 9000 VCSH FEW030 BKN040 15/08 Q1031 NOSIG RMK PPTRZ=
SPZO Feb2004-071600Z VRB02KT 9999 VCSH FEW030 SCT037 BKN060 15/10 Q1030 RERA NOSIG RMK PPTRZ=
SPZO Feb2004-071700Z VRB02KT 9999 VCSH FEW030 SCT040 BKN060 16/08 Q1029 RMK PP000=
SPZO Feb2004-071800Z VRB04KT 9999 FEW030 SCT040 BKN100 18/06 Q1029 NOSIG RMK PP000=
SPZO Feb2004-071900Z VRB06KT 9999 FEW033 BKN043 18/06 Q1027 NOSIG RMK PP000=
SPZO Feb2004-072000Z 28011KT 270V350 9999 VCSH FEW033 BKN043 18/08 Q1027 NOSIG RMK PP000=
SPZO Feb2004-072100Z 28012KT 9999 FEW033 BKN047 15/09 Q1026 NOSIG RMK PP000=
SPZO Feb2004-072200Z 23005KT 180V260 9999 BKN043 16/07 Q1026 NOSIG RMK PP000 TMAX 19.1=
SPZO Feb2004-072300Z 00000KT 9999 FEW033 BKN047 15/06 Q1027 NOSIG RMK PP000=
SPZO Feb2004-080000Z 04007KT 340V090 9999 OVC040 14/05 Q1028 RMK PP000=
SPZO Feb2004-080100Z VRB03KT 9999 OVC040 13/06 Q1030 RMK PP000=
SPZO Feb2004-080200Z VRB02KT 9999 OVC040 12/06 Q1030 RMK PP000=
SPZO Feb2004-080300Z 00000KT 9999 OVC040 12/06 Q1031 RMK PP000=
SPZO Feb2004-080400Z 10009KT 080V170 8000 -DZ OVC040 10/07 Q1032 RMK PPTRZ=
SPZO Feb2004-080500Z 10007KT 080V170 8000 -DZ OVC040 09/07 Q1031 RMK PP002=
SPZO Feb2004-080600Z 10007KT 080V170 8000 -DZ OVC040 09/07 Q1031 RMK PP004=
SPZO Feb2004-080700Z 10003KT 8000 -DZ OVC040 09/07 Q1031 RMK PP008=
SPZO Feb2004-080800Z 10004KT 8000 DZ OVC040 08/07 Q1030 RMK PP010=
SPZO Feb2004-080900Z 10004KT 7000 -RA FEW030 BKN040 08/07 Q1030 RMK PP008=
SPZO Feb2004-081000Z 08002KT 7000 -RA FEW030 SCT040 BKN050 08/07 Q1031 RMK PP012=
SPZO Feb2004-081100Z 08002KT 7000 -RA SCT030 SCT040 BKN050 08/07 Q1031 RMK PP008=
SPZO Feb2004-081200Z 00000KT 9000 -DZ FEW020 SCT033 OVC050 09/07 Q1032 TEMPO VCSH RMK CLNG BLW 1200M PP004=
SPZO Feb2004-081300Z 00000KT 9999 FEW025 SCT040 BKN100 11/09 Q1032 NOSIG RMK PP002=
SPZO Feb2004-081400Z VRB01KT 9999 FEW030 SCT040 BKN100 14/07 Q1033 NOSIG RMK PP000=
SPZO Feb2004-081500Z VRB02KT 9999 SCT037 BKN100 15/07 Q1032 NOSIG RMK PP000=
SPZO Feb2004-081600Z VRB03KT 9999 SCT037 BKN100 16/06 Q1031 NOSIG RMK PP000=
SPZO Feb2004-081700Z VRB03KT 9999 VCSH FEW030 BKN043 17/08 Q1030 NOSIG RMK PP000=
SPZO Feb2004-081800Z 27013KT 250V350 9999 VCSH FEW030 BKN043 17/09 Q1029 NOSIG RMK PP000=
SPZO Feb2004-081900Z 27015KT 9999 VCSH SCT040 SCT046 16/08 Q1028 NOSIG RMK PP000 RWY10 28025G36KT=
SPZO Feb2004-082000Z VRB05KT 9999 VCSH SCT040 SCT050 17/09 Q1027 NOSIG RMK PP000 RWY10 27006KT=
SPZO Feb2004-082100Z 08005KT 9999 FEW043 SCT050 18/09 Q1026 NOSIG RMK PP000 RWY10 VRB04KT RA CDTE NW=
SPZO Feb2004-082200Z VRB04KT 9999 FEW043 SCT050 17/07 Q1026 TEMPO VCRA RWY10 02011G22KT TMX:18.2=
SPZO Feb2004-082300Z 28012KT 250V350 9999 SCT043 SCT050 15/07 Q1027 NOSIG RMK PP000 RWY10 28014KT RA CDTE W=
SPZO Feb2004-090000Z 28008KT 9999 OVC040 13/09 Q1028 RMK PP000=
SPZO Feb2004-090100Z 27004KT 190V350 9999 OVC040 14/09 Q1029 RMK PP000=
SPZO Feb2004-090200Z VRB01KT 9999 OVC040 14/09 Q1030 RMK PP000=
SPZO Feb2004-090300Z 08002KT 9999 OVC040 12/09 Q1030 RMK PP000=
SPZO Feb2004-090400Z VRB03KT 9999 OVC040 12/09 Q1031 RMK PP000=
SPZO Feb2004-090500Z 00000KT 9999 OVC040 12/07 Q1030 RMK PP000=
SPZO Feb2004-090600Z 00000KT 9999 OVC040 12/08 Q1030 RMK PP000=
SPZO Feb2004-090700Z 00000KT 9999 OVC040 12/07 Q1030 RMK PP000=
SPZO Feb2004-090800Z 00000KT 9999 OVC040 11/09 Q1030 RMK PP000=
SPZO Feb2004-090900Z VRB02KT 9999 OVC040 12/07 Q1030 RMK PP000=
SPZO Feb2004-091000Z 00000KT 9999 FEW030 SCT040 BKN050 12/07 Q1030 RMK PP000=
SPZO Feb2004-091100Z 28008KT 260V350 9000 VCSH FEW030 SCT040 BKN050 10/07 Q1031 RMK VCSH CUAD W/NW PP000=
SPZO Feb2004-091200Z VRB02KT 9999 VCSH FEW036 SCT040 SCT050 12/08 Q1032 NOSIG RMK PP000=
SPZO Feb2004-091300Z VRB02KT 9999 VCSH FEW036 SCT040 SCT050 12/08 Q1032 NOSIG RMK PP000=
SPZO Feb2004-091400Z 00000KT 9999 VCSH FEW036 SCT040 SCT050 14/07 Q1033 NOSIG RMK PP000 VRB03KT=
SPZO Feb2004-091500Z VRB03KT 9999 VCSH SCT040 SCT050 15/08 Q1032 NOSIG RMK PP000 RWY10 VRB04KT=
SPZO Feb2004-091600Z VRB02KT 9999 SCT043 SCT050 17/08 Q1031 NOSIG RMK PP000 RWY VRB04KT=
SPZO Feb2004-091700Z 10007KT 010V170 9999 VCSH SCT040 BKN050 17/09 Q1030 NOSIG RMK PP000 RWY10 29007KT=
SPZO Feb2004-091800Z VRB03KT 9999 DZ SCT040 SCT050 16/10 Q1029 NOSIG RMK PPTRZ RWY10 18005KT RWY WET=
SPZO Feb2004-091900Z VRB05KT 9999 VCSH SCT040 SCT050 18/07 Q1027 TEMPO -RA RMK PPTRZ RWY10 27017G31KT=
SPZO Feb2004-092000Z 30008KT 250V350 9999 -RA SCT040 BKN046 14/08 Q1027 NOSIG RMK PPTRZ RWY10 02007KT RWY WET=
SPZO Feb2004-092100Z 26007KT 9999 DZ SCT040 SCT046 13/09 Q1027 NOSIG RMK PP010 RWY10 27006KT RWY WET=
SPZO Feb2004-092200Z 27005KT 9999 REDZ FEW040 SCT100 13/09 Q1026 TEMPO VCSH RMK PP000 RWY10 30007KT TMX:18.0 =
SPZO Feb2004-092300Z 26002KT 9999 SCT040 13/08 Q1027 NOSIG RMK PP000 EWY10 VRB06KT=
SPZO Feb2004-100000Z VRB01KT 9999 BKN040 SCT046 13/09 Q1028 RMK PP000=
SPZO Feb2004-100100Z 00000KT 9999 SCT037 SCT046 12/09 Q1028 RMK PP000=
SPZO Feb2004-100300Z 00000KT 9999 SCT037 SCT050 13/09 Q1030 RMK PP000=
SPZO Feb2004-100400Z VRB03KT 9999 BKN037 SCT046 12/09 Q1030 RMK PP000=
SPZO Feb2004-100500Z 27004KT 9999 -RA BKN037 SCT046 11/09 Q1031 RMK PP006=
SPZO Feb2004-100600Z 00000KT 9999 SCT037 SCT046 11/09 Q1029 RMK PP002=
SPZO Feb2004-100700Z VRB02KT 9000 -RA OVC040 11/09 Q1029 RMK PP004=
SPZO Feb2004-100800Z 00000KT 9000 -RA OVC040 10/09 Q1029 RMK PP016=
SPZO Feb2004-100900Z 00000KT 9000 -RA BKN037 SCT046 10/09 Q1029 RMK PP016=
SPZO Feb2004-101000Z VRB02KT 8000 -RA FEW025 SCT033 BKN043 10/08 Q1029 RMK CLNG BLW 1200M PP024=
SPZO Feb2004-101100Z 00000KT 9999 -DZ FEW025 SCT040 BKN043 10/07 Q1030 RMK PP002=
SPZO Feb2004-101200Z 00000KT 9999 -DZ SCT036 BKN046 10/08 Q1030 NOSIG RMK PP002 RWY WET BCFG E=
SPZO Feb2004-101300Z 00000KT 9999 REDZ FEW025 SCT036 BKN050 11/09 Q1031 NOSIG RMK PPTRZ RWY WET BCFG NE=
SPZO Feb2004-101400Z VRB02KT 9999 FEW030 SCT040 BKN050 12/09 Q1031 NOSIG RMK PP000 RWY10 VRB05KT=
SPZO Feb2004-101500Z VRB03KT 9999 VCSH FEW030 SCT040 BKN050 14/09 Q1031 NOSIG RMK PP000 RWY10 09006KT=
SPZO Feb2004-101600Z VRB05KT 9999 SCT040 BKN050 16/07 Q1030 TEMPO VCSH RMK PP000 RWY10 36009KT=
SPZO Feb2004-101700Z 35007KT 250V020 9999 VCSH SCT040 BKN050 15/06 Q1029 NOSIG RMK PP000 RWY10 04011KT=
SPZO Feb2004-101800Z 29009KT 260V350 9999 VCSH SCT040 BKN050 15/08 Q1029 NOSIG RMK PP000 RWY10 30015G25KT=
SPZO Feb2004-101900Z 27012KT 9999 VCSH SCT040TCU SCT043 BKN100 14/08 Q1028 TEMPO -SHRA RMK PP000=
SPZO Feb2004-102000Z 28009KT 9000 -RA SCT043TCU BKN047 12/08 Q1027 TEMPO NSW RMK PPTRZ=
SPZO Feb2004-102100Z 23004KT 180V270 9999 FEW033 BKN043 14/08 Q1027 NOSIG RMK RERA PP002=
SPZO Feb2004-102200Z 29005KT 250V020 9999 BKN043 SCT100 14/07 Q1026 NOSIG RMK PP000 TMAX 15.9=
SPZO Feb2004-102300Z 01004KT 340V080 9999 SCT043 BKN100 14/07 Q1027 NOSIG RMK PP000=
SPZO Feb2004-110000Z VRB03KT 9999 BKN040 SCT070 12/06 Q1028 RMK PP000=
SPZO Feb2004-110100Z 00000KT 9999 SCT040 SCT060 12/06 Q1029 RMK PP000=
SPZO Feb2004-110200Z VRB02KT 9999 SCT040 SCT060 11/06 Q1029 RMK PP000=
SPZO Feb2004-110300Z 09004KT 9999 SCT037 BKN060 11/06 Q1030 RMK PP000=
SPZO Feb2004-110400Z VRB02KT 9999 SCT030 SCT050 11/07 Q1031 RMK PP000=
SPZO Feb2004-110500Z VRB03KT 9999 BKN040 SCT046 11/07 Q1031 RMK PP000=
SPZO Feb2004-110600Z 26005KT 9999 -RA BKN037 SCT046 10/07 Q1029 RMK PP006=
SPZO Feb2004-110700Z 00000KT 9999 SCT030 BKN043 10/07 Q1029 RMK PP002=
SPZO Feb2004-110800Z 00000KT 9999 SCT040 SCT046 10/07 Q1028 RMK PP000=
SPZO Feb2004-110900Z 00000KT 9999 SCT040 SCT060 10/07 Q1028 RMK PP000=
SPZO Feb2004-111000Z VRB02KT 9999 BKN040 SCT050 10/07 Q1029 RMK PP000=
SPZO Feb2004-111100Z 00000KT 9999 FEW037 OVC050 10/07 Q1029 RMK PP000=
SPZO Feb2004-111200Z 00000KT 9999 FEW037 OVC047 10/08 Q1030 NOSIG RMK PP000=
SPZO Feb2004-111300Z 00000KT 9999 FEW037 SCT043 OVC060 12/07 Q1030 NOSIG RMK PP000=
SPZO Feb2004-111400Z 00000KT 9999 FEW037 SCT043 OVC080 13/06 Q1031 NOSIG RMK PP000=
SPZO Feb2004-111500Z VRB02KT 9999 FEW033 BKN043 14/06 Q1030 NOSIG RMK PP000=
SPZO Feb2004-111600Z 00000KT 9999 VCSH FEW033 BKN053 16/06 Q1029 NOSIG RMK PP000=
SPZO Feb2004-111700Z 28014KT 250V350 9999 -RA VCSH SCT040TCU BKN043 14/08 Q1029 TEMPO NSW RMK PP000=
SPZO Feb2004-111800Z 28011KT 9999 -RA VCSH SCT043TCU BKN053 12/09 Q1028 TEMPO NSW RMK PP002=
SPZO Feb2004-111900Z 27006KT 180V350 9999 -RA VCSH SCT040TCU SCT043 BKN100 14/09 Q1027 NOSIG RMK PP004=
SPZO Feb2004-112000Z 28006KT 260V360 9999 -RA VCSH SCT037 BKN043 15/08 Q1026 NOSIG RMK PP008=
SPZO Feb2004-112100Z 32011KT 270V350 8000 RA VCSH SCT043TCU BKN047 13/08 Q1026 NOSIG RMK PPTRZ=
SPZO Feb2004-112200Z 00000KT 9999 -RA VCSH SCT043 BKN047 12/08 Q1026 NOSIG RMK PP018 TMAX 15.7=
SPZO Feb2004-112300Z 10005KT 090V170 9999 -RA VCSH FEW030 SCT043 BKN060 11/09 Q1027 NOSIG RMK PP002=
SPZO Feb2004-120000Z 00000KT 8000 -RA FEW030 SCT040 BKN050 10/08 Q1028 RMK PP006=
SPZO Feb2004-120100Z 00000KT 8000 -RA FEW030 SCT040 BKN050 11/08 Q1029 RMK PPTRZ=
SPZO Feb2004-120200Z 00000KT 8000 -RA FEW030 SCT040 BKN050 11/08 Q1030 RMK PP008=
SPZO Feb2004-120300Z 00000KT 8000 -RA FEW030 SCT040 BKN050 10/08 Q1030 RMK PP008=
SPZO Feb2004-120400Z 00000KT 7000 +RA SCT030 SCT040 BKN050 10/08 Q1031 RMK PP030=
SPZO Feb2004-120500Z 00000KT 6000 +RA SCT030 SCT040 BKN050 10/08 Q1030 RMK PP026=
SPZO Feb2004-120600Z 00000KT 7000 -RA SCT030 SCT040 BKN050 10/08 Q1030 RMK PP004=
SPZO Feb2004-120700Z 00000KT 7000 -RA SCT030 SCT040 BKN050 09/08 Q1030 RMK PP006=
SPZO Feb2004-120800Z 10002KT 7000 -RA SCT030 SCT040 BKN050 09/07 Q1030 RMK PP002=
SPZO Feb2004-120900Z 10003KT 7000 -RA SCT030 SCT040 BKN050 09/07 Q1030 RMK PP006=
SPZO Feb2004-121000Z 10004KT 7000 -RA BKN030 SCT040 BKN050 08/07 Q1030 RMK PP006 CLNG BLW 1200M=
SPZO Feb2004-121100Z 09002KT 7000 BKN030 SCT040 BKN050 08/07 Q1031 RERA RMK PP002 BR CLNG BLW 1200M=
SPZO Feb2004-121200Z VRB02KT 9000 -RA VCSH FEW020 SCT033 OVC060 08/06 Q1032 NOSIG RMK CLNG BLW 1200M PP002=
SPZO Feb2004-121300Z VRB02KT 9999 -DZ FEW020 SCT033 BKN150 10/07 Q1033 TEMPO NSW RMK PPTRZ=
SPZO Feb2004-121400Z 00000KT 9999 FEW025 SCT033 BKN100 11/06 Q1033 REDZ NOSIG RMK PPTRZ=
SPZO Feb2004-121500Z VRB01KT 9999 FEW030 BKN040 BKN100 13/06 Q1033 NOSIG RMK PP000=
SPZO Feb2004-121600Z 26004KT 180V350 9999 FEW030 SCT040 BKN080 13/07 Q1032 NOSIG RMK PP000=
SPZO Feb2004-121700Z VRB04KT 9999 SCT040 SCT060 15/07 Q1031 NOSIG RMK PP000=
SPZO Feb2004-121800Z 26005KT 180V350 9999 SCT040 SCT060 17/06 Q1030 NOSIG RMK PP000=
SPZO Feb2004-121900Z VRB05KT 9999 BKN050 19/06 Q1028 TEMPO VCSH RMK PP000 RWY10 26012KT=
SPZO Feb2004-122000Z 23007KT 180V270 9999 TS FEW040TCU BKN050 17/07 Q1027 TEMPO VCSH RMK PP000 RWY10 24018KT=
SPZO Feb2004-122100Z VRB03KT 9999 DZ SCT040 BKN050 12/08 Q1028 NOSIG RMK PP008 RWY10 VRB04KT TMX:19.3=
SPZO Feb2004-122200Z VRB03KT 9999 DZ SCT040 BKN050 12/08 Q1028 NOSIG RMK PP008 RWY10 VRB04KT TMX:19.3=
SPZO Feb2004-122300Z 00000KT 9999 -DZ FEW043 BKN050 12/08 Q1029 BECMG FM2340 NSW RMK PP002=
SPZO Feb2004-130000Z 00000KT 9000 OVC050 12/08 Q1029 REDZ RMK PP004=
SPZO Feb2004-130100Z 00000KT 9999 OVC050 11/08 Q1030 RMK PP000=
SPZO Feb2004-130200Z 00000KT 9999 OVC050 11/09 Q1031 RMK PP000=
SPZO Feb2004-130300Z 00000KT 9999 OVC050 12/07 Q1033 RMK PP000=
SPZO Feb2004-130400Z 00000KT 9999 OVC050 11/07 Q1033 RMK PP000=
SPZO Feb2004-130500Z 00000KT 9999 OVC050 10/07 Q1032 RMK PP000=
SPZO Feb2004-130600Z 27002KT 9999 BKN050 SCT080 09/07 Q1032 RMK PP000=
SPZO Feb2004-130700Z 00000KT 9999 BKN050 SCT080 09/07 Q1031 RMK PP000=
SPZO Feb2004-130800Z 00000KT 9999 BKN050 SCT080 09/07 Q1031 RMK PP000=
SPZO Feb2004-130900Z 00000KT 9999 BKN050 SCT080 09/07 Q1030 RMK PP000=
SPZO Feb2004-131000Z 00000KT 9999 BKN050 SCT080 08/07 Q1031 RMK PP000=
SPZO Feb2004-131100Z 07001KT 9999 BKN050 07/06 Q1031 RMK PP000=
SPZO Feb2004-131200Z 00000KT 9999 BKN060 08/06 Q1032 NOSIG RMK PP000=
SPZO Feb2004-131300Z VRB02KT 9999 FEW040 BKN060 10/07 Q1033 NOSIG RMK PP000=
SPZO Feb2004-131400Z VRB02KT 9999 FEW036 BKN050 13/06 Q1033 NOSIG RMK PP000=
SPZO Feb2004-131500Z VRB02KT 9999 FEW036 BKN060 15/05 Q1033 NOSIG RMK PP000 RWY10 VRB03KT=
SPZO Feb2004-131600Z VRB02KT 9999 SCT040 SCT050 16/06 Q1032 NOSIG RMK PP000 RWY10 VRB03KT=
SPZO Feb2004-131700Z VRB03KT 9999 FEW040 SCT050 18/07 Q1031 NOSIG RMK PP000 RWY10 VRB06KT=
SPZO Feb2004-131800Z VRB06KT 9999 FEW040 BKN050 18/06 Q1029 TEMPO VCSH RMK PP000 RWY10 01012KT=
SPZO Feb2004-131900Z 33010KT 270V330 9999 SCT040 BKN050 16/07 Q1029 NOSIG RMK PP000 RWY10 30015G25KT=
SPZO Feb2004-132000Z 32006KT 270V010 9999 SCT043 BKN100 16/06 Q1028 NOSIG RMK PP000 RWY10 28021G33KT RA CDTE E=
SPZO Feb2004-132100Z 27009KT 9999 FEW046 OVC100 16/07 Q1028 NOSIG RMK PP000 RWY10 28013KT=
SPZO Feb2004-132200Z 28005KT 9999 BKN120 16/06 Q1027 NOSIG RMK PP000 RWY10 29010KT TMX:19.1=
SPZO Feb2004-132300Z 10005KT 9999 BKN100 14/09 Q1028 NOSIG RMK PP000=
SPZO Feb2004-140000Z VRB03KT 9999 FEW040 SCT100 13/08 Q1029 RMK PP000=
SPZO Feb2004-140100Z VRB02KT 9999 SCT050 12/08 Q1030 RMK PP000=
SPZO Feb2004-140200Z 28006KT 9999 SCT050 12/07 Q1031 RMK PP000=
SPZO Feb2004-140300Z 23004KT 9999 FEW040 SCT050 10/08 Q1031 RMK PP000=
SPZO Feb2004-140400Z VRB03KT 9999 FEW040 SCT050 11/08 Q1031 RMK PP000=
SPZO Feb2004-140500Z 10003KT 9999 SCT040 SCT050 11/08 Q1031 RMK PP000=
SPZO Feb2004-140600Z 00000KT 9999 SCT040 SCT050 12/08 Q1031 RMK PP000=
SPZO Feb2004-140700Z 08004KT 9999 BKN040 SCT046 10/07 Q1030 RMK PP000=
SPZO Feb2004-140800Z 00000KT 9999 BKN040 SCT046 10/07 Q1030 RMK PP000=
SPZO Feb2004-140900Z 00000KT 9999 SCT040 SCT050 10/07 Q1030 RMK PP000=
SPZO Feb2004-141000Z VRB01KT 9999 FEW040 SCT050 09/07 Q1030 RMK PP000=
SPZO Feb2004-141100Z 00000KT 9999 SCT040 SCT050 08/07 Q1031 RMK PP000=
SPZO Feb2004-141200Z 00000KT 9999 FEW040 BKN080 09/07 Q1031 NOSIG RMK PP000=
SPZO Feb2004-141300Z 00000KT 9999 FEW040 SCT060 12/08 Q1032 NOSIG RMK PP000=
SPZO Feb2004-141400Z VRB02KT 9999 FEW040 SCT060 14/08 Q1032 NOSIG RMK PP000 RWY10 VRB05KT=
SPZO Feb2004-141500Z 00000KT 9999 SCT040 SCT050 16/07 Q1031 NOSIG RMK PP000 RWY10 VRB05KT=
SPZO Feb2004-141600Z VRB04KT 9999 SCT040 SCT050 17/07 Q1030 NOSIG RMK PP000 RWY10 VRB06KT=
SPZO Feb2004-141700Z 20004KT 160V280 9999 FEW040 SCT050 18/07 Q1029 NOSIG RMK PP000 RWY10 VRB06KT RA CDTE NW=
SPZO Feb2004-141800Z VRB02KT 9999 FEW043 SCT050 18/05 Q1028 TEMPO VCSH RMK PP000 RWY10 VRB07KT=
SPZO Feb2004-141900Z 28012KT 250V350 9999 FEW040TCU BKN047 16/09 Q1027 TEMPO VCSH RMK PP000=
SPZO Feb2004-142000Z 27010KT 250V350 9999 FEW033 SCT043 BKN060 17/08 Q1026 NOSIG RMK PP000=
SPZO Feb2004-142100Z 25011KT 250V350 9999 FEW040 SCT047 20/08 Q1025 NOSIG RMK PP000=
SPZO Feb2004-142200Z 28009KT 250V350 9999 FEW040 SCT047 BKN100 18/07 Q1025 NOSIG RMK PP000 TMAX 20.0=
SPZO Feb2004-142300Z VRB04KT 9999 SCT043 SCT100 16/07 Q1026 NOSIG RMK PP000=
SPZO Feb2004-150000Z 02004KT 9999 SCT040 SCT050 15/06 Q1027 RMK PP000=
SPZO Feb2004-150100Z VRB03KT 9999 FEW040 SCT060 14/07 Q1029 RMK PP000=
SPZO Feb2004-150200Z 30005KT 9999 FEW040 SCT080 12/07 Q1030 RMK PP000=
SPZO Feb2004-150300Z 26005KT 9999 FEW040 BKN050 13/07 Q1031 RMK PP000=
SPZO Feb2004-150400Z VRB03KT 9000 RA OVC040 09/06 Q1033 RMK PP034=
SPZO Feb2004-150500Z 00000KT 9999 -RA SCT040 SCT046 08/06 Q1033 RMK PP018=
SPZO Feb2004-150600Z 00000KT 9999 BKN040 SCT046 08/06 Q1032 RMK PP004=
SPZO Feb2004-150700Z 00000KT 9999 FEW030 OVC040 08/06 Q1031 RMK PP000=
SPZO Feb2004-150800Z VRB02KT 9999 -RA OVC040 08/06 Q1030 RMK PP002=
SPZO Feb2004-150900Z 10005KT 9999 SCT030 BKN043 08/06 Q1030 RMK PP000=
SPZO Feb2004-151000Z 12004KT 9999 FEW030 SCT050 07/06 Q1030 RMK PP000=
SPZO Feb2004-151100Z VRB03KT 9999 SCT025 SCT060 07/05 Q1030 RMK PP000=
SPZO Feb2004-151200Z 00000KT 9000 FEW020 SCT025 BKN060 08/06 Q1032 TEMPO 9999 FEW020 SCT030 BKN060 RMK PP000=
SPZO Feb2004-151300Z 00000KT 9999 FEW025 SCT033 BKN060 09/06 Q1033 NOSIG RMK PP000=
SPZO Feb2004-151400Z VRB01KT 9999 FEW033 SCT060 BKN300 13/06 Q1032 NOSIG RMK PP000=
SPZO Feb2004-151500Z 00000KT 9999 SCT037 BKN300 15/07 Q1032 NOSIG RMK PP000=
SPZO Feb2004-151600Z VRB02KT 9999 SCT037 BKN060 16/05 Q1031 NOSIG RMK PP000=
SPZO Feb2004-151700Z VRB02KT 9999 SCT040 SCT060 18/07 Q1030 NOSIG RMK PP000=
SPZO Feb2004-151800Z VRB04KT 9999 SCT040 SCT060 19/06 Q1028 NOSIG RMK PP000=
SPZO Feb2004-151900Z 26007KT 190V290 9999 BKN043 20/08 Q1026 NOSIG RMK PP000=
SPZO Feb2004-152000Z 31016KT 270V350 9999 BKN043 18/08 Q1025 NOSIG RESHRA RMK PP002=
SPZO Feb2004-152100Z 29014KT 250V350 9999 SCT040 FEW043TCU 19/07 Q1025 NOSIG RMK PP000=
SPZO Feb2004-152200Z 13009KT 080V190 7000 TS VCSH FEW040 SCT043CB 14/07 Q1027=
SPZO Feb2004-152300Z 16004KT 090V260 7000 TSRA BKN043CB SCT047TCU 09/07 Q1029 TEMPO FM00 -RA RMK PP080=
SPZO Feb2004-160000Z 26005KT 6000 RA FEW040TCU BKN050 10/08 Q1030 RMK PP018=
SPZO Feb2004-160100Z 28002KT 7000 -RA FEW040TCU BKN050 10/08 Q1030 RMK PP002=
SPZO Feb2004-160200Z 10005KT 090V170 8000 -RA FEW040 BKN050 10/08 Q1032 RMK PP004=
SPZO Feb2004-160300Z 10004KT 080V170 7000 -RA SCT040 SCT050 10/08 Q1033 RMK PP010=
SPZO Feb2004-160400Z 10002KT 7000 RA BKN040 SCT050 10/08 Q1033 RMK PP026=
SPZO Feb2004-160500Z 00000KT 7000 +RA BKN040 SCT050 09/08 Q1032 RMK PP032=
SPZO Feb2004-160600Z VRB01KT 7000 RA BKN040 SCT050 09/07 Q1032 RMK PP026=
SPZO Feb2004-160700Z VRB02KT 7000 -RA BKN040 SCT050 09/07 Q1031 RMK PP008=
SPZO Feb2004-160800Z 00000KT 7000 -RA BKN040 SCT050 09/06 Q1030 RMK PP004=
SPZO Feb2004-160900Z 00000KT 8000 BKN040 SCT050 09/06 Q1030 RERA RMK PPTRZ=
SPZO Feb2004-161000Z 00000KT 8000 SCT040 SCT050 BKN060 09/07 Q1030 RMK BR PP000=
SPZO Feb2004-161100Z 09002KT 8000 SCT040 SCT050 BKN060 09/07 Q1031 RMK BR PP000=
SPZO Feb2004-161200Z 00000KT 9999 FEW033 SCT040 OVC060 10/07 Q1032 NOSIG RMK PP000=
SPZO Feb2004-161300Z 00000KT 9999 SCT043 OVC100 11/07 Q1032 NOSIG RMK PP000=
SPZO Feb2004-161400Z 00000KT 9999 FEW040 OVC100 13/07 Q1032 NOSIG RMK PP000=
SPZO Feb2004-161500Z VRB02KT 9999 SCT040 SCT100 BKN300 15/07 Q1032 NOSIG RMK PP000=
SPZO Feb2004-161600Z VRB02KT 9999 SCT040 SCT100 17/06 Q1031 NOSIG RMK PP000=
SPZO Feb2004-161700Z VRB04KT 9999 SCT043 SCT060 19/10 Q1030 NOSIG RMK PP000=
SPZO Feb2004-161800Z VRB04KT 9999 SCT043 SCT060 19/05 Q1028 NOSIG RMK PP000=
SPZO Feb2004-161900Z 10008KT 010V170 9999 RA BKN043 SCT050 13/07 Q1029 NOSIG RMK PP010 RWY10 09018KT RWY WET=
SPZO Feb2004-162000Z 28004KT 9999 DZ BKN046 SCT050 13/09 Q1028 BECMG FM2030 NSW RMK PP004 RWY10 26010KT RWY WET=
SPZO Feb2004-162100Z 27004KT 180V290 9999 REDZ FEW040 BKN050 14/09 Q1027 NOSIG RMK PPTRZ=
SPZO Feb2004-162200Z 28006KT 260V350 9999 FEW040 BKN100 15/08 Q1027 NOSIG RMK PP000 RWY10 29010KT TMX:20.0=
SPZO Feb2004-162300Z 27008KT 9999 FEW043 BKN100 14/08 Q1027 NOSIG RMK PP000 RWY10 28013KT=
SPZO Feb2004-170000Z 27004KT 9999 SCT040 SCT080 12/08 Q1028 RMK PP000=
SPZO Feb2004-170100Z 00000KT 9999 SCT040 SCT080 12/09 Q1030 RMK PP000=
SPZO Feb2004-170200Z 10008KT 070V170 9999 BKN040 12/07 Q1032 RMK PP000=
SPZO Feb2004-170300Z VRB03KT 8000 -DZ OVC040 11/08 Q1032 RMK PP002=
SPZO Feb2004-170400Z 00000KT 9000 OVC040 11/07 Q1032 REDZ RMK PPTRZ=
SPZO Feb2004-170500Z VRB02KT 9999 OVC040 11/06 Q1032 RMK PP000=
SPZO Feb2004-170600Z 28004KT 260V350 9999 BKN040 11/07 Q1031 RMK PP000=
SPZO Feb2004-170700Z VRB03KT 9999 BKN040 10/07 Q1031 RMK PP000=
SPZO Feb2004-170800Z VRB02KT 9999 BKN040 11/07 Q1030 RMK PP000=
SPZO Feb2004-170900Z 00000KT 9999 BKN040 10/07 Q1030 RMK PP000=
SPZO Feb2004-171000Z 00000KT 9999 BKN040 10/07 Q1030 RMK PP000=
SPZO Feb2004-171100Z 27004KT 9999 BKN040 10/06 Q1031 RMK PP000=
SPZO Feb2004-171200Z VRB02KT 9999 FEW040 BKN050 11/07 Q1032 NOSIG RMK PP000=
SPZO Feb2004-171300Z 00000KT 9999 SCT040 SCT050 13/07 Q1033 NOSIG RMK PP000=
SPZO Feb2004-171400Z VRB02KT 9999 FEW040 SCT050 15/08 Q1033 NOSIG RMK PP000 RWY10 13009KT=
SPZO Feb2004-171500Z VRB03KT 9999 BKN050 16/06 Q1033 NOSIG RMK PP000 VRB04KT=
SPZO Feb2004-171600Z VRB02KT 9999 SCT050 19/08 Q1032 NOSIG RMK PP000 RWY10 VRB06KT=
SPZO Feb2004-171700Z VRB03KT 9999 SCT050 19/06 Q1031 NOSIG RMK PP000 RWY10 VRB05KT=
SPZO Feb2004-171800Z 30004KT 250V020 9999 FEW043TCU BKN050 21/06 Q1029 TEMPO VCSH RMK PP000 RWY10 27009KT=
SPZO Feb2004-171900Z VRB03KT 9999 BKN050 21/06 Q1028 TEMPO VCSH RMK PP000 RWY10 03015KT=
SPZO Feb2004-172000Z 02007KT 330V080 9999 BKN050 19/05 Q1027 NOSIG RMK PP000 RWY10 32010KT=
SPZO Feb2004-172100Z 01010KT 320V080 9999 BKN046 18/04 Q1026 TEMPO VCSH RMK PP000 RWY10 01014KT=
SPZO Feb2004-172200Z 36014KT 9999 FEW043 BKN120 17/04 Q1026 NOSIG RMK PP000 RWY10 02019G31KT TMX:21.1=
SPZO Feb2004-172300Z 01009KT 9999 FEW043 SCT100 17/05 Q1027 NOSIG RMK PP000 RWY10 02012KT=
SPZO Feb2004-180000Z 02004KT 9999 FEW040 SCT050 16/05 Q1028 RMK PP000=
SPZO Feb2004-180100Z VRB02KT 9999 SCT100 14/06 Q1030 RMK PP000=
SPZO Feb2004-180200Z 20005KT 9999 FEW040 BKN050 14/05 Q1032 RMK PP000=
SPZO Feb2004-180300Z 20005KT 9999 FEW040 SCT080 13/06 Q1032 RMK PP000=
SPZO Feb2004-180400Z VRB03KT 9999 FEW040 SCT050 10/06 Q1033 RMK PP000=
SPZO Feb2004-180500Z 00000KT 9999 SCT040 SCT046 10/06 Q1032 RMK PP000=
SPZO Feb2004-180600Z 00000KT 9999 BKN046 09/06 Q1032 RMK PP000=
SPZO Feb2004-180700Z 00000KT 9999 SCT046 08/06 Q1031 RMK PP000=
SPZO Feb2004-180800Z 00000KT 9999 SCT050 07/06 Q1031 RMK PP000=
SPZO Feb2004-180900Z 00000KT 9999 FEW050 07/05 Q1031 RMK PP000=
SPZO Feb2004-181000Z 00000KT 9999 FEW040 SCT300 07/05 Q1031 RMK PP000=
SPZO Feb2004-181100Z 00000KT 9999 FEW050 SCT300 06/04 Q1032 RMK PP000=
SPZO Feb2004-181200Z 00000KT 9999 FEW040 SCT120 10/06 Q1033 NOSIG RMK PP000=
SPZO Feb2004-181300Z VRB03KT 9999 FEW040 SCT200 12/07 Q1033 NOSIG RMK PP000 RWY10 VRB03KT=
SPZO Feb2004-181400Z VRB02KT 9999 SCT040 14/06 Q1033 NOSIG RMK PP000 RWY10 VRB05KT=
SPZO Feb2004-181500Z VRB02KT 9999 SCT040 17/07 Q1033 NOSIG RMK PP000 RWY10 VRB06KT=
SPZO Feb2004-181600Z VRB02KT 9999 SCT043 18/07 Q1032 NOSIG RMK PP000 RWY10 13011KT=
SPZO Feb2004-181700Z 11005KT 070V200 9999 SCT050 20/07 Q1030 NOSIG RMK PP000 RWY10 18013KT=
SPZO Feb2004-181800Z VRB03KT 9999 SCT050 20/04 Q1029 NOSIG RMK PP000 RWY10 VRB04KT=
SPZO Feb2004-181900Z VRB04KT 9999 FEW043 SCT047 21/03 Q1027 NOSIG RMK PP000=
SPZO Feb2004-182000Z VRB04KT 9999 FEW043 SCT047 22/02 Q1025 NOSIG RMK PP000=
SPZO Feb2004-182100Z 09013KT 9999 FEW040 SCT047 21/09 Q1025 NOSIG RMK PP000=
SPZO Feb2004-182200Z 12010KT 090V170 9999 SCT043 BKN100 19/05 Q1025 NOSIG RMK PP000 TMAX 23.2=
SPZO Feb2004-182300Z 10004KT 080V170 9999 SCT043 BKN300 16/07 Q1027 NOSIG RMK PP000=
SPZO Feb2004-190000Z VRB02KT 9999 BKN040 SCT050 16/07 Q1028 RMK PP000=
SPZO Feb2004-190100Z 27007KT 9999 SCT040 SCT050 15/07 Q1029 RMK PP000=
SPZO Feb2004-190200Z 01008KT 9000 -RA SCT037TCU BKN043 11/06 Q1032 RMK PP108=
SPZO Feb2004-190300Z 26004KT 9999 OVC040 11/07 Q1033 RMK PP002=
SPZO Feb2004-190400Z 00000KT 9000 -RA OVC040 10/08 Q1033 RMK PP010=
SPZO Feb2004-190500Z 00000KT 9999 -RA SCT030 BKN040 10/07 Q1032 RMK PP008=
SPZO Feb2004-190600Z 00000KT 9999 SCT037 BKN043 10/07 Q1032 RMK PP000=
SPZO Feb2004-190700Z 00000KT 9999 BKN037 SCT043 10/08 Q1032 RMK PP000=
SPZO Feb2004-190800Z 00000KT 9999 OVC040 09/08 Q1031 RMK PP000=
SPZO Feb2004-190900Z 00000KT 9999 SCT030 BKN043 09/06 Q1030 RMK PP000=
SPZO Feb2004-191000Z VRB01KT 9999 SCT037 SCT050 09/07 Q1030 RMK PP000=
SPZO Feb2004-191100Z 00000KT 9999 SCT040 SCT050 09/06 Q1030 RMK PP000=
SPZO Feb2004-191200Z VRB01KT 9999 SCT043 BKN080 10/07 Q1031 NOSIG RMK PP000=
SPZO Feb2004-191300Z 00000KT 9999 FEW025 SCT060 BKN100 10/07 Q1031 NOSIG RMK PP000=
SPZO Feb2004-191400Z 00000KT 9999 FEW030 SCT060 BKN100 12/07 Q1032 NOSIG RMK PP000=
SPZO Feb2004-191500Z VRB02KT 9999 FEW030 SCT060 BKN100 13/07 Q1031 NOSIG RMK PP000=
SPZO Feb2004-191600Z 08004KT 360V160 9999 FEW023 BKN047 BKN080 14/07 Q1031 RMK PP000=
SPZO Feb2004-191700Z 10007KT 070V170 9999 FEW030 BKN043 15/08 Q1030 NOSIG RMK PP000=
SPZO Feb2004-191800Z VRB04KT 9999 SCT040 SCT060 17/09 Q1029 NOSIG RMK PP000=
SPZO Feb2004-191900Z 10008KT 010V170 9999 SCT040 BKN060 16/06 Q1028 NOSIG RMK PP000=
SPZO Feb2004-192000Z VRB02KT 9999 SCT040 SCT060 17/06 Q1027 NOSIG RMK PP000=
SPZO Feb2004-192100Z VRB02KT 9999 SCT040 SCT060 17/07 Q1026 NOSIG RMK PP000=
SPZO Feb2004-192200Z 14005KT 080V200 9999 SCT040 SCT047 16/05 Q1026 NOSIG RMK PP000 TMAX 17.8=
SPZO Feb2004-192300Z 10008KT 9999 SCT040 SCT047 15/06 Q1027 NOSIG RMK PP000=
SPZO Feb2004-200000Z 26007KT 190V350 9999 BKN050 13/06 Q1028 RMK PP000=
SPZO Feb2004-200100Z 26006KT 180V290 9999 BKN050 12/06 Q1028 RMK PP000=
SPZO Feb2004-200200Z 00000KT 9999 BKN050 12/06 Q1029 RMK PP000=
SPZO Feb2004-200300Z 00000KT 9999 BKN050 10/07 Q1030 RMK PP000=
SPZO Feb2004-200400Z 00000KT 9999 BKN050 11/07 Q1031 RMK PP000=
SPZO Feb2004-200500Z 00000KT 9999 BKN050 11/07 Q1030 RMK PP000=
SPZO Feb2004-200600Z 25007KT 180V280 7000 RA BKN040 SCT050 09/06 Q1030 RMK PP018=
SPZO Feb2004-200700Z 29004KT 270V350 6000 +RA BKN040 SCT050 09/06 Q1030 RMK PP000=
SPZO Feb2004-200800Z 00000KT 6000 -RA SCT040 SCT050 08/06 Q1029 RMK PP006=
SPZO Feb2004-200900Z 00000KT 7000 SCT040 BKN050 08/06 Q1030 RERA RMK PPTRZ=
SPZO Feb2004-201000Z 00000KT 7000 SCT040 BKN050 09/06 Q1030 RMK BR PP000=
SPZO Feb2004-201100Z 00000KT 8000 OVC040 09/06 Q1030 RMK BR PP000=
SPZO Feb2004-201200Z 00000KT 9999 -DZ FEW025 SCT037 OVC060 09/07 Q1031 TEMPO NSW RMK PP002=
SPZO Feb2004-201300Z 00000KT 9999 -DZ SCT030 SCT060 OVC080 09/07 Q1032 NOSIG RMK PP002=
SPZO Feb2004-201400Z 00000KT 9999 -DZ FEW030 SCT047 OVC150 11/06 Q1032 NOSIG RMK PPTRZ=
SPZO Feb2004-201500Z 00000KT 9999 FEW030 BKN047 12/05 Q1032 REDZ NOSIG RMK PPTRZ=
SPZO Feb2004-201600Z 00000KT 9999 SCT040 SCT060 14/06 Q1031 NOSIG RMK PP000=
SPZO Feb2004-201700Z VRB01KT 9999 FEW030 BKN047 16/07 Q1030 NOSIG RMK PP000=
SPZO Feb2004-201800Z VRB02KT 9999 BKN043 18/07 Q1029 NOSIG RMK PP000=
SPZO Feb2004-201900Z VRB03KT 9999 SCT040 SCT050 17/07 Q1027 NOSIG RMK PP000 RWY10 VRB04KT=
SPZO Feb2004-202000Z VRB05KT 9999 SCT043 SCT070 18/07 Q1026 TEMPO VCSH RMK PP000 RWY10 01011G21KT=
SPZO Feb2004-202100Z 35008KT 9999 RA FEW040TCU SCT043 BKN050 15/06 Q1025 NOSIG RMK PPTRZ RWY10 25023G42KT=
SPZO Feb2004-202200Z 17005KT 090V200 9999 FEW036 SCT043 SCT050 10/07 Q1027 RETSRA NOSIG RMK PP130 RWY10 16007KT RWY WET TMAX: 17.9=
SPZO Feb2004-202300Z VRB02KT 9999 SCT043 SCT060 11/07 Q1027 NOSIG RMK PP000=
SPZO Feb2004-210000Z VRB03KT 9999 OVC040 11/06 Q1028 RMK PP000=
SPZO Feb2004-210100Z 00000KT 9999 OVC040 11/08 Q1029 RMK PP000=
SPZO Feb2004-210200Z 00000KT 9999 OVC040 10/07 Q1030 RMK PP000=
SPZO Feb2004-210300Z VRB02KT 9999 BKN040 11/05 Q1031 RMK PP000=
SPZO Feb2004-210400Z 00000KT 9999 BKN040 10/07 Q1031 RMK PP000=
SPZO Feb2004-210500Z 00000KT 9999 BKN040 10/06 Q1031 RMK PP000=
SPZO Feb2004-210600Z 00000KT 9999 BKN040 10/07 Q1031 RMK PP000=
SPZO Feb2004-210700Z 00000KT 9999 OVC040 10/06 Q1030 RMK PP000=
SPZO Feb2004-210800Z 00000KT 9999 OVC040 10/06 Q1029 RMK PP000=
SPZO Feb2004-210900Z 00000KT 6000 RA SCT030 BKN040 08/06 Q1030 RMK PP022=
SPZO Feb2004-211000Z 00000KT 7000 -RA SCT030 BKN040 08/06 Q1031 RMK PP004=
SPZO Feb2004-211100Z 00000KT 7000 -RA BKN030 SCT040 08/06 Q1031 RMK PP006 CLNG BLW 1200M=
SPZO Feb2004-211200Z 00000KT 9000 -RA FEW025 SCT036 BKN046 08/06 Q1032 NOSIG RMK PP006 RWY WET CLNG BLW 1200M=
SPZO Feb2004-211300Z VRB02KT 9999 -DZ FEW033 SCT036 BKN050 09/06 Q1033 BECMG FM14 NSW RMK PP004 RWY10 VRB04KT RWY WET=
SPZO Feb2004-211400Z 00000KT 9999 FEW033 SCT040 SCT050 12/05 Q1034 NOSIG RMK PPTRZ RWY10 VRB04KT RWY WET =
SPZO Feb2004-211500Z VRB02KT 9999 FEW036 SCT040 SCT060 13/05 Q1033 NOSIG RMK PP000 RWY10 VRB07KT=
SPZO Feb2004-211600Z VRB04KT 9999 FEW036 SCT043 SCT050 15/07 Q1033 NOSIG RMK PP000 RWY10 VRB05KT=
SPZO Feb2004-211700Z 27004KT 250V350 9999 SCT040 BKN050 14/07 Q1032 TEMPO VCSH RMK PP000 RWY10 27011KT=
SPZO Feb2004-211800Z 29006KT 250V350 9999 SCT040 BKN050 15/07 Q1031
SPZO Feb2004-211900Z 32005KT 270V010 9999 FEW040 BKN060 17/08 Q1029
SPZO Feb2004-212000Z VRB03KT 9999 FEW043 BKN060 17/06 Q1029 NOSIG RMK
SPZO Feb2004-212100Z 18006KT 9999 FEW043 BKN060 15/06 Q1028 TEMPO VCSH
SPZO Feb2004-212200Z 21005KT 170V260 9999 FEW043 BKN060 16/07 Q1028
SPZO Feb2004-212300Z 10003KT 9999 FEW043 SCT060 14/07 Q1028 NOSIG RMK
SPZO Feb2004-220000Z VRB02KT 9999 FEW040 SCT100 13/07 Q1029 RMK PP000=
SPZO Feb2004-220100Z 00000KT 9999 SCT050 11/07 Q1030 RMK PP000=
SPZO Feb2004-220200Z VRB01KT 9999 FEW040 SCT080 11/07 Q1031 RMK PP000=
SPZO Feb2004-220300Z 00000KT 9999 SCT050 09/07 Q1032 RMK PP000=
SPZO Feb2004-220400Z 00000KT 9999 FEW040 SCT080 09/07 Q1032 RMK PP000=
SPZO Feb2004-220500Z VRB02KT 9999 SCT050 08/07 Q1032 RMK PP000=
SPZO Feb2004-220600Z 00000KT 9999 SCT040 SCT050 08/06 Q1032 RMK PP000=
SPZO Feb2004-220700Z 00000KT 9999 OVC040 09/07 Q1031 RMK PP000=
SPZO Feb2004-220800Z 00000KT 9999 SCT040 SCT046 09/07 Q1031 RMK PP000=
SPZO Feb2004-220900Z 00000KT 9999 SCT040 SCT050 09/07 Q1031 RMK PP000=
SPZO Feb2004-221000Z 10004KT 9999 BKN040 SCT050 09/07 Q1031 RMK PP000=
SPZO Feb2004-221100Z 00000KT 9999 FEW025 SCT040 BKN046 09/07 Q1032 RMK PP000=
SPZO Feb2004-221200Z VRB01KT 9999 FEW036 BKN050 11/08 Q1033 NOSIG RMK PP000=
SPZO Feb2004-221300Z VRB01KT 9999 FEW036 BKN050 13/08 Q1033 NOSIG RMK PP000 RWY10 VRB03KT=
SPZO Feb2004-221400Z VRB03KT 9999 SCT046 15/07 Q1034 NOSIG RMK PP000 RWY10 VRB05KT=
SPZO Feb2004-221500Z VRB03KT 9999 SCT050 16/07 Q1033 NOSIG RMK PP000 RWY10 VRB07KT=
SPZO Feb2004-221600Z VRB03KT 9999 SCT050 18/06 Q1032 NOSIG RMK PP000 RWY10 27009KT=
SPZO Feb2004-221700Z VRB03KT 9999 SCT060 20/06 Q1032 NOSIG RMK PP000 RWY10 VRB05KT=
SPZO Feb2004-221800Z VRB03KT 9999 SCT060 20/05 Q1030 NOSIG RMK PP000 RWY10 VRB05KT=
SPZO Feb2004-221900Z VRB04KT 9999 BKN043 21/04 Q1028 NOSIG RMK PP000=
SPZO Feb2004-222000Z VRB04KT 9999 BKN043 20/01 Q1027 NOSIG RMK PP000=
SPZO Feb2004-222100Z 02005KT 340V080 9999 BKN043 19/02 Q1027 RESHRA NOSIG RMK PPTRZ=
SPZO Feb2004-222200Z 01011KT 340V080 9999 SCT043 17/07 Q1027 NOSIG RMK PP000 TMAX 21.9=
SPZO Feb2004-222300Z VRB05KT 9999 FEW060 SCT100 16/07 Q1028 TEMPO FEW060 RMK PP000=
SPZO Feb2004-230000Z VRB02KT 9999 FEW050 13/07 Q1029 RMK PP000=
SPZO Feb2004-230100Z 00000KT 9999 SKC 12/06 Q1030 RMK PP000=
SPZO Feb2004-230200Z 00000KT 9999 FEW040 SCT050 12/06 Q1031 RMK PP000=
SPZO Feb2004-230300Z 00000KT 9999 FEW040 SCT060 11/06 Q1032 RMK PP000=
SPZO Feb2004-230400Z 00000KT 9999 SCT050 12/06 Q1032 RMK PP000=
SPZO Feb2004-230500Z 10005KT 9999 SCT050 11/06 Q1032 RMK PP000=
SPZO Feb2004-230600Z 00000KT 9999 SCT040 SCT050 11/06 Q1032 RMK PP000=
SPZO Feb2004-230700Z 00000KT 9999 SCT040 SCT050 11/06 Q1031 RMK PP000=
SPZO Feb2004-230800Z 00000KT 9999 FEW037 SCT050 09/06 Q1031 RMK PP000=
SPZO Feb2004-230900Z 00000KT 9999 SCT040 SCT050 10/06 Q1031 RMK PP000=
SPZO Feb2004-231000Z 00000KT 9999 SCT040 SCT050 10/07 Q1031 RMK PP000=
SPZO Feb2004-231100Z VRB01KT 9999 SCT037 BKN050 10/06 Q1032 RMK PP000=
SPZO Feb2004-231200Z VRB02KT 9999 SCT037 BKN043 11/07 Q1033 NOSIG RMK PP000=
SPZO Feb2004-231300Z 00000KT 9999 FEW040 SCT060 12/06 Q1034 NOSIG RMK PP000=
SPZO Feb2004-231400Z VRB02KT 9999 FEW040 SCT060 14/05 Q1034 NOSIG RMK PP000=
SPZO Feb2004-231500Z VRB03KT 9999 SCT043 16/06 Q1033 NOSIG RMK PP000=
SPZO Feb2004-231600Z VRB03KT 9999 SCT043 17/04 Q1032 NOSIG RMK PP000=
SPZO Feb2004-231700Z VRB05KT 9999 FEW040 SCT047 19/03 Q1031 NOSIG RMK PP000=
SPZO Feb2004-231800Z VRB04KT 9999 BKN043 19/06 Q1029 NODIG RMK PP000=
SPZO Feb2004-231900Z VRB01KT 9999 SCT043 20/04 Q1028 NOSIG RMK PP000=
SPZO Feb2004-232000Z 33008KT 250V350 9999 SCT043 21/07 Q1027 NOSIG RMK PP000=
SPZO Feb2004-232100Z 30006KT 280V020 9999 BKN043 21/06 Q1026 NOSIG RMK PP000=
SPZO Feb2004-232200Z 28014KT 260V350 9999 SCT043 SCT100 17/03 Q1026 NOSIG RMK PP000 TMAX 21.2=
SPZO Feb2004-232300Z 33006KT 250V020 9999 SCT043 17/05 Q1027 NOSIG RMK PP000=
SPZO Feb2004-240000Z VRB04KT 9999 SCT050 15/06 Q1028 RMK PP000=
SPZO Feb2004-240100Z 00000KT 9999 BKN040 13/07 Q1030 RMK PP000=
SPZO Feb2004-240200Z 07008KT 360V110 8000 RA SCT030 BKN040 10/06 Q1032 RMK PP012=
SPZO Feb2004-240300Z 10004KT 070V200 9000 OVC040 10/06 Q1030 RERA RMK PPTRZ=
SPZO Feb2004-240400Z VRB02KT 9999 BKN040 09/06 Q1031 RMK PP000=
SPZO Feb2004-240500Z VRB02KT 9999 BKN040 08/05 Q1031 RMK PP000=
SPZO Feb2004-240600Z 00000KT 9999 BKN040 08/06 Q1030 RMK PP000=
SPZO Feb2004-240700Z 09002KT 9999 BKN040 06/05 Q1030 RMK PP000=
SPZO Feb2004-240800Z 00000KT 9999 SCT040 SCT080 08/06 Q1030 RMK PP000=
SPZO Feb2004-240900Z 00000KT 9999 SCT040 SCT080 08/06 Q1030 RMK PP000=
SPZO Feb2004-241000Z 08002KT 9999 SCT040 SCT080 07/05 Q1030 RMK PP000=
SPZO Feb2004-241100Z 00000KT 9999 SCT040 07/06 Q1031 RMK PP000=
SPZO Feb2004-241200Z 00000KT 9999 FEW020 SCT030 BKN040 08/06 Q1031 NOSIG RMK CLNG BLW 1200M PP000=
SPZO Feb2004-241300Z 00000KT 9999 FEW025 SCT033 BKN040 09/07 Q1032 NOSIG RMK OROPESA FLAFOND BAJO PP000=
SPZO Feb2004-241400Z VRB03KT 9999 SCT037 BKN060 11/06 Q1032 NOSIG RMK PP000=
SPZO Feb2004-241500Z VRB02KT 9999 SCT037 SCT060 13/06 Q1032 NOSIG RMK PP000=
SPZO Feb2004-241600Z VRB03KT 9999 SCT043 16/05 Q1031 NOSIG RMK PP000=
SPZO Feb2004-241700Z VRB02KT 9999 FEW040 SCT047 17/05 Q1030 NOSIG RMK PP000=
SPZO Feb2004-241800Z VRB04KT 9999 FEW040 SCT047 19/06 Q1029 NOSIG RMK PP000=
SPZO Feb2004-241900Z VRB05KT 9999 BKN060 20/04 Q1027 NOSIG RMK PP000 RWY10 VRB06KT=
SPZO Feb2004-242000Z VRB05KT 9999 SCT060 21/04 Q1025 NOSIG RMK PP000 RWY10 10008KT=
SPZO Feb2004-242100Z VRB03KT 9999 SCT050 21/02 Q1024 NOSIG RMK PP000 RWY10 02012KT=
SPZO Feb2004-242200Z 07004KT 340V110 9999 SCT046 17/06 Q1024 NOSIG RMK PP000 EWY10 02015G28KT TMX:21.2=
SPZO Feb2004-242300Z VRB04KT 9999 FEW050 15/07 Q1025 NOSIG RMK PP000 RWY10 02018G33KT=
SPZO Feb2004-250000Z 00000KT 9999 SCT040 13/06 Q1027 RMK PP000=
SPZO Feb2004-250100Z 34004KT 270V020 9999 SCT040 13/06 Q1028 RMK PP000=
SPZO Feb2004-250200Z VRB04KT 8000 -RA FEW030 SCT040 11/06 Q1030 RMK PP002=
SPZO Feb2004-250300Z 17006KT 090V200 9000 FEW030 BKN040 11/06 Q1030 RERA RMK PP002=
SPZO Feb2004-250400Z 25006KT 180V280 9999 FEW030 BKN040 10/06 Q1029 RMK PP000=
SPZO Feb2004-250500Z VRB02KT 9999 OVC040 10/06 Q1028 RMK PP000=
SPZO Feb2004-250600Z 09003KT 9999 OVC040 09/06 Q1028 RMK PP000=
SPZO Feb2004-250700Z 00000KT 9999 OVC040 08/06 Q1029 RMK PP000=
SPZO Feb2004-250800Z 00000KT 9999 OVC040 08/06 Q1029 RMK PP000=
SPZO Feb2004-250900Z 00000KT 9999 BKN040 SCT070 09/06 Q1029 RMK PP000=
SPZO Feb2004-251000Z 00000KT 9999 BKN040 SCT070 09/07 Q1029 RMK PP000=
SPZO Feb2004-251100Z 08001KT 9999 SCT040 SCT100 08/06 Q1030 RMK PP000=
SPZO Feb2004-251200Z VRB02KT 9999 FEW040 SCT046 11/07 Q1031 NOSIG RMK PP000 RWY10 09005KT=
SPZO Feb2004-251300Z VRB02KT 9999 FEW040 SCT046 SCT060 13/06 Q1031 NOSIG RMK PP000 RWY10 VRB03KT=
SPZO Feb2004-251400Z VRB02KT 9999 FEW040 BKN046 14/05 Q1031 NOSIG RMK PP000 REY10 19005KT=
SPZO Feb2004-251500Z VRB04KT 9999 SCT050 16/06 Q1031 NOSIG RMK PP000 RWY10 VRB05KT=
SPZO Feb2004-251600Z VRB05KT 9999 SCT050 17/04 Q1030 NOSIG RMK PP000 RWY10 05009KT=
SPZO Feb2004-251700Z VRB05KT 9999 SCT050 19/03 Q1029 NOSIG RMK PP000 RWY10 VRB05KT=
SPZO Feb2004-251800Z VRB02KT 9999 SCT050 20/05 Q1028 NOSIG RMK PP000 RWY10 VRB04KT =
SPZO Feb2004-251900Z VRB03KT 9999 SCT050 19/03 Q1027 NOSIG RMK PP000 RWY10 VRB05KT=
SPZO Feb2004-252000Z 02008KT 340V080 9999 SCT050 20/05 Q1026 NOSIG RMK PP000 RWY10 VBR06KT=
SPZO Feb2004-252100Z 01009KT 340V080 9999 FEW060 20/03 Q1025 NOSIG RMK PP000 RWY10 03012G22KT=
SPZO Feb2004-252200Z 03009KT 350V080 9999 FEW060 19/02 Q1025 NOSIG RMK PP000 RWY10 02014G27KT TMX:20.9=
SPZO Feb2004-252300Z 06009KT 360V080 9999 FEW050 17/M04 Q1026 NOSIG RMK PP000 RWY10 04007G22KT=
SPZO Feb2004-260000Z 12006KT 9999 FEW050 14/01 Q1028 RMK PP000=
SPZO Feb2004-260100Z VRB02KT 9999 SKC 12/02 Q1029 RMK PP000=
SPZO Feb2004-260200Z VRB01KT 9999 FEW050 09/03 Q1030 RMK PP000=
SPZO Feb2004-260300Z 00000KT 9999 FEW040 08/02 Q1031 RMK PP000=
SPZO Feb2004-260400Z VRB01KT 9999 FEW040 07/03 Q1032 RMK PP000=
SPZO Feb2004-260500Z 00000KT 9999 FEW050 07/03 Q1032 RMK PP000=
SPZO Feb2004-260600Z 00000KT 9999 SKC 06/02 Q1032 RMK PP000=
SPZO Feb2004-260700Z VRB01KT 9999 SKC 05/02 Q1031 RMK PP000=
SPZO Feb2004-260800Z 00000KT 9999 SKC 05/02 Q1031 RMK PP000=
SPZO Feb2004-260900Z VRB02KT 9999 SKC 04/01 Q1031 RMK PP000=
SPZO Feb2004-261000Z 00000KT 9999 FEW040 03/02 Q1032 RMK PP000=
SPZO Feb2004-261100Z 00000KT 9999 FEW300 04/02 Q1033 RMK PP000=
SPZO Feb2004-261200Z 00000KT 9999 FEW050 04/02 Q1034 NOSIG RMK PP000=
SPZO Feb2004-261300Z 00000KT 9999 FEW060 10/04 Q1035 NOSIG RMK PP000=
SPZO Feb2004-261400Z 00000KT 9999 FEW050 14/03 Q1035 NOSIG RMK PP000=
SPZO Feb2004-261500Z VRB03KT 9999 FEW050 15/04 Q1034 NOSIG RMK PP000 RWY10 VRB03KT=
SPZO Feb2004-261600Z VRB04KT 9999 SCT050 17/04 Q1033 NOSIG RMK PP000 RWY10 VRB05KT=
SPZO Feb2004-261700Z VRB02KT 9999 SCT060 17/01 Q1033 NOSIG RMK PP000 RWY10 35008G26KT=
SPZO Feb2004-261800Z 01013KT 340V080 9999 FEW060 19/01 Q1032 NOSIG RMK PP000 RWY10 03017G33KT=
SPZO Feb2004-261900Z 02008KT 280V090 9999 FEW040 SCT300 19/01 Q1031 NOSIG RMK PP000=
SPZO Feb2004-262000Z 04006KT 350V110 9999 FEW040 19/M02 Q1029 NOSIG RMK PP000=
SPZO Feb2004-262100Z 35007KT 9999 FEW040 19/M02 Q1029 NOSIG RMK PP000=
SPZO Feb2004-262200Z 35007KT 270V080 9999 FEW040 19/M02 Q1028 TEMPO SKC RMK PP000 TMAX 20.1=
SPZO Feb2004-262300Z 01006KT 9999 SKC 18/M01 Q1028 NOSIG RMK PP000=
SPZO Feb2004-270000Z VRB02KT 9999 SKC 15/M02 Q1029 RMK PP000=
SPZO Feb2004-270100Z 04006KT 9999 FEW300 14/01 Q1031 RMK PP000=
SPZO Feb2004-270200Z VRB03KT 9999 SCT100 13/03 Q1032 RML PP000=
SPZO Feb2004-270300Z 00000KT 9999 FEW100 13/04 Q1034 RMK PP000=
SPZO Feb2004-270400Z 04006KT 9999 BKN040 SCT046 13/04 Q1034 RMK PP000=
SPZO Feb2004-270500Z 10010KT 9999 OVC040 11/06 Q1034 RMK PP000=
SPZO Feb2004-270600Z 00000KT 9999 -RA OVC040 10/07 Q1035 RMK PP006=
SPZO Feb2004-270700Z VRB03KT 9999 SCT037 SCT046 09/04 Q1033 RMK PP000=
SPZO Feb2004-270800Z VRB03KT 9999 FEW040 SCT050 09/06 Q1033 RMK PP000=
SPZO Feb2004-270900Z 00000KT 9999 FEW050 08/06 Q1033 RMK PP000=
SPZO Feb2004-271000Z VRB01KT 9999 FEW040 SCT300 08/05 Q1034 RMK PP000=
SPZO Feb2004-271100Z 00000KT 9999 FEW050 SCT300 07/05 Q1034 RMK PP000=
SPZO Feb2004-271200Z VRB01KT 9999 FEW043 SCT300 09/06 Q1035 NOSIG RMK PP000=
SPZO Feb2004-271300Z 00000KT 9999 FEW043 BKN300 12/06 Q1035 NOSIG RMK PP000=
SPZO Feb2004-271400Z VRB02KT 9999 SCT040 SCT300 14/06 Q1035 NOSIG RMK PP000=
SPZO Feb2004-271500Z VRB02KT 9999 SCT040 SCT300 16/06 Q1034 NOSIG RMK PP000=
SPZO Feb2004-271600Z 00000KT 9999 BKN043 SCT300 17/05 Q1034 NOSIG RMK PP000=
SPZO Feb2004-271700Z VRB01KT 9999 BKN043 19/04 Q1033 NODIG RMK PP000=
SPZO Feb2004-271800Z VRB02KT 9999 BKN043 SCT060 19/04 Q1032 NOSIG RMK PP000=
SPZO Feb2004-271900Z VRB03KT 9999 SCT043 SCT300 19/03 Q1030 NOSIG RMK PP000=
SPZO Feb2004-272000Z 36004KT 270V080 9999 SCT043 20/04 Q1029 NOSIG RMK PP000=
SPZO Feb2004-272100Z 32006KT 250V020 9999 SCT043 21/03 Q1028 NOSIG RMK PP000=
SPZO Feb2004-272200Z 01008KT 330V060 9999 SCT043 20/01 Q1028 NOSIG RMK PP000 TMAX 20.7=
SPZO Feb2004-272300Z 07004KT 330V120 9999 FEW047 16/06 Q1028 NOSIG RMK PP000=
SPZO Feb2004-280000Z VRB03KT 9999 SCT040 15/05 Q1030 RMK PP000=
SPZO Feb2004-280100Z 03005KT 300V100 9999 SCT040 14/05 Q1031 RMK PP000=
SPZO Feb2004-280200Z VRB02KT 9999 SCT040 13/06 Q1032 RMK PP000=
SPZO Feb2004-280300Z VRB03KT 9999 BKN040 13/06 Q1033 RMK PP000=
SPZO Feb2004-280400Z VRB02KT 9999 BKN040 12/07 Q1033 RMK PP000=
SPZO Feb2004-280500Z VRB03KT 9999 BKN040 12/07 Q1033 RMK PP000=
SPZO Feb2004-280600Z 13002KT 9999 OVC040 11/06 Q1032 RMK PP000=
SPZO Feb2004-280700Z 00000KT 9999 OVC040 11/06 Q1031 RMK PP000=
SPZO Feb2004-280800Z 00000KT 9999 OVC040 10/06 Q1031 RMK PP000=
SPZO Feb2004-280900Z 00000KT 9999 BKN040 SCT080 08/06 Q1031 RMK PP000=
SPZO Feb2004-281000Z 00000KT 9999 SCT040 SCT080 09/06 Q1031 RMK PP000=
SPZO Feb2004-281100Z 00000KT 9999 SCT040 SCT080 08/06 Q1032 RMK PP000=
SPZO Feb2004-281200Z VRB01KT 9999 SCT060 BKN100 09/08 Q1033 NOSIG RMK PP000=
SPZO Feb2004-281300Z VRB01KT 9999 FEW043 SCT100 BKN300 12/06 Q1033 NOSIG RMK PP000=
SPZO Feb2004-281400Z VRB02KT 9999 FEW043 BKN300 15/07 Q1033 NOSIG RMK PP000=
SPZO Feb2004-281500Z VRB03KT 9999 FEW043 SCT060 16/06 Q1033 NOSIG RMK PP000=
SPZO Feb2004-281600Z 00000KT 9999 SCT043 SCT060 18/05 Q1032 NOSIG RMK PP000=
SPZO Feb2004-281700Z VRB03KT 9999 SCT040 SCT050 18/04 Q1031 NOSIG
SPZO Feb2004-281800Z 05004KT 310V110 9999 FEW040 SCT050 19/04 Q1030 NOSIG RMK PP000=
SPZO Feb2004-281900Z 01012KT 320V060 9999 SCT050 20/02 Q1028 NOSIG RMK PP000 RWY10 01014G39KT=
SPZO Feb2004-282000Z 01016KT 330V070 9999 SCT050 19/03 Q1027 NOSIG RMK PP000 RWY10 01019G30KT=
SPZO Feb2004-282100Z 01015KT 320V070 9999 FEW060 19/02 Q1027 NOSIG RMK PP000 RWY10 02015G26KT=
SPZO Feb2004-282200Z 01008KT 330V070 9999 FEW060 18/01 Q1027 NOSIG RMK PP000 RWY10 02010KT TMX:20.2=
SPZO Feb2004-282300Z 03008KT 340V080 9999 SCT100 17/01 Q1027 NOSIG RMK PP000 RWY10 02014G25KT=
SPZO Feb2004-290000Z VRB04KT 9999 SCT060 15/01 Q1028 RMK PP000=
SPZO Feb2004-290100Z 10004KT 060V190 9999 SCT050 13/03 Q1029 RMK PP000=
SPZO Feb2004-290200Z 00000KT 9999 SCT040 11/03 Q1030 RMK PP000=
SPZO Feb2004-290300Z VRB03KT 9999 SCT040 09/04 Q1031 RMK PP000=
SPZO Feb2004-290400Z 00000KT 9999 SCT040 08/04 Q1031 RMK PP000=
SPZO Feb2004-290500Z 00000KT 9999 SCT040 08/04 Q1031 RMK PP000=
SPZO Feb2004-290600Z 11002KT 9999 SCT040 08/04 Q1031 RMK PP000=
SPZO Feb2004-290700Z 00000KT 9999 SCT040 08/04 Q1030 RMK PP000=
SPZO Feb2004-290800Z 00000KT 9999 SCT040 06/03 Q1030 RMK PP000=
SPZO Feb2004-290900Z 00000KT 9999 SCT040 06/03 Q1030 RMK PP000=
SPZO Feb2004-291000Z 00000KT 9999 SCT040 05/03 Q1031 RMK PP000=
SPZO Feb2004-291100Z 00000KT 9999 FEW060 05/02 Q1031 RMK PP000=
SPZO Feb2004-291200Z 09003KT 9999 SCT200 08/04 Q1032 NOSIG RMK PP000 RWY10 VRB04KT=
SPZO Feb2004-291300Z 00000KT 9999 SCT200 12/04 Q1033 NOSIG RMK PP000 RWY10 VRB04KT=
SPZO Feb2004-291400Z VRB03KT 9999 SCT200 14/05 Q1033 NOSIG RMK PP000 RWY10 VRB04KT=
SPZO Feb2004-291500Z VRB03KT 9999 BKN150 16/04 Q1032 NOSIG RMK PP000 RWY10 VRB04KT=
SPZO Feb2004-291600Z VRB03KT 9999 FEW060 BKN200 18/02 Q1031 NOSIG RMK PP000 RWY10 21009KT=
SPZO Feb2004-291700Z 11004KT 050V170 9999 FEW050 BKN200 20/02 Q1030 NOSIG RMK PP000 RWY10 VRB05KT=
SPZO Feb2004-291800Z 01013KT 320V060 9999 FEW050 BKN120 21/M04 Q1029 NOSIG RMK PP000 RWY10 02016G27KT 330V090=
SPZO Feb2004-291900Z 02013KT 350V070 9999 FEW050 BKN120 21/M04 Q1028 NOSIG RMK PP000 RWY10 05012KT=
SPZO Feb2004-292000Z 03012KT 350V060 9999 FEW050 BKN120 20/M05 Q1027 NOSIG RMK PP000 RWY10 05016G31KT=
SPZO Feb2004-292100Z 03013KT 330V070 9999 FEW050 BKN120 19/M05 Q1026 NOSIG RMK PP000 RWY10 02017G38KT=
SPZO Feb2004-292200Z VRB06KT 9999 BKN120 18/M03 Q1027 NOSIG RMK PP000 RWY10 03009KT TMX:21.7=
SPZO Feb2004-292300Z VRB03KT 9999 BKN100 16/M00 Q1028 NOSIG RMK PP000 RWY10 VRB06KT=
SPZO Mar2004-010000Z 21004KT 9999 FEW050 BKN100 15/M02 Q1029 RMK PP000=
SPZO Mar2004-010100Z VRB02KT 9999 FEW050 SCT100 13/01 Q1029 RMK PP000=
SPZO Mar2004-010200Z VRB02KT 9999 SCT100 11/02 Q1030 RMK PP000=
SPZO Mar2004-010300Z VRB03KT 9999 FEW050 09/01 Q1031 RMK PP000=
SPZO Mar2004-010400Z 00000KT 9999 FEW040 BKN100 09/02 Q1032 RMK PP000=
SPZO Mar2004-010500Z 00000KT 9999 FEW100 07/03 Q1031 RMK PP000=
SPZO Mar2004-010600Z 00000KT 9999 SKC 06/02 Q1031 RMK PP000=
SPZO Mar2004-010700Z 00000KT 9999 SKC 06/02 Q1031 RMK PP000=
SPZO Mar2004-010800Z 00000KT 9999 SKC 05/02 Q1031 RMK PP000=
SPZO Mar2004-010900Z 00000KT 9999 SKC 05/02 Q1031 RMK PP000=
SPZO Mar2004-011000Z 00000KT 9999 FEW040 SCT100 05/02 Q1032 RMK PP000=
SPZO Mar2004-011100Z 00000KT 9999 SCT050 SCT100 04/02 Q1032 RMK PP000=
SPZO Mar2004-011200Z 09002KT 9999 BKN110 07/03 Q1034 NOSIG RMK PP000=
SPZO Mar2004-011300Z 00000KT 9999 BKN150 11/03 Q1034 NOSIG RMK PP000 RWY10 VRB03KT=
SPZO Mar2004-011400Z VRB03KT 9999 BKN200 14/04 Q1034 NOSIG RMK PP000=
SPZO Mar2004-011500Z VRB02KT 9999 SCT200 17/05 Q1034 NOSIG RMK PP000 RWY10 VRB04KT=
SPZO Mar2004-011600Z VRB03KT 9999 FEW120 SCT200 18/01 Q1033 NOSIG RMK PP000 RWY10 VRB05KT=
SPZO Mar2004-011700Z VRB02KT 9999 BKN200 20/01 Q1032 NOSIG RMK PP000 RWY10 VRB07KT=
SPZO Mar2004-011800Z VRB03KT 9999 FEW060 BKN150 22/01 Q1030 NOSIG RMK PP000 RWY10 VRB05KT=
SPZO Mar2004-011900Z VRB04KT 9999 FEW043 BKN300 21/M02 Q1029 NOSIG RMK PP000=
SPZO Mar2004-012000Z 01008KT 330V070 9999 SCT043 SCT300 22/M05 Q1028 NOSIG RMK PP000=
SPZO Mar2004-012100Z 01009KT 320V040 9999 FEW043 SCT100 20/M00 Q1027 NOSIG RMK PP000=
SPZO Mar2004-012200Z 36007KT 320V050 9999 FEW043 BKN100 19/02 Q1027 NOSIG RMK PP000 TMAX 22.6=
SPZO Mar2004-012300Z 01007KT 340V070 9999 FEW043 BKN300 18/02 Q1028 NOSIG RMK PP000=
SPZO Mar2004-020000Z 00000KT 9999 SCT040 SCT100 17/04 Q1029 RMK PP000=
SPZO Mar2004-020100Z 09005KT 9999 FEW040 SCT100 15/06 Q1030 RMK PP000=
SPZO Mar2004-020200Z VRB03KT 9999 FEW300 14/06 Q1032 RMK PP000=
SPZO Mar2004-020300Z 06004KT 9999 SCT100 12/07 Q1033 RMK PP000=
SPZO Mar2004-020400Z 00000KT 9999 SCT100 11/06 Q1033 RMK PP000=
SPZO Mar2004-020500Z 00000KT 9999 SCT080 10/07 Q1033 RMK PP000=
SPZO Mar2004-020600Z 00000KT 9999 SCT040 SCT100 08/06 Q1032 RMK PP000=
SPZO Mar2004-020700Z VRB02KT 9999 SCT040 SCT080 09/06 Q1031 RMK PP000=
SPZO Mar2004-020800Z 00000KT 9999 SCT040 08/06 Q1031 RMK PP000=
SPZO Mar2004-020900Z VRB02KT 9999 FEW050 08/05 Q1031 RMK PP000=
SPZO Mar2004-021000Z 00000KT 9999 FEW050 SCT300 08/06 Q1031 RMK PP000=
SPZO Mar2004-021100Z 00000KT 9999 FEW050 SCT300 08/06 Q1032 RMK PP000=
SPZO Mar2004-021200Z VRB01KT 8000 SCT300 09/06 Q1033 TEMPO 9999 RMK PP000=
SPZO Mar2004-021300Z VRB01KT 9999 FEW100 SCT300 10/07 Q1034 NOSIG RMK PP000=
SPZO Mar2004-021400Z 00000KT 9999 BKN100 11/07 Q1034 NOSIG RMK PP000=
SPZO Mar2004-021500Z VRB03KT 9999 FEW043 BKN100 14/07 Q1034 NOSIG RMK PP000=
SPZO Mar2004-021600Z VRB02KT 9999 SCT043 SCT300 18/07 Q1033 NOSIG RMK PP000=
SPZO Mar2004-021700Z VRB03KT 9999 SCT043 SCT300 20/07 Q1032 NOSIG RMK PP000=
SPZO Mar2004-021800Z VRB03KT 9999 BKN043 21/05 Q1030 NOSIG RMK PP000=
SPZO Mar2004-021900Z VRB03KT 9999 BKN043 SCT300 22/05 Q1028 NOSIG RMK PP000=
SPZO Mar2004-022100Z VRB03KT 9999 VCSH FEW043 SCT047CB BKN100 19/04 Q1028 NOSIG RMK PP000=
SPZO Mar2004-022200Z 12016KT 090V150 9999 SCT043 BKN080 15/05 Q1029 NOSIG RMK PP000 TMAX 22.8=
SPZO Mar2004-022300Z 33005KT 250V050 9999 SCT043 BKN100 15/04 Q1029 NOSIG RMK PP000=
SPZO Mar2004-030000Z 28006KT 230V320 9999 BKN050 14/04 Q1029 RMK PP000=
SPZO Mar2004-030100Z 11005KT 9999 BKN050 13/04 Q1031 RMK PP000=
SPZO Mar2004-030200Z VRB02KT 9999 BKN050 12/05 Q1032 RMK PP000=
SPZO Mar2004-030300Z 29004KT 9999 BKN050 11/05 Q1032 RMK PP000=
SPZO Mar2004-030400Z 00000KT 9999 BKN050 10/05 Q1032 RMK PP000=
SPZO Mar2004-030500Z 00000KT 9999 BKN050 10/05 Q1032 RMK PP000=
SPZO Mar2004-030600Z VRB01KT 9999 BKN050 09/05 Q1032 RMK PP000=
SPZO Mar2004-030700Z VRB02KT 9999 BKN050 08/05 Q1031 RMK PP000=
SPZO Mar2004-030800Z 00000KT 9999 BKN050 07/04 Q1031 RMK PP000=
SPZO Mar2004-030900Z VRB02KT 9999 BKN050 07/04 Q1031 RMK PP000=
SPZO Mar2004-031000Z 00000KT 9999 SCT050 07/04 Q1031 RMK PP000=
SPZO Mar2004-031100Z 00000KT 9999 SCT050 06/04 Q1031 RMK PP000=
SPZO Mar2004-031200Z VRB01KT 9000 SCT300 07/04 Q1033 TEMPO 9999 RMK HZ PP000=
SPZO Mar2004-031300Z VRB02KT 9999 BKN300 11/06 Q1033 NOSIG RMK PP000=
SPZO Mar2004-031400Z VRB02KT 9999 FEW043 BKN300 14/05 Q1034 NOSIG RMK PP000=
SPZO Mar2004-031500Z VRB02KT 9999 FEW043 BKN300 16/05 Q1033 NOSIG RMK PP000=
SPZO Mar2004-031600Z VRB03KT 9999 SCT043 BKN300 19/06 Q1032 NOSIG RMK PP000=
SPZO Mar2004-031700Z VRB03KT 9999 FEW040 BKN043 19/03 Q1031 NOSIG RMK PP000=
SPZO Mar2004-031800Z VRB06KT 9999 SCT043 BKN300 20/04 Q1030 NOSIG RMK PP000=
SPZO Mar2004-031900Z 05012KT 350V090 9999 SCT046 BKN090 18/04 Q1029 TEMPO VCSH RWY10 05021G35=
SPZO Mar2004-032000Z VRB07KT 9999 FEW046 BKN100 20/03 Q1028 NOSIG RMK PP000 RWY10 06010KT=
SPZO Mar2004-032100Z 11011KT 070V150 9999 FEW046 BKN120 19/03 Q1027 NOSIG RMK PP000 RWY10 12022G32KT=
SPZO Mar2004-032200Z 11006KT 070V150 9999 FEW046 BKN120 18/04 Q1027 NOSIG RMK PP000 RWY10 11012KT TMX:20.9=
SPZO Mar2004-032300Z 10003KT 9999 FEW046 BKN100 16/04 Q1028 NOSIG RMK PP000 RWY10 10008KT=
SPZO Mar2004-040000Z 26004KT 230V300 9999 SCT050 SCT070 15/06 Q1029 RMK PP000=
SPZO Mar2004-040100Z 26004KT 230V310 9999 SCT050 SCT070 14/06 Q1031 RMK PP000=
SPZO Mar2004-040200Z 00000KT 9999 BKN050 12/07 Q1032 RMK PP000=
SPZO Mar2004-040300Z 00000KT 9999 BKN050 11/06 Q1033 RMK PP000=
SPZO Mar2004-040400Z 00000KT 9999 BKN050 10/05 Q1033 RMK PP000=
SPZO Mar2004-040500Z 00000KT 9999 BKN050 10/05 Q1033 RMK PP000=
SPZO Mar2004-040600Z 00000KT 9999 SCT050 09/05 Q1032 RMK PP000=
SPZO Mar2004-040700Z VRB01KT 9999 SCT050 09/05 Q1031 RMK PP000=
SPZO Mar2004-040800Z 28002KT 9999 SCT050 08/05 Q1030 RMK PP000=
SPZO Mar2004-040900Z 00000KT 9999 SCT050 08/05 Q1030 RMK PP000=
SPZO Mar2004-041000Z 00000KT 9999 SCT050 09/05 Q1031 RMK PP000=
SPZO Mar2004-041100Z 08003KT 9999 SCT050 08/05 Q1031 RMK PP000=
SPZO Mar2004-041200Z 00000KT 9999 SCT043 BKN100 09/06 Q1032 NOSIG RMK PP000=
SPZO Mar2004-041300Z 09002KT 9999 SCT043 BKN100 10/06 Q1033 NOSIG RMK PP000 RWY10 10005KT=
SPZO Mar2004-041400Z VRB03KT 9999 SCT040 OVC100 12/06 Q1033 NOSIG RMK PP000 RWY10 VRB03KT=
SPZO Mar2004-041500Z VRB02KT 9999 SCT040 BKN090 15/07 Q1032 NOSIG RMK PP000 RWY10 VRB06KT=
SPZO Mar2004-041600Z VRB02KT 9999 SCT043 BKN100 17/06 Q1032 NOSIG RMK PP000 RWY10 VRB06KT=
SPZO Mar2004-041700Z VRB03KT 9999 SCT043 BKN100 18/05 Q1031 NOSIG RMK PP000 RWY10 VRB04KT=
SPZO Mar2004-041800Z VRB03KT 9999 SCT043 BKN100 18/06 Q1029 NOSIG RMK PP000 RWY10 33008KT=
SPZO Mar2004-041900Z 28007KT 9999 BKN046 19/07 Q1028 NOSIG RMK PP000 RWY10 31012KT=
SPZO Mar2004-042000Z 15010KT 080V200 9999 -TSRA SCT043TCU BKN050 11/07 Q1029 NOSIG RMK PP020 RWY10 17012KT=
SPZO Mar2004-042100Z 29004KT 9999 RA BKN043 SCT050 10/08 Q1029 NOSIG RMK PP020 RWY10 26006KT RWY WET=
SPZO Mar2004-042200Z 00000KT 9000 VCRA SCT040 BKN046 10/08 Q1030 TEMPO RA RMK PP008 RWY10 VRB03KT TMX:19.3=
SPZO Mar2004-042300Z 00000KT 9999 SCT043 SCT060 11/07 Q1030 RMK PP006=
SPZO Mar2004-050000Z VRB02KT 9999 BKN040 SCT050 11/08 Q1031 RMK PP000=
SPZO Mar2004-050100Z 00000KT 9999 SCT037 SCT046 11/08 Q1032 RMK PP000=
SPZO Mar2004-050200Z VRB02KT 9999 SCT037 SCT046 11/06 Q1033 RMK PP000=
SPZO Mar2004-050300Z VRB03KT 9999 SCT037 SCT046 11/07 Q1033 RMK PP000=
SPZO Mar2004-050400Z VRB02KT 9999 BKN040 SCT046 10/07 Q1033 RMK PP000=
SPZO Mar2004-050500Z 00000KT 9999 OVC043 10/07 Q1033 RMK PP000=
SPZO Mar2004-050600Z 00000KT 9999 OVC043 09/07 Q1033 RMK PP000=
SPZO Mar2004-050700Z VRB02KT 9999 BKN040 SCT050 09/07 Q1032 RMK PP000=
SPZO Mar2004-050800Z VRB02KT 9999 BKN040 SCT050 09/07 Q1032 RMK PP000=
SPZO Mar2004-050900Z 00000KT 9999 SCT040 SCT050 09/07 Q1032 RMK PP000=
SPZO Mar2004-051000Z VRB02KT 9999 SCT037 SCT070 08/07 Q1032 RMK PP000=
SPZO Mar2004-051100Z VRB01KT 9999 FEW025 SCT040 BKN070 08/07 Q1033 RMK PP000=
SPZO Mar2004-051200Z VRB02KT 9999 FEW030 SCT040 SCT050 09/07 Q1033 NOSIG RMK PP000 BCFG NE/E=
SPZO Mar2004-051300Z VRB03KT 9999 FEW030 SCT040 SCT050 11/08 Q1034 NOSIG RMK PP000 BCFG NE/E=
SPZO Mar2004-051400Z VRB02KT 9999 FEW033 SCT043 BKN060 13/08 Q1034 NOSIG RMK PP000 RWY10 VRB03KT=
SPZO Mar2004-051500Z VRB03KT 9999 SCT040 SCT200 15/06 Q1034 NOSIG RMK PP000 RWY10 VRB05KT=
SPZO Mar2004-051600Z VRB03KT 9999 SCT040 SCT200 17/08 Q1034 NOSIG RMK PP000 RWY10 24007KT=
SPZO Mar2004-051700Z VRB02KT 9999 FEW040 SCT120 18/04 Q1033 NOSIG RMK PP000 RWY10 VRB07KT=
SPZO Mar2004-051800Z VRB04KT 9999 SCT043 SCT100 19/06 Q1031 NOSIG RMK PP000 RWY10 VRB04KT=
SPZO Mar2004-051900Z VRB05KT 9999 BKN043 20/05 Q1029 NOSIG RMK PP000=
SPZO Mar2004-052000Z VRB03KT 9999 BKN043 21/06 Q1028 NOSIG RMK PP000=
SPZO Mar2004-052100Z 13004KT 080V200 9999 BKN043 21/05 Q1027 NOSIG RMK PP000=
SPZO Mar2004-052200Z 18016KT 090V260 9999 SHRA SCT043TCU SCT047 14/06 Q1027 TEMPO NSW RMK PP016 TMAX 21.9=
SPZO Mar2004-052300Z VRB03KT 9999 SCT040 SCT100 14/08 Q1028 NOSIG RMK PPTRZ=
SPZO Mar2004-060000Z VRB01KT 9999 SCT040 SCT300 13/09 Q1029 RMK PP000=
SPZO Mar2004-060100Z 10004KT 9999 FEW050 12/08 Q1030 RMK PP000=
SPZO Mar2004-060200Z 00000KT 9999 FEW040 SCT060 12/08 Q1032 RMK PP000=
SPZO Mar2004-060300Z VRB03KT 9999 FEW040 SCT050 11/08 Q1033 RMK PP000=
SPZO Mar2004-060400Z 00000KT 9999 SCT050 12/08 Q1033 RMK PP000=
SPZO Mar2004-060500Z 00000KT 9999 FEW040 SCT050 11/08 Q1033 RMK PP000=
SPZO Mar2004-060600Z 00000KT 9999 SCT040 SCT050 11/09 Q1032 RMK PP000=
SPZO Mar2004-060700Z 00000KT 9999 SCT040 SCT050 11/09 Q1032 RMK PP000=
SPZO Mar2004-060800Z 00000KT 9999 BKN040 10/08 Q1031 RMK PP000=
SPZO Mar2004-060900Z VRB02KT 9999 BKN040 SCT050 10/08 Q1031 RMK PP000=
SPZO Mar2004-061000Z VRB01KT 9999 SCT040 SCT050 09/07 Q1031 RMK PP000=
SPZO Mar2004-061100Z 00000KT 9999 SCT040 08/07 Q1032 RMK PP000=
SPZO Mar2004-061200Z VRB02KT 9000 SCT040 09/07 Q1033 TEMPO 9999 RMK PP000=
SPZO Mar2004-061300Z VRB02KT 9999 SCT043 12/08 Q1033 NOSIG RMK PP000=
SPZO Mar2004-061400Z VRB02KT 9999 SCT043 15/09 Q1033 NOSIG RMK PP000=
SPZO Mar2004-061500Z VRB02KT 9999 SCT043 17/04 Q1032 NOSIG RMK PP000=
SPZO Mar2004-061600Z VRB03KT 9999 SCT043 19/06 Q1032 NOSIG RMK PP000=
SPZO Mar2004-061700Z VRB02KT 9999 FEW040 SCT047 20/04 Q1030 NOSIG RMK PP000=
SPZO Mar2004-061800Z 03008KT 320V080 9999 FEW040 SCT047 20/03 Q1029 NOSIG RMK PP000=
SPZO Mar2004-061900Z 36012KT 300V050 9999 FEW043 21/03 Q1028 NOSIG
SPZO Mar2004-062000Z 02012KT 340V070 9999 FEW043 21/03 Q1026 NOSIG RMK PP000=
SPZO Mar2004-062100Z VRB05KT 9999 FEW043 SCT060 20/03 Q1026 NOSIG RMK PP000=
SPZO Mar2004-062200Z VRB03KT 9999 BKN043 18/04 Q1026 NOSIG RMK PP000 TMAX 21.6=
SPZO Mar2004-062300Z 02005KT 330V070 9999 FEW040 17/05 Q1027 NOSIG
SPZO Mar2004-070000Z 01011KT 340V050 9999 SCT040 15/04 Q1028 RMK PP000=
SPZO Mar2004-070100Z 13005KT 090V180 9999 SCT040 14/05 Q1030 RMK PP000=
SPZO Mar2004-070200Z VRB02KT 9999 SCT040 13/06 Q1031 RMK PP000=
SPZO Mar2004-070300Z VRB02KT 9999 BKN040 13/07 Q1032 RMK PP000=
SPZO Mar2004-070400Z 00000KT 9999 BKN040 13/07 Q1032 RMK PP000=
SPZO Mar2004-070500Z VRB03KT 9999 BKN040 13/05 Q1032 RMK PP000=
SPZO Mar2004-070600Z VRB02KT 9999 BKN040 12/05 Q1031 RMK PP000=
SPZO Mar2004-070700Z VRB02KT 9999 BKN040 11/06 Q1031 RMK PP000=
SPZO Mar2004-070800Z 01007KT 330V060 7000 -DZ OVC040 10/05 Q1032 RMK PP002=
SPZO Mar2004-070900Z 07004KT 050V110 7000 RA SCT030 SCT040 07/06 Q1033 RMK PP042=
SPZO Mar2004-071000Z 33007KT 290V030 8000 SCT030 BKN040 08/05 Q1032 RERA RMK PP004=
SPZO Mar2004-071100Z VRB02KT 9000 FEW030 SCT040 BKN070 09/06 Q1032 RMK PP000=
SPZO Mar2004-071200Z 10006KT 9999 SCT060 BKN080 09/06 Q1033 NOSIG RMK PP000=
SPZO Mar2004-071300Z VRB01KT 9999 SCT047 BKN080 10/07 Q1034 NOSIG RMK PP000=
SPZO Mar2004-071400Z 00000KT 9999 FEW043 BKN080 12/06 Q1034 NOSIG RMK PP000=
SPZO Mar2004-071500Z VRB02KT 9999 FEW043 BKN080 14/05 Q1033 NOSIG RMK PP000=
SPZO Mar2004-071600Z 31004KT 250V040 9999 SCT043 BKN300 16/07 Q1032 NOSIG RMK PP000=
SPZO Mar2004-071700Z VRB02KT 9999 SCT043 BKN300 18/06 Q1031 NOSIG RMK PP000=
SPZO Mar2004-071800Z VRB03KT 9999 SCT043 SCT080 BKN300 18/04 Q1030 NOSIG RMK PP000=
SPZO Mar2004-071900Z VRB03KT 9999 FEW046 BKN100 19/04 Q1029 NOSIG RMK PP000 RWY10 VRB06KT=
SPZO Mar2004-072000Z 26005KT 160V300 9999 FEW046 SCT100 20/04 Q1027 NOSIG RMK PP000 RWY10 VRB06KT=
SPZO Mar2004-072100Z 05007KT 320V100 9999 SCT050 19/03 Q1026 NOSIG RMK PP000 RWY10 05012KT 330V100=
SPZO Mar2004-072200Z 05004KT 350V100 9999 FEW040TCU SCT046 20/02 Q1026 TEMPO VCSH RMK PP000 RWY10 03013KT TMX:20.5 =
SPZO Mar2004-072300Z 12009KT 080V160 9999 BKN046 15/04 Q1028 NOSIG RMK PP000 RWY10 23021KT=
SPZO Mar2004-080000Z VRB02KT 9999 BKN050 13/04 Q1029 RMK PP000=
SPZO Mar2004-080100Z VRB02KT 9999 BKN050 12/06 Q1029 RMK PP000=
SPZO Mar2004-080200Z VRB02KT 9999 BKN050 12/07 Q1030 RMK PP000=
SPZO Mar2004-080300Z 10004KT 060V140 9999 OVC050 11/07 Q1032 RMK PP000=
SPZO Mar2004-080400Z VRB01KT 9999 OVC050 11/06 Q1031 RMK PP000=
SPZO Mar2004-080500Z 24003KT 9999 OVC050 12/06 Q1031 RMK PP000=
SPZO Mar2004-080600Z VRB02KT 9999 OVC050 11/07 Q1031 RMK PP000=
SPZO Mar2004-080700Z 10005KT 9999 OVC050 11/08 Q1031 RMK PP000=
SPZO Mar2004-080800Z VRB03KT 7000 RA SCT040 BKN050 10/07 Q1031 RMK PP014=
SPZO Mar2004-080900Z 11010KT 080V150 7000 RA SCT040 BKN050 09/07 Q1031 RMK PP012=
SPZO Mar2004-081000Z 07005KT 020V100 7000 RA SCT040 BKN050 08/06 Q1032 RMK PP018=
SPZO Mar2004-081100Z 00000KT 5000 RA BKN030 SCT040 07/06 Q1033 RMK PP026 CLNG BLW 1200M=
SPZO Mar2004-081200Z 12005KT 210V280 8000 RERA FEW020 SCT036 BKN046 08/05 Q1034 FM13 SCT036 BKN050 RMK PP008 RWY10
SPZO Mar2004-081300Z VRB02KT 9999 FEW030 BKN060 10/05 Q1034 NOSIG RMK PP000 RWY10 VRB04KT RWY WET BCFG CDTE E=
SPZO Mar2004-081400Z VRB02KT 9999 FEW040 SCT050 13/07 Q1034 NOSIG RMK PP000=
SPZO Mar2004-081500Z 09005KT 050V140 9999 FEW036 BKN050 13/05 Q1034 NOSIG RMK PP000 RWY10 08008KT=
SPZO Mar2004-081600Z VRB04KT 9999 FEW040 BKN050 14/05 Q1033 NOSIG RMK PP000 RWY10 11008KT 040V180=
SPZO Mar2004-081700Z VRB03KT 9999 SCT050 16/03 Q1032 NOSIG RMK PP000 RWY10 VRB03KT=
SPZO Mar2004-081800Z VRB03KT 9999 BKN050 19/06 Q1030 NOSIG RMK PP000 RWY10 VRB03KT=
SPZO Mar2004-081900Z 02010KT 340V080 9999 FEW040TCU BKN050 17/06 Q1029 TEMPO RA RMK PP000 RWY10 01016G28KT=
SPZO Mar2004-082000Z 33008KT 260V050 9999 SCT050 18/07 Q1028 NOSIG RMK PP000 RWY10 21008KT=
SPZO Mar2004-082100Z 01009KT 320V040 9999 BKN046 18/04 Q1027 NOSIG RMK PP000 RWY10 03012G24KT=
SPZO Mar2004-082200Z 32006KT 250V020 9999 BKN050 15/06 Q1027 NOSIG RMK PP000 RWY10 27016KT RA HRZTE W TMX:18.9=
SPZO Mar2004-082300Z 26006KT 9999 SCT046 SCT100 14/05 Q1028 NOSIG RMK PP000 REY10 VRB04KT=
SPZO Mar2004-090000Z VRB02KT 9999 SCT040 SCT050 14/07 Q1029 RMK PP000=
SPZO Mar2004-090100Z VRB01KT 9999 SCT040 SCT060 13/08 Q1030 RMK PP000=
SPZO Mar2004-090200Z 00000KT 9999 SCT040 SCT060 13/07 Q1031 RMK PP000=
SPZO Mar2004-090300Z 22004KT 9999 SCT040 SCT050 13/06 Q1032 RMK PP000=
SPZO Mar2004-090400Z 04007KT 9999 -RA BKN040 SCT050 12/08 Q1032 RMK PP006=
SPZO Mar2004-090500Z 00000KT 9000 RA BKN037 SCT046 09/07 Q1032 RMK PP026=
SPZO Mar2004-090600Z 00000KT 9999 SCT037 SCT050 09/07 Q1031 RMK PPTRZ=
SPZO Mar2004-090700Z 00000KT 9999 OVC040 09/08 Q1030 RMK PP002=
SPZO Mar2004-090800Z 00000KT 9999 OVC043 09/07 Q1030 RMK PP000=
SPZO Mar2004-090900Z 00000KT 9999 BKN040 SCT050 09/08 Q1030 RMK PP000=
SPZO Mar2004-091000Z VRB01KT 9999 FEW030 SCT040 BKN050 09/08 Q1030 RMK PP000=
SPZO Mar2004-091100Z VRB02KT 9999 BKN040 SCT050 10/08 Q1031 RMK PP000=
SPZO Mar2004-091200Z 08002KT 9999 -DZ SCT040 BKN046 10/08 Q1032 NOSIG RMK PP000 RWY WET=
SPZO Mar2004-091300Z 00000KT 9999 REDZ FEW036 SCT040 BKN046 11/08 Q1033 NOSIG RMK PP004 RWY WET=
SPZO Mar2004-091400Z VRB02KT 9999 FEW030 SCT040 BKN046 12/09 Q1033 NOSIG RMK PP000 RWY10 32010KT=
SPZO Mar2004-091500Z 27007KT 230V310 9999 FEW033 SCT040 BKN060 14/08 Q1033 NOSIG RMK PP000 RWY10 29010KT=
SPZO Mar2004-091600Z 35007KT 310V020 9999 SCT040 BKN050 14/06 Q1033 NOSIG RMK PP000 RWY10 VRB09KT=
SPZO Mar2004-091700Z 02006KT 340V080 9999 SCT040 BKN050 14/06 Q1033 NOSIG RMK PP000 RWY10 01013G32KT=
SPZO Mar2004-091800Z 01010KT 330V070 9999 FEW040 OVC050 13/05 Q1032 NOSIG RMK PP000 RWY10 35011KT=
SPZO Mar2004-091900Z 36008KT 310V050 9999 SCT043 SCT080 OVC100 14/06 Q1031 NOSIG RMK PP000=
SPZO Mar2004-092000Z 01010KT 330V050 9999 -RA SCT043 SCT080 OVC100 14/05 Q1031 TEMPO NSW RMK PP000=
SPZO Mar2004-092100Z 35009KT 310V020 9999 FEW040 SCT060 BKN100 14/05 Q1030 NOSIG RMK PPTRZ=
SPZO Mar2004-092200Z VRB01KT 9999 SCT040 BKN060 14/05 Q1030 NOSIG RMK PP000 TMAX 15.4=
SPZO Mar2004-092300Z VRB01KT 9999 SCT040 SCT060 13/05 Q1030 NOSIG RMK PP000=
SPZO Mar2004-100000Z VRB02KT 9999 SCT040 SCT050 12/06 Q1031 RMK PP000=
SPZO Mar2004-100100Z VRB02KT 9999 FEW040 SCT060 11/06 Q1032 RMK PP000=
SPZO Mar2004-100200Z 00000KT 9999 FEW050 SCT300 10/06 Q1033 RMK PP000=
SPZO Mar2004-100300Z 00000KT 9999 SCT050 09/06 Q1034 RMK PP000=
SPZO Mar2004-100400Z 00000KT 9999 SCT040 09/06 Q1034 RMK PP000=
SPZO Mar2004-100500Z 00000KT 9999 SCT050 08/06 Q1034 RMK PP000=
SPZO Mar2004-100600Z 00000KT 9999 SCT050 07/06 Q1034 RMK PP000=
SPZO Mar2004-100700Z 00000KT 9999 SCT050 07/05 Q1033 RMK PP000=
SPZO Mar2004-100800Z 00000KT 9999 SCT050 06/05 Q1033 RMK PP000=
SPZO Mar2004-100900Z 00000KT 9999 FEW050 06/04 Q1033 RMK PP000=
SPZO Mar2004-101000Z 00000KT 9999 FEW050 SCT300 05/04 Q1033 RMK PP000=
SPZO Mar2004-101100Z 00000KT 9999 FEW040 SCT300 05/04 Q1034 RMK PP000=
SPZO Mar2004-101200Z 00000KT 8000 FEW043 06/05 Q1035 TEMPO 9000E RMK BR PP000=
SPZO Mar2004-101300Z 00000KT 9999 FEW043 11/07 Q1035 NOSIG RMK PP000=
SPZO Mar2004-101400Z VRB02KT 9999 SCT043 13/06 Q1035 NOSIG RMK PP000=
SPZO Mar2004-101500Z 09004KT 070V170 9999 SCT043 SCT060 13/07 Q1035 NOSIG RMK PP000=
SPZO Mar2004-101600Z VRB03KT 9999 SCT043 SCT060 17/06 Q1034 NOSIG RMK PP000=
SPZO Mar2004-101700Z VRB06KT 9999 SCT043 SCT060 18/04 Q1034 NOSIG RMK PP000=
SPZO Mar2004-101800Z 06007KT 350V110 9999 FEW043 SCT060 19/07 Q1033 NOSIG RMK PP000=
SPZO Mar2004-101900Z 08008KT 350V120 9999 FEW040 SCT060 18/04 Q1031 NOSIG RMK PP000=
SPZO Mar2004-102000Z 03011KT 340V070 9999 SCT043 19/03 Q1030 NOSIG RMK PP000=
SPZO Mar2004-102100Z 02010KT 330V050 9999 FEW040 SCT060 19/04 Q1029 NOSIG RMK PP000=
SPZO Mar2004-102200Z 01008KT 320V070 9999 SCT043 18/04 Q1029 NOSIG RMK PP000 TMAX 20.0=
SPZO Mar2004-102300Z 02008KT 330V070 9999 FEW043 16/04 Q1029 NOSIG RMK PP000=
SPZO Mar2004-110000Z 28009KT 9999 SCT050 14/05 Q1031 RMK PP000=
SPZO Mar2004-110100Z VRB02KT 9999 SCT050 13/06 Q1032 RMK PP000=
SPZO Mar2004-110200Z 00000KT 9999 SCT050 12/06 Q1033 RMK PP000=
SPZO Mar2004-110300Z VRB01KT 9999 SCT050 11/06 Q1034 RMK PP000=
SPZO Mar2004-110400Z 00000KT 9999 SCT050 10/06 Q1034 RMK PP000=
SPZO Mar2004-110500Z VRB01KT 9999 SCT050 10/06 Q1034 RMK PP000=
SPZO Mar2004-110600Z 00000KT 9999 SCT050 09/06 Q1034 RMK PP000=
SPZO Mar2004-110700Z 00000KT 9999 SCT050 08/05 Q1033 RMK PP000=
SPZO Mar2004-110800Z 00000KT 9999 SCT050 07/05 Q1033 RMK PP000=
SPZO Mar2004-110900Z 00000KT 9999 SCT050 08/05 Q1033 RMK PP000=
SPZO Mar2004-111000Z 11002KT 9999 SCT050 SCT100 07/05 Q1033 RMK PP000=
SPZO Mar2004-111100Z 10001KT 9999 SCT050 SCT150 07/06 Q1034 RMK PP000=
SPZO Mar2004-111200Z 00000KT 9999 SCT043 BKN100 09/06 Q1035 NOSIG RMK PP000=
SPZO Mar2004-111300Z 00000KT 9999 FEW040 SCT047 BKN060 11/07 Q1035 NOSIG RMK PP000=
SPZO Mar2004-111400Z VRB03KT 9999 SCT040 14/06 Q1035 NOSIG RMK PP000=
SPZO Mar2004-111500Z VRB02KT 9999 FEW040 SCT043 16/06 Q1034 NOSIG RMK PP000=
SPZO Mar2004-111600Z VRB02KT 9999 SCT043 SCT060 16/05 Q1034 NOSIG RMK PP000=
SPZO Mar2004-111700Z VRB03KT 9999 FEW043 SCT080 19/08 Q1032 NOSIG RMK PP000=
SPZO Mar2004-111800Z VRB05KT 9999 FEW040 SCT047 20/04 Q1031 NOSIG RMK PP000=
SPZO Mar2004-111900Z VRB05KT 9999 BKN050 21/07 Q1029 NOSIG RMK PP000 RWY10 17005KT=
SPZO Mar2004-112000Z VRB06KT 9999 FEW043TCU BKN050 20/06 Q1027 TEMPO VCSH RMK PP000 RWY10 03013KT=
SPZO Mar2004-112100Z 14008KT 080V190 9999 BKN050 17/05 Q1028 NOSIG RMK PP000 RWY10 28016KT=
SPZO Mar2004-112200Z 32008KT 280V030 9999 FEW046 BKN060 16/07 Q1028 NOSIG RMK PP000 RWY10 30014KT TMX:22.4=
SPZO Mar2004-112300Z 31008KT 290V350 9999 FEW043 SCT100 15/07 Q1029 NOSIG RMK PP000 RWY10 32009KT=
SPZO Mar2004-120000Z VRB02KT 9999 SCT050 SCT100 14/07 Q1030 RMK PP000=
SPZO Mar2004-120100Z VRB03KT 9999 BKN050 12/07 Q1031 RMK PP000=
SPZO Mar2004-120200Z VRB01KT 9999 BKN050 10/07 Q1032 RMK PP000=
SPZO Mar2004-120300Z 00000KT 9999 BKN050 12/07 Q1032 RMK PP000=
SPZO Mar2004-120400Z VRB02KT 9999 BKN050 11/08 Q1032 RMK PP000=
SPZO Mar2004-120500Z 00000KT 9999 BKN050 11/08 Q1032 RMK PP000=
SPZO Mar2004-120600Z 00000KT 9999 BKN050 11/08 Q1031 RMK PP000=
SPZO Mar2004-120700Z 10002KT 9999 BKN050 11/08 Q1031 RMK PP000=
SPZO Mar2004-120800Z 09003KT 9999 BKN050 11/08 Q1030 RMK PP000=
SPZO Mar2004-120900Z 10004KT 9999 SCT050 SCT070 10/08 Q1030 RMK PP000=
SPZO Mar2004-121000Z 11004KT 9999 SCT050 SCT070 10/08 Q1030 RMK PP000=
SPZO Mar2004-121100Z 11002KT 9999 SCT040 SCT050 BKN070 10/07 Q1031 RMK PP000=
SPZO Mar2004-121200Z 10006KT 070V140 9999 FEW030 SCT036 BKN046 10/07 Q1032 NOSIG RMK PP000 RA CDTE E=
SPZO Mar2004-121300Z 11010KT 9000 -RA FEW030 SCT036 BKN043 10/07 Q1033 NOSIG RMK PP002 RWY10 07010KT CLNG BLW 1200M RWY WET=
SPZO Mar2004-121400Z VRB03KT 9999 -DZ FEW036 SCT040 BKN046 10/07 Q1034 NOSIG RMK PP002 RWY WET RA CDTE NE/E=
SPZO Mar2004-121500Z 11004KT 060V140 9999 REDZ FEW025 SCT040 BKN046 10/07 Q1034 NOSIG RMK PP000 RWY WET RWY10 10007KT=
SPZO Mar2004-121600Z VRB03KT 9999 FEW025 SCT040 BKN050 13/07 Q1033 NOSIG RMK PP000=
SPZO Mar2004-121700Z 26006KT 9999 SCT040 SCT050 15/07 Q1032 NOSIG RMK PP000 RWY10 VRB04KT=
SPZO Mar2004-121800Z VRB04KT 9999 FEW040 BKN090 18/06 Q1030 NOSIG RMK PP000 RWY10 05009KT=
SPZO Mar2004-121900Z VRB05KT 9999 FEW046 SCT120 19/05 Q1028 NOSIG RMK PP000 RWY10 05009KT=
SPZO Mar2004-122000Z 35008KT 270V080 9999 FEW050 19/05 Q1027 NOSIG RMK PP000 RWY10 36010G20KT=
SPZO Mar2004-122100Z 33006KT 260V030 9999 FEW060 19/04 Q1025 NOSIG RMK PP000 RWY10 VRB05KT=
SPZO Mar2004-122200Z 33006KT 250V010 9999 FEW060 19/06 Q1025 NOSIG RMK PP000 RWY10 28015KT TMX:19.8=
SPZO Mar2004-122300Z 26007KT 9999 FEW060 17/06 Q1026 NOSIG RMK PP000 RWY10 28013KT=
SPZO Mar2004-130000Z 28006KT 9999 FEW050 14/06 Q1027 RMK PP000=
SPZO Mar2004-130100Z 28009KT 9999 FEW050 13/07 Q1028 RMK PP000=
SPZO Mar2004-130200Z VRB03KT 9999 FEW050 SCT080 14/07 Q1030 RMK PP000=
SPZO Mar2004-130300Z 24005KT 9999 FEW050 SCT080 14/05 Q1031 RMK PP000=
SPZO Mar2004-130400Z 28005KT 9999 SCT080 13/05 Q1030 RMK PP000=
SPZO Mar2004-130500Z 00000KT 9999 SCT070 10/05 Q1030 RMK PP000=
SPZO Mar2004-130600Z 00000KT 9999 SCT040 SCT050 10/06 Q1030 RMK PP000=
SPZO Mar2004-130700Z 00000KT 9999 SCT040 10/06 Q1029 RMK PP000=
SPZO Mar2004-130800Z 00000KT 9999 BKN043 10/06 Q1029 RMK PP000=
SPZO Mar2004-130900Z 00000KT 9999 FEW040 SCT050 09/07 Q1029 RMK PP000=
SPZO Mar2004-131000Z VRB01KT 9999 FEW040 BKN050 09/06 Q1030 RMK PP000=
SPZO Mar2004-131100Z VRB01KT 9999 FEW040 BKN080 09/06 Q1031 RMK PP000=
SPZO Mar2004-131200Z 00000KT 9999 FEW040 BKN090 10/07 Q1032 NOSIG RMK PP000=
SPZO Mar2004-131300Z VRB03KT 9999 FEW036 BKN100 11/08 Q1032 NOSIG RMK PP000 RWY10 14004KT=
SPZO Mar2004-131400Z VRB03KT 9999 FEW040 BKN090 13/07 Q1032 NOSIG RMK PP000 RWY10 11006KT=
SPZO Mar2004-131500Z VRB02KT 9999 FEW040 BKN100 15/07 Q1032 NOSIG RMK PP000 RWY10 VRB03KT=
SPZO Mar2004-131600Z VRB02KT 9999 FEW040 BKN120 18/06 Q1031 NOSIG RMK PP000 RWY10 VRBO3KT=
SPZO Mar2004-131700Z VRB03KT 9999 SCT046 19/06 Q1030 NOSIG RMK PP000 RWY10 15008KT=
SPZO Mar2004-131800Z VRB03KT 9999 SCT050 21/06 Q1028 NOSIG RMK PP000 RWY10 29007KT=
SPZO Mar2004-131900Z VRB03KT 9999 BKN043 22/06 Q1027 NOSIG RMK PP000=
SPZO Mar2004-132000Z VRB04KT 9999 VCSH BKN043 20/05 Q1025 NOSIG RMK PP000=
SPZO Mar2004-132100Z VRB04KT 9999 BKN043 19/06 Q1025 NOSIG RMK PP0000
SPZO Mar2004-132200Z 26005KT 190V310 9999 BKN043 20/05 Q1025 NOSIG RMK PP000 TMAX 21.7=
SPZO Mar2004-132300Z 11010KT 070V140 9999 SCT043 SCT080 17/06 Q1026 NOSIG RMK PP000=
SPZO Mar2004-140000Z 08004KT 9999 SCT040 SCT050 16/06 Q1028 RMK PP000=
SPZO Mar2004-140100Z 00000KT 9999 FEW040 BKN050 15/06 Q1029 RMK PP000=
SPZO Mar2004-140200Z 00000KT 9999 FEW050 13/07 Q1030 RMK PP000=
SPZO Mar2004-140300Z 00000KT 9999 SCT050 12/07 Q1031 RMK PP000=
SPZO Mar2004-140400Z 00000KT 9999 SCT050 11/07 Q1031 RMK PP000=
SPZO Mar2004-140500Z VRB03KT 9999 SCT050 11/07 Q1031 RMK PP000=
SPZO Mar2004-140600Z 00000KT 9999 FEW040 11/07 Q1030 RMK PP000=
SPZO Mar2004-140700Z VRB03KT 9999 FEW043 SCT070 10/07 Q1030 RMK PP000=
SPZO Mar2004-140800Z 00000KT 9999 SCT050 09/07 Q1030 RMK PP000=
SPZO Mar2004-140900Z 00000KT 9999 FEW050 08/06 Q1030 RMK PP000=
SPZO Mar2004-141000Z 00000KT 9999 FEW050 08/06 Q1030 RMK PP000=
SPZO Mar2004-141100Z 00000KT 9999 SCT040 07/06 Q1031 RMK PP000=
SPZO Mar2004-141200Z VRB01KT 9999 FEW037 BKN060 08/06 Q1032 NOSIG RMK PP000=
SPZO Mar2004-141300Z VRB01KT 9999 FEW037 SCT060 BKN080 11/07 Q1033 NOSIG RMK PP000=
SPZO Mar2004-141400Z 00000KT 9999 FEW037 SCT100 BKN300 13/07 Q1033 NOSIG RMK PP000=
SPZO Mar2004-141500Z 09005KT 040V150 9999 SCT040 BKN300 15/08 Q1033 NOSIG RMK PP000=
SPZO Mar2004-141600Z VRB03KT 9999 SCT040 BKN100 16/07 Q1033 NOSIG RMK PP000=
SPZO Mar2004-141700Z VRB03KT 9999 SCT043 BKN100 19/09 Q1031 NOSIG RMK PP000=
SPZO Mar2004-141800Z 09007KT 050V150 9999 FEW033 BKN043 19/06 Q1030 NOSIG RMK PP000=
SPZO Mar2004-141900Z 09007KT 360V170 9999 BKN043 20/06 Q1028 NOSIG RMK PP000=
SPZO Mar2004-142000Z 07004KT 360V110 9999 SCT043 SCT047 19/06 Q1027 NOSIG RMK PP000=
SPZO Mar2004-142100Z 12008KT 080V170 9999 SCT040 SCT043 19/07 Q1027 NOSIG RMK PP000=
SPZO Mar2004-142200Z 01004KT 340V080 9999 SCT040 SCT047 18/05 Q1027 NOSIG RMK PP000 TMAX 20.6=
SPZO Mar2004-142300Z 28009KT 260V360 9999 SCT043 SCT300 16/08 Q1027 NOSIG RMK PP000=
SPZO Mar2004-150000Z 28009KT 9999 SCT050 SCT100 16/08 Q1029 RMK PP000=
SPZO Mar2004-150100Z 28008KT 9999 BKN050 15/08 Q1030 RMK PP000=
SPZO Mar2004-150200Z 27005KT 9999 BKN050 14/07 Q1031 RMK PP000=
SPZO Mar2004-150300Z VRB02KT 9999 BKN050 15/04 Q1032 RMK PP000=
SPZO Mar2004-150400Z VRB04KT 9999 BKN050 15/01 Q1031 RMK PP000=
SPZO Mar2004-150500Z 10004KT 9999 BKN050 12/07 Q1031 RMK PP000=
SPZO Mar2004-150600Z 26003KT 9999 OVC050 12/04 Q1031 RMK PP000=
SPZO Mar2004-150700Z 00000KT 9999 OVC050 09/05 Q1031 RMK PP000=
SPZO Mar2004-150800Z 00000KT 9999 OVC050 10/05 Q1031 RMK PP000=
SPZO Mar2004-150900Z 00000KT 9999 BKN050 SCT060 09/05 Q1030 RMK PP000=
SPZO Mar2004-151000Z 09001KT 9999 BKN050 SCT060 09/06 Q1031 RMK PP000=
SPZO Mar2004-151100Z 00000KT 9999 SCT050 BKN100 09/06 Q1031 RMK PP000=
SPZO Mar2004-151200Z 00000KT 9999 FEW100 BKN300 10/06 Q1032 NOSIG RMK PP000=
SPZO Mar2004-151300Z VRB02KT 9999 FEW100 BKN300 12/07 Q1033 NOSIG RMK PP000=
SPZO Mar2004-151400Z 00000KT 9999 FEW043 BKN100 16/05 Q1032 NOSIG RMK PP000=
SPZO Mar2004-151500Z VRB02KT 9999 SCT043 SCT100 18/05 Q1032 NOSIG RMK PP000=
SPZO Mar2004-151600Z VRB02KT 9999 SCT043 SCT060 19/03 Q1031 NOSIG RMK PP000=
SPZO Mar2004-151700Z VRB03KT 9999 SCT043 SCT047 20/04 Q1030 NOSIG RMK PP000=
SPZO Mar2004-151800Z 02006KT 340V100 9999 SCT043 SCT060 20/05 Q1029 NOSIG RMK PP000=
SPZO Mar2004-151900Z 36010KT 270V080 9999 SCT050 21/04 Q1027 NOSIG RMK PP000 RWY10 36014G29KT=
SPZO Mar2004-152000Z 01013KT 340V080 9999 FEW046 SCT100 21/04 Q1026 NOSIG RMK PP000 RWY10 36017G29KT=
SPZO Mar2004-152100Z 01011KT 340V080 9999 FEW046 SCT120 20/03 Q1026 NOSIG RMK PP000 RWY10 01016KT=
SPZO Mar2004-152200Z 36008KT 270V080 9999 SCT120 19/02 Q1026 NOSIG RMK PP000 RWY10 03011G25KT TMX:21.6=
SPZO Mar2004-152300Z 01008KT 270V080 9999 FEW046 17/02 Q1027 NOSIG RMK PP000 RWY10 36005KT=
SPZO Mar2004-160000Z 06005KT 360V110 9999 SCT050 16/02 Q1028 RMK PP000=
SPZO Mar2004-160100Z VRB02KT 9999 SCT050 14/04 Q1029 RMK PP000=
SPZO Mar2004-160200Z 27006KT 180V350 9999 SCT050 13/04 Q1030 RMK PP000=
SPZO Mar2004-160300Z 01013KT 340V080 9999 BKN050 13/03 Q1032 RMK PP000=
SPZO Mar2004-160400Z 35020KT 7000 -RA SCT040 BKN050 10/04 Q1033 RMK PP004=
SPZO Mar2004-160500Z 02010KT 350V080 8000 FEW040 BKN050 10/04 Q1033 RERA RMK PP008=
SPZO Mar2004-160600Z 28010KT 270V350 9999 FEW040 BKN050 10/04 Q1032 RMK PP000=
SPZO Mar2004-160700Z 33006KT 270V020 9999 OVC050 10/04 Q1031 RMK PP000=
SPZO Mar2004-160800Z 00000KT 9999 OVC050 10/04 Q1031 RMK PP000=
SPZO Mar2004-160900Z 00000KT 9999 OVC060 10/05 Q1031 RMK PP000=
SPZO Mar2004-161000Z 00000KT 9999 OVC060 08/05 Q1031 RMK PP000=
SPZO Mar2004-161100Z 00000KT 9999 OVC060 08/05 Q1032 RMK PP000=
SPZO Mar2004-161200Z 00000KT 9999 FEW046 OVC080 09/06 Q1032 NOSIG RMK PP000=
SPZO Mar2004-161300Z 00000KT 9999 FEW050 BKN100 12/06 Q1033 NOSIG RMK PP000 RWY10 VRB03KT=
SPZO Mar2004-161400Z VRB03KT 9999 FEW050 SCT200 13/06 Q1033 NOSIG RMK PP000=
SPZO Mar2004-161500Z VRB03KT 9999 FEW046 SCT200 17/05 Q1032 NOSIG RMK PP000 RWY10 VRB04KT=
SPZO Mar2004-161600Z VRB02KT 9999 FEW043 SCT060 18/07 Q1031 NOSIG RMK PP000 RWY10 VRB05KT=
SPZO Mar2004-161700Z 36008KT 340V080 9999 SCT046 SCT060 19/05 Q1030 NOSIG RMK PP000 RWY10 03017KT=
SPZO Mar2004-161800Z 36012KT 340V080 9999 SCT046 SCT060 19/05 Q1029 NOSIG RMK PP000 RWY10 03016G29KT=
SPZO Mar2004-161900Z 36008KT 270V080 9999 BKN050 19/04 Q1027 NOSIG RMK PP000 RW10 03015KT=
SPZO Mar2004-162000Z 01012KT 340V080 9999 SCT050 20/03 Q1026 NOSIG RMK PP000 RWY10 01015G28KT=
SPZO Mar2004-162100Z 36009KT 270V080 9999 FEW046 20/03 Q1025 NOSIG RMK PP000 RWY10 03012G22KT=
SPZO Mar2004-162200Z 01008KT 340V080 9999 FEW050 19/03 Q1025 NOSIG RMK PP000 RWY10 33009KT TMX:20.6=
SPZO Mar2004-162300Z 10018KT 070V170 9999 SCT046 16/05 Q1026 TEMPO VCSH RWY10 11015G27KT=
SPZO Mar2004-170000Z 10012KT 9999 BKN040 SCT050 14/06 Q1028 RMK PP000=
SPZO Mar2004-170100Z 27007KT 9999 OVC040 14/06 Q1028 RMK PP000=
SPZO Mar2004-170200Z 11004KT 9999 SCT040 SCT080 13/06 Q1030 RMK PP000=
SPZO Mar2004-170300Z 09006KT 9999 SCT050 11/06 Q1030 RMK PP000=
SPZO Mar2004-170400Z 00000KT 9999 SCT050 11/06 Q1030 RMK PP000=
SPZO Mar2004-170500Z 00000KT 9999 SCT080 10/07 Q1030 RMK PP000=
SPZO Mar2004-170600Z 00000KT 9999 SCT050 10/07 Q1030 RMK PP000=
SPZO Mar2004-170700Z 00000KT 9999 FEW043 SCT080 10/07 Q1029 RMK PP000=
SPZO Mar2004-170800Z VRB03KT 9999 SCT040 SCT050 10/07 Q1029 RMK PP000=
SPZO Mar2004-170900Z 00000KT 9999 SCT040 SCT050 10/07 Q1029 RMK PP000=
SPZO Mar2004-171000Z 00000KT 9999 -DZ FEW025 SCT040 BKN046 10/08 Q1030 PP028=
SPZO Mar2004-171100Z VRB01KT 9999 VCRA BKN040 SCT046 10/07 Q1030 RMK PPTRZ=
SPZO Mar2004-171200Z 00000KT 9999 SCT040 BKN046 10/06 Q1031 NOSIG RMK PP000 RA HRZTE E=
SPZO Mar2004-171300Z 10005KT 070V170 9999 SCT040 BKN046 11/07 Q1032 NOSIG RMK PP000 RWY10 09006KT RA HRZTE E=
SPZO Mar2004-171400Z 11006KT 070V170 9999 SCT040 BKN046 11/07 Q1033 NOSIG RMK PP000 RWY10 11013KT BCFG NE=
SPZO Mar2004-171500Z VRB02KT 9999 FEW040 15/07 Q1032 NOSIG RMK PP000 RWY10 VRB05KT=
SPZO Mar2004-171600Z VRB02KT 9999 SCT040 16/06 Q1031 NOSIG RMK PP000=
SPZO Mar2004-171700Z VRB03KT 9999 SCT050 18/05 Q1030 NOSIG RMK PP000 RWY10 VRB05KT=
SPZO Mar2004-171800Z VRB04KT 9999 SCT050 19/07 Q1028 NOSIG RMK PP000 RWY10 02006KT=
SPZO Mar2004-171900Z VRB05KT 9999 BKN043 21/08 Q1026 NOSIG RMK PP000=
SPZO Mar2004-172000Z 32006KT 260V010 9999 VCSH SCT043TCU BKN047 19/06 Q1025 NOSIG RMK PP000=
SPZO Mar2004-172100Z 16013KT 130V200 8000 -TSRA VCSH BKN043CB BKN060 13/07 Q1027 TEMPO 7000 RMK PP004=
SPZO Mar2004-172200Z VRB01KT 9999 VCSH SCT043 BKN060 13/08 Q1027 NOSIG RMK PP008 TMAX 22.1=
SPZO Mar2004-172300Z VRB01KT 9999 -RA SCT043 BKN080 13/08 Q1027 NOSIG RMK PPTRZ=
SPZO Mar2004-180000Z 09005KT 9999 BKN040 SCT080 12/09 Q1028 RMK PPTRZ=
SPZO Mar2004-180100Z 00000KT 9999 FEW050 11/08 Q1029 RMK PP000=
SPZO Mar2004-180200Z VRB01KT 9999 FEW100 10/08 Q1029 RMK PP000=
SPZO Mar2004-180300Z 00000KT 9999 FEW100 10/08 Q1030 RMK PP000=
SPZO Mar2004-180400Z 00000KT 9999 FEW040 09/07 Q1030 RMK PP000=
SPZO Mar2004-180500Z 00000KT 9999 FEW040 09/07 Q1029 RMK PP000=
SPZO Mar2004-180600Z 00000KT 9999 FEW050 08/07 Q1029 RMK PP000=
SPZO Mar2004-180700Z 00000KT 9999 FEW050 07/06 Q1029 RMK PP000=
SPZO Mar2004-180800Z 00000KT 9999 FEW040 07/06 Q1028 RMK PP000=
SPZO Mar2004-180900Z 00000KT 9999 FEW050 06/04 Q1028 RMK PP000=
SPZO Mar2004-181000Z 00000KT 9999 FEW030 SCT050 07/05 Q1028 RMK PP000=
SPZO Mar2004-181100Z VRB02KT 9999 SCT025 SCT050 06/05 Q1029 RMK PP000=
SPZO Mar2004-181200Z 00000KT 7000 SCT010 SCT037 OVC080 08/06 Q1030 TEMPO 8000E RMK CLNG BLW 1200M / TRAMO FINAL SAYLLA PLAFONDO BAJO PP000=
SPZO Mar2004-181300Z 00000KT 8000 SCT010 SCT037 BKN060 09/07 Q1031 BECMG FM1340 9999 FEW015 SCT037 BKN060 RMK CLNG BLW 1200M PP000=
SPZO Mar2004-181400Z 00000KT 9999 SCT020 SCT047 13/08 Q1031 NOSIG RMK PP000=
SPZO Mar2004-181500Z 09005KT 360V170 9999 FEW037 15/09 Q1031 NOSIG RMK PP000=
SPZO Mar2004-181600Z VRB03KT 9999 FEW040 SCT300 19/09 Q1029 NOSIG RMK PP000=
SPZO Mar2004-181700Z VRB04KT 9999 FEW040 SCT043 19/05 Q1028 NOSIG RMK PP000=
SPZO Mar2004-181800Z 03010KT 360V080 9999 SCT047TCU SCT060 17/05 Q1027 TEMPO VCSH RMK PP000=
SPZO Mar2004-181900Z 14006KT 090V190 9999 FEW033 FEW040TCU BKN080 18/04 Q1026 NOSIG RMK PP000=
SPZO Mar2004-182000Z VRB02KT 9999 SCT043 BKN300 19/04 Q1025 NOSIG RMK PP000=
SPZO Mar2004-182100Z VRB01KT 9999 FEW043 BKN300 19/07 Q1024 NOSIG RMK PP000=
SPZO Mar2004-182200Z 36004KT 280V080 9999 FEW043 SCT300 19/04 Q1024
SPZO Mar2004-182300Z VRB02KT 9999 FEW060 17/03 Q1025 NOSIG RMK PP000=
SPZO Mar2004-190000Z VRB06KT 9999 SCT050 14/06 Q1027 RMK PP000=
SPZO Mar2004-190100Z 00000KT 9999 SCT050 14/07 Q1029 RMK PP000=
SPZO Mar2004-190200Z VRB03KT 9999 SCT050 12/07 Q1029 RMK PP000=
SPZO Mar2004-190300Z VRB03KT 9999 SCT050 12/07 Q1030 RMK PP000=
SPZO Mar2004-190400Z 00000KT 9999 SCT050 11/07 Q1030 RMK PP000=
SPZO Mar2004-190500Z 00000KT 9999 SCT050 10/07 Q1031 RMK PP000=
SPZO Mar2004-190600Z 27002KT 9999 BKN050 09/06 Q1030 RMK PP000=
SPZO Mar2004-190700Z 00000KT 9999 BKN050 08/06 Q1029 RMK PP000=
SPZO Mar2004-190800Z VRB02KT 9999 BKN050 09/06 Q1029 RMK PP000=
SPZO Mar2004-190900Z 00000KT 9999 SCT050 SCT060 09/07 Q1029 RMK PP000=
SPZO Mar2004-191000Z 09002KT 9999 SCT050 SCT060 08/06 Q1029 RMK PP000=
SPZO Mar2004-191100Z 00000KT 9999 SCT050 SCT060 09/07 Q1029 RMK PP000=
SPZO Mar2004-191200Z VRB02KT 9999 FEW050 SCT080 BKN300 09/07 Q1030 NOSIG RMK PP000=
SPZO Mar2004-191300Z 00000KT 9999 FEW043 SCT100 BKN300 13/08 Q1031 NOSIG RMK PP000=
SPZO Mar2004-191400Z VRB02KT 9999 FEW040 SCT100 BKN300 15/08 Q1031 NOSIG RMK PP000=
SPZO Mar2004-191500Z VRB01KT 9999 SCT040 BKN150 16/06 Q1031 NOSIG RMK PP000=
SPZO Mar2004-191600Z VRB03KT 9999 BKN043 SCT100 18/07 Q1030 NOSIG RMK PP000=
SPZO Mar2004-191700Z VRB03KT 9999 FEW040 SCT043 BKN300 18/07 Q1029 NOSIG RMK PP000=
SPZO Mar2004-191800Z 10008KT 070V170 9999 FEW040 SCT043 BKN080 18/07 Q1028 NOSIG RMK PP000=
SPZO Mar2004-191900Z 10009KT 9999 SCT046 BKN080 19/08 Q1026 NOSIG RMK PP000 RWY10 10014KT=
SPZO Mar2004-192000Z 10008KT 070V170 9999 FEW043 BKN090 18/06 Q1025 NOSIG RMK PP000 RWY10 08009KT=
SPZO Mar2004-192100Z 11010KT 080V170 9999 SCT050 BKN100 18/06 Q1025 NOSIG RMK PP000 RWY10 11018KT=
SPZO Mar2004-192200Z 10013KT 9999 SCT046 BKN060 16/06 Q1026 NOSIG RMK PP000 RWY10 10020KT TMX:19.7=
SPZO Mar2004-192300Z VRB03KT 9999 SCT046 BKN090 15/06 Q1026 NOSIG RMK PP000 RWY10 VRB06KT=
SPZO Mar2004-200000Z VRB01KT 9999 SCT050 SCT070 15/07 Q1028 RMK PP000=
SPZO Mar2004-200100Z VRB05KT 9999 BKN050 SCT070 14/07 Q1028 RMK PP000=
SPZO Mar2004-200200Z 10005KT 080V170 9999 BKN050 12/07 Q1029 RMK PP000=
SPZO Mar2004-200300Z 00000KT 9999 BKN050 11/07 Q1030 RMK PP000=
SPZO Mar2004-200400Z VRB02KT 9999 BKN050 10/07 Q1030 RMK PP000=
SPZO Mar2004-200500Z VRB02KT 9999 BKN050 10/07 Q1030 RMK PP000=
SPZO Mar2004-200600Z 26002KT 8000 -RA SCT040 BKN050 11/07 Q1030 RMK PP002=
SPZO Mar2004-200700Z VRB02KT 8000 -RA FEW040 BKN050 11/07 Q1029 RMK PP002=
SPZO Mar2004-200800Z VRB02KT 9000 FEW040 BKN050 11/07 Q1029 RERA RMK PPTRZ=
SPZO Mar2004-200900Z 09004KT 9999 OVC050 10/08 Q1029 RMK PP000=
SPZO Mar2004-201000Z VRB02KT 9999 OVC050 10/07 Q1029 RMK PP000=
SPZO Mar2004-201100Z 00000KT 9999 OVC040 10/07 Q1029 RMK PP000=
SPZO Mar2004-201200Z VRB01KT 9999 SCT040 OVC046 10/08 Q1030 NOSIG RMK PP000=
SPZO Mar2004-201300Z 00000KT 9999 -DZ FEW030 SCT036 BKN046 11/08 Q1031 NOSIG RMK PP002 RWY WET=
SPZO Mar2004-201400Z 00000KT 9000 DZ FEW025 SCT036 BKN046 11/08 Q1032 BECMG FM15 NSW PP006 RMK RWY WET CLNG BLW 1200M=
SPZO Mar2004-201500Z 00000KT 9999 REDZ FEW030 SCT040 BKN046 12/08 Q1032 NOSIG RMK PPTRZ RWY WET=
SPZO Mar2004-201600Z VRB03KT 9999 FEW030 SCT040 BKN046 14/08 Q1031 TEMPO 8000 RMK PP000 RWY10 VRB04KT RA HRZTE E=
SPZO Mar2004-201700Z VRB02KT 9999 -RA FEW033 SCT040 BKN046 13/08 Q1030 NOSIG RMK PP012 RWY WET=
SPZO Mar2004-201800Z VRB01KT 9999 RERA SCT036 BKN046 14/08 Q1029 TEMPO -RA RMK PPTRZ RWY10 01016G36KT RA CDTES NE/E=
SPZO Mar2004-201900Z 27004KT 9999 -DZ SCT040 BKN050 13/05 Q1029 NOSIG RMK PPTRZ RWY10 34010KT RWY WET RA CDTS NE/E=
SPZO Mar2004-202000Z VRB02KT 9999 REDZ SCT040 BKN060 14/06 Q1028 NOSIG RMK PPTRZ RWY10 16005KT=
SPZO Mar2004-202100Z VRB01KT 9999 SCT040 OVC050 15/07 Q1027 NOSIG RMK PP000 RWY10 07007KT=
SPZO Mar2004-202200Z 02006KT 330V070 9999 SCT040 BKN090 14/06 Q1027 TEMPO VCSH RMK PP000 RWY10 05005KT TMX:15.0=
SPZO Mar2004-202300Z 36006KT 330V070 9999 SCT040 BKN050 14/06 Q1028 NOSIG=
SPZO Mar2004-210000Z 00000KT 9999 SCT050 13/05 Q1029 RMK PP000=
SPZO Mar2004-210100Z 00000KT 9999 FEW040 SCT060 12/06 Q1030 RMK PP000=
SPZO Mar2004-210200Z VRB01KT 9999 SCT050 12/07 Q1030 RMK PP000=
SPZO Mar2004-210300Z 00000KT 9999 FEW040 SCT050 11/07 Q1031 RMK PP000=
SPZO Mar2004-210400Z 00000KT 9999 SCT040 SCT060 11/08 Q1031 RMK PP000=
SPZO Mar2004-210500Z 00000KT 9999 SCT040 SCT050 11/08 Q1031 RMK PP000=
SPZO Mar2004-210600Z 00000KT 9999 OVC040 11/08 Q1030 RMK PP000=
SPZO Mar2004-210700Z 00000KT 9999 BKN040 SCT050 11/08 Q1030 RMK PP000=
SPZO Mar2004-210800Z VRB02KT 9999 BKN040 SCT046 11/08 Q1029 RMK PP000=
SPZO Mar2004-210900Z 00000KT 9999 BKN040 SCT070 10/08 Q1029 RMK PP000=
SPZO Mar2004-211000Z 00000KT 9999 SCT030 BKN050 09/07 Q1029 RMK PP000=
SPZO Mar2004-211100Z VRB01KT 9999 SCT037 BKN050 09/07 Q1029 RMK PP000=
SPZO Mar2004-211200Z VRB02KT 9999 FEW036 BKN046 10/07 Q1030 NOSIG RMK PP000=
SPZO Mar2004-211300Z 10004KT 070V170 9999 FEW036 BKN046 12/08 Q1031 NOSIG RMK PP000 RWY10 10010KT=
SPZO Mar2004-211400Z VRB02KT 9999 FEW036 BKN046 14/06 Q1031 NOSIG RMK PP000=
SPZO Mar2004-211500Z 11005KT 090V170 9999 FEW036 SCT040 SCT046 13/07 Q1031 TEMPO VCSH RMK PP000 RWY10 11010KT RA HRZTE E=
SPZO Mar2004-211600Z 09006KT 030V170 9999 DZ SCT040 BKN046 12/06 Q1031 NOSIG RMK PP002 RWY10 04006KT RWY WET=
SPZO Mar2004-211700Z VRB03KT 9999 -DZ FEW036 BKN050 14/07 Q1030 NOSIG RMK PPTRZ RWY10 VRB06KT RWY WET=
SPZO Mar2004-211800Z VRB02KT 9999 REDZ FEW040 BKN050 16/07 Q1029 NOSIG RMK PPTRZ RWY10 VRB04KT=
SPZO Mar2004-211900Z VRB05KT 9999 SCT040 SCT080 17/08 Q1028 NOSIG RMK PP0000=
SPZO Mar2004-212000Z 11005KT 070V170 9999 SCT040 SCT080 18/07 Q1026 NOSIG RMK PP000=
SPZO Mar2004-212100Z 13007KT 090V170 9999 SCT040 SCT060 16/06 Q1025 NOSIG RMK PP000=
SPZO Mar2004-212200Z 27009KT 250V350 9999 SCT040 SCT060 16/06 Q1026 NOSIG RMK PP000 TMAX 19.0=
SPZO Mar2004-212300Z 05005KT 360V080 9999 SCT040 SCT300 15/07 Q1026 NOSIG RMK PP000=
SPZO Mar2004-220000Z VRB02KT 9999 FEW050 13/07 Q1027 RMK PP000=
SPZO Mar2004-220100Z VRB01KT 9999 FEW050 11/06 Q1029 RMK PP000=
SPZO Mar2004-220200Z VRB02KT 9999 FEW050 SCT100 11/07 Q1030 RMK PP000=
SPZO Mar2004-220300Z VRB03KT 9999 SCT050 10/07 Q1030 RMK PP000=
SPZO Mar2004-220400Z 00000KT 9999 FEW040 SCT100 10/07 Q1030 RMK PP000=
SPZO Mar2004-220500Z 00000KT 9999 FEW040 08/06 Q1030 RMK PP000=
SPZO Mar2004-220600Z 00000KT 9999 SCT050 08/05 Q1030 RMK PP000=
SPZO Mar2004-220700Z 00000KT 9999 FEW040 07/05 Q1030 RMK PP000=
SPZO Mar2004-220800Z 00000KT 9999 FEW040 SCT050 08/06 Q1029 RMK PP000=
SPZO Mar2004-220900Z 00000KT 9999 SCT040 SCT050 08/06 Q1029 RMK PP000=
SPZO Mar2004-221000Z VRB02KT 9000 -DZ FEW030 SCT040 BKN046 08/06 Q1029 RMK PP002=
SPZO Mar2004-221100Z 00000KT 9999 DZ BKN040 SCT046 09/06 Q1030 RMK PPTRZ=
SPZO Mar2004-221200Z 00000KT 9999 -DZ FEW033 SCT040 BKN053 09/07 Q1031 NOSIG RMK PP004=
SPZO Mar2004-221300Z 00000KT 9999 -DZ VCSH FEW033 SCT040 OVC060 10/07 Q1032 NOSIG RMK PP002=
SPZO Mar2004-221400Z 00000KT 9999 FEW033 OVC060 12/07 Q1032 REDZ NOSIG RMK PPTRZ=
SPZO Mar2004-221500Z 00000KT 9999 FEW030 SCT043 OVC080 13/07 Q1032 NOSIG RMK PP000=
SPZO Mar2004-221600Z VRB02KT 9999 FEW033 SCT043 BKN080 14/07 Q1031 NOSIG RMK PP000=
SPZO Mar2004-221700Z 12004KT 070V200 9999 SCT040 SCT080 17/07 Q1030 NOSIG RMK PP000=
SPZO Mar2004-221800Z VRB03KT 9999 FEW030 SCT047 18/10 Q1029 NOSIG RMK PP000=
SPZO Mar2004-221900Z 01011KT 340V090 9999 FEW030 SCT043TCU 17/06 Q1028 TEMPO VCSH RMK PP000=
SPZO Mar2004-222000Z 18008KT 090V270 9999 FEW040 SCT047 17/08 Q1027 NOSIG RMK PP000=
SPZO Mar2004-222100Z 00000KT 9999 VCSH SCT040 SCT047 17/06 Q1026 NOSIG RMK PP000=
SPZO Mar2004-222200Z 01008KT 340V080 9999 SCT040 SCT060 15/05 Q1027 NOSIG RMK PP000 TMAX 19.1=
SPZO Mar2004-222300Z 10005KT 360V170 9999 SCT040 SCT080 14/04 Q1028 NOSIG RMK PP000=
SPZO Mar2004-230000Z VRB03KT 9999 BKN050 12/05 Q1029 RMK PP000=
SPZO Mar2004-230100Z VRB02KT 9999 BKN050 11/05 Q1030 RMK PP000=
SPZO Mar2004-230200Z 00000KT 9999 BKN050 09/05 Q1031 RMK PP000=
SPZO Mar2004-230300Z VRB02KT 9999 SCT050 07/05 Q1032 RMK PP000=
SPZO Mar2004-230400Z 09001KT 9999 SCT050 08/05 Q1032 RMK PP000=
SPZO Mar2004-230500Z 00000KT 9999 SCT050 07/04 Q1032 RMK PP000=
SPZO Mar2004-230600Z 09001KT 9999 SCT050 07/05 Q1031 RMK PP000=
SPZO Mar2004-230700Z 00000KT 9999 SCT050 08/05 Q1031 RMK PP000=
SPZO Mar2004-230800Z 09002KT 9999 SCT050 08/05 Q1031 RMK PP000=
SPZO Mar2004-230900Z 00000KT 9999 BKN050 08/05 Q1030 RMK PP000=
SPZO Mar2004-231000Z 00000KT 9999 OVC060 08/06 Q1031 RMK PP000=
SPZO Mar2004-231100Z 00000KT 9999 OVC060 08/05 Q1031 RMK PP000=
SPZO Mar2004-231200Z 00000KT 9999 FEW040 OVC060 09/07 Q1032 NOSIG RMK PP000=
SPZO Mar2004-231300Z 00000KT 9999 FEW040 BKN080 11/07 Q1033 NOSIG RMK PP000=
SPZO Mar2004-231400Z VRB01KT 9999 FEW040 BKN100 13/05 Q1033 NOSIG RMK PP000=
SPZO Mar2004-231500Z VRB01KT 9999 FEW033 SCT043 BKN100 14/05 Q1033 NOSIG RMK PP000=
SPZO Mar2004-231600Z VRB02KT 9999 SCT040 BKN100 16/06 Q1032 NOSIG RMK PP000=
SPZO Mar2004-231700Z VRB04KT 9999 SCT040 BKN080 17/07 Q1031 NOSIG
SPZO Mar2004-231800Z VRB07KT 9999 SCT040 SCT047 20/06 Q1029 NOSIG RMK PP000=
SPZO Mar2004-231900Z VRB04KT 9999 BKN046 19/08 Q1028 NOSIG RMK PP000 RWY10 29014G24=
SPZO Mar2004-232000Z 36011KT 340V080 9999 BKN046 19/05 Q1027 NOSIG RMK PP000 RWY10 02016G28KT=
SPZO Mar2004-232100Z 01009KT 340V080 9999 BKN046 17/06 Q1027 NOSIG RMK PP000 RWY10 04015G26=
SPZO Mar2004-232200Z 01011KT 340V080 9999 SCT046 16/05 Q1027 TEMPO VCSH RWY10 VRB06KT TMX:20.2=
SPZO Mar2004-232300Z 02007KT 350V080 9999 SCT046 16/05 Q1028 NOSIG RWY10 VRB04KT=
SPZO Mar2004-240000Z 00000KT 9999 SCT050 14/06 Q1029 RMK PP000=
SPZO Mar2004-240100Z VRB02KT 9999 SCT050 14/06 Q1030 RMK PP000=
SPZO Mar2004-240200Z 09004KT 9999 SCT050 12/06 Q1032 RMK PP000=
SPZO Mar2004-240300Z 00000KT 9999 BKN050 12/06 Q1032 RMK PP000=
SPZO Mar2004-240400Z 00000KT 9999 BKN050 12/06 Q1032 RMK PP000=
SPZO Mar2004-240500Z VRB03KT 9999 BKN050 12/06 Q1032 RMK PP000=
SPZO Mar2004-240600Z VRB04KT 9999 BKN050 11/06 Q1032 RMK PP000=
SPZO Mar2004-240700Z 29005KT 270V350 9999 OVC050 11/06 Q1032 RMK PP000=
SPZO Mar2004-240800Z VRB03KT 8000 -DZ OVC040 10/07 Q1031 RMK PP002=
SPZO Mar2004-240900Z 26002KT 9000 OVC040 10/07 Q1031 REDZ RMK PPTRZ=
SPZO Mar2004-241000Z 00000KT 9999 OVC040 11/07 Q1031 RMK PP000=
SPZO Mar2004-241100Z 09001KT 8000 SCT030 OVC040 10/07 Q1032 RMK BR PP000=
SPZO Mar2004-241200Z VRB02KT 9999 FEW036 BKN050 11/07 Q1033 NOSIG RMK PP000 RWY10 VRB04KT RA CDTE NE=
SPZO Mar2004-241300Z 00000KT 9999 FEW036 BKN050 15/07 Q1033 NOSIG RMK PP000 RWY10 VRB05KT=
SPZO Mar2004-241400Z VRB02KT 9999 FEW036 SCT046 16/06 Q1033 NOSIG RMK PP000 RWY10 VRB04KT=
SPZO Mar2004-241500Z 33004KT 240V060 9999 SCT046 17/07 Q1032 NOSIG RMK PP000 RWY10 10007KT=
SPZO Mar2004-241600Z VRB02KT 9999 SCT046 17/06 Q1031 NOSIG RMK PP000 RWY10 03008KT=
SPZO Mar2004-241700Z 09005KT 360V170 9999 SCT046 18/07 Q1030 NOSIG RMK PP000 RWY10 32008KT=
SPZO Mar2004-241800Z VRB05KT 9999 BKN046 19/07 Q1028 NOSIG RMK PP000 RWY10 02015G29KT=
SPZO Mar2004-241900Z 01014KT 330V060 9999 BKN046 19/06 Q1027 NOSIG RMK PP000 RWY10 01018G38KT RA CDTE W=
SPZO Mar2004-242000Z 36010KT 270V080 9999 SCT043 SCT060 17/07 Q1026 NOSIG RMK PP000 RWY10 26024KT RA CDTE W=
SPZO Mar2004-242100Z 26011KT 220V300 9999 -RA FEW040 BKN070 16/07 Q1026 BECMG FM2130 NSW RMK PPTRZ RWY WET=
SPZO Mar2004-242200Z 27009KT 170V290 9999 -RA FEW036TCU BKN046 14/08 Q1026 NOSIG RMK PP006 RWY10 02009KT RWY WET TMX: 20.1=
SPZO Mar2004-242300Z VRB03KT 9999 SCT040 SCT046 13/08 Q1027 NOSIG RMK PP004 RA TODO LOS CDTS=
SPZO Mar2004-250000Z 28009KT 9000 -RA OVC040 11/09 Q1029 PPTRZ=
SPZO Mar2004-250100Z VRB02KT 9999 -RA BKN040 SCT050 11/08 Q1030 RMK PP020=
SPZO Mar2004-250200Z VRB01KT 9999 -RA SCT030 BKN040 10/08 Q1031 RMK PP014=
SPZO Mar2004-250300Z 00000KT 9999 -RA SCT030 BKN040 10/08 Q1032 RMK PP002=
SPZO Mar2004-250400Z 00000KT 9000 RA BKN037 SCT050 10/08 Q1032 RMK PP028=
SPZO Mar2004-250500Z 00000KT 9000 -RA OVC040 10/08 Q1032 RMK PP028=
SPZO Mar2004-250600Z 00000KT 9999 -RA OVC043 09/07 Q1032 RMK PP010=
SPZO Mar2004-250700Z 00000KT 9999 BKN040 SCT070 09/07 Q1031 RMK PP002=
SPZO Mar2004-250800Z 00000KT 9999 BKN040 SCT070 09/07 Q1031 RMK PP000=
SPZO Mar2004-250900Z 10006KT 9999 -RA SCT030 BKN040 09/07 Q1031 RMK PP004=
SPZO Mar2004-251000Z VRB03KT 9999 -DZ SCT025 BKN040 08/06 Q1031 RMK PP004=
SPZO Mar2004-251100Z VRB02KT 9999 FEW030 SCT040 BKN050 08/06 Q1031 RMK PPTRZ=
SPZO Mar2004-251200Z 00000KT 9999 FEW040 BKN050 09/07 Q1032 NOSIG RMK PP000 RWY WET BCFG E=
SPZO Mar2004-251300Z VRB02KT 9999 FEW040 BKN050 12/07 Q1033 NOSIG RMK PP000 RWY10 VRB04KT=
SPZO Mar2004-251400Z VRB02KT 9999 SCT040 13/06 Q1032 NOSIG RMK PP000=
SPZO Mar2004-251500Z VRB02KT 9999 SCT040 16/06 Q1032 NOSIG RMK PP000 RWY10 06005KT=
SPZO Mar2004-251600Z VRB02KT 9999 SCT046 17/08 Q1031 NOSIG RMK PP000 RWY10 VRB04KT=
SPZO Mar2004-251700Z VRB03KT 9999 SCT050 18/07 Q1030 NOSIG RMK PP000 RWY10 VRB05KT=
SPZO Mar2004-251800Z VRB03KT 9999 FEW043 SCT050 19/06 Q1029 NOSIG RMK PP000 RWY10 VRB04KT=
SPZO Mar2004-251900Z VRB02KT 9999 FEW043 20/06 Q1027 NOSIG RMK PP000=
SPZO Mar2004-252000Z VRB03KT 9999 FEW043 21/05 Q1026 NOSIG RMK PP000=
SPZO Mar2004-252100Z 26006KT 180V300 9999 FEW043 21/04 Q1024 NOSIG RMK PP000=
SPZO Mar2004-252200Z 26006KT 9999 FEW043 SCT100 19/06 Q1025 NOSIG RMK PP000 TMAX 21.4=
SPZO Mar2004-252300Z 28008KT 260V350 9999 FEW043 SCT300 17/05 Q1025 NOSIG RMK PP000=
SPZO Mar2004-260000Z 28006KT 9999 FEW050 14/07 Q1026 RMK PP000=
SPZO Mar2004-260100Z 27006KT 9999 FEW300 13/07 Q1028 RMK PP000=
SPZO Mar2004-260200Z VRB02KT 9999 SCT080 13/08 Q1029 RMK PP000=
SPZO Mar2004-260300Z 36004KT 9999 FEW040 SCT080 12/08 Q1030 RMK PP000=
SPZO Mar2004-260400Z VRB02KT 9999 FEW040 SCT070 12/08 Q1030 RMK PP000=
SPZO Mar2004-260500Z 10014KT 9999 SCT040 SCT070 10/07 Q1031 RMK PP000=
SPZO Mar2004-260600Z 08006KT 9999 SCT050 10/07 Q1031 RMK PP000=
SPZO Mar2004-260700Z 00000KT 9999 RA BKN040 SCT050 09/07 Q1030 RMK PP030=
SPZO Mar2004-260800Z 00000KT 9999 -RA SCT030 BKN043 09/07 Q1029 RMK PP010=
SPZO Mar2004-260900Z 00000KT 9999 SCT030 BKN043 09/07 Q1030 RMK PP002=
SPZO Mar2004-261000Z VRB02KT 9999 SCT030 SCT050 09/07 Q1030 RMK PP000=
SPZO Mar2004-261100Z 00000KT 9999 FEW025 SCT043 BKN080 08/07 Q1030 RMK PP000=
SPZO Mar2004-261200Z 00000KT 9999 FEW015 SCT040 BKN100 09/08 Q1031 NOSIG RMK PP000=
SPZO Mar2004-261300Z VRB01KT 9999 FEW020 SCT043 BKN100 12/08 Q1031 NOSIG RMK PP000=
SPZO Mar2004-261400Z VRB02KT 9999 FEW033 SCT060 14/08 Q1031 NOSIG RMK PP000=
SPZO Mar2004-261500Z VRB02KT 9999 SCT040 16/06 Q1031 NOSIG RMK PP000=
SPZO Mar2004-261600Z VRB03KT 9999 FEW040 SCT043 18/06 Q1030 NOSIG RMK PP000=
SPZO Mar2004-261700Z VRB04KT 9999 FEW040 SCT047 19/07 Q1029 NOSIG RMK PP000=
SPZO Mar2004-261800Z VRB03KT 9999 FEW040 SCT047 20/03 Q1027 NOSIG RMK PP000=
SPZO Mar2004-261900Z VRB02KT 9999 FEW040 SCT047 21/03 Q1026 NOSIG RMK PP000=
SPZO Mar2004-262000Z VRB02KT 9999 FEW040 SCT047 22/03 Q1024 NOSIG
SPZO Mar2004-262100Z 07005KT 360V170 9999 FEW040 SCT047 20/04 Q1023
SPZO Mar2004-262200Z VRB06KT 9999 VCSH FEW043TCU SCT047 17/08 Q1024 NOSIG RMK PP000 TMAX 21.6=
SPZO Mar2004-262300Z 01007KT 340V080 9999 FEW040 SCT100 16/07 Q1025 NOSIG RMK PP000=
SPZO Mar2004-270000Z 36004KT 9999 BKN050 16/07 Q1027 RMK PP000=
SPZO Mar2004-270100Z 00000KT 9999 BKN050 14/07 Q1028 RMK PP000=
SPZO Mar2004-270200Z VRB01KT 9999 BKN050 14/07 Q1029 RMK PP000=
SPZO Mar2004-270300Z 08008KT 9999 BKN050 12/04 Q1030 RMK PP000=
SPZO Mar2004-270400Z 09005KT 9999 BKN050 10/04 Q1030 RMK PP000=
SPZO Mar2004-270500Z VRB02KT 9999 BKN050 10/05 Q1029 RMK PP000=
SPZO Mar2004-270600Z VRB01KT 9999 BKN050 09/05 Q1029 RMK PP000=
SPZO Mar2004-270700Z VRB01KT 9999 BKN050 08/05 Q1028 RMK PP000=
SPZO Mar2004-270800Z 00000KT 9999 BKN050 07/05 Q1028 RMK PP000=
SPZO Mar2004-270900Z VRB02KT 9999 SCT050 07/05 Q1028 RMK PP000=
SPZO Mar2004-271000Z 00000KT 9999 SCT050 07/05 Q1029 RMK PP000=
SPZO Mar2004-271100Z 00000KT 9999 SCT050 06/04 Q1029 RMK PP000=
SPZO Mar2004-271200Z 00000KT 8000 SCT043 SCT060 08/06 Q1030 TEMPO 9000E RMK PP000=
SPZO Mar2004-271300Z VRB03KT 9999 SCT043 SCT060 09/06 Q1031 NOSIG RMK PP000=
SPZO Mar2004-271400Z VRB02KT 9999 SCT043 BKN080 14/07 Q1031 NOSIG RMK PP000=
SPZO Mar2004-271500Z VRB03KT 9999 SCT040 BKN080 14/07 Q1030 NOSIG RMK PP000=
SPZO Mar2004-271600Z VRB03KT 9999 SCT043 17/06 Q1030 NOSIG RMK PP000=
SPZO Mar2004-271700Z VRB02KT 9999 SCT043 SCT300 19/07 Q1028 NOSIG RMK PP000=
SPZO Mar2004-271800Z VRB04KT 9999 SCT043 SCT300 19/07 Q1027 NOSIG RMK PP000=
SPZO Mar2004-271900Z 09005KT 360V170 9999 SCT050 20/03 Q1025 NOSIG RMK PP000 RWY10 35010KT=
SPZO Mar2004-272000Z 01010KT 9999 FEW043 BKN080 18/07 Q1024 TEMPO VCSH RMK PP000 RWY10 35014G27KT=
SPZO Mar2004-272100Z 29006KT 250V350 9999 RERA SCT040 SCT080 16/07 Q1025 NOSIG RMK PPTRZ RWY10 35005KT RWY WET RA CDTE E=
SPZO Mar2004-272200Z 07005KT 360V170 9999 SCT043 BKN100 16/09 Q1025 NOSIG RMK PP000 RWY10 17006KT TMX:20.4=
SPZO Mar2004-272300Z VRB03KT 9999 FEW046 SCT100 14/08 Q1026 NOSIG RMK PP000 RWT10 02007KT=
SPZO Mar2004-280000Z 09005KT 070V170 9999 SCT050 SCT100 13/08 Q1027 RMK PP000=
SPZO Mar2004-280100Z 00000KT 9999 SCT050 SCT100 13/07 Q1028 RMK PP000=
SPZO Mar2004-280200Z VRB03KT 9999 BKN050 12/07 Q1029 RMK PP000=
SPZO Mar2004-280300Z 21004KT 180V290 5000 +RA SCT040 SCT050 10/05 Q1031 RMK PP034=
SPZO Mar2004-280400Z 28005KT 250V350 6000 +RA SCT040 SCT050 09/06 Q1031 RMK PP020=
SPZO Mar2004-280500Z VRB03KT 7000 RA SCT040 BKN050 10/07 Q1031 RMK PP010=
SPZO Mar2004-280600Z VRB02KT 8000 -RA FEW040 BKN050 10/06 Q1030 RMK PP002=
SPZO Mar2004-280700Z VRB02KT 8000 -RA FEW040 BKN050 09/07 Q1029 RMK PP004=
SPZO Mar2004-280800Z VRB03KT 9000 FEW040 BKN050 09/07 Q1029 RERA RMK PPTRZ=
SPZO Mar2004-280900Z 00000KT 9999 BKN050 09/06 Q1029 RMK PP000=
SPZO Mar2004-281000Z 00000KT 9999 SCT050 08/06 Q1029 RMK PP000=
SPZO Mar2004-281100Z 00000KT 9999 SCT050 07/05 Q1030 RMK PP002=
SPZO Mar2004-281200Z 00000KT 9999 FEW043 09/07 Q1031 NOSIG RMK PP000=
SPZO Mar2004-281300Z 00000KT 9999 FEW040 12/07 Q1031 NOSIG RMK PP000=
SPZO Mar2004-281400Z VRB02KT 9999 SCT040 15/07 Q1031 NOSIG RMK PP000 RWY10 VRB03KT=
SPZO Mar2004-281500Z VRB02KT 9999 FEW040 SCT046 17/05 Q1031 NOSIG RMK PP000 RWY10 VRB06KT=
SPZO Mar2004-281600Z VRB03KT 9999 BKN046 16/06 Q1030 NOSIG RMK PP000 RWY10 14010KT=
SPZO Mar2004-281700Z VRB02KT 9999 SCT046 18/06 Q1029 NOSIG RMK PP000 RWY10 08007KT=
SPZO Mar2004-281800Z VRB02KT 9999 SCT050 20/04 Q1027 NOSIG RMK PP000 RWY10 12007KT=
SPZO Mar2004-281900Z 21008KT 160V260 9999 FEW043TCU SCT046 19/08 Q1026 TEMPO VCSH RMK PP000 RWY10 19012KT=
SPZO Mar2004-282000Z 35007KT 270V020 9999 TS FEW040TCU BKN046 17/06 Q1025 TEMPO VCSH RMK RWY10 36011G21KT=
SPZO Mar2004-282100Z 28010KT 9999 FEW043 BKN100 19/06 Q1025 NOSIG RMK PP000 RWY10 31014KT=
SPZO Mar2004-282200Z 28006KT 250V350 9999 SCT050 17/05 Q1025 NOSIG RMK PP000 RWY10 30007KT TMX:20.4=
SPZO Mar2004-282300Z 10008KT 080V170 9999 SCT060 14/06 Q1026 NOSIG RMK PP000 RWY10 10015G28KT=
SPZO Mar2004-290000Z VRB01KT 9999 FEW050 13/07 Q1027 RMK PP000=
SPZO Mar2004-290100Z VRB03KT 9999 FEW050 11/08 Q1028 RMK PP000=
SPZO Mar2004-290200Z VRB03KT 9999 SCT040 SCT050 12/07 Q1029 RMK PP000=
SPZO Mar2004-290300Z 34014KT 9000 RA OVC040 08/05 Q1031 RMK PP026=
SPZO Mar2004-290400Z 27070KT 9999 -RA BKN040 SCT050 11/08 Q1030 RMK PP012=
SPZO Mar2004-290500Z 00000KT 9999 -RA BKN037 SCT050 09/06 Q1032 RMK PP022=
SPZO Mar2004-290600Z 00000KT 9999 -RA BKN040 SCT050 08/06 Q1031 RMK PP028=
SPZO Mar2004-290700Z 00000KT 9999 -RA OVC040 08/06 Q1030 RMK PP038=
SPZO Mar2004-290800Z 00000KT 9999 FEW030 OVC040 08/06 Q1030 RMK PP002=
SPZO Mar2004-290900Z 00000KT 9999 SCT030 BKN043 08/06 Q1029 RMK PP000=
SPZO Mar2004-291000Z VRB03KT 9999 FEW030 SCT050 07/05 Q1029 RMK PP000=
SPZO Mar2004-291100Z 00000KT 9999 FEW030 SCT040 07/06 Q1030 RMK PP000=
SPZO Mar2004-291200Z 00000KT 9999 FEW036 SCT046 07/06 Q1031 NOSIG RMK PP000=
SPZO Mar2004-291300Z 00000KT 9999 FEW036 BKN050 10/07 Q1032 NOSIG RMK PP000 RWY10 26005KT=
SPZO Mar2004-291400Z VRB02KT 9999 FEW030 SCT050 12/06 Q1033 NOSIG RMK PP000 RWY10 VRB03KT=
SPZO Mar2004-291500Z VRB02KT 9999 FEW040 BKN050 13/07 Q1032 NOSIG RMK PP000 RWY10 11005KT=
SPZO Mar2004-291600Z 00000KT 9999 FEW040 BKN046 15/05 Q1031 NOSIG RMK PP000 RWY10 VRB03KT=
SPZO Mar2004-291700Z VRB03KT 9999 FEW043 BKN050 15/08 Q1030 NOSIG RMK PP000 RWY10 VRB03KT=
SPZO Mar2004-291800Z VRB02KT 9999 FEW043 SCT060 18/05 Q1029 NOSIG RMK PP000 RWY10 VRB05KT=
SPZO Mar2004-291900Z 09005KT 360V170 9999 SCT040 SCT100 OVC300 17/06 Q1027 NOSIG RMK PP000=
SPZO Mar2004-292000Z VRB03KT 9999 SCT040 OVC100 18/07 Q1027 NOSIG RMK PP000=
SPZO Mar2004-292100Z 03006KT 350V100 9999 FEW040 SCT047 OVC100 17/05 Q1027 NOSIG RMK PP000=
SPZO Mar2004-292200Z 02008KT 350V080 9999 SCT043 OVC100 15/05 Q1027 NOSIG RMK PP000 TMAX 18.4=
SPZO Mar2004-292300Z 05005KT 350V100 9999 SCT043 BKN100 14/05 Q1028 NOSIG RMK PP000=
SPZO Mar2004-300000Z 04005KT 9999 FEW040 BKN100 13/04 Q1029 RMK PP000=
SPZO Mar2004-300100Z VRB03KT 9999 SCT040 SCT080 13/05 Q1030 RMK PP000=
SPZO Mar2004-300200Z 00000KT 9999 SCT040 SCT080 12/06 Q1032 RMK PP000=
SPZO Mar2004-300300Z 00000KT 9999 SCT040 SCT070 12/06 Q1032 RMK PP000=
SPZO Mar2004-300400Z 00000KT 9999 SCT040 SCT050 11/06 Q1033 RMK PP000=
SPZO Mar2004-300500Z 00000KT 9999 OVC040 11/06 Q1033 RMK PP000=
SPZO Mar2004-300600Z 08005KT 9999 -RA BKN037 SCT046 09/07 Q1033 RMK PP002=
SPZO Mar2004-300700Z 08005KT 9000 -RA SCT037 SCT046 09/07 Q1033 RMK PP020=
SPZO Mar2004-300800Z 09004KT 8000 -RA SCT037 SCT046 08/06 Q1032 RMK PP016=
SPZO Mar2004-300900Z 00000KT 9000 DZ SCT030 BKN040 07/06 Q1032 RMK PP010=
SPZO Mar2004-301000Z 00000KT 9999 DZ SCT025 BKN040 07/06 Q1032 RMK PP004=
SPZO Mar2004-301100Z 00000KT 9000 -DZ FEW025 SCT037 BKN046 07/06 Q1033 RMK CLNG BLW 1200M PPTRZ=
SPZO Mar2004-301200Z 00000KT 9000 -DZ VCSH SCT025 SCT060 OVC080 08/07 Q1033 TEMPO 9999 NSW SCT025 SCT080 BKN300 RMK PPTRZ=
SPZO Mar2004-301300Z VRB02KT 9999 -DZ SCT025 SCT043 BKN300 09/06 Q1035 NOSIG RMK PP002=
SPZO Mar2004-301400Z VRB01KT 9000 -RA SCT025 BKN043 BKN080 09/06 Q1035 NOSIG RMK PP004=
SPZO Mar2004-301500Z VRB01KT 9999 FEW025 SCT043 BKN100 11/07 Q1035 REDZ NOSIG RMK PP006=
SPZO Mar2004-301600Z VRB01KT 9000 VCSH FEW033 SCT047 BKN100 12/06 Q1034 TEMPO 9999 NSW RMK PP000=
SPZO Mar2004-301700Z VRB02KT 9999 FEW033 SCT060 14/05 Q1033 NOSIG RMK PP000=
SPZO Mar2004-301800Z VRB04KT 9999 SCT040 BKN060 16/07 Q1032 NOSIG RMK PPTRZ=
SPZO Mar2004-301900Z VRB03KT 9999 FEW033 BKN043 16/08 Q1030 NOSIG RMK PP000=
SPZO Mar2004-302000Z VRB01KT 9999 SCT043 SCT300 17/07 Q1029 NOSIG RMK PP000=
SPZO Mar2004-302100Z VRB02KT 9999 SCT043 SCT300 17/06 Q1029 NOSIG RMK PP000=
SPZO Mar2004-302200Z 35005KT 270V020 9999 SCT043 SCT300 15/05 Q1028 NOSIG RMK PP000 TMAX 17.9=
SPZO Mar2004-302300Z 00000KT 9999 SCT043 SCT300 14/05 Q1029 NOSIG RMK PP000=
SPZO Mar2004-310000Z 26004KT 9999 SCT050 SCT100 12/07 Q1030 RMK PP000=
SPZO Mar2004-310100Z 26002KT 9999 BKN050 13/06 Q1032 RMK PP000=
SPZO Mar2004-310200Z 00000KT 9999 BKN050 12/07 Q1032 RMK PP000=
SPZO Mar2004-310300Z 00000KT 9999 BKN050 12/07 Q1033 RMK PP000=
SPZO Mar2004-310400Z 00000KT 9999 BKN050 11/08 Q1033 RMK PP000=
SPZO Mar2004-310500Z 00000KT 9999 BKN050 11/08 Q1032 RMK PP000=
SPZO Mar2004-310600Z 00000KT 9999 BKN050 11/08 Q1032 RMK PP000=
SPZO Mar2004-310700Z VRB02KT 9999 BKN050 09/07 Q1031 RMK PP000=
SPZO Mar2004-310800Z 00000KT 9999 BKN050 08/07 Q1031 RMK PP000=
SPZO Mar2004-310900Z VRB02KT 9999 SCT050 07/05 Q1031 RMK PP000=
SPZO Mar2004-311000Z VRB02KT 9999 SCT050 06/05 Q1031 RMK PP000=
SPZO Mar2004-311100Z 00000KT 9999 SCT050 06/05 Q1032 RMK PP000=
SPZO Mar2004-311200Z 00000KT 8000 SCT040 BKN043 08/06 Q1033 TEMPO 9999 RMK BR PP000=
SPZO Mar2004-311300Z 00000KT 8000 VCSH SCT040 BKN050 10/06 Q1034 TEMPO 9999 RMK PP000=
SPZO Mar2004-311400Z VRB01KT 9999 SCT040 BKN060 13/07 Q1034 NOSIG RMK PPTRZ=
SPZO Mar2004-311500Z 10008KT 080V170 9999 SCT040 BKN060 13/08 Q1034 NOSIG RMK PP000=
SPZO Mar2004-311600Z VRB02KT 9999 FEW030 SCT043 BKN060 15/08 Q1033 NOSIG RMK PP000=
SPZO Mar2004-311700Z 10009KT 080V180 9999 SCT040 SCT060 15/09 Q1032 TEMPO VCSH RMK PP000=
SPZO Mar2004-311800Z 13005KT 070V200 9999 SCT040 SCT047 17/07 Q1031 NOSIG RMK PP000=
SPZO Mar2004-311900Z VRB03KT 9999 FEW043 SCT050 17/07 Q1030 TEMPO VCSH RMK PP000=
SPZO Mar2004-312000Z 28013KT 230V300 9999 FEW043 SCT050 17/08 Q1029 NOSIG RMK PP000 RWY10 29017KT=
SPZO Mar2004-312100Z 27008KT 9999 FEW043 SCT050 18/07 Q1028 NOSIG RMK PP000 RWY10 28011KT=
SPZO Mar2004-312200Z 26005KT 180V350 9999 FEW060 18/07 Q1028 NOSIG RMK PP000 RWY10 30010KT TMX:18.9=
SPZO Mar2004-312300Z 28008KT 9999 FEW050 14/08 Q1029 NOSIG RMK PP000 RWY10 28015KT=
