SPZO Nov2004-010000Z 16004KT 9999 FEW050 SCT100 14/03 Q1029 RMK PP000=
SPZO Nov2004-010100Z 00000KT 9999 FEW050 SCT100 13/03 Q1030 RMK PP000=
SPZO Nov2004-010200Z VRB01KT 9999 FEW040 BKN080 14/03 Q1031 RMK PP000=
SPZO Nov2004-010300Z VRB03KT 9999 FEW040 BKN050 13/04 Q1032 RMK PP000=
SPZO Nov2004-010400Z 33004KT 9999 SCT040 SCT070 13/05 Q1032 RMK PP000=
SPZO Nov2004-010500Z 10008KT 9999 SCT040 SCT060 10/06 Q1032 RMK PP000=
SPZO Nov2004-010600Z 10004KT 9999 FEW040 BKN050 09/06 Q1031 RMK PP000=
SPZO Nov2004-010700Z VRB02KT 9999 OVC040 09/06 Q1030 RMK PP000=
SPZO Nov2004-010800Z VRB02KT 9999 SCT040 SCT050 09/05 Q1030 RMK PP000=
SPZO Nov2004-010900Z 00000KT 9999 BKN040 SCT050 07/05 Q1030 RMK PP000=
SPZO Nov2004-011000Z VRB01KT 9999 FEW030 SCT040 BKN050 08/06 Q1030
SPZO Nov2004-011100Z 00000KT 9999 BKN040 SCT050 09/06 Q1031 RMK PP000=
SPZO Nov2004-011200Z 00000KT 9999 FEW030 BKN100 11/06 Q1032 NOSIG RMK PP000=
SPZO Nov2004-011300Z 00000KT 9999 FEW033 BKN100 13/05 Q1032 NOSIG RMK PP000=
SPZO Nov2004-011400Z 11004KT 070V190 9999 SCT040 BKN080 14/05 Q1032 NOSIG RMK PP000=
SPZO Nov2004-011500Z VRB03KT 9999 SCT040 BKN080 16/04 Q1031 NOSIG RMK PP000=
SPZO Nov2004-011600Z VRB03KT 9999 SCT043 SCT060 18/02 Q1030 NOSIG RMK PP000=
SPZO Nov2004-011700Z 00000KT 9999 BKN043 19/01 Q1029 NOSIG RMK PP000=
SPZO Nov2004-011800Z VRB07KT 9999 SCT043 21/03 Q1028 NOSIG RMK PP000=
SPZO Nov2004-011900Z VRB03KT 9999 SCT043 SCT060 20/02 Q1025 NOSIG RMK PP000=
SPZO Nov2004-012000Z 28007KT 250V350 9999 BKN047 22/03 Q1024 NOSIG RMK PP000=
SPZO Nov2004-012100Z 02007KT 340V080 9999 BKN047 20/04 Q1024 NOSIG RMK PP000=
SPZO Nov2004-012200Z 03006KT 9999 -RA SCT043TCU SCT047 16/06 Q1025 RESHA TEMPO NSW RMK PP006 TMAX 21.8=
SPZO Nov2004-012300Z VRB02KT 9999 SCT043 BKN080 14/06 Q1027 RERA NOSIG RMK PPTRZ=
SPZO Nov2004-020000Z VRB03KT 9999 OVC050 14/05 Q1028 RMK PP000=
SPZO Nov2004-020100Z VRB03KT 9999 OVC050 14/05 Q1030 RMK PP000=
SPZO Nov2004-020200Z VRB06KT 7000 -RA FEW040 BKN050 11/05 Q1032 RMK PP008=
SPZO Nov2004-020300Z 28007KT 260V350 7000 -RA FEW030 BKN040 10/06 Q1032 RMK PP002=
SPZO Nov2004-020400Z 30005KT 260V350 7000 RA FEW030 BKN040 10/06 Q1033 RMK PP012=
SPZO Nov2004-020500Z 27004KT 7000 RA FEW030 BKN040 08/06 Q1032 RMK PP024=
SPZO Nov2004-020600Z 28004KT 250V350 7000 RA FEW030 BKN040 08/05 Q1032 RMK PP012=
SPZO Nov2004-020700Z VRB02KT 8000 FEW030 BKN040 08/04 Q1030 RERA RMK PPTRZ=
SPZO Nov2004-020800Z VRB02KT 9000 OVC040 07/04 Q1030 RMK PP000=
SPZO Nov2004-020900Z 10002KT 9999 BKN040 SCT080 07/04 Q1030 RMK PP000=
SPZO Nov2004-021000Z 00000KT 9999 BKN043 SCT080 06/04 Q1030 RMK PP000=
SPZO Nov2004-021100Z 00000KT 9999 FEW040 SCT043 BKN080 07/05 Q1031 RMK PP000=
SPZO Nov2004-021200Z VRB02KT 9999 FEW025 SCT037 BKN040 09/05 Q1031 TEMPO BKN037 BKN043 RMK PP000=
SPZO Nov2004-021300Z VRB01KT 9999 SCT030 SCT037 BKN040 11/06 Q1032 TEMPO FM1315 SCT033 SCT040 BKN043 RMK PP00=
SPZO Nov2004-021400Z VRB02KT 9999 SCT037 BKN047 13/05 Q1032 NOSIG RMK PP000=
SPZO Nov2004-021500Z VRB03KT 9999 SCT047 16/06 Q1031 NOSIG RMK PP000=
SPZO Nov2004-021600Z 00000KT 9999 SCT047 17/04 Q1030 NOSIG RMK PP000=
SPZO Nov2004-021700Z 25004KT 180V260 9999 BKN043 18/05 Q1028 NOSIG RMK PP000=
SPZO Nov2004-021800Z VRB04KT 9999 BKN043 19/04 Q1027 NOSIG RMK PP000=
SPZO Nov2004-021900Z 26005KT 180V350 9999 BKN050 20/04 Q1025 NOSIG RMK PP000 RWY10 25015G34KT=
SPZO Nov2004-022000Z 28008KT 180V350 9999 TS FEW043CB SCT050 20/06 Q1024 TEMPO RA RMK PP000 RWY10 30018G29KT=
SPZO Nov2004-022100Z VRB03KT 9999 FEW043 SCT050 19/08 Q1023 NOSIG RMK PP020 RWY10 32013KT=
SPZO Nov2004-022200Z 04004KT 360V100 9999 FEW043TCU BKN050 18/07 Q1024 TEMPO VCRA RMK PP000 RWY10 02008KT TMX:22.2=
SPZO Nov2004-022300Z 11006KT 090V170 9999 FEW043TCU BKN060 15/06 Q1025 TEMPO VCRA RMK PP000=
SPZO Nov2004-030000Z 00000KT 9999 BKN050 15/06 Q1027 RMK PP000=
SPZO Nov2004-030100Z 19015KT 160V260 9999 OVC050 12/05 Q1029 RMK PP000=
SPZO Nov2004-030200Z 30007KT 270V350 7000 -RA SCT030 BKN040 11/06 Q1031 RMK PPTRZ=
SPZO Nov2004-030300Z 31007KT 270V350 8000 FEW030 BKN040 11/06 Q1031 RERA RMK PP004=
SPZO Nov2004-030400Z 27006KT 9000 FEW030 BKN040 11/05 Q1030 RMK PP000=
SPZO Nov2004-030500Z 26004KT 9999 OVC040 11/05 Q1029 RMK PP000=
SPZO Nov2004-030600Z 34003KT 290V030 9999 OVC040 11/06 Q1028 RMK PP000=
SPZO Nov2004-030700Z 00000KT 9999 OVC040 10/06 Q1028 RMK PP000=
SPZO Nov2004-030800Z 00000KT 9999 OVC040 10/06 Q1027 RMK PP000=
SPZO Nov2004-030900Z 00000KT 9999 BKN040 07/05 Q1027 RMK PP000=
SPZO Nov2004-031000Z 00000KT 9999 BKN040 08/05 Q1028 RMK PP000=
SPZO Nov2004-031100Z 00000KT 9999 BKN050 09/06 Q1029 RMK PP000=
SPZO Nov2004-031200Z VRB01KT 9999 FEW050 13/06 Q1029 NOSIG RMK PP000=
SPZO Nov2004-031300Z VRB02KT 9999 FEW050 14/06 Q1030 NOSIG RMK PP000=
SPZO Nov2004-031400Z VRB02KT 9999 FEW050 16/05 Q1029 NOSIG RMK PP000=
SPZO Nov2004-031500Z VRB03KT 9999 SCT050 18/05 Q1029 NOSIG RMK PP000=
SPZO Nov2004-031600Z VRB05KT 9999 SCT050 20/02 Q1027 NOSIG RMK PP000=
SPZO Nov2004-031700Z VRB03KT 9999 SCT050 22/05 Q1026 NOSIG RMK PP000=
SPZO Nov2004-031800Z VRB04KT 9999 SCT050 22/02 Q1024 NOSIG RMK PP000=
SPZO Nov2004-031900Z 36008KT 270V080 9999 FEW043 SCT050 23/04 Q1023 NOSIG RMK PP000 RWY10 01016G31KT=
SPZO Nov2004-032000Z 18011KT 160V260 9999 TSRA FEW040CB BKN046 18/05 Q1023=
SPZO Nov2004-032100Z VRB06KT 9999 SCT040TCU BKN046 18/05 Q1023 TEMPO
SPZO Nov2004-032200Z 01011KT 340V080 9999 FEW043 OVC100 16/05 Q1024
SPZO Nov2004-032300Z VRB05KT 9999 FEW043 OVC100 16/04 Q1025 NOSIG RMK
SPZO Nov2004-040000Z 11004KT 9999 SCT040 SCT050 15/05 Q1027 RMK PP000=
SPZO Nov2004-040100Z VRB01KT 9999 SCT040 SCT080 15/05 Q1028 RMK PP000=
SPZO Nov2004-040200Z 00000KT 9999 FEW040 SCT080 14/05 Q1028 RMK PP000=
SPZO Nov2004-040300Z 24004KT 9999 SCT040 SCT070 14/06 Q1029 RMK PP000=
SPZO Nov2004-040400Z 22004KT 9999 FEW040 SCT070 13/05 Q1029 RMK PP000=
SPZO Nov2004-040500Z VRB03KT 9999 FEW040 SCT080 13/04 Q1029 RMK PP000=
SPZO Nov2004-040600Z 00000KT 9999 FEW040 SCT080 10/05 Q1029 RMK PP000=
SPZO Nov2004-040700Z 00000KT 9999 SCT040 SCT050 10/05 Q1029 RMK PP000=
SPZO Nov2004-040800Z 28004KT 9999 FEW040 SCT080 09/04 Q1027 RMK PP000=
SPZO Nov2004-040900Z 00000KT 9999 FEW040 SCT080 09/05 Q1028 RMK PP000=
SPZO Nov2004-041000Z VRB02KT 9999 FEW040 08/05 Q1028 RMK PP000=
SPZO Nov2004-041100Z 00000KT 9999 FEW080 09/05 Q1029 RMK PP000=
SPZO Nov2004-041200Z 00000KT 9999 FEW050 12/05 Q1030 NOSIG RMK PP000=
SPZO Nov2004-041300Z VRB02KT 9999 SCT046 15/05 Q1030 NOSIG RMK PP000=
SPZO Nov2004-041400Z VRB04KT 9999 SCT046 16/05 Q1030 NOSIG RMK PP000=
SPZO Nov2004-041500Z VRB04KT 9999 SCT050 18/05 Q1029 NOSIG RMK PP000 RWY10 11008KT=
SPZO Nov2004-041600Z VRB04KT 9999 SCT050 20/04 Q1028 NOSIG RMK PP000=
SPZO Nov2004-041700Z VRB03KT 9999 FEW043TCU SCT050 21/03 Q1026 NOSIG RMK PP000 RWY10 11011G24KT=
SPZO Nov2004-041800Z 01014KT 340V080 9999 SCT043TCU SCT050 17/03 Q1026 NOSIG RMK PP000 RWY10 02024G45KT RA CDTE W=
SPZO Nov2004-041900Z 36008KT 9999 SCT043 BKN080 18/03 Q1025 NOSIG RMK PP000=
SPZO Nov2004-042000Z 28012KT 250V350 9999 SCT043 BKN080 19/05 Q1024 NOSIG RMK PP000 RWY10 29021KT 250V330=
SPZO Nov2004-042100Z 27012KT 9999 FEW043 BKN080 19/05 Q1024 NOSIG RMK PP000 RWY10 29021G31KT 240V340=
SPZO Nov2004-042200Z 27011KT 250V360 9999 FEW043 BKN100 18/04 Q1024 NOSIG RMK PP000 TMAX 22.3=
SPZO Nov2004-042300Z 27010KT 9999 FEW300 16/06 Q1025 NOSIG RMK PP000=
SPZO Nov2004-050000Z 27006KT 9999 FEW100 14/06 Q1026 RMK PP000=
SPZO Nov2004-050100Z 26005KT 9999 FEW050 14/06 Q1027 RMK PP000=
SPZO Nov2004-050200Z 28005KT 9999 SCT100 14/06 Q1028 RMK PP000=
SPZO Nov2004-050300Z 27004KT 9999 FEW040 SCT100 13/07 Q1029 RMK PP000=
SPZO Nov2004-050400Z 26006KT 9999 SCT040TCU BKN046 11/06 Q1029 RMK
SPZO Nov2004-050500Z 00000KT 9999 SCT040TCU BKN050 13/07 Q1029 RMK PP000=
SPZO Nov2004-050600Z 00000KT 9999 BKN040 SCT050 13/08 Q1028 RMK PP000=
SPZO Nov2004-050700Z VRB02KT 9999 SCT040 SCT070 12/08 Q1028 RMK PP000=
SPZO Nov2004-050800Z 36008KT 9999 OVC040 12/06 Q1028 RMK PP000=
SPZO Nov2004-050900Z VRB03KT 9999 OVC040 12/05 Q1028 RMK PP000=
SPZO Nov2004-051000Z 10006KT 9999 VCRA BKN040 SCT046 11/06 Q1029 RMK
SPZO Nov2004-051100Z VRB03KT 9999 BKN040 SCT050 11/06 Q1030 RMK PP000=
SPZO Nov2004-051200Z VRB02KT 9999 SCT043 OVC300 13/06 Q1030 NOSIG RMK PP000=
SPZO Nov2004-051300Z VRB05KT 9999 SCT043 BKN300 15/05 Q1030 NOSIG RMK PP000=
SPZO Nov2004-051400Z VRB04KT 9999 FEW043 SCT080 16/05 Q1030 NOSIG RMK PP000=
SPZO Nov2004-051500Z VRB03KT 9999 SCT043 18/05 Q1030 NOSIG RMK PP000=
SPZO Nov2004-051600Z VRB05KT 9999 SCT043 BKN300 19/04 Q1029 NOSIG RMK PP000=
SPZO Nov2004-051700Z VRB05KT 9999 SCT043 BKN300 20/03 Q1028 NOSIG RMK PP000=
SPZO Nov2004-051800Z 36007KT 270V080 9999 SCT043 BKN300 21/04 Q1026 NOSIG RMK PP000=
SPZO Nov2004-051900Z 36009KT 340V080 9999 SCT043 BKN300 21/02 Q1024 NOSIG RMK PP000=
SPZO Nov2004-052000Z 01009KT 340V080 9999 SCT043 BKN300 21/01 Q1023 NOSIG RMK PP000=
SPZO Nov2004-052100Z 01013KT 340V090 9999 SCT043CB BKN300 19/02 Q1024 NOSIG RMK PP000=
SPZO Nov2004-052200Z 10017KT 9999 -RA SCT043CB SCT047 14/04 Q1027 TEMPO NSW RMK PPTRZ TMAX 22.1=
SPZO Nov2004-052300Z 11004KT 080V170 9999 -RA BKN043 11/07 Q1028
SPZO Nov2004-060000Z 27009KT 9000 OVC040 11/07 Q1028 RERA PP004=
SPZO Nov2004-060100Z 10005KT 9999 OVC040 10/07 Q1030 RMK PP000=
SPZO Nov2004-060200Z 00000KT 9999 OVC040 11/07 Q1031 RMK PP000=
SPZO Nov2004-060300Z 00000KT 9999 OVC040 11/07 Q1031 RMK PP000=
SPZO Nov2004-060400Z 00000KT 9999 OVC040 10/07 Q1031 RMK PP000=
SPZO Nov2004-060500Z 00000KT 9999 OVC040 10/07 Q1030 RMK PP000=
SPZO Nov2004-060600Z 00000KT 9999 OVC040 10/07 Q1029 RMK PP000=
SPZO Nov2004-060700Z 00000KT 9999 OVC040 10/07 Q1028 RMK PP000=
SPZO Nov2004-060800Z 00000KT 9999 OVC040 10/07 Q1028 RMK PP000=
SPZO Nov2004-060900Z 08003KT 9999 BKN040 08/06 Q1028 RMK PP000=
SPZO Nov2004-061000Z 00000KT 8000 -DZ BKN040 08/05 Q1029 RMK PPTRZ=
SPZO Nov2004-061100Z 00000KT 9999 BKN040 08/06 Q1029 RMK PP000=
SPZO Nov2004-061200Z VRB02KT 9999 FEW043 11/07 Q1030 NOSIG RMK PP000=
SPZO Nov2004-061300Z VRB03KT 9999 FEW030 BKN040 12/07 Q1031 NOSIG RMK PP000=
SPZO Nov2004-061400Z 07004KT 360V100 9999 FEW030 BKN040 13/07 Q1031 NOSIG RMK PP000=
SPZO Nov2004-061500Z 10008KT 080V170 9999 SCT043 SCT080 16/07 Q1030
SPZO Nov2004-061600Z VRB04KT 9999 SCT043 BKN060 16/05 Q1029 NOSIG RMK PP000=
SPZO Nov2004-061700Z 28004KT 180V350 9999 SCT040 BKN060 19/05 Q1028 NOSIG RMK PP000=
SPZO Nov2004-061800Z VRB03KT 9999 BKN043 SCT060 19/04 Q1026 NOSIG RMK PP000=
SPZO Nov2004-061900Z VRB04KT 9999 FEW043TCU SCT050 19/04 Q1024 TEMPO VCRA RMK PP000 RWY10 28011KT=
SPZO Nov2004-062000Z VRB06KT 9999 FEW043TCU BKN050 17/06 Q1024 TEMPO VCRA RMK PP000 RWY10 27017KT RA CDTE W=
SPZO Nov2004-062100Z 27008KT 9999 SCT043 BKN100 17/07 Q1024 TEMPO VCSH RMK WIND RWY10 29011KT PP000=
SPZO Nov2004-062200Z VRB04KT 9999 SCT043TCU BKN050 15/07 Q1025 TEMPO VCRA RMK PP000 RWY10 30012G23KT TMX:20.8 RA CDTE W=
SPZO Nov2004-062300Z 27007KT 9999 -RA SCT043 BKN060 13/08 Q1026 NOSIG RMK PPTRZ=
SPZO Nov2004-070000Z 28008KT 250V350 9000 OVC040 12/08 Q1027 RERA RMK PP002=
SPZO Nov2004-070100Z 11002KT 010V180 9999 OVC040 13/07 Q1029 RMK PP000=
SPZO Nov2004-070200Z 00000KT 9999 OVC040 13/06 Q1029 RMK PP000=
SPZO Nov2004-070300Z 28007KT 7000 -RA SCT030 BKN040 12/08 Q1030 RMK PP002=
SPZO Nov2004-070400Z 11004KT 7000 -RA SCT030 BKN040 10/08 Q1031 RMK PP006=
SPZO Nov2004-070500Z 00000KT 7000 RA SCT030 BKN040 10/08 Q1030 RMK PP018=
SPZO Nov2004-070600Z 08008KT 7000 +RA SCT030 BKN040 08/06 Q1031 RMK PP038=
SPZO Nov2004-070700Z 10005KT 080V170 7000 RA SCT030 BKN040 08/06 Q1031 RMK PP016=
SPZO Nov2004-070800Z 12003KT 7000 RA SCT030 BKN040 07/04 Q1031 RMK PP020=
SPZO Nov2004-070900Z 00000KT 7000 RA SCT030 BKN040 07/04 Q1031
SPZO Nov2004-071000Z 00000KT 7000 -RA FEW030 BKN040 07/04 Q1031
SPZO Nov2004-071100Z 00000KT 9000 FEW030 SCT040 BKN050 07/04 Q1032
SPZO Nov2004-071200Z 00000KT 9999 FEW033 OVC060 08/04 Q1032 NOSIG RMK PP000 BCBR CDTE E=
SPZO Nov2004-071300Z VRB01KT 9999 FEW036 OVC050 10/04 Q1033 NOSIG RMK PP000=
SPZO Nov2004-071400Z VRB01KT 9999 FEW036 OVC050 10/04 Q1033 NOSIG RMK PP000=
SPZO Nov2004-071500Z VRB01KT 9999 FEW036 OVC050 13/05 Q1033 NOSIG RMK PP000=
SPZO Nov2004-071600Z VRB03KT 9999 FEW036 OVC050 14/04 Q1032 NOSIG RMK PP000=
SPZO Nov2004-071700Z VRB03KT 9999 FEW043 BKN050 15/05 Q1031 NOSIG RMK PP000=
SPZO Nov2004-071800Z VRB03KT 9999 FEW046 BKN070 16/04 Q1030 NOSIG RMK
SPZO Nov2004-071900Z VRB02KT 9999 FEW046 BKN100 17/03 Q1029 NOSIG RMK
SPZO Nov2004-072000Z 34009KT 9999 FEW043 BKN060 14/06 Q1028 TEMPO -RA
SPZO Nov2004-072100Z 35006KT 9999 FEW040 OVC060 14/07 Q1028 TEMPO VCRA
SPZO Nov2004-072200Z VRB02KT 9999 FEW036 BKN050 13/06 Q1029 NOSIG RMK
SPZO Nov2004-072300Z 10006KT 090V170 9999 FEW036 BKN050 12/07 Q1030
SPZO Nov2004-080000Z VRB02KT 9999 SCT040 SCT050 11/07 Q1031 RMK PP000=
SPZO Nov2004-080100Z VRB03KT 9999 FEW040 SCT050 11/07 Q1031 RMK PP000=
SPZO Nov2004-080200Z VRB03KT 9999 FEW030 SCT050 11/07 Q1032 RMK PP000=
SPZO Nov2004-080300Z VRB02KT 9999 FEW040 SCT050 10/07 Q1032 RMK PP000=
SPZO Nov2004-080400Z VRB02KT 9999 SCT040 SCT050 10/07 Q1032 RMK PP000=
SPZO Nov2004-080500Z 00000KT 9999 SCT040 SCT046 10/07 Q1031 RMK PP000=
SPZO Nov2004-080600Z 00000KT 9999 BKN040 SCT046 10/07 Q1031 RMK PP000=
SPZO Nov2004-080700Z 00000KT 9999 BKN040 SCT046 10/08 Q1030 RMK PP000=
SPZO Nov2004-080800Z VRB02KT 9999 OVC040 10/08 Q1030 RMK PP000=
SPZO Nov2004-080900Z 00000KT 9999 BKN040 SCT050 10/08 Q1030 RMK PP000=
SPZO Nov2004-081000Z VRB03KT 9999 FEW025 SCT043 BKN050 10/08 Q1030 RMK PP000=
SPZO Nov2004-081100Z VRB02KT 9999 SCT025 SCT050 09/08 Q1031 RMK PP000=
SPZO Nov2004-081200Z 00000KT 9999 FEW033 SCT036 SCT046 11/08 Q1032
SPZO Nov2004-081300Z VRB01KT 9999 FEW036 BKN046 14/08 Q1032 NOSIG RMK
SPZO Nov2004-081400Z VRB02KT 9999 FEW036 BKN046 16/06 Q1032 NOSIG RMK
SPZO Nov2004-081500Z VRB04KT 9999 SCT050 17/05 Q1031 NOSIG RMK PP000
SPZO Nov2004-081600Z VRB03KT 9999 SCT050 19/05 Q1029 NOSIG RMK PP000
SPZO Nov2004-081700Z 06005KT 350V110 9999 FEW040 BKN050 19/04 Q1028 NOSIG RMK PP000 RWY10 08011KT RA CDTE NE/E=
SPZO Nov2004-081800Z VRB06KT 9999 SCT043 BKN046 17/05 Q1028 NOSIG RMK PP000 RWY10 35010G21KT RA CDTE E=
SPZO Nov2004-081900Z VRB02KT 9999 VCSH SCT043 SCT047CB BKN060 16/04 Q1028 NOSIG RMK PP000=
SPZO Nov2004-082000Z 08004KT 9999 -DZ VCSH FEW040 SCT043 BKN080 15/08 Q1028 NOSIG PPTRZ=
SPZO Nov2004-082100Z 12009KT 080V170 9999 -DZ FEW030 SCT047 BKN080 14/07 Q1028 NOSIG RMK PPTRZ=
SPZO Nov2004-082200Z 10009KT 9999 SCT040 BKN060 14/05 Q1028 REDZ NOSIG RKM PPTRZ TMAX 19.5=
SPZO Nov2004-082300Z 10005KT 070V180 9999 SCT043 BKN080 13/06 Q1028 NOSIG RMK PP000=
SPZO Nov2004-090000Z VRB02KT 9999 SCT040 SCT080 12/06 Q1029 RMK PP000=
SPZO Nov2004-090100Z VRB01KT 9999 FEW040 SCT100 12/07 Q1030 RMK PP000=
SPZO Nov2004-090200Z VRB02KT 9999 SCT080 10/07 Q1031 RMK PP000=
SPZO Nov2004-090300Z 00000KT 9999 FEW040 SCT100 10/07 Q1032 RMK PP000=
SPZO Nov2004-090400Z 00000KT 9999 -RA OVC040 11/07 Q1032 RMK PP002=
SPZO Nov2004-090500Z VRB02KT 9999 SCT040 SCT070 11/07 Q1032 RMK PPTRZ=
SPZO Nov2004-090600Z 00000KT 9999 SCT040 SCT050 11/07 Q1031 RMK PP000=
SPZO Nov2004-090700Z 00000KT 9999 BKN040 SCT046 10/07 Q1030 RMK PP000=
SPZO Nov2004-090800Z 00000KT 9999 BKN040 SCT050 10/06 Q1030 RMK PP000=
SPZO Nov2004-090900Z 00000KT 9999 SCT040 SCT050 09/07 Q1029 RMK PP000=
SPZO Nov2004-091000Z 00000KT 9999 SCT040 SCT070 08/05 Q1030 RMK PP000=
SPZO Nov2004-091100Z 00000KT 9999 FEW043 SCT300 09/06 Q1030 RMK PP000=
SPZO Nov2004-091200Z VRB01KT 9999 FEW043 SCT100 BKN300 12/06 Q1031 NOSIG RMK PP000=
SPZO Nov2004-091300Z VRB02KT 9999 FEW043 14/06 Q1032 NOSIG RMK PP000=
SPZO Nov2004-091400Z VRB02KT 9999 FEW043 BKN100 17/05 Q1032 NOSIG RMK PP000=
SPZO Nov2004-091500Z VRB03KT 9999 SCT043 SCT080 18/05 Q1031 NOSIG RMK PP000=
SPZO Nov2004-091600Z 00000KT 9999 VCSH BKN043 18/04 Q1030 NOSIG RMK PP000=
SPZO Nov2004-091700Z VRB04KT 9999 FEW040 SCT043 19/06 Q1029 NOSIG RMK PP000=
SPZO Nov2004-091800Z 02013G23KT 270V080 9999 VCSH FEW030 SCT043CB BKN047TCU 19/04 Q1028 TEMPO -RA RMK PP000=
SPZO Nov2004-091900Z 16007KT 090V200 9999 -RA SCT043CB BKN047 11/06 Q1030 TEMPO FM1920 NSW RMK RWY10 12012G24KT 070V150 PP014=
SPZO Nov2004-092000Z 36007KT 270V080 9999 SCT047 BKN080 13/06 Q1028 NOSIG RMK PPTRZ=
SPZO Nov2004-092100Z 31004KT 250V350 9999 FEW043 OVC100 14/06 Q1028 NOSIG RMK PP000=
SPZO Nov2004-092200Z 10004KT 350V110 9999 FEW060 BKN080 14/06 Q1028 NOSIG RMK PP000 TMAX 22.0=
SPZO Nov2004-092300Z VRB02KT 9999 FEW060 BKN080 13/06 Q1028 NOSIG RMK PP000=
SPZO Nov2004-100000Z 08002KT 9999 OVC050 12/07 Q1030 RMK PP000=
SPZO Nov2004-100100Z 00000KT 9999 OVC050 11/07 Q1030 RMK PP000=
SPZO Nov2004-100200Z 00000KT 9999 OVC050 11/08 Q1031 RMK PP000=
SPZO Nov2004-100300Z 11011KT 080V170 9999 OVC050 10/05 Q1032 RMK PP000=
SPZO Nov2004-100400Z 11005KT 080V170 8000 -DZ OVC050 09/05 Q1032 RMK PPTRZ=
SPZO Nov2004-100500Z 00000KT 9000 OVC050 09/05 Q1031 REDZ RMK PP002=
SPZO Nov2004-100600Z 00000KT 9999 OVC050 08/05 Q1030 RMK PP000=
SPZO Nov2004-100700Z 00000KT 9999 OVC050 08/05 Q1030 RMK PP000=
SPZO Nov2004-100800Z 18002KT 9999 OVC050 07/04 Q1030 RMK PP000=
SPZO Nov2004-100900Z 00000KT 9999 BKN050 06/04 Q1030 RMK PP000=
SPZO Nov2004-101000Z 00000KT 9999 SCT050 06/04 Q1030 RMK PP000=
SPZO Nov2004-101100Z 00000KT 9999 FEW050 SCT100 06/04 Q1030 RMK PP000=
SPZO Nov2004-101200Z 00000KT 9999 SCT300 10/06 Q1031 NOSIG RMK PP000=
SPZO Nov2004-101300Z VRB02KT 9999 FEW043 13/06 Q1031 NOSIG RMK PP000=
SPZO Nov2004-101400Z 00000KT 9999 FEW043 16/05 Q1031 NOSIG RMK PP000=
SPZO Nov2004-101500Z VRB02KT 9999 FEW043 18/01 Q1030 NOSIG RMK PP000=
SPZO Nov2004-101600Z VRB03KT 9999 FEW043 20/03 Q1029 NOSIG RMK PP000=
SPZO Nov2004-101700Z VRB03KT 9999 FEW047 21/01 Q1027 NOSIG RMK PP000=
SPZO Nov2004-101800Z VRB06KT 9999 SCT047 24/M01 Q1026 NOSIG RMK PP000=
SPZO Nov2004-101900Z VRB05KT 9999 SCT050 24/M00 Q1024 NOSIG RMK PP000=
SPZO Nov2004-102000Z 10009KT 080V170 9999 BKN050 22/04 Q1024 NOSIG RMK PP000 RWY10 05011KT=
SPZO Nov2004-102100Z 01015KT 9999 SCT060 20/05 Q1024 NOSIG RMK PP000 RWY10 02021G35KT==
SPZO Nov2004-102200Z 36012KT 340V080 9999 FEW100 19/04 Q1024 NOSIG RMK PP000 RWY10 01018G35KT TMX:25.0=
SPZO Nov2004-102300Z 01011KT 350V080 9999 FEW200 18/03 Q1025 NOSIG RMK PP000 RWY10 04008G19KT=
SPZO Nov2004-110000Z 22004KT 160V260 9999 SCT050 16/04 Q1026 RMK PP000=
SPZO Nov2004-110100Z 09004KT 9999 SCT050 13/05 Q1028 RMK PP000=
SPZO Nov2004-110200Z 28004KT 9999 SCT050 12/05 Q1029 RMK PP000=
SPZO Nov2004-110300Z 09003KT 010V170 9999 SCT050 12/06 Q1029 RMK PP000=
SPZO Nov2004-110400Z 16003KT 120V200 9999 SCT050 12/05 Q1028 RMK PP000=
SPZO Nov2004-110500Z 30003KT 9999 SCT050 11/06 Q1028 RMK PP000=
SPZO Nov2004-110600Z 25002KT 9999 SCT050 09/06 Q1028 RMK PP000=
SPZO Nov2004-110700Z 00000KT 9999 SCT050 08/05 Q1028 RMK PP000=
SPZO Nov2004-110800Z 00000KT 9999 SCT050 08/05 Q1027 RMK PP000=
SPZO Nov2004-110900Z 10002KT 9999 SCT050 07/04 Q1028 RMK PP000=
SPZO Nov2004-111000Z 00000KT 9999 SCT050 07/04 Q1029 RMK PP000=
SPZO Nov2004-111100Z 00000KT 9999 FEW050 SCT100 08/05 Q1029 RMK PP000=
SPZO Nov2004-111200Z 00000KT 9999 FEW040 BKN046 12/06 Q1030 NOSIG RMK PP000=
SPZO Nov2004-111300Z VRB02KT 9999 FEW040 SCT050 15/06 Q1030 NOSIG RMK PP000=
SPZO Nov2004-111400Z VRB04KT 9999 SCT050 16/06 Q1030 NOSIG RMK PP000=
SPZO Nov2004-111500Z VRB02KT 9999 SCT050 19/05 Q1029 NOSIG RMK PP000=
SPZO Nov2004-111600Z VRB05KT 9999 SCT060 21/02 Q1028 NOSIG RMK PP000 RWY10 33010G22KT=
SPZO Nov2004-111700Z VRB06KT 9999 SCT060 22/M00 Q1026 NOSIG RMK PP000 RWY10 27011KT=
SPZO Nov2004-111800Z VRB05KT 9999 FEW046 BKN100 24/M03 Q1025 NOSIG RMK
SPZO Nov2004-111900Z 01009KT 340V100 9999 FEW046 SCT100 22/05 Q1024
SPZO Nov2004-112000Z 01011KT 340V080 9999 FEW046 BKN080 20/03 Q1023
SPZO Nov2004-112100Z 02007KT 270V080 9999 FEW046 SCT200 21/03 Q1022
SPZO Nov2004-112200Z 01008KT 340V090 9999 FEW050 20/03 Q1022 NOSIG RMK
SPZO Nov2004-112300Z 01012KT 340V080 9999 FEW046 17/05 Q1022 NOSIG RMK
SPZO Nov2004-120000Z 07006KT 9999 FEW050 16/05 Q1024 RMK PP000=
SPZO Nov2004-120100Z VRB03KT 9999 FEW050 14/06 Q1025 RMK PP000=
SPZO Nov2004-120200Z 00000KT 9999 SCT040 SCT050 15/06 Q1027 RMK PP000=
SPZO Nov2004-120300Z 10005KT 9999 SCT040 SCT050 14/06 Q1028 RMK PP000=
SPZO Nov2004-120400Z 07004KT 9999 BKN040 SCT046 13/06 Q1027 RMK PP000=
SPZO Nov2004-120500Z 00000KT 9999 BKN040 13/06 Q1027 RMK PP000=
SPZO Nov2004-120600Z 10004KT 9999 SCT040 12/07 Q1026 RMK PP000=
SPZO Nov2004-120700Z 10006KT 9999 OVC040 12/06 Q1025 RMK PP000=
SPZO Nov2004-120800Z VRB02KT 9999 SCT040 SCT050 12/06 Q1025 RMK PP000=
SPZO Nov2004-120900Z 00000KT 9999 BKN050 11/05 Q1026 RMK PP000=
SPZO Nov2004-121000Z VRB03KT 9999 SCT040 SCT050 10/05 Q1026 RMK PP000=
SPZO Nov2004-121100Z 10004KT 9999 BKN040 SCT070 10/05 Q1026 RMK PP000=
SPZO Nov2004-121200Z 09004KT 9999 SCT043 BKN046 11/05 Q1028 NOSIG RMK
SPZO Nov2004-121300Z VRB03KT 9999 SCT043 OVC050 13/05 Q1029 NOSIG RMK
SPZO Nov2004-121400Z VRB02KT 9999 FEW040 OVC080 15/05 Q1029 NOSIG RMK
SPZO Nov2004-121500Z VRB03KT 9999 FEW043 OVC100 17/05 Q1028 NOSIG RMK
SPZO Nov2004-121600Z VRB04KT 9999 FEW046 OVC100 18/04 Q1027 NOSIG RMK
SPZO Nov2004-121700Z VRB04KT 9999 FEW046 OVC100 20/03 Q1026 NOSIG RMK
SPZO Nov2004-121800Z VRB05KT 9999 FEW046 BKN100 20/02 Q1025 NOSIG RMK PP000 RWY10 16010KT=
SPZO Nov2004-121900Z 30007KT 250V020 9999 SCT043 OVC300 21/03 Q1023 NOSIG RMK PP000=
SPZO Nov2004-122000Z 30008KT 250V010 9999 BKN043 21/01 Q1022 NOSIG RMK PP000=
SPZO Nov2004-122100Z 00000KT 9999 BKN043 21/02 Q1021 NOSIG RMK RWY10 27014G26KT 210V330 PP000=
SPZO Nov2004-122200Z 11015KT 080V170 9999 -SHRA BKN043CB SCT047 14/05 Q1024 TEMPO NSW RMK RWY10 12036G51KT 080V150 PPTRZ TMAX 22.3=
SPZO Nov2004-122300Z 11008KT 080V180 9999 BKN043 SCT080 14/01 Q1026 RESHRA RMK PPTRZ=
SPZO Nov2004-130000Z VRB03KT 9999 BKN040 SCT070 14/03 Q1025 RMK PP000=
SPZO Nov2004-130100Z VRB03KT 9999 FEW040 SCT050 13/03 Q1025 RMK PP000=
SPZO Nov2004-130200Z 00000KT 9999 SCT050 12/03 Q1026 RMK PP000=
SPZO Nov2004-130300Z 28004KT 9999 FEW040 SCT050 11/04 Q1027 RMK PP000=
SPZO Nov2004-130400Z 00000KT 9999 SCT050 09/03 Q1027 RMK PP000=
SPZO Nov2004-130500Z 00000KT 9999 FEW040 SCT050 09/04 Q1027 RMK PP000=
SPZO Nov2004-130600Z 00000KT 9999 SCT040 SCT050 09/03 Q1026 RMK PP000=
SPZO Nov2004-130700Z 00000KT 9999 SCT050 07/04 Q1026 RMK PP000=
SPZO Nov2004-130800Z 00000KT 9999 SCT050 08/04 Q1026 RMK PP000=
SPZO Nov2004-130900Z 00000KT 9999 SCT050 07/04 Q1026 RMK PP000=
SPZO Nov2004-131000Z 00000KT 9999 FEW040 SCT200 07/03 Q1027 RMK PP000=
SPZO Nov2004-131100Z 00000KT 9999 FEW037 06/04 Q1027 NOSIG RMK PP000=
SPZO Nov2004-131200Z 00000KT 9999 FEW043 SCT100 10/05 Q1028 NOSIG RMK PP000=
SPZO Nov2004-131300Z VRB02KT 9999 FEW040 BKN080 12/06 Q1028 NOSIG RMK PP000=
SPZO Nov2004-131400Z VRB02KT 9999 SCT043 SCT060 15/05 Q1028 NOSIG RMK PP000=
SPZO Nov2004-131500Z VRB03KT 9999 SCT043 SCT080 17/05 Q1028 NOSIG RMK PP000=
SPZO Nov2004-131600Z 00000KT 9999 FEW043 SCT047 19/04 Q1027 NOSIG RMK PP000=
SPZO Nov2004-131700Z VRB04KT 9999 BKN043 20/04 Q1025 NOSIG RMK PP000=
SPZO Nov2004-131800Z 34008KT 9999 BKN043 18/03 Q1025 NOSIG RMK PP004=
SPZO Nov2004-131900Z 00000KT 9999 SCT043 BKN080 18/04 Q1023 NOSIG RMK PP000=
SPZO Nov2004-132000Z 34015KT 270V350 9999 -RA SCT043TCU SCT060 17/05 Q1024 RESHRA TEMPO NSW RMK PPTRZ=
SPZO Nov2004-132100Z VRB01KT 9999 SCT043 SCT060 17/05 Q1023 RERA NOSIG RMK PP002=
SPZO Nov2004-132200Z VRB03KT 9999 SCT047 18/05 Q1023 NOSIG RMK PP000 TMAX 21.4=
SPZO Nov2004-132300Z 36007KT 9999 FEW047 16/05 Q1023 NOSIG RMK PP000=
SPZO Nov2004-140000Z 00000KT 9999 SCT050 14/06 Q1025 RMK PP000=
SPZO Nov2004-140100Z 00000KT 9999 SCT050 12/06 Q1026 RMK PP000=
SPZO Nov2004-140200Z 00000KT 9999 SCT050 12/06 Q1027 RMK PP000=
SPZO Nov2004-140300Z 00000KT 9999 BKN050 12/06 Q1028 RMK PP000=
SPZO Nov2004-140400Z 00000KT 9999 BKN050 12/06 Q1029 RMK PP000=
SPZO Nov2004-140500Z 27004KT 9999 BKN050 10/05 Q1028 RMK PP000=
SPZO Nov2004-140600Z 00000KT 9999 BKN050 09/05 Q1028 RMK PP000=
SPZO Nov2004-140700Z 00000KT 9999 BKN050 09/05 Q1028 RMK PP000=
SPZO Nov2004-140800Z 00000KT 9999 BKN050 08/05 Q1028 RMK PP000=
SPZO Nov2004-140900Z 00000KT 9999 SCT050 07/04 Q1028 RMK PP000=
SPZO Nov2004-141000Z 00000KT 9999 SCT050 06/04 Q1029 RMK PP000=
SPZO Nov2004-141100Z 00000KT 9999 SCT050 07/04 Q1029 RMK PP000=
SPZO Nov2004-141200Z 00000KT 9999 SCT037 BKN040 10/05 Q1030 TEMPO BKN037 RMK PP000=
SPZO Nov2004-141300Z 00000KT 9999 FEW030 BKN043 12/06 Q1030 NOSIG RMK PP000=
SPZO Nov2004-141400Z VRB01KT 9999 SCT043 15/05 Q1030 NOSIG RMK PP000=
SPZO Nov2004-141500Z 00000KT 9999 SCT047 18/05 Q1029 NOSIG RMK PP000=
SPZO Nov2004-141600Z 35005KT 270V020 9999 SCT047 19/03 Q1028 NOSIG RMK PP000=
SPZO Nov2004-141700Z VRB03KT 9999 SCT043 SCT060 21/03 Q1027 NOSIG RMK PP000=
SPZO Nov2004-141800Z 24011G21KT 180V270 9999 BKN043 21/03 Q1026 NOSIG RMK RWY10 24020G30KT 210V290 PP000=
SPZO Nov2004-141900Z VRB03KT 9999 FEW046 SCT100 22/01 Q1024 NOSIG RMK PP000 RWY10 34007KT=
SPZO Nov2004-142000Z 35010KT 270V020 9999 FEW046 BKN100 20/02 Q1024 NOSIG RMK PP000 RWY10 35019G31KT=
SPZO Nov2004-142100Z 01012KT 340V080 9999 FEW046 BKN100 20/03 Q1023 NOSIG RMK PP000 RWY10 35020G36KT=
SPZO Nov2004-142200Z 01007KT 9999 FEW046 18/01 Q1024 NOSIG RMK PP000 RWY10 02017G34KT TMX:22.9=
SPZO Nov2004-142300Z 34005KT 9999 FEW050 17/02 Q1024 NOSIG RMK PP000=
SPZO Nov2004-150000Z 29005KT 250V350 9999 SCT050 15/04 Q1026 RMK PP000=
SPZO Nov2004-150100Z VRB02KT 9999 SCT050 14/04 Q1027 RMK PP000=
SPZO Nov2004-150200Z 31006KT 260V350 9999 BKN040 15/06 Q1029 RMK PP000=
SPZO Nov2004-150300Z 22005KT 160V270 7000 RA SCT030 BKN040 10/06 Q1030 RMK PP014=
SPZO Nov2004-150400Z VRB02KT 8000 FEW030 SCT040 BKN050 09/06 Q1030 RERA RMK PP006=
SPZO Nov2004-150500Z 00000KT 9999 OVC050 10/06 Q1029 RMK PP000=
SPZO Nov2004-150600Z 00000KT 9999 OVC050 10/07 Q1029 RMK PP000=
SPZO Nov2004-150700Z 00000KT 9999 OVC050 10/07 Q1029 RMK PP000=
SPZO Nov2004-150800Z 08003KT 9999 OVC050 10/08 Q1028 RMK PP000=
SPZO Nov2004-150900Z 00000KT 9999 OVC050 10/07 Q1029 RMK PP000=
SPZO Nov2004-151000Z 00000KT 9999 BKN050 09/07 Q1029 RMK PP000=
SPZO Nov2004-151100Z 00000KT 9999 SCT050 SCT100 08/06 Q1030 RMK PP000=
SPZO Nov2004-151200Z 00000KT 9999 FEW036 SCT046 12/07 Q1031 NOSIG RMK PP000=
SPZO Nov2004-151300Z VRB02KT 9999 SCT043 15/06 Q1031 NOSIG RMK PP000=
SPZO Nov2004-151400Z VRB03KT 9999 SCT050 17/06 Q1030 NOSIG RMK PP000 RWY10 11005KT=
SPZO Nov2004-151500Z VRB04KT 9999 SCT050 18/04 Q1029 NOSIG RMK PP000 RWY10 11010KT=
SPZO Nov2004-151600Z VRB05KT 9999 SCT050 20/03 Q1028 NOSIG RMK PP000 RWY10 03008KT=
SPZO Nov2004-151700Z VRB05KT 9999 SCT060 21/03 Q1027 NOSIG RMK PP000 RWY10 31008KT=
SPZO Nov2004-151800Z VRB06KT 9999 SCT060 22/04 Q1025 NOSIG RMK PP000 RWY10 25011KT=
SPZO Nov2004-151900Z 28012KT 180V350 9999 SCT050 24/02 Q1024 NOSIG RMK
SPZO Nov2004-152000Z 28009KT 250V350 9999 SCT050 23/02 Q1023 NOSIG RMK
SPZO Nov2004-152100Z 28010KT 250V350 9999 SCT050 23/01 Q1022 NOSIG RMK
SPZO Nov2004-152200Z 26011KT 260V350 9999 FEW046 22/00 Q1023 NOSIG RMK
SPZO Nov2004-152300Z 36008KT 340V080 9989 FEW046 18/06 Q1024 NOSIG RMK
SPZO Nov2004-160000Z 10005KT 9999 FEW050 16/06 Q1025 RMK PP000=
SPZO Nov2004-160100Z 34007KT 9999 FEW100 15/06 Q1027 RMK PP000=
SPZO Nov2004-160200Z VRB02KT 9999 FEW100 14/07 Q1027 RMK PP000=
SPZO Nov2004-160300Z VRB03KT 9999 FEW050 13/07 Q1028 RMK PP000=
SPZO Nov2004-160400Z 25005KT 9999 BKN040 13/06 Q1029 RMK PP000=
SPZO Nov2004-160500Z VRB02KT 9999 FEW040 SCT050 12/06 Q1029 RMK PP000=
SPZO Nov2004-160600Z 00000KT 9999 SCT040 SCT050 12/06 Q1029 RMK PP000=
SPZO Nov2004-160700Z VRB03KT 9999 BKN040 12/06 Q1028 RMK PP000=
SPZO Nov2004-160800Z VRB02KT 9999 FEW040 SCT050 11/06 Q1027 RMK PP000=
SPZO Nov2004-160900Z VRB02KT 9999 SCT040 SCT050 11/06 Q1027 RMK PP000=
SPZO Nov2004-161100Z VRB02KT 9999 SCT043 SCT070 11/06 Q1029 RMK PP000=
SPZO Nov2004-161200Z VRB02KT 9999 FEW046 OVC080 12/06 Q1030 NOSIG RMK
SPZO Nov2004-161300Z VRB02KT 9999 FEW046 OVC080 15/07 Q1030 NOSIG RMK PP000 RWY10 30005KT=
SPZO Nov2004-161400Z VRB03KT 9999 FEW046 OVC100 17/05 Q1031 NOSIG RMK PP000=
SPZO Nov2004-161500Z VRB02KT 9999 FEW046 BKN100 19/05 Q1030 NOSIG RMK PP000=
SPZO Nov2004-161600Z VBB05KT 9999 FEW046 OVC100 19/04 Q1029 NOSIG RMK PP000=
SPZO Nov2004-161700Z 28009KT 250V350 9999 FEW046 OVC080 19/03 Q1028
SPZO Nov2004-161800Z 28012KT 260V350 9999 FEW046 OVC100 18/05 Q1028 NOSIG RMK PP000 RWY10 30019G31KT=
SPZO Nov2004-161900Z 34007KT 270V080 9999 FEW050 OVC100 18/04 Q1027 NOSIG RMK PP000 RWY10 29018G29KT 250V350=
SPZO Nov2004-162000Z 36007KT 270V080 9999 FEW050 OVC100 17/05 Q1025 NOSIG RMK PP000 RWY10 31015G25KT 240V030=
SPZO Nov2004-162100Z 28012KT 9999 FEW050 OVC100 17/04 Q1025 NOSIG RMK PP000 RWY10 28021KT 250V330=
SPZO Nov2004-162200Z 27009KT 250V350 9999 FEW050 OVC100 16/05 Q1025 NOSIG RMK PP000 RWY10 27018KT 240V310 TMAX 19.2=
SPZO Nov2004-162300Z 27008KT 9999 SCT080 15/05 Q1026 NOSIG RMK PP000=
SPZO Nov2004-170000Z 27007KT 9999 FEW040 SCT080 14/05 Q1027 RMK PP000=
SPZO Nov2004-170100Z 28009KT 9999 FEW050 SCT100 13/06 Q1028 RMK PP000=
SPZO Nov2004-170200Z 00000KT 9999 SCT100 12/05 Q1029 RMK PP000=
SPZO Nov2004-170300Z 28004KT 9999 FEW040 SCT100 10/05 Q1030 RMK PP000=
SPZO Nov2004-170400Z 00000KT 9999 SCT080 10/05 Q1030 RMK PP000=
SPZO Nov2004-170500Z 00000KT 9999 FEW040 SCT070 10/05 Q1031 RMK PP000=
SPZO Nov2004-170600Z 00000KT 9999 SCT040 SCT070 09/04 Q1029 RMK PP000=
SPZO Nov2004-170700Z 00000KT 9999 SCT040 SCT050 08/05 Q1029 RMK PP000=
SPZO Nov2004-170800Z 00000KT 9999 SCT037 07/04 Q1029 RMK PP000=
SPZO Nov2004-170900Z 00000KT 9999 FEW050 07/04 Q1029 RMK PP000=
SPZO Nov2004-171000Z VRB01KT 9999 FEW040 06/04 Q1029 RMK PP000=
SPZO Nov2004-171100Z 00000KT 9999 SCT040 SCT050 07/04 Q1030 RMK PP000=
SPZO Nov2004-171200Z 00000KT 9999 SCT040 SCT080 10/05 Q1031 NOSIG RMK PP000=
SPZO Nov2004-171300Z VRB02KT 9999 SCT040 SCT300 14/05 Q1031 NOSIG RMK PP000=
SPZO Nov2004-171400Z VRB02KT 9999 SCT043 17/04 Q1031 NOSIG RMK PP000=
SPZO Nov2004-171500Z VRB03KT 9999 FEW043 SCT047 19/05 Q1030 NOSIG RMK PP000=
SPZO Nov2004-171600Z VRB04KT 9999 FEW043 SCT047 21/05 Q1029 NOSIG RMK PP000=
SPZO Nov2004-171700Z VRB03KT 9999 FEW043 SCT047 22/04 Q1028 NOSIG RMK PP000=
SPZO Nov2004-171800Z VRB04KT 9999 BKN043 23/02 Q1026 NOSIG RMK PP000=
SPZO Nov2004-171900Z VRB04KT 9999 SCT043 SCT060 21/M00 Q1025 NOSIG RMK RWY10 VRB13KT PP000=
SPZO Nov2004-172000Z 36012KT 340V080 9999 SCT043 BKN300 21/04 Q1024 NOSIG RMK PP000=
SPZO Nov2004-172100Z 01010KT 340V080 9999 SCT043 SCT300 20/03 Q1024 NOSIG RMK PP000=
SPZO Nov2004-172200Z 15011KT 090V190 9999 FEW043 BKN300 18/02 Q1024 NOSIG RMK PP000 TMAX 23.8=
SPZO Nov2004-172300Z 02007KT 350V080 9999 FEW047 SCT080 18/04 Q1025 NOSIG RMK PP000=
SPZO Nov2004-180000Z VRB04KT 9999 SCT050 16/05 Q1027 RMK PP000=
SPZO Nov2004-180100Z VRB03KT 9999 SCT050 15/05 Q1028 RMK PP000=
SPZO Nov2004-180200Z 28008KT 270V350 9999 SCT050 14/05 Q1029 RMK PP000=
SPZO Nov2004-180300Z 27002KT 9999 SCT050 12/05 Q1030 RMK PP000=
SPZO Nov2004-180400Z 00000KT 9999 SCT050 12/05 Q1030 RMK PP000=
SPZO Nov2004-180500Z 00000KT 9999 SCT050 11/05 Q1030 RMK PP000=
SPZO Nov2004-180600Z 00000KT 9999 SCT050 10/05 Q1029 RMK PP000=
SPZO Nov2004-180700Z 00000KT 9999 SCT050 10/06 Q1028 RMK PP000=
SPZO Nov2004-180800Z 00000KT 9999 SCT050 11/05 Q1028 RMK PP000=
SPZO Nov2004-180900Z 10002KT 9999 BKN050 10/06 Q1029 RMK PP000=
SPZO Nov2004-181000Z 00000KT 9999 BKN050 11/06 Q1030 RMK PP000=
SPZO Nov2004-181100Z 00000KT 9999 BKN050 11/06 Q1030 RMK PP000=
SPZO Nov2004-181200Z 00000KT 9999 FEW033 SCT043 BKN080 13/06 Q1031 NOSIG RMK PP000=
SPZO Nov2004-181300Z VRB01KT 9999 SCT033 SCT060 14/06 Q1031 NOSIG RMK PP000=
SPZO Nov2004-181400Z VRB04KT 9999 SCT043 SCT047 17/06 Q1031 NOSIG RMK PP000=
SPZO Nov2004-181500Z VRB03KT 9999 SCT043 BKN300 19/01 Q1030 NOSIG RMK PP000=
SPZO Nov2004-181600Z VRB04KT 9999 FEW043 SCT047 21/03 Q1029 NOSIG RKM PP000=
SPZO Nov2004-181700Z 30007KT 250V020 9999 FEW043 SCT047 21/M00 Q1028 NOSIG RMK PP000 RWY10 29017G31KT 250V020=
SPZO Nov2004-181800Z 30011KT 250V350 9999 SCT043 BKN300 22/03 Q1027 NOSIG RMK PP000 RWY10 30020G34KT 250V030=
SPZO Nov2004-181900Z 28009KT 180V350 9999 SCT046 OVC100 22/02 Q1026 NOSIG RMK PP000 RWY10 28018G28KT=
SPZO Nov2004-182000Z 32008KT 260V020 9999 FEW046 OVC150 21/01 Q1025 NOSIG RMK PP000 RWY10 31015KT=
SPZO Nov2004-182100Z 09010KT 9999 FEW046 SCT200 20/04 Q1024 NOSIG RMK PP000 RWY10 01015KT=
SPZO Nov2004-182200Z VRB04KT 9999 SCT046 19/04 Q1025 NOSIG RMK PP000 RWY10 02015G29KT TMX:22.9=
SPZO Nov2004-182300Z 36008KT 9999 SCT150 9999 17/05 Q1026 NOSIG RMK PP000 RWY10 02015G33KT=
SPZO Nov2004-190000Z VRB03KT 9999 SCT050 15/06 Q1027 RMK PP000=
SPZO Nov2004-190100Z 06002KT 020V100 9999 SCT050 14/06 Q1028 RMK PP000=
SPZO Nov2004-190200Z 12003KT 9999 SCT050 13/05 Q1029 RMK PP000=
SPZO Nov2004-190300Z 00000KT 9999 SCT050 12/06 Q1030 RMK PP000=
SPZO Nov2004-190400Z 11003KT 9999 SCT050 12/06 Q1030 RMK PP000=
SPZO Nov2004-190600Z 00000KT 9999 BKN050 12/06 Q1029 RMK PP000=
SPZO Nov2004-190700Z 00000KT 9999 BKN050 12/06 Q1029 RMK PP000=
SPZO Nov2004-190800Z 00000KT 9999 BKN050 12/06 Q1029 RMK PP000=
SPZO Nov2004-190900Z 10011KT 080V170 9000 BKN040 09/05 Q1030 RMK PP000=
SPZO Nov2004-191000Z 10008KT 7000 -RA SCT033 BKN040 08/06 Q1031 RMK PPTRZ=
SPZO Nov2004-191100Z 00000KT 9000 FEW033 OVC043 08/06 Q1032 RMK PPTRZ=
SPZO Nov2004-191200Z VRB02KT 9999 FEW040 BKN046 09/06 Q1033 NOSIG RMK PP000=
SPZO Nov2004-191300Z VRB02KT 9999 FEW030 BKN046 11/06 Q1033 NOSIG RMK PP000=
SPZO Nov2004-191400Z VRB03KT 9999 SCT043 SCT200 14/06 Q1032 NOSIG RMK PP000 RWY10 15006KT=
SPZO Nov2004-191500Z VRB04KT 9999 SCT046 SCT120 17/06 Q1031 NOSIG RMK PP000 RWY10 08006KT=
SPZO Nov2004-191600Z VRB04KT 9999 SCT046 SCT200 18/03 Q1030 NOSIG RMK PP000=
SPZO Nov2004-191700Z 09008KT 360V110 9999 SCT043 SCT050 18/02 Q1029 NOSIG MRK PP000 RWY10 07010KT=
SPZO Nov2004-191800Z 01016KT 340V080 9999 SCT043 SCT050 18/04 Q1029
SPZO Nov2004-191900Z 02015KT 340V080 9999 SCT043 SCT050 17/03 Q1028
SPZO Nov2004-192000Z 36011KT 280V080 9999 SCT043 SCT100 16/04 Q1028 NOSIG RMK PP000 RWY10 06005KT=
SPZO Nov2004-192100Z 36007KT 340V100 9999 SCT046 SCT100 17/03 Q1027
SPZO Nov2004-192200Z VRB03KT 9999 FEW046 BKN200 17/03 Q1027 NOSIG RMK PP000 RWY10 03007KT TMX:20.0=
SPZO Nov2004-192300Z 10004KT 070V180 9999 SCT200 16/04 Q1028 NOSIG RMK PP000=
SPZO Nov2004-200000Z 00000KT 9999 FEW050 14/05 Q1029 RMK PP000=
SPZO Nov2004-200100Z VRB03KT 9999 FEW050 12/05 Q1030 RMK PP000=
SPZO Nov2004-200200Z VRB02KT 9999 SCT100 10/05 Q1031 RMK PP000=
SPZO Nov2004-200300Z 09005KT 9999 FEW040 SCT100 12/06 Q1032 RMK PP000=
SPZO Nov2004-200400Z 10010KT 9999 SCT040 SCT080 12/04 Q1032 RMK PP000=
SPZO Nov2004-200500Z 10008KT 9999 SCT040 SCT070 11/03 Q1031 RMK PP000=
SPZO Nov2004-200600Z 08004KT 9999 SCT040 SCT070 09/03 Q1031 RMK PP000=
SPZO Nov2004-200700Z 00000KT 9999 BKN040 SCT070 09/03 Q1030 RMK PP000=
SPZO Nov2004-200800Z 00000KT 9999 BKN040 SCT080 09/04 Q1030 RMK PP000=
SPZO Nov2004-200900Z VRB02KT 9999 BKN040 SCT080 09/04 Q1030 RMK PP000=
SPZO Nov2004-201000Z 10004KT 9999 BKN040 SCT050 09/04 Q1031 RMK PP000=
SPZO Nov2004-201100Z VRB02KT 9999 BKN040 SCT050 09/04 Q1032 RMK PP000=
SPZO Nov2004-201200Z 08004KT 9999 FEW040 BKN046 10/04 Q1033 NOSIG RMK PP000=
SPZO Nov2004-201300Z VRB04KT 9999 FEW040 BKN046 12/04 Q1033 NOSIG RMK PP000=
SPZO Nov2004-201400Z 08005KT 360V110 9999 FEW040 BKN046 14/04 Q1033 NOSIG RMK PP000=
SPZO Nov2004-201500Z VRB03KT 9999 FEW040 BKN046 14/04 Q1033 NOSIG RMK PP000 RWY10 28011KT=
SPZO Nov2004-201600Z 35008KT 270V020 9999 RA FEW036TCU SCT040 BKN046 12/07 Q1032 NOSIG RMK PP002 RWY10 02012G29KT=
SPZO Nov2004-201700Z 19004KT 100V260 9999 FEW040 BKN050 14/06 Q1031 NOSIG RMK PP010 RWY10 18013KT=
SPZO Nov2004-201800Z VRB06KT 9999 -RA SCT040 SCT046 15/07 Q1030 NOSIG RMK PPTRZ RWY10 36010G21KT=
SPZO Nov2004-201900Z 25005KT 180V290 9999 VCSH SCT043 SCT047 BKN080 14/07 Q1030 RERA NOSIG RMK PP002=
SPZO Nov2004-202000Z 27007KT 9999 -RA VCSH BKN043 BKN060 11/08 Q1029 TEMPO NSW RMK PP012=
SPZO Nov2004-202100Z VRB02KT 9999 FEW043 SCT060 16/08 Q1028 RERA NOSIG RMK PP002=
SPZO Nov2004-202200Z 26004KT 9999 FEW043 SCT060 15/07 Q1028 NOSIG RMK PP000 TMAX 16.1=
SPZO Nov2004-202300Z VRB02KT 9999 SCT043 SCT060 14/07 Q1029 NOSIG RMK PP000=
SPZO Nov2004-210000Z 27004KT 9999 SCT040 SCT060 13/06 Q1029 RMK PP000=
SPZO Nov2004-210100Z VRB02KT 9999 SCT037 SCT060 13/05 Q1031 RMK PP000=
SPZO Nov2004-210200Z 19011KT 9000 -RA SCT030 BKN040 10/04 Q1033 RMK PP006=
SPZO Nov2004-210300Z 18007KT 9999 -RA OVC040 09/06 Q1034 RMK PP026=
SPZO Nov2004-210400Z 00000KT 9999 SCT037 SCT046 09/06 Q1033 RMK PP000=
SPZO Nov2004-210500Z 26009KT 9999 BKN037 SCT046 09/06 Q1032 RMK PP000=
SPZO Nov2004-210600Z 10004KT 9999 OVC040 09/06 Q1032 RMK PP000=
SPZO Nov2004-210700Z 09005KT 9999 SCT030 BKN043 08/05 Q1031 RMK PP000=
SPZO Nov2004-210800Z 00000KT 9999 SCT030 BKN040 07/06 Q1031 RMK PP000=
SPZO Nov2004-210900Z 00000KT 9999 BKN040 SCT070 07/05 Q1031 RMK PP000=
SPZO Nov2004-211000Z 00000KT 9999 BKN040 SCT070 08/06 Q1032 RMK PP000=
SPZO Nov2004-211100Z VRB02KT 9999 SCT043 SCT080 08/06 Q1033 RMK PP000=
SPZO Nov2004-211200Z 00000KT 9999 FEW043 BKN100 11/07 Q1034 NOSIG RMK PP000=
SPZO Nov2004-211300Z 00000KT 9999 SCT040 13/05 Q1034 NOSIG RMK PP000=
SPZO Nov2004-211400Z VRB03KT 9999 SCT040 15/04 Q1034 NOSIG RMK PP000=
SPZO Nov2004-211500Z VRB02KT 9999 SCT043 17/04 Q1033 NOSIG RMK PP000=
SPZO Nov2004-211600Z VRB02KT 9999 FEW043 SCT047 18/05 Q1031 NOSIG RMK PP000=
SPZO Nov2004-211700Z 14005KT 090V200 9999 BKN043 18/02 Q1030 NOSIG RMK PP000=
SPZO Nov2004-211800Z VRB03KT 9999 VCSH SCT043CB SCT047 19/03 Q1029 NOSIG RMK PP000=
SPZO Nov2004-211900Z VRB07KT 9999 SCT043 BKN080 17/05 Q1028 NOSIG RMK PP000 RWY10 31016G28KT 230V020=
SPZO Nov2004-212000Z VRB06KT 9999 FEW043 BKN100 19/03 Q1027 NOSIG
SPZO Nov2004-212100Z 28010KT 260V350 9999 FEW043 BKN100 19/05 Q1026 NOSIG RMK PP000=
SPZO Nov2004-212200Z 28013KT 250V350 9999 FEW043 BKN100 18/05 Q1026 NOSIG RMK PP000 RWY10 29020G31KT 260V340 TMAX 19.9=
SPZO Nov2004-212300Z 28012KT 250V350 9999 FEW043 BKN100 16/05 Q1027 NOSIG RMK PP000=
SPZO Nov2004-220000Z 28009KT 270V350 9999 BKN050 15/05 Q1029 RMK PP000=
SPZO Nov2004-220100Z 31006KT 270V350 9999 BKN050 15/06 Q1030
SPZO Nov2004-220200Z VRB02KT 7000 -RA FEW030 SCT040 BKN050 14/06 Q1032 RMK PP002=
SPZO Nov2004-220300Z 10010KT 070V170 8000 SCT040 BKN050 10/05 Q1033 RERA RMK PPTRZ=
SPZO Nov2004-220400Z 10004KT 070V170 7000 -RA OVC040 09/06 Q1033 RMK PPTRZ=
SPZO Nov2004-220500Z 24002KT 8000 OVC040 10/06 Q1033 RERA RMK PP002=
SPZO Nov2004-220600Z 09002KT 9999 OVC040 09/06 Q1032 RMK PP000=
SPZO Nov2004-220700Z 09003KT 9999 OVC040 08/06 Q1031 RMK PP000=
SPZO Nov2004-220800Z 00000KT 9999 OVC040 08/06 Q1030 RMK PP000=
SPZO Nov2004-220900Z 00000KT 9999 SCT040 BKN050 08/05 Q1030 RMK PP000=
SPZO Nov2004-221000Z 00000KT 9999 FEW040 SCT050 07/05 Q1031 RMK PP000=
SPZO Nov2004-221100Z 00000KT 9999 FEW040 SCT050 07/05 Q1031 RMK PP000=
SPZO Nov2004-221200Z VRB01KT 9999 FEW043 11/06 Q1032 NOSIG RMK PP000=
SPZO Nov2004-221300Z 00000KT 9999 FEW043 13/05 Q1033 NOSIG RMK PP000=
SPZO Nov2004-221400Z 00000KT 9999 FEW043 SCT100 16/04 Q1032 NOSIG RKM PP000=
SPZO Nov2004-221500Z VRB02KT 9999 SCT043 SCT300 18/04 Q1032 NOSIG RMK PP000=
SPZO Nov2004-221600Z VRB03KT 9999 SCT043 BKN300 19/01 Q1031 NOSIG RMK PP000=
SPZO Nov2004-221700Z VRB02KT 9999 SCT043 BKN300 21/02 Q1029 NOSIG
SPZO Nov2004-221800Z VRB03KT 9999 BKN043 SCT300 21/01 Q1027 NOSIG RMK PP000=
SPZO Nov2004-221900Z 36009KT 9999 SCT046 BKN100 19/03 Q1026 NOSIG RMK PP000 RWY10 01017G29KT=
SPZO Nov2004-222000Z 36012KT 170V080 9999 FEW046 BKN100 18/04 Q1025 NOSIG RMK PP000 RWY10 02013G24KT=
SPZO Nov2004-222100Z 01012KT 340V080 9999 FEW046 BKN100 17/05 Q1025 NOSIG RMK PP000 RWY10 02018G31KT=
SPZO Nov2004-222200Z 36006KT 270V080 9999 VCRA FEW046 BKN100 17/05 Q1026 NOSIG RMK PP000 RWY10 02013G27KT TMX:21.7=
SPZO Nov2004-222300Z VRB02KT 9999 RERA BKN043 SCT050 15/05 Q1027 VCRA TEMPO -RA RMK PP006=
SPZO Nov2004-230000Z 10011KT 070V170 9999 OVC050 10/06 Q1029 RMK PP000=
SPZO Nov2004-230100Z 10006KT 070V170 9999 OVC050 10/05 Q1031 RMK PP000=
SPZO Nov2004-230200Z 13004KT 9999 OVC050 10/05 Q1031 RMK PP000=
SPZO Nov2004-230300Z 28002KT 9999 OVC050 10/06 Q1032 RMK PP000=
SPZO Nov2004-230400Z 29007KT 260V350 5000 +RA FEW030 SCT040 BKN050 09/06 Q1033 RMK PP022=
SPZO Nov2004-230500Z 19007KT 160V260 9000 FEW030 SCT040 BKN050 09/05 Q1030 RERA RMK PP006=
SPZO Nov2004-230600Z 19002KT 9999 SCT040 BKN050 09/05 Q1030 RMK PP000=
SPZO Nov2004-230700Z 00000KT 9999 FEW040 BKN050 09/06 Q1030 RMK PP000=
SPZO Nov2004-230800Z 00000KT 9999 FEW040 BKN050 08/06 Q1029 RMK PP000=
SPZO Nov2004-230900Z 00000KT 9999 BKN050 08/06 Q1029 RMK PP000=
SPZO Nov2004-231000Z 14002KT 9999 BKN050 07/05 Q1030 RMK PP000=
SPZO Nov2004-231100Z 00000KT 9999 SCT050 08/05 Q1030 RMK PP000=
SPZO Nov2004-231200Z VRB02KT 9999 FEW040 11/06 Q1031 NOSIG RMK PP000=
SPZO Nov2004-231300Z VRB02KT 9999 FEW040 13/06 Q1031 NOSIG RMK PP000=
SPZO Nov2004-231400Z VRB03KT 9999 SCT046 15/06 Q1031 NOSIG RMK PP000=
SPZO Nov2004-231500Z VRB03KT 9999 BKN046 18/05 Q1030 NOSIG RMK PP000=
SPZO Nov2004-231600Z VRB04KT 9999 SCT050 19/05 Q1029 NOSIG RMK PP000 RWY10 08004KT=
SPZO Nov2004-231700Z VRB04KT 9999 BKN050 20/02 Q1028 NOSIG RMK PP000 RWY10 20013G25KT=
SPZO Nov2004-231800Z VRB03KT 9999 SCT050 22/M00 Q1026 NOSIG RMK PP000 RWY10 26018G35KT=
SPZO Nov2004-231900Z 27013KT 9999 SCT046 SCT080 22/01 Q1025 TEMPO VCRA RMK PP000 RWY10 26025G40KT=
SPZO Nov2004-232000Z 26004KT 9999 SCT046 SCT100 21/M07 Q1024 NOSIG RMK PP000 RWY10 25005KT=
SPZO Nov2004-232100Z 32012KT 260V350 9999 FEW050 BKN200 21/00 Q1024 NOSIG RMK PP000 RWY10 31015KT=
SPZO Nov2004-232200Z 36011KT 340V080 9999 FEW046 SCT200 19/03 Q1024 NOSIG RMK PP000 RWY10 02017G39KT TMX:23.0=
SPZO Nov2004-232300Z 30008KT 080V190 9999 FEW046 15/05 Q1026 NOSIG RMK PP000 RWY10 03019G37KT=
SPZO Nov2004-240000Z VRB01KT 9999 FEW040 SCT300 14/04 Q1027 RMK PP000=
SPZO Nov2004-240100Z 00000KT 9999 FEW050 SCT300 13/04 Q1029 RMK PP000=
SPZO Nov2004-240200Z VRB01KT 9999 SCT080 12/04 Q1029 RMK PP000=
SPZO Nov2004-240300Z 09004KT 9999 FEW040 SCT080 12/04 Q1030 RMK PP000=
SPZO Nov2004-240400Z VRB03KT 9999 SCT040 SCT080 11/05 Q1031 RMK PP000=
SPZO Nov2004-240500Z 18007KT 9999 SCT040 SCT050 11/03 Q1031 RMK PP000=
SPZO Nov2004-240600Z 14009KT 9999 -RA OVC040 08/05 Q1031 RMK PP010=
SPZO Nov2004-240700Z VRB03KT 9999 FEW030 BKN040 08/05 Q1030 RMK PPTRZ=
SPZO Nov2004-240800Z 00000KT 9999 SCT040 SCT050 08/05 Q1029 RMK PP000=
SPZO Nov2004-240900Z 00000KT 9999 BKN040 SCT050 08/05 Q1029 RMK PP000=
SPZO Nov2004-241000Z 10004KT 9999 FEW030 BKN050 08/05 Q1030 RMK PP000=
SPZO Nov2004-241100Z VRB02KT 9999 SCT040 SCT080 08/05 Q1031 RMK PP000=
SPZO Nov2004-241200Z 00000KT 9999 BKN050 10/05 Q1031 NOSIG RMK PP000=
SPZO Nov2004-241300Z 00000KT 9999 SCT060 12/05 Q1032 NOSIG RMK PP000=
SPZO Nov2004-241400Z VRB03KT 9999 FEW040 BKN150 14/05 Q1032 NOSIG RMK PP000=
SPZO Nov2004-241500Z VRB02KT 9999 FEW046 SCT100 17/06 Q1031 NOSIG RMK PP000=
SPZO Nov2004-241600Z VRB03KT 9999 FEW046 19/03 Q1029 NOSIG RMK PP000=
SPZO Nov2004-241700Z VRB03KT 9999 SCT046 21/M01 Q1028 NOSIG RMK PP000 RWY10 20008KT=
SPZO Nov2004-241800Z VRB03KT 9999 BKN050 19/M01 Q1027 NOSIG RMK PP000=
SPZO Nov2004-241900Z 01011KT 340V080 9999 FEW040 SCT047 BKN080 20/00 Q1026 NOSIG RMK PP000=
SPZO Nov2004-242000Z 36007KT 270V080 9999 BKN043 BKN300 20/00 Q1025 NOSIG RMK PP000=
SPZO Nov2004-242100Z VRB05KT 9999 BKN043 BKN300 20/01 Q1024 NOSIG RMK PP000 RWY10 28016KT 240V330=
SPZO Nov2004-242200Z 36006KT 270V080 9999 SCT043 SCT300 19/04 Q1024 NOSIG RMK PP000 TMAX 21.9=
SPZO Nov2004-242300Z 01011KT 340V080 9999 FEW043 SCT300 17/04 Q1025 NOSIG RMK PP000=
SPZO Nov2004-250000Z 04013KT 9999 SCT043 SCT100 16/04 Q1026 RMK PP000=
SPZO Nov2004-250100Z 02011KT 9999 FEW040 BKN050 15/04 Q1029 RMK PP000=
SPZO Nov2004-250200Z 36009KT 9999 BKN040 SCT050 14/04 Q1030 RMK PP000=
SPZO Nov2004-250300Z 03005KT 9999 BKN040 SCT050 13/04 Q1031 RMK PP000=
SPZO Nov2004-250400Z VRB03KT 9999 BKN040 SCT046 12/04 Q1031 RMK PP000=
SPZO Nov2004-250500Z VRB02KT 9999 OVC040 12/04 Q1031 RMK PP000=
SPZO Nov2004-250600Z VRB03KT 9999 FEW030 OVC040 11/04 Q1030 RMK PP000=
SPZO Nov2004-250700Z VRB03KT 9999 BKN040 SCT050 11/05 Q1030 RMK PP000=
SPZO Nov2004-250800Z VRB02KT 9999 -RA OVC040 10/05 Q1030 RMK PP002=
SPZO Nov2004-250900Z VRB03KT 9999 -RA SCT030 BKN040 09/05 Q1031 RMK PP012=
SPZO Nov2004-251000Z VRB03KT 7000 -RA FEW030 SCT040 BKN046 08/06 Q1032 RMK PP020=
SPZO Nov2004-251100Z VRB02KT 9999 -DZ FEW025 SCT040 BKN070 08/06 Q1032 RMK PP010=
SPZO Nov2004-251200Z VRB01KT 9999 FEW025 SCT037 BKN043 09/05 Q1033 NOSIG RMK PPTRZ=
SPZO Nov2004-251300Z VRB02KT 9999 FEW030 SCT047 BKN080 11/05 Q1033 NOSIG RMK PP000=
SPZO Nov2004-251400Z VRB02KT 9999 FEW040 BKN080 12/05 Q1033 NOSIG RKM PP000=
SPZO Nov2004-251500Z VRB02KT 9999 FEW043 15/05 Q1033 NOSIG RMK PP000=
SPZO Nov2004-251600Z VRB02KT 9999 SCT043 17/01 Q1031 NOSIG RMK PP000=
SPZO Nov2004-251700Z VRB02KT 9999 SCT043 SCT080 19/01 Q1030 NOSIG RMK PP000=
SPZO Nov2004-251800Z VRB03KT 9999 FEW040 SCT050 21/02 Q1028 NOSIG RMK PP000=
SPZO Nov2004-251900Z VRB04KT 9999 BKN043 21/02 Q1027 NOSIG RMK PP000=
SPZO Nov2004-252000Z 36011KT 270V080 9999 -RA VCSH SCT043CB SCT047 BKN080 19/05 Q1026 TEMPO RA RMK PPTRZ=
SPZO Nov2004-252100Z 30008KT 250V010 9999 VCSH SCT043CB BKN080 15/07 Q1027 NOSIG RMK RWY10 30017G29KT 260V010 CB AL ESE PP010=
SPZO Nov2004-252200Z 25007KT 180V280 9999 FEW043 BKN080 15/07 Q1027 NOSIG RMK PP000 TMAX 21.7=
SPZO Nov2004-252300Z 24004KT 180V280 9999 BKN080 15/06 Q1027 NOSIG RMK PP000=
SPZO Nov2004-260000Z 11004KT 080V170 9999 BKN060 13/07 Q1028 RMK PP000=
SPZO Nov2004-260100Z 00000KT 9999 BKN060 12/06 Q1029 RMK PP000=
SPZO Nov2004-260200Z 00000KT 9999 BKN050 11/07 Q1031 RMK PP000=
SPZO Nov2004-260300Z 09005KT 9999 BKN050 11/06 Q1031 RMK PP000=
SPZO Nov2004-260400Z 10004KT 070V170 9999 BKN050 10/04 Q1031 RMK PP000=
SPZO Nov2004-260500Z 00000KT 9999 BKN050 10/05 Q1031 RMK PP000=
SPZO Nov2004-260600Z 00000KT 9999 BKN050 10/05 Q1030 RMK PP000=
SPZO Nov2004-260700Z 00000KT 9999 BKN050 10/05 Q1029 RMK PP000=
SPZO Nov2004-260800Z 00000KT 9999 BKN050 09/05 Q1029 RMK PP000=
SPZO Nov2004-260900Z 00000KT 9999 BKN050 09/05 Q1029 RMK PP000=
SPZO Nov2004-261000Z 00000KT 9999 BKN050 10/05 Q1029 RMK PP000=
SPZO Nov2004-261100Z 00000KT 9999 BKN050 09/05 Q1030 RMK PP000=
SPZO Nov2004-261200Z 00000KT 9999 FEW047 BKN080 11/05 Q1031 NOSIG RMK PP000=
SPZO Nov2004-261300Z VRB02KT 9999 FEW043 SCT100 14/05 Q1031 TEMPO FEW043 RMK PP000=
SPZO Nov2004-261400Z VRB02KT 9999 FEW043 16/04 Q1031 NOSIG RMK PP000=
SPZO Nov2004-261500Z VRB04KT 9999 SCT047 19/02 Q1030 NOSIG RMK PP000=
SPZO Nov2004-261600Z VRB03KT 9999 SCT043 SCT060 21/02 Q1029 NOSIG
SPZO Nov2004-261700Z VRB06KT 9999 SCT043 SCT060 21/02 Q1028 NOSIG
SPZO Nov2004-261800Z VRB06KT 9999 BKN043 22/01 Q1026 NOSIG RMK PP000=
SPZO Nov2004-261900Z 28009KT 260V350 9999 SCT046 SCT120 23/01 Q1025 NOSIG RMK PP000 RWY10 29012KT=
SPZO Nov2004-262000Z 35006KT 270V030 9999 SCT046 BKN120 21/02 Q1024 NOSIG RMK PP000 RWY10 32012G29KT==
SPZO Nov2004-262100Z 03008KT 340V080 9999 FEW043TCU SCT050 BKN100 22/05 Q1024 TEMPO VCRA RMK PP000 RWY10 32008KT RA CDTE E=
SPZO Nov2004-262200Z 10004KT 070V170 9999 FEW050 BKN200 16/08 Q1024 NOSIG RMK PP000 TMX:23.3=
SPZO Nov2004-262300Z 11002KT 9999 SCT046 16/07 Q1024 NOSIG RMK PP000=
SPZO Nov2004-270000Z 09003KT 9999 SCT050 15/08 Q1025 RMK PP000=
SPZO Nov2004-270100Z 00000KT 9999 SCT050 14/09 Q1026 RMK PP000=
SPZO Nov2004-270200Z 00000KT 9999 SCT050 12/07 Q1027 RMK PP000=
SPZO Nov2004-270300Z 00000KT 9999 SCT050 12/08 Q1028 RMK PP000=
SPZO Nov2004-270400Z 00000KT 9999 SCT050 11/07 Q1028 RMK PP000=
SPZO Nov2004-270500Z 00000KT 9999 SCT050 10/06 Q1028 RMK PP000=
SPZO Nov2004-270600Z 00000KT 9999 SCT050 11/07 Q1027 RMK PP000=
SPZO Nov2004-270700Z 00000KT 9999 SCT050 11/07 Q1027 RMK PP000=
SPZO Nov2004-270800Z 00000KT 9999 SCT050 10/07 Q1027 RMK PP000=
SPZO Nov2004-270900Z 00000KT 9999 BKN050 10/06 Q1027 RMK PP000=
SPZO Nov2004-271000Z 00000KT 9999 BKN050 10/06 Q1027 RMK PP000=
SPZO Nov2004-271100Z 00000KT 9999 BKN060 10/07 Q1028 RMK PP000=
SPZO Nov2004-271200Z VRB03KT 9999 FEW043 BKN100 13/07 Q1029 NOSIG MK PP000=
SPZO Nov2004-271300Z VRB01KT 9999 FEW040 BKN100 15/06 Q1029 NOSIG RMK PP000=
SPZO Nov2004-271400Z VRB03KT 9999 FEW043 BKN150 19/06 Q1029 NOSIG RMK PP000=
SPZO Nov2004-271500Z VRB03KT 9999 FEW043 BKN150 19/06 Q1029 NOSIG RMK PP000=
SPZO Nov2004-271600Z VRB04KT 9999 FEW043TCU BKN050 19/06 Q1027 TEMPO RA RMK PP000 RA CDTE NW-NE=
SPZO Nov2004-271700Z 34005KT 270V020 9999 RERA SCT043 SCT050 18/08 Q1027 NOSIG RMK PP002 RWY10 05004KT=
SPZO Nov2004-271800Z VRB06KT 9999 SCT043 SCT050 18/06 Q1026 TEMO VCRA RMK PP000 RWY10 28020G30KT=
SPZO Nov2004-271900Z 31004KT 210V010 9999 SCT046 SCT060 18/04 Q1025 NOSIG RMK PP000 RA CDTE SE=
SPZO Nov2004-272000Z VRB02KT 9999 SCT046 BKN080 19/05 Q1024 NOSIG RMK PP000 RA CDTE SW=
SPZO Nov2004-272100Z 27006KT 250V350 9999 SCT046 SCT080 18/05 Q1023 NOSIG RMK PP000 RA CDTE SW=
SPZO Nov2004-272200Z 27009KT 9999 FEW046 BKN100 18/06 Q1024 NOSIG RMK PP000 RWY10 29014KT TMX:23.0=
SPZO Nov2004-272300Z 26006KT 230V290 9999 SCT050 16/06 Q1024 NOSIG RMK PP000 RWY10 27012KT=
SPZO Nov2004-280000Z VRB02KT 9999 FEW050 14/06 Q1025 RMK PP000=
SPZO Nov2004-280100Z VRB02KT 9999 FEW050 11/06 Q1027 RMK PP000=
SPZO Nov2004-280200Z VRB01KT 9999 FEW040 SCT100 12/06 Q1028 RMK PP000=
SPZO Nov2004-280300Z 28004KT 9999 FEW040 SCT100 12/07 Q1028 RMK PP000=
SPZO Nov2004-280400Z 30004KT 9999 SCT040 SCT070 13/06 Q1028 RMK PP000=
SPZO Nov2004-280500Z 27004KT 9999 SCT050 12/06 Q1027 RMK PP000=
SPZO Nov2004-280600Z 00000KT 9999 BKN040 SCT050 10/06 Q1027 RMK PP000=
SPZO Nov2004-280700Z 10011KT 9999 BKN040 SCT046 10/06 Q1027 RMK PP000=
SPZO Nov2004-280800Z 09004KT 9999 OVC040 10/06 Q1027 RMK PP000=
SPZO Nov2004-280900Z VRB02KT 9999 OVC040 10/06 Q1027 RMK PP000=
SPZO Nov2004-281000Z VRB02KT 9999 FEW040 SCT070 09/06 Q1027 RMK PPTRZ=
SPZO Nov2004-281100Z VRB01KT 9999 FEW100 BKN300 08/06 Q1028 RMK PP000=
SPZO Nov2004-281200Z VRB03KT 9999 FEW043 BKN300 12/06 Q1029 NOSIG RMK PP000=
SPZO Nov2004-281300Z 00000KT 9999 FEW043 SCT300 14/06 Q1029 NOSIG RMK PP000=
SPZO Nov2004-281400Z VRB02KT 9999 FEW043 BKN300 16/05 Q1029 NOSIG RMK PP000=
SPZO Nov2004-281500Z VRB04KT 9999 SCT043 SCT300 18/04 Q1028 NOSIG RMK PP000=
SPZO Nov2004-281600Z VRB05KT 9999 SCT043 SCT300 20/03 Q1027 NOSIG RMK PP000=
SPZO Nov2004-281700Z VRB04KT 9999 SCT043 SCT300 22/05 Q1025 NOSIG RMK PP000=
SPZO Nov2004-281800Z VRB04KT 9999 FEW043 SCT047 23/02 Q1023 NOSIG RMK PP000=
SPZO Nov2004-281900Z 29008KT 180V350 9999 BKN047 SCT300 23/01 Q1022 NOSIG RMK PP000 RWY10 25015G28KT 210V010=
SPZO Nov2004-282000Z 01009KT 340V080 9999 -RA VCSH SCT043CB BKN047 20/05 Q1022 TEMPO RA RMK PPTRZ=
SPZO Nov2004-282100Z 07006KT 360V100 9999 -DZ SCT043 BKN060TCU 16/06 Q1022 TEMPO NSW RMK PP058=
SPZO Nov2004-282200Z 01008KT 340V080 9999 FEW060 SCT080 BKN300 17/06 Q1023 NOSIG RMK PPTRZ TMAX 24.1=
SPZO Nov2004-282300Z VRB03KT 9999 FEW060 SCT100 BKN300 16/06 Q1023 NOSIG RMK PP000=
SPZO Nov2004-290000Z 00000KT 9999 FEW050 SCT100 15/09 Q1025 RMK PP000=
SPZO Nov2004-290100Z VRB03KT 9999 FEW040 SCT080 15/07 Q1027 RMK PP000=
SPZO Nov2004-290200Z 00000KT 9999 FEW040 SCT080 14/08 Q1028 RMK PP000=
SPZO Nov2004-290300Z 10007KT 9999 BKN040 SCT080 13/07 Q1028 RMK PP000=
SPZO Nov2004-290400Z VRB03KT 9999 SCT040 SCT070 14/07 Q1029 RMK PP000=
SPZO Nov2004-290500Z 11010KT 9999 -RA OVC040 10/06 Q1029 RMK PP004=
SPZO Nov2004-290600Z VRB02KT 9999 -RA OVC040 10/05 Q1029 RMK PP006=
SPZO Nov2004-290700Z VRB02KT 9999 -RA OVC040 10/06 Q1028 RMK PP002=
SPZO Nov2004-290800Z 00000KT 9999 BKN040 SCT046 09/06 Q1028 RMK PPTRZ=
SPZO Nov2004-290900Z VRB02KT 9999 BKN040 SCT050 09/06 Q1027 RMK PP000=
SPZO Nov2004-291000Z 00000KT 9999 SCT043 SCT070 08/06 Q1028 RMK PP000=
SPZO Nov2004-291100Z 00000KT 9999 SCT040 SCT070 09/06 Q1029 RMK PP000=
SPZO Nov2004-291200Z VRB02KT 9999 FEW047 OVC100 10/07 Q1030 NOSIG RMK PP000=
SPZO Nov2004-291300Z VRB02KT 9999 FEW043 OVC100 12/06 Q1030 NOSIG RKM PP000=
SPZO Nov2004-291400Z VRB02KT 9999 SCT043 OVC100 14/06 Q1030 NOSIG RMK PP000=
SPZO Nov2004-291500Z VRB02KT 9999 SCT043 OVC100 17/07 Q1030 NOSIG RMK PP000=
SPZO Nov2004-291600Z VRB04KT 9999 SCT043 BKN300 18/05 Q1029 NOSIG RMK PP000=
SPZO Nov2004-291700Z VRB03KT 9999 BKN043 21/06 Q1027 NOSIG RMK PP000=
SPZO Nov2004-291800Z 01010KT 9999 BKN043 20/05 Q1026 NOSIG RMK PP000=
SPZO Nov2004-291900Z 01017KT 340V080 9999 SCT043TCU SCT060 19/05 Q1026=
SPZO Nov2004-292000Z 05008KT 360V110 9999 SCT043 SCT080 18/04 Q1025 NOSIG RMK PP000=
SPZO Nov2004-292100Z 01008KT 9999 SCT043TCU SCT047 17/04 Q1025 NOSIG RMK PP000=
SPZO Nov2004-292200Z 36010KT 340V080 9999 SCT047 BKN300 17/05 Q1025 NOSIG RMK PP000 TMAX 21.1=
SPZO Nov2004-292300Z 01008KT 340V080 9999 SCT060 SCT300 16/05 Q1026 NOSIG RMK PP000=
SPZO Nov2004-300000Z 10004KT 080V170 9999 BKN050 14/05 Q1027 RMK PP000=
SPZO Nov2004-300100Z 00000KT 9999 BKN050 13/05 Q1028 RMK PP000=
SPZO Nov2004-300200Z 00000KT 9999 BKN050 11/06 Q1029 RMK PP000=
SPZO Nov2004-300300Z 09003KT 9999 BKN050 10/05 Q1030 RMK PP000=
SPZO Nov2004-300400Z 00000KT 9999 BKN050 09/05 Q1030 RMK PP000=
SPZO Nov2004-300500Z 00000KT 9999 BKN050 09/05 Q1029 RMK PP000=
SPZO Nov2004-300600Z 26002KT 9999 BKN050 07/04 Q1029 RMK PP000=
SPZO Nov2004-300700Z 00000KT 9999 BKN050 08/05 Q1029 RMK PP000=
SPZO Nov2004-300800Z 00000KT 9999 BKN050 07/04 Q1029 RMK PP000=
SPZO Nov2004-300900Z 00000KT 9999 BKN050 08/05 Q1029 RMK PP000=
SPZO Nov2004-301000Z 00000KT 9999 BKN050 08/05 Q1030 RMK PP000=
SPZO Nov2004-301100Z 00000KT 9999 BKN050 08/05 Q1030 RMK PP000=
SPZO Nov2004-301200Z 00000KT 9999 SCT040 BKN043 10/05 Q1031 NOSIG RMK PP000=
SPZO Nov2004-301300Z VRB02KT 9999 SCT040 BKN043 12/06 Q1031 NOSIG RMK PP000=
SPZO Nov2004-301400Z VRB02KT 9999 SCT040 BKN080 15/04 Q1031 NOSIG RMK PP000=
SPZO Nov2004-301500Z VRB04KT 9999 FEW040 SCT043 BKN060 16/03 Q1031 NOSIG RMK PP000=
SPZO Nov2004-301600Z VRB03KT 9999 BKN043 SCT060 16/04 Q1030 NOSIG
SPZO Nov2004-301700Z 02006KT 340V080 9999 FEW043 SCT047 17/03 Q1030
SPZO Nov2004-301800Z VRB06KT 9999 FEW043 SCT047 20/03 Q1028 NOSIG RMK PP000=
SPZO Nov2004-301900Z 02009KT 9999 SCT050 20/04 Q1027 NOSIG RMK PP000 RWY10 35009G19KT=
SPZO Nov2004-302000Z 01007KT 340V080 9999 SCT050 20/02 Q1025 NOSIG RMK PP000 RWY10 06016G28KT=
SPZO Nov2004-302100Z 02009KT 340V080 9999 SCT046 SCT150 19/03 Q1025
SPZO Nov2004-302200Z 08011KT 360V110 9999 FEW046 BKN100 17/03 Q1026 NOSIG RMK PP000 RWY10 03013G27KT TMX:20.7=
SPZO Nov2004-302300Z 14006KT 9999 SCT050 16/03 Q1027 NOSIG RMK PP000=
SPZO Dic2004-010000Z 10007KT 080V170 9999 SCT050 14/04 Q1028 RMK PP000=
SPZO Dic2004-010100Z 10007KT 070V170 9999 SCT050 13/04 Q1029 RMK PP000=
SPZO Dic2004-010200Z 08002KT 9999 SCT050 13/05 Q1030 RMK PP000=
SPZO Dic2004-010300Z 00000KT 9999 BKN050 13/05 Q1031 RMK PP000=
SPZO Dic2004-010400Z 00000KT 9999 BKN050 13/05 Q1031 RMK PP000=
SPZO Dic2004-010500Z 12003KT 9999 BKN050 12/06 Q1030 RMK PP000=
SPZO Dic2004-010600Z 28008KT 9999 OVC050 12/06 Q1030 RMK PP000=
SPZO Dic2004-010700Z 29006KT 270V350 9999 OVC050 12/06 Q1029 RMK PP000=
SPZO Dic2004-010800Z 18002KT 9999 OVC050 11/07 Q1029 RMK PP000=
SPZO Dic2004-010900Z 00000KT 7000 -DZ FEW040 BKN050 10/07 Q1030 RMK PPTRZ=
SPZO Dic2004-011000Z 25002KT 7000 -DZ FEW040 BKN050 10/07 Q1030 RMK PPTRZ=
SPZO Dic2004-011100Z 00000KT 9000 BKN050 11/07 Q1030 RMK PP002=
SPZO Dic2004-011200Z 00000KT 9999 FEW036 BKN046 12/07 Q1031 NOSIG RMK PP000=
SPZO Dic2004-011300Z 00000KT 9999 FEW036 BKN046 13/06 Q1031 NOSIG RMK PP000=
SPZO Dic2004-011400Z VRB02KT 9999 FEW040 SCT050 15/06 Q1031 NOSIG RMK PP000=
SPZO Dic2004-011500Z VRB02KT 9999 SCT046 18/05 Q1030 NOSIG RMK PP000 RWY10 25009KT=
SPZO Dic2004-011600Z VRB05KT 9999 SCT043 SCT050 17/04 Q1029 TEMPO VCRA RMK PP000 RWY10 15009KT=
SPZO Dic2004-011700Z VRB09KT 9999 FEW040 BKN050 19/05 Q1029 NOSIG RMK PP000 RWY10 36010G21KT RA CDTE NW=
SPZO Dic2004-011800Z 26013KT 9999 BKN046 19/04 Q1028 NOSIG RMK PP000 RWY10 26020KT=
SPZO Dic2004-011900Z 28012KT 250V350 9999 SCT043 SCT050 18/04 Q1027 TEMPO VCRA RMK PP000 RWY10 28021G31KT=
SPZO Dic2004-012000Z 36010KT 340V080 9999 SCT043 BKN060 17/05 Q1026 NOSIG RMK PP000 RWY10 02015G30KT RA CDTE E=
SPZO Dic2004-012100Z 10017KT 080V170 9999 FEW043 BKN100 15/07 Q1027 NOSIG RMK PP000 RWY10 10034G45KT RA CDTE E=
SPZO Dic2004-012200Z 10013KT 9999 SCT043 BKN100 14/05 Q1027 NOSIG RMK PP000 RWY10 09013KT TMX:19.3=
SPZO Dic2004-012300Z 08003KT 9999 FEW043 BKN150 14/06 Q1027 NOSIG RMK PP000=
SPZO Dic2004-020000Z VRB03KT 9999 FEW043 SCT100 13/05 Q1028 RMK PP000=
SPZO Dic2004-020100Z VRB03KT 9999 FEW040 SCT050 12/06 Q1029 RMK PP000=
SPZO Dic2004-020200Z VRB01KT 9999 SCT040 SCT050 13/06 Q1030 RMK PP000=
SPZO Dic2004-020300Z VRB02KT 9999 SCT040 SCT050 12/04 Q1030 RMK PP000=
SPZO Dic2004-020400Z 00000KT 9999 OVC040 12/05 Q1031 RMK PP000=
SPZO Dic2004-020500Z 27006KT 9999 OVC040 12/06 Q1030 RMK PP000=
SPZO Dic2004-020600Z 00000KT 9999 BKN040 SCT050 11/05 Q1029 RMK PP000=
SPZO Dic2004-020700Z VRB03KT 9999 BKN040 SCT046 09/04 Q1029 RMK PP000=
SPZO Dic2004-020800Z 00000KT 9999 SCT040 SCT046 09/04 Q1029 RMK PP000=
SPZO Dic2004-020900Z 00000KT 9999 SCT040 08/05 Q1029 RMK PP000=
SPZO Dic2004-021000Z VRB02KT 9999 SCT040 07/04 Q1030 RMK PP000=
SPZO Dic2004-021100Z VRB03KT 9999 FEW040 07/04 Q1030 RMK PP000=
SPZO Dic2004-021200Z 00000KT 9999 FEW036 BKN050 10/05 Q1031 NOSIG RMK PP000=
SPZO Dic2004-021300Z VRB03KT 9999 FEW040 BKN050 13/04 Q1031 NOSIG RMK PP000=
SPZO Dic2004-021400Z VRB05KT 9999 FEW040 SCT050 15/04 Q1031 NOSIG RMK PP000=
SPZO Dic2004-021500Z VRB02KT 9999 SCT046 16/05 Q1031 NOSIG RMK PP000 RWY10 14008G19KT=
SPZO Dic2004-021600Z VRB04KT 9999 SCT050 18/03 Q1030 NOSIG RMK PP000 RWY10 16008KT=
SPZO Dic2004-021700Z VRB06KT 9999 SCT050 20/03 Q1028 NOSIG RMK PP000 RWY10 VRB08KT=
SPZO Dic2004-021800Z VRB06KT 9999 SCT050 22/04 Q1027 NOSIG RMK PP000 RWY10 11013KT=
SPZO Dic2004-021900Z VRB03KT 9999 SCT043 SCT047 20/02 Q1025 NOSIG RMK PP000=
SPZO Dic2004-022000Z 01012KT 340V080 9999 SCT043 SCT080 21/03 Q1024 NOSIG RMK PP000=
SPZO Dic2004-022100Z 30009KT 250V040 9999 SCT043 BKN080 18/05 Q1025 NOSIG RMK PP000 RWY10 29024G35KT 250V340=
SPZO Dic2004-022200Z 36007KT 9999 SCT043 BKN080 17/05 Q1025 NOSIG RMK PP000 TMAX 22.5=
SPZO Dic2004-022300Z 01007KT 340V080 9999 SCT043 SCT100 17/05 Q1025
SPZO Dic2004-030000Z 01010KT 9999 FEW050 15/04 Q1026 RMK PP000=
SPZO Dic2004-030100Z 09005KT 9999 FEW050 12/05 Q1028 RMK PP000=
SPZO Dic2004-030200Z 10004KT 9999 FEW040 12/05 Q1029 RMK PP000=
SPZO Dic2004-030300Z VRB02KT 9999 FEW040 12/05 Q1030 RMK PP000=
SPZO Dic2004-030400Z VRB01KT 9999 SCT040 12/05 Q1030 RMK PP000=
SPZO Dic2004-030500Z 16006KT 9999 SCT040 13/05 Q1031 RMK PP000=
SPZO Dic2004-030600Z 25995KT 9999 FEW040 SCT050 12/04 Q1030 RMK PP000=
SPZO Dic2004-030700Z VRB02KT 9999 SCT050 12/04 Q1029 RMK PP000=
SPZO Dic2004-030800Z 00000KT 9999 FEW040 SCT050 11/04 Q1029 RMK PP000=
SPZO Dic2004-030900Z 00000KT 9999 SCT040 SCT050 10/03 Q1029 RMK PP000=
SPZO Dic2004-031000Z 31004KT 9999 SCT040 SCT050 10/04 Q1029 RMK PP000=
SPZO Dic2004-031100Z 00000KT 9999 FEW043 SCT200 10/04 Q1030 RMK PP000=
SPZO Dic2004-031200Z VRB02KT 9999 FEW060 12/03 Q1030 NOSIG RMK PP000=
SPZO Dic2004-031300Z VRB02KT 9999 FEW050 15/04 Q1030 NOSIG RMK PP000=
SPZO Dic2004-031400Z VRB04KT 9999 FEW043 SCT047 16/04 Q1030 NOSIG RMK PP000=
SPZO Dic2004-031500Z VRB03KT 9999 SCT047 19/02 Q1029 NOSIG RMK PP000=
SPZO Dic2004-031600Z VRB05KT 9999 SCT043 SCT047 20/04 Q1028 NOSIG RMK PP000=
SPZO Dic2004-031700Z VRB03KT 9999 SCT043 SCT047 21/03 Q1027 NOSIG RMK PP000=
SPZO Dic2004-031800Z 05008KT 360V100 9999 SCT043 SCT060 20/02 Q1026 NOSIG RMK PP000=
SPZO Dic2004-031900Z VRB04KT 9999 BKN043 23/01 Q1024 NOSIG RMK PP000=
SPZO Dic2004-032000Z 03015KT 350V090 9999 FEW040 SCT060 21/04 Q1023 NOSIG RMK PP000=
SPZO Dic2004-032100Z 04015KT 350V080 9999 -TSRA FEW040 BKN043CB 17/04 Q1024 TEMPO TSRA RMK PPTRZ=
SPZO Dic2004-032200Z VRB07KT 9999 VCSH BKN043CB SCT060 16/04 Q1026 RETSRA RMK PPTRZ TMAX 23.4=
SPZO Dic2004-032300Z VRB02KT 9999 SCT043 BKN100 14/04 Q1027 NOSIG RMK PP000=
SPZO Dic2004-040000Z 00000KT 9999 SCT040 SCT080 14/05 Q1028 RMK PP000=
SPZO Dic2004-040100Z 10004KT 9999 SCT037 BKN050 14/05 Q1030 RMK PP000=
SPZO Dic2004-040200Z 00000KT 9999 SCT037 BKN050 12/07 Q1030 RMK PP000=
SPZO Dic2004-040300Z 00000KT 9999 SCT037 BKN060 12/06 Q1031 RMK PP000=
SPZO Dic2004-040400Z 27005KT 9999 SCT037 BKN060 12/07 Q1031 RMK PP000=
SPZO Dic2004-040500Z 25004KT 9999 SCT037 SCT050 12/06 Q1030 RMK PP000=
SPZO Dic2004-040600Z 28004KT 9999 SCT037 SCT047 11/06 Q1030 RMK PP000=
SPZO Dic2004-040700Z 25005KT 9999 FEW037 SCT100 11/06 Q1029 RMK PP000=
SPZO Dic2004-040800Z 00000KT 9999 FEW037 BKN120 10/05 Q1029 RMK PP000=
SPZO Dic2004-040900Z 00000KT 9999 FEW040 BKN150 09/05 Q1029 RMK PP000=
SPZO Dic2004-041000Z 00000KT 9999 FEW043 SCT070 BKN150 09/05 Q1030 RMK PP000=
SPZO Dic2004-041100Z 00000KT 9999 SCT080 BKN200 10/06 Q1030 RMK PP000=
SPZO Dic2004-041200Z 00000KT 9999 FEW043 BKN300 13/06 Q1031 NOSIG
SPZO Dic2004-041300Z 09004KT 360V170 9999 SCT043 15/05 Q1031 NOSIG
SPZO Dic2004-041400Z VRB02KT 9999 SCT043 15/06 Q1031 NOSIG RMK PP000=
SPZO Dic2004-041500Z VRB03KT 9999 FEW043 SCT047 19/04 Q1030 NOSIG
SPZO Dic2004-041600Z VRB03KT 9999 FEW043 SCT047 20/06 Q1029 NOSIG
SPZO Dic2004-041700Z 35008KT 270V080 9999 SCT043 SCT080 20/01 Q1029
SPZO Dic2004-041800Z 08012KT 360V110 9999 FEW043 SCT047 BKN300 22/02 Q1028 NOSIG RMK PP000=
SPZO Dic2004-041900Z 36010KT 270V080 9999 SCT050 SCT100 22/01 Q1026 NOSIG RMK PP000 RWY10 03014KT=
SPZO Dic2004-042000Z 01011KT 340V080 9999 FEW050 SCT120 21/03 Q1026 NOSIG RMK PP000 RWY10 02016G29KT=
SPZO Dic2004-042100Z 02008KT 340V080 9999 FEW043 SCT200 21/03 Q1026 NOSIG RMK PP000 RWY10 03016G29KT=
SPZO Dic2004-042200Z 35005KT 270V020 9999 BKN046 20/05 Q1026 NOSIG RMK PP000 RWY10 30019G31KT TMX:22.8 RA CDTE SW=
SPZO Dic2004-042300Z 26007KT 200V300 9999 SCT046 17/04 Q1027 NOSIG RMK PP000=
SPZO Dic2004-050000Z 22006KT 9999 SCT040 SCT200 16/04 Q1028 RMK PP000=
SPZO Dic2004-050100Z 10004KT 9999 SCT040 14/04 Q1030 RMK PP000=
SPZO Dic2004-050200Z 00000KT 9999 SCT040 13/05 Q1031 RMK PP000=
SPZO Dic2004-050300Z 10005KT 9999 FEW037 SCT047 12/05 Q1032 RMK PP000=
SPZO Dic2004-050400Z 00000KT 9999 SCT040 SCT060 13/05 Q1031 RMK PP000=
SPZO Dic2004-050500Z 00000KT 9999 SCT037 SCT050 12/04 Q1031 RMK PP000=
SPZO Dic2004-050600Z 00000KT 9999 SCT040 BKN100 12/05 Q1031 RMK PP000=
SPZO Dic2004-050700Z 00000KT 9999 SCT040 BKN100 11/04 Q1031 RMK PP000=
SPZO Dic2004-050800Z 00000KT 9999 FEW037 SCT047 BKN150 12/05 Q1030
SPZO Dic2004-050900Z 10005KT 9999 SCT070 SCT200 11/05 Q1030 RMK PP000=
SPZO Dic2004-051000Z 00000KT 9999 FEW037 SCT080 10/05 Q1031 RMK PP000=
SPZO Dic2004-051100Z 00000KT 9999 FEW200 09/04 Q1032 RMK PP000=
SPZO Dic2004-051200Z VRB02KT 9999 FEW043 SCT220 14/06 Q1033 NOSIG RMK PP000=
SPZO Dic2004-051300Z VRB03KT 9999 FEW046 SCT220 16/04 Q1033 NOSIG RMK PP000 RWY10 10005KT=
SPZO Dic2004-051400Z VRB03KT 9999 SCT046 SCT220 17/04 Q1032 NOSIG RMK PP000=
SPZO Dic2004-051500Z VRB05KT 9999 SCT050 19/05 Q1032 NOSIG RMK PP000 RWY10 29007KT=
SPZO Dic2004-051600Z VRB04KT 9999 SCT050 21/02 Q1030 NOSIG RMK PP000 RWY10 17007G21KT=
SPZO Dic2004-051700Z VRB06KT 9999 SCT050 23/03 Q1029 NOSIG RMK PP000 RWY10 18007KT=
SPZO Dic2004-051800Z 01011KT 300V070 9999 SCT046 23/03 Q1027 NOSIG RMK PP000 RWY10 03015G29KT=
SPZO Dic2004-051900Z 12011KT 090V170 9999 SCT043 SCT050 21/03 Q1026 TEMPO VCSH RMK PP000 RWY10 11018G29KT=
SPZO Dic2004-052000Z VRB06KT 9999 FEW043TCU BKN050 20/05 Q1026 TEMPO VCRA RMK PP000 RWY10 03019KT=
SPZO Dic2004-052100Z 04007KT 340V140 9999 TS FEW043CB BKN050 18/04 Q1026 TEMPO VCSH RWY10 02013G36KT=
SPZO Dic2004-052200Z 23004KT 180V310 9999 FEW043 BKN050 18/04 Q1027 NOSIG RMK PP000 TMX:23.5=
SPZO Dic2004-052300Z 36008KT 340V040 9999 FEW043 BKN050 16/05 Q1028 NOSIG RMK PP000=
SPZO Dic2004-060000Z 08005KT 9999 SCT040 SCT050 15/05 Q1029 RMK PP000=
SPZO Dic2004-060100Z 12006KT 9999 BKN040 SCT050 15/06 Q1030 RMK PP000=
SPZO Dic2004-060200Z 30006KT 9999 SCT040 SCT070 12/07 Q1032 RMK PP006=
SPZO Dic2004-060300Z 24006KT 9999 SCT030 BKN040 12/05 Q1033 RMK PP000=
SPZO Dic2004-060400Z 24005KT 9999 FEW030 OVC040 12/05 Q1033 RMK PP000=
SPZO Dic2004-060500Z 28004KT 9999 BKN040 SCT046 11/05 Q1032 RMK PP000=
SPZO Dic2004-060600Z 00000KT 9999 BKN037 SCT046 10/06 Q1031 RMK PP000=
SPZO Dic2004-060700Z 33005KT 9999 OVC040 11/05 Q1031 RMK PP000=
SPZO Dic2004-060800Z VRB02KT 9999 OVC040 10/05 Q1030 RMK PP000=
SPZO Dic2004-060900Z VRB02KT 9999 FEW040 SCT080 09/05 Q1030 RMK PP000=
SPZO Dic2004-061000Z 00000KT 9999 SCT040 SCT050 09/05 Q1031 RMK PP000=
SPZO Dic2004-061100Z VRB02KT 9999 SCT040 SCT050 10/06 Q1031 RMK PP000=
SPZO Dic2004-061200Z 27004KT 9999 FEW040 BKN046 11/06 Q1032 NOSIG RMK PP000 RWY10 28005KT=
SPZO Dic2004-061300Z 30004KT 250V350 9999 FEW036 SCT046 BKN120 13/06 Q1033 NOSIG RMK PP000=
SPZO Dic2004-061400Z 27004KT 180V350 9999 FEW040 BKN046 15/06 Q1033 NOSIG RMK PP000=
SPZO Dic2004-061500Z 32007KT 270V020 9999 FEW040 BKN046 18/05 Q1032 NOSIG RMK PP000 RWY10 34010KT=
SPZO Dic2004-061600Z 31008KT 260V020 9999 FEW043 BKN050 18/05 Q1031
SPZO Dic2004-061700Z 27008KT 190V290 9999 FEW043 BKN050 19/05 Q1030
SPZO Dic2004-061800Z 30007KT 250V020 9999 FEW043TCU BKN050 18/04 Q1028 TEMPO RA RMK PP000 RWY10 29015G33KT=
SPZO Dic2004-061900Z 28011KT 200V340 9999 FEW043 SCT047 21/05 Q1027 NOSIG RMK PP000 RWY10 29017G28KT 230V040=
SPZO Dic2004-062000Z 27015KT 220V300 9999 FEW043 SCT047 21/04 Q1026 NOSIG RMK PP000 RWY10 27020G32KT 230V330 PP000=
SPZO Dic2004-062100Z 27014KT 9999 FEW040 BKN043 20/03 Q1025 NOSIG RMK PP000 RWY10 27019G29KT 230V340=
SPZO Dic2004-062200Z 27014KT 220V300 9999 FEW040 BKN043 19/06 Q1026 NOSIG RMK PP000 TMAX 22.3=
SPZO Dic2004-062300Z 26008KT 9999 SCT043 SCT080 18/04 Q1027 NOSIG RMK PP000=
SPZO Dic2004-070000Z 28008KT 9999 FEW040 BKN046 16/06 Q1027 RMK PP000=
SPZO Dic2004-070100Z 27007KT 9999 FEW050 15/06 Q1028 RMK PP000=
SPZO Dic2004-070200Z 00000KT 9999 FEW040 14/06 Q1029 RMK PP000=
SPZO Dic2004-070300Z VRB02KT 9999 SCT050 13/07 Q1030 RMK PP000=
SPZO Dic2004-070400Z VRB02KT 9999 SCT050 11/07 Q1030 RMK PP000=
SPZO Dic2004-070500Z 00000KT 9999 SCT050 15/06 Q1030 RMK PP000=
SPZO Dic2004-070600Z 00000KT 9999 FEW050 09/04 Q1029 RMK PP000=
SPZO Dic2004-070700Z 00000KT 9999 FEW040 10/04 Q1029 RMK PP000=
SPZO Dic2004-070800Z 00000KT 9999 FEW040 08/04 Q1028 RMK PP000=
SPZO Dic2004-070900Z 00000KT 9999 FEW050 10/04 Q1029 RMK PP000=
SPZO Dic2004-071000Z VRB01KT 9999 SCT043 SCT080 08/04 Q1029 RMK PP000=
SPZO Dic2004-071100Z 00000KT 9999 SCT043 SCT200 08/04 Q1030 RMK PP000=
SPZO Dic2004-071200Z 00000KT 9999 BKN100 SCT300 10/05 Q1031 NOSIG RMK PP000=
SPZO Dic2004-071300Z 00000KT 9999 FEW043 SCT100 BKN300 13/06 Q1032 TEMPO FEW043 BKN300 RMK PP000=
SPZO Dic2004-071400Z VRB02KT 9999 FEW043 SCT100 BKN300 14/05 Q1032 NOSIG RMK PP000=
SPZO Dic2004-071500Z VRB04KT 9999 FEW043 SCT300 18/06 Q1031 NOSIG RMK PP000=
SPZO Dic2004-071600Z 00000KT 9999 SCT047 20/05 Q1030 NOSIG RMK PP000 BIRDS HAZARD RWY 10/28=
SPZO Dic2004-071700Z VRB05KT 9999 FEW043 SCT047 22/04 Q1028 NOSIG RMK PP000 RWY10 30012KT 230V020 BIRDS HAZARD RWY 10/28=
SPZO Dic2004-071800Z 30008KT 250V010 9999 FEW040 BKN043 24/03 Q1026
SPZO Dic2004-071900Z VRB05KT 9999 -SHRA VCSH FEW030 BKN043CB BKN080 20/04 Q1027=
SPZO Dic2004-072000Z 11022G34KT 090V170 8000 -TSRA SQ VCSH SCT037CB BKN043CB BKN080 15/04 Q1027 TEMPO7000 RMK RWY10 12040G66KT 090V160 PP34=
SPZO Dic2004-072100Z 07024G36KT 360V080 9000 -RA SCT040TCU BKN043CB 14/04 Q1027=
SPZO Dic2004-072200Z 11006KT 080V190 9999 SCT043TCU OVC100 13/04 Q1028 NOSIG RMK PP006 TMAX 24.5=
SPZO Dic2004-072300Z 00000KT 9999 SCT060 OVC100 13/05 Q1028 NOSIG
SPZO Dic2004-080000Z 00000KT 9999 SCT060 BKN100 12/06 Q1029 RMK PP000=
SPZO Dic2004-080100Z 00000KT 9999 FEW040 BKN100 12/06 Q1030 RMK PP000=
SPZO Dic2004-080200Z VRB03KT 9999 SCT150 10/06 Q1031 RMK PP000=
SPZO Dic2004-080300Z 00000KT 9999 SKC 10/06 Q1030 RMK PP000=
SPZO Dic2004-080400Z 00000KT 9999 SKC 09/06 Q1030 RMK PP000=
SPZO Dic2004-080500Z 00000KT 9999 SKC 08/05 Q1030 RMK PP000=
SPZO Dic2004-080600Z 07004KT 9999 SKC 07/05 Q1029 RMK PP000=
SPZO Dic2004-080700Z 00000KT 9999 SKC 07/04 Q1028 RMK LGT DIST NE PP000=
SPZO Dic2004-080800Z 00000KT 9999 SKC 06/04 Q1028 RMK LGT DIST NE PP000=
SPZO Dic2004-080900Z 00000KT 9999 SKC 06/04 Q1028 RMK LGT NE PP000=
SPZO Dic2004-081000Z 00000KT 9999 SCT050 06/04 Q1029 RMK PP000=
SPZO Dic2004-081100Z 00000KT 9999 FEW070 BKN200 06/04 Q1030 RMK PP000=
SPZO Dic2004-081200Z VRB02KT 9999 FEW060 BKN100 08/05 Q1031 NOSIG
SPZO Dic2004-081300Z 00000KT 9999 FEW060 BKN100 10/06 Q1032 NOSIG
SPZO Dic2004-081400Z VRB01KT 9999 FEW043 OVC100 13/06 Q1031 NOSIG
SPZO Dic2004-081500Z 00000KT 9999 FEW043 OVC300 15/05 Q1031 NOSIG
SPZO Dic2004-081600Z VRB03KT 9999 SCT043 OVC300 17/07 Q1030 NOSIG
SPZO Dic2004-081700Z VRB03KT 9999 SCT043 SCT100 BKN300 18/05 Q1029
SPZO Dic2004-081800Z VRB03KT 9999 SCT043 BKN300 20/05 Q1027 NOSIG RMK PP000=
SPZO Dic2004-081900Z VRB03KT 9999 SCT046 SCT120 22/05 Q1026 NOSIG RMK PP000 RWY10 17006KT=
SPZO Dic2004-082000Z VRB02KT 9999 FEW046 BKN100 21/04 Q1024 NOSIG RMK PP000 RWY10 12009G26KT=
SPZO Dic2004-082100Z 01012KT 340V080 9999 FEW046 BKN100 19/04 Q1024 NOSIG RMK PP000 RWY10 03014G32KT 330V050=
SPZO Dic2004-082200Z 02010KT 340V080 9999 FEW046 SCT120 18/02 Q1024 NOSIG RMK PP000 RWY10 03019G36KT 330V100 TX 22.1=
SPZO Dic2004-082300Z 03011KT 340V080 9999 FEW046 SCT200 16/01 Q1025 NOSIG RMK PP000 RWY10 03015KT=
SPZO Dic2004-090000Z 02014KT 9999 BKN040 15/03 Q1027 RMK PP000=
SPZO Dic2004-090100Z 35008KT 9999 SCT040 14/02 Q1023 RMK PP000=
SPZO Dic2004-090200Z 00000KT 9999 SCT040 13/03 Q1029 RMK PP000=
SPZO Dic2004-090300Z 00000KT 9999 SKC 12/03 Q1030 RMK PP000=
SPZO Dic2004-090400Z 00000KT 9999 SCT040 11/04 Q1030 RMK PP000=
SPZO Dic2004-090500Z 00000KT 9999 FEW040 SCT200 10/04 Q1030 RMK PP000=
SPZO Dic2004-090600Z 00000KT 9999 BKN040 10/04 Q1030 RMK PP000=
SPZO Dic2004-090700Z VRB03KT 9999 FEW040 09/04 Q1029 RMK PP000=
SPZO Dic2004-090800Z 00000KT 9999 FEW040 08/04 Q1028 RMK PP000=
SPZO Dic2004-090900Z 00000KT 9999 FEW200 08/03 Q1028 RMK PP000=
SPZO Dic2004-091000Z 00000KT 9999 FEW070 SCT200 07/03 Q1029 RMK PP000=
SPZO Dic2004-091100Z 00000KT 9999 BKN200 08/04 Q1030 RMK PP000=
SPZO Dic2004-091200Z 00000KT 9999 FEW046 BKN200 12/05 Q1031 NOSIG RMK PP000=
SPZO Dic2004-091300Z VRB02KT 9999 FEW040 SCT200 14/04 Q1031 NOSIG RMK PP000=
SPZO Dic2004-091400Z VRB02KT 9999 FEW040 SCT200 16/03 Q1031 NOSIG RMK PP000 RWY10 10005G11KT=
SPZO Dic2004-091500Z VRB02KT 9999 SCT046 SCT200 18/03 Q1030 NOSIG RMK PP000 RWY10 25008KT 200V280=
SPZO Dic2004-091600Z VRB05KT 9999 BKN050 20/03 Q1029 NOSIG RMK PP000 RWY10 07008KT=
SPZO Dic2004-091700Z VRB05KT 9999 BKN050 21/02 Q1027 NOSIG RMK PP000 RWY10 16011G21KT=
SPZO Dic2004-091800Z 01010KT 9999 FEW043TCU BKN050 21/01 Q1026 NOSIG RMK PP000 RWY10 05011G25KT RA CDTE E=
SPZO Dic2004-091900Z VRB05KT 9999 SCT050 23/02 Q1024 NOSIG RMK PP000 RWY10 10012G23KT=
SPZO Dic2004-092000Z VRB05KT 9999 SCT050 22/02 Q1023 NOSIG RMK PP0000 RWY10 05014G26KT=
SPZO Dic2004-092100Z 35006KT 9999 SCT050 22/01 Q1023 NOSIG RMK PP000 RWY10 04008KT=
SPZO Dic2004-092200Z 03005KT 280V080 9999 SCT046 19/03 Q1024 NOSIG RMK PP000 RWY10 03014G26KT TMX:23.4=
SPZO Dic2004-092300Z 09007KT 9999 BKN046 18/04 Q1025 NOSIG RMK PP000 RWY10 06010G22KT=
SPZO Dic2004-100000Z 10006KT 9999 BKN040 SCT050 17/05 Q1026 RMK PP000=
SPZO Dic2004-100100Z 27008KT 9999 -RA SCT037TCU BKN040 13/08 Q1028 RMK PP014=
SPZO Dic2004-100200Z 26006KT 9999 BKN040 SCT050 14/08 Q1029 RMK PPTRZ=
SPZO Dic2004-100300Z 27008KT 9999 BKN037 SCT050 14/06 Q1029 RMK PP000=
SPZO Dic2004-100400Z 26008KT 9999 OVC040 13/08 Q1029 RMK PP000=
SPZO Dic2004-100500Z 26005KT 9999 OVC043 12/07 Q1029 RMK PP002=
SPZO Dic2004-100600Z 23004KT 9999 -RA BKN037 SCT050 10/06 Q1029 RMK PP006=
SPZO Dic2004-100700Z 00000KT 9000 RA OVC040 08/06 Q1029 RMK PP048=
SPZO Dic2004-100800Z 28005KT 9000 -RA SCT030 BKN040 09/06 Q1029 RMK PP020=
SPZO Dic2004-100900Z 00000KT 9999 SCT030 BKN040 09/06 Q1029 RMK PP002=
SPZO Dic2004-101000Z 10004KT 9999 FEW025 SCT040 BKN043 08/06 Q1030 RMK PP000=
SPZO Dic2004-101100Z 10006KT 9999 FEW025 SCT037 BKN050 09/06 Q1031 RMK CLNG BLW 1200M=
SPZO Dic2004-101200Z 11007KT 090V170 9999 BKN036 SCT046 09/05 Q1032 BECMG FM13 SCT040 BKN046 RMK PP000 RWY10 10013KT COR CLNG BLW 1200M=
SPZO Dic2004-101300Z 08006KT 9999 REDZ FEW036 OVC050 10/06 Q1032 NOSIG RMK PP000=
SPZO Dic2004-101400Z VRB03KT 9999 FEW036 OVC050 11/07 Q1033 NOSIG RMK PP000=
SPZO Dic2004-101500Z VRB02KT 9999 FEW040 OVC060 13/06 Q1032 NOSIG RMK PP000=
SPZO Dic2004-101600Z 11004KT 9999 FEW036 OVC060 14/06 Q1031 NOSIG RMK RWY10 10007KT PP000=
SPZO Dic2004-101700Z VRB03KT 9999 FEW040 OVC080 15/04 Q1030 NOSIG RMK PP000=
SPZO Dic2004-101800Z VRB02KT 9999 FEW040 OVC090 16/03 Q1029 NOSIG RMK PP000=
SPZO Dic2004-101900Z 28017KT 9999 VCSH FEW040 SCT047 BKN080 15/07 Q1028 NOSIG RMK PP000 RWY10 30021G31KT 250V360=
SPZO Dic2004-102000Z 28009KT 9999 VCSH SCT043TCU SCT047 BKN080 14/05 Q1027 NOSIG RMK PP000 RWY10 30017G27KT 260V340=
SPZO Dic2004-102100Z 12006KT 090V170 9999 SCT043 BKN080 13/06 Q1027 NOSIG RMK PP000=
SPZO Dic2004-102200Z 07004KT 360V090 9999 FEW043 SCT300 13/06 Q1026 NOSIG RMK PP000 TMAX 17.1=
SPZO Dic2004-102300Z VRB02KT 9999 FEW030 SCT100 13/07 Q1027 NOSIG RMK PP000=
SPZO Dic2004-110000Z VRB02KT 9999 BKN040 SCT050 12/07 Q1028 RMK PP000=
SPZO Dic2004-110100Z 00000KT 9999 SCT040 SCT060 12/07 Q1029 RMK PP000=
SPZO Dic2004-110200Z 08004KT 9999 SCT040 SCT050 12/08 Q1031 RMK PP000=
SPZO Dic2004-110300Z VRB03KT 9999 BKN040 SCT050 12/07 Q1031 RMK PP000=
SPZO Dic2004-110400Z 00000KT 9999 -RA OVC040 10/08 Q1032 RMK PP022=
SPZO Dic2004-110500Z 00000KT 9000 -RA OVC040 11/08 Q1031 RMK PP010=
SPZO Dic2004-110600Z 00000KT 9999 OVC040 10/08 Q1031 RMK PP000=
SPZO Dic2004-110700Z VRB02KT 9999 BKN037 SCT050 10/07 Q1030 RMK PP000=
SPZO Dic2004-110800Z VRB02KT 9999 BKN040 SCT046 10/07 Q1030 RMK PP000=
SPZO Dic2004-110900Z 00000KT 9999 SCT030 BKN040 09/07 Q1029 RMK PP000=
SPZO Dic2004-111000Z VRB03KT 9999 BKN040 SCT050 09/07 Q1030 RMK PP000=
SPZO Dic2004-111100Z VRB03KT 9999 SCT040 SCT060 09/07 Q1031 RMK PP000=
SPZO Dic2004-111200Z 00000KT 9999 SCT037 SCT060 11/07 Q1031 NOSIG RMK PP000=
SPZO Dic2004-111300Z 08005KT 360V170 9999 SCT043 BKN100 13/07 Q1032 NOSIG RMK PP000=
SPZO Dic2004-111400Z VRB03KT 9999 SCT043 16/07 Q1032 NOSIG RMK PP000=
SPZO Dic2004-111500Z VRB03KT 9999 SCT043 17/06 Q1031 NOSIG RMK PP000=
SPZO Dic2004-111600Z VRB02KT 9999 SCT043 SCT060 17/04 Q1030 NOSIG RMK PP000=
SPZO Dic2004-111700Z 12010KT 070V180 9999 FEW043 BKN047 17/06 Q1029 NOSIG RMK PP000=
SPZO Dic2004-111800Z VRB06KT 9999 FEW043 SCT047 20/04 Q1028 NOSIG RMK PP000=
SPZO Dic2004-111900Z 35008KT 270V020 9999 SCT043 20/03 Q1027 NOSIG
SPZO Dic2004-112000Z 01011KT 320V050 9999 FEW043 20/03 Q1025 NOSIG
SPZO Dic2004-112100Z 01010KT 320V050 9999 FEW043 19/02 Q1025 NOSIG RMK PP000=
SPZO Dic2004-112200Z 36009KT 9999 FEW047 19/03 Q1025 NOSIG RMK PP000 TMAX 20.7=
SPZO Dic2004-112300Z 04005KT 340V110 9999 SCT047 BKN300 16/04 Q1026
SPZO Dic2004-120000Z 07004KT 9999 SCT040 14/05 Q1028 RMK PP000=
SPZO Dic2004-120100Z 00000KT 9999 SCT040 14/05 Q1029 RMK PP000=
SPZO Dic2004-120200Z 28004KT 9999 SKC 12/04 Q1030 RMK PP000=
SPZO Dic2004-120300Z 00000KT 9999 SKC 11/06 Q1031 RMK PP000=
SPZO Dic2004-120400Z 00000KT 9999 SCT040 12/06 Q1031 RMK PP000=
SPZO Dic2004-120500Z 00000KT 9999 BKN040 11/06 Q1030 RMK PP000=
SPZO Dic2004-120600Z 00000KT 9999 BKN040 10/06 Q1030 RMK PP000=
SPZO Dic2004-120700Z 00000KT 9999 BKN040 10/06 Q1030 RMK PP000=
SPZO Dic2004-120800Z 00000KT 9999 SCT040 SCT050 10/06 Q1030 RMK PP000=
SPZO Dic2004-120900Z 00000KT 9999 SCT040 08/05 Q1030 RMK PP000=
SPZO Dic2004-121000Z 00000KT 9999 SCT043 08/05 Q1031 RMK PP000=
SPZO Dic2004-121100Z 28004KT 9999 FEW050 07/05 Q1032 RMK PP000=
SPZO Dic2004-121200Z 00000KT 9999 FEW043 BKN080 13/06 Q1032 NOSIG
SPZO Dic2004-121300Z VRB03KT 9999 FEW043 14/05 Q1032 NOSIG RMK PP000=
SPZO Dic2004-121400Z VRB02KT 9999 SCT043 16/03 Q1032 NOSIG RMK PP000=
SPZO Dic2004-121500Z VRB02KT 9999 SCT043 SCT050 16/03 Q1031 NOSIG
SPZO Dic2004-121600Z VRB03KT 9999 BKN043 19/03 Q1030 NOSIG RMK PP000=
SPZO Dic2004-121700Z VRB02KT 9999 SCT043 BKN060 20/03 Q1029 NOSIG
SPZO Dic2004-121800Z VRB04KT 9999 SCT043 SCT060 20/02 Q1028 NOSIG RMK PP000=
SPZO Dic2004-121900Z 10016KT 360V100 9999 BKN050 20/04 Q1027 NOSIG RMK PP000 RWY10 10016KT=
SPZO Dic2004-122000Z VRB07KT 9999 BKN050 21/03 Q1025 NOSIG RMK PP000 RWY10 VRB06KT=
SPZO Dic2004-122100Z 36008KT 340V080 9999 BKN050 22/04 Q1024 NOSIG RMK PP000 RWY10 34011G27KT=
SPZO Dic2004-122200Z 01010KT 340V080 9999 BKN050 20/04 Q1024 NOSIG RMK PP000 RWY10 01012KT TMX:22.1=
SPZO Dic2004-122300Z VRB04KT 9999 FEW046 BKN080 9999 19/05 Q1026 NOSIG RMK PP000 RWY10 36014KT=
SPZO Dic2004-130000Z 00000KT 9999 FEW037 BKN047 17/06 Q1028 RMK PP000=
SPZO Dic2004-130100Z 10005KT 9999 FEW037 SCT047 15/06 Q1029 RMK PP000=
SPZO Dic2004-130200Z 00000KT 9999 FEW037 SCT047 14/06 Q1030 RMK PP000=
SPZO Dic2004-130300Z 00000KT 9999 SCT037 SCT047 14/06 Q1031 RMK PP000=
SPZO Dic2004-130400Z 12004KT 9999 SCT037 SCT047 14/06 Q1030 RMK PP000=
SPZO Dic2004-130500Z 00000KT 9999 SCT037 14/06 Q1030 RMK PP000=
SPZO Dic2004-130600Z 00000KT 9999 FEW037 13/05 Q1030 RMK PP000=
SPZO Dic2004-130700Z 00000KT 9999 FEW037 11/05 Q1030 RMK PP000=
SPZO Dic2004-130800Z 30004KT 9999 FEW040 10/05 Q1030 RMK PP000=
SPZO Dic2004-130900Z 00000KT 9999 SCT040 10/05 Q1030 RMK PP000=
SPZO Dic2004-131000Z 00000KT 9999 FEW040 SCT050 10/05 Q1030 RMK PP000=
SPZO Dic2004-131100Z VRB03KT 9999 SCT040 BKN080 10/06 Q1032 RMK PP000=
SPZO Dic2004-131200Z VRB03KT 9999 FEW036 BKN100 12/06 Q1033 NOSIG RMK PP000=
SPZO Dic2004-131300Z 09004KT 9999 FEW040 BKN100 13/06 Q1033 NOSIG RMK PP000=
SPZO Dic2004-131400Z 09005KT 9999 FEW040 BKN100 15/06 Q1033 NOSIG RMK PP000 RWY10 10007KT=
SPZO Dic2004-131500Z 14004KT 080V200 9999 FEW043 BKN100 16/05 Q1033 NOSIG RMK PP000 RWY10 13006KT=
SPZO Dic2004-131600Z VRB03KT 9999 SCT046 SCT050 18/07 Q1032 NOSIG RMK PP000 RWY10 15010G23KT=
SPZO Dic2004-131700Z VRB03KT 9999 SCT046 SCT060 19/05 Q1031 NOSIG RMK PP000 RWY10 06011KT=
SPZO Dic2004-131800Z VRB02KT 9999 FEW046 SCT100 20/03 Q1029 NOSIG RMK PP000 RWY10 06007KT=
SPZO Dic2004-131900Z VRB03KT 9999 SCT046 SCT100 21/04 Q1028 NOSIG RMK PP000 RWY10 VRB05KT=
SPZO Dic2004-132000Z 12005KT 070V170 9999 FEW046 SCT100 20/03 Q1027 NOSIG RMK PP000 RWY10 11007KT=
SPZO Dic2004-132100Z VRB02KT 9999 FEW046 BKN200 20/02 Q1026 NOSIG RMK PP000=
SPZO Dic2004-132200Z VRB04KT 9999 SCT046 SCT200 20/02 Q1026 NOSIG RMK PP000 RWY10 33006KT TMX:21.4=
SPZO Dic2004-132300Z 28015KT 9999 RA SCT040 SCT046 16/05 Q1027 NOSIG RMK PPTRZ=
SPZO Dic2004-140000Z 29008KT 9000 RA SCT040TCU BKN043 11/07 Q1030 RMK PP062=
SPZO Dic2004-140100Z 11004KT 8000 -RA FEW030 OVC040 11/07 Q1032 RMK PP040=
SPZO Dic2004-140200Z 00000KT 9999 -RA FEW025 OVC043 10/08 Q1033 RMK PP014=
SPZO Dic2004-140300Z VRB02KT 9999 SCT030 BKN040 10/07 Q1034 RMK PP002=
SPZO Dic2004-140400Z 00000KT 9999 -RA SCT030 BKN043 10/07 Q1034 RMK PP006=
SPZO Dic2004-140500Z 10007KT 9999 -RA BKN037 SCT046 10/08 Q1033 RMK PP008=
SPZO Dic2004-140600Z 10005KT 9999 OVC040 09/08 Q1033 RMK PPTRZ=
SPZO Dic2004-140700Z 12004KT 9999 BKN040 SCT046 09/07 Q1032 RMK PP000=
SPZO Dic2004-140800Z 08004KT 9999 BKN043 SCT050 09/06 Q1031 RMK PP000=
SPZO Dic2004-140900Z VRB02KT 9999 SCT025 BKN040 09/07 Q1031 RMK PP000=
SPZO Dic2004-141000Z VRB02KT 9999 SCT025 BKN043 09/06 Q1031 RMK PP000=
SPZO Dic2004-141100Z VRB02KT 9999 SCT040 SCT050 09/07 Q1032 RMK PP000=
SPZO Dic2004-141200Z 10003KT 9999 FEW030 SCT040 BKN046 10/07 Q1032 NOSIG RMK PP000 RWY10 10006KT=
SPZO Dic2004-141300Z VRB02KT 9999 SCT040 SCT120 13/07 Q1033 NOSIG RMK PP000=
SPZO Dic2004-141400Z VRB02KT 9999 FEW040 SCT046 15/06 Q1032 NOSIG RMK PP000=
SPZO Dic2004-141500Z VRB02KT 9999 FEW043 BKN050 18/07 Q1031 NOSIG RMK PP000=
SPZO Dic2004-141600Z VRB04KT 9999 SCT050 19/05 Q1030 NOSIG RMK PP000 RWY10 11007KT=
SPZO Dic2004-141700Z VRB02KT 9999 BKN050 19/05 Q1029 NOSIG RMK PP000=
SPZO Dic2004-141800Z VRB04KT 9999 BKN046 21/04 Q1027 TEMPO VCSH RMK PP000 RWY10 01024G40KT RA CDTE NE/E=
SPZO Dic2004-141900Z 32011KT 270V360 9999 VCSH SCT037 BKN043TCU 16/06 Q1027 NOSIG RMK PP000=
SPZO Dic2004-142000Z 27012KT 9999 FEW043 SCT047TCU BKN080 16/06 Q1027 NOSIG RMK PP000 RWY10 29016G26KT 230V340=
SPZO Dic2004-142100Z 27010KT 9999 SCT043 BKN080 16/06 Q1026 NOSIG RMK PP000=
SPZO Dic2004-142200Z 26009KT 9999 BKN043 16/07 Q1026 NOSIG RMK PP000 TMAX 21.9=
SPZO Dic2004-142300Z 26008KT 180V290 9999 BKN043 15/07 Q1027 NOSIG RMK PP000=
SPZO Dic2004-150000Z 34004KT 9999 BKN040 SCT050 15/06 Q1028 RMK PP000=
SPZO Dic2004-150100Z 26006KT 9999 SCT040 SCT080 14/07 Q1028 RMK PP000=
SPZO Dic2004-150200Z 00000KT 9999 FEW040 SCT080 13/08 Q1030 RMK PP000=
SPZO Dic2004-150300Z VRB03KT 9999 FEW040 SCT080 12/07 Q1031 RMK PP000=
SPZO Dic2004-150400Z 00000KT 9999 SCT040 SCT070 12/09 Q1031 RMK PP000=
SPZO Dic2004-150500Z 00000KT 9999 SCT040 SCT050 11/05 Q1031 RMK PP000=
SPZO Dic2004-150600Z 29006KT 9999 -RA OVC040 09/07 Q1031 RMK PP006=
SPZO Dic2004-150700Z VRB03KT 9999 -RA OVC040 09/06 Q1031 RMK PP020=
SPZO Dic2004-150800Z 00000KT 9000 -RA BKN037 SCT046 08/06 Q1031 RMK PP016=
SPZO Dic2004-150900Z 00000KT 9000 -RA BKN037 SCT046 08/06 Q1031 RMK PP024=
SPZO Dic2004-151000Z 00000KT 8000 -RA FEW025 SCT037 BKN046 08/06 Q1031 RMK CLNG BLW 1200M PP014=
SPZO Dic2004-151100Z 00000KT 9000 -RA FEW025 SCT037 BKN050 08/06 Q1032 RMK CLNG BLW 1200M PP010=
SPZO Dic2004-151200Z 00000KT 9999 -DZ SCT025 SCT043 BKN100 09/06 Q1032 TEMPO NSW RMK PP002=
SPZO Dic2004-151300Z VRB02KT 9999 -RA SCT033 SCT043 OVC150 11/07 Q1033 NOSIG RMK PPTRZ=
SPZO Dic2004-151400Z VRB01KT 9999 SCT033 SCT040 OVC150 12/05 Q1033 NOSIG RMK PPTRZ=
SPZO Dic2004-151500Z 00000KT 9999 SCT033 SCT040 BKN300 13/06 Q1032 NOSIG RMK PP000=
SPZO Dic2004-151600Z VRB02KT 9999 SCT037 BKN053 15/07 Q1031 NOSIG RMK PP000=
SPZO Dic2004-151700Z VRB03KT 9999 SCT037 BKN060 16/05 Q1030 NOSIG RMK PP000=
SPZO Dic2004-151800Z VRB02KT 9999 SCT037 BKN060 18/05 Q1029 NOSIG RMK PP000=
SPZO Dic2004-151900Z 02006KT 340V080 9999 VCSH FEW030 SCT043TCU BKN043 17/07 Q1027 NOSIG RMK PP000=
SPZO Dic2004-152000Z 02006KT 340V100 9999 VCSH FEW030 SCT043TCU BKN060 14/08 Q1027 NOSIG RMK PP000=
SPZO Dic2004-152100Z VRB04KT 9999 BKN043TCU SCT060 15/06 Q1026 NOSIG RMK PP000=
SPZO Dic2004-152200Z 09004KT 9999 SCT043 BKN100 16/07 Q1026 NOSIG RKM PP000 TMAX 18.0=
SPZO Dic2004-152300Z 10004KT 9999 SCT043 BKN100 14/07 Q1026 NOSIG RMK PP000=
SPZO Dic2004-160000Z 00000KT 9999 SCT033 BKN060 13/08 Q1027 RMK PP000=
SPZO Dic2004-160100Z 00000KT 9999 SCT033 BKN060 13/07 Q1028 RMK PP000=
SPZO Dic2004-160200Z 00000KT 9999 SCT033 BKN053 13/07 Q1029 RMK PP000=
SPZO Dic2004-160300Z 00000KT 9999 -RA SCT030 BKN043 12/08 Q1030 RMK PPTRZ=
SPZO Dic2004-160400Z 10004KT 9000 -RA FEW025 BKN037 10/08 Q1031 RMK PP040=
SPZO Dic2004-160500Z 00000KT 8000 RA SCT025 BKN037 10/08 Q1031 RMK PP038=
SPZO Dic2004-160600Z 00000KT 7000 +RA FEW020 SCT030 BKN037 09/07 Q1030 RMK PP060=
SPZO Dic2004-160700Z 00000KT 8000 RA FEW020 BKN033 08/06 Q1030 RMK PP052=
SPZO Dic2004-160800Z 27007KT 9000 -RA FEW020 BKN037 08/06 Q1029 RMK PP046=
SPZO Dic2004-160900Z 07005KT 9999 -DZ SCT025 BKN037 08/06 Q1029 CLNG BLW 1200M PP020=
SPZO Dic2004-161000Z 00000KT 9999 FEW025 SCT040 BKN053 08/06 Q1029 REDZ RMK PPTRZ=
SPZO Dic2004-161100Z 00000KT 9999 FEW033 SCT043 BKN070 08/06 Q1030 RMK PP000=
SPZO Dic2004-161200Z 00000KT 9999 FEW025 SCT043 BKN100 11/07 Q1030 NOSIG RMK PP000=
SPZO Dic2004-161300Z 00000KT 9999 FEW025 BKN043 BKN100 12/06 Q1030
SPZO Dic2004-161400Z 00000KT 9999 SCT040 BKN300 15/07 Q1030 NOSIG RMK PP000=
SPZO Dic2004-161500Z VRB02KT 9999 SCT043 OVC100 16/07 Q1030 NOSIG
SPZO Dic2004-161600Z VRB02KT 9999 SCT043 SCT100 OVC300 17/06 Q1029
SPZO Dic2004-161700Z VRB03KT 9999 SCT043 SCT100 OVC300 18/06 Q1028
SPZO Dic2004-161800Z VRB06KT 9999 SCT033 SCT043 BKN150 18/05 Q1027 NOSIG RMK PP000=
SPZO Dic2004-161900Z 01011KT 340V080 9999 SCT046 BKN060 15/04 Q1027 NOSIG RMK PP000 RWY10 03016G30KT RA CDTE E=
SPZO Dic2004-162000Z 07005KT 360V110 9999 FEW046 OVC100 15/08 Q1026 NOSIG RMK PP000 RWY10 02011G21KT=
SPZO Dic2004-162100Z VRB03KT 9999 FEW046 OVC100 15/06 Q1026 NOSIG RMK PP000 RWY10 07008KT=
SPZO Dic2004-162200Z VRB03KT 9999 FEW046 OVC100 15/07 Q1025 NOSIG RMK PP000 RWY10 12007KT TMX:18.5=
SPZO Dic2004-162300Z 10006KT 9999 FEW046 BKN100 14/07 Q1026 NOSIG RMK PP000 RWY10 11010KT=
SPZO Dic2004-170000Z 10004KT 9999 SCT040 SCT060 13/07 Q1027 RMK PP000= METAR
SPZO Dic2004-170100Z 30005KT 9999 SCT060 13/07 Q1028 RMK PP000=
SPZO Dic2004-170200Z 08004KT 9999 FEW040 SCT060 12/08 Q1029 RMK PP000=
SPZO Dic2004-170300Z 00000KT 9999 SCT037 SCT050 12/08 Q1030 RMK PP000=
SPZO Dic2004-170400Z VRB02KT 9999 SCT033 BKN047 12/07 Q1030 RMK PP000=
SPZO Dic2004-170500Z VRB02KT 9999 SCT037 SCT047 12/06 Q1029 RMK PP000=
SPZO Dic2004-170600Z 26004KT 9999 SCT037 BKN047 12/06 Q1028 RMK PP000=
SPZO Dic2004-170700Z 25004KT 9999 SCT037 BKN050 12/05 Q1028 RMK PP000=
SPZO Dic2004-170800Z 00000KT 9999 SCT033 BKN047 11/07 Q1028 RMK PP000=
SPZO Dic2004-170900Z 00000KT 9999 SCT033 BKN043 10/07 Q1028 RMK PP000=
SPZO Dic2004-171000Z 27003KT 9999 -DZ FEW030 SCT037 BKN047 10/07 Q1028 RMK CLNG BLW 1200M PPTRZ=
SPZO Dic2004-171100Z 00000KT 9999 SCT040 BKN060 10/07 Q1029 NOSIG RMK PP000=
SPZO Dic2004-171200Z VRB02KT 9999 FEW030 SCT040 BKN046 11/07 Q1030 NOSIG RMK PP000=
SPZO Dic2004-171300Z VRB02KT 9999 FEW040 OVC100 14/06 Q1030 NOSIG RMK PP000=
SPZO Dic2004-171400Z VRB02KT 9999 SCT043 OVC090 15/05 Q1029 NOSIG RMK PP000=
SPZO Dic2004-171500Z VRB02KT 9999 SCT043 BKN060 15/05 Q1029 NOSIG RMK PP000=
SPZO Dic2004-171600Z VRB03KT 9999 SCT043 OVC100 17/05 Q1028 NOSIG RMK PP000 RWY10 35008KT=
SPZO Dic2004-171700Z 03005KT 350V080 9999 SCT043 OVC100 18/07 Q1027 NOSIG RMK PP000 RWY10 01008KT=
SPZO Dic2004-171800Z 07008KT 360V100 9999 RERA SCT043 OVC050 15/07 Q1027 NOSIG RMK PP002=
SPZO Dic2004-171900Z VRB03KT 9999 SCT046 BKN090 18/07 Q1025 NOSIG RMK PP000 RWY10 05008KT=
SPZO Dic2004-172000Z 36007KT 9999 FEW036 BKN080 16/07 Q1023 NOSIG RMK PPTRZ RWY10 04008KT=
SPZO Dic2004-172100Z 36007KT 9999 RERA FEW036 BKN080 16/07 Q1023 NOSIG RMK PPTRZ RWY10 04008KT=
SPZO Dic2004-172200Z 10009KT 9999 FEW046 OVC100 15/07 Q1024 NOSIG RMK PP000 RWY10 10016KT TMX:18.2=
SPZO Dic2004-172300Z VRB03KT 9999 SCT046 OVC060 15/07 Q1024 NOSIG RMK PP000=
SPZO Dic2004-180000Z VRB02KT 9999 BKN040 SCT070 14/06 Q1025 RMK PP000=
SPZO Dic2004-180100Z 00000KT 9999 SCT040 SCT080 14/06 Q1027 RMK PP000=
SPZO Dic2004-180200Z VRB02KT 9999 FEW040 BKN050 13/07 Q1028 RMK PP000=
SPZO Dic2004-180300Z VRB03KT 9999 SCT040 SCT080 12/08 Q1029 RMK PP000=
SPZO Dic2004-180400Z 01006KT 9999 BKN040 SCT070 13/06 Q1030 RMK PP000=
SPZO Dic2004-180500Z 02007KT 9999 SCT030 BKN040 13/05 Q1029 RMK PP000=
SPZO Dic2004-180600Z 00000KT 9999 SCT040 SCT046 12/05 Q1028 RMK PP000=
SPZO Dic2004-180700Z 00000KT 9999 BKN040 SCT050 12/07 Q1027 RMK PP000=
SPZO Dic2004-180800Z 00000KT 9999 BKN040 SCT046 11/07 Q1027 RMK PP000=
SPZO Dic2004-180900Z 00000KT 9999 SCT040 SCT050 11/07 Q1027 RMK PP000=
SPZO Dic2004-181000Z VRB01KT 9999 BKN043 SCT070 10/07 Q1028 RMK PP000=
SPZO Dic2004-181100Z 00000KT 9999 BKN043 SCT050 10/07 Q1029 RMK PP000=
SPZO Dic2004-181200Z VRB02KT 9999 FEW036 BKN046 11/07 Q1029 NOSIG RMK PP000=
SPZO Dic2004-181300Z VRB02KT 9999 FEW036 SCT040 BKN046 14/06 Q1030 NOSIG RMK PP000=
SPZO Dic2004-181400Z VRB02KT 9999 FEW036 SCT040 BKN046 14/06 Q1030 NOSIG RMK PP000=
SPZO Dic2004-181500Z 03005KT 340V100 9999 FEW040 BKN046 15/05 Q1030 NOSIG RMK PP000=
SPZO Dic2004-181600Z 06005KT 340V110 9999 SCT043 BKN046 16/06 Q1030 NOSIG RMK PP000 RWY10 04008KT=
SPZO Dic2004-181700Z VRB05KT 9999 SCT043 BKN050 17/05 Q1029 NOSIG RMK PP000 RWY10 02013KT=
SPZO Dic2004-181800Z VRB05KT 9999 BKN046 SCT100 19/06 Q1027 NOSIG RMK PP000 RWY10 04013KT=
SPZO Dic2004-181900Z 31016KT 270V080 9999 SCT043 SCT060 17/02 Q1026 NOSIG RMK PP000=
SPZO Dic2004-182000Z 01012KT 340V080 9999 SCT043 19/05 Q1024 NOSIG RMK PP000=
SPZO Dic2004-182100Z 02009KT 340V080 9999 SCT043 BKN060 18/05 Q1024 NOSIG RMK PP000=
SPZO Dic2004-182200Z 02007KT 340V080 9999 SCT043 BKN100 17/05 Q1025 NOSIG RMK PP000 TMAX 19.6=
SPZO Dic2004-182300Z 03007KT 330V080 9999 BKN043 SCT060 16/05 Q1026 NOSIG RMK PP000=
SPZO Dic2004-190000Z 17005KT 9999 BKN037 SCT050 15/06 Q1028 RMK PP000=
SPZO Dic2004-190100Z 10010KT 9999 BKN037 SCT046 13/05 Q1029 RMK PP000=
SPZO Dic2004-190200Z 10007KT 9999 SCT030 BKN040 12/07 Q1031 RMK PP000=
SPZO Dic2004-190300Z 10008KT 9999 -RA BKN040 SCT046 10/07 Q1032 RMK PP006=
SPZO Dic2004-190400Z VRB03KT 9999 -RA OVC040 09/07 Q1032 RMK PP026=
SPZO Dic2004-190500Z 10005KT 9999 -RA FEW030 OVC040 09/07 Q1032 RMK PP022=
SPZO Dic2004-190600Z 00000KT 9999 SCT030 BKN040 08/06 Q1031 RMK PP002=
SPZO Dic2004-190700Z 10005KT 9999 -RA OVC040 08/06 Q1030 RMK PP006=
SPZO Dic2004-190800Z 10005KT 9999 OVC040 07/05 Q1029 RMK PP000=
SPZO Dic2004-190900Z 00000KT 9999 SCT030 BKN040 08/06 Q1029 RMK PP000=
SPZO Dic2004-191000Z VRB01KT 9999 SCT030 BKN043 08/06 Q1030 RMK PP000=
SPZO Dic2004-191100Z VRB02KT 9999 SCT030 BKN043 08/06 Q1031 RMK PP000=
SPZO Dic2004-191200Z VRB02KT 9999 SCT037 SCT060 11/07 Q1031 NOSIG RMK PP000=
SPZO Dic2004-191300Z VRB02KT 9999 SCT037 SCT080 13/06 Q1031 NOSIG RMK PP000=
SPZO Dic2004-191400Z VRB02KT 9999 SCT037 SCT060 15/06 Q1031 NOSIG RMK PP000=
SPZO Dic2004-191500Z 00000KT 9999 SCT040 SCT060 14/06 Q1031 NOSIG RMK PP000=
SPZO Dic2004-191600Z 00000KT 9999 SCT040 BKN053 15/05 Q1030 NOSIG RMK PP000=
SPZO Dic2004-191700Z VRB01KT 9999 SCT043 BKN053 15/06 Q1029 NOSIG RMK PP000=
SPZO Dic2004-191800Z 36007KT 280V080 9999 SCT040 BKN080 17/07 Q1028
SPZO Dic2004-191900Z 01010KT 340V080 9999 FEW043 SCT100 19/06 Q1026
SPZO Dic2004-192000Z 36010KT 270V020 9999 SCT040 SCT043TCU BKN300 19/06 Q1026=
SPZO Dic2004-192100Z VRB03KT 9999 SCT043 BKN100 18/05 Q1025 NOSIG
SPZO Dic2004-192200Z 01005KT 340V080 9999 SCT043 BKN100 18/05 Q1025
SPZO Dic2004-192300Z VRB03KT 9999 SCT043 BKN100 16/06 Q1026 NOSIG
SPZO Dic2004-200000Z 00000KT 9999 SCT047 SCT100 15/07 Q1027 RMK PP000=
SPZO Dic2004-200100Z 28005KT 9999 SCT040 SCT100 14/05 Q1028 RMK PP000=
SPZO Dic2004-200200Z 26009KT 9999 FEW040 SCT080 13/08 Q1029 RMK PP000=
SPZO Dic2004-200300Z 00000KT 9999 BKN043 13/08 Q1030 RMK LGT SE PP000=
SPZO Dic2004-200400Z 18004KT 9999 SCT037 SCT050 13/06 Q1031 RMK PP000=
SPZO Dic2004-200500Z 00000KT 9999 SCT033 BKN043 12/06 Q1031 RMK PP000=
SPZO Dic2004-200600Z 00000KT 9000 DZ SCT030 BKN040 10/07 Q1030 RMK PP010=
SPZO Dic2004-200700Z 00000KT 9999 BKN040 10/07 Q1029 RMK PP002=
SPZO Dic2004-200800Z 00000KT 9999 FEW040 09/07 Q1029 RMK PP000=
SPZO Dic2004-200900Z 00000KT 9999 SKC 09/07 Q1029 RMK PP000=
SPZO Dic2004-201000Z 00000KT 9999 FEW050 SCT200 08/06 Q1029 RMK PP000=
SPZO Dic2004-201100Z 00000KT 9999 FEW060 BKN200 08/07 Q1030 RMK PP000=
SPZO Dic2004-201200Z 00000KT 9999 FEW043 SCT100 BKN300 10/08 Q1031
SPZO Dic2004-201300Z 00000KT 9999 FEW033 OVC080 12/07 Q1031 NOSIG
SPZO Dic2004-201400Z 08004KT 360V140 9999 SCT043 SCT080 14/08 Q1031
SPZO Dic2004-201500Z VRB03KT 9999 SCT043 SCT060 16/07 Q1030 NOSIG
SPZO Dic2004-201600Z VRB02KT 9999 SCT043 SCT080 18/06 Q1029 NOSIG
SPZO Dic2004-201700Z VRB02KT 9999 SCT043 SCT060 19/06 Q1028 NOSIG
SPZO Dic2004-201800Z 36008KT 270V080 9999 FEW040 SCT043 20/06 Q1027 NOSIG RMK PP000=
SPZO Dic2004-201900Z 36010KT 270V080 9999 FEW043 BKN050 20/07 Q1026 TEMPO VCSH RMK PP000 RWY10 02013KTG30=
SPZO Dic2004-202000Z 14008KT 090V190 9999 -RA SCT046 BKN060 16/08 Q1025 NOSIG RMK PPTRZ RWY10 12021KT=
SPZO Dic2004-202100Z 10004KT 070V170 9999 RERA SCT046 SCT050 15/08 Q1025 NOSIG MRK PP004 RWY10 10006KT=
SPZO Dic2004-202200Z 09003KT 9999 FEW046 SCT060 16/07 Q1025 NOSIG RMK PP000 TMX:20.7=
SPZO Dic2004-202300Z VRB01KT 9999 SCT046 15/07 Q1026 NOSIG RMK PP000=
SPZO Dic2004-210000Z 07004KT 9999 FEW050 14/08 Q1027 RMK PP000=
SPZO Dic2004-210100Z 09005KT 9999 FEW040 BKN100 12/08 Q1029 RMK PP000=
SPZO Dic2004-210200Z 00000KT 9999 SCT037 SCT060 14/07 Q1029 RMK PP000=
SPZO Dic2004-210300Z 00000KT 9999 SCT033 BKN043 12/04 Q1031 RMK PP000=
SPZO Dic2004-210400Z 08004KT 9000 RA SCT030 BKN040 09/05 Q1033 RMK PP016=
SPZO Dic2004-210500Z 34004KT 9000 RA SCT030 BKN037 08/05 Q1032 RMK PP040=
SPZO Dic2004-210600Z 26004KT 9999 RA SCT030 BKN043 08/05 Q1031
SPZO Dic2004-210700Z 00000KT 9999 SCT033 BKN050 08/05 Q1031 RMK PP006=
SPZO Dic2004-210800Z 00000KT 9000 -RA FEW025 SCT037 BKN050 07/05 Q1030 RMK PP006=
SPZO Dic2004-210900Z 00000KT 9999 FEW030 SCT040 BKN050 07/05 Q1030
SPZO Dic2004-211000Z 00000KT 9999 FEW025 SCT037 BKN047 07/05 Q1030 RMK CLNG BLW 1200M PP000=
SPZO Dic2004-211100Z 00000KT 9999 FEW027 SCT053 BKN100 07/06 Q1031
SPZO Dic2004-211200Z VRB02KT 9999 FEW036 SCT046 BKN120 09/06 Q1032 NOSIG RMK PP000=
SPZO Dic2004-211300Z VRB03KT 9999 BKN040 SCT046 09/06 Q1033 NOSIG RMK PP000 BCBR CDTE NE=
SPZO Dic2004-211400Z VRB03KT 9999 FEW036 SCT120 13/07 Q1032 NOSIG RMK PP000=
SPZO Dic2004-211500Z VRB06KT 9999 SCT043 SCT100 15/08 Q1032 NOSIG RMK PP000 RWY10 10011KT=
SPZO Dic2004-211600Z VRB02KT 9999 FEW040 BKN120 16/07 Q1031 NOSIG RMK PP000 RWY10 07008KT=
SPZO Dic2004-211700Z VRB03KT 9999 FEW040 OVC060 17/06 Q1030 NOSIG RMK PP000 RWY10=
SPZO Dic2004-211800Z VRB02KT 9999 SCT046 SCT120 18/06 Q1029 NOSIG RMK PP000 RWY10 01007KT=
SPZO Dic2004-211900Z VRB05KT 9999 SCT046 SCT120 20/04 Q1027 NOSIG RMK PP000 RWY10 03010KT=
SPZO Dic2004-212000Z 01008KT 9999 BKN046 20/03 Q1026 NOSIG RMK PP000 RWY10 36010KT=
SPZO Dic2004-212100Z 18008KT 080V250 9999 RERA FEW036CB BKN046 14/06 Q1026 NOSIG RMK PP010 RWY10 22009G22KT RA CDTES
SPZO Dic2004-212200Z VRB03KT 9999 RERA BKN046 11/07 Q1027 NOSIG RMK PPTRZ TMX:20.3=
SPZO Dic2004-212300Z VRB03KT 9999 BKN046 13/06 Q1026 NOSIG RMK PP000=
SPZO Dic2004-220000Z VRB01KT 9999 SCT040 SCT046 12/06 Q1028 RMK PP000=
SPZO Dic2004-220100Z 08004KT 9999 FEW040 SCT070 11/07 Q1029 RMK PP000=
SPZO Dic2004-220200Z 00000KT 9999 SCT050 09/07 Q1030 RMK PP000=
SPZO Dic2004-220300Z 09004KT 9999 FEW040 SCT050 08/06 Q1030 RMK PP000=
SPZO Dic2004-220400Z 00000KT 9999 SCT050 09/07 Q1030 RMK PP000=
SPZO Dic2004-220500Z VRB02KT 9999 FEW040 SCT050 08/06 Q1030 RMK PP000=
SPZO Dic2004-220600Z 00000KT 9999 SCT050 07/05 Q1029 RMK PP000=
SPZO Dic2004-220700Z 00000KT 9999 SCT050 07/06 Q1028 RMK PP000=
SPZO Dic2004-220800Z 00000KT 9999 FEW040 SCT050 07/05 Q1028 RMK PP002=
SPZO Dic2004-220900Z 00000KT 9999 SCT050 06/04 Q1028 RMK PP000=
SPZO Dic2004-221000Z VRB01KT 9999 FEW050 SCT300 06/04 Q1029 RMK PP000=
SPZO Dic2004-221100Z VRB01KT 9999 BKN300 06/04 Q1030 RMK PP000=
SPZO Dic2004-221200Z 00000KT 9999 BKN200 10/06 Q1031 NOSIG RMK PP000=
SPZO Dic2004-221300Z VRB03KT 9999 FEW040 SCT200 12/06 Q1031 NOSIG RMK PP000=
SPZO Dic2004-221400Z VRB02KT 9999 FEW040 15/06 Q1031 NOSIG RMK PP000=
SPZO Dic2004-221500Z VRB02KT 9999 FEW040 17/06 Q1030 NOSIG RMK PP000 RWY10 08005KT=
SPZO Dic2004-221600Z VRB04KT 9999 FEW046 18/05 Q1029 NOSIG RMK PP000 RWY10 26005KT=
SPZO Dic2004-221700Z VRB03KT 9999 SCT050 21/03 Q1028 NOSIG RMK PP000=
SPZO Dic2004-221800Z VRB07KT 9999 SCT050 22/03 Q1027 NOSIG RMK PP000 RWY10 13009KT=
SPZO Dic2004-221900Z 02008KT 270V080 9999 BKN043 21/03 Q1025 NOSIG RMK PP000=
SPZO Dic2004-222000Z 07005KT 360V110 9999 BKN043 22/03 Q1024 NOSIG RMK PP000=
SPZO Dic2004-222100Z VRB05KT 9999 SCT043TCU SCT047 21/04 Q1023 NOSIG RMK PP000=
SPZO Dic2004-222200Z 03006KT 340V110 9999 VCSH SCT043CB BKN080 20/04 Q1024 NOSIG RMK PP000 TMAX 23.2=
SPZO Dic2004-222300Z VRB07KT 9999 BKN043 SCT080 18/05 Q1025 NOSIG RMK PP000=
SPZO Dic2004-230000Z 10013KT 9999 BKN040 SCT080 14/04 Q1028 RMK PP000=
SPZO Dic2004-230100Z VRB02KT 9999 BKN040 SCT070 14/04 Q1028 RMK PP000=
SPZO Dic2004-230200Z 00000KT 9999 FEW040 SCT100 13/05 Q1029 RMK PP000=
SPZO Dic2004-230300Z VRB03KT 9999 SCT043 SCT080 12/06 Q1030 RMK PP000=
SPZO Dic2004-230400Z 00000KT 9999 SCT100 12/06 Q1030 RMK PP000=
SPZO Dic2004-230500Z 27008KT 9999 FEW040 SCT050 11/05 Q1030 RMK PP000=
SPZO Dic2004-230600Z 26005KT 9999 BKN050 11/05 Q1029 RMK PP000=
SPZO Dic2004-230700Z 00000KT 9999 -RA BKN040 SCT050 11/06 Q1029 RMK PPTRZ=
SPZO Dic2004-230800Z 02008KT 9999 -RA SCT030 BKN040 10/04 Q1029 RMK PP004=
SPZO Dic2004-230900Z 06006KT 9999 VCRA SCT030 BKN040 11/03 Q1029 RMK PP000=
SPZO Dic2004-231000Z 10006KT 9999 -RA SCT033 BKN043 08/05 Q1030 RMK PP004=
SPZO Dic2004-231100Z 10006KT 9999 -DZ SCT037 BKN046 08/04 Q1032 RMK PP002=
SPZO Dic2004-231200Z VRB01KT 9999 -RA FEW025 OVC080 08/05 Q1033 NOSIG RMK PP004=
SPZO Dic2004-231300Z 10005KT 020V170 9999 FEW025 OVC080 09/05 Q1033 RERA NOSIG RMK PPTRZ=
SPZO Dic2004-231400Z 00000KT 9999 FEW030 OVC080 10/05 Q1032 NOSIG RMK PP000=
SPZO Dic2004-231500Z 00000KT 9999 FEW033 SCT080 BKN100 12/05 Q1032 NOSIG RMK PP000=
SPZO Dic2004-231600Z 00000KT 9999 FEW033 SCT060 BKN100 13/04 Q1031 NOSIG RMK PP000=
SPZO Dic2004-231700Z VRB03KT 9999 FEW040 BKN300 16/05 Q1029 NOSIG RMK PP000=
SPZO Dic2004-231800Z 00000KT 9999 SCT043 19/07 Q1027 NOSIG RMK PP000=
SPZO Dic2004-231900Z VRB04KT 9999 SCT043 20/04 Q1025 NOSIG RMK PP000=
SPZO Dic2004-232000Z 05013KT 360V090 9999 TS VCSH BKN043CB SCT047 17/05 Q1026=
SPZO Dic2004-232100Z 10017KT 9999 -DZ VCSH BKN043CB SCT050 14/06 Q1026
SPZO Dic2004-232200Z 10012KT 080V180 9999 SCT043 BKN080 13/05 Q1027
SPZO Dic2004-232300Z 10005KT 070V170 9999 -DZ SCT043 BKN060 13/05 Q1028=
SPZO Dic2004-240000Z 34004KT 9999 SCT040 BKN050 13/07 Q1029 RMK PP000=
SPZO Dic2004-240100Z 26014KT 9999 SCT043 BKN060 12/06 Q1029 RMK PP000=
SPZO Dic2004-240200Z 28008KT 9999 FEW050 SCT200 11/06 Q1030 RMK PP000=
SPZO Dic2004-240300Z 27006KT 9999 SCT200 10/06 Q1030 RMK PP000=
SPZO Dic2004-240400Z 00000KT 9999 FEW080 10/06 Q1030 RMK LGT NE PP000=
SPZO Dic2004-240500Z 00000KT 9999 SCT200 09/06 Q1030 RMK PP000=
SPZO Dic2004-240600Z 00000KT 9999 SCT200 07/05 Q1028 RMK PP000=
SPZO Dic2004-240700Z 00000KT 9999 SCT200 07/05 Q1028 RMK PP000=
SPZO Dic2004-240800Z 00000KT 9999 SCT200 06/03 Q1028 RMK PP000=
SPZO Dic2004-240900Z 00000KT 9999 FEW200 07/05 Q1024 RMK PP000=
SPZO Dic2004-241000Z 00000KT 9999 FEW050 SCT200 06/04 Q1028 RMK PP000=
SPZO Dic2004-241100Z 00000KT 9999 BKN200 07/05 Q1029 RMK PP000=
SPZO Dic2004-241200Z 00000KT 9999 SCT040 BKN080 08/06 Q1030 NOSIG
SPZO Dic2004-241300Z 00000KT 9999 SCT037 BKN047 10/07 Q1031 NOSIG
SPZO Dic2004-241400Z VRB01KT 9999 FEW033 BKN080 13/06 Q1031 NOSIG
SPZO Dic2004-241500Z 05004KT 340V100 9999 FEW040 BKN100 15/05 Q1030
SPZO Dic2004-241600Z VRB02KT 9999 SCT040 SCT150 OVC300 16/04 Q1029
SPZO Dic2004-241700Z 00000KT 9999 SCT043 BKN300 19/04 Q1028 NOSIG
SPZO Dic2004-241800Z VRB03KT 9999 FEW043 SCT047 19/03 Q1027 NOSIG RMK PP000=
SPZO Dic2004-241900Z 25005KT 180V290 9999 SCT050 21/04 Q1025 NOSIG RMK PP000=
SPZO Dic2004-242000Z VRB02KT 9999 FEW043 SCT050 22/01 Q1023 TEMPO VCSH RMK PP000 RWY10 VRB05KT RA CDTE E=
SPZO Dic2004-242100Z 11015KT 080V170 9999 FEW043 SCT050 18/04 Q1023 TEMPO VCRA RMK PP000 RWY10 10032G49KT RA CDTE SE=
SPZO Dic2004-242200Z 11012KT 070V170 9999 SCT043 SCT050 16/01 Q1024 NOSIG RMK PP000 TMX: 22.7 RA CDTE SE=
SPZO Dic2004-242300Z VRB04KT 9999 BKN046 16/03 Q1024 NOSIG RMK PP000 RWY10 09009KT=
SPZO Dic2004-250000Z 13005KT 9999 SCT200 15/02 Q1025 RMK PP000=
SPZO Dic2004-250100Z 00000KT 9999 SCT200 13/05 Q1026 RMK PP000=
SPZO Dic2004-250200Z 03004KT 9999 SCT200 12/05 Q1027 RMK PP000=
SPZO Dic2004-250300Z 00000KT 9999 SCT200 11/05 Q1028 RMK PP000=
SPZO Dic2004-250400Z 00000KT 9999 BKN200 11/04 Q1029 RMK PP000=
SPZO Dic2004-250500Z 00000KT 9999 BKN200 09/04 Q1028 RMK PP000=
SPZO Dic2004-250600Z 00000KT 9000 BKN200 09/04 Q1027 RMK FU PP000=
SPZO Dic2004-250700Z 00000KT 9000 SCT200 08/04 Q1027 RMK FU PP000=
SPZO Dic2004-250800Z 00000KT 9000 SCT200 07/04 Q1026 RMK FU PP000=
SPZO Dic2004-250900Z 00000KT 9999 SCT200 07/04 Q1026 RMK PP000=
SPZO Dic2004-251000Z 00000KT 9999 SCT200 06/03 Q1026 RM PP000=
SPZO Dic2004-251100Z 00000KT 9999 FEW200 06/04 Q1027 RMK PP000=
SPZO Dic2004-251200Z 08002KT 9999 FEW100 09/05 Q1028 NOSIG RMK PP000=
SPZO Dic2004-251300Z VRB02KT 9999 FEW060 13/03 Q1029 NOSIG RMK PP000=
SPZO Dic2004-251400Z VRB03KT 9999 FEW050 SCT200 15/05 Q1028 NOSIG RMK PP000=
SPZO Dic2004-251500Z VRB03KT 9999 FEW050 SCT200 17/04 Q1028 NOSIG RMK PP000=
SPZO Dic2004-251600Z VRB04KT 9999 FEW050 BKN200 18/04 Q1027 NOSIG RMK PP000=
SPZO Dic2004-251700Z VRB03KT 9999 SCT050 SCT120 20/03 Q1026 NOSIG RMK PP000 RWY10 15006KT=
SPZO Dic2004-251800Z VRB04KT 9999 SCT050 SCT200 20/02 Q1024 NOSIG RMK PP000 RWY10 14009KT=
SPZO Dic2004-251900Z 12011KT 080V170 9999 SCT050 BKN200 18/02 Q1024 TEMPO VCSH RMK PP000 RWY10 11033KT=
SPZO Dic2004-252000Z 27006KT 9999 FEW046 BKN200 20/02 Q1022 NOSIG RMK PPTRZ RWY10 VRB05KT=
SPZO Dic2004-252100Z VRB06KT 9999 FEW040TCU BKN050 21/03 Q1022 NOSIG RMK PP000 RA CDTE E=
SPZO Dic2004-252200Z 10013KT 9999 BKN046 17/04 Q1023 NOSIG RMK PP000 RWY10 09016G27KT TMX:21.8=
SPZO Dic2004-252300Z 10011KT 9999 BKN050 15/04 Q1024 NOSIG RMK PP000 RWY10 10022KT=
SPZO Dic2004-260000Z 10004KT 9999 FEW040 BKN050 14/04 Q1025 RMK PP000=
SPZO Dic2004-260100Z 24006KT 9999 SCT040 SCT050 14/04 Q1027 RMK PP000=
SPZO Dic2004-260200Z 28007KT 9999 BKN040 SCT050 12/04 Q1028 RMK PP000=
SPZO Dic2004-260300Z 30005KT 9999 BKN040 SCT070 13/04 Q1029 RMK PP000=
SPZO Dic2004-260400Z 11011KT 9999 -RA BKN040 SCT070 09/07 Q1031 RMK PP014=
SPZO Dic2004-260500Z 27011KT 9000 -RA BKN040 SCT046 09/07 Q1029 RMK PP018=
SPZO Dic2004-260600Z 00000KT 9999 OVC040 09/06 Q1029 RMK PPTRZ=
SPZO Dic2004-260700Z 00000KT 9999 FEW030 OVC040 09/06 Q1029 RMK PP000=
SPZO Dic2004-260800Z 00000KT 9999 -RA SCT030 BKN040 09/06 Q1028 RMK PP002=
SPZO Dic2004-260900Z 00000KT 9999 SCT030 BKN043 09/05 Q1028 RMK PP000=
SPZO Dic2004-261000Z 00000KT 9999 SCT030 BKN043 08/06 Q1029 RMK PP000=
SPZO Dic2004-261100Z 00000KT 9999 SCT040 SCT200 08/06 Q1029 RMK PP000=
SPZO Dic2004-261200Z VRB01KT 9999 FEW040 SCT120 10/07 Q1030 NOSIG RMK PP000=
SPZO Dic2004-261300Z VRB01KT 9999 FEW040 BKN120 12/07 Q1031 NOSIG RMK PP000=
SPZO Dic2004-261400Z VRB02KT 9999 FEW036 BKN046 15/07 Q1031 NOSIG RMK PP000=
SPZO Dic2004-261500Z VRB02KT 9999 FEW040 BKN050 15/05 Q1030 NOSIG RMK PP000=
SPZO Dic2004-261600Z VRB06KT 9999 FEW043 BKN050 16/04 Q1030 NOSIG RMK PP000 RWY10 05010KT=
SPZO Dic2004-261700Z 01007KT 9999 SCT046 BKN060 17/04 Q1029 NOSIG RMK PP000 RWY10 05008KT=
SPZO Dic2004-261800Z 36010KT 9999 FEW046 OVC060 15/06 Q1029 NOSIG RMK PP000 RWY10 02016G31KT=
SPZO Dic2004-261900Z VRB03KT 9999 FEW046 BKN060 15/05 Q1028 NOSIG RMK PP000 RWY10 02013KT=
SPZO Dic2004-262000Z 19004KT 090V260 9999 FEW046 BKN060 18/07 Q1027 NOSIG RMK PP000 RWY10 18009KT=
SPZO Dic2004-262100Z 10010KT 080V170 9999 FEW046 BKN050 17/06 Q1026 NOSIG RMK PP000 25004KT=
SPZO Dic2004-262200Z 10012KT 080V170 9999 FEW040 BKN046 16/06 Q1027 NOSIG RMK PP000 TMX:18.0 RWY10 11022G33KT RA CDTE
SPZO Dic2004-262300Z 13006KT 070V190 9999 SCT043 BKN050 15/04 Q1027 NOSIG RMK PP000 RWY10 06015G26KT=
SPZO Dic2004-270000Z 16006KT 9999 SCT037 BKN043 14/04 Q1029 RMK PP000=
SPZO Dic2004-270100Z 00000KT 9999 BKN037 SCT080 13/05 Q1030 RMK PP000=
SPZO Dic2004-270200Z 08005KT 9999 -RA BKN037 SCT070 12/06 Q1031 RMK PPTRZ=
SPZO Dic2004-270300Z 27004KT 9999 OVC040 11/05 Q1032 RMK PPTRZ=
SPZO Dic2004-270400Z 10004KT 9999 SCT030 BKN040 11/06 Q1030 RMK PP000=
SPZO Dic2004-270500Z 08004KT 9999 FEW030 OVC040 10/06 Q1032 RMK PP000=
SPZO Dic2004-270600Z 00000KT 9999 BKN043 10/06 Q1031 RMK PP000=
SPZO Dic2004-270700Z 00000KT 9999 SCT040 SCT050 09/06 Q1030 RMK PP000=
SPZO Dic2004-270800Z 00000KT 9999 BKN040 SCT050 08/06 Q1030 RMK PP000=
SPZO Dic2004-270900Z 00000KT 9999 SCT040 SCT050 09/05 Q1030 RMK PP000=
SPZO Dic2004-271000Z 00000KT 9999 FEW040 SCT200 09/06 Q1030 RMK PP000=
SPZO Dic2004-271100Z 00000KT 9999 SCT040 SCT070 08/05 Q1031 RMK PP000=
SPZO Dic2004-271200Z 00000KT 9999 FEW020 SCT043 BKN080 10/07 Q1032 NOSIG RMK PP000=
SPZO Dic2004-271300Z VRB02KT 9999 SCT033 12/06 Q1032 NOSIG RMK PP000=
SPZO Dic2004-271400Z 10004KT 070V170 9999 SCT037 BKN100 14/05 Q1032 NOSIG RMK PP000=
SPZO Dic2004-271500Z 00000KT 9999 FEW033 SCT040 BKN080 15/05 Q1032 NOSIG RMK PP000=
SPZO Dic2004-271600Z VRB02KT 9999 FEW033 SCT043 BKN080 16/05 Q1031 NOSIG RMK PP000=
SPZO Dic2004-271700Z VRB03KT 9999 SCT043 BKN100 18/06 Q1030 NOSIG RMK PP000=
SPZO Dic2004-271800Z 34008KT 270V080 9999 SCT043 SCT060 19/05 Q1029 NOSIG RMK PP000=
SPZO Dic2004-271900Z 01008KT 340V070 9999 FEW043 SCT047 19/06 Q1027 NOSIG RMK PP000=
SPZO Dic2004-272000Z 01009KT 340V080 9999 FEW043 SCT047 20/04 Q1026 NOSIG RMK PP000=
SPZO Dic2004-272100Z 25008KT 270V020 9999 FEW043TCU SCT047 19/04 Q1025 NOSIG RMK PP000=
SPZO Dic2004-272200Z VRB06KT 9999 SCT043 SCT060TCU 17/05 Q1026 NOSIG RMK PP000 TMAX 20.3=
SPZO Dic2004-272300Z VRB06KT 9999 SCT043 BKN060 15/05 Q1027 NOSIG RMK PP000=
SPZO Dic2004-280000Z 00000KT 9999 SCT050 BKN080 14/05 Q1028 RMK PP000=
SPZO Dic2004-280100Z 10005KT 9999 FEW050 BKN100 12/05 Q1029 RMK PP000=
SPZO Dic2004-280200Z 00000KT 9999 SCT040 BKN080 13/05 Q1030 RMK PP000=
SPZO Dic2004-280300Z 28005KT 9999 -RA SCT040 BKN050 10/07 Q1031 RMK PP007=
SPZO Dic2004-280400Z 00000KT 9999 SCT037 BKN047 11/06 Q1031 RMK RERA PPTRZ=
SPZO Dic2004-280500Z 00000KT 9999 SCT037 BKN047 11/07 Q1030 RMK PP000=
SPZO Dic2004-280600Z 00000KT 9999 -DZ SCT037 BKN047 11/07 Q1030 RMK PP001=
SPZO Dic2004-280700Z 10006KT 9999 -DZ SCT030 BKN043 10/07 Q1030 RMK PP002=
SPZO Dic2004-280800Z 10007KT 9999 FEW025 SCT033 BKN060 09/07 Q1030 RMK REDZ PPTRZ=
SPZO Dic2004-280900Z 10004KT 9999 FEW025 SCT037 BKN070 09/06 Q1029 RMK CLNG BLW 1200M PP000=
SPZO Dic2004-281000Z 10004KT 9999 FEW027 SCT040 BKN060 09/06 Q1030 RMK PP000=
SPZO Dic2004-281100Z 00000KT 9999 SCT033 SCT053 09/06 Q1030 RMK PP000=
SPZO Dic2004-281200Z 10003KT 070V170 9999 FEW025 SCT060 BKN080 10/07 Q1031 NOSIG RMK PP000=
SPZO Dic2004-281300Z 00000KT 9999 FEW025 SCT033 13/08 Q1031 NOSIG RMK PP000=
SPZO Dic2004-281400Z 08003KT 360V170 9999 SCT030 BKN047 14/06 Q1031 NOSIG RMK PP000=
SPZO Dic2004-281500Z VRB02KT 9999 SCT033 SCT043 BKN060 15/07 Q1031 NOSIG RMK PP000=
SPZO Dic2004-281600Z VRB02KT 9999 SCT033 BKN060 16/06 Q1030 NOSIG RMK PP000=
SPZO Dic2004-281700Z VRB04KT 9999 SCT037 FEW047TCU BKN080 17/05 Q1029 NOSIG RMK PP000=
SPZO Dic2004-281800Z 08005KT 340V110 9999 FEW037 SCT080 17/06 Q1028 NOSIG RMK PP000=
SPZO Dic2004-281900Z VRB03KT 9999 SCT040 19/04 Q1026 NOSIG RMK PP000=
SPZO Dic2004-282000Z 28012KT 260V350 9999 SCT043 BKN080 18/05 Q1025 NOSIG RMK PP000=
SPZO Dic2004-282100Z VRB05KT 9999 FEW040 SCT043TCU BKN080 18/03 Q1025 NOSIG RMK PP000=
SPZO Dic2004-282200Z 10017KT 080V170 9999 SCT043TCU BKN047 15/05 Q1026 NOSIG RMK PP000 TMAX 20.6=
SPZO Dic2004-282300Z 06004KT 060V110 9999 SCT043 BKN080 15/05 Q1026 NOSIG RMK PP000=
SPZO Dic2004-290000Z 00000KT 9999 SCT047 SCT060 13/04 Q1027 RMK PP000=
SPZO Dic2004-290100Z 00000KT 9999 SCT050 SCT060 13/05 Q1029 RMK LGT NW PP000=
SPZO Dic2004-290200Z 18004KT 9999 SCT040 BKN060 13/04 Q1030 RMK PP000=
SPZO Dic2004-290300Z 00000KT 9999 SCT040 BKN050 11/04 Q1031 RMK PP000=
SPZO Dic2004-290400Z 28010KT 9999 -RA SCT033 BKN043 10/06 Q1032 RMK PP002=
SPZO Dic2004-290500Z 28013KT 9999 -DZ SCT033 BKN043 09/05 Q1031 RMK PP002=
SPZO Dic2004-290600Z 28010KT 9999 FEW050 BKN100 09/04 Q1030 RMK REDZ PP000=
SPZO Dic2004-290700Z 27004KT 9999 SCT150 08/04 Q1030 RMK PP000=
SPZO Dic2004-290800Z 00000KT 9999 SKC 07/04 Q1029 RMK PP000=
SPZO Dic2004-290900Z 00000KT 9999 FEW150 06/04 Q1029 RMK PP000=
SPZO Dic2004-291000Z 00000KT 9999 SCT050 SCT070 06/03 Q1030 RMK PP000=
SPZO Dic2004-291100Z 00000KT 9999 BKN053 07/04 Q1030 RMK PP000=
SPZO Dic2004-291200Z VRB02KT 9999 SCT050 08/05 Q1030 NOSIG RMK PP000=
SPZO Dic2004-291300Z VBR02KT 9999 FEW040 12/05 Q1031 NOSIG RMK PP000=
SPZO Dic2004-291400Z VRB02KT 9999 BKN043 14/04 Q1031 NOSIG RMK PP000=
SPZO Dic2004-291500Z VRB02KT 9999 BKN046 15/05 Q1030 NOSIG RMK PP000=
SPZO Dic2004-291600Z VRB03KT 9999 SCT050 SCT200 17/04 Q1029 NOSIG RMK PP000 RWY10 12012KT=
SPZO Dic2004-291700Z VRB04KT 9999 FEW043 SCT050 18/03 Q1028 NOSI RMK PP000 RWY10 14008KT=
SPZO Dic2004-291800Z VRB05KT 9999 FEW043 SCT050 20/02 Q1027 NOSIG RMK PP000=
SPZO Dic2004-291900Z 07014KT 360V110 9999 RA FEW043TCU BKN050 17/04 Q1025 NOSIG RMK PP000 RWY10 34015G40KT=
SPZO Dic2004-292000Z 36010KT 340V080 9999 FEW043TCU BKN050 16/05 Q1026 TEMPO VCSH RMK PPTRZ RWY10 35014KT=
SPZO Dic2004-292100Z 03007KT 240V080 9999 FEW043 BKN060 17/04 Q1025 NOSIG RMK PP000 RWY10 01009G19KT=
SPZO Dic2004-292200Z 34004KT 270V010 9999 BKN060 16/05 Q1025 NOSIG RMK PP000 RWY10 26008KT TMX:21.9=
SPZO Dic2004-292300Z 25005KT 9999 BKN050 15/06 Q1025 NOSIG RMK PP000=
SPZO Dic2004-300000Z 00000KT 9999 FEW050 SCT200 14/07 Q1026 RMK PP000=
SPZO Dic2004-300100Z VRB01KT 9999 FEW050 12/07 Q1028 RMK PP000=
SPZO Dic2004-300200Z 00000KT 9999 FEW040 SCT050 12/06 Q1029 RMK PP000=
SPZO Dic2004-300300Z 00000KT 9999 FEW040 SCT050 12/07 Q1029 RMK PP000=
SPZO Dic2004-300400Z 00000KT 9999 FEW040 SCT050 12/06 Q1030 RMK PP000=
SPZO Dic2004-300500Z 00000KT 9999 SCT040 SCT050 12/05 Q1029 RMK PP000=
SPZO Dic2004-300600Z 00000KT 9999 BKN040 SCT050 11/04 Q1029 RMK PP000=
SPZO Dic2004-300700Z 00000KT 9999 BKN040 10/04 Q1029 RMK PP000=
SPZO Dic2004-300800Z 00000KT 9999 SCT043 09/04 Q1028 RMK PP000=
SPZO Dic2004-300900Z 00000KT 9999 SCT040 SCT100 08/04 Q1028 RMK PP000=
SPZO Dic2004-301000Z VRB03KT 9999 SCT043 SCT080 08/04 Q1029 RMK PP000=
SPZO Dic2004-301100Z 00000KT 9999 SCT040 SCT080 07/04 Q1030 RMK PP000=
SPZO Dic2004-301200Z 00000KT 9999 FEW036 BKN046 10/06 Q1030 NOSIG RMK PP000=
SPZO Dic2004-301300Z 00000KT 9999 SCT040 BKN050 12/05 Q1031 NOSIG RMK PP000=
SPZO Dic2004-301400Z VRB02KT 9999 FEW043 BKN050 14/04 Q1031 NOSIG RMK PP000=
SPZO Dic2004-301500Z VRB03KT 9999 FEW040 BKN050 15/05 Q1030 NOSIG RMK PP000 RA CDTE NW RWY 25006KT=
SPZO Dic2004-301600Z 29009KT 9999 FEW043 BKN050 17/07 Q1030 TEMPO VCSH RMK PP000 RA CDTE E=
SPZO Dic2004-301700Z 25006KT 180V340 9999 FEW043 BKN050 18/03 Q1029 TEMPO VCSH RMK PP000 RWY10 25010KT=
SPZO Dic2004-301800Z VRB04KT 9999 BKN050 18/05 Q1028 TEMPO VCSH RMK PP000=
SPZO Dic2004-301900Z 29005KT 250V010 9999 FEW030 BKN043 20/04 Q1026 NOSIG RMK PP000=
SPZO Dic2004-302100Z 28012KT 260V350 9999 FEW033 SCT043 17/04 Q1024 NOSIG RMK PP000=
SPZO Dic2004-302200Z 27008KT 250V350 9999 VCSH FEW030 FEW043CB SCT047TCU 16/06 Q1025 NOSIG RMK PP000 TMAX 20.0=
SPZO Dic2004-302300Z 25004KT 150V280 9999 FEW030TCU SCT047 BKN100 16/05 Q1025 NOSIG RMK PP000=
SPZO Dic2004-310000Z VRB02KT 9999 SCT037TCU BKN043 15/04 Q1026 RMK PP000=
SPZO Dic2004-310100Z 26004KT 9999 BKN040 SCT050 14/06 Q1027 EMK PP000=
SPZO Dic2004-310200Z 00000KT 9999 BKN040 SCT050 13/06 Q1029 RMK PP000=
SPZO Dic2004-310300Z 18005KT 9999 BKN040 SCT046 13/07 Q1029 RMK PP000=
SPZO Dic2004-310400Z 00000KT 9999 -RA OVC040 13/06 Q1030 RMK PP002=
SPZO Dic2004-310500Z VRB02KT 9999 OVC040 11/07 Q1030 RMK PP004=
SPZO Dic2004-310600Z 28006KT 9999 SCT030 BKN040 11/06 Q1030 RMK PP000=
SPZO Dic2004-310700Z VRB02KT 9999 SCT040 SCT050 10/05 Q1030 RMK PP000=
SPZO Dic2004-310800Z VRB03KT 9999 SCT040 SCT046 09/05 Q1030 RMK PP000=
SPZO Dic2004-310900Z 00000KT 9999 BKN040 SCT070 09/05 Q1030 RMK002=
SPZO Dic2004-311000Z 00000KT 9999 BKN040 SCT050 09/05 Q1030 RMK PP000=
SPZO Dic2004-311100Z 00000KT 9999 BKN040 SCT050 09/06 Q1031 RMK PP000=
SPZO Dic2004-311200Z 00000KT 9999 FEW030 SCT040 BKN080 10/06 Q1032 NOSIG RMK PP000=
SPZO Dic2004-311300Z 00000KT 9999 FEW033 SCT100 BKN300 12/06 Q1032 NOSIG RMK PP000=
SPZO Dic2004-311400Z VRB02KT 9999 FEW033 SCT040 15/05 Q1032 NOSIG RMK PP000=
SPZO Dic2004-311500Z VBR03KT 9999 FEW033 SCT040 BKN060 15/05 Q1032 NOSIG RMK PP000=
SPZO Dic2004-311600Z VRB02KT 9999 FEW033 SCT050 OVC300 16/06 Q1031 NOSIG RMK PP000=
SPZO Dic2004-311700Z VRB05KT 9999 FEW033 SCT050 OVC300 18/05 Q1030 NOSIG RMK PP000=
SPZO Dic2004-311800Z VRB02KT 9999 SCT037 SCT047 BKN150 18/03 Q1029 NOSIG RMK PP000=
SPZO Dic2004-311900Z 00000KT 9999 FEW033 SCT043 BKN150 19/03 Q1027 NOSIG RMK PP000=
SPZO Dic2004-312000Z VRB03KT 9999 FEW037TCU SCT043 20/05 Q1026 NOSIG RMK PP000=
SPZO Dic2004-312100Z 27010KT 9999 FEW037 SCT043 19/05 Q1026 NOSIG RMK PP000=
SPZO Dic2004-312200Z 26005KT 180V290 9999 SCT043TCU SCT050 20/05 Q1025 NOSIG RMK PP000 TMAX 20.7=
SPZO Dic2004-312300Z 33003KT 270V360 9999 SCT043TCU SCT050 18/04 Q1026 RESHRA RMK PPTRZ=
SPZO Ene2005-010000Z 34005KT 9999 SCT050 SCT060 17/06 Q1027 RMK PP000=
SPZO Ene2005-010100Z 35010KT 9999 SCT037 SCT050 16/07 Q1028 RMK PP000=
SPZO Ene2005-010200Z 35004KT 9999 SCT037 SCT050 16/06 Q1029 RMK PP000=
SPZO Ene2005-010300Z 00000KT 9999 -RA BKN037 SCT050 12/09 Q1030 RMK PP010=
SPZO Ene2005-010400Z 00000KT 9999 BKN050 11/08 Q1031 RMK PP000=
SPZO Ene2005-010500Z 00000KT 9999 SCT050 11/07 Q1031 RMK PP000=
SPZO Ene2005-010600Z VRB02KT 8000 BKN040 11/08 Q1031 RMK PP000=
SPZO Ene2005-010700Z 25004KT 8000 RA BKN040 11/08 Q1030 RMK PP010=
SPZO Ene2005-010800Z 00000KT 6000 SCT040 10/07 Q1029 RMK FU PP004=
SPZO Ene2005-010900Z 00000KT 6000 BKN040 10/08 Q1029 RMK PP000=
SPZO Ene2005-011000Z 00000KT 6000 BKN040 10/08 Q1030 RMK PP000=
SPZO Ene2005-011100Z 00000KT 6000 FEW037 SCT043 10/08 Q1031 RMK FU PP000=
SPZO Ene2005-011200Z VRB02KT 6000 -DZ SCT033 BKN043 11/08 Q1032 TEMPO 7000 NSW RMK FU PP002=
SPZO Ene2005-011300Z 28008KT 250V350 9999 SCT033 SCT040 BKN080 14/07 Q1032 NOSIG RMK PP002=
SPZO Ene2005-011400Z 26008KT 9999 SCT033 SCT040 BKN060 15/07 Q1032 NOSIG RMK PP000=
SPZO Ene2005-011500Z VRB06KT 9999 SCT037 SCT060 17/06 Q1032 NOSIG RMK PP000=
SPZO Ene2005-011600Z VRB02KT 9999 SCT040 SCT060 17/07 Q1031 NOSIG RMK PP000=
SPZO Ene2005-011700Z VRB02KT 9999 SCT040 SCT060 18/08 Q1030 NOSIG RMK PP000=
SPZO Ene2005-011800Z 10009KT 9999 SCT043 BKN080 17/06 Q1029 NOSIG RMK PP000=
SPZO Ene2005-011900Z VRB02KT 9999 SCT043 SCT050 19/07 Q1028 NOSIG RMK PP000 RWY10 13009KT=
SPZO Ene2005-012000Z 01008KT 340V080 9999 FEW046 BKN080 18/06 Q1027 TEMPO VCSH RMK PP000 RWY10 03014G26KT=
SPZO Ene2005-012100Z 32008KT 260V010 9999 SCT046 SCT060 18/07 Q1027 NOSIG RMK PP000 RWY10 29026G39KT=
SPZO Ene2005-012200Z 27012KT 9999 FEW046 BKN100 16/07 Q1026 NOSIG RMK PP000 RWY10 28017KT TMX:19.4=
SPZO Ene2005-012300Z 27008KT 9999 FEW046 SCT200 15/07 Q1027 NOSIG RMK PP000 RWY10 27012KT=
SPZO Ene2005-020000Z 24009KT 9999 FEW050 14/06 Q1028 RMK PP000=
SPZO Ene2005-020100Z 00000KT 9999 SKC 13/06 Q1029 RMK PP000=
SPZO Ene2005-020200Z 00000KT 9999 FEW050 12/07 Q1030 RMK PP000=
SPZO Ene2005-020300Z 00000KT 9999 SCT050 11/07 Q1031 RMK PP000=
SPZO Ene2005-020400Z 00000KT 9999 BKN040 12/08 Q1031 RMK PP000=
SPZO Ene2005-020500Z 00000KT 9999 FEW033 BKN043 12/08 Q1031 RMK PP000=
SPZO Ene2005-020600Z 00000KT 9999 FEW030 BKN040 13/07 Q1031 RMK PP000=
SPZO Ene2005-020700Z 21004KT 9999 FEW030 SCT040 BKN060 13/05 Q1030 RMK PP000=
SPZO Ene2005-020800Z 27006KT 9999 FEW033 BKN043 12/05 Q1030 RMK PP000=
SPZO Ene2005-020900Z 00000KT 9999 FEW033 BKN043 12/04 Q1030 RMK PP000=
SPZO Ene2005-021000Z 00000KT 9999 FEW033 BKN047 11/05 Q1030 RMK PP000=
SPZO Ene2005-021100Z 00000KT 9999 FEW037 BKN043 12/05 Q1031 RMK PP000=
SPZO Ene2005-021200Z 10004KT 080V170 9999 FEW043 SCT050 11/07 Q1032 NOSIG RMK PP000 RWY10 10007KT=
SPZO Ene2005-021300Z VRB02KT 9999 FEW036 BKN050 13/07 Q1032 NOSIG RMK PP000=
SPZO Ene2005-021400Z VRB02KT 9999 SCT040 15/04 Q1032 NOSIG RMK PP000=
SPZO Ene2005-021500Z 06005KT 340V110 9999 SCT043 SCT200 17/05 Q1031 NOSIG RMK PP000 RWY10 19007KT=
SPZO Ene2005-021600Z VRB03KT 9999 FEW043 BKN120 18/06 Q1030 NOSIG RMK PP000=
SPZO Ene2005-021700Z VRB03KT 9999 FEW046 BKN120 20/06 Q1029 NOSIG RMK PP000=
SPZO Ene2005-021800Z 01007KT 270V080 9999 FEW046 BKN120 20/06 Q1027 NOSIG RMK PP000 04007KT=
SPZO Ene2005-021900Z VRB05KT 9999 FEW046 BKN120 20/05 Q1026 NOSIG RMK PP000 RWY10 33007KT=
SPZO Ene2005-022000Z 28014KT 9999 SCT046 SCT100 20/07 Q1025 TEMPO VCSH RMK PP000 RWY10 30018G29KT=
SPZO Ene2005-022100Z VRB05KT 9999 -RA SCT040TCU SCT050 17/09 Q1025 BECMG FM2140 NSW RMK PPPTRZ RWY10 29013KT=
SPZO Ene2005-022200Z VRB02KT 9999 -RA SCT043 BKN050 13/09 Q1027 BECMG FM2230 NSW RMK PP034 TMX:20.7=
SPZO Ene2005-022300Z VRB02KT 9999 SCT043 BKN060 14/09 Q1027 NOSIG RMK PP000=
SPZO Ene2005-030000Z 10005KT 9999 BKN040 SCT046 13/10 Q1028 RMK PP000=
SPZO Ene2005-030100Z 29005KT 9999 -RA SCT037TCU BKN043 12/07 Q1031 RMK PP036=
SPZO Ene2005-030200Z VRB03KT 9999 -RA SCT030 BKN043 11/07 Q1032 RMK PP018=
SPZO Ene2005-030300Z 28008KT 9999 SCT030 BKN040 10/07 Q1032 RMK PPTRZ=
SPZO Ene2005-030400Z 28007KT 9999 -RA SCT025 BKN043 10/07 Q1031 RMK PP004=
SPZO Ene2005-030500Z VRB02KT 9999 OVC040 11/07 Q1030 RMK PP000=
SPZO Ene2005-030600Z 00000KT 9999 SCT030 BKN040 10/07 Q1030 RMK PP000=
SPZO Ene2005-030700Z 00000KT 9999 -RA BKN037 SCT046 10/08 Q1028 RMK PP002=
SPZO Ene2005-030800Z 00000KT 8000 -RA OVC040 10/07 Q1028 RMK PP014=
SPZO Ene2005-030900Z 00000KT 8000 -RA SCT030 BKN040 10/08 Q1028 RMK PP020=
SPZO Ene2005-031000Z VRB02KT 9000 -RA FEW025 SCT037 BKN043 10/08 Q1029 RMK CLNG BLW 1200M PP018=
SPZO Ene2005-031100Z VRB03KT 9000 -RA FEW025 SCT040 BKN050 10/08 Q1029 RMK PP006=
SPZO Ene2005-031200Z VRB02KT 9999 -RA FEW036 SCT043 BKN050 10/08 Q1030 NOSIG RMK PP002 BCBR CDTES NW-SE=
SPZO Ene2005-031300Z 00000KT 9000 -RA FEW036 SCT040 BKN046 10/08 Q1031 NISIG RMK PP004 BCBR TECHO BAJO CDTE E=
SPZO Ene2005-031400Z 00000KT 8000 -RA FEW033 SCT043 BKN050 11/08 Q1031 NOSIG RMK PP006 BCBR NE TECHO BAJO CDTE E=
SPZO Ene2005-031500Z VRB01KT 7000 RA FEW020 SCT040 BKN046 11/08 Q1031 BECMG FM1540 9000 RMK PP008 BCBR TECHO BAJO CDTE E=
SPZO Ene2005-031600Z VRB02KT 9000 -RA FEW030 SCT040 BKN046 12/08 Q1031 NOSIG RMK PP004 TECHO BAJO CDTE E=
SPZO Ene2005-031700Z VRB03KT 9999 DZ FEW030 SCT040 BKN050 14/07 Q1030 NOSIG RMK PP002 RWY10 04009G22KT TECHO BAJO CDTE E=
SPZO Ene2005-031800Z 09007KT 070V170 9999 FEW033 SCT043 BKN050 13/09 Q1030 TEMPO VCSH RMK PPTRZ RWY10 05015G27KT=
SPZO Ene2005-031900Z 10008KT 080V180 9999 SCT037 BKN100 OVC300 14/09 Q1029 NOSIG RMK PP000=
SPZO Ene2005-032000Z 10007KT 070V180 9999 SCT040 BKN100 14/07 Q1027 NOSIG RMK PP000=
SPZO Ene2005-032100Z 10010KT 9999 FEW030 BKN043 BKN060 13/07 Q1027 NOSIG RMK PP000=
SPZO Ene2005-032200Z 08004KT 360V110 9999 SCT037 SCT080 14/06 Q1027 NOSIG RMK PP000 TMAX 15.2=
SPZO Ene2005-032300Z 00000KT 9999 SCT037 SCT043 14/06 Q1028 NOSIG RMK PP000=
SPZO Ene2005-040000Z VRB02KT 9999 BKN040 SCT046 12/08 Q1028 RMK PP000=
SPZO Ene2005-040100Z 27004KT 9999 SCT040 SCT050 12/08 Q1029 RMK PP000=
SPZO Ene2005-040200Z VRB03KT 9999 SCT040 SCT070 12/07 Q1030 RMK PP000=
SPZO Ene2005-040300Z 27004KT 9999 SCT040 SCT080 12/07 Q1030 RMK PP000=
SPZO Ene2005-040400Z VRB03KT 9999 SCT040 SCT070 11/07 Q1030 RMK PP000=
SPZO Ene2005-040500Z VRB02KT 9999 BKN043 10/08 Q1030 RMK PP000=
SPZO Ene2005-040600Z 00000KT 9999 FEW040 BKN046 10/08 Q1029 RMK PP000=
SPZO Ene2005-040700Z 00000KT 9999 SCT050 09/07 Q1029 RMK PP000=
SPZO Ene2005-040800Z 00000KT 9999 OVC040 09/07 Q1029 RMK PP000=
SPZO Ene2005-040900Z 00000KT 9999 BKN040 SCT046 08/07 Q1029 RMK PP000=
SPZO Ene2005-041000Z VRB01KT 9999 SCT040 SCT050 09/07 Q1029 RMK PP000=
SPZO Ene2005-041100Z 08004KT 9999 FEW037 SCT200 07/06 Q1030 RMK PP000=
SPZO Ene2005-041200Z 00000KT 9000 FEW030 SCT060 09/08 Q1031 BECMG 9999 RMK BR PP000=
SPZO Ene2005-041300Z 00000KT 9999 FEW030 SCT060 13/07 Q1032 NOSIG RMK PP000=
SPZO Ene2005-041400Z 07003KT 340V110 9999 FEW030 SCT043 15/07 Q1031 NOSIG RMK PP000=
SPZO Ene2005-041500Z 00000KT 9999 FEW030 SCT043 17/07 Q1031 NOSIG RMK PP000=
SPZO Ene2005-041600Z VRB03KT 9999 FEW040 BKN047 18/06 Q1030 NOSIG RMK PP000=
SPZO Ene2005-041700Z VRB05KT 9999 FEW040 SCT043 19/04 Q1029 NOSIG RMK PP000=
SPZO Ene2005-041800Z VRB04KT 9999 SCT043 20/08 Q1028 NOSIG RMK PP000=
SPZO Ene2005-041900Z 01010KT 340V080 9999 BKN043 20/04 Q1026 NOSIG RMK PP000=
SPZO Ene2005-042000Z 01009KT 280V080 9999 SCT043TCU SCT047 19/05 Q1025 NOSIG RMK PP000=
SPZO Ene2005-042100Z 18009KT 160V260 9999 FEW040 BKN047TCU BKN080 16/06 Q1026 TEMPO -SHRA RMK PP000=
SPZO Ene2005-042200Z 32006KT 270V350 9999 -RA VCSH FEW030 BKN047TCU 13/08 Q1027 TEMPO NSW RMK PP008 TMAX 21.1=
SPZO Ene2005-042300Z 00000KT 9999 SCT043 BKN100 13/08 Q1027 RERA NOSIG RMK PP002=
SPZO Ene2005-050000Z 09002KT 9999 OVC050 12/08 Q1028 RMK PP000=
SPZO Ene2005-050100Z 00000KT 9999 OVC050 12/09 Q1029 RMK PP000=
SPZO Ene2005-050200Z 00000KT 9999 OVC050 12/08 Q1030 RMK PP000=
SPZO Ene2005-050300Z 00000KT 9999 OVC050 11/08 Q1031 RMK PP000=
SPZO Ene2005-050400Z 13003KT 9999 OVC050 11/08 Q1031 RMK PP000=
SPZO Ene2005-050500Z 12007KT 080V170 5000 +RA BKN040 SCT050 09/07 Q1032 RMK PP028=
SPZO Ene2005-050600Z 00000KT 7000 RA SCT040 BKN050 09/07 Q1031 RMK PP016=
SPZO Ene2005-050700Z 00000KT 9000 FEW040 BKN050 09/07 Q1029 RERA RMK PP002=
SPZO Ene2005-050800Z 00000KT 9999 FEW040 BKN050 09/07 Q1030 RMK PP000=
SPZO Ene2005-050900Z 00000KT 9999 OVC050 09/07 Q1029 RMK PP000=
SPZO Ene2005-051000Z 10002KT 9999 BKN050 SCT100 07/06 Q1030 RMK PP000=
SPZO Ene2005-051100Z 00000KT 9999 SCT050 08/06 Q1031 RMK PP000=
SPZO Ene2005-051200Z 00000KT 9999 FEW025 11/07 Q1031 NOSIG RMK PP000=
SPZO Ene2005-051300Z 00000KT 9999 FEW030 13/08 Q1032 NOSIG RMK PP000=
SPZO Ene2005-051400Z VRB03KT 9999 SCT040 14/07 Q1032 NOSIG RMK PP000=
SPZO Ene2005-051500Z 00000KT 9999 SCT043 17/06 Q1031 NOSIG RMK PP000=
SPZO Ene2005-051600Z VRB02KT 9999 SCT043 18/03 Q1030 NOSIG RMK PP000=
SPZO Ene2005-051700Z VRB03KT 9999 SCT047 19/02 Q1029 NOSIG RMK PP000=
SPZO Ene2005-051800Z VRB06KT 9999 SCT050 20/05 Q1028 NOSIG RMK PP000=
SPZO Ene2005-051900Z VRB03KT 9999 SCT050 21/02 Q1027 NOSIG RMK PP000 RWY10 18010KT=
SPZO Ene2005-052000Z VRB02KT 9999 SCT050 21/02 Q1025 NOSIG RMK PP000 RWY10 01012KT=
SPZO Ene2005-052100Z VRB04KT 9999 SCT050 20/03 Q1024 NOSIG RMK PP000 RWY10 07011KT=
SPZO Ene2005-052200Z 02005KT 290V080 9999 FEW050 20/03 Q1024 NOSIG RMK PP000 RWY10 06009KT TMX:22.0=
SPZO Ene2005-052300Z 36006KT 9999 FEW050 19/03 Q1024 RMK PP000 RWY10 02008KT=
SPZO Ene2005-060000Z 00000KT 9999 SKC 17/05 Q1025 RMK PP000=
SPZO Ene2005-060100Z 00000KT 9999 SKC 15/06 Q1026 RMK PP000=
SPZO Ene2005-060200Z 00000KT 9999 SKC 15/06 Q1027 RMK PP000=
SPZO Ene2005-060300Z 00000KT 9999 SKC 12/07 Q1028 RMK PP000=
SPZO Ene2005-060400Z 00000KT 9999 SKC 11/07 Q1028 RMK PP000=
SPZO Ene2005-060500Z 00000KT 9999 SKC 11/07 Q1028 RMK PP000=
SPZO Ene2005-060600Z 00000KT 9999 SKC 10/07 Q1028 RMK PP000=
SPZO Ene2005-060700Z 00000KT 9999 SKC 09/07 Q1028 RMK PP000=
SPZO Ene2005-060800Z 00000KT 9999 SKC 09/06 Q1028 RMK PP000=
SPZO Ene2005-060900Z 00000KT 9999 FEW100 08/06 Q1028 RMK PP000=
SPZO Ene2005-061000Z 00000KT 9999 SCT100 08/06 Q1028 RMK PP000=
SPZO Ene2005-061100Z 00000KT 9999 FEW050 08/06 Q1029 RMK PP000=
SPZO Ene2005-061200Z 00000KT 9999 SCT050 12/07 Q1030 NOSIG RMK PP000=
SPZO Ene2005-061300Z 00000KT 9999 SCT043 15/07 Q1030 NOSIG RMK PP000=
SPZO Ene2005-061400Z 06004KT 350V110 9999 SCT046 16/06 Q1031 NOSIG RMK PP000=
SPZO Ene2005-061500Z VRB04KT 9999 SCT050 18/06 Q1030 NOSIG RMK PP000 RWY10 06013KT=
SPZO Ene2005-061600Z VRB05KT 9999 SCT050 19/04 Q1029 NOSIG RMK PP000 RWY10 05012KT=
SPZO Ene2005-061700Z VRB05KT 9999 SCT050 20/03 Q1028 NOSIG RMK PP000 RWY10 36010G22KT=
SPZO Ene2005-061800Z 06010KT 350V090 9999 SCT050 21/03 Q1027 NOSIG RMK PP000 RWY10 03012G23KT=
SPZO Ene2005-061900Z 01008KT 340V080 9999 SCT050 21/03 Q1026 NOSIG RMK PP000 RWY10 01017G29KT=
SPZO Ene2005-062000Z 01011KT 340V080 9999 SCT050 21/03 Q1025 NOSIG RMK PP000 RWY10 36014G24KT=
SPZO Ene2005-062100Z 36008KT 340V080 9999 FEW046 SCT060 20/03 Q1024 NOSIG RMK PP000 RWY10 03013G29KT=
SPZO Ene2005-062200Z 01011KT 350V080 9999 SCT100 20/03 Q1024 NOSIG RMK PP000 RWY10 02016KT TMX:21.7=
SPZO Ene2005-062300Z 03008KT 340V110 9999 SCT050 18/03 Q1025 NOSIG RMK PP000 RWY19 03016G29KT=
SPZO Ene2005-070000Z 01011KT 9999 BKN050 16/04 Q1025 RMK PP000=
SPZO Ene2005-070100Z VRB02KT 9999 SCT100 15/05 Q1027 RMK PP000=
SPZO Ene2005-070200Z 06005KT 9999 FEW040 SCT080 14/05 Q1029 RMK PP000=
SPZO Ene2005-070300Z 07005KT 9999 SCT040 SCT080 15/05 Q1029 RMK PP000=
SPZO Ene2005-070400Z VRB02KT 9999 FEW040 SCT070 14/06 Q1029 RMK PP000=
SPZO Ene2005-070500Z VRB02KT 9999 FEW043 SCT100 13/06 Q1029 RMK PP000=
SPZO Ene2005-070600Z 07007KT 9999 SCT043 SCT050 12/07 Q1029 RMK PP000=
SPZO Ene2005-070700Z VRB02KT 9999 FEW040 SCT050 12/06 Q1029 RMK PP000=
SPZO Ene2005-070800Z 00000KT 9999 FEW040 SCT050 11/06 Q1028 RMK PP000=
SPZO Ene2005-070900Z 00000KT 9999 FEW040 SCT080 10/06 Q1028 RMK PP000=
SPZO Ene2005-071000Z VRB01KT 9999 SCT050 SCT200 09/06 Q1029 RMK PP000=
SPZO Ene2005-071100Z 00000KT 9999 SCT050 SCT080 09/05 Q1030 RMK PP000=
SPZO Ene2005-071200Z 00000KT 9999 FEW043 BKN060 10/07 Q1031 NOSIG RMK PP000=
SPZO Ene2005-071300Z 35008KT 250V020 9999 FEW043 BKN100 13/04 Q1032 NOSIG RMK PP000=
SPZO Ene2005-071400Z 35013KT 340V070 9999 FEW040 BKN046 14/04 Q1033 NOSIG RMK PP000 RWY10 02016G38KT=
SPZO Ene2005-071500Z VRB08KT 9999 FEW043 BKN100 15/03 Q1032 NOSIG RMK PP000 01016G30KT=
SPZO Ene2005-071600Z VRB06KT 9999 FEW043 OVC100 17/03 Q1031 NOSIG RMK PP000 RWY10 VRB07KT=
SPZO Ene2005-071700Z 36009KT 340V080 9999 SCT046 SCT060 18/04 Q1031 NOSIG RMK PP000 RWY10 03016G30KT=
SPZO Ene2005-071800Z 02008KT 340V080 9999 BKN050 18/03 Q1030 NOSIG RMK PP000 RWY10 02011G28KT=
SPZO Ene2005-071900Z 36010KT 270V080 9999 SCT043 20/03 Q1028 NOSIG RMK PP000=
SPZO Ene2005-072000Z 01009KT 340V080 9999 FEW043 SCT080 18/01 Q1027 NOSIG RMK PP000=
SPZO Ene2005-072100Z 01011KT 340V080 9999 FEW060 19/02 Q1026 NOSIG RMK PP000=
SPZO Ene2005-072200Z 36012KT 340V080 9999 FEW060 18/01 Q1026 NOSIG RMK PP000 TMAX 19.9=
SPZO Ene2005-072300Z 01012KT 340V080 9999 FEW300 17/M01 Q1026 NOSIG RMK PP000=
SPZO Ene2005-080000Z 06010KT 9999 FEW050 15/01 Q1028 RMK PP000=
SPZO Ene2005-080100Z 10004KT 9999 SCT040 SCT050 14/02 Q1028 RMK PP000=
SPZO Ene2005-080200Z VRB03KT 9999 SCT080 13/02 Q1030 RMK PP000=
SPZO Ene2005-080300Z 30004KT 9999 SCT100 14/03 Q1031 RMK PP000=
SPZO Ene2005-080400Z 26004KT 9999 FEW040 SCT080 13/04 Q1031 RMK PP000=
SPZO Ene2005-080500Z 28006KT 9999 FEW043 SCT080 13/05 Q1031 RMK PP000=
SPZO Ene2005-080600Z 27009KT 9999 SCT043 12/05 Q1030 RMK PP000=
SPZO Ene2005-080700Z 27006KT 9999 FEW040 SCT050 12/06 Q1030 RMK PP000=
SPZO Ene2005-080800Z 10007KT 9999 FEW043 SCT050 10/07 Q1030 RMK PP000=
SPZO Ene2005-080900Z 09007KT 9999 SCT040 SCT050 10/07 Q1030 RMK PP000=
SPZO Ene2005-081000Z 10007KT 9999 VCRA FEW025 SCT040 BKN043 10/07 Q1031 RMK PP000=
SPZO Ene2005-081100Z VRB02KT 9999 FEW025 SCT040 BKN043 10/05 Q1032 RMK PPTRZ=
SPZO Ene2005-081200Z 09003KT 070V180 9999 VCSH FEW025 SCT043 BKN060 10/06 Q1033 NOSIG RMK PP000=
SPZO Ene2005-081300Z 17003KT 080V200 9999 FEW030 SCT043 BKN080 12/06 Q1033=
SPZO Ene2005-081400Z 00000KT 9999 FEW033 BKN080 15/05 Q1033 NOSIG RMK PP000=
SPZO Ene2005-081500Z VRB03KT 9999 SCT033 BKN100 16/04 Q1033 NOSIG RMK PP000=
SPZO Ene2005-081600Z 28005KT 190V350 9999 SCT040 BKN100 18/02 Q1032 NOSIG RMK PP000=
SPZO Ene2005-081700Z 21008KT 180V340 9999 SCT040 BKN100 19/05 Q1030 NOSIG RMK PP000=
SPZO Ene2005-081800Z VRB02KT 9999 SCT040 BKN080 20/04 Q1029 NOSIG RMK PP000=
SPZO Ene2005-081900Z VRB04KT 9999 SCT043 BKN080 22/04 Q1027 NOSIG RMK PP000=
SPZO Ene2005-082000Z VRB06KT 9999 SCT043 SCT100 21/03 Q1026 NOSIG RMK PP000=
SPZO Ene2005-082100Z 02009KT 340V080 9999 SCT043 SCT100 21/05 Q1025 NOSIG RMK PP000=
SPZO Ene2005-082200Z 36007KT 270V020 9999 -SHRA SCT043TCU SCT080 18/06 Q1025 TEMPO NSW RMK PPTRZ TMAX22.3=
SPZO Ene2005-082300Z 00000KT 9999 FEW040 BKN043 17/06 Q1026 RESHRA NOSIG RMK PPTRZ=
SPZO Ene2005-090000Z 10011KT 9999 BKN050 16/06 Q1028 RMK PP000=
SPZO Ene2005-090100Z 11010KT 080V170 9999 BKN050 14/05 Q1029 RMK PP000=
SPZO Ene2005-090200Z 27008KT 9999 BKN050 13/07 Q1030 RMK PP000=
SPZO Ene2005-090300Z 00000KT 9999 BKN050 13/07 Q1030 RMK PP000=
SPZO Ene2005-090400Z 10004KT 090V170 9999 BKN050 12/06 Q1030 RMK PP000=
SPZO Ene2005-090500Z 00000KT 9999 BKN050 12/06 Q1030 RMK PP000=
SPZO Ene2005-090600Z 00000KT 9999 BKN050 12/07 Q1029 RMK PP000=
SPZO Ene2005-090700Z 28005KT 250V350 9999 BKN050 12/07 Q1029 RMK PP000=
SPZO Ene2005-090800Z 27002KT 5000 RA SCT040 BKN050 11/08 Q1029 RMK PP018=
SPZO Ene2005-090900Z 27002KT 5000 RA SCT040 SCT050 10/08 Q1030 RMK PP016=
SPZO Ene2005-091000Z 00000KT 6000 RA SCT040 BKN050 10/08 Q1030 RMK PP028=
SPZO Ene2005-091100Z 19002KT 7000 RA FEW030 SCT040 BKN050 09/07 Q1031 RMK PP040=
SPZO Ene2005-091200Z 00000KT 7000 RA VCSH FEW025 SCT033 OVC047 09/06 Q1032 NOSIG RMK PP032=
SPZO Ene2005-091300Z 08002KT 7000 RA VCSH FEW025 SCT037 OVC050 09/07 Q1033 TEMPO 8000 RMK PP016=
SPZO Ene2005-091400Z 00000KT 7000 -RA VCSH FEW020 SCT033 OVC060 09/06 Q1034 TEMPO 8000 RMK NS AL E PP012=
SPZO Ene2005-091500Z 28003KT 250V360 9999 -DZ FEW030 SCT060 OVC080 10/07 Q1033 TEMPO NSW RMK PP012=
SPZO Ene2005-091600Z VRB04KT 9999 FEW030 SCT060 OVC100 13/08 Q1032 REDZ NOSIG RMK PPTRZ=
SPZO Ene2005-091700Z VRB02KT 9999 FEW033 SCT060 BKN100 15/10 Q1031 NOSIG RMK PP000 BIRDS HAZARD RWY 10/28=
SPZO Ene2005-091800Z VRB04KT 9999 FEW033 BKN100 17/08 Q1029 NOSIG RMK PP000 BIRDS HAZARD RWY 10/28=
SPZO Ene2005-091900Z VRB04KT 9999 BKN050 18/06 Q1027 TEMPO VCSH RMK PP000 RWY10 09006KT=
SPZO Ene2005-092000Z 28005KT 9999 FEW043 BKN050 18/05 Q1026 NOSIG RMK PP000=
SPZO Ene2005-092100Z 35007KT 9999 FEW043 BKN050 18/06 Q1025 NOSIG RMK PP000 RWY10 02014G24KT=
SPZO Ene2005-092200Z 28012KT 360V350 9999 RA SCT043 BKN050 14/08 Q1026 NOSIG RMK PPTRZ TMX:18.9=
SPZO Ene2005-092300Z VRB02KT 9999 RERA FEW043 BKN060 14/09 Q1025 NOSIG RMK PP006=
SPZO Ene2005-100000Z 09002KT 7000 -RA SCT040 BKN050 13/08 Q1027 RMK PP004=
SPZO Ene2005-100100Z 09005KT 8000 FEW040 BKN050 13/09 Q1028 RERA RMK PP002=
SPZO Ene2005-100200Z 00000KT 9999 FEW040 BKN050 12/08 Q1029 RMK PP000=
SPZO Ene2005-100300Z 00000KT 9999 BKN050 12/07 Q1029 RMK PP000=
SPZO Ene2005-100400Z 10004KT 9999 BKN050 11/09 Q1030 RMK PP000=
SPZO Ene2005-100500Z 10005KT 080V170 7000 RA BKN040 SCT050 10/08 Q1030 RMK PP010=
SPZO Ene2005-100600Z 00000KT 7000 -RA SCT040 BKN050 10/08 Q1029 RMK PP004=
SPZO Ene2005-100700Z 00000KT 7000 +RA SCT030 SCT040 BKN050 09/08 Q1029 RMK PP036=
SPZO Ene2005-100800Z 00000KT 7000 RA SCT030 SCT040 BKN050 09/08 Q1029 RMK PP024=
SPZO Ene2005-100900Z 00000KT 6000 -RA SCT030 SCT040 BKN050 09/08 Q1029 RMK PP006=
SPZO Ene2005-101000Z 00000KT 7000 -RA SCT030 SCT040 BKN050 09/07 Q1029 RMK PP002=
SPZO Ene2005-101100Z 00000KT 9000 FEW030 SCT040 BKN050 09/07 Q1030 RMK PPTRZ=
SPZO Ene2005-101200Z 00000KT 9999 FEW036 SCT050 10/08 Q1030 NOSIG RMK PP000=
SPZO Ene2005-101300Z VRB02KT 9999 FEW036 BKN046 14/07 Q1030 NOSIG RMK PP000=
SPZO Ene2005-101400Z VRB02KT 9999 RERA FEW036 BKN046 15/08 Q1030 NOSIG RMK PP000=
SPZO Ene2005-101500Z 27005KT 190V360 9999 RERA FEW036 SCT050 14/08 Q1030 NOSIG RMK PPTRZ=
SPZO Ene2005-101600Z VRB02KT 9999 FEW040 BKN046 16/08 Q1029 TEMPO VCRA RMK PP000 RA CDTE NE=
SPZO Ene2005-101700Z 17005KT 100V260 9999 FEW040TCU BKN046 17/08 Q1029 TEMPO VCRA RMK RA CDTES SW-SE=
SPZO Ene2005-101800Z 29006KT 190V350 9999 FEW040 BKN046 16/06 Q1028 TEMPO=
SPZO Ene2005-101900Z 11007KT 070V170 9999 FEW040 BKN046 18/06 Q1026 TEMPO VCRA RNK PP000 RWY10 VRB07KT RA CDTES SW-SE=
SPZO Ene2005-102000Z 28011KT 250V350 9999 -RA SCT040 BKN046 12/09 Q1026 NOSIG RMK PP018=
SPZO Ene2005-102100Z 10005KT 9999 REDZ SCT040 BKN060 13/08 Q1026 NOSIG RMK PP004 RWY0 12008KT=
SPZO Ene2005-102200Z VRB03KT 9999 DZ SCT040 BKN050 12/08 Q1026 NOSIG RMK PP000 TMX:18.2=
SPZO Ene2005-102300Z 00000KT 9999 DZ SCT043 BKN100 12/08 Q1026 NOSIG RMK PP004=
SPZO Ene2005-110000Z 00000KT 9999 BKN043 SCT080 12/08 Q1027 RMK PP000=
SPZO Ene2005-110100Z 00000KT 9999 BKN043 SCT100 12/09 Q1028 RMK PP000=
SPZO Ene2005-110200Z VRB03KT 9999 SCT040 SCT060 11/09 Q1029 RMK PP000=
SPZO Ene2005-110300Z VRB02KT 9999 SCT040 SCT070 11/08 Q1029 RMK PP002=
SPZO Ene2005-110400Z 00000KT 9999 SCT043 SCT070 11/08 Q1030 RMK PP000=
SPZO Ene2005-110500Z 00000KT 9999 -RA OVC040 11/08 Q1029 RMK PP002=
SPZO Ene2005-110600Z 00000KT 9999 OVC040 10/08 Q1029 RMK PP000=
SPZO Ene2005-110700Z VRB03KT 9999 FEW030 OVC040 10/07 Q1029 RMK PP000=
SPZO Ene2005-110800Z 26006KT 9999 BKN040 SCT050 10/06 Q1029 RMK PP002=
SPZO Ene2005-110900Z VRB02KT 9999 -RA SCT030 BKN040 09/07 Q1028 RMK PP008=
SPZO Ene2005-111000Z VRB02KT 9999 FEW025 SCT040 BKN043 09/07 Q1029 RMK PPTRZ=
SPZO Ene2005-111100Z VRB03KT 9000 VCRA FEW030 SCT040 BKN046 09/07 Q1029 PP000=
SPZO Ene2005-111200Z VRB02KT 9999 FEW036 BKN046 12/07 Q1030 NOSIG RMK PP000=
SPZO Ene2005-111300Z VRB02KT 9999 FEW036 BKN046 12/07 Q1031 NOSIG RMK PP000=
SPZO Ene2005-111400Z VRB03KT 9999 FEW036 BKN046 14/07 Q1031 NOSIG RMK PP000=
SPZO Ene2005-111500Z VRB03KT 9999 FEW040 BKN050 16/07 Q1030 NOSIG RMK PP000=
SPZO Ene2005-111600Z 28006KT 250V350 9999 DZ FEW040 BKN046 15/06 Q1029 BECMG FM1630 NSW RMK PPTRZ RWY10 20008KT=
SPZO Ene2005-111700Z VRB02KT 9999 DZ SCT040 SCT050 17/07 Q1029 NOSIG RMK PPTRZ=
SPZO Ene2005-111800Z VRB03KT 9999 RERA SCT046 SCT120 15/08 Q1028 NOSIG RMK PP004 RWY10 14010KT RA CDTE E=
SPZO Ene2005-111900Z 09003KT 9999 FEW037 BKN043 BKN100 15/08 Q1027 TEMPO VCSH RMK PP000=
SPZO Ene2005-112000Z 08002KT 360V110 9999 FEW040 BKN100 16/07 Q1026 NOSIG RMK PP000=
SPZO Ene2005-112100Z 08004KT 360V110 9999 FEW040 BKN100 16/08 Q1025 NOSIG RKM PP000=
SPZO Ene2005-112200Z 10007KT 070V170 9999 FEW040 BKN100 16/08 Q1025 NOSIG RMK PP000 TMAX 17.6=
SPZO Ene2005-112300Z 10004KT 050V170 9999 BKN043 SCT100 15/08 Q1026 NOSIG RMK PP000=
SPZO Ene2005-120000Z VRB01KT 9999 BKN040 SCT080 15/07 Q1027 RMK PP000=
SPZO Ene2005-120100Z 01004KT 9999 BKN040 SCT060 14/06 Q1028 RMK PP000=
SPZO Ene2005-120200Z 10005KT 9999 SCT040 SCT050 13/07 Q1029 RMK PP000=
SPZO Ene2005-120300Z 10005KT 9999 BKN040 SCT050 12/07 Q1030 RMK PP000=
SPZO Ene2005-120400Z 27008KT 9999 -RA BKN037 SCT046 12/08 Q1030 RMK PP002=
SPZO Ene2005-120500Z 00000KT 9999 OVC040 11/08 Q1030 RMK PP002=
SPZO Ene2005-120600Z 00000KT 9999 FEW030 OVC040 11/08 Q1030 RMK PP000=
SPZO Ene2005-120700Z 10004KT 9999 SCT030 SCT043 10/07 Q1029 RMK PP000=
SPZO Ene2005-120800Z VRB01KT 9999 SCT040 BKN043 10/08 Q1029 RMK PP000=
SPZO Ene2005-120900Z VRB02KT 9999 BKN040 SCT050 11/08 Q1029 RMK PP000=
SPZO Ene2005-121000Z VRB02KT 9999 FEW025 SCT040 BKN046 10/08 Q1030 RMK PP000=
SPZO Ene2005-121100Z VRB02KT 9999 FEW030 SCT040 BKN050 10/08 Q1030 RMK PP000=
SPZO Ene2005-121200Z 00000KT 9999 FEW025 SCT047 BKN300 11/08 Q1031 NOSIG RMK PP000=
SPZO Ene2005-121300Z 00000KT 9999 FEW030 SCT060 BKN100 13/08 Q1031 NOSIG RMK PP000=
SPZO Ene2005-121400Z 00000KT 9999 SCT037 SCT060 15/06 Q1031 NOSIG RMK PP000=
SPZO Ene2005-121500Z VRB03KT 9999 SCT037 SCT060 17/07 Q1031 NOSIG RMK PP000=
SPZO Ene2005-121600Z VRB02KT 9999 VCSH SCT040 BKN060 16/06 Q1030 NOSIG RMK PP000=
SPZO Ene2005-121700Z VRB05KT 9999 SCT043 SCT080 18/04 Q1030 NOSIG RMK PP000=
SPZO Ene2005-121800Z 10014KT 070V180 9999 SCT043 SCT060 19/08 Q1029 NOSIG RMK PP000=
SPZO Ene2005-121900Z 10013KT 090V180 9999 SCT043 SCT060 17/06 Q1028 NOSIG RMK PP000=
SPZO Ene2005-122000Z 09007KT 070V170 9999 FEW033 SCT043 19/06 Q1026 NOSIG RMK PP000=
SPZO Ene2005-122100Z VRB05KT 9999 SCT033TCU SCT043 20/05 Q1025 NOSIG RMK PP000=
SPZO Ene2005-122200Z 28011KT 250V350 9999 SCT033 SCT043TCU 16/07 Q1026 NOSIG RMK PP000 TMAX 20.4=
SPZO Ene2005-122300Z 29005KT 270V350 9999 SCT043TCU 16/06 Q1026 NOSIG RMK PP000=
SPZO Ene2005-130000Z 24002KT 9999 SCT050 15/07 Q1027 RMK PP000=
SPZO Ene2005-130100Z 00000KT 9999 BKN050 13/08 Q1029 RMK PP000=
SPZO Ene2005-130200Z 00000KT 9999 BKN050 13/07 Q1030 RMK PP000=
SPZO Ene2005-130300Z 11002KT 9999 SCT050 12/08 Q1031 RMK PP000=
SPZO Ene2005-130400Z 00000KT 9999 SCT050 11/08 Q1031 RMK PP000=
SPZO Ene2005-130500Z 00000KT 9999 SCT050 10/07 Q1031 RMK PP000=
SPZO Ene2005-130600Z 00000KT 9999 SCT050 10/08 Q1030 RMK PP000=
SPZO Ene2005-130700Z 00000KT 9999 SCT050 10/08 Q1030 RMK PP000=
SPZO Ene2005-130800Z 08002KT 9999 SCT050 10/08 Q1029 RMK PP000=
SPZO Ene2005-130900Z 00000KT 9999 SCT050 10/08 Q1030 RMK PP000=
SPZO Ene2005-131000Z 00000KT 9999 BKN050 10/08 Q1030 RMK PP000=
SPZO Ene2005-131100Z 10006KT 070V170 7000 VCSH FEW030 SCT040 BKN050 10/08 Q1031 RMK VCSH CUAD E PP000=
SPZO Ene2005-131200Z 10003KT 080V170 8000 -RA FEW020 BKN037 BKN053 09/07 Q1032 TEMPO FM1230 9999 NSW FEW020 SCT037 BKN053 RMK CLNG BLW 1200M PP018=
SPZO Ene2005-131300Z 00000KT 9999 FEW025 SCT037 BKN053 11/07 Q1033 NOSIG RMK PPTRZ=
SPZO Ene2005-131400Z 00000KT 9999 FEW030 SCT037 BKN043 13/08 Q1033 NOSIG RMK PP000=
SPZO Ene2005-131500Z VRB02KT 9999 SCT033 SCT080 17/09 Q1032 NOSIG RMK PP000=
SPZO Ene2005-131600Z VRB02KT 9999 SCT037 SCT080 17/07 Q1031 NOSIG RMK PP000=
SPZO Ene2005-131700Z VRB05KT 9999 FEW043 SCT047 19/08 Q1029 NOSIG RMK PP000=
SPZO Ene2005-131800Z VRB04KT 9999 BKN043 SCT060 21/05 Q1028 NOSIG RMK PP000=
SPZO Ene2005-131900Z 11005KT 090V190 9999 FEW040 BKN046 19/08 Q1026 TEMPO=
SPZO Ene2005-132000Z 07010KT 360V110 9999 SCT040 BKN050 17/07 Q1026 TEMPO VCRA RMK RWY10 03014G27KT RA CDTES SW-SE=
SPZO Ene2005-132100Z 28011KT 9999 SCT040TCU BKN050 15/08 Q1027 TEMPO=
SPZO Ene2005-132200Z 29006KT 250V350 9999 -TSRA FEW040CB BKN050 14/09 Q1027 NOSIG RMK PP002 TMX:21.0=
SPZO Ene2005-132300Z 00000KT 9999 RERA FEW036 BKN060 14/08 Q1027 NOSIG RMK PP002=
SPZO Ene2005-140000Z 00000KT 9999 OVC050 13/08 Q1029 RMK PP000=
SPZO Ene2005-140100Z 00000KT 9999 OVC050 14/09 Q1030 RMK PP000=
SPZO Ene2005-140200Z VRB05KT 9999 OVC050 13/06 Q1031 RMK PP000=
SPZO Ene2005-140300Z 26006KT 9999 OVC050 12/06 Q1032 RMK PP000=
SPZO Ene2005-140400Z 00000KT 9999 OVC050 11/06 Q1033 RMK PP000=
SPZO Ene2005-140500Z 00000KT 6000 -RA BKN040 SCT050 11/06 Q1032 RMK PP004=
SPZO Ene2005-140600Z 00000KT 6000 RA SCT040 SCT050 10/06 Q1032 RMK PP010=
SPZO Ene2005-140700Z 00000KT 5000 RA SCT040 BKN050 09/07 Q1031 RMK PP012=
SPZO Ene2005-140800Z 00000KT 5000 -RA SCT040 BKN050 09/07 Q1030 RMK PP006=
SPZO Ene2005-140900Z 00000KT 6000 -RA SCT040 BKN050 09/07 Q1030 RMK PP004=
SPZO Ene2005-141000Z 00000KT 7000 -RA FEW030 SCT040 BKN050 09/07 Q1030 RMK PP008=
SPZO Ene2005-141100Z 10003KT 7000 -RA SCT030 SCT040 BKN050 09/07 Q1031 RMK PP004=
SPZO Ene2005-141200Z 10002KT 9999 FEW025 SCT040 BKN046 09/07 Q1032 NOSIG RMK PPTRZ BCBR CDTE E=
SPZO Ene2005-141300Z VRB02KT 9999 FEW030 SCT040 BKN046 11/08 Q1032 NOSIG RMK PP000 BCBR CDTE NE=
SPZO Ene2005-141400Z VRB02KT 9999 FEW036 SCT043 13/07 Q1032 NOSIG RMK PP000=
SPZO Ene2005-141500Z VRB03KT 9999 FEW040 SCT060 16/08 Q1031 NOSIG RMK PP000=
SPZO Ene2005-141600Z VRB03KT 9999 FEW040 BKN046 18/08 Q1030 NOSIG RMK PP000 RWY10 13006KT HAZARD BIRD TWY C=
SPZO Ene2005-141700Z 10008KT 070V170 9999 -RA FEW040TCU BKN046 17/07 Q1030 NOSIG RMK PPTRZ=
SPZO Ene2005-141800Z VRB02KT 9999 RERA FEW043 BKN046 16/06 Q1029 NOSIG RMK PPTRZ RWY10 35006KT RA CDTE W=
SPZO Ene2005-141900Z 28010KT 9999 FEW043 BKN050 16/08 Q1027 NOSIG RMK PP000 RWY10 30014G24KT=
SPZO Ene2005-142000Z 27010KT 9999 RA SCT040TCU BKN050 16/08 Q1027 BECMG FM2040 NSW RMK PPTRZ RWY10 30014G24KT=
SPZO Ene2005-142100Z 29006KT 250V350 9999 FEW043 BKN090 15/07 Q1026 NOSIG RMK PP012 RWY10 31014G26=
SPZO Ene2005-142200Z 28008KT 250V350 9999 FEW046 OVC100 15/08 Q1026 NOSIG RMK PP000 28011G25KT TMX:18.7=
SPZO Ene2005-142300Z 28014KT 260V350 8000 TSRA SCT040CB BKN046 10/07 Q1028 NOSIG RMK PP030=
SPZO Ene2005-150000Z 29012KT 9000 -RA OVC040 11/07 Q1027 RMK PP010=
SPZO Ene2005-150100Z 00000KT 9999 BKN040 SCT070 10/07 Q1028 RMK PP002=
SPZO Ene2005-150200Z 00000KT 9999 SCT040 SCT080 10/08 Q1029 RMK PP000=
SPZO Ene2005-150300Z 00000KT 9999 BKN040 SCT080 10/08 Q1029 RMK PP000=
SPZO Ene2005-150400Z VRB02KT 9999 SCT030 BKN040 10/08 Q1029 RMK PP000=
SPZO Ene2005-150500Z VRB02KT 9999 FEW030 OVC040 10/08 Q1028 RMK PP000=
SPZO Ene2005-150600Z VRB03KT 9999 OVC040 09/07 Q1027 RMK PP000=
SPZO Ene2005-150700Z VRB02KT 9999 SCT040 SCT050 09/07 Q1027 RMK PP000=
SPZO Ene2005-150800Z 00000KT 9999 SCT040 SCT046 09/07 Q1027 RMK PP000=
SPZO Ene2005-150900Z VRB03KT 9999 SCT030 SCT070 08/06 Q1027 RMK PP000=
SPZO Ene2005-151000Z VRB01KT 9999 BKN043 SCT070 08/06 Q1028 RMK PP000=
SPZO Ene2005-151100Z 00000KT 9999 SCT043 BKN080 08/07 Q1029 RMK PP000=
SPZO Ene2005-151200Z 27002KT 9999 FEW046 OVC090 09/07 Q1030 NOSIG MRK PP000=
SPZO Ene2005-151300Z 00000KT 9999 OVC090 12/08 Q1030 NOSIG RMK PP000=
SPZO Ene2005-151400Z VRB02KT 9999 FEW046 OVC100 16/07 Q1030 NOSIG RMK PP000=
SPZO Ene2005-151500Z VRB03KT 9999 FEW046 BKN200 16/05 Q1029 NOSIG RK PP000=
SPZO Ene2005-151600Z VRB04KT 9999 FEW046 BKN200 17/05 Q1029 NOSIG RMK PP000 RWY10 26006KT HALO OVER HEAVEN=
SPZO Ene2005-151700Z VRB07KT 9999 FEW046 SCT200 20/05 Q1028 NOSIG RMK PP000 RWY10 17009KT HALO AROUND THE SUN=
SPZO Ene2005-151800Z 17007KT 090V260 9999 SCT046 SCT120 19/04 Q1027 NOSIG RMK PP000=
SPZO Ene2005-151900Z 17008KT 090V200 9999 SCT043 SCT300 19/01 Q1025 NOSIG RMK PP000=
SPZO Ene2005-152000Z VRB05KT 9999 SCT043 SCT300 20/04 Q1024 NOSIG RKM PP000=
SPZO Ene2005-152100Z VRB04KT 9999 SCT043 BKN300 21/03 Q1023 NOSIG RMK PP000=
SPZO Ene2005-152200Z 18004KT 160V260 9999 SCT060 BKN300 20/04 Q1023 NOSIG RMK PP000 TMAX 21.4=
SPZO Ene2005-152300Z 31009KT 270V020 9999 SCT043 BKN100 18/05 Q1024 NOSIG RMK PP000=
SPZO Ene2005-160000Z 29007KT 270V350 9999 OVC050 17/06 Q1024 RMK PP000=
SPZO Ene2005-160100Z 00000KT 9999 OVC050 15/08 Q1025 RMK PP000=
SPZO Ene2005-160200Z 00000KT 9999 OVC050 14/09 Q1026 RMK PP000=
SPZO Ene2005-160300Z VRB02KT 9999 SCT040 BKN050 14/06 Q1028 RMK PP000=
SPZO Ene2005-160400Z VRB02KT 9999 BKN040 SCT050 13/08 Q1027 RMK PP000=
SPZO Ene2005-160500Z 00000KT 9999 OVC040 13/08 Q1027 RMK PP000=
SPZO Ene2005-160600Z 00000KT 9999 OVC040 13/08 Q1027 RMK PP000=
SPZO Ene2005-160700Z VRB02KT 9999 OVC040 12/09 Q1026 RMK PP000=
SPZO Ene2005-160800Z 08002KT 9999 SCT040 SCT050 12/09 Q1026 RMK PP000=
SPZO Ene2005-160900Z 00000KT 9999 SCT040 BKN050 11/09 Q1026 RMK PP000=
SPZO Ene2005-161000Z 08003KT 9999 FEW040 BKN050 11/08 Q1027 RMK PP000=
SPZO Ene2005-161100Z 00000KT 9999 FEW040 SCT050 BKN060 11/06 Q1027 RMK PP000=
SPZO Ene2005-161200Z 00000KT 9999 FEW040 SCT080 OVC100 12/07 Q1028 NOSIG RMK PP000=
SPZO Ene2005-161300Z VRB01KT 9999 FEW040 SCT080 OVC100 13/07 Q1029 NOSIG RMK PP000=
SPZO Ene2005-161400Z 10003KT 070V170 9999 FEW040 OVC100 14/05 Q1028 NOSIG RMK PP000=
SPZO Ene2005-161500Z 00000KT 9999 FEW043 OVC100 15/02 Q1029 NOSIG RMK PP000=
SPZO Ene2005-161600Z 00000KT 9999 FEW043 OVC100 15/02 Q1029 NOSIG RMK PP000=
SPZO Ene2005-161700Z 17006KT 090V260 9999 FEW060 OVC100 16/01 Q1028 NOSIG RMK PP000=
SPZO Ene2005-161800Z 11008KT 070V170 9999 FEW060 OVC150 16/01 Q1028 NOSIG RMK PP000=
SPZO Ene2005-161900Z 18004KT 090V260 9999 FEW060 OVC150 16/M01 Q1027 NOSIG RMK PP000=
SPZO Ene2005-162000Z VRB03KT 9999 FEW060 OVC150 16/02 Q1026 NOSIG RMK PP000=
SPZO Ene2005-162100Z 09004KT 070V170 9999 FEW060 OVC150 16/00 Q1025 NOSIG RMK PP000=
SPZO Ene2005-162200Z 08002KT 360V110 9999 SCT060 OVC150 16/02 Q1026 NOSIG RMK PP000 TMAX 16.9=
SPZO Ene2005-162300Z 27002KT 9999 BKN070 OVC100 15/03 Q1026 NOSIG RKM PP000=
SPZO Ene2005-170000Z 00000KT 9999 OVC060 14/04 Q1027 RMK PP000=
SPZO Ene2005-170100Z 00000KT 9999 OVC060 13/05 Q1028 RMK PP000=
SPZO Ene2005-170200Z 00000KT 9999 OVC060 12/06 Q1028 RMK PP000=
SPZO Ene2005-170300Z 07003KT 9999 OVC060 10/06 Q1029 RMK PP000=
SPZO Ene2005-170400Z 26002KT 9999 OVC060 10/06 Q1029 RMK PP000=
SPZO Ene2005-170500Z 28002KT 9999 OVC060 10/06 Q1029 RMK PP000=
SPZO Ene2005-170600Z 10002KT 9999 OVC060 10/07 Q1028 RMK PP000=
SPZO Ene2005-170700Z 00000KT 9999 OVC060 10/07 Q1027 RMK PP000=
SPZO Ene2005-170800Z 00000KT 9999 OVC060 09/06 Q1027 RMK PP000=
SPZO Ene2005-170900Z 00000KT 9999 OVC060 09/06 Q1027 RMK PP000=
SPZO Ene2005-171000Z 00000KT 9999 BKN060 SCT100 09/06 Q1027 RMK PP000=
SPZO Ene2005-171100Z 00000KT 9999 BKN050 SCT100 09/06 Q1028 RMK PP000=
SPZO Ene2005-171200Z 00000KT 9999 FEW040 SCT046 11/07 Q1028 NOSIG RMK PP000=
SPZO Ene2005-171300Z VRB03KT 9999 FEW040 BKN050 14/06 Q1029 NOSIG RMK PP000 RWY10 29013KT=
SPZO Ene2005-171400Z VRB02KT 9999 FEW040 SCT050 16/06 Q1029 NOSIG RMK PP000 17005KT=
SPZO Ene2005-171500Z VRB03KT 9999 SCT050 17/04 Q1029 NOSIG RMK PP000 RWY10 15007KT=
SPZO Ene2005-171600Z VRB04KT 9999 BKN050 19/06 Q1028 NOSIG RMK PP000 RWY10 23006KT=
SPZO Ene2005-171700Z VRB05KT 9999 FEW043 BKN050 18/04 Q1027 NOSIG RMK PP000 RWY10 12007KT=
SPZO Ene2005-171800Z VRB03KT 9999 FEW043 BKN050 19/06 Q1025 NOSIG RMK PP000=
SPZO Ene2005-171900Z 10004KT 9999 FEW046 BKN060 18/03 Q1025 NOSIG RMK PP000 RWY10 12005KT=
SPZO Ene2005-172000Z 29010KT 270V350 9999 FEW050 BKN070 19/05 Q1024 RMK RWY10 30018 260V340 PP000=
SPZO Ene2005-172100Z 28009KT 250V310 9999 SCT053 BKN070 20/04 Q1023 RMK RWY10 30015G22KT PP000=
SPZO Ene2005-172200Z 29015KT 9999 SCT050 SCT150 19/05 Q1023 RMK PP000 TMAX 20.8=
SPZO Ene2005-172300Z 29011KT 9999 FEW050 SCT200 17/06 Q1024 RMK PP000=
SPZO Ene2005-180000Z 10011KT 060V170 9999 SCT050 SCT100 14/08 Q1026 RMK PP000=
SPZO Ene2005-180100Z VRB04KT 5000 +RA SCT030 SCT040 BKN050 11/08 Q1028 RMK PP070=
SPZO Ene2005-180200Z 10008KT 5000 RA FEW030 SCT040 BKN050 10/08 Q1029 RMK PP018=
SPZO Ene2005-180300Z VRB02KT 5000 +RA FEW030 SCT040 BKN050 10/08 Q1030 RMK PP044=
SPZO Ene2005-180400Z 09002KT 6000 RA FEW030 OVC040 10/08 Q1030 RMK PP014=
SPZO Ene2005-180500Z 28002KT 5000 +RA SCT030 OVC040 09/07 Q1030 RMK PP028=
SPZO Ene2005-180600Z 00000KT 8000 FEW030 OVC040 09/07 Q1029 RERA RMK PP008=
SPZO Ene2005-180700Z 08003KT 9999 FEW030 OVC040 10/08 Q1029 RMK PP000=
SPZO Ene2005-180800Z 00000KT 8000 -RA FEW030 OVC040 09/07 Q1028 RMK PPTRZ=
SPZO Ene2005-180900Z 08002KT 9000 FEW030 SCT040 BKN050 09/07 Q1029 RERA RMK PP002=
SPZO Ene2005-181000Z 07002KT 9999 FEW030 SCT040 BKN050 09/08 Q1029 RMK PP000=
SPZO Ene2005-181100Z VRB03KT 9000 SCT040 SCT050 BKN060 09/08 Q1029 RERA RMK BR AL E PP002=
SPZO Ene2005-181200Z VRB02KT 9999 FEW030 BKN050 10/08 Q1030 NOSIG RMK PP000=
SPZO Ene2005-181300Z 00000KT 9999 FEW033 BKN050 12/08 Q1031 NOSIG RMK PP000=
SPZO Ene2005-181400Z VRB02KT 9999 FEW036 SCT050 14/06 Q1031 NOSIG RMK PP000=
SPZO Ene2005-181500Z VRB02KT 9999 SCT050 17/07 Q1030 NOSIG RMK PP000=
SPZO Ene2005-181600Z VRB05KT 9999 SCT050 18/04 Q1029 NOSIG RMK PP000=
SPZO Ene2005-181700Z VRB05KT 9999 FEW050 19/03 Q1028 NOSIG RMK PP000 RWY10 04015KT=
SPZO Ene2005-181800Z VRB05KT 9999 FEW050 20/M01 Q1027 NOSIG RMK PP000 RWY10 01010G22KT=
SPZO Ene2005-181900Z VRB05KT 9999 FEW050 21/M01 Q1026 NOSIG RMK PP000 RWY10 34008KT=
SPZO Ene2005-182000Z VRB04KT 9999 SCT050 21/M02 Q1024 RMK PP000=
SPZO Ene2005-182100Z 33005KT 260V020 9999 SCT050 21/02 Q1024 RMK PP000=
SPZO Ene2005-182200Z 34012KT 270V010 9999 SCT050 18/04 Q1024 RMK PP000 TMAX 21.8=
SPZO Ene2005-182300Z 01008KT 330V060 9999 SCT050 16/04 Q1025 RMK PP000=
SPZO Ene2005-190000Z 34008KT 9999 SCT040 SCT050 15/06 Q1026 RMK PP000=
SPZO Ene2005-190100Z 34009KT 9999 FEW040 SCT080 14/06 Q1027 RMK PP000=
SPZO Ene2005-190200Z VRB02KT 9999 FEW040 BKN080 14/06 Q1028 RMK PP000=
SPZO Ene2005-190300Z VRB03KT 9999 SCT040 SCT080 13/03 Q1029 RMK PP000=
SPZO Ene2005-190400Z VRB02KT 9999 SCT040 SCT070 13/04 Q1029 RMK PP000=
SPZO Ene2005-190500Z 00000KT 9999 SCT040 SCT070 12/05 Q1028 RMK PP000=
SPZO Ene2005-190600Z 00000KT 9999 BKN040 SCT050 11/06 Q1028 RMK PP000=
SPZO Ene2005-190700Z 28006KT 9999 OVC040 12/06 Q1028 RMK PP000=
SPZO Ene2005-190800Z 00000KT 9999 OVC043 12/07 Q1028 RMK PP000=
SPZO Ene2005-190900Z 10005KT 9999 BKN040 SCT050 11/06 Q1028 RMK PP000=
SPZO Ene2005-191000Z 10006KT 9999 SCT040 SCT060 10/06 Q1028 RMK PP000=
SPZO Ene2005-191100Z VRB01KT 9999 SCT040 SCT050 10/06 Q1029 RMK PP000=
SPZO Ene2005-191200Z VRB02KT 9999 FEW036 BKN050 11/06 Q1029 NOSIG RMK PP000=
SPZO Ene2005-191300Z VRB02KT 9999 FEW040 SCT050 15/07 Q1030 NOSIG RMK PP000=
SPZO Ene2005-191400Z VRB02KT 9999 FEW040 BKN060 15/07 Q1030 NOSIG RMK PP000=
SPZO Ene2005-191500Z VRB02KT 9999 FEW043 BKN060 17/05 Q1029 NOSIG RMK PP000=
SPZO Ene2005-191600Z VRB02KT 9999 FEW046 BKN060 19/05 Q1028 NOSIG RMK PP000=
SPZO Ene2005-191700Z VRB03KT 9999 FEW046 SCT050 20/06 Q1027 NOSIG RMK PP000 RWY10 06009KT=
SPZO Ene2005-191800Z VRB02KT 9999 FEW046 SCT050 22/03 Q1025 NOSIG RMK PP000 RWY10 18007KT=
SPZO Ene2005-191900Z 35015KT 9999 TSRA SCT040CB BKN046 13/05 Q1025 BECMG FM1930 NSW RMK PP014 RWY10 36016G29KT=
SPZO Ene2005-192000Z 17005KT 120V260 9999 RERA FEW040 SCT046 15/08 Q1025 NOSIG RMK PP006 RWY10 15012KT=
SPZO Ene2005-192100Z 10010KT 070V130 9999 FEW040 SCT046 17/06 Q1024 NOSIG RMK PP000 RWY10 11007KT=
SPZO Ene2005-192200Z 10005KT 9999 BKN046 17/06 Q1024 TEMPO RA RMK PP000 RWY10 09005KT TMX:22.2=
SPZO Ene2005-192300Z VRB02KT 9999 SCT046 15/06 Q1024 NOSIG RMK PP000=
SPZO Ene2005-200000Z 09004KT 9999 SCT050 13/06 Q1025 RMK PP000=
SPZO Ene2005-200100Z 00000KT 9999 SCT050 13/07 Q1027 RMK PP000=
SPZO Ene2005-200200Z 29004KT 9999 FEW040 SCT080 11/07 Q1028 RMK PP000=
SPZO Ene2005-200300Z VRB02KT 9999 FEW040 SCT050 11/07 Q1029 RMK PP000=
SPZO Ene2005-200400Z VRB01KT 9999 FEW043 SCT050 12/08 Q1029 RMK PP000=
SPZO Ene2005-200500Z 00000KT 9999 SCT040 SCT050 12/08 Q1029 RMK PP000=
SPZO Ene2005-200600Z 00000KT 9999 SCT040 SCT050 12/08 Q1029 RMK PP000=
SPZO Ene2005-200700Z 28008KT 9999 -RA OVC040 11/08 Q1028 RMK PP006=
SPZO Ene2005-200800Z 36006KT 9999 -RA OVC040 10/07 Q1028 RMK PP004=
SPZO Ene2005-200900Z VRB03KT 9999 BKN040 SCT070 10/07 Q1028 RMK PP000=
SPZO Ene2005-201000Z VRB02KT 9999 SCT040 SCT050 09/07 Q1029 RMK PP000=
SPZO Ene2005-201100Z VRB03KT 9999 FEW040 SCT050 08/06 Q1029 RMK PP000=
SPZO Ene2005-201200Z 27004KT 9999 FEW040 BKN050 09/07 Q1030 NOSIG RMK PP000=
SPZO Ene2005-201300Z 00000KT 9999 BKN050 13/07 Q1030 NOSIG RMK PP000=
SPZO Ene2005-201400Z VRB02KT 9999 FEW040 SCT200 16/06 Q1030 NOSIG RMK PP000=
SPZO Ene2005-201500Z VRB02KT 9999 SCT040 SCT120 17/08 Q1029 NOSG RMK PP000=
SPZO Ene2005-201600Z VRB03KT 9999 SCT046 SCT120 17/05 Q1028 NOSIG RMK PP000=
SPZO Ene2005-201700Z 01012KT 340V080 9999 FEW036 SCT040 BKN046 15/05 Q1028 TEMPO RA RMK PP000 RWY10 02015G29KT RA CDTES NW-NE=
SPZO Ene2005-201800Z 18005KT 090V260 9999 SCT043 BKN050 16/04 Q1028 NOSIG RMK PP000 RMK 16009KT=
SPZO Ene2005-201900Z VRB02KT 9999 FEW046 OVC090 18/04 Q1027 NOSIG RMK PP000=
SPZO Ene2005-202000Z VRB02KT 9999 FEW046 OVC090 18/04 Q1025 NOSIG RMK PP000 RWY10 12011KT=
SPZO Ene2005-202100Z VRB04KT 9999 FEW046 OVC090 18/04 Q1024 NOSIG RMK PP000 RWY10 14008KT=
SPZO Ene2005-202200Z 10011KT 070V170 9999 SCT046 BKN050 16/05 Q1024 NOSIG RMK PP000 RWY10 11015G27KT RA CDTE NE TMX:18.0=
SPZO Ene2005-202300Z 36007KT 340V080 9999 -RA SCT046 BKN050 16/06 Q1025 NOSIG RMK PPTRZ RWY10 02009G19KT=
SPZO Ene2005-210000Z VRB02KT 9999 FEW043 BKN090 14/06 Q1026 NOSIG RMK PP000=
SPZO Ene2005-210100Z VRB04KT 9999 FEW043 BKN100 13/06 Q1028 RMK PP000=
SPZO Ene2005-210200Z 00000KT 9999 FEW043 BKN200 12/06 Q1028 RMK PP000=
SPZO Ene2005-210300Z 00000KT 9999 FEW043 BKN200 12/07 Q1029 RMK PP000=
SPZO Ene2005-210400Z 00000KT 9999 FEW043 BKN200 11/07 Q1029 RMK PP000=
SPZO Ene2005-210500Z 00000KT 9999 FEW040 SCT200 11/07 Q1029 RMK PP000=
SPZO Ene2005-210600Z 00000KT 9999 SCT030 SCT040 11/07 Q1029 RMK PP000=
SPZO Ene2005-210700Z 00000KT 9999 SCT033 BKN043 11/07 Q1028 RMK PP000=
SPZO Ene2005-210800Z 10004KT 9999 SCT037 BKN043 10/07 Q1028 RMK PP000=
SPZO Ene2005-210900Z 00000KT 9999 FEW030 BKN040 10/07 Q1028 RMK PP000=
SPZO Ene2005-211000Z 00000KT 9999 SCT030 SCT050 10/07 Q1029 RMK PP000=
SPZO Ene2005-211100Z 00000KT 9999 SCT033 SCT050 10/07 Q1029 RMK PP000=
SPZO Ene2005-211200Z 00000KT 9999 FEW036 SCT046 BKN100 11/07 Q1030 NOSIG RMK PP000=
SPZO Ene2005-211300Z VRB02KT 9999 SCT043 BKN100 13/07 Q1031 NOSIG RMK PP000 BCBR CDTE NE=
SPZO Ene2005-211400Z VRB02KT 9999 SCT043 SCT100 14/07 Q1031 NOSIG RMK PP000=
SPZO Ene2005-211500Z VRB02KT 9999 SCT050 17/05 Q1031 NOSIG RMK PP000=
SPZO Ene2005-211600Z VRB04KT 9999 SCT050 18/03 Q1030 NOSIG RMK PP000 RWY10 08008KT=
SPZO Ene2005-211700Z VRB03KT 9999 BKN050 20/02 Q1029 NOSIG RMK PP000 RWY10 23005KT=
SPZO Ene2005-211800Z VRB03KT 9999 BKN050 20/02 Q1027 NOSIG RMK PP000 RWY10 36005KT=
SPZO Ene2005-211900Z VRB05KT 9999 BKN050 21/01 Q1026 NOSIG RMK PP000=
SPZO Ene2005-212000Z 00000KT 9999 SCT050 SCT200 21/02 Q1025 RMK RWY10 27010KT PP000=
SPZO Ene2005-212100Z 01020KT 9999 FEW050 SCT200 19/05 Q1024 RMK RWY10 36008KT PP000=
SPZO Ene2005-212200Z 11009KT 9999 SKC 18/06 Q1024 RMK PP000 TMAX 23.2=
SPZO Ene2005-212300Z 10010KT 9999 SKC 16/06 Q1024 RMK PP000=
SPZO Ene2005-220000Z 09007KT 9999 SKC 14/06 Q1026 RMK PP000=
SPZO Ene2005-220100Z 12004KT 9999 SKC 13/06 Q1027 RMK PP000=
SPZO Ene2005-220200Z 10007KT 9999 SKC 12/05 Q1028 RMK PP000=
SPZO Ene2005-220300Z 00000KT 9999 SKC 11/05 Q1029 RMK PP000=
SPZO Ene2005-220400Z 00000KT 9999 SKC 10/05 Q1030 RMK PP000=
SPZO Ene2005-220500Z 00000KT 9999 SKC 09/06 Q1029 RMK PP000=
SPZO Ene2005-220600Z 00000KT 9999 FEW040 09/06 Q1029 RMK PP000=
SPZO Ene2005-220700Z 00000KT 9999 SKC 08/05 Q1028 RMK PP000=
SPZO Ene2005-220800Z 00000KT 9999 FEW040 07/05 Q1028 RMK PP000=
SPZO Ene2005-220900Z 00000KT 9999 SKC 07/04 Q1029 RMK PP000=
SPZO Ene2005-221000Z 00000KT 9999 SKC 07/05 Q1029 RMK PP000=
SPZO Ene2005-221100Z 00000KT 9999 SCT200 06/05 Q1030 RMK HZ PP000=
SPZO Ene2005-221200Z 00000KT 9999 FEW040 BKN200 08/06 Q1031 NOSIG RMK PP000=
SPZO Ene2005-221300Z VRB02KT 9999 FEW040 SCT200 12/07 Q1031 NOSIG RMK PP000=
SPZO Ene2005-221400Z VRB02KT 9999 SCT046 15/06 Q1032 NOSIG RMK PP000=
SPZO Ene2005-221500Z VRB02KT 9999 FEW050 SCT200 18/06 Q1031 NOSIG RMK PP000=
SPZO Ene2005-221600Z VRB05KT 9999 SCT050 19/03 Q1030 NOSIG RMK PP000 RWY10 13007KT=
SPZO Ene2005-221700Z VRB03KT 9999 SCT050 21/M02 Q1029 NOSIG RMK PP000 RWY10 16011KT=
SPZO Ene2005-221800Z VRB05KT 9999 SCT050 21/00 Q1028 NOSIG RMK PP000 RWY10 21005G21KT=
SPZO Ene2005-221900Z VRB04KT 9999 SCT050 22/M03 Q1027 NOSIG RMK RWY10 36008G19KT PP000=
SPZO Ene2005-222000Z VRB04KT 9999 SCT050 23/M06 Q1025 RMK WIND RWY10 28014G27KT PP000=
SPZO Ene2005-222100Z 21006KT 110V280 9999 SCT050 SCT100 23/M07 Q1025 RMK WIND RWY10 27006G15KT 220V320 PP000=
SPZO Ene2005-222200Z 36009KT 9999 SCT050 21/02 Q1024 RMK PP000 TMAX 23.7=
SPZO Ene2005-222300Z 36008KT 340V080 9999 SCT050 19/05 Q1025 RMK PP000=
SPZO Ene2005-230000Z VRB02KT 9999 FEW050 SCT300 16/06 Q1027 RMK PP000=
SPZO Ene2005-230100Z VRB02KT 9999 FEW050 14/06 Q1029 RMK PP000=
SPZO Ene2005-230200Z 09005KT 9999 FEW050 12/06 Q1030 RMK PP000=
SPZO Ene2005-230300Z VRB03KT 9999 SKC 12/06 Q1030 RMK PP000=
SPZO Ene2005-230400Z 00000KT 9999 SCT100 11/07 Q1031 RMK PP000=
SPZO Ene2005-230500Z 00000KT 9999 SCT100 11/06 Q1031 RMK PP000=
SPZO Ene2005-230600Z 00000KT 9999 FEW050 09/06 Q1030 RMK PP000=
SPZO Ene2005-230700Z 00000KT 9999 SKC 09/05 Q1030 RMK PP000=
SPZO Ene2005-230800Z 00000KT 9999 FEW200 08/05 Q1030 RMK PP000=
SPZO Ene2005-230900Z 00000KT 9999 FEW040 07/05 Q1030 RMK PP000=
SPZO Ene2005-231000Z 00000KT 9999 FEW050 07/05 Q1030 RMK PP000=
SPZO Ene2005-231100Z VRB01KT 9999 FEW037 SCT050 07/05 Q1031 RMK PP000=
SPZO Ene2005-231200Z 08002KT 9999 FEW040 11/06 Q1032 NOSIG RMK PP000=
SPZO Ene2005-231300Z VRB02KT 9999 FEW040 14/06 Q1032 NOSIG RMK PP000=
SPZO Ene2005-231400Z 12004KT 090V170 9999 FEW040 SCT046 15/06 Q1032 NOSIG RMK PP000=
SPZO Ene2005-231500Z VRB02KT 9999 FEW043 BKN050 17/06 Q1032 NOSIG RMK PP000=
SPZO Ene2005-231600Z VRB02KT 9999 BKN050 18/05 Q1031 NOSIG RMK PP000=
SPZO Ene2005-231700Z VRB03KT 9999 FEW043 BKN050 19/05 Q1029 NOSIG RMK PP000 RWY10 VRB07KT RA CDTE NE=
SPZO Ene2005-231800Z 16011KT 090V200 9999 SCT043 BKN050 17/06 Q1029 NOSIG RMK PP000 RWY10 13025G39KT RA CDTE W NE=
SPZO Ene2005-231900Z VRB04KT 9999 FEW043 BKN050 17/05 Q1028 NOSIG RMK PP000=
SPZO Ene2005-232000Z VRB03KT 9999 SCT050 SCT080 19/05 Q1026 RMK PP000=
SPZO Ene2005-232100Z VRB03KT 9999 SCT050 SCT080 21/05 Q1025 RMK PP000=
SPZO Ene2005-232200Z 01009KT 340V080 9999 SCT050 SCT080 19/05 Q1025 RMK PP000 TMAX 21.3=
SPZO Ene2005-232300Z 01008KT 340V080 9999 SCT050 SCT080 17/06 Q1026 RMK PP000=
SPZO Ene2005-240000Z 06005KT 9999 SCT050 SCT080 16/06 Q1027 RMK PP000=
SPZO Ene2005-240100Z 00000KT 9999 FEW050 SCT080 14/07 Q1028 RMK PP000=
SPZO Ene2005-240200Z VRB03KT 9999 FEW040 SCT070 14/07 Q1029 RMK PP000=
SPZO Ene2005-240300Z 10005KT 9999 FEW040 BKN070 13/07 Q1031 RMK PP000=
SPZO Ene2005-240400Z VRB03KT 9999 BKN080 13/07 Q1031 RMK PP000=
SPZO Ene2005-240500Z VRB02KT 9999 SCT040 SCT070 11/07 Q1030 RMK PP000=
SPZO Ene2005-240600Z VRB03KT 9999 SCT040 SCT080 10/06 Q1030 RMK PP000=
SPZO Ene2005-240700Z VRB02KT 9999 SCT070 10/07 Q1029 RMK PP000=
SPZO Ene2005-240800Z 00000KT 9999 FEW040 SCT070 10/07 Q1028 RMK PP000=
SPZO Ene2005-240900Z VRB03KT 9999 SCT040 SCT080 10/07 Q1028 RMK PP000=
SPZO Ene2005-241000Z 00000KT 9999 SCT040 SCT080 10/07 Q1028 RMK PP000=
SPZO Ene2005-241100Z 00000KT 9999 BKN043 SCT080 10/07 Q1029 RMK PP000=
SPZO Ene2005-241200Z 10003KT 9999 SCT043 OVC090 10/07 Q1030 NOSIG RMK PP000 RWY10 12008KT=
SPZO Ene2005-241300Z VRB02KT 9999 FEW046 OVC080 11/07 Q1031 NOSIG RMK PP000=
SPZO Ene2005-241400Z VRB03KT 9999 FEW036 SCT043 BKN060 14/07 Q1031 NOSIG RMK PP000=
SPZO Ene2005-241500Z VRB02KT 9999 SCT043 BKN060 15/07 Q1031 NOSIG RMK PP000 RWY10 10008KT=
SPZO Ene2005-241600Z 09004KT 9999 SCT043 BKN050 17/08 Q1030 NOSIG RMK PP000 RWY10 11007KT=
SPZO Ene2005-241700Z 13004KT 070V200 9999 FEW043 BKN050 18/05 Q1029 NOSIG RMK PP000 RWY10 12005KT=
SPZO Ene2005-241800Z 01014KT 340V080 9999 SCT043 BKN050 15/07 Q1029 TEMPO=
SPZO Ene2005-241900Z 28015KT 260V350 9999 SCT043 BKN050 17/06 Q1028 NOSIG RMK PP000 RWY10 29021G34KT=
SPZO Ene2005-242000Z 28015KT 9999 VCRA SCT040 SCT050 15/06 Q1028 RMK RWY10 29024KT PP000=
SPZO Ene2005-242100Z 28011KT 9999 VCRA FEW037 SCT040 BKN050 14/06 Q1028 RMK RWY 28017KT PP000=
SPZO Ene2005-242200Z 28010KT 240V360 9999 VCRA BKN040 SCT050 14/07 Q1028 RMK PP002 TMAX 18.3=
SPZO Ene2005-242300Z 26012KT 9999 BKN040 SCT050 13/06 Q1028 RMK PP002=
SPZO Ene2005-250000Z 28005KT 9999 OVC050 12/06 Q1029 RMK PP000=
SPZO Ene2005-250100Z 12003KT 9999 OVC050 11/07 Q1029 RMK PP000=
SPZO Ene2005-250200Z 00000KT 9999 OVC050 11/07 Q1030 RMK PP000=
SPZO Ene2005-250300Z 00000KT 9999 OVC050 10/07 Q1030 RMK PP000=
SPZO Ene2005-250400Z 00000KT 9999 BKN050 09/06 Q1030 RMK PP000=
SPZO Ene2005-250500Z 00000KT 9999 BKN050 08/06 Q1030 RMK PP000=
SPZO Ene2005-250600Z 00000KT 9999 BKN050 08/06 Q1030 RMK PP000=
SPZO Ene2005-250700Z 00000KT 9999 SCT050 06/05 Q1029 RMK PP000=
SPZO Ene2005-250800Z 00000KT 9999 SCT050 07/05 Q1029 RMK PP000=
SPZO Ene2005-250900Z 00000KT 9999 SCT050 07/05 Q1029 RMK PP000=
SPZO Ene2005-251000Z 00000KT 9999 SCT050 07/05 Q1029 RMK PP000=
SPZO Ene2005-251100Z 00000KT 9999 SCT050 06/05 Q1030 RMK PP000=
SPZO Ene2005-251200Z VRB01KT 9000 FEW040 SCT120 09/06 Q1031 NOSIG RMK PP000=
SPZO Ene2005-251300Z VRB02KT 9999 FEW040 SCT200 12/07 Q1031 NOSIG RMK PP000=
SPZO Ene2005-251400Z 06004KT 360V110 9999 FEW040 SCT300 14/07 Q1031 NOSIG RMK PP000=
SPZO Ene2005-251500Z VRB02KT 9999 FEW040 BKN300 17/05 Q1031 NOSIG RMK PP000 RWY10 VRB06KT=
SPZO Ene2005-251600Z VRB02KT 9999 FEW043 SCT050 19/05 Q1030 NOSIG RMK PP000 RWY10 11006G16KT=
SPZO Ene2005-251700Z VRB03KT 9999 BKN050 20/07 Q1028 NOSIG RMK PP000 RWY10 VRB06KT=
SPZO Ene2005-251800Z 01009KT 340V080 9999 SCT043 SCT050 18/05 Q1027 TEMPO=
SPZO Ene2005-251900Z 36008KT 340V080 9999 SCT043 BKN060 18/06 Q1027 NOSIG RMK PP000 RWY10 35010G21KT=
SPZO Ene2005-252000Z 31005KT 250V360 9999 FEW050 SCT070 BKN200 19/05 Q1026 RMK RWY10 31007KT PP000=
SPZO Ene2005-252100Z 03005KT 9999 SCT050 BKN150 19/04 Q1025 RMK PP000=
SPZO Ene2005-252200Z 11020KT 9999 FEW050 SCT080 BKN200 17/06 Q1025 RMK PP000 TMAX 20.5=
SPZO Ene2005-252300Z 10005KT 9999 FEW050 BKN200 16/07 Q1025 RMK PP000=
SPZO Ene2005-260000Z 00000KT 9999 BKN050 SCT100 15/06 Q1026 RMK PP000=
SPZO Ene2005-260100Z 00000KT 9999 BKN050 14/06 Q1027 RMK PP000=
SPZO Ene2005-260200Z 00000KT 9999 BKN050 13/06 Q1029 RMK PP000=
SPZO Ene2005-260300Z 27004KT 9999 BKN050 13/06 Q1029 RMK PP000=
SPZO Ene2005-260400Z 16004KT 090V260 9999 BKN050 13/06 Q1030 RMK PP000=
SPZO Ene2005-260500Z 07002KT 350V110 9999 BKN050 11/07 Q1030 RMK PP000=
SPZO Ene2005-260600Z 21003KT 160V260 5000 +RA SCT030 SCT040 BKN050 10/08 Q1030 RMK PP026=
SPZO Ene2005-260700Z 11006KT 080V140 6000 -RA FEW030 SCT040 BKN050 10/08 Q1029 RMK PP006=
SPZO Ene2005-260800Z 12002KT 090V150 6000 -RA FEW030 SCT040 BKN050 10/08 Q1029 RMK PP004=
SPZO Ene2005-260900Z 00000KT 7000 -RA FEW030 SCT040 BKN050 10/08 Q1029 RMK PPTRZ=
SPZO Ene2005-261000Z 00000KT 7000 -RA FEW030 SCT040 BKN050 10/08 Q1029 RMK PPTRZ=
SPZO Ene2005-261100Z 11003KT 090V170 9000 FEW030 SCT040 BKN050 10/08 Q1030 RMK PP002=
SPZO Ene2005-261200Z VRB02KT 9999 FEW030 SCT040 BKN050 10/08 Q1031 NOSIGR RMK PP000=
SPZO Ene2005-261300Z VRB02KT 9999 FEW033 SCT043 BKN090 11/08 Q1031 NOSIG RMK PP000=
SPZO Ene2005-261400Z VRB02KT 9999 FEW035 BKN090 13/07 Q1032 NOSIG RMK PP000=
SPZO Ene2005-261500Z VRB02KT 9999 SCT043 16/08 Q1031 NOSIG RMK PP000 RWY10 06006KT=
SPZO Ene2005-261600Z VRB02KT 9999 BKN046 19/06 Q1030 NOSIG RMK PP000 RWY10 09006KT=
SPZO Ene2005-261700Z VRB03KT 9999 FEW043 BKN050 19/08 Q1029 NOSIG RMK PP000 RWY10 24015KT=
SPZO Ene2005-261800Z 28010KT 250V350 9999 FEW043 BKN060 20/09 Q1028 NOSIG RMK PP000=
SPZO Ene2005-261900Z 01009KT 270V080 9999 -RA FEW043 SCT046 BKN060 17/07 Q1027 TEMPO VCRA RMK PP000 RWY10 34009KT=
SPZO Ene2005-262000Z 35008KT 270V020 9000 BKN050 SCT070 18/05 Q1027 RERA RMK PPTRZ=
SPZO Ene2005-262100Z 35007KT 270V020 9999 BKN050 SCT070 18/05 Q1026 RMK PP000=
SPZO Ene2005-262200Z 36010KT 340V080 9999 BKN050 SCT070 16/06 Q1026 RMK PP000 TMAX 20.9=
SPZO Ene2005-262300Z 00000KT 9999 BKN050 SCT100 15/06 Q1027 RMK PP000=
SPZO Ene2005-270000Z VRB03KT 9999 BKN040 SCT060 14/06 Q1029 RMK PP000=
SPZO Ene2005-270100Z VRB03KT 9999 FEW043 SCT100 12/06 Q1030 RMK PP000=
SPZO Ene2005-270200Z 11004KT 9999 BKN040 SCT050 12/07 Q1031 RMK PP000=
SPZO Ene2005-270300Z 07009KT 9999 RA OVC040 12/06 Q1031 RMK PP024=
SPZO Ene2005-270400Z 00000KT 9999 -RA BKN040 SCT070 09/07 Q1034 RMK PP032=
SPZO Ene2005-270500Z 00000KT 9999 -RA OVC040 09/07 Q1033 RMK PP016=
SPZO Ene2005-270600Z 00000KT 9999 BKN040 SCT046 09/07 Q1032 RMK PP002=
SPZO Ene2005-270700Z VRB02KT 9999 OVC040 09/07 Q1031 RMK PP000=
SPZO Ene2005-270800Z VRB03KT 9999 SCT040 SCT080 09/07 Q1030 RMK PP000=
SPZO Ene2005-270900Z 00000KT 9999 BKN040 SCT070 09/06 Q1030 RMK PP000=
SPZO Ene2005-271000Z VRB03KT 9999 FEW030 SCT070 08/06 Q1030 RMK PP000=
SPZO Ene2005-271100Z 00000KT 9999 SCT030 SCT070 08/06 Q1031 RMK PP000=
SPZO Ene2005-271200Z 09002KT 9999 FEW030 SCT043 10/07 Q1031 NOSIG RMK PP000 BCBR CDTE E=
SPZO Ene2005-271300Z VRB02KT 9999 FEW036 SCT046 12/07 Q1032 NOSIG RMK PP000=
SPZO Ene2005-271400Z VRB03KT 9999 FEW036 SCT046 14/06 Q1032 NOSIG RMK PP000 VRB06KT=
SPZO Ene2005-271500Z VRB03KT 9999 SCT046 15/05 Q1031 NOSIG RMK PP000=
SPZO Ene2005-271600Z VRB04KT 9999 SCT050 17/07 Q1031 NOSIG RMK PP000 RWY10 VRB06KT=
SPZO Ene2005-271700Z VRB03KT 9999 SCT050 19/04 Q1030 NOSIG RMK PP000 RWY10 12012KT=
SPZO Ene2005-271800Z 17004KT 090V200 9999 SCT050 20/06 Q1028 NOSIG RMK PP000 RWY10 13011KT=
SPZO Ene2005-271900Z VRB04KT 9999 SCT050 21/04 Q1026 NOSIG RMK PP000 RWY10 10008KT=
SPZO Ene2005-272000Z VRB03KT 9999 SCT050 22/02 Q1024 RMK PP000=
SPZO Ene2005-272100Z 10006KT 070V170 9999 BKN050 19/03 Q1024 RMK PP000=
SPZO Ene2005-272200Z 13008KT 090V180 9999 BKN050 18/07 Q1025 RMK PP000 TMAX 22.7=
SPZO Ene2005-272300Z 10007KT 9999 BKN050 16/08 Q1025 RMK PP000=
SPZO Ene2005-280000Z VRB03KT 9999 BKN050 14/07 Q1026 RMK PP000=
SPZO Ene2005-280100Z 00000KT 9999 BKN050 14/08 Q1017 RMK PP000=
SPZO Ene2005-280200Z 00000KT 9999 FEW040 SCT080 14/08 Q1028 RMK PP000=
SPZO Ene2005-280300Z VRB03KT 9999 FEW040 SCT080 13/08 Q1029 RMK PP000=
SPZO Ene2005-280400Z VRB03KT 9999 BKN050 13/08 Q1030 RMK PP000=
SPZO Ene2005-280500Z 00000KT 9999 SCT040 SCT080 12/08 Q1029 RMK PP000=
SPZO Ene2005-280600Z 00000KT 9999 SCT043 SCT080 11/09 Q1029 RMK PP000=
SPZO Ene2005-280700Z 00000KT 9999 BKN040 11/08 Q1029 RMK PP000=
SPZO Ene2005-280800Z 00000KT 9999 FEW040 BKN050 10/08 Q1029 RMK PP000=
SPZO Ene2005-280900Z 00000KT 9999 BKN040 SCT050 10/08 Q1028 RMK PP000=
SPZO Ene2005-281000Z VRB02KT 9999 SCT040 SCT060 10/08 Q1029 RMK PP000=
SPZO Ene2005-281100Z VRB02KT 9999 FEW037 SCT040 BKN046 10/08 Q1029 RMK PP000=
SPZO Ene2005-281200Z 00000KT 9999 FEW036 SCT040 BKN050 11/09 Q1030 NOSIG RMK PP000=
SPZO Ene2005-281300Z 00000KT 9999 FEW036 SCT040 SCT050 13/09 Q1031 NOSIG RMK PP000=
SPZO Ene2005-281400Z VRB03KT 9999 SCT046 16/07 Q1030 NOSIG RMK PP000=
SPZO Ene2005-281500Z 09004KT 360V170 9999 SCT046 17/07 Q1030 NOSIG RMK PP000=
SPZO Ene2005-281600Z VRB03KT 9999 SCT050 19/06 Q1029 NOSIG RMK PP000 RWY10 25007KT=
SPZO Ene2005-281700Z VRB03KT 9999 SCT050 21/06 Q1027 NOSIG RMK PPP000 RWY10 13011G21KT=
SPZO Ene2005-281800Z VRB03KT 9999 SCT046 SCT060 21/04 Q1026 NOSIG RMK PP000 RWY10 36007G17KT=
SPZO Ene2005-281900Z 30014KT 260V350 9999 TS FEW043TCU BKN050 20/06 Q1025 TEMPO VCRA RMK PP000 RAY10 24018KT=
SPZO Ene2005-282000Z 28007KT 180V290 9999 RA BKN040 SCT046 16/06 Q1025 RMK PP004=
SPZO Ene2005-282100Z 15005KT 060V180 9999 -RA BKN040 SCT046 13/09 Q1025 RMK PP006=
SPZO Ene2005-282200Z VRB02KT 250V360 9999 SCT043 SCT100 16/08 Q1024 RMK PP002 TMAX 21.8=
SPZO Ene2005-282300Z 00000KT 9999 FEW050 SCT200 16/07 Q1024 RMK PP000=
SPZO Ene2005-290000Z 07002KT 360V170 9999 SCT050 SCT100 15/09 Q1025 RMK PP000=
SPZO Ene2005-290100Z 21003KT 180V260 9999 BKN050 14/09 Q1026 RMK PP000=
SPZO Ene2005-290200Z 10002KT 070V130 9999 BKN050 12/09 Q1027 RMK PP000=
SPZO Ene2005-290300Z 00000KT 9999 BKN050 12/09 Q1028 RMK PP000=
SPZO Ene2005-290400Z 33007KT 270V350 9999 OVC050 12/06 Q1028 RMK PP000=
SPZO Ene2005-290500Z 25003KT 220V280 9999 OVC050 12/07 Q1028 RMK PP000=
SPZO Ene2005-290600Z VRB03KT 9999 OVC050 12/07 Q1028 RMK PP000=
SPZO Ene2005-290700Z 25008KT 180V280 8000 -RA SCT040 BKN050 11/07 Q1027 RMK PPTRZ=
SPZO Ene2005-290800Z 28004KT 250V350 9000 FEW040 BKN050 11/07 Q1027 RERA RMK PPTRZ=
SPZO Ene2005-290900Z 27002KT 9999 FEW040 BKN050 10/07 Q1027 RMK PP000=
SPZO Ene2005-291000Z 00000KT 9999 OVC050 10/07 Q1027 RMK PP000=
SPZO Ene2005-291100Z 00000KT 9999 BKN050 SCT100 09/07 Q1028 RMK PP000=
SPZO Ene2005-291200Z 00000KT 9999 BKN043 SCT080 10/08 Q1029 NOSIG RMK PP000=
SPZO Ene2005-291300Z 00000KT 9999 FEW036 SCT043 BKN100 13/07 Q1029 NOSIG RMK PP000=
SPZO Ene2005-291400Z VRB02KT 9999 SCT046 SCT100 14/08 Q1029 NOSIG RMK PP000=
SPZO Ene2005-291500Z VRB02KT 9999 SCT046 SCT100 16/08 Q1029 NOSIG RMK PP000=
SPZO Ene2005-291600Z VRB03KT 9999 SCT050 SCT200 18/07 Q1028 NOSIG RMK PP000=
SPZO Ene2005-291700Z VRB04KT 9999 SCT043 SCT050 20/05 Q1027 NOSIG RMK PP000 RWY10 36009KT=
SPZO Ene2005-291800Z VRB02KT 9999 SCT046 SCT050 19/04 Q1025 TEMPO VCSH RMK PP000 RWY10 27009G21KT=
SPZO Ene2005-291900Z 01009KT 340V080 9999 TSRA SCT040CB SCT050 15/07 Q1025 BECMG FM1920 NSW RMK PP016 RWY10 03013G23KT=
SPZO Ene2005-292000Z VRB02KT 9999 FEW043 SCT050 16/07 Q1024 NOSIG RMK PP002 RWY10 13004KT=
SPZO Ene2005-292100Z VRB03KT 9999 FEW043 SCT090 18/06 Q1023 NOSIG RMK PP000=
SPZO Ene2005-292200Z VRB02KT 9999 FEW046 SCT100 20/05 Q1023 NOSIG RMK PP000 RWY10 29006KT TMX:20.9=
SPZO Ene2005-292300Z VRB02KT 9999 FEW046 SCT200 18/05 Q1023 NOSIG RMK PP000=
SPZO Ene2005-300000Z 08004KT 360V110 9999 SCT050 SCT100 13/07 Q1024 RMK PP000=
SPZO Ene2005-300100Z 00000KT 9999 SCT050 SCT100 13/08 Q1026 RMK PP000=
SPZO Ene2005-300200Z 00000KT 9999 BKN050 12/08 Q1026 RMK PP000=
SPZO Ene2005-300300Z 00000KT 9999 BKN050 13/09 Q1027 RMK PP000=
SPZO Ene2005-300400Z 00000KT 9999 BKN050 12/08 Q1027 RMK PP000=
SPZO Ene2005-300500Z 24004KT 9999 BKN050 12/05 Q1027 RMK PP000=
SPZO Ene2005-300600Z 27004KT 9999 BKN050 11/06 Q1027 RMK PP000=
SPZO Ene2005-300700Z 26004KT 9999 BKN050 12/06 Q1026 RMK PP000=
SPZO Ene2005-300800Z 00000KT 9999 BKN050 10/06 Q1026 RMK PP000=
SPZO Ene2005-300900Z 00000KT 9999 BKN050 09/06 Q1025 RMK PP000=
SPZO Ene2005-301000Z 00000KT 9999 BKN050 07/04 Q1026 RMK PP000=
SPZO Ene2005-301100Z 00000KT 9999 SCT050 08/06 Q1027 RMK PP000=
SPZO Ene2005-301200Z 00000KT 9999 BKN100 08/06 Q1028 NOSIG RMK PP000=
SPZO Ene2005-301300Z 00000KT 9999 FEW046 BKN100 11/07 Q1028 NOSIG RMK PP000=
SPZO Ene2005-301400Z VRB02KT 9999 FEW040 BKN120 13/06 Q1028 NOSIG RMK PP000=
SPZO Ene2005-301500Z VRB02KT 9999 FEW043 SCT120 16/05 Q1028 NOSIG RMK PP000=
SPZO Ene2005-301600Z VRB03KT 9999 FEW040 BKN120 16/06 Q1028 NOSIG RMK PP000=
SPZO Ene2005-301700Z VRB02KT 9999 FEW046 BKN200 17/04 Q1026 NOSIG RMK PP000=
SPZO Ene2005-301800Z VRB02KT 9999 FEW046 BKN200 18/06 Q1025 NOSIG RMK PP000 RWY10 17006KT=
SPZO Ene2005-301900Z VRB02KT 9999 SCT046 SCT200 20/07 Q1023 NOSIG RMK PP000 RWY10 15006KT=
SPZO Ene2005-302000Z VRB06KT 9999 SCT050 SCT100 21/05 Q1022 RMK PP000=
SPZO Ene2005-302100Z 10007KT 070V170 9999 SCT050 SCT080 20/05 Q1021 RMK PP000=
SPZO Ene2005-302200Z 10014KT 360V170 9999 BKN050 16/04 Q1022 RMK PP000 TMAX 21.2=
SPZO Ene2005-302300Z VRB02KT 9999 BKN050 15/06 Q1022 RMK PP000=
SPZO Ene2005-310000Z 10004KT 9999 BKN050 SCT100 14/06 Q1023 RMK PP000=
SPZO Ene2005-310100Z 00000KT 9999 FEW050 SCT100 13/07 Q1025 RMK PP000=
SPZO Ene2005-310200Z 00000KT 9999 BKN040 SCT070 14/06 Q1026 RMK PP000=
SPZO Ene2005-310300Z VRB03KT 9999 SCT043 SCT080 12/08 Q1027 RMK PP000=
SPZO Ene2005-310400Z 10006KT 9999 SCT040 SCT070 12/08 Q1028 RMK PP000=
SPZO Ene2005-310500Z 00000KT 9999 -RA OVC040 11/08 Q1028 RMK PP002=
SPZO Ene2005-310600Z 00000KT 9999 BKN040 SCT046 11/08 Q1028 RMK PP008=
SPZO Ene2005-310700Z 00000KT 9999 BKN040 SCT050 10/08 Q1027 RMK PP002=
SPZO Ene2005-310800Z VRB03KT 9999 BKN037 SCT046 09/07 Q1027 RMK PP000=
SPZO Ene2005-310900Z 00000KT 9999 SCT030 BKN040 10/08 Q1027 RMK PP000=
SPZO Ene2005-311000Z VRB02KT 9999 FEW025 SCT040 BKN050 10/07 Q1027 RMK PP000=
SPZO Ene2005-311100Z VRB02KT 9999 SCT037 SCT070 09/07 Q1028 RMK PP000=
SPZO Ene2005-311200Z 00000KT 9999 FEW036 SCT050 12/07 Q1028 NOSIG RMK PP000=
SPZO Ene2005-311300Z VRB01KT 9999 FEW036 SCT046 15/08 Q1028 NOSIG RMK PP000=
SPZO Ene2005-311400Z VRB03KT 9999 FEW036 SCT050 14/06 Q1028 NOSIG RMK PP000=
SPZO Ene2005-311500Z 06004KT 9999 FEW036 BKN050 15/07 Q1028 NOSIG RMK PP000=
SPZO Ene2005-311600Z 08007KT 360V110 9999 FEW036 BKN046 FEW036 BKN046 15/06 Q1028 TEMPO VCRA RMK PP000 RA CDTE E=
SPZO Ene2005-311700Z 18005KT 090V260 9999 FEW043 SCT050 17/07 Q1027 NOSIG RMK PP000 RWY10 04005KT=
SPZO Ene2005-311800Z 36006KT 270V020 9999 FEW043TCU BKN050 19/06 Q1026 TEMPO VCSH RMK PP000 RWY10 08016G28KT=
SPZO Ene2005-311900Z VRB02KT 9999 FEW043TCU BKN050 19/05 Q1025 TEMPO=
SPZO Ene2005-312000Z 27014KT 9999 SCT040 SCT050 17/06 Q1024 RMK PP000=
SPZO Ene2005-312100Z 27008KT 9999 SCT040 SCT050 19/05 Q1023 RMK PP000=
SPZO Ene2005-312200Z 26011KT 9999 BKN050 16/06 Q1024 RMK PP000 TMAX 20.6=
SPZO Ene2005-312300Z 29007KT 250V360 9999 BKN050 15/06 Q1024 RMK PP000=
SPZO Feb2005-010000Z 28004KT 9999 BKN050 13/06 Q1026 RMK PP000=
SPZO Feb2005-010100Z VRB03KT 9999 FEW040 SCT050 12/07 Q1027 RMK PP000=
SPZO Feb2005-010200Z VRB01KT 9999 FEW040 SCT100 12/07 Q1028 RMK PP000=
SPZO Feb2005-010300Z 00000KT 9999 FEW040 SCT100 11/07 Q1028 RMK PP000=
SPZO Feb2005-010400Z 00000KT 9999 SCT040 SCT080 11/07 Q1029 RMK PP000=
SPZO Feb2005-010500Z 00000KT 9999 SCT037 SCT070 11/07 Q1028 RMK PP000=
SPZO Feb2005-010600Z 00000KT 9999 BKN040 SCT046 11/08 Q1028 RMK PP000=
SPZO Feb2005-010700Z VRB02KT 9999 OVC040 11/08 Q1027 RMK PP000=
SPZO Feb2005-010800Z 00000KT 9999 OVC043 11/08 Q1027 RMK PP000=
SPZO Feb2005-010900Z 00000KT 9999 FEW030 SCT050 10/08 Q1027 RMK PP000=
SPZO Feb2005-011000Z VRB03KT 9999 FEW030 SCT100 09/06 Q1027 RMK PP000=
SPZO Feb2005-011100Z 00000KT 9999 FEW040 BKN050 09/07 Q1028 RMK PP000=
SPZO Feb2005-011200Z 00000KT 9999 SCT040 BKN080 10/08 Q1029 NOSIG RMK PP000=
SPZO Feb2005-011300Z 00000KT 9999 FEW030 SCT100 BKN300 13/07 Q1029 NOSIG RMK PP000=
SPZO Feb2005-011400Z VRB02KT 9999 SCT033 BKN300 15/07 Q1029 NOSIG RMK PP000=
SPZO Feb2005-011500Z VRB03KT 9999 SCT037 SCT100 BKN300 16/07 Q1029 NOSIG RMK PP000=
SPZO Feb2005-011600Z 27006KT 190V350 9999 FEW037 BKN047 17/07 Q1029 NOSIG RMK PP000=
SPZO Feb2005-011700Z VRB03KT 9999 SCT043 BKN100 18/07 Q1027 NOSIG RMK PP000=
SPZO Feb2005-011800Z VRB03KT 9999 VCSH FEW037 BKN043 18/05 Q1026 NOSIG RMK PP000=
SPZO Feb2005-011900Z VRB09KT 9999 -RA VCSH FEW037 BKN043TCU 16/06 Q1026 TEMPO RA RMK PPTRZ=
SPZO Feb2005-012000Z 25007KT 180V270 9999 RA VCSH FEW037 BKN043TCU 12/08 Q1025 TEMPO FM2045 NSW RMK VCSH AL W PP030=
SPZO Feb2005-012100Z 00000KT 9999 FEW037 SCT043 BKN060 12/08 Q1025 RERA NOSIG RMK PP008=
SPZO Feb2005-012200Z 00000KT 9999 VCSH FEW037 SCT043 BKN080 14/08 Q1025 NOSIG RMK PP000 TMAX 19.1=
SPZO Feb2005-012300Z 00000KT 9999 SCT043 BKN100 14/07 Q1025 NOSIG RMK PP000=
SPZO Feb2005-020000Z 00000KT 9999 SCT050 SCT100 12/08 Q1026 RMK PP000=
SPZO Feb2005-020100Z 00000KT 9999 BKN050 SCT100 11/09 Q1027 RMK PP000=
SPZO Feb2005-020200Z 00000KT 9999 BKN050 12/09 Q1028 RMK PP000=
SPZO Feb2005-020300Z 00000KT 9999 BKN050 12/08 Q1029 RMK PP000=
SPZO Feb2005-020400Z 28008KT 260V350 7000 RA SCT040 BKN050 11/08 Q1029 RMK PP010=
SPZO Feb2005-020500Z 31005KT 270V010 5000 +RA SCT030 SCT040 BKN050 10/08 Q1029 RMK PP044=
SPZO Feb2005-020600Z 28002KT 250V360 5000 +RA SCT030 SCT040 BKN050 10/08 Q1029 RMK PP030=
SPZO Feb2005-020700Z 00000KT 6000 RA FEW030 SCT040 BKN050 09/08 Q1028 RMK PP022=
SPZO Feb2005-020800Z 00000KT 7000 -RA FEW030 SCT040 BKN050 09/08 Q1028 RMK PP006=
SPZO Feb2005-020900Z 00000KT 7000 -RA FEW030 SCT040 BKN050 09/08 Q1028 RMK PP002=
SPZO Feb2005-021000Z 10002KT 7000 -RA FEW030 SCT040 BKN050 09/07 Q1028 RMK PP006=
SPZO Feb2005-021100Z 00000KT 7000 -RA FEW020 SCT040 BKN050 08/07 Q1029 RMK PP010=
SPZO Feb2005-021200Z 00000KT 8000 -RA VCSH FEW020 SCT030 OVC080 09/07 Q1030 TEMPO 9000 RMK PP004=
SPZO Feb2005-021300Z 00000KT 9000 -DZ FEW025 SCT030 BKN047 11/07 Q1030 TEMPO 9999 NSW RMK PP002=
SPZO Feb2005-021400Z 08002KT 360V110 9999 VCSH SCT030 SCT043 BKN060 12/07 Q1030 REDZ NOSIG RMK PPTRZ=
SPZO Feb2005-021500Z 07004KT 340V110 9999 SCT033 BKN060 14/08 Q1030 NOSIG RMK PP000=
SPZO Feb2005-021600Z 00000KT 9999 SCT033 BKN060 15/07 Q1029 NOSIG RMK PP000=
SPZO Feb2005-021700Z VRB02KT 9999 SCT037 BKN047 15/07 Q1028 NOSIG RMK PP000=
SPZO Feb2005-021800Z 01004KT 270V080 9999 VCSH SCT037 BKN046 16/07 Q1027 NOSIG RMK PP000=
SPZO Feb2005-021900Z 11009KT 080V170 9000 VCRA FEW036 SCT046 BKN050 13/09 Q1026=
SPZO Feb2005-022000Z 08005KT 360V110 9000 -RA FEW036 SCT040 BKN046 13/09 Q1026 NOSIG RMK PPTRZ=
SPZO Feb2005-022100Z VRB03KT 9999 RERA SCT040 BKN046 13/08 Q1025 NOSIG RMK PP002=
SPZO Feb2005-022200Z VRB01KT 9999 FEW040 BKN050 14/09 Q1025 NOSIG MK PP000 TMX:16.4=
SPZO Feb2005-022300Z VRB02KT 9999 FEW043 BKN050 13/09 Q1026 NOSIG RMK PP000=
SPZO Feb2005-030000Z 15003KT 090V200 9999 OVC050 13/07 Q1027 RMK PP000=
SPZO Feb2005-030100Z 16004KT 090V190 9999 OVC050 13/06 Q1028 RMK PP000=
SPZO Feb2005-030200Z 08003KT 020V140 9999 OVC050 12/06 Q1029 RMK PP000=
SPZO Feb2005-030300Z 00000KT 9999 OVC050 11/06 Q1030 RMK PP000=
SPZO Feb2005-030400Z 00000KT 9999 BKN050 11/06 Q1030 RMK PP000=
SPZO Feb2005-030500Z 00000KT 9999 BKN050 10/06 Q1030 RMK PP000=
SPZO Feb2005-030600Z 00000KT 9999 BKN050 11/06 Q1030 RMK PP000=
SPZO Feb2005-030700Z 00000KT 9999 BKN050 09/07 Q1029 RMK PP000=
SPZO Feb2005-030800Z 00000KT 9999 BKN050 09/07 Q1029 RMK PP000=
SPZO Feb2005-030900Z 00000KT 9999 BKN050 09/06 Q1029 RMK PP000=
SPZO Feb2005-031000Z 00000KT 9999 BKN050 09/07 Q1030 RMK PP000=
SPZO Feb2005-031100Z 00000KT 9999 BKN050 09/07 Q1030 RMK PP000=
SPZO Feb2005-031200Z 00000KT 9999 FEW040 BKN060 10/07 Q1031 NOSIG RMK PP000=
SPZO Feb2005-031300Z VRB01KT 9999 FEW040 BKN060 13/06 Q1032 NOSIG RMK PP000=
SPZO Feb2005-031400Z 08004KT 360V170 9999 FEW040 SCT050 15/07 Q1032 NOSIG RMK PP000 RWY10 13008KT=
SPZO Feb2005-031500Z VRB05KT 9999 FEW043 BKN050 16/06 Q1031 NOSIG RMK PP000 RWY10 10008KT=
SPZO Feb2005-031600Z VRB03KT 9999 BKN050 17/06 Q1030 NOSIG RMK PP000 RWY10 28004KT=
SPZO Feb2005-031700Z VRB04KT 9999 BKN050 19/05 Q1029 NOSIG RMK PP000 RWY10 28004KT=
SPZO Feb2005-031800Z VRB02KT 9999 BKN050 19/06 Q1028 NOSIG RMK PP000 RWY10 31007G17KT=
SPZO Feb2005-031900Z 28007KT 9999 BKN050 21/05 Q1026 NOSIG RMK PP000 RWY10 30014G24KT=
SPZO Feb2005-032000Z 27008KT 200V290 9999 BKN050 19/07 Q1025 NOSIG RMK PP000 RWY10 30018G33KT=
SPZO Feb2005-032100Z 31006KT 260V110 9999 FEW043 BKN050 21/07 Q1025 TEMPO VCRA RMK PP000 RWY10 29015G25KT=
SPZO Feb2005-032200Z 13006KT 080V180 9999 -TSRA SCT043CB SCT046 14/07 Q1036 NOSIG RMK PP036 TMX:21.3=
SPZO Feb2005-032300Z VRB04KT 9999 FEW043TCU SCT050 14/09 Q1027 TEMPO VCSH RMK PP004=
SPZO Feb2005-040000Z 00000KT 9999 SCT040 SCT050 13/09 Q1027 RMK PP000=
SPZO Feb2005-040100Z 00000KT 9999 FEW040 SCT050 12/09 Q1028 RMK PP000=
SPZO Feb2005-040200Z VRB03KT 9999 FEW040 BKN050 10/08 Q1029 RMK PP000=
SPZO Feb2005-040300Z VRB02KT 9999 BKN050 10/08 Q1030 RMK PP000=
SPZO Feb2005-040400Z VRB03KT 9999 SCT040 SCT050 10/07 Q1031 RMK PP000=
SPZO Feb2005-040500Z 00000KT 9999 BKN040 SCT046 11/06 Q1030 RMK PP000=
SPZO Feb2005-040600Z 27005KT 9999 OVC040 10/07 Q1030 RMK PP000=
SPZO Feb2005-040700Z 28004KT 9999 FEW040 OVC040 10/06 Q1030 RMK PP000=
SPZO Feb2005-040800Z 00000KT 9999 SCT030 BKN040 09/07 Q1030 RMK PP000=
SPZO Feb2005-040900Z 00000KT 9999 SCT040 SCT070 09/06 Q1030 RMK PP000=
SPZO Feb2005-041000Z VRB01KT 9999 SCT040 SCT080 09/06 Q1030 RMK PP000=
SPZO Feb2005-041100Z 00000KT 9999 SCT040 SCT070 09/06 Q1031 RMK PP000=
SPZO Feb2005-041200Z 00000KT 9999 FEW040 BKN046 13/07 Q1032 NOSIG RMK PP000=
SPZO Feb2005-041300Z VRB02KT 9999 FEW043 BKN050 13/06 Q1032 NOSIG RMK PP000=
SPZO Feb2005-041400Z VRB02KT 9999 BKN050 15/05 Q1032 NOSIG RMK PP000=
SPZO Feb2005-041500Z VRB02KT 9999 BKN050 17/05 Q1032 NOSIG RMK PP000=
SPZO Feb2005-041600Z VRB02KT 9999 BKN050 17/04 Q1031 NOSIG RMK PP000=
SPZO Feb2005-041700Z VRB06KT 9999 BKN050 18/04 Q1030 NOSIG RMK PP000 RWY10 06013G23KT=
SPZO Feb2005-041800Z VRB04KT 9999 BKN050 19/03 Q1029 NOSIG RMK PP000 RWY10 06007KT=
SPZO Feb2005-041900Z 36011KT 340V080 9999 FEW050 20/03 Q1028 NOSIG RMK PP000=
SPZO Feb2005-042000Z 02010KT 340V080 9999 FEW050 20/02 Q1027 NOSIG RMK PP000=
SPZO Feb2005-042100Z 02010KT 340V080 9999 FEW050 20/03 Q1026 NOSIG RMK PP000=
SPZO Feb2005-042200Z 03011KT 350V080 9999 FEW050 18/03 Q1026 NOSIG RMK PP000 TMAX 20.9=
SPZO Feb2005-042300Z 02012KT 340V080 9999 FEW050 16/04 Q1027 NOSIG RMK PP000=
SPZO Feb2005-050000Z 06004KT 9999 FEW050 14/03 Q1029 RMK PP000=
SPZO Feb2005-050100Z VRB02KT 9999 FEW050 12/04 Q1030 RMK PP000=
SPZO Feb2005-050200Z VRB01KT 9999 SKC 12/04 Q1031 RMK PP000=
SPZO Feb2005-050300Z VRB02KT 9999 SKC 09/05 Q1033 RMK PP000=
SPZO Feb2005-050400Z 00000KT 9999 SKC 09/05 Q1033 RMK PP000=
SPZO Feb2005-050500Z 00000KT 9999 SKC 08/05 Q1032 RMK PP000=
SPZO Feb2005-050600Z 00000KT 9999 SKC 08/05 Q1032 RMK PP000=
SPZO Feb2005-050700Z 00000KT 9999 SKC 07/05 Q1031 RMK PP000=
SPZO Feb2005-050800Z 00000KT 9999 SKC 06/04 Q1031 RMK PP000=
SPZO Feb2005-050900Z 00000KT 9999 SKC 06/04 Q1031 RMK PP000=
SPZO Feb2005-051000Z 00000KT 9999 FEW040 05/04 Q1031 RMK PP000=
SPZO Feb2005-051100Z 00000KT 9999 FEW040 05/03 Q1032 RMK PP000=
SPZO Feb2005-051200Z 00000KT 9000 FEW047 09/05 Q1032 BECMG 9999 RMK HZ PP000=
SPZO Feb2005-051300Z VRB01KT 9999 FEW047 12/05 Q1033 NOSIG RMK PP000=
SPZO Feb2005-051400Z VRB04KT 9999 FEW043 14/05 Q1033 NOSIG RMK PP000=
SPZO Feb2005-051500Z VRB03KT 9999 SCT047 17/05 Q1033 NOSIG RMK PP000=
SPZO Feb2005-051600Z VRB04KT 9999 SCT047 18/04 Q1032 NOSIG RMK PP000=
SPZO Feb2005-051700Z VRB06KT 9999 SCT047 19/04 Q1031 NOSIG RMK PP000=
SPZO Feb2005-051800Z VRB07KT 9999 FEW043 SCT047 20/01 Q1030 NOSIG RMK PP000=
SPZO Feb2005-051900Z 36011KT 340V080 9999 FEW043 SCT047 20/05 Q1028 NOSIG RMK PP000=
SPZO Feb2005-052000Z 01012KT 340V080 9999 FEW040 SCT047 20/06 Q1028 NOSIG RMK PP000=
SPZO Feb2005-052100Z 01013KT 340V080 9999 FEW043TCU SCT047 18/04 Q1027 NOSIG RMK PP000=
SPZO Feb2005-052200Z 36008KT 340V080 9999 FEW043 SCT060 17/05 Q1027 NOSIG RMK PP000 TMAX 20.6=
SPZO Feb2005-052300Z 35003KT 250V020 9999 FEW040 BKN047 16/06 Q1027 NOSIG RMK PP000=
SPZO Feb2005-060000Z 08005KT 360V150 9999 BKN050 14/05 Q1029 RMK PP000=
SPZO Feb2005-060100Z 00000KT 9999 BKN050 14/05 Q1030 RMK PP000=
SPZO Feb2005-060200Z 10005KT 070V170 9999 BKN050 12/05 Q1031 RMK PP000=
SPZO Feb2005-060300Z 00000KT 9999 BKN050 12/06 Q1032 RMK PP000=
SPZO Feb2005-060400Z 00000KT 9999 BKN050 11/06 Q1032 RMK PP000=
SPZO Feb2005-060500Z 27005KT 9999 BKN050 09/06 Q1032 RMK PP000=
SPZO Feb2005-060600Z 28004KT 270V350 9999 BKN050 09/05 Q1031 RMK PP000=
SPZO Feb2005-060700Z 00000KT 9999 BKN050 09/06 Q1031 RMK PP000=
SPZO Feb2005-060800Z 00000KT 9999 BKN050 09/06 Q1031 RMK PP000=
SPZO Feb2005-060900Z 00000KT 9999 OVC050 10/06 Q1030 RMK PP000=
SPZO Feb2005-061000Z 00000KT 9999 OVC050 10/06 Q1031 RMK PP000=
SPZO Feb2005-061100Z 00000KT 9999 SCT050 08/05 Q1031 RMK PP000=
SPZO Feb2005-061200Z 00000KT 8000 FEW030 SCT037 BKN047 09/06 Q1032 NOSIG RMK HZ PP000=
SPZO Feb2005-061300Z 00000KT 9999 SCT037 14/07 Q1033 NOSIG RMK PP000=
SPZO Feb2005-061400Z VRB03KT 9999 FEW037 SCT043 15/06 Q1033 NOSIG RMK PP000=
SPZO Feb2005-061500Z VRB04KT 9999 FEW040 SCT043 17/05 Q1032 NOSIG RMK PP000=
SPZO Feb2005-061600Z VRB03KT 9999 FEW043 SCT047 18/04 Q1032 NOSIG RMK PP000=
SPZO Feb2005-061700Z VRB02KT 9999 BKN043 18/04 Q1030 NOSIG RMK PP000=
SPZO Feb2005-061800Z 00000KT 9999 FEW043 SCT047 20/03 Q1029 NOSIG RMK PP000=
SPZO Feb2005-061900Z VRB04KT 9999 FEW043TCU BKN050 20/04 Q1027 TEMPO RA RMK PP000 RWY10 34017G30KT=
SPZO Feb2005-062000Z 03008KT 340V100 9999 BKN050 20/03 Q1026 NOSIG RMK PP000 RWY10 04015KT=
SPZO Feb2005-062100Z 27008KT 180V350 9999 BKN050 20/03 Q1025 NOSIG RMK PP000 RWY10 29019KT=
SPZO Feb2005-062200Z 28010KT 250V350 9999 SCT050 20/04 Q1025 NOSIG RMK PP000 RWY10 29016G26KT TMX:21.8=
SPZO Feb2005-062300Z 28009KT 270V350 9999 FEW050 19/04 Q1026 NOSIG RMK PP000 RWY10 32015G26KT=
SPZO Feb2005-070000Z 31006KT 260V020 9999 SCT050 17/06 Q1027 RMK PP000=
SPZO Feb2005-070100Z 36006KT 320V080 9999 SCT050 15/06 Q1029 RMK PP000=
SPZO Feb2005-070200Z 05003KT 340V110 9999 SCT050 13/07 Q1030 RMK PP000=
SPZO Feb2005-070300Z 00000KT 9999 SCT050 12/07 Q1031 RMK PP000=
SPZO Feb2005-070400Z 00000KT 9999 SCT050 10/07 Q1031 RMK PP000=
SPZO Feb2005-070500Z 00000KT 9999 SCT050 11/07 Q1031 RMK PP000=
SPZO Feb2005-070600Z 00000KT 9999 SCT050 11/08 Q1030 RMK PP000=
SPZO Feb2005-070700Z 00000KT 9999 BKN050 11/07 Q1030 RMK PP000=
SPZO Feb2005-070800Z 00000KT 9999 BKN050 11/07 Q1029 RMK PP000=
SPZO Feb2005-070900Z 10009KT 080V170 9999 BKN050 09/06 Q1030 RMK PP000=
SPZO Feb2005-071000Z 10007KT 080V170 9999 OVC050 09/06 Q1030 RMK PP000=
SPZO Feb2005-071100Z 00000KT 9999 BKN050 SCT080 09/06 Q1031 RMK PP000=
SPZO Feb2005-071200Z VRB02KT 9999 FEW040 SCT050 11/06 Q1031 NOSIG RMK PP000=
SPZO Feb2005-071300Z VRB02KT 9999 FEW040 BKN050 13/06 Q1032 NOSIG RMK PP000=
SPZO Feb2005-071400Z VRB03KT 9999 FEW043 BKN050 14/05 Q1032 NOSIG RMK PP000=
SPZO Feb2005-071500Z VRB01KT 9999 FEW043 BKN050 16/04 Q1031 NOSIG RMK PP000 RWY10 11008KT=
SPZO Feb2005-071600Z VRB04KT 9999 FEW043 SCT050 18/04 Q1031 NOSIG RMK PP000 RWY10 13013KT=
SPZO Feb2005-071700Z 09008KT 070V170 9999 FEW043 BKN050 17/04 Q1030 TEMPO=
SPZO Feb2005-071800Z 28019KT 9999 SCT043 BKN050 12/06 Q1030 NOSIG RMK PP000 RWY10 28024G34KT RA CDTE NW-E=
SPZO Feb2005-071900Z 26008KT 9999 -RA FEW036 BKN050 12/07 Q1030 NOSIG RMK PP008 RWY10 25010G20KT=
SPZO Feb2005-072000Z VRB04KT 9999 RERA SCT043 SCT080 15/07 Q1029 NOSIG RMK PPTRZ RA CDTE E=
SPZO Feb2005-072100Z VRB02KT 9999 FEW043 SCT050 17/05 Q1028 NOSIG RMK PP000=
SPZO Feb2005-072200Z 02006KT 340V080 9999 BKN046 17/05 Q1027 NOSIG RMK PP000 RWY10 26007G18KT TMX:18.4=
SPZO Feb2005-072300Z 27007KT 9999 SCT046 16/06 Q1027 NOSIG RMK PP000 RWY10 29016KT=
SPZO Feb2005-080000Z 28008KT 9999 FEW050 13/06 Q1028 RMK PP000=
SPZO Feb2005-080100Z VRB03KT 9999 FEW040 SCT080 12/07 Q1029 RMK PP000=
SPZO Feb2005-080200Z 00000KT 9999 FEW050 11/07 Q1030 RMK PP000=
SPZO Feb2005-080300Z VRB03KT 9999 FEW040 SCT050 11/07 Q1031 RMK PP000=
SPZO Feb2005-080400Z 00000KT 9999 SCT040 SCT070 12/08 Q1031 RMK PP000=
SPZO Feb2005-080500Z VRB02KT 9999 BKN040 SCT046 11/08 Q1030 RMK PP000=
SPZO Feb2005-080600Z 28012KT 9999 -RA BKN040 SCT046 11/06 Q1030 RMK PP004=
SPZO Feb2005-080700Z 00000KT 9000 RA OVC040 09/07 Q1030 RMK PP074=
SPZO Feb2005-080800Z 09004KT 9999 -RA SCT030 BKN040 08/07 Q1030 RMK PP012=
SPZO Feb2005-080900Z 07004KT 9999 SCT030 BKN040 09/07 Q1030 RMK PPTRZ=
SPZO Feb2005-081000Z 10005KT 9999 SCT030 BKN043 08/06 Q1030 RMK PP000=
SPZO Feb2005-081100Z VRB03KT 9999 FEW030 SCT040 BKN046 08/06 Q1030 RMK PP000=
SPZO Feb2005-081200Z VRB02KT 9999 FEW030 SCT040 BKN046 09/07 Q1031 NOSIG RMK PP000=
SPZO Feb2005-081300Z VRB02KT 9999 FEW033 BKN050 11/06 Q1031 NOSIG RMK PP000=
SPZO Feb2005-081400Z VRB02KT 9999 FEW036 SCT050 13/06 Q1031 NOSIG RMK PP000 RWY10 13006KT=
SPZO Feb2005-081500Z VRB03KT 9999 FEW040 BKN050 14/05 Q1031 NOSIG RMK PP000 RWY10 10008KT=
SPZO Feb2005-081600Z VRB06KT 7000 DZ FEW036 BKN050 15/06 Q1031 NOSIG RMK PPTRZ CLOSED FOR VISIBILITY=
SPZO Feb2005-081700Z 07009KT 360V110 9000 RA FEW036 BKN046 15/07 Q1030 NOSIG RMK PP002 RWY10 31016KT=
SPZO Feb2005-081800Z VRB02KT 9999 RERA FEW036 SCT046 15/05 Q1030 NOSIG RMK PPTRZ=
SPZO Feb2005-081900Z VRB02KT 9999 SCT040 SCT060 17/07 Q1028 NOSIG RMK PP000=
SPZO Feb2005-082000Z 01008KT 340V080 9999 SCT043 SCT060 17/07 Q1026 NOSIG RMK PP000=
SPZO Feb2005-082100Z VRB05KT 9999 FEW040 SCT043 18/06 Q1025 NOSIG RMK PP000=
SPZO Feb2005-082200Z VRB06KT 9999 SCT043 SCT047 18/06 Q1024 NOSIG RMK PP000 TMAX 19.1=
SPZO Feb2005-082300Z 35007KT 310V010 9999 BKN040 SCT043 17/06 Q1026 NOSIG RMK PP000=
SPZO Feb2005-090000Z 25010KT 9000 RA BKN040 SCT046 13/08 Q1027 RMK PP014=
SPZO Feb2005-090100Z 14004KT 9999 SCT040 SCT050 12/08 Q1029 RMK PP002=
SPZO Feb2005-090200Z VRB02KT 9999 SCT040 SCT070 11/09 Q1029 RMK PP000=
SPZO Feb2005-090300Z 00000KT 9999 SCT040 SCT050 11/08 Q1030 RMK PP000=
SPZO Feb2005-090400Z 00000KT 9999 FEW030 BKN043 12/06 Q1031 RMK PP000=
SPZO Feb2005-090500Z 00000KT 9999 SCT030 BKN046 12/08 Q1030 RMK PP000=
SPZO Feb2005-090600Z 00000KT 9999 BKN040 SCT050 11/06 Q1030 RMK PP000=
SPZO Feb2005-090700Z 00000KT 9999 SCT043 BKN043 11/06 Q1030 RMK PP000=
SPZO Feb2005-090800Z 08004KT 9999 OVC040 11/08 Q1029 RMK PP000=
SPZO Feb2005-090900Z 00000KT 9999 SCT030 BKN043 11/06 Q1030 RMK PP000=
SPZO Feb2005-091000Z 26004KT 8000 RA FEW025 SCT037 BKN043 09/07 Q1030 RMK CLNG BLW 1200M PP012=
SPZO Feb2005-091100Z 00000KT 9999 VCRA BKN040 SCT046 09/07 Q1031 RMK PP010=
SPZO Feb2005-091200Z 00000KT 9999 FEW025 BKN043 BKN060 10/07 Q1032 NOSIG RMK PP000=
SPZO Feb2005-091300Z 00000KT 9999 FEW025 SCT043 BKN080 12/08 Q1032 NOSIG RMK PP000=
SPZO Feb2005-091400Z VRB01KT 9999 FEW030 SCT043 OVC080 14/07 Q1032 NOSIG RMK PP000=
SPZO Feb2005-091500Z VRB02KT 9999 FEW030 BKN043 BKN080 15/06 Q1032 TEMPO VCSH RMK PP000=
SPZO Feb2005-091600Z 10004KT 360V170 9999 FEW030 BKN043 16/08 Q1031 NOSIG RMK PP000=
SPZO Feb2005-091700Z VRB02KT 9999 VCSH FEW033CB SCT043 BKN080 17/06 Q1030 NOSIG RMK PP000=
SPZO Feb2005-091800Z 30006KT 260V010 9999 FEW033 SCT043 BKN080 17/07 Q1029 NOSIG RMK PP000=
SPZO Feb2005-091900Z 36008KT 270V020 9999 FEW033 SCT043 BKN080 18/05 Q1028 NOSIG RMK PP000=
SPZO Feb2005-092000Z 35006KT 270V020 9999 FEW040 SCT047 OVC100 18/06 Q1027 NOSIG RMK PP000=
SPZO Feb2005-092100Z 10011KT 080V170 9999 FEW030 SCT043 BKN080 17/06 Q1026 NOSIG RMK PP000=
SPZO Feb2005-092200Z 10010KT 080V170 9999 FEW040 SCT060 BKN100 17/07 Q1026 NOSIG RMK PP000 TMAX 19.1=
SPZO Feb2005-092300Z 12006KT 090V170 9999 SCT060 SCT100 BKN300 16/06 Q1026 NOSIG RMK PP000=
SPZO Feb2005-100000Z 00000KT 9999 SCT050 SCT100 14/07 Q1028 RMK PP000=
SPZO Feb2005-100100Z 00000KT 9999 BKN050 SCT100 14/07 Q1029 RMK PP000=
SPZO Feb2005-100200Z 00000KT 9999 BKN050 13/07 Q1030 RMK PP000=
SPZO Feb2005-100300Z 00000KT 9999 BKN050 13/07 Q1031 RMK PP000=
SPZO Feb2005-100400Z 00000KT 9999 OVC050 13/08 Q1031 RMK PP000=
SPZO Feb2005-100500Z 00000KT 9999 OVC050 12/05 Q1031 RMK PP000=
SPZO Feb2005-100600Z 04003KT 9999 OVC050 12/06 Q1031 RMK PP000=
SPZO Feb2005-100700Z 10004KT 9999 OVC050 11/06 Q1031 RMK PP000=
SPZO Feb2005-100800Z 00000KT 9999 OVC050 11/07 Q1030 RMK PP000=
SPZO Feb2005-100900Z 08002KT 5000 RA FEW030 SCT040 BKN050 10/07 Q1031 RMK PP010=
SPZO Feb2005-101000Z 00000KT 6000 -RA FEW030 SCT040 BKN050 09/07 Q1030 RMK PP001=
SPZO Feb2005-101100Z 00000KT 8000 -RA FEW030 SCT040 BKN050 09/06 Q1031 RMK PP017=
SPZO Feb2005-101200Z 09002KT 9000 -RA VCSH FEW025 SCT060 OVC080 09/07 Q1032 NOSIG RMK PP006=
SPZO Feb2005-101300Z 12002KT 090V180 9000 -RA VCSH FEW025 SCT033 OVC047 09/07 Q1033 TEMPO SCT025 SCT033 OVC043 RMK PP004=
SPZO Feb2005-101400Z 10003KT 070V170 8000 -RA VCSH FEW025 SCT033 OVC080 10/07 Q1033 TEMPO 7000E FM1430 9000 RMK PP004=
SPZO Feb2005-101500Z 09004KT 070V170 9999 FEW025 SCT033 OVC100 11/07 Q1033 NOSIG RMK PPTRZ=
SPZO Feb2005-101600Z 10004KT 070V170 9999 SCT030 SCT043 OVC150 13/07 Q1032 NOSIG RMK PP000=
SPZO Feb2005-101700Z 10005KT 080V170 9999 SCT033 SCT043 OVC150 14/06 Q1031 NOSIG RMK PP000=
SPZO Feb2005-101800Z 10005KT 070V170 9999 SCT037 OVC150 15/07 Q1030 NOSIG RMK PP000=
SPZO Feb2005-101900Z 09005KT 360V110 9999 FEW040 OVC100 16/08 Q1029 NOSIG RMK PP000=
SPZO Feb2005-102000Z VRB04KT 9999 FEW040 BKN100 16/08 Q1027 NOSIG RMK PP000=
SPZO Feb2005-102100Z 09004KT 020V170 9999 FEW040 BKN120 16/07 Q1026 NOSIG RMK PP000=
SPZO Feb2005-102200Z 10008KT 080V170 9999 FEW043 BKN200 16/07 Q1026 NOSIG RMK PP000 RWY10 11011KT TMX:17.1=
SPZO Feb2005-102300Z 10006KT 080V170 9999 FEW043 BKN120 15/07 Q1027 NOSIG RMK PP000 RWY10 11012KT=
SPZO Feb2005-110000Z 34008KT 270V020 5000 +RA SCT030 SCT040 BKN060 11/07 Q1030 RMK PP042=
SPZO Feb2005-110100Z 26003KT 180V350 6000 RA FEW030 SCT040 BKN060 10/07 Q1032 RMK PP014=
SPZO Feb2005-110200Z 25004KT 180V260 9000 FEW030 OVC050 10/07 Q1032 RERA RMK PP004=
SPZO Feb2005-110300Z 00000KT 9999 FEW030 OVC050 10/07 Q1032 RMK PP000=
SPZO Feb2005-110400Z 10004KT 9999 OVC050 10/08 Q1033 RMK PP000=
SPZO Feb2005-110500Z 08003KT 7000 -RA SCT040 BKN050 10/07 Q1032 RMK PP004=
SPZO Feb2005-110600Z 11004KT 090V170 9000 FEW040 OVC050 09/07 Q1031 RERA RMK PPTRZ=
SPZO Feb2005-110700Z 04003KT 360V080 9999 FEW040 OVC050 09/07 Q1031 RMK PP000=
SPZO Feb2005-110800Z 00000KT 9999 OVC050 09/07 Q1030 RMK PP000=
SPZO Feb2005-110900Z 00000KT 9999 OVC050 09/07 Q1030 RMK PP000=
SPZO Feb2005-111000Z 17002KT 9999 OVC050 09/07 Q1030 RMK PP000=
SPZO Feb2005-111100Z 08003KT 9000 BKN050 SCT150 08/07 Q1030 RMK SH FROM 10:30Z TIL 10:40Z PP002=
SPZO Feb2005-111200Z 08002KT 9999 FEW030 SCT040 BKN046 09/07 Q1031 NOSIG RMK PP000 BCBR CDTE E=
SPZO Feb2005-111300Z VRB02KT 9999 FEW025 BKN046 12/08 Q1032 NOSIG RMK PP000 BCBRE CDTE E=
SPZO Feb2005-111400Z VRB03KT 9999 FEW030 BKN046 15/09 Q1032 NOSIG RMK PP000 BCBR CDTE NE=
SPZO Feb2005-111500Z 09006KT 360V110 9999 FEW036 SCT043 SCT050 15/07 Q1032 NOSIG RMK PP000 RWY10 11006KT=
SPZO Feb2005-111600Z VRB03KT 9999 FEW043 BKN050 16/06 Q1031 NOSIG RK PP000 RWY10 19006KT=
SPZO Feb2005-111700Z VRB02KT 9999 FEW043 BKN050 18/07 Q1030 NOSIG RMK PP000 RWY10 04006KT=
SPZO Feb2005-111800Z VRB02KT 9999 SCT043 SCT050 17/07 Q1029 NOSIG RMK PP000 RWY10 11010KT RA CDTE E=
SPZO Feb2005-111900Z VRB05KT 9999 FEW043 SCT050 18/08 Q1027 NOSIG RMK PP000=
SPZO Feb2005-112000Z 29006KT 180V350 9999 SCT050 20/06 Q1026 NOSIG RMK PP000 RWY10 27008KT=
SPZO Feb2005-112100Z 07011KT 360V080 9999 FEW043 SCT050 18/07 Q1025 NOSIG RMK PP000 RWY10 35008KT RA CDTE NE=
SPZO Feb2005-112200Z 01005KT 270V080 9999 FEW043 SCT060 18/07 Q1025 NOSIG RMK PP002 RWY10 02013KT SH BETWEEN 2140 TO 2148Z TMX:20.6=
SPZO Feb2005-112300Z VRB03KT 9999 RA SCT040 SCT050 17/06 Q1026 NOSIG RMK PPTRZ RWY10 04014G24KT=
SPZO Feb2005-120000Z 27007KT 9000 -RA OVC040 12/09 Q1028 RMK PP008=
SPZO Feb2005-120100Z VRB03KT 9999 -RA SCT030 BKN040 11/07 Q1030 RMK PP012=
SPZO Feb2005-120200Z VRB01KT 9999 -RA SCT030 BKN043 10/07 Q1032 RMK PP026=
SPZO Feb2005-120300Z 30005KT 9999 -RA SCT030 BKN040 09/06 Q1033 RMK PP002=
SPZO Feb2005-120400Z 28007KT 9999 -RA SCT025 BKN040 08/06 Q1033 RMK PP008=
SPZO Feb2005-120500Z 28006KT 9999 -RA BKN037 SCT046 08/05 Q1033 RMK PP004=
SPZO Feb2005-120600Z 00000KT 9999 DZ SCT037 SCT046 08/05 Q1032 RMK PP002=
SPZO Feb2005-120700Z 00000KT 9999 DZ OVC040 07/05 Q1032 RMK PP004=
SPZO Feb2005-120800Z 00000KT 9999 DZ SCT025 BKN043 07/05 Q1031 RMK PP002=
SPZO Feb2005-120900Z 00000KT 9000 -RA SCT025 BKN040 07/05 Q1031 RMK PP006=
SPZO Feb2005-121000Z 00000KT 8000 -RA FEW025 SCT037 BKN043 07/05 Q1031 RMK CLNG BLW 1200M PP020=
SPZO Feb2005-121100Z 00000KT 9000 -RA FEW025 SCT037 BKN046 07/05 Q1032 RMK CLNG BLW 1200M PP012=
SPZO Feb2005-121200Z 10002KT 8000 -RA FEW020 SCT040 BKN046 08/06 Q1032 NOSIG RMK PP002=
SPZO Feb2005-121300Z VRB03KT 9999 RERA FEW030 SCT040 BKN046 09/06 Q1033 NOSIG RMK PP002=
SPZO Feb2005-121400Z VRB02KT 9999 FEW030 SCT040 BKN050 11/05 Q1033 NOSIG RMK PP000=
SPZO Feb2005-121500Z VRB02KT 9999 FEW036 BKN100 13/06 Q1032 NOSIG RMK PP000=
SPZO Feb2005-121600Z VRB03KT 9999 SCT043 15/06 Q1031 NOSIG RMK PP000=
SPZO Feb2005-121700Z VRB02KT 9999 FEW040 SCT050 16/05 Q1030 NOSIG RMK PP000=
SPZO Feb2005-121800Z VRB02KT 9999 FEW040 SCT050 18/05 Q1028 NOSIG RMK PP000=
SPZO Feb2005-121900Z VRB04KT 9999 FEW040 BKN043 19/07 Q1027 NOSIG RMK PP000=
SPZO Feb2005-122000Z 35008KT 270V080 9999 FEW040 SCT043 19/07 Q1025 NOSIG RMK PP000=
SPZO Feb2005-122100Z 36007KT 270V080 9999 FEW040 SCT043 20/05 Q1025 NOSIG RMK PP000=
SPZO Feb2005-122200Z 01010KT 340V080 9999 VCSH BKN043 18/05 Q1025 NOSIG RMK PP000 TMAX 20.0=
SPZO Feb2005-122300Z VRB04KT 9999 BKN043 SCT100 16/05 Q1026 NOSIG RMK PP000=
SPZO Feb2005-130000Z 04008KT 9999 SCT040 SCT050 15/05 Q1027 RMK PP000=
SPZO Feb2005-130100Z 10004KT 9999 BKN050 14/06 Q1029 RMK PP000=
SPZO Feb2005-130200Z VRB02KT 9999 FEW040 BKN050 13/05 Q1030 RMK PP000=
SPZO Feb2005-130300Z 01005KT 9999 BKN040 13/05 Q1031 RMK PP000=
SPZO Feb2005-130400Z 00000KT 9999 -RA OVC040 12/08 Q1032 RMK PP010=
SPZO Feb2005-130500Z VRB03KT 9000 RA OVC040 09/07 Q1032 RMK PP040=
SPZO Feb2005-130600Z 00000KT 9999 -RA FEW030 OVC040 09/06 Q1032 RMK PP012=
SPZO Feb2005-130700Z 00000KT 9999 -RA BKN040 SCT050 08/06 Q1031 RMK PP014=
SPZO Feb2005-130800Z 00000KT 9999 -RA SCT037 SCT050 08/06 Q1031 RMK PP006=
SPZO Feb2005-130900Z 00000KT 9999 SCT030 BKN040 08/06 Q1031 RMK PPTRZ=
SPZO Feb2005-131000Z 11005KT 9000 DZ FEW025 SCT037 BKN043 07/05 Q1031 RMK CLNG BLW 1200M PP000=
SPZO Feb2005-131100Z VRB03KT 9000 -RA FEW025 SCT037 BKN043 07/05 Q1031 RMK CLNG BLW 1200M PP004=
SPZO Feb2005-131200Z 10004KT 9999 -DZ FEW020 SCT037 OVC043 07/05 Q1032 NOSIG RMK PPTRZ=
SPZO Feb2005-131300Z VRB01KT 9999 FEW025 SCT033 OVC043 09/05 Q1032 REDZ TEMPO FEW025 BKN033 OVC043 RMK PPTRZ=
SPZO Feb2005-131400Z 00000KT 9999 FEW030 SCT033 BKN043 10/06 Q1033 NOSIG RMK PP000=
SPZO Feb2005-131500Z 00000KT 9999 FEW033 SCT037 BKN047 11/05 Q1032 NOSIG RMK PP000=
SPZO Feb2005-131600Z 00000KT 9999 FEW037 SCT060 14/06 Q1031 NOSIG RMK PP000=
SPZO Feb2005-131700Z VRB01KT 9999 FEW040 SCT060 17/08 Q1030 NOSIG RMK PP000=
SPZO Feb2005-131800Z VRB01KT 9999 FEW030 BKN080 17/04 Q1029 NOSIG RMK PP000=
SPZO Feb2005-131900Z VRB04KT 9999 SCT043 18/04 Q1027 NOSIG RMK PP000=
SPZO Feb2005-132000Z 18004KT 090V260 9999 SCT047 19/05 Q1026 NOSIG RMK PP000=
SPZO Feb2005-132100Z VRB01KT 9999 SCT047 20/04 Q1024 NOSIG RMK PP000=
SPZO Feb2005-132200Z VRB02KT 9999 SCT047 20/04 Q1024 NOSIG RMK PP000 TMX 20.4=
SPZO Feb2005-132300Z 17002KT 9999 SCT047 18/06 Q1024 NOSIG RMK PP000=
SPZO Feb2005-140000Z 07004KT 360V090 9999 SCT050 16/07 Q1026 RMK PP000=
SPZO Feb2005-140100Z 04004KT 350V080 9999 SCT050 15/07 Q1027 RMK PP000=
SPZO Feb2005-140200Z 08006KT 360V110 9999 BKN050 14/07 Q1029 RMK PP000=
SPZO Feb2005-140300Z 12008KT 090V170 5000 +RA SCT030 SCT040 BKN050 09/07 Q1031 RMK PP028=
SPZO Feb2005-140400Z VRB02KT 7000 -RA FEW030 SCT040 BKN050 09/07 Q1032 RMK PP006=
SPZO Feb2005-140500Z 00000KT 7000 -RA FEW030 SCT040 BKN050 09/07 Q1032 RMK PP006=
SPZO Feb2005-140600Z 00000KT 7000 RA FEW030 SCT040 BKN050 09/07 Q1031 RMK PP014=
SPZO Feb2005-140700Z 00000KT 8000 -RA FEW030 SCT040 BKN050 09/07 Q1031 RMK PP004=
SPZO Feb2005-140800Z 00000KT 9000 FEW030 SCT040 BKN050 09/07 Q1030 RERA RMK PP002=
SPZO Feb2005-140900Z 27005KT 250V350 9999 FEW030 OVC050 09/06 Q1030 RMK PP000=
SPZO Feb2005-141000Z 10003KT 9999 FEW030 OVC050 09/07 Q1030 RMK PP000=
SPZO Feb2005-141100Z 00000KT 9999 OVC050 09/07 Q1030 RMK PP000=
SPZO Feb2005-141200Z 00000KT 9999 SCT043 BKN080 10/08 Q1031 NOSIG RMK PP000=
SPZO Feb2005-141300Z 00000KT 9999 FEW030 BKN043 11/07 Q1032 NOSIG RMK PP000=
SPZO Feb2005-141400Z 00000KT 9999 FEW033 SCT150 14/06 Q1032 NOSIG RMK PP000=
SPZO Feb2005-141500Z VRB02KT 9999 SCT037 16/07 Q1031 NOSIG RMK PP000=
SPZO Feb2005-141600Z VRB02KT 9999 SCT037 SCT080 18/07 Q1031 NOSIG RMK PP000=
SPZO Feb2005-141700Z VRB02KT 9999 SCT043 BKN080 18/07 Q1029 NOSIG RMK PP000=
SPZO Feb2005-141800Z 25006KT 180V280 9999 SCT043 BKN080 18/07 Q1028 NOSIG RMK PP000=
SPZO Feb2005-141900Z 31010KT 260V360 9999 FEW043 BKN050 19/07 Q1027 NOSIG RMK PP000 RWY10 32013G24KT=
SPZO Feb2005-142000Z 02012KT 9999 SCT043 SCT050 16/08 Q1026 NOSIG RMK PP000 TEMPO RA RWY10 05018G33KT RA CDTE E=
SPZO Feb2005-142100Z 11013KT 080V170 9999 RERA SCT040 SCT046 12/08 Q1027 TEMPO VCRA PP014 RMK RWY10 10029G40KT RA CDTE E=
SPZO Feb2005-142200Z VRB03KT 9999 BKN050 15/07 Q1026 NOSIG RMK PP000 TMX:20.0=
SPZO Feb2005-142300Z 09002KT 9999 FEW046 SCT100 14/07 Q1026 NOSIG RMK PP000=
SPZO Feb2005-150000Z 10008KT 9999 SCT050 SCT070 11/08 Q1027 RMK PP000=
SPZO Feb2005-150100Z 10003KT 9999 BKN050 12/08 Q1028 RMK PP000=
SPZO Feb2005-150200Z 08003KT 9999 BKN050 11/08 Q1030 RMK PP000=
SPZO Feb2005-150300Z VRB05KT 8000 -RA OVC040 12/08 Q1030 RMK PP002=
SPZO Feb2005-150400Z 30005KT 270V350 7000 -RA SCT030 BKN040 11/07 Q1031 RMK PP010=
SPZO Feb2005-150500Z VRB03KT 7000 RA SCT030 BKN040 10/07 Q1031 RMK PP018=
SPZO Feb2005-150600Z 08004KT 7000 RA SCT030 BKN040 09/07 Q1030 RMK PP018=
SPZO Feb2005-150700Z 00000KT 9000 FEW030 BKN040 09/07 Q1029 RERA RMK PPTRZ=
SPZO Feb2005-150800Z 28004KT 250V350 9999 FEW030 BKN040 10/06 Q1028 RMK PP000=
SPZO Feb2005-150900Z 00000KT 9999 OVC040 10/07 Q1028 RMK PP000=
SPZO Feb2005-151000Z 00000KT 9999 OVC040 09/07 Q1028 RMK PP000=
SPZO Feb2005-151100Z 09003KT 9999 OVC040 09/07 Q1029 RMK PP000=
SPZO Feb2005-151200Z VRB02KT 9999 FEW036 SCT046 BKN100 10/08 Q1030 NOSIG RMK PP000=
SPZO Feb2005-151300Z VRB02KT 9999 FEW040 BKN100 13/07 Q1030 NOSIG RMK PP000=
SPZO Feb2005-151400Z 00000KT 9999 FEW040 BKN120 15/06 Q1030 NOSIG RMK PP000=
SPZO Feb2005-151500Z VRB03KT 9999 FEW040 BKN120 16/07 Q1029 NOSIG RMK PP000=
SPZO Feb2005-151600Z 00000KT 9999 SCT043 BKN100 16/06 Q1029 TEMPO VCRA RMK PP000=
SPZO Feb2005-151700Z VRB02KT 9999 SCT043 BKN070 16/07 Q1028 TEMPO VCRA RMK PP000=
SPZO Feb2005-151800Z VRB02KT 9999 SCT043 BKN060 16/07 Q1028 TEMPO RA RMK PP000 RWY10 25008KT RA CDTE W-E=
SPZO Feb2005-151900Z 16004KT 090V200 9999 SCT043 BKN100 15/08 Q1027 TEMPO=
SPZO Feb2005-152000Z VRB02KT 9999 FEW043 OVC080 16/07 Q1026 TEMPO VCRA RMK PP000 RA AL W=
SPZO Feb2005-152100Z 10007KT 070V170 9999 FEW043 OVC100 16/07 Q1025 NOSIG RMK PP000 RWY10 10014KT=
SPZO Feb2005-152200Z 10007KT 080V170 9999 FEW046 OVC100 15/07 Q1025 NOSIG RMK PP000 TMAX 16.5=
SPZO Feb2005-152300Z VRB03KT 9999 FEW046 BKN120 14/08 Q1025 NOSIG RMK PP000=
SPZO Feb2005-160000Z 08004KT 9999 BKN040 SCT050 13/08 Q1026 RMK PP000=
SPZO Feb2005-160100Z VRB02KT 9999 SCT040 SCT050 13/08 Q1027 RMK PP000=
SPZO Feb2005-160200Z 00000KT 9999 SCT040 SCT070 13/09 Q1028 RMK PP000=
SPZO Feb2005-160300Z 00000KT 9999 SCT040TCU BKN046 12/09 Q1028 RMK PP000=
SPZO Feb2005-160400Z 00000KT 9999 SCT040 SCT060 12/07 Q1029 RMK PP000=
SPZO Feb2005-160500Z 00000KT 9999 -RA OVC040 11/08 Q1028 RMK PP002=
SPZO Feb2005-160600Z 28005KT 9999 BKN040 SCT046 11/07 Q1028 RMK PP002=
SPZO Feb2005-160700Z 28008KT 9999 BKN040 SCT070 11/07 Q1028 RMK PP000=
SPZO Feb2005-160800Z VRB02KT 9999 FEW040 SCT080 10/07 Q1027 RMK PP000=
SPZO Feb2005-160900Z 00000KT 9999 FEW040 SCT050 10/07 Q1027 RMK PP000=
SPZO Feb2005-161000Z VRB03KT 9999 SCT040 SCT080 08/06 Q1027 RMK PP000=
SPZO Feb2005-161100Z 00000KT 9999 SCT040 SCT060 08/06 Q1028 RMK PP000=
SPZO Feb2005-161200Z 00000KT 9999 FEW036 BKN046 10/07 Q1029 NOSIG RMK PP000=
SPZO Feb2005-161300Z 00000KT 9999 FEW036 SCT046 13/08 Q1029 NOSIG RMK PP000=
SPZO Feb2005-161400Z VRB02KT 9999 SCT046 15/07 Q1029 NOSIG RMK PP000=
SPZO Feb2005-161500Z VRB02KT 9999 SCT043 BKN050 16/06 Q1029 NOSIG RMK PP000=
SPZO Feb2005-161600Z VRB03KT 9999 SCT046 SCT100 17/06 Q1028 NOSIG RMK PP000 RWY10 12009KT=
SPZO Feb2005-161700Z VRB02KT 9999 SCT043 SCT050 18/04 Q1027 NOSIG RMK PP000 RWY10 33013KT RA CDTE NW=
SPZO Feb2005-161800Z 01005KT 270V080 9999 SCT043 SCT050 18/06 Q1026 NOSIG RMK PP000 RWY10 01012G22KT=
SPZO Feb2005-161900Z 35007KT 270V080 9999 BKN043 19/06 Q1025 NOSIG RMK PP000=
SPZO Feb2005-162000Z 08009KT 360V170 9999 VCSH BKN040TCU SCT047 18/06 Q1024 TEMPO -RA RMK PP000=
SPZO Feb2005-162100Z 25005KT 180V290 9999 FEW030 SCT040TCU BKN060 15/08 Q1024 NOSIG RERA RMK PP002=
SPZO Feb2005-162200Z 09009KT 070V170 9999 FEW030 BKN043 15/07 Q1024 NOSIG RMK PP000 TMAX 20.6=
SPZO Feb2005-162300Z 08004KT 9999 FEW040TCU BKN047 14/07 Q1025 NOSIG RMK PP000=
SPZO Feb2005-170000Z VRB01KT 9999 BKN040 SCT050 13/07 Q1027 RMK PP000=
SPZO Feb2005-170100Z 26004KT 9999 BKN040 SCT046 12/08 Q1027 RMK PP002=
SPZO Feb2005-170200Z 10004KT 9999 SCT040 SCT070 12/08 Q1028 RMK PP000=
SPZO Feb2005-170300Z 27004KT 9999 BKN040 SCT070 12/08 Q1029 RMK PP000=
SPZO Feb2005-170400Z 00000KT 9999 BKN043 SCT070 12/07 Q1030 RMK PP000=
SPZO Feb2005-170500Z VRB01KT 9999 OVC040 11/08 Q1030 RMK PP000=
SPZO Feb2005-170600Z 00000KT 9999 OVC043 11/08 Q1029 RMK PP000=
SPZO Feb2005-170700Z 00000KT 9999 SCT037 SCT046 10/08 Q1028 RMK PP000=
SPZO Feb2005-170800Z VRB02KT 9999 SCT040 SCT046 11/08 Q1028 RMK PP000=
SPZO Feb2005-170900Z 00000KT 9999 SCT040 SCT070 11/07 Q1028 RMK PP000=
SPZO Feb2005-171000Z 00000KT 9999 SCT040 SCT046 11/06 Q1029 RMK PP000=
SPZO Feb2005-171100Z VRB03KT 9999 VCRA BKN040 SCT046 11/04 Q1029 RMK PP000=
SPZO Feb2005-171200Z 00000KT 9999 SCT037 BKN043 11/07 Q1030 NOSIG RMK PP000=
SPZO Feb2005-171300Z 10003KT 070V170 9999 SCT033 SCT043 BKN053 11/06 Q1031 NOSIG RMK PP000=
SPZO Feb2005-171400Z 14002KT 070V200 9999 FEW037 SCT043 BKN080 13/07 Q1031 NOSIG RMK PP000=
SPZO Feb2005-171500Z VRB02KT 9999 FEW037 BKN043 BKN080 14/05 Q1031 NOSIG RMK PP000=
SPZO Feb2005-171600Z 13004KT 090V190 9999 VCSH FEW037 BKN043 BKN060 15/07 Q1030 NOSIG RMK PP000=
SPZO Feb2005-171700Z 36008KT 270V080 9999 FEW037 BKN043 BKN080 15/05 Q1030 NOSIG RMK PP000=
SPZO Feb2005-171800Z 03009KT 340V080 9999 BKN043 BKN080 16/05 Q1029 NOSIG RMK PP000=
SPZO Feb2005-171900Z 01015KT 340V080 9999 SCT043 SCT080 16/05 Q1028 NOSIG RMK PP000=
SPZO Feb2005-172000Z VRB09KT 9999 SCT043 SCT060 16/04 Q1027 NOSIG RMK PP000=
SPZO Feb2005-172100Z 01011KT 340V080 9999 SCT043 SCT060 16/05 Q1027 NOSIG RMK PP000=
SPZO Feb2005-172200Z 36010KT 340V080 9999 BKN043 14/05 Q1028 NOSIG RMK PP000 TMAX 16.6=
SPZO Feb2005-172300Z 35006KT 340V080 9999 SCT043 SCT100 14/04 Q1028 NOSIG RMK PP000=
SPZO Feb2005-180000Z 01008KT 340V080 9999 BKN050 13/04 Q1029 RMK PP000=
SPZO Feb2005-180100Z 01006KT 280V080 9999 BKN050 13/04 Q1031 RMK PP000=
SPZO Feb2005-180200Z 09004KT 360V170 9999 BKN050 12/04 Q1032 RMK PP000=
SPZO Feb2005-180300Z 36005KT 270V080 9999 OVC050 12/04 Q1032 RMK PP000=
SPZO Feb2005-180400Z 36007KT 9999 OVC050 12/04 Q1032 RMK PP000=
SPZO Feb2005-180500Z 09004KT 9999 OVC050 10/06 Q1032 RMK PP000=
SPZO Feb2005-180600Z 08002KT 9999 OVC050 11/05 Q1031 RMK PP000=
SPZO Feb2005-180700Z VRB02KT 9999 OVC050 09/06 Q1031 RMK PP000=
SPZO Feb2005-180800Z 08003KT 9999 OVC050 09/06 Q1030 RMK PP000=
SPZO Feb2005-180900Z 28003KT 9999 OVC060 09/06 Q1030 RMK PP000=
SPZO Feb2005-181000Z 26003KT 9999 OVC060 10/06 Q1030 RMK PP000=
SPZO Feb2005-181100Z 16003KT 9999 OVC060 09/06 Q1031 RMK PP000=
SPZO Feb2005-181200Z 23002KT 9999 FEW030 SCT043 BKN053 11/06 Q1032 NOSIG RMK PP000=
SPZO Feb2005-181300Z VRB01KT 9999 SCT043 BKN080 12/05 Q1032 NOSIG RMK PP000=
SPZO Feb2005-181400Z 00000KT 9999 SCT043 BKN080 14/05 Q1033 NOSIG RMK PP000=
SPZO Feb2005-181500Z 10004KT 070V170 9999 SCT043 BKN080 15/04 Q1033 NOSIG RMK PP000=
SPZO Feb2005-181600Z 01009KT 350V080 9999 BKN043 SCT080 14/03 Q1033 NOSIG RMK PP000=
SPZO Feb2005-181700Z VRB02KT 9999 BKN043 BKN100 16/05 Q1032 NOSIG NOSIG RMK PP000=
SPZO Feb2005-181800Z 02012KT 340V080 9999 SCT043 BKN100 16/06 Q1031 NOSIG RMK PP000=
SPZO Feb2005-181900Z 02011KT 340V080 9999 FEW043 BKN050 16/06 Q1030 NOSIG RMK PP000 RWY10 05015G28KT=
SPZO Feb2005-182000Z 03008KT 350V110 9999 SCT050 17/06 Q1029 NOSIG RMK PP000 RWY10 06008G21KT=
SPZO Feb2005-182100Z 14006KT 070V190 9999 SCT050 17/05 Q1028 NOSIG RMK PP000 RWY10 10008KT=
SPZO Feb2005-182200Z VRB03KT 9999 SCT050 17/05 Q1028 NOSIG RMK PP000 RWY10 01010KT TMX:17.7=
SPZO Feb2005-182300Z 10009KT 070V170 9999 FEW050 14/05 Q1028 NOSIG RMK PP000 RWY10 02009KT=
SPZO Feb2005-190000Z 00000KT 9999 SCT050 14/05 Q1029 RMK PP000=
SPZO Feb2005-190100Z 00000KT 9999 SCT050 12/06 Q1030 RMK PP000=
SPZO Feb2005-190200Z 08004KT 9999 SCT050 10/06 Q1031 RMK PP000=
SPZO Feb2005-190300Z 05002KT 9999 SCT050 10/06 Q1032 RMK PP000=
SPZO Feb2005-190400Z 00000KT 9999 SCT050 09/06 Q1032 RMK PP000=
SPZO Feb2005-190500Z 16003KT 9999 SCT050 09/06 Q1032 RMK PP000=
SPZO Feb2005-190600Z 26002KT 9999 BKN050 09/06 Q1031 RMK PP000=
SPZO Feb2005-190700Z 10003KT 9999 BKN050 09/06 Q1030 RMK PP000=
SPZO Feb2005-190800Z 07002KT 9999 BKN050 10/06 Q1030 RMK PP000=
SPZO Feb2005-190900Z 00000KT 9999 OVC050 10/06 Q1030 RMK PP000=
SPZO Feb2005-191000Z 00000KT 9999 OVC050 10/06 Q1030 RMK PP000=
SPZO Feb2005-191100Z 10002KT 9999 OVC050 10/07 Q1031 RMK PP000=
SPZO Feb2005-191200Z 00000KT 9999 FEW043 BKN050 11/07 Q1031 NOSIG RMK PP000=
SPZO Feb2005-191300Z VRB02KT 9999 FEW040 BKN046 12/06 Q1032 NOSIG RMK PP000=
SPZO Feb2005-191400Z VRB02KT 9999 FEW040 BKN050 13/06 Q1032 NOSIG RMK PP000=
SPZO Feb2005-191500Z VRB02KT 9999 FEW040 BKN050 15/04 Q1032 NOSIG RMK PP000=
SPZO Feb2005-191600Z VRB02KT 9999 FEW040 BKN050 16/05 Q1032 NOSIG RMK PP000 RWY10 17006KT=
SPZO Feb2005-191700Z 26008KT 280V080 9999 BKN050 17/03 Q1031 NOSIG RMK PP000 RWY10 01015G25KT RA CDTE E=
SPZO Feb2005-191800Z VRB06KT 9999 BKN050 17/04 Q1030 NOSIG RMK PP000 RWY10 05016G30KT=
SPZO Feb2005-191900Z 35008KT 9999 SCT050 19/05 Q1029 NOSIG RMK PP000 RWY10 04010G22KT=
SPZO Feb2005-192000Z 33008KT 270V010 9999 FEW050 19/05 Q1027 NOSIG RMK PP000 RWY10 06016G26KT=
SPZO Feb2005-192100Z 36006KT 270V080 9999 FEW050 19/03 Q1026 NOSIG RMK PP000=
SPZO Feb2005-192200Z 01007KT 340V080 9999 FEW050 18/05 Q1026 NOSIG RMK PP000 RWY10 02012G24KT TMX:19.2=
SPZO Feb2005-192300Z 01009KT 340V080 9999 FEW046 16/04 Q1027 NOSIG RMK PP000 RWY10 01011G21KT=
SPZO Feb2005-200000Z 14004KT 9999 SCT040 SCT050 15/04 Q1029 RMK PP000=
SPZO Feb2005-200100Z VRB01KT 9999 FEW040 SCT060 14/05 Q1030 RMK PP000=
SPZO Feb2005-200200Z 00000KT 9999 FEW040 SCT100 13/06 Q1031 RMK PP000=
SPZO Feb2005-200300Z 00000KT 9999 FEW040 SCT050 12/05 Q1031 RMK PP000=
SPZO Feb2005-200400Z 00000KT 9999 SCT100 12/06 Q1032 RMK PP000=
SPZO Feb2005-200500Z 00000KT 9999 SCT050 12/06 Q1032 RMK PP000=
SPZO Feb2005-200600Z 00000KT 9999 FEW040 SCT060 11/06 Q1030 RMK PP000=
SPZO Feb2005-200700Z 00000KT 9999 SCT040 SCT050 10/07 Q1030 RMK PP000=
SPZO Feb2005-200800Z 00000KT 9999 SCT040 SCT060 11/07 Q1030 RMK PP000=
SPZO Feb2005-200900Z VRB03KT 9999 SCT040 SCT080 11/07 Q1030 RMK PP000=
SPZO Feb2005-201000Z VRB02KT 9999 VCRA BKN040 SCT046 10/08 Q1030 RMK PP000=
SPZO Feb2005-201100Z VRB01KT 9999 -DZ BKN040 SCT070 10/07 Q1031 RMK PP002=
SPZO Feb2005-201200Z VRB03KT 9999 -DZ FEW036 OVC050 10/08 Q1032 NOSIG RMK PPTRZ RWY10 10006KT=
SPZO Feb2005-201300Z VRB03KT 9999 -DZ FEW036 OVC050 12/08 Q1033 NOSIG RMK PPTRZ RWY10 11008KT=
SPZO Feb2005-201400Z 09005KT 9999 -DZ FEW030 SCT043 BKN050 12/07 Q1033 NOSIG RMK PPTRZ RWY10 10010KT=
SPZO Feb2005-201500Z VRB02KT 9999 -DZ FEW036 BKN046 13/07 Q1033 NOSIG RMK PPTRZ RWY10 11007KT=
SPZO Feb2005-201600Z VRB02KT 9999 -RA FEW033 OVC046 12/07 Q1033 NOSIG RMK PP004=
SPZO Feb2005-201700Z VRB02KT 9999 -RA FEW036 OVC080 14/06 Q1032 NOSIG RMK PP002=
SPZO Feb2005-201800Z VRB03KT 9999 RERA FEW036 BKN080 15/08 Q1031 NOSIG RMK PP002=
SPZO Feb2005-201900Z 00000KT 9999 VCSH SCT030 BKN043 BKN047 15/07 Q1030 NOSIG RMK PP000=
SPZO Feb2005-202000Z 28014KT 270V350 9999 VCSH SCT030 SCT043 BKN053 14/08 Q1029 RERA NOSIG RMK PP002=
SPZO Feb2005-202100Z 28010KT 270V350 9999 VCSH SCT033 SCT043 BKN053 15/08 Q1029 NOSIG RMK PP000=
SPZO Feb2005-202200Z 28009KT 260V350 9999 SCT043 BKN060 14/08 Q1028 NOSIG RMK PP000 TMAX 15.5=
SPZO Feb2005-202300Z 28009KT 250V350 9999 FEW030 BKN047 14/08 Q1029 NOSIG RMK PP000=
SPZO Feb2005-210000Z 29014KT 9999 SCT033 BKN043 13/07 Q1030 RMK PP000=
SPZO Feb2005-210100Z 28011KT 9999 FEW040 SCT080 12/06 Q1031 RMK PP000=
SPZO Feb2005-210200Z 27009KT 9999 FEW040 SCT050 12/06 Q1032 RMK PP000=
SPZO Feb2005-210300Z 26005KT 9999 SCT040 SCT060 12/06 Q1032 RMK PP000=
SPZO Feb2005-210400Z 00000KT 9999 SCT050 12/07 Q1032 RMK PP000=
SPZO Feb2005-210500Z VRB03KT 9999 FEW040 SCT050 11/07 Q1032 RMK PP000=
SPZO Feb2005-210600Z 00000KT 9999 SCT040 SCT050 10/08 Q1032 RMK PP000=
SPZO Feb2005-210700Z 00000KT 9999 FEW040 SCT050 10/08 Q1031 RMK PP000=
SPZO Feb2005-210800Z 00000KT 9999 -RA BKN040 SCT050 10/08 Q1031 RMK PP004=
SPZO Feb2005-210900Z 00000KT 9999 FEW030 OVC040 10/08 Q1031 RNK PP004=
SPZO Feb2005-211000Z VRB02KT 9999 VCRA FEW020 SCT030 BKN046 09/08 Q1031 RMK CLNG BLW 1200M PP0000=
SPZO Feb2005-211100Z VRB02KT 9000 -DZ FEW020 SCT037 BKN046 09/08 Q1031 RMK CLNG BLW 1200M PP002=
SPZO Feb2005-211200Z 10004KT 080V170 9000 -DZ VCSH FEW015 SCT033 OVC047 10/08 Q1032 TEMPO FM1240 9999 NSW SCT020 SCT040 OVC060 RMK CLNG BLW 1200M PP002=
SPZO Feb2005-211300Z 10002KT 070V170 7000 -RA VCSH FEW015 SCT033 OVC060 10/08 Q1033 TEMPO 9000 -DZ RMK CLNG BLW 1200M PP004=
SPZO Feb2005-211400Z 10003KT 080V190 9999 -RA FEW025 SCT037 OVC060 11/07 Q1033 TEMPO 9000 RMK PP002=
SPZO Feb2005-211500Z VRB01KT 8000 RA VCSH FEW025 SCT037 OVC060 12/08 Q1033 TEMPO 7000 FM1530 9000 RMK PP002=
SPZO Feb2005-211600Z 09003KT 360V170 9000 -RA VCSH SCT037 SCT040 OVC060 12/08 Q1033 TEMPO 8000 RMK PP004=
SPZO Feb2005-211700Z 10003KT 360V170 9000 -RA VCSH SCT037 SCT040 OVC080 12/09 Q1033 TEMPO 9999 RMK PP008=
SPZO Feb2005-211800Z VRB02KT 9999 -DZ VCSH SCT037 SCT043 OVC080 14/08 Q1031 NOSIG RMK PPTRZ=
SPZO Feb2005-211900Z VRB02KT 9999 VCSH SCT037 BKN060 14/10 Q1030 RERA NOSIG RMK PP004=
SPZO Feb2005-230000Z 05002KT 9999 SCT040 SCT070 13/08 Q1028 RMK PP000=
SPZO Feb2005-230100Z 00000KT 9999 BKN040 13/08 Q1028 RMK PP000=
SPZO Feb2005-230200Z 00000KT 9999 BKN040 12/09 Q1029 RMK PP000=
SPZO Feb2005-230300Z 00000KT 8000 -RA SCT030 BKN040 12/09 Q1030 RMK PP002=
SPZO Feb2005-230400Z 00000KT 8000 -RA FEW030 BKN040 12/09 Q1030 RMK PP002=
SPZO Feb2005-230500Z 00000KT 9000 FEW030 BKN040 11/10 Q1030 RERA RMK PPTRZ=
SPZO Feb2005-230600Z 19004KT 5000 RA FEW030 OVC040 11/09 Q1030 RMK PP018=
SPZO Feb2005-230700Z 02002KT 5000 +RA FEW030 OVC040 09/06 Q1030 RMK PP044=
SPZO Feb2005-230800Z 00000KT 6000 -RA FEW030 OVC040 09/06 Q1030 RMK PP006=
SPZO Feb2005-230900Z 00000KT 6000 -RA FEW030 OVC040 09/06 Q1031 RMK PP010=
SPZO Feb2005-231000Z 00000KT 6000 -RA FEW030 OVC040 08/06 Q1031 RMK PP008=
SPZO Feb2005-231100Z 08002KT 7000 -RA SCT030 OVC040 08/06 Q1032 RMK PP010=
SPZO Feb2005-231200Z 00000KT 9999 DZ FEW030 OVC050 08/06 Q1033 NOSIG RMK PPTRZ=
SPZO Feb2005-231300Z VRB02KT 9000 -RA SCT036 OVC046 09/07 Q1034 NOSIG RMK PP004 RWY10 12008KT=
SPZO Feb2005-231400Z VRB02KT 9999 REDZ FEW043 BKN060 10/06 Q1034 NOSIG RMK PPTRZ=
SPZO Feb2005-231500Z VRB03KT 9999 FEW040 BKN060 12/05 Q1034 NOSIG RMK PP000=
SPZO Feb2005-231600Z VRB03KT 9999 BKN050 15/06 Q1033 NOSIG RMK PP000=
SPZO Feb2005-231700Z VRB03KT 9999 SCT050 16/06 Q1032 NOSIG RMK PP000=
SPZO Feb2005-231800Z 10007KT 070V170 9999 SCT050 18/07 Q1030 NOSIG RMK PP000 RWY10 12013KT=
SPZO Feb2005-231900Z 05005KT 340V110 9999 BKN050 18/03 Q1029 NOSIG RMK PP000 RWY10 11010KT=
SPZO Feb2005-232000Z VRB03KT 9999 BKN050 19/06 Q1028 NOSIG RMK PP000=
SPZO Feb2005-232100Z VRB02KT 9999 BKN050 19/04 Q1027 NOSIG RMK PP000=
SPZO Feb2005-232200Z 30009KT 250V350 9999 SCT050 19/05 Q1026 NOSIG RMK PP000 RWY10 30014KT TMX:20.4=
SPZO Feb2005-232300Z 30006KT 260V350 9999 FEW050 18/04 Q1027 NOSIG RMK PP000 RWY10 30013KT=
SPZO Feb2005-240000Z 28004KT 9999 FEW050 14/06 Q1027 RMK PP000=
SPZO Feb2005-240100Z VRB01KT 9999 FEW050 12/07 Q1029 RMK PP000=
SPZO Feb2005-240200Z VRB03KT 9999 FEW100 11/07 Q1030 RMK PP000=
SPZO Feb2005-240300Z VRB03KT 9999 FEW100 11/07 Q1031 RMK PP000=
SPZO Feb2005-240400Z 00000KT 9999 FEW080 10/07 Q1031 RMK PP000=
SPZO Feb2005-240500Z 00000KT 9999 FEW050 09/06 Q1031 RMK PP000=
SPZO Feb2005-240600Z 00000KT 9999 SCT050 09/07 Q1031 RMK PP000=
SPZO Feb2005-240700Z 00000KT 9999 SCT040 SCT100 09/07 Q1031 RMK PP000=
SPZO Feb2005-240800Z 00000KT 9999 SCT040 SCT080 09/07 Q1030 RMK PP000=
SPZO Feb2005-240900Z VEB02KT 9999 SCT040 SCT070 08/07 Q1030 RMK PP000=
SPZO Feb2005-241000Z VRB02KT 9999 BKN040 SCT046 09/07 Q1031 RMK PP000=
SPZO Feb2005-241100Z 00000KT 9999 VCRA FEW030 SCT040 BKN046 10/08 Q1032 RMK PP000=
SPZO Feb2005-241200Z 27003KT 9999 DZ SCT036 SCT050 11/08 Q1033 BECMG FM13 NSW RMK PP004=
SPZO Feb2005-241300Z VRB01KT 9999 SCT040 SCT050 12/08 Q1034 NOSIG RMK PPTRZ=
SPZO Feb2005-241400Z VRB02KT 9999 FEW036 BKN050 14/09 Q1034 NOSIG RMK PP000=
SPZO Feb2005-241500Z VRB03KT 9999 SCT046 16/07 Q1034 NOSIG RMK PP000 RWY10 10006KT=
SPZO Feb2005-241600Z VRB03KT 9999 BKN046 18/09 Q1033 NOSIG RMK PP000=
SPZO Feb2005-241700Z VRB03KT 9999 FEW043 BKN050 19/07 Q1031 NOSIG RMK PP000 RWY10 25007KT RA CDTE NE=
SPZO Feb2005-241800Z VRB02KT 9999 FEW043 BKN050 19/07 Q1030 NOSIG RMK PP000=
SPZO Feb2005-241900Z 01012KT 340V080 9999 VCSH FEW030 BKN043 17/07 Q1029 NOSIG RMK PP000=
SPZO Feb2005-242000Z 01010KT 340V080 9999 VCSH FEW030 BKN043 16/06 Q1029 NOSIG RMK PP000=
SPZO Feb2005-242100Z 31005KT 250V020 9999 SCT043 SCT080 17/06 Q1028 NOSIG RMK PP000=
SPZO Feb2005-242200Z 26009KT 9999 SCT043 SCT060 15/07 Q1029 NOSIG RMK PP000 TMAX 20.4=
SPZO Feb2005-242300Z 27002KT 9999 SCT043 SCT060 15/07 Q1029 NOSIG RMK PP000=
SPZO Feb2005-250000Z VRB01KT 9999 FEW043 SCT080 14/08 Q1030 RMK PP000=
SPZO Feb2005-250100Z VRB02KT 9999 FEW050 SCT100 12/08 Q1031 RMK PP000=
SPZO Feb2005-250200Z 00000KT 9999 FEW100 12/08 Q1032 RMK PP000=
SPZO Feb2005-250300Z VRB02KT 9999 FEW050 SCT100 11/08 Q1033 RMK PP000=
SPZO Feb2005-250400Z 00000KT 9999 FEW040 BKN080 10/08 Q1033 RMK PP000=
SPZO Feb2005-250500Z 00000KT 9999 SCT040 SCT080 10/08 Q1033 RMK PP000=
SPZO Feb2005-250600Z 00000KT 9999 SCT040 SCT070 10/08 Q1033 RMK PP000=
SPZO Feb2005-250700Z 00000KT 9999 BKN040 SCT070 10/08 Q1032 RMK PP000=
SPZO Feb2005-250800Z 00000KT 9999 BKN040 SCT070 10/08 Q1032 RMK PP000=
SPZO Feb2005-250900Z 00000KT 9999 BKN040 SCT070 10/07 Q1031 RMK PP000=
SPZO Feb2005-251000Z 00000KT 9999 SCT040 SCT080 09/07 Q1031 RMK PP000=
SPZO Feb2005-251100Z 00000KT 9999 SCT040 SCT080 09/07 Q1032 RMK PP000=
SPZO Feb2005-251200Z 00000KT 9999 BKN040 BKN060 10/08 Q1033 NOSIG RMK PP000=
SPZO Feb2005-251300Z VRB02KT 9999 FEW040 SCT060 OVC100 11/07 Q1034 NOSIG RMK PP000=
SPZO Feb2005-251400Z 00000KT 9999 FEW037 BKN100 OVC300 14/07 Q1034 NOSIG RMK PP000=
SPZO Feb2005-251500Z 08004KT 360V110 9999 FEW037 BKN060 OVC300 16/07 Q1034 NOSIG RMK PP000=
SPZO Feb2005-251600Z 10005KT 070V170 9999 FEW037 SCT060 OVC300 17/06 Q1033 NOSIG RMK PP000=
SPZO Feb2005-251700Z VRB02KT 9999 FEW037 BKN060 18/07 Q1032 NOSIG RMK PP000=
SPZO Feb2005-251800Z VRB02KT 9999 SCT037 BKN080 19/07 Q1031 NOSIG RMK PP000=
SPZO Feb2005-251900Z VRB04KT 9999 SCT043 BKN300 20/06 Q1029 NOSIG RMK PP000=
SPZO Feb2005-252000Z VRB02KT 9999 FEW040 SCT043 20/05 Q1028 NOSIG RMK PP000=
SPZO Feb2005-252100Z 00000KT 9999 BKN043 20/05 Q1027 NOSIG RMK PP000=
SPZO Feb2005-252200Z 01007KT 340V070 9999 BKN043 19/07 Q1027 NOSIG RMK PP000 TMAX 22.3=
SPZO Feb2005-252300Z 12004KT 070V180 9999 SCT043 SCT100 17/08 Q1028 NOSIG RMK PP000=
SPZO Feb2005-260000Z 00000KT 9999 SCT050 SCT100 16/08 Q1029 RMK PP000=
SPZO Feb2005-260100Z 28005KT 250V350 9999 BKN050 15/08 Q1030 RMK PP000=
SPZO Feb2005-260200Z 00000KT 9999 BKN050 15/09 Q1031 RMK PP000=
SPZO Feb2005-260300Z 09004KT 9999 OVC050 12/09 Q1032 RMK PP000=
SPZO Feb2005-260400Z 00000KT 9999 OVC050 12/09 Q1032 RMK PP000=
SPZO Feb2005-260500Z 25004KT 9999 OVC050 13/08 Q1031 RMK PP000=
SPZO Feb2005-260600Z 10002KT 9999 OVC050 11/08 Q1031 RMK PP000=
SPZO Feb2005-260700Z 00000KT 9999 OVC050 09/06 Q1030 RMK PP000=
SPZO Feb2005-260800Z 00000KT 9999 OVC050 09/07 Q1030 RMK PP000=
SPZO Feb2005-260900Z 00000KT 9999 BKN050 SCT070 08/06 Q1030 RMK PP000=
SPZO Feb2005-261000Z 00000KT 9999 SCT050 SCT070 08/06 Q1030 RMK PP000=
SPZO Feb2005-261100Z 00000KT 9999 SCT050 SCT070 08/06 Q1031 RMK PP000=
SPZO Feb2005-261200Z 00000KT 9000 FEW037 BKN043 10/08 Q1032 BECMG 9999 RMK HZ PP000=
SPZO Feb2005-261300Z 00000KT 9999 FEW043 SCT100 13/08 Q1032 NOSIG RMK PP000=
SPZO Feb2005-261400Z VRB03KT 9999 FEW043 15/08 Q1032 NOSIG RMK PP000=
SPZO Feb2005-261500Z 11004KT 070V200 9999 SCT043 18/07 Q1032 NOSIG RMK PP000=
SPZO Feb2005-261600Z VRB02KT 9999 SCT043 20/06 Q1031 NOSIG RMK PP000=
SPZO Feb2005-261700Z 00000KT 9999 SCT043 21/05 Q1030 NOSIG RMK PP000=
SPZO Feb2005-261800Z VRB05KT 9999 SCT047 22/07 Q1029 NOSIG RMK PP000=
SPZO Feb2005-261900Z VRB07KT 9999 BKN050 23/06 Q1027 NOSIG RMK PP000 RWY10 06007KT=
SPZO Feb2005-262000Z 29005KT 180V350 9999 BKN050 24/06 Q1026 NOSIG RMK PP000=
SPZO Feb2005-262100Z 01008KT 340V080 9999 SCT050 22/08 Q1025 NOSIG RMK PP000 RWY10 03016G32KT=
SPZO Feb2005-262200Z 30009KT 320V070 9999 SCT050 20/07 Q1025 NOSIG RMK PP000 RWY10 02015G28KT TMX:24.3=
SPZO Feb2005-262300Z 14008KT 090V170 9999 SCT050 19/07 Q1026 NOSIG RMK PP000 RWY10 05010KT=
SPZO Feb2005-270000Z VRB03KT 9999 SCT050 17/07 Q1028 RMK PP000=
SPZO Feb2005-270100Z 08004KT 360V170 9999 SCT050 15/08 Q1028 RMK PP000=
SPZO Feb2005-270200Z 09002KT 060V120 9999 SCT050 14/08 Q1030 RMK PP000=
SPZO Feb2005-270300Z VRB03KT 9999 BKN050 13/08 Q1030 RMK PP000=
SPZO Feb2005-270400Z 09005KT 9999 BKN050 13/08 Q1030 RMK PP000=
SPZO Feb2005-270500Z 00000KT 9999 BKN050 13/09 Q1030 RMK PP000=
SPZO Feb2005-270600Z 11005KT 090V170 8000 -DZ OVC040 12/09 Q1030 RMK PP002=
SPZO Feb2005-270700Z 07004KT 360V100 9000 OVC040 12/09 Q1029 REDZ RMK PP002=
SPZO Feb2005-270800Z 10002KT 9999 OVC040 12/09 Q1029 RMK PP000=
SPZO Feb2005-270900Z 10008KT 080V170 9999 OVC040 11/09 Q1029 RMK PP000=
SPZO Feb2005-271000Z 10009KT 070V170 9999 OVC040 11/08 Q1030 RMK PP000=
SPZO Feb2005-271100Z 10002KT 020V180 9000 FEW030 OVC040 10/08 Q1030 RERA RMK PP006=
SPZO Feb2005-271200Z 00000KT 9000 VCRA FEW036 BKN046 10/08 Q1031 TEMPO -RA RMK PP000=
SPZO Feb2005-271300Z VRB03KT 9999 REDZ FEW030 SCT040 BKN046 10/08 Q1032 NOSIG RMK PP008 BCBR CDTE NE=
SPZO Feb2005-271400Z VRB03KT 9999 FEW036 SCT046 13/08 Q1033 NOSIG RMK PP000 BCBR CDTE NE=
SPZO Feb2005-271500Z 09006KT 010V110 9999 SCT046 15/09 Q1032 NOSIG RMK PP000 RWY10 11007KT=
SPZO Feb2005-271600Z VRB02KT 9999 SCT046 17/08 Q1031 NOSIG RMK PP000 RWY10 10007KT=
SPZO Feb2005-271700Z VRB03KT 9999 SCT050 20/06 Q1030 NOSIG RM PP000 RWY10 11008KT=
SPZO Feb2005-271800Z VRB05KT 9999 SCT050 21/06 Q1028 NOSIG RMK PP000 RWY10 12011KT=
SPZO Feb2005-271900Z VRB06KT 9999 TS FEW043CB BKN050 19/07 Q1027 TEMPO=
SPZO Feb2005-272000Z 36011KT 340V080 9999 FEW046 BKN080 18/07 Q1027 NOSIG RMK PP000 RWY10 04017G36KT=
SPZO Feb2005-272100Z 36009KT 9999 FEW046 BKN080 18/07 Q1026 NOSIG RMK PP000 RWY10 01009G20KT=
SPZO Feb2005-272200Z 34005KT 270V020 9999 FEW046 BKN120 18/06 Q1026 NOSIG RMK PP000 RWY10 01009KT TMX:21.4=
SPZO Feb2005-272300Z VRB02KT 9999 SCT046 18/07 Q1027 NOSIG RMK PP000 RWY10 01015KT=
SPZO Feb2005-280000Z VRB03KT 9999 SCT043 SCT050 16/07 Q1028 RMK PP000=
SPZO Feb2005-280100Z 22017KT 9999 -RA SCT037TCU BKN043 14/04 Q1031 RMK PPTRZ=
SPZO Feb2005-280200Z 16004KT 9999 OVC040 10/07 Q1033 RMK PP012=
SPZO Feb2005-280300Z 09004KT 9999 OVC040 10/07 Q1033 RMK PP008=
SPZO Feb2005-280400Z 00000KT 9999 BKN040 SCT070 10/07 Q1033 RMK PP002=
SPZO Feb2005-280500Z VRB02KT 9999 -DZ OVC040 10/07 Q1033 RMK PP002=
SPZO Feb2005-280600Z 00000KT 9999 BKN040 10/07 Q1034 RMK PPTRZ=
SPZO Feb2005-280700Z 09004KT 9999 SCT040 08/06 Q1031 RMK PP000=
SPZO Feb2005-280800Z 00000KT 9999 FEW030 SCT046 08/06 Q1031 RMK PP000=
SPZO Feb2005-280900Z 00000KT 9999 SCT040 SCT070 07/06 Q1032 RMK PP000=
SPZO Feb2005-281000Z 00000KT 9999 SCT040 SCT080 08/07 Q1032 RMK PP000=
SPZO Feb2005-281100Z VRB02KT 9999 SCT040 SCT070 08/06 Q1032 RMK PP000=
SPZO Feb2005-281200Z VRB03KT 9999 BKN050 09/07 Q1033 NOSIG RMK PP000 RWY10 11008KT=
SPZO Feb2005-281300Z VRB01KT 9999 FEW050 12/08 Q1033 NOSIG RMK PP000=
SPZO Feb2005-281400Z VRB02KT 9999 SCT050 14/08 Q1033 NOSIG RMK PP000=
SPZO Feb2005-281500Z VRB03KT 9999 SCT050 17/07 Q1033 NOSIG RMK PP000=
SPZO Feb2005-281600Z VRB02KT 9999 SCT050 19/07 Q1032 NOSIG RMK PP000=
SPZO Feb2005-281700Z VRB02KT 9999 SCT050 21/04 Q1030 NOSIG RMK PP000 RWY10 33006KT=
SPZO Feb2005-281800Z VRB04KT 9999 SCT050 22/04 Q1029 NOSIG RMK PP000 RWY10 19007KT=
SPZO Feb2005-281900Z VRB02KT 9999 FEW043 SCT047 22/03 Q1028 TEMPO FEW043TCU SCT047 RMK PP000=
SPZO Feb2005-282000Z 32012KT 250V020 9999 -TSRA VCSH SCT043CB SCT047 19/03 Q1028 TEMPO 8000 TSRA BKN043CB SCT047 RMK PPTRZ=
SPZO Feb2005-282100Z VRB04KT 9999 SCT043 BKN060 15/08 Q1028 NOSIG RMK PP020=
SPZO Feb2005-282200Z 08004KT 360V170 9999 SCT043 BKN100 16/07 Q1028 NOSIG RMK PP000 TMAX 22.7=
SPZO Feb2005-282300Z 10004KT 080V170 9999 SCT060 BKN300 15/07 Q1028 NOSIG RMK PP000=
SPZO Mar2005-010000Z VRB01KT 9999 FEW043 SCT300 13/06 Q1029 RMK PP000=
SPZO Mar2005-010100Z VRB03KT 9999 FEW050 11/08 Q1030 RMK PP000=
SPZO Mar2005-010200Z VRB01KT 9999 FEW050 11/08 Q1031 RMK PP000=
SPZO Mar2005-010300Z VRB03KT 9999 FEW040 SCT070 11/08 Q1032 RMK PP000=
SPZO Mar2005-010400Z 00000KT 9999 FEW040 SCT050 10/07 Q1033 RMK PP000=
SPZO Mar2005-010500Z 00000KT 9999 SCT040 SCT046 10/08 Q1033 RMK PP000=
SPZO Mar2005-010600Z 00000KT 9999 SCT037 SCT046 10/08 Q1032 RMK PP000=
SPZO Mar2005-010700Z 00000KT 9999 BKN040 SCT070 10/08 Q1031 RMK PP000=
SPZO Mar2005-010800Z 00000KT 9999 BKN040 SCT050 10/08 Q1031 RMK PP000=
SPZO Mar2005-010900Z 00000KT 9999 BKN040 SCT046 10/08 Q1031 RMK PP000=
SPZO Mar2005-011000Z 00000KT 9999 SCT040 SCT070 10/08 Q1032 RMK PP000=
SPZO Mar2005-011100Z 00000KT 9999 BKN040 SCT050 10/08 Q1032 RMK PP000=
SPZO Mar2005-011200Z 00000KT 8000 SCT043 SCT060 OVC100 10/09 Q1033 TEMPO 9000 RMK HZ PP000=
SPZO Mar2005-011300Z VRB02KT 9000 SCT043 SCT060 OVC100 12/09 Q1033 BECMG 9999 RMK HZ PP000=
SPZO Mar2005-011400Z 07003KT 360V110 9999 SCT043 BKN080 14/09 Q1034 NOSIG RMK PP000=
SPZO Mar2005-011500Z VRB02KT 9999 SCT043 SCT100 BKN300 17/08 Q1033 NOSIG RMK PP000=
SPZO Mar2005-011600Z VRB06KT 9999 FEW040 SCT043 18/08 Q1033 NOSIG RMK PP000=
SPZO Mar2005-011700Z VRB04KT 9999 FEW040 SCT047 19/07 Q1032 NOSIG RMK PP000=
SPZO Mar2005-011800Z 06003KT 350V110 9999 FEW033 BKN043 18/07 Q1030 TEMPO=
SPZO Mar2005-011900Z 28014KT 250V350 9999 FEW030 BKN043 BKN100 16/08 Q1030 NOSIG RMK PP000=
SPZO Mar2005-012000Z 28016KT 260V350 9999 VCSH FEW030 SCT043TCU BKN053 16/07 Q1030 TEMPO -RA RMK RWY10 28026G38KT 250V310 PP000=
SPZO Mar2005-012100Z 29008KT 260V350 9999 VCSH SCT043 SCT060 BKN080 15/07 Q1030 NOSIG RMK PP000=
SPZO Mar2005-012200Z 28005KT 260V350 9999 FEW040 BKN060 15/06 Q1030 NOSIG RMK PP000 TMAX 20.0=
SPZO Mar2005-012300Z 30005KT 250V020 9999 FEW030 SCT043 BKN080 14/07 Q1031 NOSIG RMK PP000=
SPZO Mar2005-020000Z 27007KT 9999 BKN050 SCT070 14/08 Q1032 RMK PP000=
SPZO Mar2005-020100Z 28004KT 260V350 9999 BKN050 14/07 Q1032 RMK PP000=
SPZO Mar2005-020200Z 27006KT 9999 BKN040 13/08 Q1033 RMK PP000=
SPZO Mar2005-020300Z 17003KT 100V240 8000 -RA SCT030 OVC040 12/09 Q1034 RMK PPTRZ=
SPZO Mar2005-020400Z 10006KT 080V170 9000 FEW030 OVC040 11/09 Q1034 RERA RMK PP004=
SPZO Mar2005-020500Z 10004KT 8000 -DZ OVC040 10/08 Q1034 RMK PPTRZ=
SPZO Mar2005-020600Z 10005KT 080V170 8000 -DZ OVC040 10/08 Q1034 RMK PP002=
SPZO Mar2005-020700Z 11003KT 8000 -DZ OVC040 10/08 Q1033 RMK PP002=
SPZO Mar2005-020800Z 09002KT 9000 OVC040 09/08 Q1033 REDZ RMK PP002=
SPZO Mar2005-020900Z 00000KT 9999 OVC040 09/07 Q1032 RMK PP000=
SPZO Mar2005-021000Z 00000KT 9999 OVC040 09/07 Q1032 RMK PP010=
SPZO Mar2005-021100Z 00000KT 9999 FEW030 SCT040 BKN070 09/08 Q1033 RMK PP000=
SPZO Mar2005-021200Z 00000KT 9999 FEW030 SCT100 BKN300 10/08 Q1033 NOSIG RMK PP000=
SPZO Mar2005-021300Z 00000KT 9999 FEW033 BKN300 13/09 Q1034 NOSIG RMK PP000=
SPZO Mar2005-021400Z VRB01KT 9999 SCT033 BKN080 15/07 Q1034 NOSIG RMK PP000=
SPZO Mar2005-021500Z VRB02KT 9999 SCT040 SCT080 17/09 Q1034 NOSIG RMK PP000=
SPZO Mar2005-021600Z VRB04KT 9999 SCT040 SCT080 18/09 Q1033 NOSIG RMK PP000=
SPZO Mar2005-021700Z VRB02KT 9999 SCT043 BKN080 19/06 Q1032 NOSIG RMK PP000=
SPZO Mar2005-021800Z 00000KT 9999 SCT043 SCT060 19/07 Q1030 NOSIG RMK PP000=
SPZO Mar2005-021900Z VRB03KT 9999 FEW040 SCT047 21/06 Q1029 NOSIG RMK PP000=
SPZO Mar2005-022000Z 35007KT 270V020 9999 BKN043 20/05 Q1028 NOSIG RMK PP000=
SPZO Mar2005-022100Z 29013KT 270V350 9999 -SHRA BKN043 SCT080 18/09 Q1028 TEMPO NSW RMK PTRZ=
SPZO Mar2005-022200Z 09006KT 360V110 9999 VCSH BKN043 16/08 Q1028 RESHRA NOSIG RMK PPTRZ TMAX 21.9=
SPZO Mar2005-022300Z 00000KT 9999 VCSH SCT047 SCT060 15/08 Q1029 NOSIG RMK PP000=
SPZO Mar2005-030000Z 10006KT 9999 BKN040 14/09 Q1030 RMK PP000=
SPZO Mar2005-030100Z 25004KT 9999 BKN040 14/09 Q1031 RMK PP000=
SPZO Mar2005-030200Z 10006KT 9999 BKN040 12/09 Q1032 RMK PP000=
SPZO Mar2005-030300Z 08002KT 9999 BKN040 13/07 Q1033 RMK PP000=
SPZO Mar2005-030400Z 00000KT 9999 BKN040 12/07 Q1033 RMK PP000=
SPZO Mar2005-030500Z 09002KT 9999 BKN040 12/08 Q1033 RMK PP000=
SPZO Mar2005-030600Z 00000KT 9999 BKN040 10/06 Q1032 RMK PP000=
SPZO Mar2005-030700Z 28005KT 9999 BKN040 09/06 Q1032 RMK PP000=
SPZO Mar2005-030800Z 00000KT 9999 BKN040 09/06 Q1032 RMK PP000=
SPZO Mar2005-030900Z 00000KT 9999 BKN040 09/06 Q1031 RMK PP000=
SPZO Mar2005-031000Z 00000KT 9999 BKN040 10/06 Q1032 RMK PP000=
SPZO Mar2005-031100Z 00000KT 9999 BKN040 10/07 Q1032 RMK PP000=
SPZO Mar2005-031200Z 15002KT 070V190 9999 SCT040 BKN060 10/08 Q1033 NOSIG RMK PP000=
SPZO Mar2005-031300Z 00000KT 9999 SCT043 BKN053 12/07 Q1034 NOSIG RMK PP000=
SPZO Mar2005-031400Z 09004KT 9999 VCSH SCT043 BKN053 13/08 Q1034 NOSIG RMK PP000=
SPZO Mar2005-031500Z VRB02KT 9999 SCT043 BKN053 14/08 Q1034 NOSIG RMK PP000=
SPZO Mar2005-031600Z VRB02KT 9999 SCT043 BKN100 17/06 Q1034 NOSIG RMK PP000=
SPZO Mar2005-031700Z 00000KT 9999 SCT043 SCT080 19/08 Q1032 NOSIG RMK PP000=
SPZO Mar2005-031800Z 15006KT 080V200 9999 FEW043 SCT047 20/06 Q1031 NOSIG RMK PP000=
SPZO Mar2005-031900Z 08008KT 360V170 9999 FEW043 SCT047 19/07 Q1029 NOSIG RMK PP000=
SPZO Mar2005-032000Z VRB08KT 9999 FEW040 SCT047 20/07 Q1028 NOSIG RMK PP000=
SPZO Mar2005-032100Z 01013KT 340V080 9999 FEW040 SCT047 19/06 Q1028 NOSIG RMK PP000=
SPZO Mar2005-032200Z 02008KT 350V080 9999 SCT047 18/06 Q1028 NOSIG RMK PP000 TMAX 21.2=
SPZO Mar2005-032300Z 36008KT 340V080 9999 FEW030 BKN043 17/06 Q1029 NOSIG RMK PP000=
SPZO Mar2005-040000Z 08005KT 9999 BKN040 SCT050 15/07 Q1031 RMK PP000=
SPZO Mar2005-040100Z VRB03KT 9999 BKN040 SCT050 15/07 Q1032 RMK PP000=
SPZO Mar2005-040200Z VRB02KT 9999 SCT040 SCT050 14/07 Q1033 RMK PP000=
SPZO Mar2005-040300Z 18013KT 9999 -RA OVC040 12/06 Q1035 RMK PP002=
SPZO Mar2005-040400Z VRB03KT 9999 -RA SCT040 SCT046 10/07 Q1036 RMK PP006=
SPZO Mar2005-040500Z 00000KT 9999 -RA OVC040 09/07 Q1036 RMK PP014=
SPZO Mar2005-040600Z VRB03KT 9000 -RA OVC040 09/07 Q1035 RMK PP010=
SPZO Mar2005-040700Z 00000KT 9000 -RA BKN037 SCT046 10/07 Q1034 RMK PP012=
SPZO Mar2005-040800Z 00000KT 9999 SCT030 BKN040 10/07 Q1033 RMK PPTRZ=
SPZO Mar2005-040900Z 00000KT 9999 SCT030 BKN040 10/07 Q1033 RMK PP000=
SPZO Mar2005-041000Z VRB02KT 9999 SCT040 SCT050 10/07 Q1034 RMK PP000=
SPZO Mar2005-041100Z 10004KT 9999 FEW030 SCT040 08/07 Q1034 RMK PP000=
SPZO Mar2005-041200Z 00004KT 9999 FEW020 SCT037 BKN047 09/07 Q1035 NOSIG RMK PP000=
SPZO Mar2005-041300Z 08002KT 360V110 9999 FEW030 SCT037 BKN060 11/08 Q1036 TEMPO SCT033 BKN060 RMK PP000=
SPZO Mar2005-041400Z VRB02KT 9999 SCT033 15/08 Q1035 NOSIG RMK PP000=
SPZO Mar2005-041500Z VRB03KT 9999 SCT043 15/06 Q1035 NOSIG RMK PP000=
SPZO Mar2005-041600Z VRB02KT 9999 SCT043 SCT060 16/07 Q1034 NOSIG RKM PP000=
SPZO Mar2005-041700Z VRB03KT 9999 SCT047 19/05 Q1033 NOSIG RMK PP000=
SPZO Mar2005-041800Z VRB03KT 9999 SCT047 20/04 Q1031 NOSIG RMK PP000=
SPZO Mar2005-041900Z 00000KT 9999 FEW040 SCT050 21/03 Q1030 NOSIG RMK PP000=
SPZO Mar2005-042000Z VRB03KT 9999 FEW040 SCT050 21/03 Q1028 NOSIG RMK PP000=
SPZO Mar2005-042100Z VRB02KT 9999 SCT050 21/02 Q1028 NOSIG RMK PP000=
SPZO Mar2005-042200Z 31005KT 250V010 9999 SCT050 20/05 Q1027 NOSIG RMK PP000 TMAX 22.5=
SPZO Mar2005-042300Z 28008KT 260V350 9999 SCT043 19/08 Q1028 NOSIG RMK PP000=
SPZO Mar2005-050000Z 28007KT 9999 FEW040 SCT050 17/09 Q1029 RMK PP020=
SPZO Mar2005-050100Z 05004KT 9999 SCT040 SCT080 16/08 Q1031 RMK PP000=
SPZO Mar2005-050200Z VRB03KT 9999 SCT040 SCT070 15/07 Q1032 RMK PP000=
SPZO Mar2005-050300Z 27004KT 9000 -RA SCT037TCU BKN043 12/09 Q1034 RMK PP006=
SPZO Mar2005-050400Z 00000KT 9999 FEW030 OVC040 13/08 Q1034 RMK PP002=
SPZO Mar2005-050500Z 36012KT 9999 SCT040 SCT070 12/06 Q1034 RMK PP000=
SPZO Mar2005-050600Z 34006KT 9999 SCT040 SCT050 12/07 Q1033 RMK PP000=
SPZO Mar2005-050700Z 00000KT 9999 BKN040 SCT046 11/07 Q1033 RMK PP000=
SPZO Mar2005-050800Z VRB03KT 9999 BKN040 09/06 Q1033 RMK PP000=
SPZO Mar2005-050900Z 00000KT 9999 SCT040 SCT080 09/06 Q1033 RMK PP000=
SPZO Mar2005-051000Z 00000KT 9999 FEW040 SCT080 09/06 Q1033 RMK PP000=
SPZO Mar2005-051100Z 00000KT 9999 SCT043 08/06 Q1034 RMK PP000=
SPZO Mar2005-051200Z 09002KT 9999 FEW043 BKN100 09/07 Q1034 NOSIG RMK PP000=
SPZO Mar2005-051300Z VRB02KT 9999 FEW300 13/07 Q1035 NOSIG RMK PP000=
SPZO Mar2005-051400Z VRB02KT 9999 FEW300 14/06 Q1035 NOSIG RMK PP000=
SPZO Mar2005-051500Z VRB02KT 9999 FEW050 17/07 Q1035 NOSIG RMK PP000=
SPZO Mar2005-051600Z 36011KT 340V080 9999 FEW050 18/M01 Q1034 NOSIG RMK PP000=
SPZO Mar2005-051700Z 36010KT 270V080 9999 FEW050 19/M01 Q1034 NOSIG RMK PP000=
SPZO Mar2005-051800Z 32009KT 270V020 9999 FEW050 20/M01 Q1032 NOSIG RMK PP000=
SPZO Mar2005-051900Z 34006KT 260V020 9999 FEW050 21/02 Q1031 NOSIG RMK PP000=
SPZO Mar2005-052000Z 36011KT 340V080 9999 SCT300 20/02 Q1030 NOSIG RMK PP000=
SPZO Mar2005-052100Z 36009KT 340V080 9999 FEW043 BKN300 19/M01 Q1029 NOSIG RMK PP000=
SPZO Mar2005-052200Z 01009KT 340V080 9999 FEW050 SCT300 20/03 Q1029 NOSDIG RMK PP000 TMAX 20.8=
SPZO Mar2005-052300Z VRB04KT 9999 SCT300 19/M03 Q1030 NOSIG RMK PP000=
SPZO Mar2005-060000Z VRB04KT 9999 SCT050 15/03 Q1031 RMK PP000=
SPZO Mar2005-060100Z VRB02KT 9999 SCT050 13/04 Q1033 RMK PP000=
SPZO Mar2005-060200Z 08003KT 9999 SCT050 12/05 Q1034 RMK PP000=
SPZO Mar2005-060300Z 00000KT 9999 SCT050 11/05 Q1034 RMK PP000=
SPZO Mar2005-060400Z 28003KT 9999 SCT050 09/05 Q1035 RMK PP000=
SPZO Mar2005-060500Z 00000KT 9999 SCT050 08/04 Q1034 RMK PP000=
SPZO Mar2005-060600Z 00000KT 9999 SCT050 08/05 Q1034 RMK PP000=
SPZO Mar2005-060700Z 27003KT 9999 SCT050 07/04 Q1034 RMK PP000=
SPZO Mar2005-060800Z 00000KT 9999 SCT050 07/04 Q1033 RMK PP000=
SPZO Mar2005-060900Z 00000KT 9999 SCT050 SCT100 07/05 Q1033 RMK PP000=
SPZO Mar2005-061000Z 00000KT 9999 SCT050 SCT100 07/04 Q1034 RMK PP000=
SPZO Mar2005-061100Z 00000KT 9999 SCT050 06/04 Q1034 RMK PP000=
SPZO Mar2005-061200Z 10002KT 8000 SCT043 SCT100 08/06 Q1035 BECMG 9999 RMK HZ PP000=
SPZO Mar2005-061300Z 00000KT 9999 FEW043 13/06 Q1036 NOSIG RMK PP000=
SPZO Mar2005-061400Z VRB02KT 9999 FEW043 15/07 Q1036 NOSIG RMK PP000=
SPZO Mar2005-061500Z 12004KT 070V190 9999 SCT043 17/06 Q1034 NOSIG RMK PP000=
SPZO Mar2005-061600Z 00000KT 9999 SCT043 19/04 Q1034 NOSIG RMK PP000=
SPZO Mar2005-061700Z 08005KT 360V170 9999 SCT043 20/05 Q1032 NOSIG RKM PP000=
SPZO Mar2005-061800Z VRB03KT 9999 SCT047 21/04 Q1030 NOSIG RMK PP000=
SPZO Mar2005-061900Z VRB04KT 9999 FEW043 SCT047 23/03 Q1029 NOSIG RKM PP000=
SPZO Mar2005-062000Z 01013KT 330V080 9999 FEW043 SCT047 21/06 Q1028 NOSIG RMK PP000=
SPZO Mar2005-062100Z 36011KT 340V080 9999 SCT043 SCT300 20/05 Q1028 NOSIG RMK PP000=
SPZO Mar2005-062200Z 02009KT 330V070 9999 SCT043 BKN100 19/06 Q1028 NOSIG RMK PP000 TMAX 22.9=
SPZO Mar2005-062300Z 07004KT 360V110 9999 SCT043 SCT300 17/07 Q1029 NOSIG RMK PP000=
SPZO Mar2005-070000Z VRB03KT 9999 SCT050 SCT070 15/06 Q1030 RMK PP000=
SPZO Mar2005-070100Z 07004KT 360V100 9999 BKN050 14/06 Q1031 RMK PP000=
SPZO Mar2005-070200Z 09002KT 9999 BKN050 13/06 Q1032 RMK PP000=
SPZO Mar2005-070300Z 26002KT 9999 BKN050 12/07 Q1032 RMK PP000=
SPZO Mar2005-070400Z 00000KT 9999 BKN050 10/06 Q1033 RMK PP000=
SPZO Mar2005-070500Z 08003KT 9999 BKN050 11/07 Q1032 RMK PP000=
SPZO Mar2005-070600Z 00000KT 9999 SCT050 10/07 Q1032 RMK PP000=
SPZO Mar2005-070700Z 00000KT 9999 SCT050 09/07 Q1031 RMK PP000=
SPZO Mar2005-070800Z 08002KT 9999 SCT050 09/07 Q1031 RMK PP000=
SPZO Mar2005-070900Z 00000KT 9999 SCT050 10/07 Q1030 RMK PP000=
SPZO Mar2005-071000Z 00000KT 9999 SCT050 09/07 Q1031 RMK PP000=
SPZO Mar2005-071100Z 00000KT 9999 BKN050 09/07 Q1031 RMK PP000=
SPZO Mar2005-071200Z 11003KT 090V180 9999 FEW050 BKN100 11/08 Q1032 TEMPO FEW050 SCT100 RMK PP000=
SPZO Mar2005-071300Z VRB01KT 9999 SCT043 BKN100 13/07 Q1033 NOSIG RMK PP000=
SPZO Mar2005-071400Z VRB02KT 9999 FEW043 BKN100 15/08 Q1033 NOSIG RMK PP000=
SPZO Mar2005-071500Z VRB03KT 9999 SCT043 SCT100 17/07 Q1032 NOSIG RMK PP000=
SPZO Mar2005-071600Z 01005KT 340V080 9999 SCT043 SCT100 18/07 Q1031 NOSIG RMK PP000=
SPZO Mar2005-071700Z VRB03KT 9999 FEW043 SCT047 20/06 Q1030 NOSIG RMK PP000=
SPZO Mar2005-071800Z 19004KT 160V290 9000 -TSRA VCSH BKN043CB SCT047TCU 13/08 Q1030 TEMPO 8000 TSRA RMK PPTRZ=
SPZO Mar2005-071900Z 23004KT 270V170 9000 TSRA VCSH SCT043CB BKN047TCU 12/07 Q1030 TEMPO FM1930 9999 NSW RMK PP046=
SPZO Mar2005-072000Z 28005KT 9999 VCSH FEW040TCU BKN080 14/09 Q1029 NOSIG RMK PP002=
SPZO Mar2005-072100Z 28004KT 9999 VCSH FEW040TCU BKN053 13/08 Q1028 NOSIG RMK PP000=
SPZO Mar2005-072200Z 05002KT 350V080 9999 SCT043 BKN060 15/08 Q1028 NOSIG RMK PPTRZ TMAX 21.2=
SPZO Mar2005-072300Z 00000KT 9999 SCT043 BKN060 13/09 Q1029 NOSIG RMK PP000=
SPZO Mar2005-080000Z 00000KT 9999 SCT043 SCT050 12/08 Q1029 RMK PP000=
SPZO Mar2005-080100Z 00000KT 9999 FEW040 SCT080 12/09 Q1030 RMK PP000=
SPZO Mar2005-080200Z 27009KT 9999 BKN040 SCT046 13/08 Q1032 RMK PP000=
SPZO Mar2005-080300Z 28007KT 9999 BKN040 SCT046 12/07 Q1033 RMK PP000=
SPZO Mar2005-080400Z 28007KT 9999 SCT030 BKN040 12/06 Q1033 RM PP000=
SPZO Mar2005-080500Z 28008KT 9999 SCT037 SCT046 10/06 Q1033 RMK PP000=
SPZO Mar2005-080600Z 28006KT 9999 SCT030 BKN040 10/05 Q1033 RMK PP000=
SPZO Mar2005-080700Z 28005KT 9999 SCT040 SCT050 10/05 Q1032 RMK PP000=
SPZO Mar2005-080800Z 27005KT 9999 OVC040 10/05 Q1031 RMK PP000=
SPZO Mar2005-080900Z 27004KT 9999 BKN040 SCT070 10/05 Q1031 RMK PP000=
SPZO Mar2005-081000Z VRB03KT 9999 FEW033 SCT100 09/05 Q1031 RMK PP000=
SPZO Mar2005-081100Z VRB02KT 9999 FEW043 SCT200 08/05 Q1031 RMK PP000=
SPZO Mar2005-081200Z 08002KT 360V110 9999 FEW060 SCT100 09/06 Q1032 TEMPO FEW100 RMK PP000=
SPZO Mar2005-081300Z 00000KT 9999 BKN100 12/06 Q1033 NOSIG RMK PP000=
SPZO Mar2005-081400Z 00000KT 9999 FEW040 15/06 Q1033 NOSIG RMK PP000=
SPZO Mar2005-081500Z 00000KT 9999 FEW043 16/06 Q1032 NOSIG RMK PP000=
SPZO Mar2005-081600Z 00000KT 9999 FEW043 18/06 Q1031 NOSIG RMK PP000=
SPZO Mar2005-081700Z VRB03KT 9999 FEW043 SCT047 20/07 Q1029 RMK PP000=
SPZO Mar2005-081800Z 35004KT 270V080 9999 VCSH FEW040CB SCT047 BKN080 19/07 Q1028 NOSIG RMK PP000=
SPZO Mar2005-081900Z 36006KT 9999 FEW040 SCT043 BKN080 18/05 Q1028 NOSIG RMK PP000=
SPZO Mar2005-082000Z VRB02KT 9999 SCT043 BKN080 18/06 Q1027 NOSIG RMK PP000=
SPZO Mar2005-082100Z VRB02KT 9999 FEW043 BKN080 19/06 Q1026 NOSIG RMK PP000=
SPZO Mar2005-082200Z 25005KT 9999 FEW043 BKN080 18/05 Q1025 NOSIG RMK PP000 TMAX 19.7=
SPZO Mar2005-082300Z VRB02KT 9999 FEW043 SCT060 BKN080 17/07 Q1026 NOSIG RMK PP000=
SPZO Mar2005-090000Z VRB02KT 9999 FEW040 SCT060 15/08 Q1028 RMK PP000=
SPZO Mar2005-090100Z 28011KT 9999 FEW040 SCT060 15/07 Q1029 RMK PP000=
SPZO Mar2005-090200Z 25006KT 9999 BKN050 14/07 Q1030 RMK PP000=
SPZO Mar2005-090300Z 23005KT 9999 SCT040 SCT050 14/06 Q1031 RMK PP000=
SPZO Mar2005-090400Z 28010KT 9999 SCT037 SCT046 13/07 Q1031 RMK PP000=
SPZO Mar2005-090500Z 28010KT 9999 BKN040 SCT050 13/07 Q1031 RMK PP000=
SPZO Mar2005-090600Z 27008KT 9999 BKN040 SCT050 12/06 Q1031 RMK PP000=
SPZO Mar2005-090700Z 00000KT 9999 OVC040 11/06 Q1031 RMK PP000=
SPZO Mar2005-090800Z VRB02KT 9999 OVC043 11/06 Q1030 RMK PP000=
SPZO Mar2005-090900Z 00000KT 9999 SCT040 SCT050 10/07 Q1030 RMK PP000=
SPZO Mar2005-091000Z VRB03KT 9999 BKN040 SCT050 11/07 Q1030 RMK PP000=
SPZO Mar2005-091100Z 00000KT 9999 FEW037 SCT043 BKN050 11/07 Q1030 RMK PP000=
SPZO Mar2005-091200Z 00000KT 9999 SCT043 BKN300 11/07 Q1031 NOSIG RMK PP000=
SPZO Mar2005-091300Z 08002KT 360V110 9999 SCT040 SCT300 13/07 Q1032 NOSIG RMK PP000=
SPZO Mar2005-091400Z VRB02KT 9999 SCT043 16/06 Q1031 NOSIG RMK PP000=
SPZO Mar2005-091500Z VRB03KT 9999 SCT043 17/06 Q1031 NOSIG RMK PP000=
SPZO Mar2005-091600Z VRB03KT 9999 SCT043 SCT060 19/06 Q1030 NOSIG RMK PP000=
SPZO Mar2005-091700Z 09006KT 070V200 9999 BKN043 19/08 Q1028 NOSIG RMK PP000=
SPZO Mar2005-091800Z 07004KT 340V010 9999 TS VCSH BKN043CB SCT047 18/06 Q1028 TEMPO -TSRA RMK PP000=
SPZO Mar2005-091900Z 27012KT 250V350 9999 SCT043 SCT100 19/07 Q1027 NOSIG RMK PP000=
SPZO Mar2005-092000Z 30012KT 250V350 9999 FEW030 SCT043 BKN100 17/05 Q1027 NOSIG RMK PP000=
SPZO Mar2005-092100Z 32006KT 250V350 9999 SCT043 16/07 Q1026 NOSIG RMK PP000=
SPZO Mar2005-092200Z VRB03KT 9999 SCT043 BKN100 18/05 Q1026 NOSIG RMK PP000 TMAX 20.9=
SPZO Mar2005-092300Z 32005KT 270V020 9999 SCT043 BKN300 17/05 Q1026 NOSIG RMK PP000=
SPZO Mar2005-100000Z VRB02KT 9999 BKN050 SCT100 15/06 Q1027 RMK PP000=
SPZO Mar2005-100100Z VRB02KT 9999 BKN050 13/07 Q1029 RMK PP000=
SPZO Mar2005-100200Z 00000KT 9999 BKN050 13/07 Q1029 RMK PP000=
SPZO Mar2005-100300Z 00000KT 9999 OVC050 13/07 Q1030 RMK PP000=
SPZO Mar2005-100400Z 00000KT 9999 OVC050 13/07 Q1030 RMK PP000=
SPZO Mar2005-100500Z 00000KT 9999 BKN050 12/07 Q1030 RMK PP000=
SPZO Mar2005-100600Z 00000KT 9999 BKN050 12/07 Q1030 RMK PP000=
SPZO Mar2005-100700Z 00000KT 9999 BKN050 11/08 Q1029 RMK PP000=
SPZO Mar2005-100800Z 10002KT 9999 BKN050 10/07 Q1029 RMK PP000=
SPZO Mar2005-100900Z VRB02KT 9999 BKN050 10/07 Q1029 RMK PP000=
SPZO Mar2005-101000Z 26002KT 9999 BKN050 11/07 Q1029 RMK PP000=
SPZO Mar2005-101100Z 00000KT 9999 OVC050 10/07 Q1030 RMK PP000=
SPZO Mar2005-101200Z 07003KT 9999 FEW037 SCT060 BKN100 11/08 Q1031 NOSIG RMK PP000=
SPZO Mar2005-101300Z 00000KT 9999 FEW037 BKN100 13/07 Q1031 NOSIG RKM PP000=
SPZO Mar2005-101400Z VRB02KT 9999 FEW040 BKN100 15/07 Q1032 NOSIG RMK PP000=
SPZO Mar2005-101500Z 00000KT 9999 SCT040 SCT100 16/05 Q1031 NOSIG RMK PP000=
SPZO Mar2005-101600Z 10007KT 9999 FEW033 BKN060 16/06 Q1031 NOSIG RMK PP000=
SPZO Mar2005-101700Z 00000KT 9999 FEW030 SCT043 BKN060 18/05 Q1029 NOSIG RMK PP000=
SPZO Mar2005-101800Z 27015KT 250V350 9999 FEW033 SCT043 BKN080 18/07 Q1028 NOSIG RMK PP000 RWY10 28025G36KT 240V330=
SPZO Mar2005-101900Z 28013KT 260V350 9999 FEW046 BKN100 16/06 Q1028 TEMPO VCRA RMK PP000 RWY10 29021G31KT=
SPZO Mar2005-102000Z VRB06KT 9999 FEW046 OVC100 16/07 Q1027 NOSIG RMK PP000 RWY10 28017KT=
SPZO Mar2005-102100Z VRB05KT 9999 FEW040 OVC100 16/05 Q1027 NOSIG RMK PP000 RWY10 30010KT=
SPZO Mar2005-102200Z 27010KT 9999 FEW046 OVC100 14/07 Q1027 NOSIG RMK PP000 RWY10 30011KT TMX:19.4=
SPZO Mar2005-102300Z 27008KT 9999 FEW046 OVC100 14/06 Q1028 NOSIG RMK PP000 RWY10 31012KT=
SPZO Mar2005-110000Z 28006KT 9999 SCT050 SCT100 13/06 Q1029 RMK PP000=
SPZO Mar2005-110100Z 00000KT 9999 BKN050 13/07 Q1030 RMK PP000=
SPZO Mar2005-110200Z 00000KT 9999 OVC050 13/07 Q1031 RMK PP000=
SPZO Mar2005-110300Z 27003KT 9999 OVC050 13/07 Q1032 RMK PP000=
SPZO Mar2005-110400Z VRB02KT 9999 OVC050 12/07 Q1032 RMK PP000=
SPZO Mar2005-110500Z 10008KT 070V170 9999 OVC050 10/08 Q1032 RMK PP000=
SPZO Mar2005-110600Z VRB03KT 6000 RA SCT040 BKN050 10/08 Q1032 RMK PP006=
SPZO Mar2005-110700Z 00000KT 7000 -RA FEW040 BKN050 10/08 Q1031 RMK PP002=
SPZO Mar2005-110800Z 00000KT 8000 -RA FEW040 BKN050 10/08 Q1030 RMK PPTRZ=
SPZO Mar2005-110900Z 00000KT 9000 OVC040 10/08 Q1030 RERA RMK PPTRZ=
SPZO Mar2005-111000Z 09002KT 8000 -DZ OVC040 10/08 Q1030 RMK PPTRZ=
SPZO Mar2005-111100Z 00000KT 8000 -RA SCT030 SCT040 BKN050 10/08 Q1031 RMK PP002=
SPZO Mar2005-111200Z 10002KT 9999 FEW025 SCT040 BKN050 10/08 Q1032 NOSIG RMK PP002=
SPZO Mar2005-111300Z 00000KT 9999 FEW025 SCT040 BKN050 11/09 Q1033 NOSIG RMK PP000 BCBR CDTE NE=
SPZO Mar2005-111400Z VRB03KT 9999 FEW036 BKN046 13/09 Q1033 NOSIG RMK PP000=
SPZO Mar2005-111500Z VRB02KT 9999 FEW036 SCT040 BKN050 15/08 Q1033 NOSIG RMK PP000=
SPZO Mar2005-111600Z VRB03KT 9999 FEW040 BKN050 18/08 Q1032 NOSIG RMK PP000 RWY10 32015G26KT RA CDTE W=
SPZO Mar2005-111700Z 28007KT 250V350 9999 FEW040 BKN046 16/08 Q1031 TEMPO=
SPZO Mar2005-111800Z 26007KT 9999 RA FEW036 BKN046 12/08 Q1031 BECMG FM19 NSW RMK PP018=
SPZO Mar2005-111900Z VRB02KT 9999 DZ SCT043 BKN050 12/09 Q1030 BECMG FM1930 NSW RMK PP006 RWY10 03004KT=
SPZO Mar2005-112000Z 00000KT 9999 REDZ SCT043 BKN080 14/08 Q1029 NOSIG RMK PP000 RWY10 12004KT=
SPZO Mar2005-112100Z 00000KT 9999 SCT043 BKN060 15/08 Q1029 TEMPO VCRA RMK PP000=
SPZO Mar2005-112200Z VRB02KT 9999 FEW040 BKN050 15/08 Q1028 NOSIG RMK PP000 TMX 18.0=
SPZO Mar2005-112300Z 27007KT 9999 FEW043 BKN050 14/08 Q1029 NOSIG RMK PP000=
SPZO Mar2005-120000Z 27005KT 9999 BKN040 SCT080 13/09 Q1029 RMK PP000=
SPZO Mar2005-120100Z VRB02KT 9999 SCT040 SCT080 12/07 Q1030 RMK PP000=
SPZO Mar2005-120200Z 00000KT 9999 FEW040 SCT100 12/08 Q1031 RMK PP000=
SPZO Mar2005-120300Z VRB03KT 9999 BKN043 SCT070 11/08 Q1032 RMK PP000=
SPZO Mar2005-120400Z 00000KT 9000 RA SCT037 BKN040 10/08 Q1032 RMK PP016=
SPZO Mar2005-120500Z 00000KT 8000 RA OVC040 09/08 Q1033 RMK PP038=
SPZO Mar2005-120600Z 00000KT 9000 RA SCT030 BKN040 09/08 Q1033 RMK PP042=
SPZO Mar2005-120700Z 00000KT 9999 RA SCT030 BKN043 09/07 Q1032 RMK PP024=
SPZO Mar2005-120800Z 00000KT 8000 RA FEW030 OVC040 08/06 Q1032 RMK PP028=
SPZO Mar2005-120900Z 00000KT 8000 RA FEW030 OVC040 08/06 Q1032 RMK PP026=
SPZO Mar2005-121000Z 00000KT 7000 RA FEW025 SCT033 BKN043 08/06 Q1032 RMK CLNG BLW 1200M PP036=
SPZO Mar2005-121100Z 00000KT 9000 -RA FEW025 SCT037 BKN046 08/06 Q1032 RMK CLNG BLW 1200M PP032=
SPZO Mar2005-121200Z 10002KT 8000 DZ FEW020 SCT040 BKN050 08/07 Q1033 NOSIG RMK PP002 RWY10 11005KT=
SPZO Mar2005-121300Z 08002KT 9999 SCT035 BKN046 09/07 Q1034 BECMG FM1330 FEW036 BKN046 RMK PPTRZ=
SPZO Mar2005-121400Z VRB01KT 9999 FEW036 BKN050 11/07 Q1034 NOSIG RMK PP000=
SPZO Mar2005-121500Z VRB02KT 9999 FEW036 BKN046 13/07 Q1033 NOSIG RMK PP000 RWY10 11005KT=
SPZO Mar2005-121600Z VRB02KT 9999 FEW040 BKN050 16/08 Q1033 NOSIG RMK PP000=
SPZO Mar2005-121700Z VRB03KT 9999 FEW040 BKN050 17/07 Q1031 NOSIG RMK PP000=
SPZO Mar2005-121800Z VRB02KT 9999 FEW043 SCT050 18/07 Q1029 NOSIG RMK PP000=
SPZO Mar2005-121900Z VRB02KT 9999 BKN050 20/07 Q1028 NOSIG RMK PP000=
SPZO Mar2005-122000Z VRB05KT 9999 BKN050 21/07 Q1026 NOSIG RMK PP000=
SPZO Mar2005-122100Z 28005KT 240V300 9999 BKN050 20/07 Q1026 NOSIG RMK PP000 RWY10 28006KT=
SPZO Mar2005-122200Z 36008KT 340V080 9999 SCT040 BKN100 18/07 Q1026 NOSIG RMK PP000 RA CDTE E TMX: 21.5=
SPZO Mar2005-122300Z 01009KT 340V080 9000 TSRA SCT040CB BKN046 15/07 Q1027 BECMG FM2345 NSW RMK P010=
SPZO Mar2005-130000Z 00000KT 9000 RA OVC040 11/08 Q1029 RMK PP044=
SPZO Mar2005-130100Z 00000KT 9000 RA FEW030 OVC040 11/08 Q1029 RMK PP010=
SPZO Mar2005-130200Z 11005KT 9999 RA FEW025 OVC040 10/08 Q1032 RMK PP028=
SPZO Mar2005-130300Z 00000KT 9000 -RA SCT025 BKN040 10/08 Q1032 RMK PP018=
SPZO Mar2005-130400Z 00000KT 9999 -RA SCT030 BKN040 10/08 Q1032 RMK PP018=
SPZO Mar2005-130500Z 00000KT 9999 SCT025 BKN040 10/08 Q1031 RMK PP012=
SPZO Mar2005-130600Z 00000KT 9999 SCT035 BKN043 10/08 Q1031 RMK PP000=
SPZO Mar2005-130700Z VRB03KT 9999 SCT025 BKN043 10/08 Q1030 RMK PP000=
SPZO Mar2005-130800Z 00000KT 9999 SCT025 BKN050 10/08 Q1030 RMK PP000=
SPZO Mar2005-130900Z VRB02KT 9999 SCT030 BKN046 10/08 Q1030 RMK PP000=
SPZO Mar2005-131000Z VRB03KT 9999 FEW030 SCT043 BKN046 10/08 Q1030 RMK PP000=
SPZO Mar2005-131100Z VRB03KT 9999 BKN040 SCT050 10/08 Q1030 RMK PP000=
SPZO Mar2005-131200Z VRB02KT 9999 FEW040 OVC050 10/08 Q1031 NOSIG RMK PP000=
SPZO Mar2005-131300Z 00000KT 9999 FEW040 BKN050 11/08 Q1032 NOSIG RMK PP000=
SPZO Mar2005-131400Z VRB02KT 9999 FEW036 SCT050 15/08 Q1032 NOSIG RMK PP000=
SPZO Mar2005-131500Z VRB02KT 9999 FEW040 SCT050 16/07 Q1031 NOSIG RMK PP000=
SPZO Mar2005-131600Z VRB04KT 9999 FEW043 BKN050 18/08 Q1030 NOSIG RMK PP000=
SPZO Mar2005-131700Z VRB05KT 9999 SCT050 20/07 Q1029 NOSIG RMK PP000=
SPZO Mar2005-131800Z 28016KT 260V350 9999 FEW043 BKN050 17/08 Q1028 TEMPO=
SPZO Mar2005-131900Z 27009KT 9999 FEW043 BKN050 17/08 Q1028 TEMPO VCRA RMK PP000 RWY10 29014KT RA CDTE E=
SPZO Mar2005-132000Z 25004KT 180V290 9999 FEW046 BKN080 17/08 Q1027 TEMPO VCRA RMK PP000 RWY10 36006KT=
SPZO Mar2005-132100Z 09005KT 9999 -RA SCT043 BKN080 16/09 Q1027 NOSIG RMK PP000 RWY10 27011KT=
SPZO Mar2005-132200Z VRB03KT 9999 DZ SCT043 SCT050 15/09 Q1027 NOSIG RMK PPTRZ TMX:20.1 RWY10 15007KT=
SPZO Mar2005-132300Z 00000KT 9999 REDZ FEW043 BKN100 15/08 Q1028 NOSIG RMK PPTRZ=
SPZO Mar2005-140000Z 00000KT 9999 SCT050 SCT100 14/10 Q1029 RMK PP000=
SPZO Mar2005-140100Z 00000KT 9999 BKN050 12/09 Q1029 RMK PP000=
SPZO Mar2005-140200Z 00000KT 9999 BKN050 12/09 Q1030 RMK PP000=
SPZO Mar2005-140300Z VRB03KT 9999 OVC050 13/06 Q1032 RMK PP000=
SPZO Mar2005-140400Z 28005KT 250V350 8000 -DZ OVC040 11/07 Q1032 RMK PPTRZ=
SPZO Mar2005-140500Z 25005KT 180V280 8000 -RA FEW030 OVC040 10/07 Q1031 RMK PPTRZ=
SPZO Mar2005-140600Z 32003KT 9000 FEW030 OVC040 10/07 Q1030 RERA RMK PPTRZ=
SPZO Mar2005-140700Z 00000KT 9999 FEW030 OVC040 10/07 Q1030 RMK PP000=
SPZO Mar2005-140800Z 00000KT 9999 FEW030 OVC040 08/06 Q1029 RMK PP000=
SPZO Mar2005-140900Z 00000KT 9999 OVC040 09/07 Q1029 RMK PP000=
SPZO Mar2005-141000Z 00000KT 9999 BKN040 SCT080 08/07 Q1030 RMK PP000=
SPZO Mar2005-141100Z 00000KT 9999 BKN050 SCT100 08/06 Q1030 RMK PP000=
SPZO Mar2005-141200Z 00000KT 9999 SCT046 SCT100 09/07 Q1031 NOSIG RMK PP000=
SPZO Mar2005-141300Z 00000KT 9999 FEW040 OVC100 12/07 Q1031 NOSIG RMK PP000=
SPZO Mar2005-141400Z 09004KT 070V170 9999 FEW040 BKN050 14/07 Q1032 NOSIG RMK PP000=
SPZO Mar2005-141500Z VRB02KT 9999 FEW040 OVC100 16/07 Q1031 NOSIG RMK PP000=
SPZO Mar2005-141600Z VRB02KT 9999 FEW040 OVC100 17/06 Q1030 NOSIG RMK PP000=
SPZO Mar2005-141700Z 13005KT 090V190 9999 FEW040 OVC100 16/07 Q1029 NOSIG RMK PP000=
SPZO Mar2005-141800Z VRB03KT 9999 FEW040 OVC100 17/07 Q1028 NOSIG RMK PP000 RWY10 08006KT=
SPZO Mar2005-141900Z VRB02KT 9999 FEW043 OVC100 18/07 Q1027 NOSIG RMK PP000 RWY10 09005KT=
SPZO Mar2005-142000Z 28013KT 260V350 9999 BKN043 SCT050 16/08 Q1027 TEMPO RA RMK PP000 RWY10 30017KT=
SPZO Mar2005-142100Z 27004KT 180V350 9999 RERA SCT043 SCT100 15/08 Q1026 NOSIG RMK PPTRZ RA CDTE 29006KT=
SPZO Mar2005-142200Z VRB02KT 9999 FEW040 BKN100 18/07 Q1026 NOSIG RMK PP000 TMX:18.5=
SPZO Mar2005-142300Z 28004KT 250V350 9999 SCT043 BKN100 16/07 Q1026 NOSIG RMK PP000=
SPZO Mar2005-150000Z VRB03KT 9999 SCT040 SCT080 14/09 Q1027 RMK PP000=
SPZO Mar2005-150100Z VRB05KT 5000 RA FEW030 BKN040 12/08 Q1028 RMK PP014=
SPZO Mar2005-150200Z 25006KT 180V290 8000 FEW030 OVC040 12/08 Q1029 RERA RMK PP002=
SPZO Mar2005-150300Z 28008KT 250V350 9999 OVC040 11/07 Q1030 RMK PP000=
SPZO Mar2005-150400Z 28008KT 250V350 9999 OVC040 11/07 Q1030 RMK PP000=
SPZO Mar2005-150500Z VRB03KT 9999 OVC040 12/07 Q1029 RMK PP000=
SPZO Mar2005-150600Z 00000KT 9999 OVC040 11/08 Q1029 RMK PP000=
SPZO Mar2005-150700Z 00000KT 9999 OVC040 11/08 Q1028 RMK PP000=
SPZO Mar2005-150800Z 10002KT 9999 OVC040 11/08 Q1028 RMK PP000=
SPZO Mar2005-150900Z 08002KT 9999 OVC040 11/08 Q1028 RMK PP000=
SPZO Mar2005-151000Z 12002KT 9999 BKN040 SCT080 11/08 Q1028 RMK PP000=
SPZO Mar2005-151100Z 00000KT 9999 BKN040 SCT090 10/09 Q1029 RMK PP000=
SPZO Mar2005-151200Z 07004KT 9999 SCT040 11/08 Q1030 NOSIG RMK PP000=
SPZO Mar2005-151300Z VRB03KT 9999 FEW040 BKN050 12/09 Q1030 NOSIG RMK PP000=
SPZO Mar2005-151400Z VRB01KT 9999 FEW040 SCT050 15/08 Q1031 NOSIG RMK PP000=
SPZO Mar2005-151500Z VRB02KT 9999 SCT043 17/07 Q1030 NOSIG RMK PP000=
SPZO Mar2005-151600Z VRB03KT 9999 SCT050 19/07 Q1029 NOSIG RMK PP000=
SPZO Mar2005-151700Z VRB03KT 9999 SCT050 21/06 Q1028 NOSIG RMK PP000 RWY10 05007KT=
SPZO Mar2005-151800Z VRB03KT 9999 SCT050 20/05 Q1026 NOIG RMK PP000 RWY10 34007KT=
SPZO Mar2005-151900Z 01009KT 340V080 9999 SCT050 20/05 Q1025 NOSIG RMK PP000 RWY10 02011G22K=
SPZO Mar2005-152000Z VRB06KT 9999 -RA FEW043 BKN050 15/05 Q1025 NOSIG RMK PP002 RWY10 13014KT=
SPZO Mar2005-152100Z VRB02KT 9999 RERA FEW046 BKN050 15/07 Q1025 TEMPO=
SPZO Mar2005-152200Z 11006KT 070V180 9999 FEW046 BKN080 14/09 Q1025 TEMPO RA RMK PP000 TMX: 21.7 RA CDTE E=
SPZO Mar2005-152300Z 00000KT 9999 FEW046 BKN100 15/06 Q1026 NOSIG RKM PP000=
SPZO Mar2005-160000Z VRB02KT 9999 FEW043 SCT100 12/09 Q1027 RMK PP000=
SPZO Mar2005-160100Z VRB02KT 9999 FEW040 SCT100 12/08 Q1027 RMK PP000=
SPZO Mar2005-160200Z VRB03KT 9999 FEW040 BKN100 11/08 Q1028 RMK PP000=
SPZO Mar2005-160300Z 28004KT 9999 FEW040 SCT070 11/08 Q1029 RMK PP000=
SPZO Mar2005-160400Z 00000KT 9999 FEW040 BKN070 11/09 Q1029 RMK PP000=
SPZO Mar2005-160500Z 00000KT 9999 SCT040 SCT070 11/09 Q1029 RMK PP000=
SPZO Mar2005-160600Z VRB02KT 9999 BKN040 SCT070 10/08 Q1029 RMK PP000=
SPZO Mar2005-160700Z 00000KT 9999 BKN040 SCT046 10/08 Q1029 RMK PP000=
SPZO Mar2005-160800Z 00000KT 9999 SCT040 SCT050 09/08 Q1028 RMK PP000=
SPZO Mar2005-160900Z 00000KT 9999 SCT040 SCT050 09/07 Q1029 RMK PP000=
SPZO Mar2005-161000Z VRB03KT 9999 SCT040 SCT050 09/07 Q1029 RMK PP000=
SPZO Mar2005-161100Z VRB01KT 9999 SCT040 SCT050 09/08 Q1030 RMK PP000=
SPZO Mar2005-161200Z VRB03KT 9999 FEW043 11/08 Q1030 NOSIG RMK PP000=
SPZO Mar2005-161300Z VRB02KT 9999 SCT046 14/09 Q1031 NOSIG RMK PP000 RWY10 11007KT=
SPZO Mar2005-161400Z VRB03KT 9999 SCT046 16/07 Q1031 NOSIG RMK PP000 RWY10 14005KT=
SPZO Mar2005-161500Z VRB03KT 9999 SCT050 18/07 Q1031 NOSIG RMK PP000 RWY10 09005KT=
SPZO Mar2005-161600Z VRB02KT 9999 SCT050 19/07 Q1030 NOSIG RMK PP000=
SPZO Mar2005-161700Z VRB02KT 9999 SCT050 21/03 Q1029 NOSIG RMK PP000 16006KT=
SPZO Mar2005-161800Z VRB06KT 9999 SCT050 21/03 Q1028 NOSIG RMK PP000 08009KT=
SPZO Mar2005-161900Z 01007KT 270V080 9999 BKN050 21/02 Q1027 NOSIG RMK PP000 RWY10 02014G25KT=
SPZO Mar2005-162000Z 14006KT 070V200 9999 BKN050 18/03 Q1027 NOSIG RMK PP000 RWY10 16013KT=
SPZO Mar2005-162100Z 09014G22KT 070V170 9999 BKN050 16/07 Q1028 TEMPO=
SPZO Mar2005-162200Z 15005KT 090V190 9999 BKN050 16/04 Q1027 NOSIG RMK PP000 RWY10 16013KT TMX:21.9=
SPZO Mar2005-162300Z VRB02KT 9999 FEW050 13/04 Q1028 NOSIG RMK PP000=
SPZO Mar2005-170000Z VRB03KT 9999 FEW040 SCT100 13/06 Q1028 RMK PP000=
SPZO Mar2005-170100Z 00000KT 9999 FEW043 SCT100 11/07 Q1029 RMK PP000=
SPZO Mar2005-170200Z VRB02KT 9999 FEW033 SCT080 11/07 Q1030 RMK PP000=
SPZO Mar2005-170300Z VRB02KT 9999 FEW040 SCT080 09/06 Q1031 RMK PP000=
SPZO Mar2005-170400Z 00000KT 9999 SCT080 10/07 Q1031 RMK PP000=
SPZO Mar2005-170500Z 00000KT 9999 BKN080 09/07 Q1031 RMK PP000=
SPZO Mar2005-170600Z 00000KT 9999 FEW040 SCT070 10/07 Q1031 RMK PP000=
SPZO Mar2005-170700Z 00000KT 9999 SCT040 SCT046 09/07 Q1031 RMK PP000=
SPZO Mar2005-170800Z 00000KT 9999 OVC040 09/07 Q1031 RMK PP002=
SPZO Mar2005-170900Z 00000KT 9999 FEW040 SCT100 08/06 Q1031 RMK PP000=
SPZO Mar2005-171000Z VRB01KT 9999 FEW030 SCT100 07/05 Q1031 RMK PP000=
SPZO Mar2005-171100Z 00000KT 9999 FEW040 SCT100 07/05 Q1032 RMK PP000=
SPZO Mar2005-171200Z 09003KT 9999 SCT046 08/06 Q1033 NOSIG RMK PP000=
SPZO Mar2005-171300Z VRB02KT 9999 FEW043 12/07 Q1034 NOSIG RMK PP000=
SPZO Mar2005-171400Z 08004KT 360V110 9999 FEW043 14/07 Q1033 NOSIG RMK PP000=
SPZO Mar2005-171500Z VRB02KT 9999 SCT050 16/06 Q1033 NOSIG RMK PP000 RWY10 15006KT=
SPZO Mar2005-171600Z VRB03KT 9999 SCT050 18/05 Q1032 NOSIG RMK PP000=
SPZO Mar2005-171700Z 10005KT 070V200 9999 FEW050 19/M00 Q1030 NOSIG RMK PP000 RWY10 16006KT=
SPZO Mar2005-171800Z VRB05KT 9999 FEW050 21/07 Q1029 NOSIG RMK PP000 RWY10 20010G20KT=
SPZO Mar2005-171900Z VRB05KT 9999 FEW050 22/03 Q1028 NOSIG RMK PP000=
SPZO Mar2005-172000Z VRB02KT 9999 SCT050 22/M01 Q1026 NOSIG RMK PP000 RWY10 12009KT=
SPZO Mar2005-172100Z 01007KT 9999 SCT050 20/02 Q1026 NOSIG RMK PP000 RWY10 01015G25KT=
SPZO Mar2005-172200Z 01010KT 9999 FEW050 19/03 Q1026 NOSIG RMK PP000 RWY10 02016G26KT TMX:23.2=
SPZO Mar2005-172300Z VRB03KT 9999 FEW050 18/05 Q1027 NOSIG RMK PP000=
SPZO Mar2005-180000Z VRB02KT 9999 SCT050 15/05 Q1028 RMK PP000=
SPZO Mar2005-180100Z VRB02KT 9999 SCT050 14/05 Q1029 RMK PP000=
SPZO Mar2005-180200Z 28006KT 250V350 9999 SCT050 15/07 Q1030 RMK PP000=
SPZO Mar2005-180300Z 28008KT 9999 BKN050 14/07 Q1031 RMK PP000=
SPZO Mar2005-180400Z 28005KT 250V350 9999 BKN050 14/07 Q1031 RMK PP000=
SPZO Mar2005-180500Z 27005KT 9999 BKN050 13/07 Q1031 RMK PP000=
SPZO Mar2005-180600Z 10008KT 090V170 9999 OVC050 11/07 Q1031 RMK PP000=
SPZO Mar2005-180700Z 09005KT 9999 OVC050 11/07 Q1031 RMK PP000=
SPZO Mar2005-180800Z VRB03KT 9999 OVC040 11/07 Q1031 RMK PP000=
SPZO Mar2005-180900Z 01006KT 340V080 9999 OVC040 11/05 Q1031 RMK PP000=
SPZO Mar2005-181000Z 36010KT 340V080 9999 BKN040 SCT090 11/04 Q1032 RMK PP000=
SPZO Mar2005-181100Z 31006KT 270V350 9999 SCT040 SCT090 10/04 Q1032 RMK PP000=
SPZO Mar2005-181200Z VRB02KT 9999 BKN050 11/05 Q1033 NOSIG RMK PP000=
SPZO Mar2005-181300Z VRB02KT 9999 SCT050 13/05 Q1033 NOSIG RMK PP000=
SPZO Mar2005-181400Z VRB02KT 9999 FEW040 SCT110 15/04 Q1033 NOSIG RMK PP000=
SPZO Mar2005-181500Z VRB03KT 9999 FEW046 SCT100 17/05 Q1033 NOSIG RMK PP000=
SPZO Mar2005-181600Z 10004KT 360V170 9999 FEW050 SCT100 18/03 Q1032 NOSIG RMK PP000 RWY10 11005KT=
SPZO Mar2005-181700Z VRB04KT 9999 FEW046 SCT120 20/02 Q1031 NOSIG RMK PP000 RWY10 11010KT=
SPZO Mar2005-181800Z VRB05KT 9999 SCT050 21/05 Q1029 NOSIG RMK PP000 RWY10 09013KT=
SPZO Mar2005-181900Z VRB03KT 9999 SCT050 22/04 Q1027 NOSIG RMK PP000 RWY10 10009KT=
SPZO Mar2005-182000Z 02015KT 340V080 9999 BKN050 20/04 Q1027 TEMPO=
SPZO Mar2005-182100Z 10014KT 080V170 9999 BKN050 14/06 Q1028 TEMPO RA RMK PP000 RA CDTE E=
SPZO Mar2005-182200Z 13007KT 090V170 9999 -RA OVC046 11/07 Q1029 NOSIG RMK PP048 TMX:21.9=
SPZO Mar2005-182300Z VRB03KT 9999 RA OVC046 11/08 Q1030 NOSIG RMK PP010=
SPZO Mar2005-190000Z 25007KT 180V270 9000 SCT030 BKN040 12/07 Q1030 RERA RMK PP002=
SPZO Mar2005-190100Z VRB03KT 9999 FEW030 BKN040 11/08 Q1031 RMK PP000=
SPZO Mar2005-190200Z VRB02KT 9999 FEW030 BKN040 11/08 Q1032 RMK PP000=
SPZO Mar2005-190300Z VRB03KT 9999 OVC040 11/08 Q1032 RMK PP000=
SPZO Mar2005-190400Z 10002KT 9999 OVC040 10/08 Q1033 RMK PP000=
SPZO Mar2005-190500Z VRB03KT 9999 OVC040 11/08 Q1032 RMK PP000=
SPZO Mar2005-190600Z 00000KT 9999 OVC040 11/08 Q1031 RMK PP000=
SPZO Mar2005-190700Z 00000KT 7000 -RA FEW030 OVC040 10/08 Q1030 RMK PP006=
SPZO Mar2005-190800Z VRB02KT 8000 FEW030 OVC040 10/08 Q1030 RERA RMK PP002=
SPZO Mar2005-190900Z 08002KT 9999 OVC040 10/08 Q1030 RMK PP000=
SPZO Mar2005-191000Z 09003KT 9999 OVC040 10/08 Q1030 RMK PP000=
SPZO Mar2005-191100Z VRB02KT 9999 OVC040 10/08 Q1031 RMK PP000=
SPZO Mar2005-191200Z 00000KT 9999 FEW033 SCT040 BKN046 10/08 Q1032 NOSIG RMK PP000=
SPZO Mar2005-191300Z 08002KT 9999 FEW033 SCT040 BKN050 11/08 Q1033 NOSIG RMK PP000=
SPZO Mar2005-191400Z VRB01KT 9999 FEW033 SCT043 OVC100 14/07 Q1033 NOSIG RMK PP000=
SPZO Mar2005-191500Z VRB01KT 9999 FEW036 SCT043 BKN050 15/08 Q1033 NOSIG RMK PP000=
SPZO Mar2005-191600Z VRB03KT 9999 SCT043 SCT050 16/07 Q1032 NOSIG RMK PP000 RWY10 17008KT=
SPZO Mar2005-191700Z VRB02KT 9999 FEW040 SCT050 18/08 Q1030 NOSIG RMK PP000 RWY10 VRB06KT RA CDTE NE=
SPZO Mar2005-191800Z 02008KT 340V080 9999 FEW040 SCT050 18/05 Q1029 NOSIG RMK PP000 07010KT=
SPZO Mar2005-191900Z 35008KT 270V020 9999 BKN046 19/07 Q1028 TEMPO VCRA RMK PP000 RWY10 02013G34KT=
SPZO Mar2005-192000Z VRB05KT 9000 -RA OVC046 13/08 Q1028 NOSIG RMK PP054 RWY10 19019G29KT=
SPZO Mar2005-192100Z 28005KT 250V350 9999 -RA FEW036 OVC046 11/08 Q1029 NOSIG RMK PP012 RWY10 228010KT=
SPZO Mar2005-192200Z 27007KT 180V350 9999 -RA FEW036 OVC046 11/08 Q1030 NOSIG RMK PP004 RWY10 26015KT TMX: 19.6=
SPZO Mar2005-192300Z 10013KT 080V170 9000 -RA SCT033 BKN046 10/06 Q1031 NOSIG RMK PP002 RWY10 12027KT=
SPZO Mar2005-200000Z VRB02KT 9999 SCT030 BKN046 09/06 Q1032 RMK PP002=
SPZO Mar2005-200100Z 00000KT 9999 FEW037 SCT080 09/06 Q1032 RMK PP000=
SPZO Mar2005-200200Z 09007KT 9999 FEW040 SCT100 09/06 Q1033 RMK PP000=
SPZO Mar2005-200300Z VRB03KT 9999 FEW040 BKN070 09/07 Q1033 RMK PP000=
SPZO Mar2005-200400Z 00000KT 9999 SCT040 SCT080 09/06 Q1033 RMK PP000=
SPZO Mar2005-200500Z 00000KT 9999 SCT040 SCT070 09/07 Q1032 RMK PP002=
SPZO Mar2005-200600Z 00000KT 9999 BKN040 SCT070 09/07 Q1031 RMK PP000=
SPZO Mar2005-200700Z 00000KT 9999 BKN040 SCT046 09/07 Q1030 RMK PP000=
SPZO Mar2005-200800Z 10004KT 9999 BKN040 SCT046 08/07 Q1030 RMK PP000=
SPZO Mar2005-200900Z 00000KT 9999 BKN040 SCT046 09/07 Q1030 RMK PP000=
SPZO Mar2005-201000Z 00000KT 9999 SCT040 SCT050 08/06 Q1030 RMK PP000=
SPZO Mar2005-201100Z VRB01KT 9999 SCT030 BKN046 08/07 Q1031 RMK PP000=
SPZO Mar2005-201200Z VRB01KT 9999 FEW036 BKN050 09/07 Q1031 NOSIG RMK PP000 BCBR CDTE E=
SPZO Mar2005-201300Z VRB01KT 9999 SCT040 13/07 Q1032 NOSIG RMK PP000=
SPZO Mar2005-201400Z VRB03KT 9999 SCT040 14/08 Q1032 NOSIG RMK PP000=
SPZO Mar2005-201500Z VRB02KT 9999 SCT046 15/06 Q1031 NOSIG RMK PP000=
SPZO Mar2005-201600Z VRB03KT 9999 SCT050 17/04 Q1030 NOSIG RMK PP000 11008KT=
SPZO Mar2005-201700Z 09005KT 9999 BKN050 16/05 Q1030 TEMPO VCRA RMK PP000 RWY10 09009G19KT=
SPZO Mar2005-201800Z 27006KT 190V350 9999 BKN050 17/05 Q1028 NOSIG RMK PP000 RWY10 28009KT=
SPZO Mar2005-201900Z 22005KT 180V280 9999 SCT043 SCT100 19/03 Q1027 NOSIG RMK PP000=
SPZO Mar2005-202000Z 35005KT 260V070 9999 SCT043 20/04 Q1026 NOSIG RMK PP000=
SPZO Mar2005-202100Z 35007KT 270V020 9999 SCT043 18/04 Q1025 NOSIG RMK PP000=
SPZO Mar2005-202200Z 34006KT 270V020 9999 SCT043 18/04 Q1025 NOSIG RMK PP000 TMAX 20.2=
SPZO Mar2005-202300Z 34005KT 270V020 9999 SCT043 16/05 Q1026 NOSIG RMK PP000=
SPZO Mar2005-210000Z 28010KT 9999 SCT050 14/05 Q1027 RMK PP000=
SPZO Mar2005-210100Z 26007KT 9999 FEW050 12/06 Q1028 RMK PP000=
SPZO Mar2005-210200Z 27005KT 9999 FEW080 11/06 Q1029 RMK PP000=
SPZO Mar2005-210300Z 27004KT 9999 SCT100 11/06 Q1030 RMK PP000=
SPZO Mar2005-210400Z 00000KT 9999 FEW080 10/06 Q1030 RMK PP000=
SPZO Mar2005-210500Z 00000KT 9999 SCT070 09/06 Q1030 RMK PP000=
SPZO Mar2005-210600Z 00000KT 9999 FEW060 SCT080 10/07 Q1030 RMK PP000=
SPZO Mar2005-210700Z 00000KT 9999 SCT050 09/06 Q1029 RMK PP000=
SPZO Mar2005-210800Z 00000KT 9999 SCT047 SCT060 08/06 Q1029 RMK PP000=
SPZO Mar2005-210900Z 00000KT 9999 BKN043 08/06 Q1029 RMK PP000=
SPZO Mar2005-211000Z 00000KT 9999 FEW040 SCT060 08/06 Q1029 RMK PP000=
SPZO Mar2005-211100Z 00000KT 9999 FEW043 SCT053 08/06 Q1029 RMK PP000=
SPZO Mar2005-211200Z 00000KT 9999 BKN043 SCT080 09/07 Q1030 NOSIG RMK PP000=
SPZO Mar2005-211300Z 00000KT 9999 SCT043 13/07 Q1031 NOSIG RMK PP000=
SPZO Mar2005-211400Z VRB02KT 9999 SCT043 16/07 Q1031 NOSIG RMK PP000=
SPZO Mar2005-211500Z 00000KT 9999 SCT043 SCT080 16/06 Q1030 NOSIG RMK PP000=
SPZO Mar2005-211600Z VRB03KT 9999 SCT043 SCT060 16/06 Q1029 NOSIG RMK PP000=
SPZO Mar2005-211700Z VRB03KT 9999 SCT043 SCT060 19/06 Q1028 NOSIG RMK PP000=
SPZO Mar2005-211800Z 29006KT 180V350 9999 SCT043 SCT060 17/05 Q1027 RESHRA NOSIG RMK PPTRZ=
SPZO Mar2005-211900Z 36011KT 340V080 9000 +TSRA VCSH BKN043CB BKN053 17/05 Q1026 TEMPO FM1930 9999 NSW RMK PTRZ=
SPZO Mar2005-212000Z 25004KT 180V350 9999 VCSH SCT043 SCT060 16/07 Q1026 RETSRA NOSIG RMK PP034=
SPZO Mar2005-212100Z VRB03KT 9999 SCT043 SCT060 17/04 Q1025 NOSIG RMK PP000=
SPZO Mar2005-212200Z 01005KT 340V080 9999 BKN043 SCT060 17/08 Q1025 NOSIG RMK PP000 TMAX 19.5=
SPZO Mar2005-212300Z 26006KT 250V350 9999 BKN043 SCT080 14/07 Q1026 NOSIG RMK PP000=
SPZO Mar2005-220000Z VRB02KT 8000 -RA FEW030 SCT040 BKN050 13/07 Q1027 RMK PP002=
SPZO Mar2005-220100Z 00000KT 9000 FEW030 SCT040 BKN050 12/07 Q1028 RERA RMK PPTRZ=
SPZO Mar2005-220200Z 00000KT 9999 BKN040 SCT050 12/08 Q1029 RMK PP000=
SPZO Mar2005-220300Z 28003KT 9999 OVC040 11/08 Q1030 RMK PP000=
SPZO Mar2005-220400Z 00000KT 9999 OVC040 11/08 Q1030 RMK PP000=
SPZO Mar2005-220500Z 00000KT 9999 OVC050 10/07 Q1030 RMK PP000=
SPZO Mar2005-220600Z 00000KT 9999 OVC050 09/07 Q1030 RMK PP000=
SPZO Mar2005-220700Z 09002KT 9999 OVC050 09/07 Q1030 RMK PP000=
SPZO Mar2005-220800Z 00000KT 9999 OVC050 10/07 Q1029 RMK PP000=
SPZO Mar2005-220900Z 00000KT 9999 BKN050 09/07 Q1029 RMK PP000=
SPZO Mar2005-221000Z 00000KT 9999 BKN050 09/06 Q1030 RMK PP000=
SPZO Mar2005-221100Z 09002KT 9999 BKN050 09/06 Q1030 RMK PP000=
SPZO Mar2005-221200Z 11002KT 080V170 9999 FEW043 10/07 Q1031 NOSIG RMK PP000=
SPZO Mar2005-221300Z VRB02KT 9999 FEW043 13/07 Q1032 NOSIG RMK PP000=
SPZO Mar2005-221400Z 00000KT 9999 SCT040 15/06 Q1031 NOSIG RMK PP000=
SPZO Mar2005-221500Z VRB03KT 9999 SCT043 17/07 Q1031 NOSIG RMK PP000=
SPZO Mar2005-221600Z 11006KT 070V170 9999 SCT043 SCT060 17/06 Q1031 NOSIG RMK PP000=
SPZO Mar2005-221700Z 05010KT 360V110 9999 VCSH SCT040TCU SCT043CB 17/05 Q1030 TEMPO 9000 -RA RMK PP000=
SPZO Mar2005-221800Z 27007KT 190V350 9999 RA VCSH SCT043TCU SCT050 17/05 Q1029 TEMPO NSW RMK PPTRZ=
SPZO Mar2005-221900Z VRB03KT 9999 RERA SCT043 SCT050 17/09 Q1028 NOSIG RMK PP000 RWY10 17010KT=
SPZO Mar2005-222000Z VRB05KT 9999 FEW046 SCT050 19/06 Q1027 NOSIG RMK PP000=
SPZO Mar2005-222100Z VRB06KT 9999 FEW046 BKN100 19/05 Q1026 NOSIG RMK PP000=
SPZO Mar2005-222200Z 01006KT 340V100 9999 FEW046 BKN080 17/05 Q1027 NOSIG RMK PP000 TMX:19.4=
SPZO Mar2005-222300Z 36006KT 270V080 9999 BKN046 16/05 Q1028 NOSIG RMK PP000 RWY10 02012KT=
SPZO Mar2005-230000Z VRB03KT 9999 OVC050 15/06 Q1029 RMK PP000=
SPZO Mar2005-230100Z VRB03KT 9999 OVC050 13/06 Q1030 RMK PP000=
SPZO Mar2005-230200Z 00000KT 9999 OVC050 13/06 Q1031 RMK PP000=
SPZO Mar2005-230300Z 00000KT 9999 OVC050 12/06 Q1032 RMK PP000=
SPZO Mar2005-230400Z VRB03KT 9999 OVC050 12/07 Q1033 RMK PP000=
SPZO Mar2005-230500Z 25002KT 8000 -RA FEW030 OVC050 11/08 Q1033 RMK PP008=
SPZO Mar2005-230600Z 00000KT 7000 -RA FEW030 OVC050 10/08 Q1033 RMK PP010=
SPZO Mar2005-230700Z 10003KT 7000 -RA FEW030 SCT040 BKN050 10/08 Q1032 RMK PP008=
SPZO Mar2005-230800Z 00000KT 8000 FEW030 SCT040 BKN050 10/08 Q1032 RERA RMK PPTRZ=
SPZO Mar2005-230900Z 10002KT 7000 -RA FEW030 SCT040 BKN050 10/07 Q1032 RMK PPTRZ=
SPZO Mar2005-231000Z 10002KT 8000 FEW030 SCT040 BKN050 10/08 Q1033 RERA RMK PP002=
SPZO Mar2005-231100Z 09002KT 9000 FEW030 SCT040 BKN050 10/07 Q1033 RMK PP000=
SPZO Mar2005-231200Z 00000KT 9999 FEW030 SCT040 SCT050 10/08 Q1034 NOSIG RMK PP000=
SPZO Mar2005-231300Z VRB01KT 9999 FEW030 SCT040 SCT050 11/08 Q1035 NOSIG RMK PP000=
SPZO Mar2005-231400Z VRB02KT 9999 SCT040 SCT050 13/08 Q1035 NOSIG RMK PP000 RWY10 10004KT=
SPZO Mar2005-231500Z VRB03KT 9999 FEW040 BKN050 15/08 Q1035 NOSIG RMK PP000=
SPZO Mar2005-231600Z 07004KT 360V110 9999 FEW043 SCT050 17/06 Q1033 NOSIG RMK PP000=
SPZO Mar2005-231700Z 08006KT 360V170 9999 FEW040 BKN050 18/06 Q1032 NOSIG RMK PP000 RWY10 02011KT RA CDTE E=
SPZO Mar2005-231800Z 36008KT 270V080 9999 FEW043 OVC080 17/07 Q1031 NOSIG RKM PP000 RWY10 01013G24KT=
SPZO Mar2005-231900Z 01009KT 9999 FEW046 BKN080 17/05 Q1030 NOSIG RMK PP000 RWY10 02015G26KT=
SPZO Mar2005-232000Z 01011KT 340V080 9999 FEW046 SCT100 17/05 Q1030 NOSIG RMK PP000 RWY10 36008G18KT=
SPZO Mar2005-232100Z 34006KT 200V020 9999 FEW046 BKN200 18/05 Q1029 NOSIG RMK PP000 RWY10 35007KT=
SPZO Mar2005-232200Z VRB02KT 9999 FEW050 OVC200 18/04 Q1029 NOSIG RMK PP000 TMX:18.6=
SPZO Mar2005-232300Z VRB03KT 9999 FEW046 BKN200 16/05 Q1030 NOSIG RMK PP000=
SPZO Mar2005-240000Z 00000KT 9999 SCT070 14/07 Q1031 RMK PP000=
SPZO Mar2005-240100Z 00000KT 9999 FEW060 SCT200 13/07 Q1032 RMK PP000=
SPZO Mar2005-240200Z VRB02KT 9999 SCT050 SCT200 13/08 Q1033 RMK PP000=
SPZO Mar2005-240300Z 24008KT 9000 TSRA FEW040CB SCT050 BKN070 12/06 Q1034 RMK PP000=
SPZO Mar2005-240400Z 28004KT 8000 -TSRA FEW040CB BKN047 10/07 Q1035 RMK PP024=
SPZO Mar2005-240500Z 00000KT 9999 -DZ SCT037 BKN047 10/08 Q1035 RMK PP006=
SPZO Mar2005-240600Z 00000KT 9999 SCT037 BKN050 10/08 Q1034 RMK REDZ PP004=
SPZO Mar2005-240700Z 00000KT 9999 FEW037 BKN047 10/08 Q1034 RMK PP000=
SPZO Mar2005-240800Z 26004KT 9999 FEW037 BKN047 10/08 Q1033 RMK PP000=
SPZO Mar2005-240900Z 00000KT 9999 SCT037 BKN047 10/07 Q1033 RMK PP000=
SPZO Mar2005-241000Z 00000KT 9999 SCT037 BKN047 10/08 Q1033 RMK PP000=
SPZO Mar2005-241100Z 10004KT 9000 -DZ SCT033 BKN043 10/08 Q1034 PP002=
SPZO Mar2005-241200Z 10005KT 9000 +DZ FEW036 BKN046 10/07 Q1034 NOSIG RMK PPTRZ=
SPZO Mar2005-241300Z 10006KT 090V170 9999 +DZ FEW033 OVC046 09/07 Q1035 RMK PP002 RWY10 11011KT=
SPZO Mar2005-241400Z VRB03KT 9999 -RA FEW030 OVC046 10/07 Q1036 NOSIG RMK PP004 RWY10 11009KT BCBR CDTE NE=
SPZO Mar2005-241500Z VRB03KT 9999 -RA FEW025 OVC046 10/08 Q1036 NOSIG RMK PP010 RWY10 11004KT=
SPZO Mar2005-241600Z VRB02KT 9999 DZ FEW030 BKN050 11/07 Q1035 BECMG FM1640 NSW RMK PP004=
SPZO Mar2005-241700Z VRB02KT 9999 REDZ FEW040 OVC050 14/08 Q1034 NOSIG RMK PP002 BCBR CDTE NE=
SPZO Mar2005-241800Z VRB02KT 9999 FEW036 SCT043 BKN060 15/08 Q1033 NOSIG RMK PP000 RWY10 32009KT=
SPZO Mar2005-241900Z 27008KT 180V350 9999 VCSH FEW030 SCT043 BKN080 15/08 Q1031 NOSIG RMK PP000=
SPZO Mar2005-242000Z 28005KT 250V350 9999 SCT043 SCT100 16/08 Q1030 NOSIG RMK PP000=
SPZO Mar2005-242100Z VRB03KT 9999 BKN043 16/06 Q1030 NOSIG RMK PP000=
SPZO Mar2005-242200Z 00000KT 9999 BKN043 16/07 Q1030 NOSIG RMK PP000 TMAX 17.7=
SPZO Mar2005-242300Z 10013KT 080V170 9999 BKN043 12/07 Q1031 NOSIG RMK PP000=
SPZO Mar2005-250000Z 06006KT 9999 SCT040 SCT200 11/07 Q1032 RMK PP000=
SPZO Mar2005-250100Z 00000KT 9999 SCT200 10/07 Q1033 RMK PP000=
SPZO Mar2005-250200Z 00000KT 9999 SCT200 09/06 Q1033 RMK PP000=
SPZO Mar2005-250300Z 00000KT 9999 BKN200 08/06 Q1034 RMK PP000=
SPZO Mar2005-250400Z 00000KT 9999 BKN200 08/06 Q1034 RMK PP000=
SPZO Mar2005-250500Z 00000KT 9999 FEW100 SCT200 09/07 Q1034 RMK PP000=
SPZO Mar2005-250600Z 00000KT 9999 SCT070 08/06 Q1033 RMK PP000=
SPZO Mar2005-250700Z 00000KT 9999 FEW100 08/06 Q1032 RMK PP000=
SPZO Mar2005-250800Z 00000KT 9999 FEW200 07/06 Q1032 RMK PP000=
SPZO Mar2005-250900Z 00000KT 9999 FEW030 SCT200 06/05 Q1032 RMK PP000=
SPZO Mar2005-251000Z 00000KT 9999 SCT025 SCT037 07/05 Q1032 RMK CLNG BLW 1200M PP000=
SPZO Mar2005-251100Z 00000KT 9000 SCT020 BKN030 07/06 Q1033 RMK CLNG BLW 1200M PP000=
SPZO Mar2005-251200Z 00000KT 9999 SCT020 BKN033 08/07 Q1033 NOSIG RMK CLNG BLW 1200M PP000=
SPZO Mar2005-251300Z 00000KT 9999 FEW020 SCT033 BKN043 10/07 Q1034 NOSIG RMK PP000=
SPZO Mar2005-251400Z 00000KT 9999 FEW033 SCT047 12/07 Q1034 NOSIG RMK PP000=
SPZO Mar2005-251500Z 00000KT 9999 SCT040 15/08 Q1033 NOSIG RMK PP000=
SPZO Mar2005-251600Z 00000KT 9999 SCT043 16/08 Q1032 NOSIG RMK PP000=
SPZO Mar2005-251700Z VRB04KT 9999 SCT043 19/05 Q1031 NOSIG RMK PP000=
SPZO Mar2005-251800Z VRB03KT 9999 FEW043 SCT047 21/07 Q1030 NOSIG RMK PP000=
SPZO Mar2005-251900Z VRB03KT 9999 FEW043 SCT047 21/06 Q1028 NOSIG RMK PP000=
SPZO Mar2005-252000Z 03008KT 340V110 9999 FEW043 21/04 Q1027 NOSIG RMK PP000=
SPZO Mar2005-252100Z 02009KT 340V080 9999 SCT043 20/05 Q1026 NOSIG RMK PP000=
SPZO Mar2005-252200Z 01011KT 340V080 9999 SCT043 SCT300 19/03 Q1026 NOSIG RMK PP000 TMAX 21.3=
SPZO Mar2005-252300Z VRB03KT 9999 FEW043 BKN300 17/05 Q1027 NOSIG RMK PP000=
SPZO Mar2005-260000Z VRB02KT 9999 BKN050 SCT100 15/06 Q1029 RMK PP000=
SPZO Mar2005-260100Z VRB02KT 9999 BKN050 13/06 Q1029 RMK PP000=
SPZO Mar2005-260200Z 00000KT 9999 BKN050 11/06 Q1030 RMK PP000=
SPZO Mar2005-260300Z 00000KT 9999 BKN050 10/07 Q1031 RMK PP000=
SPZO Mar2005-260400Z 00000KT 9999 BKN050 10/07 Q1032 RMK PP000=
SPZO Mar2005-260500Z 00000KT 9999 BKN050 10/07 Q1031 RMK PP000=
SPZO Mar2005-260600Z 00000KT 9999 BKN050 11/07 Q1031 RMK PP000=
SPZO Mar2005-260700Z 00000KT 9999 BKN050 10/07 Q1030 RMK PP000=
SPZO Mar2005-260800Z 00000KT 9999 BKN050 10/07 Q1030 RMK PP000=
SPZO Mar2005-260900Z 00000KT 9999 BKN050 09/07 Q1030 RMK PP000=
SPZO Mar2005-261000Z 00000KT 9999 BKN050 08/06 Q1030 RMK PP000=
SPZO Mar2005-261100Z 27003KT 9999 SCT050 07/05 Q1031 RMK PP000=
SPZO Mar2005-261200Z 00000KT 9999 FEW100 11/07 Q1032 NOSIG RMK PP000=
SPZO Mar2005-261300Z 00000KT 9999 FEW043 SCT100 12/07 Q1032 NOSIG RMK PP000=
SPZO Mar2005-261400Z VRB03KT 9999 FEW043 BKN100 14/06 Q1033 NOSIG RMK PP000=
SPZO Mar2005-261500Z VRB04KT 9999 SCT043 17/05 Q1032 NOSIG RMK PP000=
SPZO Mar2005-261600Z 00000KT 9999 SCT043 19/08 Q1031 NOSIG RMK PP000=
SPZO Mar2005-261700Z 24004KT 170V290 9999 SCT043 20/04 Q1030 NOSIG RMK PP000=
SPZO Mar2005-261800Z VRB04KT 9999 SCT043 21/03 Q1028 NOSIG RMK PP000=
SPZO Mar2005-261900Z VRB02KT 9999 SCT050 20/03 Q1027 NOSIG RMK PP000 RWY10 26006KT=
SPZO Mar2005-262000Z VRB03KT 9999 SCT050 23/03 Q1025 NOSIG RMK PP000 RWY10 26006KT=
SPZO Mar2005-262100Z 01010KT 340V080 9999 FEW050 21/03 Q1024 NOSIG RMK PP000 RWY10 01013KT=
SPZO Mar2005-262200Z 01009KT 340V080 9999 FEW046 18/03 Q1025 NOSIG RMK PP000 RWY10 32008KT TMX:22.9=
SPZO Mar2005-262300Z 29009KT 250V360 9999 FEW060 16/04 Q1026 NOSIG RMK PP000=
SPZO Mar2005-270000Z VRB03KT 9999 SCT050 14/03 Q1028 RMK PP000=
SPZO Mar2005-270100Z VRB02KT 9999 SCT050 13/05 Q1029 RMK PP000=
SPZO Mar2005-270200Z VRB03KT 9999 SCT050 13/06 Q1030 RMK PP000=
SPZO Mar2005-270300Z 34002KT 260V080 9999 BKN050 13/06 Q1031 RMK PP000=
SPZO Mar2005-270400Z VRB04KT 9999 BKN050 12/06 Q1031 RMK PP000=
SPZO Mar2005-270500Z 28003KT 9999 BKN050 12/06 Q1031 RMK PP000=
SPZO Mar2005-270600Z 00000KT 9999 BKN050 11/07 Q1031 RMK PP000=
SPZO Mar2005-270700Z 00000KT 9999 BKN050 11/07 Q1030 RMK PP000=
SPZO Mar2005-270800Z 00000KT 9999 BKN050 10/06 Q1030 RMK PP000=
SPZO Mar2005-270900Z 07090KT 9999 BKN050 08/05 Q1030 RMK PP000=
SPZO Mar2005-271000Z 00000KT 9999 BKN050 08/05 Q1030 RMK PP000=
SPZO Mar2005-271100Z 28002KT 9999 FEW050 06/04 Q1030 RMK PP000=
SPZO Mar2005-271200Z VRB01KT 9999 FEW200 10/06 Q1031 NOSIG RMK PP000=
SPZO Mar2005-271300Z VRB02KT 9999 FEW046 13/07 Q1032 NOSIG RMK PP000=
SPZO Mar2005-271400Z VRB03KT 9999 FEW050 15/06 Q1032 NOSIG RMK PP000=
SPZO Mar2005-271500Z VRB04KT 9999 SCT050 17/06 Q1032 NOSIG RMK PP000=
SPZO Mar2005-271600Z VRB04KT 9999 SCT050 18/04 Q1031 NOSIG RMK PP000 RWY10 14007KT=
SPZO Mar2005-271700Z VRB03KT 9999 SCT050 20/03 Q1030 NOSIG RMK PP000 RWY10 30005KT=
SPZO Mar2005-271800Z VRB03KT 9999 SCT050 20/01 Q1029 NOSIG RMK PP000 RWY10 10014G32KT=
SPZO Mar2005-271900Z 33007KT 250V020 9999 SCT050 22/03 Q1027 NOSIG RMK PP000 RWY10 04008KT=
SPZO Mar2005-272000Z 01009KT 340V080 9999 SCT050 21/01 Q1026 NOSIG RMK PP000 RWY10 03014G26KT=
SPZO Mar2005-272100Z 36008KT 270V080 9999 FEW050 20/01 Q1025 NOSIG RMK PP000 RWY10 01012G23KT=
SPZO Mar2005-272200Z 36008KT 340V080 9999 FEW050 19/01 Q1026 NOSIG RMK PP000 RWY10 02015G28KT TMX:21.8=
SPZO Mar2005-272300Z 29006KT 250V360 9999 FEW200 16/02 Q1026 NOSIG RMK PP000 RWY10 02015G28KT=
SPZO Mar2005-280000Z 28005KT 9999 SKC 15/02 Q1028 RMK PP000=
SPZO Mar2005-280100Z 27005KT 9999 FEW200 13/07 Q1029 RMK PP000=
SPZO Mar2005-280200Z 00000KT 9999 SKC 11/04 Q1030 RMK PP000=
SPZO Mar2005-280300Z 00000KT 9999 SKC 11/05 Q1031 RMK PP000=
SPZO Mar2005-280400Z 00000KT 9999 SKC 10/05 Q1031 RMK PP000=
SPZO Mar2005-280500Z 00000KT 9999 SCT200 09/05 Q1031 RMK PP000=
SPZO Mar2005-280600Z 00000KT 9999 BKN200 09/05 Q1031 RMK PP000=
SPZO Mar2005-280700Z 00000KT 9999 FEW050 BKN200 09/06 Q1031 RMK PP000=
SPZO Mar2005-280800Z 00000KT 9999 BKN200 09/06 Q1030 RMK PP000=
SPZO Mar2005-280900Z 00000KT 9999 FEW080 SCT200 09/06 Q1031 RMK PP000=
SPZO Mar2005-281000Z 00000KT 9999 SCT070 SCT200 08/05 Q1031 RMK PP000=
SPZO Mar2005-281100Z 00000KT 9999 FEW060 SCT200 07/04 Q1031 RMK PP000=
SPZO Mar2005-281200Z 00000KT 9999 BKN150 08/05 Q1031 NOSIG RMK PP000=
SPZO Mar2005-281300Z VRB01KT 9999 FEW046 BKN200 12/06 Q1032 NOSIG RMK PP000=
SPZO Mar2005-281400Z VRB02KT 9999 FEW046 BKN200 16/07 Q1033 NOSIG RMK PP000=
SPZO Mar2005-281500Z VRB03KT 9999 FEW046 BKN200 17/07 Q1032 NOSIG RMK PP000=
SPZO Mar2005-281600Z VRB02KT 9999 BKN050 18/05 Q1031 NOSIG RMK PP000=
SPZO Mar2005-281700Z VRB03KT 9999 BKN050 17/05 Q1030 NOSIG RMK PP000=
SPZO Mar2005-281800Z 03007KT 350V080 9999 SCT050 SCT200 18/04 Q1029 NOSIG RMK PP000 RWY0 04006G19KT=
SPZO Mar2005-281900Z 01007KT 270V080 9999 SCT043 BKN300 19/05 Q1028 NOSIG RMK PP000=
SPZO Mar2005-282000Z 01010KT 340V080 9999 SCT043 BKN300 19/04 Q1027 NOSIG RMK PP000=
SPZO Mar2005-282100Z 35009KT 270V020 9999 FEW043 SCT300 20/03 Q1026 NOSIG RMK PP000=
SPZO Mar2005-282200Z 01007KT 340V080 9999 FEW043 17/03 Q1026 NOSIG RMK PP000 TMAX 19.8=
SPZO Mar2005-282300Z 35004KT 270V080 9999 FEW043 BKN300 16/03 Q1027 NOSIG RMK PP000=
SPZO Mar2005-290000Z 28007KT 9999 FEW040 14/03 Q1028 RMK PP000=
SPZO Mar2005-290100Z 00000KT 9999 FEW040 14/03 Q1030 RMK PP000=
SPZO Mar2005-290200Z 00000KT 9999 BKN040 14/04 Q1031 RMK PP000=
SPZO Mar2005-290300Z 10005KT 9999 SCT040 SCT070 12/05 Q1032 RMK PP000=
SPZO Mar2005-290400Z 10008KT 9999 BKN040 12/05 Q1033 RMK PP000=
SPZO Mar2005-290500Z 10008KT 9999 SCT040 SCT060 11/06 Q1033 RMK PP000=
SPZO Mar2005-290600Z 10010KT 9999 SCT040 BKN060 10/05 Q1032 RMK PP000=
SPZO Mar2005-290700Z 10009KT 9999 SCT040 BKN050 09/06 Q1032 RMK PP000=
SPZO Mar2005-290800Z 10006KT 9999 SCT037 BKN047 08/05 Q1032 RMK PP000=
SPZO Mar2005-290900Z 09005KT 9999 FEW033 SCT047 BKN080 08/05 Q1032 RMK PP000=
SPZO Mar2005-291000Z 09007KT 9999 FEW030 SCT040 BKN050 08/05 Q1032 RMK PP000=
SPZO Mar2005-291100Z 00000KT 9999 -DZ SCT030 SCT040 BKN050 07/05 Q1032 RMK PPTRZ=
SPZO Mar2005-291200Z 00000KT 9999 -DZ SCT030 SCT043 BKN080 08/06 Q1033 TEMPO NSW RMK PPTRZ=
SPZO Mar2005-291300Z 00000KT 9999 FEW033 SCT100 11/07 Q1033 NOSIG RMK PP000=
SPZO Mar2005-291400Z 00000KT 9999 SCT037 BKN080 12/06 Q1033 NOSIG RMK PP000=
SPZO Mar2005-291500Z 00000KT 9999 SCT037 BKN080 14/05 Q1033 NOSIG RMK PP000=
SPZO Mar2005-291600Z 07004KT 360V170 9999 SCT040 BKN060 15/06 Q1032 NOSIG RMK PP000=
SPZO Mar2005-291700Z 11005KT 070V190 9999 SCT040 BKN060 15/05 Q1031 NOSIG RMK PP000=
SPZO Mar2005-291800Z VRB03KT 9999 SCT040 BKN060 18/08 Q1030 NOSIG RMK PP000=
SPZO Mar2005-291900Z 30008KT 250V350 9999 SCT043 BKN080 19/06 Q1029 NOSIG RMK PP000=
SPZO Mar2005-292000Z 07012KT 7000 -RA VCSH BKN043CB SCT060 14/08 Q1028 RETS TEMPO FM2020 9999 NSW RMK PPTRZ=
SPZO Mar2005-292100Z 07003KT 9999 -DZ VCSH FEW020 SCT043 BKN080 12/09 Q1028 TEMPO NSW RMK PP028=
SPZO Mar2005-292200Z 00000KT 9999 SCT043 BKN060 13/09 Q1028 NOSIG RMK PPTRZ TMAX 18.7=
SPZO Mar2005-292300Z 08004KT 9999 FEW040 BKN043 12/09 Q1029 NOSIG RMK PP000=
SPZO Mar2005-300000Z 00000KT 9999 BKN050 12/09 Q1029 RMK PP000=
SPZO Mar2005-300100Z VRB02KT 9999 BKN050 12/07 Q1030 RMK PP000=
SPZO Mar2005-300200Z 30004KT 270V350 9999 BKN050 11/07 Q1031 RMK PP000=
SPZO Mar2005-300300Z VRB03KT 9999 BKN050 11/08 Q1031 RMK PP000=
SPZO Mar2005-300400Z 10002KT 9999 BKN050 10/08 Q1031 RMK PP000=
SPZO Mar2005-300500Z 00000KT 9999 BKN050 10/07 Q1031 RMK PP000=
SPZO Mar2005-300600Z 00000KT 9999 BKN050 10/08 Q1030 RMK PP000=
SPZO Mar2005-300700Z 00000KT 9999 BKN050 10/07 Q1030 RMK PP000=
SPZO Mar2005-300800Z 00000KT 9999 BKN050 10/08 Q1030 RMK PP000=
SPZO Mar2005-300900Z 10003KT 9999 BKN050 10/08 Q1030 RMK PP000=
SPZO Mar2005-301000Z 00000KT 9999 BKN050 10/08 Q1030 RMK PP000=
SPZO Mar2005-301100Z 00000KT 8000 -DZ OVC040 10/08 Q1030 RMK PPTRZ=
SPZO Mar2005-301200Z 28003KT 8000 -DZ VCSH FEW020 SCT033 BKN040 10/08 Q1031 RERA TEMPO BKN033 BKN040 RMK PP020=
SPZO Mar2005-301300Z 00000KT 9999 SCT030 SCT040 BKN060 11/08 Q1032 REDZ NOSIG RMK PP008=
SPZO Mar2005-301400Z VRB01KT 9999 SCT033 14/08 Q1032 NOSIG RMK PP000=
SPZO Mar2005-301500Z 03003KT 340V110 9999 FEW037 SCT040 16/07 Q1032 NOSIG RMK PP000=
SPZO Mar2005-301600Z 00000KT 9999 BKN043 17/04 Q1031 NOSIG RMK PP000=
SPZO Mar2005-301700Z 09003KT 9999 FEW040 BKN043 17/06 Q1030 NOSIG RMK PP000=
SPZO Mar2005-301800Z VRB01KT 9999 FEW040 BKN043 18/06 Q1029 NOSIG RMK PP000=
SPZO Mar2005-301900Z VRB02KT 9999 BKN050 19/05 Q1027 TEMPO VCRA RMNK PP000 RWY10 27007KT=
SPZO Mar2005-302000Z VRB05KT 9999 FEW040TCU BKN050 21/08 Q1026 TEMPO=
SPZO Mar2005-302100Z 29013KT 260V350 9999 FEW043TCU BKN050 17/08 Q1026 TEMPO VCRA RMK PP000 RWY10 31018G33KT=
SPZO Mar2005-302200Z 28012KT 250V350 9999 FEW040TCU BKN050 16/08 Q1027 TEMPO VCRA RMK PP000 RWY10 30017G29KT TMX:21.0=
SPZO Mar2005-302300Z 28010KT 250V350 9999 BKN050 15/08 Q1028 NOSIG RMK PP000 RWY10 31015KT=
SPZO Mar2005-310000Z 28007KT 250V350 9999 OVC050 14/06 Q1029 RMK PP000=
SPZO Mar2005-310100Z VRB03KT 9999 OVC050 12/06 Q1030 RMK PP000=
SPZO Mar2005-310200Z 00000KT 9999 OVC050 13/07 Q1031 RMK PP000=
SPZO Mar2005-310300Z 00000KT 9999 OVC050 12/08 Q1031 RMK PP000=
SPZO Mar2005-310400Z 00000KT 9999 OVC050 11/07 Q1031 RMK PP000=
SPZO Mar2005-310500Z 00000KT 9999 OVC050 11/07 Q1031 RMK PP000=
SPZO Mar2005-310600Z 00000KT 9999 OVC050 11/08 Q1031 RMK PP000=
SPZO Mar2005-310700Z 00000KT 9999 OVC050 11/08 Q1030 RMK PP000=
SPZO Mar2005-310800Z 00000KT 8000 -RA FEW040 BKN050 11/08 Q1030 RMK PPTRZ=
SPZO Mar2005-310900Z 00000KT 6000 RA FEW030 SCT040 BKN050 10/08 Q1030 RMK PP020=
SPZO Mar2005-311000Z 00000KT 6000 RA FEW030 SCT040 BKN050 10/08 Q1030 RMK PP018=
SPZO Mar2005-311100Z 08003KT 7000 RA FEW030 SCT040 BKN050 10/08 Q1031 RMK PP008=
SPZO Mar2005-311200Z 10001KT 9999 -RA FEW025 OVC046 10/08 Q1031 NOSIG RMK PP002=
SPZO Mar2005-311300Z 08002KT 9999 -RA FEW033 OVC050 10/09 Q1032 NOSIG RMK PP008=
SPZO Mar2005-311400Z VRB03KT 9999 DZ FEW036 OVC050 11/09 Q1033 BECMG FM1440 NSW RMK PP002=
SPZO Mar2005-311500Z VRB03KT 9999 REDZ 9999 FEW030 OVC060 12/07 Q1033 NOSIG RMK PPTRZ=
SPZO Mar2005-311600Z VRB03KT 9999 FEW030 SCT043 BKN060 14/09 Q1032 NOSIG RWY10 10005KT=
SPZO Mar2005-311700Z 10006KT 9999 -DZ FEW030 SCT040 BKN050 12/08 Q1032 NOSIG RMK PPTRZ RWY10 10012KT=
SPZO Mar2005-311800Z 09006KT 010V170 9999 REDZ FEW035 SCT040 BKN050 14/07 Q1031 TEMPO VCRA RMK PP002 RA CDTES E-W=
SPZO Mar2005-311900Z VRB01KT 9999 FEW036 BKN046 15/08 Q1029 NOSIG RMK PP000 RWY10 28006KT=
SPZO Mar2005-312000Z VRB02KT 9999 SCT040 SCT150 15/07 Q1028 NOSIG RMK PP000 RWY10 23004KT=
SPZO Mar2005-312100Z VRB03KT 9999 SCT043TCU SCT100 15/06 Q1028 TEMPO=
SPZO Mar2005-312200Z 27010KT 9999 BKN046 14/07 Q1028 NOSIG RMK PP000 RWY10 28014G24KT TMX:17.0=
SPZO Mar2005-312300Z 28009KT 9999 SCT043 SCT100 13/07 Q1028 NOSIG RMK PP000 RWY10 28013KT=
